{"features":[{"geometry":{"coordinates":[[[-1.1377127,52.6753805],[-1.136687,52.6799166],[-1.144117,52.6879412],[-1.157252,52.691523],[-1.1708179,52.683595],[-1.1791726,52.6763441],[-1.1767443,52.6642913],[-1.1852892,52.6606441],[-1.1837544,52.6506484],[-1.1906559,52.6403939],[-1.1987593,52.6414656],[-1.2090049,52.6420918],[-1.2156692,52.6346879],[-1.2054653,52.6288727],[-1.2053954,52.6288165],[-1.2012442,52.6273321],[-1.1887716,52.6229714],[-1.1654986,52.6131026],[-1.1640888,52.6094544],[-1.1707699,52.605939],[-1.1653698,52.6030473],[-1.1679844,52.6014259],[-1.1721253,52.5918258],[-1.159267,52.5912399],[-1.1556063,52.5871531],[-1.1593288,52.581666],[-1.1494958,52.5810241],[-1.1436185,52.5880254],[-1.1264415,52.5929237],[-1.1264768,52.5956794],[-1.1128864,52.5969513],[-1.1036508,52.5959118],[-1.0953683,52.6073921],[-1.0966336,52.6163792],[-1.0932334,52.6161662],[-1.0743302,52.6134418],[-1.0704897,52.6180668],[-1.0552453,52.6248379],[-1.0561832,52.6321929],[-1.0469622,52.6346201],[-1.0509675,52.6439398],[-1.0486128,52.654996],[-1.0589452,52.656426],[-1.0567445,52.6638318],[-1.0644543,52.6647307],[-1.0750788,52.6696256],[-1.0821556,52.6694318],[-1.0978406,52.6700583],[-1.1146523,52.6727075],[-1.1188118,52.6731863],[-1.1290886,52.6653897],[-1.1377127,52.6753805]]],"type":"Polygon"},"id":"E06000016","properties":{"code":"E06000016","geography":"LAD","name":"Leicester"},"type":"Feature"},{"geometry":{"coordinates":[[[[-3.2283959,54.2601893],[-3.2290406,54.259905],[-3.2286957,54.2598539],[-3.2283959,54.2601893]]],[[[-3.2243549,54.26471],[-3.2242758,54.2748464],[-3.22771,54.2609567],[-3.2243549,54.26471]]],[[[-3.1168296,54.9751247],[-3.1181486,54.9748666],[-3.1186195,54.9744654],[-3.1168296,54.9751247]]],[[[-3.102796,54.9778697],[-3.1038982,54.9776541],[-3.0990615,54.9767967],[-3.102796,54.9778697]]],[[[-3.0871671,54.9782072],[-3.0882937,54.9781233],[-3.0884261,54.9778592],[-3.0871671,54.9782072]]],[[[-3.0635363,54.9852572],[-3.063283,54.9853371],[-3.0648908,54.9852548],[-3.0664001,54.9843539],[-3.0635363,54.9852572]]],[[[-2.6616246,55.146365],[-2.6685783,55.147311],[-2.6773244,55.1554876],[-2.6832539,55.1666305],[-2.6745553,55.1758915],[-2.6897892,55.1889832],[-2.7034766,55.1731732],[-2.7326073,55.1672346],[-2.746252,55.1582338],[-2.774928,55.1492896],[-2.7848483,55.1417914],[-2.8127762,55.1361657],[-2.8255026,55.1383141],[-2.8330559,55.1324505],[-2.8276079,55.1248369],[-2.8326203,55.1214697],[-2.8412502,55.1224977],[-2.8381548,55.1170285],[-2.8436673,55.1167308],[-2.8445398,55.111865],[-2.8520944,55.1084875],[-2.8585401,55.1083488],[-2.8707355,55.1063401],[-2.8768725,55.0951989],[-2.8862925,55.0948099],[-2.8823152,55.092949],[-2.8837913,55.0875474],[-2.8933077,55.0878518],[-2.8968792,55.0779496],[-2.9150006,55.0789638],[-2.9220823,55.0721134],[-2.9404291,55.0691282],[-2.9430075,55.0641585],[-2.9364074,55.0595859],[-2.9554234,55.0546207],[-2.9585936,55.0492946],[-3.0275522,55.0552804],[-3.0431713,55.0556607],[-3.0509285,55.0528036],[-3.0534197,55.047284],[-3.0433879,55.0473741],[-3.0401476,55.0411364],[-3.0258756,55.0364867],[-3.0343153,55.029908],[-3.0302378,55.024646],[-3.0401267,55.0226351],[-3.0393166,55.0164206],[-3.0494567,55.009395],[-3.0486661,55.0067814],[-3.044938,55.0076591],[-3.0442011,54.9984389],[-3.0579027,54.9917194],[-3.0534518,54.9928045],[-3.0575559,54.9917211],[-3.0563717,54.9865668],[-3.04689,54.9846942],[-3.0417535,54.9796284],[-3.0510379,54.9849495],[-3.0378722,54.9740576],[-3.0402815,54.9700319],[-3.042372,54.9746779],[-3.0537388,54.9760231],[-3.0492026,54.9772001],[-3.0565984,54.9828264],[-3.060939,54.9772977],[-3.0584174,54.9830658],[-3.0627065,54.9775483],[-3.0640807,54.9802979],[-3.0723351,54.9748819],[-3.0695462,54.9713532],[-3.0756837,54.9675974],[-3.104023,54.9713739],[-3.108506,54.9676701],[-3.0949922,54.9662181],[-3.1086721,54.9659271],[-3.1162689,54.9606623],[-3.1159623,54.9569266],[-3.1033225,54.9545967],[-3.1137219,54.9533337],[-3.1087307,54.9491151],[-3.1159656,54.9523704],[-3.1150583,54.9470676],[-3.1209406,54.9519265],[-3.1311187,54.9476102],[-3.1260059,54.9401421],[-3.1286489,54.9380326],[-3.1206268,54.9405378],[-3.1241191,54.9366331],[-3.1156376,54.9375992],[-3.129785,54.9344049],[-3.110121,54.9333918],[-3.0947369,54.9379321],[-3.1006308,54.9393014],[-3.0828431,54.9399753],[-3.0716959,54.9464222],[-3.0746615,54.9486788],[-3.068571,54.9489175],[-3.076949,54.9521264],[-3.0665078,54.9486543],[-3.0549878,54.9536373],[-3.0565159,54.9509388],[-3.0500408,54.9524373],[-3.0557835,54.9503988],[-3.0442256,54.9474836],[-3.0425171,54.9493963],[-3.0400303,54.9460889],[-3.0080338,54.9470415],[-3.0008011,54.9375736],[-2.9998119,54.937243],[-2.9958623,54.9359229],[-3.0063874,54.9308863],[-3.0045476,54.9342484],[-3.0026078,54.9377924],[-3.0096078,54.9461801],[-3.0207735,54.9460213],[-3.0249471,54.9459616],[-3.0406379,54.9457362],[-3.040759,54.9457345],[-3.0416104,54.9457222],[-3.0469615,54.9456448],[-3.0521734,54.9429209],[-3.050193,54.9459989],[-3.0629025,54.9452746],[-3.0728885,54.9371519],[-3.0972061,54.9319633],[-3.1018859,54.9296844],[-3.1042968,54.9285102],[-3.1002015,54.9283784],[-3.1181023,54.9277558],[-3.1188704,54.9253493],[-3.1195645,54.9261068],[-3.1197257,54.9262827],[-3.1217188,54.9284576],[-3.1379641,54.9274627],[-3.1443841,54.9292913],[-3.155156,54.9323582],[-3.1570408,54.9378258],[-3.1766532,54.9418155],[-3.1860012,54.949934],[-3.2043922,54.9538753],[-3.2322019,54.95322],[-3.2478673,54.9444103],[-3.2504122,54.9442212],[-3.2649286,54.943142],[-3.2689383,54.9370735],[-3.2653373,54.9430343],[-3.2833065,54.9421233],[-3.3020388,54.9277036],[-3.3134758,54.9188931],[-3.3136951,54.914895],[-3.30314,54.9091591],[-3.2745783,54.9030913],[-3.2622336,54.908043],[-3.2494491,54.9131686],[-3.2485301,54.9135369],[-3.2476325,54.9138967],[-3.2336724,54.9113699],[-3.2212335,54.9023822],[-3.2145182,54.9054386],[-3.2113495,54.904423],[-3.2097134,54.9038985],[-3.2215793,54.9018018],[-3.2326997,54.909082],[-3.2447439,54.9103756],[-3.2412081,54.9066893],[-3.249385,54.9110974],[-3.2506525,54.9117806],[-3.2553751,54.9100999],[-3.254808,54.9053094],[-3.2491148,54.9023752],[-3.2485715,54.9020952],[-3.249088,54.9015094],[-3.2526071,54.8975179],[-3.2516274,54.9029337],[-3.2554334,54.9010989],[-3.2534052,54.8954482],[-3.2573712,54.8977248],[-3.2577514,54.8944164],[-3.2608683,54.8954634],[-3.2645448,54.8920209],[-3.2590697,54.8922405],[-3.2664166,54.8900602],[-3.259975,54.8905244],[-3.2661651,54.88567],[-3.2629963,54.8884746],[-3.2680113,54.8881653],[-3.2664104,54.8916995],[-3.273377,54.8872652],[-3.2724575,54.8910827],[-3.2771698,54.8855871],[-3.2753386,54.8905869],[-3.2779442,54.8863132],[-3.2776975,54.8910713],[-3.2751335,54.8917403],[-3.2880474,54.8926061],[-3.279976,54.8840171],[-3.2866198,54.8884188],[-3.2811474,54.8832049],[-3.2836348,54.8803468],[-3.2777961,54.8777914],[-3.283561,54.8693502],[-3.2793595,54.869976],[-3.2845776,54.8672122],[-3.2842458,54.8664971],[-3.2835284,54.8649509],[-3.2819349,54.8615162],[-3.2870866,54.8673204],[-3.285651,54.8696452],[-3.2819306,54.8756682],[-3.2836284,54.8766745],[-3.2896004,54.8802135],[-3.2858114,54.8753271],[-3.2944776,54.8787579],[-3.2885724,54.8723266],[-3.3022036,54.8851306],[-3.3077279,54.88353],[-3.3087806,54.8874397],[-3.3091632,54.8851052],[-3.3115201,54.8882666],[-3.3195198,54.8868013],[-3.3209825,54.8896703],[-3.3265003,54.8865482],[-3.3224684,54.889628],[-3.3274621,54.8909815],[-3.3296497,54.8915744],[-3.3295037,54.8910824],[-3.3283573,54.887219],[-3.3326185,54.888702],[-3.3308419,54.8906114],[-3.3334246,54.8893617],[-3.3397576,54.8962696],[-3.3445483,54.8945028],[-3.3448018,54.8944847],[-3.3457063,54.8913544],[-3.3473074,54.8913995],[-3.3486648,54.8895124],[-3.3417182,54.8890169],[-3.3417102,54.8869707],[-3.3487066,54.8890392],[-3.3497737,54.8935803],[-3.3547713,54.8909867],[-3.3482744,54.887953],[-3.3530902,54.8898173],[-3.3525296,54.8868632],[-3.357608,54.8918501],[-3.3369453,54.8981099],[-3.3351322,54.898659],[-3.3356898,54.8988955],[-3.3388445,54.900234],[-3.3669878,54.8914699],[-3.3793909,54.8824616],[-3.3865819,54.875578],[-3.3961124,54.8703085],[-3.3970939,54.8695949],[-3.3948043,54.8683288],[-3.3947247,54.8682902],[-3.3941512,54.8680874],[-3.3944507,54.8681572],[-3.3943015,54.8680848],[-3.3947478,54.8681403],[-3.3988699,54.8685058],[-3.4102584,54.8398687],[-3.4103115,54.839735],[-3.4378547,54.8016273],[-3.4315427,54.7811037],[-3.4333164,54.7662265],[-3.4381409,54.7606205],[-3.4454118,54.7521685],[-3.4464054,54.7515837],[-3.4555244,54.7462158],[-3.4789887,54.732394],[-3.480376,54.7317671],[-3.4935718,54.7258027],[-3.5011326,54.7171523],[-3.5071287,54.7176217],[-3.5010651,54.715326],[-3.5081699,54.7171775],[-3.5105593,54.7139339],[-3.5116788,54.7078393],[-3.5119589,54.7063145],[-3.5189811,54.6929755],[-3.5332245,54.6820876],[-3.5332702,54.6820526],[-3.5334995,54.6818773],[-3.5507853,54.6695842],[-3.5520451,54.6684585],[-3.5717434,54.6508463],[-3.5634116,54.6481486],[-3.5639238,54.6480596],[-3.5644871,54.6479617],[-3.5572149,54.6462542],[-3.5625161,54.646399],[-3.5780765,54.6517056],[-3.5777329,54.6469499],[-3.5745953,54.6393401],[-3.5745783,54.6392691],[-3.5744821,54.6388659],[-3.5720581,54.628703],[-3.5690603,54.6161273],[-3.5658908,54.6122244],[-3.5659555,54.6122307],[-3.5713312,54.6126465],[-3.5725948,54.6006971],[-3.5828108,54.5908654],[-3.5808116,54.5751992],[-3.580519,54.5751771],[-3.5807147,54.5744393],[-3.5803913,54.5719034],[-3.5841187,54.5648487],[-3.5842813,54.5645409],[-3.5843024,54.564501],[-3.5844684,54.5641868],[-3.591548,54.5522717],[-3.5915926,54.5521968],[-3.5941417,54.5525757],[-3.5943951,54.5525165],[-3.5922179,54.5520554],[-3.5898497,54.5519105],[-3.5910541,54.5506829],[-3.5934871,54.5482029],[-3.5975674,54.5517756],[-3.5992433,54.5513426],[-3.5999929,54.5479633],[-3.6062566,54.5327679],[-3.6075643,54.5313921],[-3.6076314,54.5312241],[-3.6080426,54.5308888],[-3.6136057,54.5250345],[-3.6148227,54.5246108],[-3.6262601,54.5206276],[-3.6388036,54.5174057],[-3.6388427,54.5172068],[-3.6361358,54.5078076],[-3.6351021,54.506689],[-3.6269875,54.5019818],[-3.6195721,54.4909065],[-3.6080039,54.4909567],[-3.5929852,54.4821171],[-3.5786396,54.4656998],[-3.5778501,54.464796],[-3.5592871,54.4507536],[-3.543341,54.4386807],[-3.5014505,54.4069209],[-3.501025,54.4066482],[-3.4994737,54.4056539],[-3.4765582,54.3864528],[-3.4765049,54.3864081],[-3.4755388,54.3830398],[-3.4733746,54.375492],[-3.4352853,54.3433826],[-3.4268103,54.3430651],[-3.4173747,54.3489234],[-3.417509,54.353264],[-3.4298617,54.3557527],[-3.4226466,54.3596651],[-3.4120324,54.3577243],[-3.4154427,54.3634521],[-3.4045264,54.3620199],[-3.4042269,54.3619806],[-3.4049991,54.3616253],[-3.4084206,54.3600514],[-3.4115018,54.357283],[-3.4043917,54.3379381],[-3.4118502,54.3380398],[-3.4100391,54.350354],[-3.4225339,54.3397739],[-3.4248845,54.328707],[-3.4157423,54.3035877],[-3.4227306,54.2928558],[-3.41724,54.2810691],[-3.3942157,54.2544402],[-3.3648957,54.2317526],[-3.3417697,54.2082664],[-3.3300379,54.1963398],[-3.3143058,54.1885624],[-3.290586,54.1907154],[-3.2877541,54.1970319],[-3.2777411,54.1939531],[-3.2776664,54.1939214],[-3.2686942,54.1901254],[-3.2539811,54.1916384],[-3.2392605,54.2031264],[-3.2493083,54.2092601],[-3.249791,54.2095547],[-3.2514667,54.2158316],[-3.2563183,54.2147511],[-3.25501,54.2170693],[-3.2539514,54.2191591],[-3.2514826,54.2281612],[-3.2509937,54.2198623],[-3.247541,54.2269716],[-3.2462934,54.223392],[-3.2443834,54.2262164],[-3.2432918,54.2252845],[-3.237629,54.2277587],[-3.2457623,54.2318274],[-3.2363685,54.2278759],[-3.2376521,54.2255555],[-3.2331232,54.228772],[-3.2434406,54.2340526],[-3.2354676,54.2314004],[-3.2383173,54.2336298],[-3.2367396,54.2362273],[-3.2343887,54.2323129],[-3.2300341,54.2409491],[-3.2299869,54.2367369],[-3.2289408,54.2374786],[-3.225638,54.23982],[-3.2239205,54.2472094],[-3.2293075,54.2497944],[-3.2229071,54.2515996],[-3.2295166,54.2568168],[-3.2337033,54.2601207],[-3.2328346,54.2617471],[-3.2321583,54.2600511],[-3.2296853,54.2624825],[-3.2281027,54.2640382],[-3.2245498,54.2755786],[-3.2278066,54.2776756],[-3.2255404,54.2772577],[-3.2381663,54.2940173],[-3.2309223,54.3146799],[-3.239507,54.31721],[-3.2418695,54.3235267],[-3.2184069,54.3360252],[-3.2185646,54.344996],[-3.207085,54.3529577],[-3.1945992,54.354351],[-3.1891362,54.3682749],[-3.1809648,54.3753621],[-3.1815286,54.3848522],[-3.1725202,54.3890483],[-3.1707579,54.3997303],[-3.1593255,54.4071682],[-3.1152615,54.4150208],[-3.1149337,54.4219904],[-3.1239962,54.4275066],[-3.1287354,54.4215325],[-3.1359781,54.4218835],[-3.1570183,54.4302813],[-3.1585919,54.4421775],[-3.1611164,54.447037],[-3.1662787,54.4477666],[-3.1671393,54.4541107],[-3.1538251,54.4601541],[-3.145558,54.4684437],[-3.1364441,54.470746],[-3.132213,54.4645439],[-3.1194257,54.4602376],[-3.1125731,54.4614908],[-3.1157044,54.466583],[-3.109479,54.4740037],[-3.0977531,54.4719034],[-3.0882652,54.4839641],[-3.0762144,54.4893655],[-3.0619855,54.4925227],[-3.0508017,54.4912651],[-3.048304,54.4962784],[-3.0148342,54.4998131],[-3.0113361,54.5071875],[-3.0169555,54.5148649],[-3.0152969,54.5255333],[-3.0257844,54.5303069],[-3.0250642,54.5410304],[-3.0166648,54.5479316],[-3.0203863,54.5589097],[-3.0167257,54.5615693],[-3.0288223,54.5669089],[-3.0182889,54.5749562],[-3.0270257,54.5745004],[-3.0370508,54.5809262],[-3.0074352,54.5952684],[-3.0227271,54.6026759],[-3.0343321,54.6027705],[-3.0391857,54.6123473],[-3.0444454,54.6142147],[-3.0680659,54.6141375],[-3.0777592,54.6105857],[-3.0869652,54.6127021],[-3.0924035,54.617236],[-3.0929935,54.654171],[-3.0866526,54.6635568],[-3.07996,54.6650528],[-3.0546044,54.6797572],[-3.070429,54.6849344],[-3.087191,54.686092],[-3.0819202,54.6952538],[-3.0637985,54.7000821],[-3.0337,54.6943203],[-2.9957687,54.6945283],[-2.9912305,54.7128451],[-2.9829989,54.719381],[-2.9896133,54.7277668],[-2.9966145,54.7336337],[-3.0119833,54.7347591],[-3.0215117,54.7401405],[-3.0261403,54.7479408],[-3.0008822,54.7553011],[-2.9977715,54.7620659],[-2.9929616,54.7602209],[-2.9857257,54.7660288],[-2.9886058,54.7700468],[-2.984432,54.7761596],[-2.9693469,54.7771437],[-2.9675735,54.7798953],[-2.962075,54.7786225],[-2.9447837,54.7840436],[-2.9311716,54.7921578],[-2.9348356,54.7929574],[-2.9197153,54.8059851],[-2.9210815,54.8092073],[-2.9044142,54.8130191],[-2.9073871,54.8218877],[-2.8814642,54.8234462],[-2.8720087,54.828561],[-2.8730588,54.8331441],[-2.8630807,54.8372316],[-2.8557348,54.833401],[-2.8382732,54.8341699],[-2.8294108,54.8254759],[-2.8177692,54.8275373],[-2.799378,54.8187182],[-2.7830518,54.8222854],[-2.7731988,54.8205234],[-2.7670091,54.8233054],[-2.7564278,54.8228578],[-2.754872,54.8270607],[-2.74362,54.8278464],[-2.7292067,54.818656],[-2.7145399,54.8199412],[-2.7056626,54.8163626],[-2.689793,54.8191912],[-2.7012245,54.8336049],[-2.68632,54.8379481],[-2.6801367,54.8353174],[-2.6689712,54.8450419],[-2.65777,54.8494526],[-2.655339,54.8547425],[-2.6037451,54.8533225],[-2.582671,54.8458668],[-2.5733523,54.8535462],[-2.5902472,54.8737837],[-2.605454,54.8843058],[-2.576414,54.8967171],[-2.5675654,54.9090026],[-2.5662213,54.9192381],[-2.5571918,54.9215209],[-2.5594056,54.9244313],[-2.5462487,54.9271556],[-2.5460834,54.9305046],[-2.5515429,54.9295353],[-2.5676495,54.940856],[-2.5712854,54.9483704],[-2.5684265,54.9582911],[-2.595569,54.9634809],[-2.6014293,54.9713402],[-2.6003455,54.9736622],[-2.5915918,54.9741508],[-2.5866296,54.9820342],[-2.5792372,54.9828928],[-2.5733108,54.9876378],[-2.5677137,55.0027474],[-2.5741809,55.0037001],[-2.5702419,55.0065061],[-2.5736534,55.0067264],[-2.5731868,55.0161147],[-2.5650422,55.0201111],[-2.5526194,55.0210417],[-2.5395724,55.0288769],[-2.527622,55.0291],[-2.5269121,55.0329402],[-2.5125623,55.0337941],[-2.510168,55.0363472],[-2.5044784,55.0331908],[-2.505666,55.036748],[-2.4830499,55.0400191],[-2.4829565,55.0437011],[-2.4943416,55.0507148],[-2.4907523,55.054526],[-2.4954456,55.0533318],[-2.5020206,55.0577257],[-2.5000276,55.0621164],[-2.5039849,55.0624299],[-2.4921999,55.0681537],[-2.5012343,55.0752248],[-2.4947333,55.081822],[-2.4866387,55.0811024],[-2.4863412,55.0830455],[-2.5037071,55.0907504],[-2.5164676,55.0891154],[-2.5180948,55.084957],[-2.5569473,55.0810391],[-2.5627931,55.0843757],[-2.5582948,55.0888104],[-2.5667057,55.091966],[-2.568426,55.0962614],[-2.5794088,55.0961351],[-2.583326,55.0990251],[-2.5854931,55.1030818],[-2.5935586,55.1051202],[-2.5934364,55.1128326],[-2.600471,55.1171618],[-2.5989028,55.1245757],[-2.6212731,55.1292164],[-2.6326388,55.127757],[-2.6569394,55.1361318],[-2.6616246,55.146365]]]],"type":"MultiPolygon"},"id":"E06000063","properties":{"code":"E06000063","geography":"LAD","name":"Cumberland"},"type":"Feature"},{"geometry":{"coordinates":[[[-0.7741841,54.5532527],[-0.774536,54.5573995],[-0.793342,54.5583086],[-0.7987872,54.5556178],[-0.8004192,54.5510109],[-0.8156763,54.5525075],[-0.8270815,54.5485187],[-0.8486473,54.5300038],[-0.8533211,54.5027138],[-0.8441391,54.4895498],[-0.8669788,54.489241],[-0.8757812,54.4911646],[-0.880825,54.4970469],[-0.8942126,54.4969121],[-0.9529516,54.4880355],[-0.9678287,54.4972685],[-1.0034011,54.5030121],[-1.0238003,54.5020451],[-1.0368515,54.4940441],[-1.0679266,54.5004482],[-1.094737,54.5066956],[-1.1117828,54.504374],[-1.11838,54.4981986],[-1.1461969,54.5028216],[-1.1743915,54.5028943],[-1.1850938,54.5072853],[-1.195485,54.5066324],[-1.2072888,54.5081455],[-1.2201363,54.5109411],[-1.2348659,54.510316],[-1.2343801,54.5061421],[-1.2423208,54.501658],[-1.2566747,54.5011079],[-1.2532624,54.4977825],[-1.2574031,54.4873218],[-1.2810932,54.4905672],[-1.289592,54.4879865],[-1.2867101,54.4827346],[-1.2915907,54.4834453],[-1.3004305,54.475822],[-1.3032775,54.4783968],[-1.313116,54.4772772],[-1.3183415,54.4720886],[-1.343629,54.4641554],[-1.344915,54.472408],[-1.3564905,54.4729259],[-1.3644171,54.4659524],[-1.3725616,54.4723075],[-1.37478,54.4824672],[-1.3707863,54.4856462],[-1.3810106,54.4940289],[-1.3830651,54.4872865],[-1.39505,54.48568],[-1.3992153,54.4928922],[-1.4070888,54.4935296],[-1.4127864,54.4771954],[-1.4321178,54.4794546],[-1.4265832,54.4847794],[-1.4349053,54.4874932],[-1.457798,54.5036479],[-1.4673527,54.5025273],[-1.4755593,54.4981083],[-1.4622414,54.4962938],[-1.4584735,54.4928394],[-1.4618275,54.4859514],[-1.4575972,54.4813623],[-1.4638528,54.473758],[-1.4539133,54.4661554],[-1.4627462,54.4611151],[-1.4547246,54.4536017],[-1.4617316,54.4511496],[-1.4720522,54.4555996],[-1.4676192,54.4621505],[-1.4753728,54.4738452],[-1.4990523,54.4756782],[-1.4915222,54.4860915],[-1.5052471,54.4824198],[-1.5113408,54.4750123],[-1.5141319,54.4837751],[-1.528837,54.4848137],[-1.5301508,54.4757509],[-1.5196937,54.4711152],[-1.5327198,54.4691491],[-1.5456727,54.4712385],[-1.5551952,54.4849782],[-1.5733039,54.4901596],[-1.5829803,54.4971007],[-1.5792149,54.5051877],[-1.5916228,54.5040043],[-1.5843246,54.5079706],[-1.5795272,54.5116271],[-1.6027,54.5105369],[-1.6006233,54.5170978],[-1.6095205,54.5199082],[-1.6334444,54.5141123],[-1.6404985,54.5171891],[-1.6329311,54.5187043],[-1.6337738,54.5253644],[-1.6546752,54.5246501],[-1.6579372,54.5345889],[-1.6822591,54.5333394],[-1.6969264,54.5360064],[-1.7213109,54.5423017],[-1.727305,54.5304851],[-1.7330914,54.5277364],[-1.7612135,54.5289515],[-1.769724,54.5328449],[-1.7796965,54.531873],[-1.7761323,54.5067285],[-1.7821753,54.5070127],[-1.7871772,54.501039],[-1.7929765,54.4844924],[-1.8224434,54.4951777],[-1.8364727,54.5080216],[-1.8578005,54.5035398],[-1.85913,54.4818579],[-1.8672551,54.4821169],[-1.8776032,54.4780496],[-1.8934303,54.4668983],[-1.9425432,54.4533954],[-1.9700596,54.4515215],[-1.9761253,54.4597288],[-1.9855394,54.4599253],[-1.9967644,54.4669034],[-2.0447295,54.4751863],[-2.0431984,54.4835994],[-2.0612893,54.4805576],[-2.0863966,54.4683929],[-2.1165962,54.4622635],[-2.1501207,54.4599635],[-2.1592676,54.4554835],[-2.170213,54.4581988],[-2.1705785,54.4611414],[-2.1775085,54.4616257],[-2.1893155,54.4489785],[-2.2356174,54.4482311],[-2.2495392,54.4519434],[-2.2679029,54.4472336],[-2.2653784,54.4429263],[-2.2713478,54.4409162],[-2.2928652,54.4393075],[-2.2918535,54.4314625],[-2.3033733,54.4262765],[-2.3081459,54.4197938],[-2.305445,54.3970864],[-2.2917034,54.3906297],[-2.2974404,54.3768988],[-2.3170426,54.3763105],[-2.3260923,54.3680956],[-2.3446479,54.3596285],[-2.3607491,54.3549476],[-2.3677122,54.3560706],[-2.3357676,54.3404348],[-2.3347492,54.3349447],[-2.3202021,54.3317508],[-2.3098414,54.324315],[-2.3149776,54.3135864],[-2.3230323,54.3110828],[-2.3204012,54.3067706],[-2.3245225,54.3031836],[-2.3203903,54.2990445],[-2.324172,54.2936052],[-2.3171918,54.2871657],[-2.3258918,54.2796929],[-2.3155142,54.2702849],[-2.3190963,54.2571558],[-2.3256466,54.2414383],[-2.3376575,54.2375991],[-2.3480524,54.2378067],[-2.3623171,54.2497526],[-2.3723252,54.2482346],[-2.3730206,54.2400989],[-2.3967797,54.2393811],[-2.4056319,54.2249152],[-2.4119705,54.2266866],[-2.4354276,54.222877],[-2.4414182,54.2257392],[-2.4608627,54.2267161],[-2.473699,54.215282],[-2.4799401,54.202329],[-2.528759,54.1694841],[-2.533979,54.1576927],[-2.5436833,54.1575953],[-2.5473232,54.1533185],[-2.5605045,54.1530521],[-2.5578739,54.1433642],[-2.5634103,54.1404057],[-2.5634812,54.1246776],[-2.5447643,54.1171303],[-2.5458356,54.1143672],[-2.5362006,54.1086262],[-2.5367663,54.1040993],[-2.5241088,54.1021294],[-2.5240097,54.0946225],[-2.509526,54.0954253],[-2.5063052,54.0914746],[-2.4807512,54.085379],[-2.4707242,54.0765642],[-2.4643474,54.0752794],[-2.4695498,54.0462122],[-2.4587749,54.0404955],[-2.432734,54.0415934],[-2.4258265,54.0380949],[-2.374073,54.0490891],[-2.3619995,54.0406697],[-2.3573233,54.0191171],[-2.3436035,54.0173271],[-2.3395643,54.0093207],[-2.3407937,54.0074897],[-2.3502532,54.012183],[-2.3522849,54.0105533],[-2.3521765,53.9946124],[-2.3399993,53.9894769],[-2.3191773,53.9938205],[-2.2968775,53.9805827],[-2.2989487,53.9765461],[-2.29455,53.9744667],[-2.2845954,53.9737892],[-2.2345724,53.9818564],[-2.2211122,53.9779017],[-2.2320992,53.971216],[-2.2259221,53.9672774],[-2.2256738,53.9611195],[-2.2144884,53.965107],[-2.2096388,53.9628992],[-2.2006354,53.9701263],[-2.1960184,53.9695758],[-2.1844642,53.9522114],[-2.1794668,53.9459858],[-2.1854878,53.9418872],[-2.1822628,53.9354109],[-2.1759265,53.9342688],[-2.171605,53.9376592],[-2.164266,53.9347043],[-2.1628768,53.9272699],[-2.1517165,53.929484],[-2.1494334,53.9260284],[-2.1417983,53.9256746],[-2.1399784,53.9283255],[-2.1322241,53.9265089],[-2.1243503,53.9232007],[-2.1217582,53.9173308],[-2.113093,53.9154393],[-2.1074667,53.908043],[-2.113176,53.9046116],[-2.1034169,53.8918928],[-2.0824577,53.8775545],[-2.089915,53.868182],[-2.081191,53.8699714],[-2.0748495,53.8623673],[-2.0461303,53.8501412],[-2.0317085,53.8585936],[-2.0216307,53.8714971],[-2.0134846,53.8697375],[-1.9994554,53.8720652],[-1.9876533,53.867737],[-1.9770241,53.8755351],[-1.9769799,53.8756007],[-1.9811699,53.8969932],[-1.9793494,53.9011796],[-1.9696798,53.9034596],[-1.9524171,53.9035275],[-1.9532293,53.9117115],[-1.9768672,53.9264178],[-1.9719218,53.9299804],[-1.9658895,53.9278874],[-1.9680186,53.9318247],[-1.9630765,53.9334042],[-1.9705267,53.9433331],[-1.9622895,53.9432078],[-1.9650489,53.9482354],[-1.9661753,53.9515613],[-1.949362,53.9530123],[-1.950658,53.9566696],[-1.9279798,53.9504588],[-1.9227698,53.9556344],[-1.9062736,53.9583783],[-1.8931382,53.9553835],[-1.882242,53.963137],[-1.8787234,53.962392],[-1.8788481,53.9542479],[-1.8744047,53.9452956],[-1.8621012,53.9405486],[-1.8595024,53.932475],[-1.836167,53.9314114],[-1.8487805,53.9360227],[-1.8477311,53.9408007],[-1.830125,53.9403835],[-1.8302,53.9380172],[-1.8050892,53.9390227],[-1.8028628,53.9359569],[-1.7975126,53.9364948],[-1.798028,53.9297153],[-1.7823553,53.9294432],[-1.7775362,53.9229212],[-1.7722802,53.9208874],[-1.7654253,53.9247229],[-1.7555061,53.9210415],[-1.745626,53.9230038],[-1.7421635,53.9145803],[-1.7272173,53.9101672],[-1.7221353,53.9118585],[-1.7179699,53.908531],[-1.7164442,53.9176128],[-1.7061125,53.9170707],[-1.7070831,53.9191313],[-1.6870196,53.9163889],[-1.6891711,53.9126456],[-1.6846272,53.9105881],[-1.655083,53.9124843],[-1.6520631,53.9056999],[-1.6421222,53.907432],[-1.6206592,53.903387],[-1.5998394,53.9097218],[-1.5992617,53.903955],[-1.5866662,53.9013034],[-1.5842957,53.9090219],[-1.5686892,53.9109122],[-1.5628831,53.9039301],[-1.5525768,53.9030079],[-1.5494169,53.9106996],[-1.5285963,53.9086991],[-1.4946717,53.9153375],[-1.4860267,53.9109121],[-1.467414,53.9107574],[-1.4633871,53.9059213],[-1.4511918,53.9070529],[-1.4405008,53.9138646],[-1.4324348,53.9112025],[-1.4335529,53.9263549],[-1.4301689,53.9287216],[-1.4067096,53.9278497],[-1.4106291,53.9301554],[-1.4091971,53.9354656],[-1.400658,53.9375004],[-1.3971825,53.9425352],[-1.3619532,53.9414835],[-1.3404052,53.9458882],[-1.344706,53.939499],[-1.339501,53.9407835],[-1.3069267,53.934422],[-1.3088946,53.9240398],[-1.3003829,53.929377],[-1.2941151,53.9270315],[-1.3038318,53.9251007],[-1.3073558,53.9211502],[-1.2972029,53.9216378],[-1.3004531,53.9075195],[-1.313719,53.9047124],[-1.321142,53.9034569],[-1.3222515,53.9004265],[-1.3177309,53.8963492],[-1.3208044,53.883788],[-1.315607,53.8816823],[-1.3196931,53.8789579],[-1.3126028,53.865317],[-1.3529699,53.8567508],[-1.3384291,53.8517443],[-1.3421379,53.8451728],[-1.3265571,53.8404234],[-1.3252087,53.8353464],[-1.3360967,53.8335898],[-1.3096735,53.822895],[-1.3103984,53.8199178],[-1.3036235,53.816536],[-1.3124349,53.8143756],[-1.3148721,53.8095574],[-1.3138105,53.7815557],[-1.3038019,53.7751229],[-1.3067875,53.7730441],[-1.2963622,53.7718627],[-1.2904154,53.7630787],[-1.2967492,53.7589536],[-1.294942,53.7554628],[-1.3122388,53.7558885],[-1.3153568,53.7436807],[-1.3019672,53.7416722],[-1.2837641,53.7320122],[-1.2719614,53.7249242],[-1.2685171,53.7149092],[-1.247988,53.7117253],[-1.2294081,53.71489],[-1.2263288,53.7098678],[-1.2198119,53.714419],[-1.2184429,53.7070956],[-1.1987665,53.7007146],[-1.1990607,53.6948947],[-1.244428,53.692469],[-1.2439576,53.6732504],[-1.2523193,53.666656],[-1.2469604,53.6556145],[-1.2487765,53.6496307],[-1.2552165,53.6489626],[-1.253662,53.6411994],[-1.2428879,53.6346157],[-1.2328443,53.6211122],[-1.2174685,53.6242243],[-1.2193872,53.6366875],[-1.2156472,53.6419827],[-1.2108924,53.6409563],[-1.2098272,53.6431641],[-1.1892465,53.635917],[-1.1550903,53.6431985],[-1.1349122,53.6326981],[-1.1290327,53.6346686],[-1.1289405,53.6430168],[-1.1216181,53.6467499],[-1.0847972,53.6517244],[-1.0661388,53.6488549],[-1.0532775,53.6515369],[-1.0486626,53.6560575],[-1.06023,53.6592686],[-1.0711901,53.6579051],[-1.0710603,53.6600217],[-1.0856392,53.6623935],[-1.0913914,53.6686246],[-1.1033593,53.6694993],[-1.101763,53.6743738],[-1.0810598,53.6845261],[-1.085018,53.6869588],[-1.0787071,53.694078],[-1.0749141,53.7039428],[-1.069535,53.7028045],[-1.0624755,53.7068792],[-1.0540334,53.7014342],[-1.0536227,53.6968513],[-1.0457582,53.6986226],[-1.0390832,53.6938952],[-1.0224036,53.6980363],[-1.0068234,53.6953006],[-1.0002165,53.6989004],[-0.9801325,53.69697],[-0.9805468,53.7049832],[-0.9678655,53.7067213],[-0.9700981,53.7022138],[-0.9626499,53.7007959],[-0.9576732,53.7050538],[-0.9612727,53.7076962],[-0.9577148,53.7148355],[-0.9440838,53.7125257],[-0.9233991,53.7186813],[-0.9052492,53.7170483],[-0.9066795,53.7271708],[-0.9115575,53.728212],[-0.9119111,53.7329522],[-0.9365116,53.7319775],[-0.9610629,53.7360785],[-0.9631309,53.7464585],[-0.9735935,53.749857],[-0.9515789,53.753769],[-0.9320932,53.7621902],[-0.9283541,53.7702959],[-0.9366863,53.7798718],[-0.9280466,53.797158],[-0.934499,53.8017772],[-0.9200863,53.8159768],[-0.9405581,53.8234514],[-0.9456272,53.84665],[-0.9419969,53.8548127],[-0.9449335,53.8575258],[-0.9481231,53.861918],[-0.9389205,53.8678463],[-0.9405879,53.8742012],[-0.9251059,53.8779321],[-0.9234033,53.8807196],[-0.9267738,53.8825674],[-0.9349389,53.8800047],[-0.9384486,53.8874888],[-0.9439813,53.8880584],[-0.9480249,53.8848767],[-0.9676727,53.8828496],[-0.9928031,53.8751917],[-1.0081857,53.8899358],[-1.021543,53.8883716],[-1.0649868,53.8746107],[-1.0775522,53.8835334],[-1.0955867,53.8844175],[-1.1003986,53.8765596],[-1.1052705,53.8756723],[-1.1249842,53.8826761],[-1.136776,53.8959261],[-1.1435609,53.8924902],[-1.1543956,53.8959285],[-1.1648927,53.9105914],[-1.1706288,53.9088132],[-1.1793224,53.9168832],[-1.1859149,53.9160111],[-1.1911783,53.9226347],[-1.1955692,53.9224143],[-1.2237055,53.9748292],[-1.2165969,53.9856125],[-1.2001626,53.9890091],[-1.1920885,53.9842016],[-1.1821032,53.9853453],[-1.1832828,53.9962161],[-1.1919354,54.0005194],[-1.1885699,54.0024831],[-1.1795148,53.9988607],[-1.17551,54.0021966],[-1.1519125,53.9891781],[-1.1369982,53.9910826],[-1.1490907,54.0029474],[-1.1428756,54.0107882],[-1.1480381,54.015624],[-1.1423246,54.0189671],[-1.1448137,54.0255095],[-1.1407966,54.0298588],[-1.1201762,54.0290264],[-1.1148681,54.0358095],[-1.099781,54.0376892],[-1.1010771,54.0409641],[-1.0961069,54.040455],[-1.094278,54.0466258],[-1.0621707,54.0501378],[-1.0587338,54.0478451],[-1.0597122,54.0566069],[-1.0143774,54.0493218],[-1.0020847,54.0552631],[-0.9932549,54.0422277],[-0.9823098,54.039482],[-0.9822425,54.0309037],[-0.973583,54.0293691],[-0.9706877,54.0230836],[-0.9668636,54.0229666],[-0.9793647,54.0174202],[-0.9768851,54.0157617],[-0.9826176,54.0100778],[-0.9793296,54.0053575],[-0.9847072,54.0025472],[-0.9753663,54.0047316],[-0.9719194,53.9967102],[-0.9790568,53.9959707],[-0.9812496,53.9911542],[-0.995818,53.9839811],[-0.9846575,53.9815479],[-0.967045,53.9859188],[-0.9576856,53.983956],[-0.9443621,53.9891283],[-0.925295,53.9915184],[-0.9128768,53.9921321],[-0.9085824,53.9969187],[-0.8935349,53.9997681],[-0.8885553,54.0095145],[-0.8776688,54.013557],[-0.8784271,54.0171996],[-0.8597207,54.0163948],[-0.8430297,54.021611],[-0.8203661,54.0208734],[-0.7989881,54.0240907],[-0.7992476,54.0190518],[-0.7342573,54.0302588],[-0.7304893,54.0127008],[-0.7107461,54.0111713],[-0.7049024,54.0060724],[-0.6817985,54.0103553],[-0.6784159,54.0182388],[-0.6884837,54.0240107],[-0.6798686,54.0366735],[-0.6594843,54.0371698],[-0.6580177,54.0436448],[-0.644654,54.0551131],[-0.6603169,54.0631001],[-0.6155234,54.0704937],[-0.5910046,54.087062],[-0.5664665,54.0903056],[-0.5631372,54.0939995],[-0.5418163,54.0915285],[-0.5340309,54.0871798],[-0.5279277,54.0893389],[-0.5246123,54.0854747],[-0.4968894,54.0972318],[-0.4659425,54.107633],[-0.4683254,54.1112505],[-0.4543511,54.1167625],[-0.4585397,54.1259736],[-0.4270939,54.1374426],[-0.4326594,54.1575207],[-0.4331686,54.1640727],[-0.4229266,54.1663147],[-0.4245567,54.1695755],[-0.4181088,54.1712203],[-0.4184278,54.1740253],[-0.3907836,54.1765311],[-0.374526,54.162564],[-0.3749274,54.1541132],[-0.3600375,54.1531203],[-0.3463972,54.1468729],[-0.3238419,54.1502969],[-0.322653,54.1452764],[-0.3137654,54.1464027],[-0.304083,54.1362705],[-0.2905656,54.1397558],[-0.2690688,54.1383333],[-0.2654198,54.1405585],[-0.2372247,54.1372494],[-0.2297466,54.1324404],[-0.2290661,54.1357275],[-0.2216915,54.137973],[-0.2126045,54.157607],[-0.2328524,54.1618272],[-0.2632547,54.1759538],[-0.2644527,54.1765101],[-0.2721919,54.1843656],[-0.2745123,54.1859742],[-0.2745304,54.1860092],[-0.2752815,54.1875007],[-0.2827508,54.1950775],[-0.2852266,54.2031881],[-0.2850699,54.2035489],[-0.2801336,54.2149137],[-0.2753948,54.2176691],[-0.2592594,54.2158784],[-0.3025474,54.2271943],[-0.312711,54.2286241],[-0.3139704,54.2320159],[-0.3348919,54.2383811],[-0.3386839,54.2426139],[-0.3503904,54.2408799],[-0.3638906,54.2450951],[-0.3695051,54.2493255],[-0.3675021,54.2519381],[-0.3691478,54.2552381],[-0.3696642,54.2554569],[-0.3965982,54.2744011],[-0.3971147,54.2787297],[-0.3971185,54.2787609],[-0.3971986,54.2794326],[-0.3847949,54.2856154],[-0.3843923,54.2858642],[-0.386572,54.290252],[-0.3910411,54.2897922],[-0.391414,54.2896783],[-0.3938458,54.2889355],[-0.3951372,54.2883122],[-0.395178,54.2883257],[-0.39543,54.2884515],[-0.3968066,54.2880309],[-0.4058906,54.2921026],[-0.4066978,54.2944433],[-0.4069025,54.294554],[-0.406839,54.2948529],[-0.4094907,54.3025403],[-0.4087011,54.3037002],[-0.4076561,54.305235],[-0.4107553,54.3068765],[-0.4112824,54.3068279],[-0.4113764,54.3069092],[-0.411566,54.3068947],[-0.4120216,54.3074674],[-0.4122597,54.3076733],[-0.4176059,54.3105045],[-0.4188257,54.3195541],[-0.4188707,54.3198874],[-0.4216011,54.3259981],[-0.4170528,54.3314652],[-0.4233183,54.3390289],[-0.4326345,54.3401435],[-0.4330845,54.350312],[-0.4469851,54.3593601],[-0.4470783,54.359791],[-0.4498271,54.3725011],[-0.4616049,54.3856931],[-0.4616398,54.3857321],[-0.4616746,54.3857711],[-0.46819,54.3930647],[-0.4721602,54.3972595],[-0.4767083,54.399769],[-0.4823946,54.4023173],[-0.4836312,54.4026652],[-0.4853814,54.4045533],[-0.4914711,54.4079117],[-0.5027893,54.4073712],[-0.5227853,54.4162747],[-0.5311097,54.4255089],[-0.5316675,54.4362922],[-0.5225487,54.4408871],[-0.521477,54.4469678],[-0.5569488,54.4651206],[-0.5634384,54.473059],[-0.5697423,54.4799589],[-0.5852206,54.4838832],[-0.588164,54.4886397],[-0.58957,54.4889661],[-0.5924226,54.4881102],[-0.5927021,54.4880264],[-0.5933324,54.4878372],[-0.6093464,54.4905076],[-0.6098374,54.4910378],[-0.6098965,54.4910446],[-0.6113341,54.4929134],[-0.6122603,54.4940343],[-0.6116838,54.492038],[-0.6123626,54.4930119],[-0.6124539,54.4920199],[-0.6126426,54.4925396],[-0.6128773,54.4908188],[-0.6134113,54.4869026],[-0.6132706,54.4897029],[-0.6130689,54.493714],[-0.6131638,54.4939753],[-0.614237,54.4909744],[-0.6175224,54.4915693],[-0.6399978,54.4956359],[-0.6401978,54.4956697],[-0.6702787,54.5007549],[-0.6750893,54.5060466],[-0.6726695,54.5125207],[-0.6731585,54.5128811],[-0.6771434,54.5139761],[-0.6775225,54.5160965],[-0.6823778,54.5196731],[-0.6937133,54.5203902],[-0.7129812,54.533642],[-0.7200916,54.5314185],[-0.7201989,54.5310849],[-0.7215455,54.5309638],[-0.73129,54.5279154],[-0.7446573,54.5285402],[-0.7454764,54.5302811],[-0.7467607,54.5314831],[-0.7485449,54.5331481],[-0.7473322,54.5342245],[-0.750948,54.5419057],[-0.7648522,54.5457578],[-0.7672573,54.5464238],[-0.765668,54.5481043],[-0.7652053,54.548701],[-0.7741841,54.5532527]]],"type":"Polygon"},"id":"E06000065","properties":{"code":"E06000065","geography":"LAD","name":"North Yorkshire"},"type":"Feature"},{"geometry":{"coordinates":[[[-2.1520201,53.8237068],[-2.1933451,53.8239722],[-2.1969302,53.8251962],[-2.1948278,53.821972],[-2.2074305,53.8114367],[-2.2176845,53.8155161],[-2.2226429,53.8173927],[-2.2354054,53.813791],[-2.2489391,53.8119036],[-2.2610695,53.8077672],[-2.2698051,53.8150039],[-2.2826693,53.8073641],[-2.2946941,53.8084388],[-2.297059,53.8143039],[-2.3030474,53.8145135],[-2.3019647,53.8210792],[-2.3113633,53.8129255],[-2.3132052,53.812465],[-2.3174798,53.8121796],[-2.3297622,53.8066385],[-2.3362218,53.7954469],[-2.3423059,53.7948274],[-2.3362327,53.7916972],[-2.3357972,53.782495],[-2.3291873,53.7800848],[-2.3286086,53.761032],[-2.3199149,53.7555669],[-2.3137244,53.7515752],[-2.3141091,53.7470388],[-2.3029943,53.748405],[-2.2952715,53.7519905],[-2.2852668,53.7437081],[-2.2670116,53.7426427],[-2.2628215,53.7462607],[-2.2667968,53.748097],[-2.257453,53.7498576],[-2.2516974,53.755045],[-2.2417121,53.7496385],[-2.2325552,53.7376101],[-2.2143353,53.7372603],[-2.2033898,53.7323847],[-2.1853955,53.7307405],[-2.1732913,53.7230096],[-2.1559976,53.7353254],[-2.1490928,53.7338711],[-2.1453061,53.7360581],[-2.1417235,53.7457368],[-2.1334357,53.7496751],[-2.1295216,53.7545905],[-2.1302317,53.7703288],[-2.1363627,53.7801045],[-2.1248155,53.7880553],[-2.1295201,53.7922728],[-2.1283585,53.7990313],[-2.112279,53.8057084],[-2.128623,53.8197957],[-2.1353456,53.8159577],[-2.1421136,53.8204473],[-2.148547,53.8197681],[-2.1520201,53.8237068]]],"type":"Polygon"},"id":"E07000117","properties":{"code":"E07000117","geography":"LAD","name":"Burnley"},"type":"Feature"},{"geometry":{"coordinates":[[[[-0.184469,51.4676478],[-0.1823451,51.471816],[-0.1859087,51.4673758],[-0.184469,51.4676478]]],[[[-0.1723833,51.4809844],[-0.1707307,51.4814977],[-0.1725495,51.4811668],[-0.1731548,51.4807447],[-0.1723833,51.4809844]]],[[[-0.1365312,51.4853888],[-0.1417272,51.485019],[-0.1381511,51.4848168],[-0.1365312,51.4853888]]],[[[-0.1496949,51.4612917],[-0.1506588,51.4662912],[-0.1397853,51.4713325],[-0.1338765,51.4756944],[-0.1306835,51.4801793],[-0.1263085,51.484471],[-0.1280882,51.4852701],[-0.1284306,51.4850497],[-0.1361443,51.4842915],[-0.1381088,51.4840983],[-0.1398019,51.4839318],[-0.1474072,51.4831814],[-0.1662756,51.4813176],[-0.17129,51.4797851],[-0.1741558,51.4789092],[-0.1779497,51.4706114],[-0.1871146,51.4641792],[-0.1949016,51.4606648],[-0.1949931,51.4606327],[-0.1950988,51.4606161],[-0.2096917,51.4662351],[-0.209857,51.4662988],[-0.2126539,51.4667526],[-0.2153864,51.4684313],[-0.2234015,51.4715217],[-0.2236391,51.4722221],[-0.2329584,51.4716814],[-0.2335682,51.4653489],[-0.2395345,51.4648554],[-0.2529507,51.465224],[-0.2591112,51.4549535],[-0.2415987,51.443118],[-0.2540664,51.4372879],[-0.2510851,51.4325578],[-0.2244764,51.4386069],[-0.2091046,51.4383045],[-0.2045281,51.4389533],[-0.1900265,51.4414646],[-0.1898543,51.4402711],[-0.1897745,51.4313513],[-0.185726,51.4331664],[-0.1842309,51.4312676],[-0.1840455,51.4263524],[-0.1787696,51.4243191],[-0.1616487,51.4198569],[-0.1598604,51.4226031],[-0.1444544,51.4177517],[-0.1403588,51.4192637],[-0.1377917,51.4211084],[-0.1383683,51.4304849],[-0.135256,51.4303226],[-0.1397654,51.4357438],[-0.1374758,51.4401579],[-0.1359317,51.4420074],[-0.1436106,51.441839],[-0.145576,51.4460179],[-0.1422855,51.4509823],[-0.1477043,51.4523401],[-0.1481401,51.4564022],[-0.1496949,51.4612917]]]],"type":"MultiPolygon"},"id":"E09000032","properties":{"code":"E09000032","geography":"LAD","name":"Wandsworth"},"type":"Feature"}],"type":"FeatureCollection"}
