{"features":[{"geometry":{"coordinates":[[[-0.6567726,51.4614929],[-0.6650326,51.4624648],[-0.6727631,51.457848],[-0.6888835,51.4669585],[-0.7057271,51.4677363],[-0.714435,51.4671424],[-0.7245431,51.4561377],[-0.7410873,51.4588675],[-0.7332236,51.4557101],[-0.7325176,51.4509631],[-0.7258568,51.4500345],[-0.7293619,51.431577],[-0.7207231,51.4197923],[-0.7161569,51.4225481],[-0.7062389,51.4217496],[-0.700652,51.4267654],[-0.6953313,51.4251742],[-0.6912377,51.428868],[-0.6789947,51.4299485],[-0.6679656,51.4307471],[-0.6384364,51.4146941],[-0.631327,51.4144543],[-0.6312469,51.4228607],[-0.6371634,51.4280039],[-0.6305698,51.4421913],[-0.6538851,51.441367],[-0.6619989,51.4443185],[-0.6582408,51.4493146],[-0.6567726,51.4614929]]],"type":"Polygon"},"id":"E02003352","properties":{"code":"E02003352","geography":"MSOA","name":"Bracknell Forest 001"},"type":"Feature"},{"geometry":{"coordinates":[[[-0.752769,51.462225],[-0.7573458,51.459023],[-0.764645,51.4597205],[-0.7696582,51.4677563],[-0.782582,51.4686867],[-0.7857217,51.4577863],[-0.7993644,51.4461336],[-0.800037,51.4411806],[-0.7966928,51.414458],[-0.7925224,51.4088491],[-0.8018234,51.4075921],[-0.8007711,51.4038461],[-0.7829656,51.4097034],[-0.7759224,51.4088154],[-0.7737603,51.4134669],[-0.7705951,51.4171807],[-0.7787178,51.4214235],[-0.76402,51.425128],[-0.7659615,51.4270718],[-0.7556125,51.4294938],[-0.7305253,51.427507],[-0.7293619,51.431577],[-0.7258568,51.4500345],[-0.7325176,51.4509631],[-0.7332236,51.4557101],[-0.7410873,51.4588675],[-0.752769,51.462225]]],"type":"Polygon"},"id":"E02003353","properties":{"code":"E02003353","geography":"MSOA","name":"Bracknell Forest 002"},"type":"Feature"},{"geometry":{"coordinates":[[[-0.7207231,51.4197923],[-0.7293619,51.431577],[-0.7305253,51.427507],[-0.7556125,51.4294938],[-0.7659615,51.4270718],[-0.76402,51.425128],[-0.7504495,51.4261589],[-0.7561239,51.425544],[-0.7502227,51.4225962],[-0.7541914,51.4186919],[-0.7451952,51.4176149],[-0.7393569,51.4170854],[-0.7367144,51.4197398],[-0.7325559,51.4164838],[-0.7334895,51.4206306],[-0.720798,51.4192684],[-0.7207231,51.4197923]]],"type":"Polygon"},"id":"E02003354","properties":{"code":"E02003354","geography":"MSOA","name":"Bracknell Forest 003"},"type":"Feature"},{"geometry":{"coordinates":[[[-0.7541914,51.4186919],[-0.7502227,51.4225962],[-0.7561239,51.425544],[-0.7504495,51.4261589],[-0.76402,51.425128],[-0.7787178,51.4214235],[-0.7705951,51.4171807],[-0.7737603,51.4134669],[-0.7601515,51.4135343],[-0.7541914,51.4186919]]],"type":"Polygon"},"id":"E02003355","properties":{"code":"E02003355","geography":"MSOA","name":"Bracknell Forest 004"},"type":"Feature"},{"geometry":{"coordinates":[[[-0.6853648,51.4014166],[-0.6961738,51.4128903],[-0.6789947,51.4299485],[-0.6912377,51.428868],[-0.6953313,51.4251742],[-0.700652,51.4267654],[-0.7062389,51.4217496],[-0.7161569,51.4225481],[-0.7207231,51.4197923],[-0.720798,51.4192684],[-0.7175868,51.4146264],[-0.7257209,51.4102699],[-0.7221701,51.4096768],[-0.7257512,51.404031],[-0.724273,51.3999036],[-0.7341964,51.3908575],[-0.7273334,51.3847899],[-0.7353521,51.3650096],[-0.7352759,51.3650401],[-0.6814986,51.3796411],[-0.6676521,51.3845707],[-0.6853648,51.4014166]]],"type":"Polygon"},"id":"E02003356","properties":{"code":"E02003356","geography":"MSOA","name":"Bracknell Forest 005"},"type":"Feature"},{"geometry":{"coordinates":[[[-0.720798,51.4192684],[-0.7334895,51.4206306],[-0.7325559,51.4164838],[-0.7367144,51.4197398],[-0.7393569,51.4170854],[-0.7451952,51.4176149],[-0.7434639,51.4117702],[-0.7388303,51.4107164],[-0.7441868,51.4103303],[-0.7417779,51.4079555],[-0.7345151,51.4078406],[-0.7407177,51.4054052],[-0.7370247,51.4018813],[-0.7257512,51.404031],[-0.7221701,51.4096768],[-0.7257209,51.4102699],[-0.7175868,51.4146264],[-0.720798,51.4192684]]],"type":"Polygon"},"id":"E02003357","properties":{"code":"E02003357","geography":"MSOA","name":"Bracknell Forest 006"},"type":"Feature"},{"geometry":{"coordinates":[[[-0.7451952,51.4176149],[-0.7541914,51.4186919],[-0.7601515,51.4135343],[-0.7693669,51.4056139],[-0.7615481,51.3984932],[-0.7532919,51.3999968],[-0.7543285,51.4032692],[-0.7513497,51.4006603],[-0.7491621,51.4049333],[-0.7462665,51.4005876],[-0.7407028,51.4007724],[-0.7370247,51.4018813],[-0.7407177,51.4054052],[-0.7345151,51.4078406],[-0.7417779,51.4079555],[-0.7441868,51.4103303],[-0.7388303,51.4107164],[-0.7434639,51.4117702],[-0.7451952,51.4176149]]],"type":"Polygon"},"id":"E02003358","properties":{"code":"E02003358","geography":"MSOA","name":"Bracknell Forest 007"},"type":"Feature"},{"geometry":{"coordinates":[[[-0.7341964,51.3908575],[-0.724273,51.3999036],[-0.7257512,51.404031],[-0.7370247,51.4018813],[-0.7407028,51.4007724],[-0.7366499,51.397486],[-0.7416915,51.3945698],[-0.734445,51.390852],[-0.7341964,51.3908575]]],"type":"Polygon"},"id":"E02003359","properties":{"code":"E02003359","geography":"MSOA","name":"Bracknell Forest 008"},"type":"Feature"},{"geometry":{"coordinates":[[[-0.7615481,51.3984932],[-0.7693669,51.4056139],[-0.7601515,51.4135343],[-0.7737603,51.4134669],[-0.7759224,51.4088154],[-0.7829656,51.4097034],[-0.8007711,51.4038461],[-0.7931416,51.3846075],[-0.7719514,51.3871012],[-0.77084,51.3982634],[-0.7618299,51.3967367],[-0.7615481,51.3984932]]],"type":"Polygon"},"id":"E02003360","properties":{"code":"E02003360","geography":"MSOA","name":"Bracknell Forest 009"},"type":"Feature"},{"geometry":{"coordinates":[[[-0.7407028,51.4007724],[-0.7462665,51.4005876],[-0.7491621,51.4049333],[-0.7513497,51.4006603],[-0.7543285,51.4032692],[-0.7532919,51.3999968],[-0.7615481,51.3984932],[-0.7618299,51.3967367],[-0.7553739,51.3953602],[-0.7616077,51.3924112],[-0.7562137,51.3897237],[-0.7439671,51.3915794],[-0.7457182,51.3876309],[-0.734445,51.390852],[-0.7416915,51.3945698],[-0.7366499,51.397486],[-0.7407028,51.4007724]]],"type":"Polygon"},"id":"E02003361","properties":{"code":"E02003361","geography":"MSOA","name":"Bracknell Forest 010"},"type":"Feature"},{"geometry":{"coordinates":[[[-0.7618299,51.3967367],[-0.77084,51.3982634],[-0.7719514,51.3871012],[-0.7457182,51.3876309],[-0.7439671,51.3915794],[-0.7562137,51.3897237],[-0.7616077,51.3924112],[-0.7553739,51.3953602],[-0.7618299,51.3967367]]],"type":"Polygon"},"id":"E02003362","properties":{"code":"E02003362","geography":"MSOA","name":"Bracknell Forest 011"},"type":"Feature"},{"geometry":{"coordinates":[[[-0.7864453,51.3595298],[-0.7839964,51.3644096],[-0.7877379,51.3653919],[-0.7820388,51.368368],[-0.7855881,51.3706773],[-0.7867456,51.3680364],[-0.7948091,51.3694436],[-0.7890278,51.3717435],[-0.8135881,51.3703183],[-0.8221033,51.3661756],[-0.8373662,51.352871],[-0.8280735,51.3528468],[-0.8157251,51.3463101],[-0.8071641,51.3483669],[-0.811332,51.3529725],[-0.8082336,51.3554341],[-0.8124313,51.354849],[-0.8156697,51.3602971],[-0.7864453,51.3595298]]],"type":"Polygon"},"id":"E02003363","properties":{"code":"E02003363","geography":"MSOA","name":"Bracknell Forest 012"},"type":"Feature"},{"geometry":{"coordinates":[[[-0.7353521,51.3650096],[-0.7273334,51.3847899],[-0.7341964,51.3908575],[-0.734445,51.390852],[-0.7457182,51.3876309],[-0.7719514,51.3871012],[-0.7931416,51.3846075],[-0.7890278,51.3717435],[-0.7948091,51.3694436],[-0.7867456,51.3680364],[-0.7855881,51.3706773],[-0.7820388,51.368368],[-0.7877379,51.3653919],[-0.7839964,51.3644096],[-0.7864453,51.3595298],[-0.7796297,51.3587465],[-0.7876037,51.3561838],[-0.7867177,51.3505059],[-0.7826244,51.3498875],[-0.7819451,51.3525057],[-0.7718339,51.3509436],[-0.7554855,51.3563257],[-0.7480703,51.3523485],[-0.7353521,51.3650096]]],"type":"Polygon"},"id":"E02003364","properties":{"code":"E02003364","geography":"MSOA","name":"Bracknell Forest 013"},"type":"Feature"},{"geometry":{"coordinates":[[[-0.7864453,51.3595298],[-0.8156697,51.3602971],[-0.8124313,51.354849],[-0.8082336,51.3554341],[-0.811332,51.3529725],[-0.8071641,51.3483669],[-0.8157251,51.3463101],[-0.8142457,51.3416271],[-0.8045482,51.3416394],[-0.7846609,51.3382284],[-0.7867177,51.3505059],[-0.7876037,51.3561838],[-0.7796297,51.3587465],[-0.7864453,51.3595298]]],"type":"Polygon"},"id":"E02003365","properties":{"code":"E02003365","geography":"MSOA","name":"Bracknell Forest 014"},"type":"Feature"},{"geometry":{"coordinates":[[[-0.7480703,51.3523485],[-0.7554855,51.3563257],[-0.7718339,51.3509436],[-0.7819451,51.3525057],[-0.7826244,51.3498875],[-0.7867177,51.3505059],[-0.7846609,51.3382284],[-0.7754834,51.3319588],[-0.7582098,51.3405683],[-0.7557955,51.3450013],[-0.7480703,51.3523485]]],"type":"Polygon"},"id":"E02003366","properties":{"code":"E02003366","geography":"MSOA","name":"Bracknell Forest 015"},"type":"Feature"}],"type":"FeatureCollection"}
