{"features":[{"geometry":{"coordinates":[[[-0.946775,51.4717241],[-0.941157,51.4749763],[-0.9470312,51.4860603],[-0.9618239,51.4930897],[-0.9753671,51.4874326],[-0.9747907,51.4848925],[-0.9643242,51.4829389],[-0.9643651,51.479094],[-0.9534666,51.4706888],[-0.946775,51.4717241]]],"type":"Polygon"},"id":"E02003389","properties":{"code":"E02003389","geography":"MSOA","name":"Reading 001"},"type":"Feature"},{"geometry":{"coordinates":[[[-0.9747907,51.4848925],[-0.9753671,51.4874326],[-0.9984196,51.4843029],[-0.9982018,51.4775481],[-1.0069495,51.4734202],[-1.0073164,51.4682094],[-1.0065049,51.4685766],[-0.9891518,51.4683746],[-0.9821632,51.4735382],[-0.9793208,51.4713336],[-0.9784599,51.4791341],[-0.972865,51.4808398],[-0.9747907,51.4848925]]],"type":"Polygon"},"id":"E02003390","properties":{"code":"E02003390","geography":"MSOA","name":"Reading 002"},"type":"Feature"},{"geometry":{"coordinates":[[[-0.9534666,51.4706888],[-0.9643651,51.479094],[-0.9643242,51.4829389],[-0.9747907,51.4848925],[-0.972865,51.4808398],[-0.9784599,51.4791341],[-0.9793208,51.4713336],[-0.9821632,51.4735382],[-0.9891518,51.4683746],[-0.9783314,51.4664732],[-0.9725813,51.4696755],[-0.9534666,51.4706888]]],"type":"Polygon"},"id":"E02003391","properties":{"code":"E02003391","geography":"MSOA","name":"Reading 003"},"type":"Feature"},{"geometry":{"coordinates":[[[-0.9554727,51.4612554],[-0.9552041,51.4653326],[-0.9472013,51.4666521],[-0.946775,51.4717241],[-0.9534666,51.4706888],[-0.9725813,51.4696755],[-0.9783314,51.4664732],[-0.9704817,51.4629517],[-0.9554727,51.4612554]]],"type":"Polygon"},"id":"E02003392","properties":{"code":"E02003392","geography":"MSOA","name":"Reading 004"},"type":"Feature"},{"geometry":{"coordinates":[[[-1.0237647,51.4691342],[-1.0365778,51.4752251],[-1.0385617,51.4720979],[-1.0528506,51.4604376],[-1.0480071,51.4537762],[-1.0362411,51.4610386],[-1.0248189,51.4593893],[-1.0337986,51.4651541],[-1.0280659,51.4698481],[-1.0237647,51.4691342]]],"type":"Polygon"},"id":"E02003393","properties":{"code":"E02003393","geography":"MSOA","name":"Reading 005"},"type":"Feature"},{"geometry":{"coordinates":[[[-1.0237647,51.4691342],[-1.0280659,51.4698481],[-1.0337986,51.4651541],[-1.0248189,51.4593893],[-1.0197294,51.4587595],[-1.0221413,51.4567549],[-1.0169472,51.4535063],[-1.0111775,51.4561806],[-1.0126503,51.4619474],[-1.0073715,51.459675],[-1.0065049,51.4685766],[-1.0073164,51.4682094],[-1.0150867,51.4662994],[-1.0237647,51.4691342]]],"type":"Polygon"},"id":"E02003394","properties":{"code":"E02003394","geography":"MSOA","name":"Reading 006"},"type":"Feature"},{"geometry":{"coordinates":[[[-0.9891518,51.4683746],[-1.0065049,51.4685766],[-1.0073715,51.459675],[-0.9993469,51.45508],[-0.989253,51.4547734],[-0.9893635,51.4524091],[-0.9867964,51.4525976],[-0.9857211,51.4587064],[-0.9704817,51.4629517],[-0.9783314,51.4664732],[-0.9891518,51.4683746]]],"type":"Polygon"},"id":"E02003395","properties":{"code":"E02003395","geography":"MSOA","name":"Reading 007"},"type":"Feature"},{"geometry":{"coordinates":[[[-1.0073715,51.459675],[-1.0126503,51.4619474],[-1.0111775,51.4561806],[-1.0169472,51.4535063],[-1.0230631,51.4481571],[-1.0017147,51.4521574],[-0.9893635,51.4524091],[-0.989253,51.4547734],[-0.9993469,51.45508],[-1.0073715,51.459675]]],"type":"Polygon"},"id":"E02003396","properties":{"code":"E02003396","geography":"MSOA","name":"Reading 008"},"type":"Feature"},{"geometry":{"coordinates":[[[-1.0248189,51.4593893],[-1.0362411,51.4610386],[-1.0480071,51.4537762],[-1.0468108,51.4501704],[-1.034121,51.452737],[-1.0302481,51.4492028],[-1.0230631,51.4481571],[-1.0169472,51.4535063],[-1.0221413,51.4567549],[-1.0197294,51.4587595],[-1.0248189,51.4593893]]],"type":"Polygon"},"id":"E02003397","properties":{"code":"E02003397","geography":"MSOA","name":"Reading 009"},"type":"Feature"},{"geometry":{"coordinates":[[[-0.9310726,51.4471754],[-0.9372619,51.4536564],[-0.9496451,51.458561],[-0.9606326,51.4585468],[-0.9580753,51.456199],[-0.9636065,51.4518882],[-0.9631922,51.4510281],[-0.9559326,51.4536558],[-0.9453749,51.4522636],[-0.9419594,51.4483646],[-0.9402948,51.4508334],[-0.9380711,51.4468413],[-0.9310726,51.4471754]]],"type":"Polygon"},"id":"E02003398","properties":{"code":"E02003398","geography":"MSOA","name":"Reading 010"},"type":"Feature"},{"geometry":{"coordinates":[[[-0.9310726,51.4471754],[-0.9380711,51.4468413],[-0.9402948,51.4508334],[-0.9419594,51.4483646],[-0.9453749,51.4522636],[-0.9559326,51.4536558],[-0.9512729,51.4497294],[-0.9553826,51.4480752],[-0.9501936,51.4456431],[-0.9448222,51.4455547],[-0.9324086,51.4409589],[-0.9284945,51.445161],[-0.9310726,51.4471754]]],"type":"Polygon"},"id":"E02003400","properties":{"code":"E02003400","geography":"MSOA","name":"Reading 012"},"type":"Feature"},{"geometry":{"coordinates":[[[-0.9828341,51.4513165],[-0.9867964,51.4525976],[-0.9893635,51.4524091],[-1.0017147,51.4521574],[-0.9987473,51.4473996],[-0.9934771,51.4486554],[-0.9995204,51.4366681],[-0.981107,51.4339523],[-0.9761405,51.4359529],[-0.9742192,51.4441587],[-0.9827087,51.4475292],[-0.9789516,51.4485706],[-0.9836277,51.4478821],[-0.9785269,51.4515134],[-0.9828341,51.4513165]]],"type":"Polygon"},"id":"E02003401","properties":{"code":"E02003401","geography":"MSOA","name":"Reading 013"},"type":"Feature"},{"geometry":{"coordinates":[[[-0.9501936,51.4456431],[-0.9553826,51.4480752],[-0.9512729,51.4497294],[-0.9559326,51.4536558],[-0.9631922,51.4510281],[-0.9641574,51.4465504],[-0.9744782,51.4504377],[-0.9735805,51.4443708],[-0.9625902,51.4394593],[-0.9624591,51.4431304],[-0.9568595,51.4411389],[-0.9501936,51.4456431]]],"type":"Polygon"},"id":"E02003402","properties":{"code":"E02003402","geography":"MSOA","name":"Reading 014"},"type":"Feature"},{"geometry":{"coordinates":[[[-0.9995204,51.4366681],[-0.9934771,51.4486554],[-0.9987473,51.4473996],[-1.0017147,51.4521574],[-1.0230631,51.4481571],[-1.0302481,51.4492028],[-1.0265682,51.4440117],[-1.0234709,51.4443162],[-1.0218291,51.4367017],[-1.0037386,51.433894],[-1.0007436,51.4297926],[-0.9995204,51.4366681]]],"type":"Polygon"},"id":"E02003403","properties":{"code":"E02003403","geography":"MSOA","name":"Reading 015"},"type":"Feature"},{"geometry":{"coordinates":[[[-0.9448222,51.4455547],[-0.9501936,51.4456431],[-0.9568595,51.4411389],[-0.9624591,51.4431304],[-0.9625902,51.4394593],[-0.9626794,51.436973],[-0.9548853,51.4361405],[-0.9580002,51.4317306],[-0.9521692,51.4308631],[-0.9581073,51.4276646],[-0.9563906,51.4257205],[-0.947163,51.4258006],[-0.943537,51.4361106],[-0.9481541,51.4392866],[-0.9448222,51.4455547]]],"type":"Polygon"},"id":"E02003404","properties":{"code":"E02003404","geography":"MSOA","name":"Reading 016"},"type":"Feature"},{"geometry":{"coordinates":[[[-0.9625902,51.4394593],[-0.9735805,51.4443708],[-0.9742192,51.4441587],[-0.9761405,51.4359529],[-0.981107,51.4339523],[-0.9995204,51.4366681],[-1.0007436,51.4297926],[-1.001169,51.4263811],[-0.9962906,51.4195929],[-0.9815119,51.4206581],[-0.9802206,51.4282935],[-0.9708815,51.4262612],[-0.9688874,51.4284166],[-0.9677227,51.4218554],[-0.9648188,51.4240318],[-0.9554642,51.4225021],[-0.9563906,51.4257205],[-0.9581073,51.4276646],[-0.9521692,51.4308631],[-0.9580002,51.4317306],[-0.9548853,51.4361405],[-0.9626794,51.436973],[-0.9625902,51.4394593]]],"type":"Polygon"},"id":"E02003405","properties":{"code":"E02003405","geography":"MSOA","name":"Reading 017"},"type":"Feature"},{"geometry":{"coordinates":[[[-0.9563906,51.4257205],[-0.9554642,51.4225021],[-0.9648188,51.4240318],[-0.9677227,51.4218554],[-0.9688874,51.4284166],[-0.9708815,51.4262612],[-0.9802206,51.4282935],[-0.9815119,51.4206581],[-0.9793599,51.4125238],[-0.9736598,51.4125478],[-0.9737217,51.4097796],[-0.9646064,51.4117883],[-0.947163,51.4258006],[-0.9563906,51.4257205]]],"type":"Polygon"},"id":"E02003406","properties":{"code":"E02003406","geography":"MSOA","name":"Reading 018"},"type":"Feature"},{"geometry":{"coordinates":[[[-0.9554727,51.4612554],[-0.9704817,51.4629517],[-0.9857211,51.4587064],[-0.9867964,51.4525976],[-0.9828341,51.4513165],[-0.9795141,51.4564954],[-0.9775293,51.4525667],[-0.9677437,51.4559951],[-0.9636065,51.4518882],[-0.9580753,51.456199],[-0.9606326,51.4585468],[-0.9496451,51.458561],[-0.9491883,51.4595123],[-0.9554727,51.4612554]]],"type":"Polygon"},"id":"E02006939","properties":{"code":"E02006939","geography":"MSOA","name":"Reading 019"},"type":"Feature"},{"geometry":{"coordinates":[[[-0.9636065,51.4518882],[-0.9677437,51.4559951],[-0.9775293,51.4525667],[-0.9795141,51.4564954],[-0.9828341,51.4513165],[-0.9785269,51.4515134],[-0.9836277,51.4478821],[-0.9789516,51.4485706],[-0.9827087,51.4475292],[-0.9742192,51.4441587],[-0.9735805,51.4443708],[-0.9744782,51.4504377],[-0.9641574,51.4465504],[-0.9631922,51.4510281],[-0.9636065,51.4518882]]],"type":"Polygon"},"id":"E02006940","properties":{"code":"E02006940","geography":"MSOA","name":"Reading 020"},"type":"Feature"}],"type":"FeatureCollection"}
