{"features":[{"geometry":{"coordinates":[[[-2.7614555,52.3594535],[-2.792421,52.3568506],[-2.7956251,52.3604257],[-2.7921131,52.3745204],[-2.7986514,52.3726468],[-2.8073899,52.3759548],[-2.8054337,52.3882387],[-2.8554423,52.3952851],[-2.8637861,52.3887005],[-2.8884577,52.3851406],[-2.8865077,52.3784977],[-2.8931358,52.374075],[-2.8930623,52.3796434],[-2.9054268,52.3857695],[-2.9176866,52.3862751],[-2.9195578,52.3845279],[-2.9140089,52.3821198],[-2.9223125,52.3751333],[-2.9008068,52.3672567],[-2.9261449,52.3669822],[-2.9388902,52.3610448],[-2.9306571,52.3549802],[-2.9361725,52.3529219],[-2.9331507,52.3500391],[-2.9547277,52.3492365],[-2.9668418,52.3294892],[-3.0008678,52.3217535],[-3.0013327,52.2999446],[-3.0055253,52.2906709],[-3.0119537,52.2880301],[-3.0116616,52.2773955],[-2.9960234,52.2757753],[-2.9926747,52.2728431],[-2.965036,52.2743003],[-2.9496208,52.2695146],[-2.955954,52.2709092],[-2.9650646,52.2681118],[-2.9649907,52.262325],[-2.9775029,52.2597623],[-2.977555,52.2574864],[-2.9699807,52.2592223],[-2.9659243,52.2560877],[-2.9266641,52.2606508],[-2.9284151,52.2550403],[-2.9205834,52.2540758],[-2.9114295,52.2562345],[-2.9113992,52.2715439],[-2.8984726,52.2752115],[-2.8852842,52.2771084],[-2.8732207,52.2680377],[-2.8435449,52.2658293],[-2.8390998,52.2809876],[-2.8342705,52.2807983],[-2.8305423,52.2866341],[-2.811406,52.297558],[-2.7894445,52.3045141],[-2.7743302,52.3025407],[-2.766903,52.2951052],[-2.7738606,52.2900353],[-2.7647554,52.2878853],[-2.7713408,52.2861636],[-2.7616277,52.2867844],[-2.7739955,52.2810712],[-2.7793042,52.2862148],[-2.7868045,52.2848146],[-2.7810336,52.2801289],[-2.7864741,52.2773726],[-2.7864744,52.2819798],[-2.819707,52.2788243],[-2.8179328,52.274782],[-2.8121972,52.2746058],[-2.8081829,52.2707413],[-2.7783602,52.2683309],[-2.7827699,52.2698465],[-2.7686381,52.2747311],[-2.7515311,52.2741147],[-2.7405443,52.2789932],[-2.7456163,52.2843673],[-2.7340863,52.2825747],[-2.7233139,52.2882576],[-2.7254601,52.2964086],[-2.7066741,52.2950015],[-2.6896448,52.2890138],[-2.7021686,52.2792511],[-2.7000851,52.2722301],[-2.6906365,52.2698721],[-2.6938207,52.263373],[-2.6741197,52.260817],[-2.6704139,52.2546895],[-2.6655229,52.254612],[-2.6555578,52.2471962],[-2.6342347,52.2507422],[-2.6282983,52.2611516],[-2.6143967,52.2657028],[-2.606733,52.2756521],[-2.596452,52.2765803],[-2.59897,52.2835283],[-2.6126089,52.2867468],[-2.6184511,52.282215],[-2.6262603,52.2888832],[-2.6398791,52.2863622],[-2.6442229,52.2937369],[-2.6524206,52.2952337],[-2.6632072,52.3039241],[-2.6363279,52.3089394],[-2.6324479,52.3056274],[-2.6180377,52.3069435],[-2.6280763,52.313422],[-2.6239847,52.3214153],[-2.629403,52.3207008],[-2.6368942,52.324464],[-2.6362277,52.3283139],[-2.6410172,52.3286299],[-2.6433089,52.333793],[-2.6491711,52.331705],[-2.6593408,52.3342657],[-2.6559971,52.3378886],[-2.6660684,52.3422877],[-2.6891298,52.3165925],[-2.6799467,52.3151862],[-2.6798128,52.31201],[-2.7142507,52.3088649],[-2.7246697,52.3198354],[-2.7371735,52.3194633],[-2.7669886,52.3361001],[-2.7483817,52.3348894],[-2.73793,52.3427147],[-2.7411809,52.3497085],[-2.7327122,52.3555312],[-2.7416801,52.3567831],[-2.742966,52.3593875],[-2.7614555,52.3594535]]],"type":"Polygon"},"id":"E02002905","properties":{"code":"E02002905","geography":"MSOA","name":"Herefordshire 001"},"type":"Feature"},{"geometry":{"coordinates":[[[-2.7314869,52.2302346],[-2.7351219,52.2467209],[-2.7367162,52.2411151],[-2.7561194,52.2397774],[-2.7550763,52.2321945],[-2.7584931,52.2310468],[-2.7873877,52.2338722],[-2.799777,52.238993],[-2.8039131,52.2335465],[-2.7977628,52.2230876],[-2.7912474,52.2221907],[-2.7899496,52.2158958],[-2.7314869,52.2302346]]],"type":"Polygon"},"id":"E02002906","properties":{"code":"E02002906","geography":"MSOA","name":"Herefordshire 002"},"type":"Feature"},{"geometry":{"coordinates":[[[-2.7899496,52.2158958],[-2.7861655,52.2065289],[-2.8069284,52.2025502],[-2.8147928,52.1930453],[-2.807478,52.1862268],[-2.7956709,52.1885509],[-2.773821,52.182112],[-2.765525,52.182722],[-2.7697964,52.1874709],[-2.7515139,52.1848749],[-2.7465091,52.1917726],[-2.7387665,52.194293],[-2.7334771,52.186501],[-2.7175114,52.1865658],[-2.7191182,52.1922531],[-2.7133616,52.1991918],[-2.7185024,52.2027693],[-2.714247,52.2078703],[-2.7258674,52.2071297],[-2.7283668,52.2107197],[-2.7238644,52.2127866],[-2.7195611,52.2109253],[-2.7220803,52.2153618],[-2.7027093,52.2111136],[-2.7005319,52.2152491],[-2.6932856,52.2119696],[-2.6593372,52.2201975],[-2.6645658,52.2242729],[-2.6717611,52.2219362],[-2.6756751,52.2249153],[-2.6920027,52.2240662],[-2.6961019,52.2313517],[-2.7097225,52.228046],[-2.7161419,52.2356538],[-2.7263787,52.2348544],[-2.7274314,52.226555],[-2.7314869,52.2302346],[-2.7899496,52.2158958]]],"type":"Polygon"},"id":"E02002907","properties":{"code":"E02002907","geography":"MSOA","name":"Herefordshire 003"},"type":"Feature"},{"geometry":{"coordinates":[[[-2.6342347,52.2507422],[-2.6555578,52.2471962],[-2.6655229,52.254612],[-2.6704139,52.2546895],[-2.6741197,52.260817],[-2.6938207,52.263373],[-2.6906365,52.2698721],[-2.7000851,52.2722301],[-2.7021686,52.2792511],[-2.6896448,52.2890138],[-2.7066741,52.2950015],[-2.7254601,52.2964086],[-2.7233139,52.2882576],[-2.7340863,52.2825747],[-2.7456163,52.2843673],[-2.7405443,52.2789932],[-2.7515311,52.2741147],[-2.7686381,52.2747311],[-2.7827699,52.2698465],[-2.7783602,52.2683309],[-2.8081829,52.2707413],[-2.8121972,52.2746058],[-2.8179328,52.274782],[-2.819707,52.2788243],[-2.7864744,52.2819798],[-2.7864741,52.2773726],[-2.7810336,52.2801289],[-2.7868045,52.2848146],[-2.7793042,52.2862148],[-2.7739955,52.2810712],[-2.7616277,52.2867844],[-2.7713408,52.2861636],[-2.7647554,52.2878853],[-2.7738606,52.2900353],[-2.766903,52.2951052],[-2.7743302,52.3025407],[-2.7894445,52.3045141],[-2.811406,52.297558],[-2.8305423,52.2866341],[-2.8342705,52.2807983],[-2.8390998,52.2809876],[-2.8435449,52.2658293],[-2.8732207,52.2680377],[-2.8852842,52.2771084],[-2.8984726,52.2752115],[-2.9113992,52.2715439],[-2.9114295,52.2562345],[-2.9205834,52.2540758],[-2.9205214,52.2490047],[-2.9066373,52.2400002],[-2.9180318,52.2314528],[-2.9393309,52.2370258],[-2.9468578,52.2358419],[-2.9467669,52.2310927],[-2.9583128,52.2298289],[-2.9696674,52.2232351],[-2.9500104,52.2192376],[-2.9447671,52.2155261],[-2.9460363,52.2047626],[-2.9299975,52.206063],[-2.91795,52.2013404],[-2.9109609,52.2069787],[-2.8986883,52.2103348],[-2.8844385,52.1995388],[-2.9042028,52.1934924],[-2.8965674,52.1894194],[-2.8933335,52.1810956],[-2.8857785,52.1787415],[-2.872991,52.185972],[-2.8713514,52.1924598],[-2.8591614,52.1921464],[-2.8607327,52.1791851],[-2.848469,52.1778339],[-2.8567372,52.1865211],[-2.8527013,52.1897591],[-2.8505844,52.186208],[-2.8330602,52.19267],[-2.8249065,52.1905166],[-2.824901,52.1859162],[-2.817379,52.1826326],[-2.8285907,52.1779447],[-2.8102549,52.1738963],[-2.8031298,52.1530863],[-2.8006555,52.1557329],[-2.7949697,52.1552548],[-2.8002153,52.1595363],[-2.794771,52.1634399],[-2.7789999,52.1649818],[-2.7719276,52.1601616],[-2.7541444,52.1628598],[-2.7464424,52.159434],[-2.7331819,52.1615458],[-2.7340694,52.1588013],[-2.7239791,52.1588493],[-2.7156227,52.1544185],[-2.7169128,52.1491077],[-2.7097125,52.152809],[-2.6989615,52.1507146],[-2.6958963,52.1467162],[-2.6902018,52.1482983],[-2.6935895,52.1525175],[-2.6882038,52.1473812],[-2.6741837,52.1474217],[-2.673317,52.143344],[-2.670136,52.1452978],[-2.668634,52.1433458],[-2.6742638,52.1369535],[-2.6636967,52.1352504],[-2.6592677,52.1302516],[-2.6520192,52.1287038],[-2.6523862,52.1356137],[-2.6191287,52.1375982],[-2.6265262,52.1520056],[-2.6223171,52.1585798],[-2.6263006,52.1586395],[-2.6253394,52.1637827],[-2.6364667,52.1708603],[-2.6522487,52.1706819],[-2.646994,52.1866832],[-2.6343514,52.1921465],[-2.6287513,52.1880908],[-2.6245818,52.1910384],[-2.6163845,52.1866888],[-2.6102347,52.1917451],[-2.6134533,52.1949825],[-2.6106138,52.1969575],[-2.5822493,52.1935251],[-2.576972,52.1871031],[-2.5665516,52.1930872],[-2.5746239,52.1971369],[-2.5728763,52.2027736],[-2.5775034,52.2079916],[-2.570176,52.2155049],[-2.5837573,52.2158404],[-2.5783916,52.2277024],[-2.5894115,52.2312397],[-2.5796937,52.2395788],[-2.5648838,52.2424528],[-2.5673736,52.2501278],[-2.5742083,52.2527182],[-2.5761433,52.2477398],[-2.5854415,52.2482847],[-2.5964708,52.244245],[-2.6288728,52.2403366],[-2.6342347,52.2507422]],[[-2.7899496,52.2158958],[-2.7912474,52.2221907],[-2.7977628,52.2230876],[-2.8039131,52.2335465],[-2.799777,52.238993],[-2.7873877,52.2338722],[-2.7584931,52.2310468],[-2.7550763,52.2321945],[-2.7561194,52.2397774],[-2.7367162,52.2411151],[-2.7351219,52.2467209],[-2.7314869,52.2302346],[-2.7274314,52.226555],[-2.7263787,52.2348544],[-2.7161419,52.2356538],[-2.7097225,52.228046],[-2.6961019,52.2313517],[-2.6920027,52.2240662],[-2.6756751,52.2249153],[-2.6717611,52.2219362],[-2.6645658,52.2242729],[-2.6593372,52.2201975],[-2.6932856,52.2119696],[-2.7005319,52.2152491],[-2.7027093,52.2111136],[-2.7220803,52.2153618],[-2.7195611,52.2109253],[-2.7238644,52.2127866],[-2.7283668,52.2107197],[-2.7258674,52.2071297],[-2.714247,52.2078703],[-2.7185024,52.2027693],[-2.7133616,52.1991918],[-2.7191182,52.1922531],[-2.7175114,52.1865658],[-2.7334771,52.186501],[-2.7387665,52.194293],[-2.7465091,52.1917726],[-2.7515139,52.1848749],[-2.7697964,52.1874709],[-2.765525,52.182722],[-2.773821,52.182112],[-2.7956709,52.1885509],[-2.807478,52.1862268],[-2.8147928,52.1930453],[-2.8069284,52.2025502],[-2.7861655,52.2065289],[-2.7899496,52.2158958]]],"type":"Polygon"},"id":"E02002908","properties":{"code":"E02002908","geography":"MSOA","name":"Herefordshire 004"},"type":"Feature"},{"geometry":{"coordinates":[[[-2.3859135,52.2264384],[-2.3932902,52.2309884],[-2.4142108,52.231711],[-2.4230683,52.2372479],[-2.4648601,52.2343611],[-2.4747042,52.2413461],[-2.4736516,52.250712],[-2.4681017,52.2560249],[-2.4279986,52.2705972],[-2.4514058,52.2850696],[-2.4674586,52.2833133],[-2.4763072,52.2855741],[-2.4920094,52.2781629],[-2.503115,52.2774362],[-2.5040159,52.2721848],[-2.4935239,52.2638391],[-2.4958649,52.2568441],[-2.5158547,52.255904],[-2.525823,52.2480846],[-2.5316758,52.2532638],[-2.5479521,52.2496846],[-2.5531826,52.2524671],[-2.5673736,52.2501278],[-2.5648838,52.2424528],[-2.5796937,52.2395788],[-2.5894115,52.2312397],[-2.5783916,52.2277024],[-2.5837573,52.2158404],[-2.570176,52.2155049],[-2.5775034,52.2079916],[-2.5728763,52.2027736],[-2.5746239,52.1971369],[-2.5665516,52.1930872],[-2.576972,52.1871031],[-2.5822493,52.1935251],[-2.6106138,52.1969575],[-2.6134533,52.1949825],[-2.6102347,52.1917451],[-2.6163845,52.1866888],[-2.6245818,52.1910384],[-2.6287513,52.1880908],[-2.6343514,52.1921465],[-2.646994,52.1866832],[-2.6522487,52.1706819],[-2.6364667,52.1708603],[-2.6253394,52.1637827],[-2.6263006,52.1586395],[-2.6223171,52.1585798],[-2.6265262,52.1520056],[-2.6191287,52.1375982],[-2.6523862,52.1356137],[-2.6520192,52.1287038],[-2.6234765,52.1166737],[-2.6312485,52.1153013],[-2.6372454,52.1121159],[-2.6352029,52.1097444],[-2.6412154,52.1082832],[-2.6371084,52.1048078],[-2.6307689,52.1054779],[-2.6271879,52.1005909],[-2.6237202,52.1019263],[-2.6242946,52.098549],[-2.607183,52.1014491],[-2.5923422,52.100333],[-2.5803663,52.1047902],[-2.581282,52.109414],[-2.5756848,52.1119895],[-2.5669089,52.1094634],[-2.565348,52.1048947],[-2.529541,52.1113283],[-2.5061957,52.0998491],[-2.5071866,52.1120326],[-2.5019194,52.1203382],[-2.4980384,52.1191086],[-2.494704,52.1222863],[-2.4883,52.1166014],[-2.4676447,52.1161215],[-2.4667628,52.1066363],[-2.4490962,52.1082739],[-2.4464266,52.1134975],[-2.4547603,52.1229094],[-2.4458314,52.126417],[-2.439513,52.1251906],[-2.4238453,52.1349581],[-2.4270131,52.1382089],[-2.4338782,52.136359],[-2.4468193,52.1393448],[-2.4223129,52.1513934],[-2.4354257,52.1709919],[-2.4220133,52.1724009],[-2.4254643,52.1770051],[-2.4150709,52.1832499],[-2.4191488,52.1879601],[-2.4087132,52.1963524],[-2.4078657,52.202709],[-2.400482,52.2017049],[-2.4026614,52.2071376],[-2.396097,52.2056737],[-2.3928966,52.2103154],[-2.4015812,52.2153892],[-2.4040433,52.2212353],[-2.3976502,52.2216643],[-2.3965112,52.2247518],[-2.3864578,52.2222213],[-2.3859135,52.2264384]]],"type":"Polygon"},"id":"E02002909","properties":{"code":"E02002909","geography":"MSOA","name":"Herefordshire 005"},"type":"Feature"},{"geometry":{"coordinates":[[[-2.9775029,52.2597623],[-2.9785842,52.2623749],[-2.9897778,52.2604862],[-2.9986885,52.2641495],[-3.0095012,52.2634142],[-3.0455336,52.2531259],[-3.0452742,52.2468081],[-3.049949,52.2450031],[-3.0437068,52.2455118],[-3.0441647,52.2379348],[-3.0730376,52.2358668],[-3.0703738,52.2292279],[-3.0780091,52.2160351],[-3.0720917,52.2130776],[-3.1017925,52.2026362],[-3.0947222,52.1837216],[-3.1014078,52.1772571],[-3.1124869,52.1736143],[-3.1124562,52.1702221],[-3.1219915,52.1669079],[-3.1224271,52.1634108],[-3.098874,52.1546975],[-3.0825405,52.1630383],[-3.0715685,52.1581809],[-3.0725351,52.1557645],[-3.093686,52.1442972],[-3.1358685,52.1379001],[-3.1341301,52.1335799],[-3.1412234,52.1299138],[-3.1368089,52.1233119],[-3.1280558,52.1245622],[-3.1049795,52.1167195],[-3.0968374,52.1207079],[-3.0743131,52.1205779],[-3.0619841,52.11435],[-3.0702318,52.1097055],[-3.0573675,52.107662],[-3.0360418,52.1100899],[-3.0351328,52.1070922],[-3.0425149,52.1046334],[-3.0279743,52.1037591],[-2.9982779,52.109292],[-2.9882115,52.1166361],[-2.9832496,52.1128834],[-2.9867277,52.1074188],[-2.9661389,52.1032136],[-2.9708891,52.0946686],[-2.9673584,52.089083],[-2.9534336,52.0865747],[-2.9464847,52.0942239],[-2.9380634,52.0870408],[-2.9223468,52.0832573],[-2.9150942,52.0777191],[-2.9115312,52.0828856],[-2.9051074,52.0791473],[-2.8956366,52.1094566],[-2.8997691,52.1138118],[-2.8992924,52.12893],[-2.9056981,52.1365661],[-2.902922,52.1552783],[-2.9107491,52.156466],[-2.9193244,52.1667838],[-2.9250259,52.1679752],[-2.9085888,52.1827382],[-2.9042028,52.1934924],[-2.8844385,52.1995388],[-2.8986883,52.2103348],[-2.9109609,52.2069787],[-2.91795,52.2013404],[-2.9299975,52.206063],[-2.9460363,52.2047626],[-2.9447671,52.2155261],[-2.9500104,52.2192376],[-2.9696674,52.2232351],[-2.9583128,52.2298289],[-2.9467669,52.2310927],[-2.9468578,52.2358419],[-2.9393309,52.2370258],[-2.9180318,52.2314528],[-2.9066373,52.2400002],[-2.9205214,52.2490047],[-2.9205834,52.2540758],[-2.9284151,52.2550403],[-2.9266641,52.2606508],[-2.9659243,52.2560877],[-2.9699807,52.2592223],[-2.977555,52.2574864],[-2.9775029,52.2597623]]],"type":"Polygon"},"id":"E02002910","properties":{"code":"E02002910","geography":"MSOA","name":"Herefordshire 006"},"type":"Feature"},{"geometry":{"coordinates":[[[-2.7169128,52.1491077],[-2.7156227,52.1544185],[-2.7239791,52.1588493],[-2.7340694,52.1588013],[-2.7331819,52.1615458],[-2.7464424,52.159434],[-2.7541444,52.1628598],[-2.7719276,52.1601616],[-2.7789999,52.1649818],[-2.794771,52.1634399],[-2.8002153,52.1595363],[-2.7949697,52.1552548],[-2.8006555,52.1557329],[-2.8031298,52.1530863],[-2.8102549,52.1738963],[-2.8285907,52.1779447],[-2.817379,52.1826326],[-2.824901,52.1859162],[-2.8249065,52.1905166],[-2.8330602,52.19267],[-2.8505844,52.186208],[-2.8527013,52.1897591],[-2.8567372,52.1865211],[-2.848469,52.1778339],[-2.8607327,52.1791851],[-2.8591614,52.1921464],[-2.8713514,52.1924598],[-2.872991,52.185972],[-2.8857785,52.1787415],[-2.8933335,52.1810956],[-2.8965674,52.1894194],[-2.9042028,52.1934924],[-2.9085888,52.1827382],[-2.9250259,52.1679752],[-2.9193244,52.1667838],[-2.9107491,52.156466],[-2.902922,52.1552783],[-2.9056981,52.1365661],[-2.8992924,52.12893],[-2.8997691,52.1138118],[-2.8956366,52.1094566],[-2.9051074,52.0791473],[-2.8802139,52.0785338],[-2.8745707,52.0761221],[-2.8761512,52.0734633],[-2.8555697,52.0717438],[-2.8544436,52.0631982],[-2.8491191,52.0617442],[-2.8308686,52.0673416],[-2.8274128,52.0724641],[-2.8148882,52.0666117],[-2.8112559,52.0703636],[-2.808898,52.0601275],[-2.8017343,52.0569142],[-2.799582,52.0511391],[-2.7899305,52.0498882],[-2.7778293,52.0525408],[-2.7532666,52.0449053],[-2.740117,52.0471772],[-2.7431745,52.0535938],[-2.7602007,52.0603579],[-2.7538553,52.0655298],[-2.7746991,52.0695411],[-2.7692178,52.0776113],[-2.7452316,52.0766048],[-2.7408013,52.0902978],[-2.7458364,52.0980583],[-2.7347568,52.1033356],[-2.7409523,52.1095317],[-2.7386126,52.1130536],[-2.7472866,52.1147018],[-2.7463969,52.1177999],[-2.7151926,52.1191151],[-2.7054262,52.1275813],[-2.7136335,52.1332297],[-2.7217836,52.1339193],[-2.7238485,52.1416214],[-2.7169128,52.1491077]]],"type":"Polygon"},"id":"E02002911","properties":{"code":"E02002911","geography":"MSOA","name":"Herefordshire 007"},"type":"Feature"},{"geometry":{"coordinates":[[[-2.6520192,52.1287038],[-2.6592677,52.1302516],[-2.6636967,52.1352504],[-2.6742638,52.1369535],[-2.668634,52.1433458],[-2.670136,52.1452978],[-2.673317,52.143344],[-2.6741837,52.1474217],[-2.6882038,52.1473812],[-2.6935895,52.1525175],[-2.6902018,52.1482983],[-2.6958963,52.1467162],[-2.6989615,52.1507146],[-2.7097125,52.152809],[-2.7169128,52.1491077],[-2.7238485,52.1416214],[-2.7217836,52.1339193],[-2.7136335,52.1332297],[-2.7054262,52.1275813],[-2.7151926,52.1191151],[-2.7463969,52.1177999],[-2.7472866,52.1147018],[-2.7386126,52.1130536],[-2.7409523,52.1095317],[-2.7347568,52.1033356],[-2.7297444,52.1045106],[-2.7268504,52.1001882],[-2.7075167,52.1030975],[-2.6883417,52.0907548],[-2.6772526,52.0882724],[-2.6745581,52.0838016],[-2.6780866,52.0757117],[-2.6894542,52.0707199],[-2.6855713,52.0701713],[-2.6874988,52.0676931],[-2.6873621,52.0650948],[-2.6740139,52.0600339],[-2.660993,52.0624199],[-2.6521678,52.0522298],[-2.6396262,52.0480254],[-2.642223,52.0424172],[-2.631835,52.0403731],[-2.6356142,52.0439061],[-2.6303513,52.055312],[-2.6183229,52.0644323],[-2.6295742,52.0777345],[-2.6237298,52.0786862],[-2.6230388,52.0819428],[-2.5980565,52.084088],[-2.5876651,52.094136],[-2.584658,52.0896164],[-2.5799176,52.0916912],[-2.5843801,52.0989643],[-2.5923422,52.100333],[-2.607183,52.1014491],[-2.6242946,52.098549],[-2.6237202,52.1019263],[-2.6271879,52.1005909],[-2.6307689,52.1054779],[-2.6371084,52.1048078],[-2.6412154,52.1082832],[-2.6352029,52.1097444],[-2.6372454,52.1121159],[-2.6312485,52.1153013],[-2.6234765,52.1166737],[-2.6520192,52.1287038]]],"type":"Polygon"},"id":"E02002912","properties":{"code":"E02002912","geography":"MSOA","name":"Herefordshire 008"},"type":"Feature"},{"geometry":{"coordinates":[[[-2.3512106,52.1418398],[-2.3587246,52.1518847],[-2.3652327,52.1509918],[-2.3793235,52.1550999],[-2.3939742,52.1467375],[-2.4001918,52.1482459],[-2.4150863,52.1451987],[-2.4223129,52.1513934],[-2.4468193,52.1393448],[-2.4338782,52.136359],[-2.4270131,52.1382089],[-2.4238453,52.1349581],[-2.439513,52.1251906],[-2.4458314,52.126417],[-2.4547603,52.1229094],[-2.4464266,52.1134975],[-2.4490962,52.1082739],[-2.4667628,52.1066363],[-2.4715922,52.0993769],[-2.4788687,52.0974263],[-2.4888526,52.0798447],[-2.4960316,52.0759461],[-2.4877534,52.0672234],[-2.4712544,52.0677672],[-2.4521607,52.0707504],[-2.4383566,52.0536796],[-2.4287212,52.0560844],[-2.4235751,52.0541575],[-2.4088945,52.0624029],[-2.4014272,52.0581019],[-2.3515245,52.0564354],[-2.3394293,52.068914],[-2.3383023,52.0954387],[-2.3491218,52.0956355],[-2.3521303,52.1033988],[-2.356093,52.1270717],[-2.3446572,52.1325808],[-2.3512106,52.1418398]]],"type":"Polygon"},"id":"E02002913","properties":{"code":"E02002913","geography":"MSOA","name":"Herefordshire 009"},"type":"Feature"},{"geometry":{"coordinates":[[[-2.7452316,52.0766048],[-2.7692178,52.0776113],[-2.7746991,52.0695411],[-2.7538553,52.0655298],[-2.7241071,52.057075],[-2.723172,52.0654481],[-2.7186908,52.0651284],[-2.7078938,52.0720831],[-2.7032765,52.0738695],[-2.7452316,52.0766048]]],"type":"Polygon"},"id":"E02002914","properties":{"code":"E02002914","geography":"MSOA","name":"Herefordshire 010"},"type":"Feature"},{"geometry":{"coordinates":[[[-2.6874988,52.0676931],[-2.6855713,52.0701713],[-2.6894542,52.0707199],[-2.6780866,52.0757117],[-2.6745581,52.0838016],[-2.6772526,52.0882724],[-2.6883417,52.0907548],[-2.7075167,52.1030975],[-2.7268504,52.1001882],[-2.7297444,52.1045106],[-2.7347568,52.1033356],[-2.7458364,52.0980583],[-2.7408013,52.0902978],[-2.7452316,52.0766048],[-2.7032765,52.0738695],[-2.7078938,52.0720831],[-2.7028402,52.0694365],[-2.7085954,52.0661923],[-2.703856,52.0560232],[-2.6982338,52.0555341],[-2.6879819,52.0599133],[-2.6906092,52.0629668],[-2.6873831,52.0641179],[-2.6913157,52.0662411],[-2.6874988,52.0676931]]],"type":"Polygon"},"id":"E02002915","properties":{"code":"E02002915","geography":"MSOA","name":"Herefordshire 011"},"type":"Feature"},{"geometry":{"coordinates":[[[-2.6982338,52.0555341],[-2.703856,52.0560232],[-2.7085954,52.0661923],[-2.7028402,52.0694365],[-2.7078938,52.0720831],[-2.7186908,52.0651284],[-2.723172,52.0654481],[-2.7241071,52.057075],[-2.7204996,52.0567504],[-2.7198661,52.0521141],[-2.7127847,52.051484],[-2.7079318,52.0438119],[-2.6983011,52.0424622],[-2.6991453,52.048975],[-2.6982338,52.0555341]]],"type":"Polygon"},"id":"E02002916","properties":{"code":"E02002916","geography":"MSOA","name":"Herefordshire 012"},"type":"Feature"},{"geometry":{"coordinates":[[[-2.7241071,52.057075],[-2.7538553,52.0655298],[-2.7602007,52.0603579],[-2.7431745,52.0535938],[-2.740117,52.0471772],[-2.7365046,52.0478908],[-2.7270336,52.0502669],[-2.7198661,52.0521141],[-2.7204996,52.0567504],[-2.7241071,52.057075]]],"type":"Polygon"},"id":"E02002917","properties":{"code":"E02002917","geography":"MSOA","name":"Herefordshire 013"},"type":"Feature"},{"geometry":{"coordinates":[[[-2.6750691,52.0436511],[-2.6725104,52.0471472],[-2.6873831,52.0641179],[-2.6906092,52.0629668],[-2.6879819,52.0599133],[-2.6982338,52.0555341],[-2.6991453,52.048975],[-2.6750691,52.0436511]]],"type":"Polygon"},"id":"E02002918","properties":{"code":"E02002918","geography":"MSOA","name":"Herefordshire 014"},"type":"Feature"},{"geometry":{"coordinates":[[[-2.7079318,52.0438119],[-2.7127847,52.051484],[-2.7198661,52.0521141],[-2.7270336,52.0502669],[-2.7273705,52.0467471],[-2.7232527,52.0482724],[-2.7240114,52.0396099],[-2.7366377,52.0316257],[-2.7300977,52.0283685],[-2.7142106,52.0321064],[-2.7061022,52.0392402],[-2.7079318,52.0438119]]],"type":"Polygon"},"id":"E02002919","properties":{"code":"E02002919","geography":"MSOA","name":"Herefordshire 015"},"type":"Feature"},{"geometry":{"coordinates":[[[-2.740117,52.0471772],[-2.7532666,52.0449053],[-2.7778293,52.0525408],[-2.7899305,52.0498882],[-2.799582,52.0511391],[-2.8017343,52.0569142],[-2.808898,52.0601275],[-2.8112559,52.0703636],[-2.8148882,52.0666117],[-2.8274128,52.0724641],[-2.8308686,52.0673416],[-2.8491191,52.0617442],[-2.8544436,52.0631982],[-2.8555697,52.0717438],[-2.8761512,52.0734633],[-2.8811188,52.0692917],[-2.8769886,52.0665551],[-2.8783149,52.062298],[-2.8899708,52.0524516],[-2.8868638,52.0466788],[-2.8944452,52.0446435],[-2.8916073,52.0386391],[-2.9022928,52.0340226],[-2.8963221,52.0297278],[-2.8958242,52.0208246],[-2.8823378,52.0208534],[-2.8777947,52.0149271],[-2.8685771,52.0167269],[-2.8608417,52.0141283],[-2.8519972,52.0213566],[-2.83999,52.0232793],[-2.8417308,52.0303157],[-2.8478114,52.0339719],[-2.8419733,52.0384184],[-2.8244727,52.031221],[-2.8099129,52.0323729],[-2.7993282,52.0271928],[-2.7854236,52.0254009],[-2.7899141,52.0309983],[-2.7709215,52.0291372],[-2.7650916,52.0321955],[-2.7603843,52.0311822],[-2.7492789,52.0384077],[-2.7340184,52.0427972],[-2.7365046,52.0478908],[-2.740117,52.0471772]]],"type":"Polygon"},"id":"E02002920","properties":{"code":"E02002920","geography":"MSOA","name":"Herefordshire 016"},"type":"Feature"},{"geometry":{"coordinates":[[[-2.7366377,52.0316257],[-2.7240114,52.0396099],[-2.7232527,52.0482724],[-2.7273705,52.0467471],[-2.7270336,52.0502669],[-2.7365046,52.0478908],[-2.7340184,52.0427972],[-2.7492789,52.0384077],[-2.7444943,52.0329247],[-2.7366377,52.0316257]]],"type":"Polygon"},"id":"E02002921","properties":{"code":"E02002921","geography":"MSOA","name":"Herefordshire 017"},"type":"Feature"},{"geometry":{"coordinates":[[[-2.4667628,52.1066363],[-2.4676447,52.1161215],[-2.4883,52.1166014],[-2.494704,52.1222863],[-2.4980384,52.1191086],[-2.5019194,52.1203382],[-2.5071866,52.1120326],[-2.5061957,52.0998491],[-2.529541,52.1113283],[-2.565348,52.1048947],[-2.5669089,52.1094634],[-2.5756848,52.1119895],[-2.581282,52.109414],[-2.5803663,52.1047902],[-2.5923422,52.100333],[-2.5843801,52.0989643],[-2.5799176,52.0916912],[-2.584658,52.0896164],[-2.5876651,52.094136],[-2.5980565,52.084088],[-2.6230388,52.0819428],[-2.6237298,52.0786862],[-2.6295742,52.0777345],[-2.6183229,52.0644323],[-2.6303513,52.055312],[-2.6356142,52.0439061],[-2.631835,52.0403731],[-2.642223,52.0424172],[-2.6396262,52.0480254],[-2.6521678,52.0522298],[-2.660993,52.0624199],[-2.6740139,52.0600339],[-2.6873621,52.0650948],[-2.6874988,52.0676931],[-2.6913157,52.0662411],[-2.6873831,52.0641179],[-2.6725104,52.0471472],[-2.6750691,52.0436511],[-2.6572667,52.0393612],[-2.6679502,52.0318229],[-2.6569703,52.0267602],[-2.655215,52.0207244],[-2.6415628,52.025239],[-2.6366517,52.0308894],[-2.6316051,52.0287547],[-2.6376139,52.0133835],[-2.6246768,52.013057],[-2.6255401,52.0066794],[-2.6197836,52.002918],[-2.6279967,51.9994983],[-2.6339475,51.99174],[-2.6035099,51.9913625],[-2.6007975,51.987894],[-2.5992467,51.9936303],[-2.5898479,51.993566],[-2.5865602,51.9973751],[-2.5767913,51.9930146],[-2.5792053,51.9887606],[-2.5645062,51.9783721],[-2.5563291,51.9812584],[-2.5434753,51.9637117],[-2.5324624,51.9594401],[-2.512062,51.9644135],[-2.5059357,51.9595149],[-2.5008531,51.9605254],[-2.4990305,51.9637098],[-2.4922449,51.9641202],[-2.4949132,51.9810671],[-2.4886385,51.9873996],[-2.470981,51.994769],[-2.4776652,52.0001421],[-2.485498,52.0003241],[-2.4913527,52.0103929],[-2.4803668,52.0160517],[-2.4789337,52.0225211],[-2.4662061,52.023714],[-2.4668771,52.0297477],[-2.4603363,52.038505],[-2.47294,52.0476762],[-2.4712544,52.0677672],[-2.4877534,52.0672234],[-2.4960316,52.0759461],[-2.4888526,52.0798447],[-2.4788687,52.0974263],[-2.4715922,52.0993769],[-2.4667628,52.1066363]]],"type":"Polygon"},"id":"E02002922","properties":{"code":"E02002922","geography":"MSOA","name":"Herefordshire 018"},"type":"Feature"},{"geometry":{"coordinates":[[[-2.3515245,52.0564354],[-2.4014272,52.0581019],[-2.4088945,52.0624029],[-2.4235751,52.0541575],[-2.4287212,52.0560844],[-2.4383566,52.0536796],[-2.4521607,52.0707504],[-2.4712544,52.0677672],[-2.47294,52.0476762],[-2.4603363,52.038505],[-2.4668771,52.0297477],[-2.4662061,52.023714],[-2.4625553,52.0219006],[-2.4635434,52.0144018],[-2.4361162,52.0145651],[-2.4336382,52.0078704],[-2.4372947,51.9971583],[-2.4210136,51.9942328],[-2.3990195,51.9961372],[-2.3928934,52.0129498],[-2.3869846,52.0121575],[-2.3513817,52.0213498],[-2.3485982,52.048901],[-2.3515245,52.0564354]]],"type":"Polygon"},"id":"E02002923","properties":{"code":"E02002923","geography":"MSOA","name":"Herefordshire 019"},"type":"Feature"},{"geometry":{"coordinates":[[[-2.9051074,52.0791473],[-2.9115312,52.0828856],[-2.9150942,52.0777191],[-2.9223468,52.0832573],[-2.9380634,52.0870408],[-2.9464847,52.0942239],[-2.9534336,52.0865747],[-2.9673584,52.089083],[-2.9708891,52.0946686],[-2.9661389,52.1032136],[-2.9867277,52.1074188],[-2.9832496,52.1128834],[-2.9882115,52.1166361],[-2.9982779,52.109292],[-3.0279743,52.1037591],[-3.0425149,52.1046334],[-3.0351328,52.1070922],[-3.0360418,52.1100899],[-3.0573675,52.107662],[-3.0702318,52.1097055],[-3.0619841,52.11435],[-3.0743131,52.1205779],[-3.0968374,52.1207079],[-3.1049795,52.1167195],[-3.1054595,52.1053784],[-3.1227086,52.1031503],[-3.1188538,52.0887203],[-3.1259713,52.0783232],[-3.1164557,52.0658491],[-3.0905818,52.0505061],[-3.0928059,52.0474723],[-3.0862805,52.0401876],[-3.0991929,52.0226794],[-3.0868909,52.0139049],[-3.0840816,52.0041018],[-3.0673617,51.9831363],[-3.0396022,51.9664742],[-3.0353289,51.9597343],[-3.025938,51.9572758],[-3.0085167,51.9380747],[-3.0081171,51.9271243],[-2.9992365,51.9234516],[-2.9766597,51.9274839],[-2.9717925,51.904959],[-2.9523294,51.9062647],[-2.934003,51.9150079],[-2.9274139,51.9139595],[-2.9161099,51.9176538],[-2.9041306,51.9251756],[-2.892269,51.9254215],[-2.887023,51.9281972],[-2.8885157,51.9335652],[-2.8754185,51.9330818],[-2.8745316,51.9388721],[-2.8823951,51.9425566],[-2.873107,51.9467421],[-2.8741014,51.9534993],[-2.8602985,51.9640936],[-2.8707253,51.9720982],[-2.8609065,51.9746941],[-2.8462277,51.984619],[-2.8542684,51.9962155],[-2.8464424,51.9968439],[-2.846521,51.9992943],[-2.837664,51.9987975],[-2.832326,52.0023822],[-2.8392336,52.0016499],[-2.8435648,52.0057036],[-2.8456343,52.0008491],[-2.8541561,52.001005],[-2.853608,52.0067676],[-2.8585294,52.0080472],[-2.8608417,52.0141283],[-2.8685771,52.0167269],[-2.8777947,52.0149271],[-2.8823378,52.0208534],[-2.8958242,52.0208246],[-2.8963221,52.0297278],[-2.9022928,52.0340226],[-2.8916073,52.0386391],[-2.8944452,52.0446435],[-2.8868638,52.0466788],[-2.8899708,52.0524516],[-2.8783149,52.062298],[-2.8769886,52.0665551],[-2.8811188,52.0692917],[-2.8761512,52.0734633],[-2.8745707,52.0761221],[-2.8802139,52.0785338],[-2.9051074,52.0791473]]],"type":"Polygon"},"id":"E02002924","properties":{"code":"E02002924","geography":"MSOA","name":"Herefordshire 020"},"type":"Feature"},{"geometry":{"coordinates":[[[-2.6750691,52.0436511],[-2.6991453,52.048975],[-2.6983011,52.0424622],[-2.7079318,52.0438119],[-2.7061022,52.0392402],[-2.7142106,52.0321064],[-2.7300977,52.0283685],[-2.7366377,52.0316257],[-2.7444943,52.0329247],[-2.7492789,52.0384077],[-2.7603843,52.0311822],[-2.7650916,52.0321955],[-2.7709215,52.0291372],[-2.7899141,52.0309983],[-2.7854236,52.0254009],[-2.7993282,52.0271928],[-2.8099129,52.0323729],[-2.8244727,52.031221],[-2.8419733,52.0384184],[-2.8478114,52.0339719],[-2.8417308,52.0303157],[-2.83999,52.0232793],[-2.8519972,52.0213566],[-2.8608417,52.0141283],[-2.8585294,52.0080472],[-2.853608,52.0067676],[-2.8541561,52.001005],[-2.8456343,52.0008491],[-2.8435648,52.0057036],[-2.8392336,52.0016499],[-2.832326,52.0023822],[-2.837664,51.9987975],[-2.846521,51.9992943],[-2.8464424,51.9968439],[-2.8542684,51.9962155],[-2.8462277,51.984619],[-2.8609065,51.9746941],[-2.8707253,51.9720982],[-2.8602985,51.9640936],[-2.8741014,51.9534993],[-2.873107,51.9467421],[-2.8823951,51.9425566],[-2.8745316,51.9388721],[-2.8754185,51.9330818],[-2.8701401,51.9269505],[-2.8590033,51.9277264],[-2.8449445,51.9221269],[-2.8633138,51.9171807],[-2.8621022,51.9141065],[-2.8541181,51.9133114],[-2.8537225,51.9157358],[-2.8451464,51.915215],[-2.8419042,51.9177198],[-2.8361473,51.9060263],[-2.8209465,51.9053291],[-2.8087276,51.8962316],[-2.7970558,51.8884749],[-2.7683281,51.8804993],[-2.7727703,51.876811],[-2.7507595,51.8694078],[-2.7478114,51.8812197],[-2.7239591,51.8964073],[-2.7221235,51.9029191],[-2.6999811,51.9067448],[-2.6922558,51.9034826],[-2.6756529,51.9049776],[-2.6645612,51.9104106],[-2.6601303,51.913497],[-2.6632934,51.9174464],[-2.6605162,51.9231666],[-2.6701024,51.9246773],[-2.6542266,51.9472919],[-2.6616213,51.955252],[-2.6565382,51.9656829],[-2.6526645,51.9686126],[-2.6148783,51.9760992],[-2.601863,51.9839375],[-2.6007975,51.987894],[-2.6035099,51.9913625],[-2.6339475,51.99174],[-2.6279967,51.9994983],[-2.6197836,52.002918],[-2.6255401,52.0066794],[-2.6246768,52.013057],[-2.6376139,52.0133835],[-2.6316051,52.0287547],[-2.6366517,52.0308894],[-2.6415628,52.025239],[-2.655215,52.0207244],[-2.6569703,52.0267602],[-2.6679502,52.0318229],[-2.6572667,52.0393612],[-2.6750691,52.0436511]]],"type":"Polygon"},"id":"E02002925","properties":{"code":"E02002925","geography":"MSOA","name":"Herefordshire 021"},"type":"Feature"},{"geometry":{"coordinates":[[[-2.5624488,51.9200306],[-2.5459837,51.925728],[-2.5617796,51.9312852],[-2.5897943,51.9266552],[-2.5951177,51.9209139],[-2.5888344,51.9152227],[-2.5971801,51.9154985],[-2.6067079,51.9095471],[-2.6054597,51.9062544],[-2.5911602,51.902713],[-2.5894887,51.8973998],[-2.5850761,51.9022952],[-2.5803331,51.8964763],[-2.5716264,51.8989187],[-2.5528152,51.908296],[-2.5523064,51.9142887],[-2.5624488,51.9200306]]],"type":"Polygon"},"id":"E02002926","properties":{"code":"E02002926","geography":"MSOA","name":"Herefordshire 022"},"type":"Feature"},{"geometry":{"coordinates":[[[-2.5008531,51.9605254],[-2.5059357,51.9595149],[-2.512062,51.9644135],[-2.5324624,51.9594401],[-2.5434753,51.9637117],[-2.5563291,51.9812584],[-2.5645062,51.9783721],[-2.5792053,51.9887606],[-2.5767913,51.9930146],[-2.5865602,51.9973751],[-2.5898479,51.993566],[-2.5992467,51.9936303],[-2.6007975,51.987894],[-2.601863,51.9839375],[-2.6148783,51.9760992],[-2.6526645,51.9686126],[-2.6565382,51.9656829],[-2.6616213,51.955252],[-2.6542266,51.9472919],[-2.6701024,51.9246773],[-2.6605162,51.9231666],[-2.6632934,51.9174464],[-2.6601303,51.913497],[-2.6645612,51.9104106],[-2.6756529,51.9049776],[-2.6922558,51.9034826],[-2.6999811,51.9067448],[-2.7221235,51.9029191],[-2.7239591,51.8964073],[-2.7478114,51.8812197],[-2.7507595,51.8694078],[-2.7727703,51.876811],[-2.7788377,51.8659538],[-2.7696083,51.8623662],[-2.7568181,51.8460115],[-2.7412995,51.8425681],[-2.7388641,51.8366597],[-2.7315344,51.8414042],[-2.7275723,51.8400874],[-2.7197076,51.8487906],[-2.7150419,51.8402227],[-2.7072044,51.8393449],[-2.7051452,51.8456529],[-2.697322,51.8447626],[-2.6932923,51.8338356],[-2.6869995,51.8330505],[-2.6828536,51.8384504],[-2.6661544,51.8356437],[-2.6581919,51.8327045],[-2.656854,51.8268751],[-2.6502257,51.8261403],[-2.6359676,51.8399056],[-2.6367079,51.8430894],[-2.625464,51.838958],[-2.6215912,51.8433182],[-2.6094322,51.8467903],[-2.6012147,51.8562093],[-2.5939166,51.855617],[-2.5861961,51.8497782],[-2.5788199,51.8518424],[-2.5842816,51.8605991],[-2.5616563,51.8642849],[-2.5439004,51.8602246],[-2.5316229,51.8607638],[-2.5222323,51.8646885],[-2.5086234,51.8851612],[-2.5019466,51.8862453],[-2.5002528,51.8817301],[-2.4946553,51.8842318],[-2.4938608,51.8799951],[-2.487794,51.8804096],[-2.486728,51.8847075],[-2.4807336,51.8857171],[-2.4734076,51.8855455],[-2.4652127,51.8929828],[-2.4460092,51.8939863],[-2.4393147,51.8995057],[-2.4453884,51.9005476],[-2.4401543,51.902434],[-2.4464402,51.9150748],[-2.4660427,51.9279659],[-2.4654879,51.951688],[-2.4737291,51.9565304],[-2.4861075,51.9574121],[-2.4901879,51.9549713],[-2.5008531,51.9605254]],[[-2.5624488,51.9200306],[-2.5523064,51.9142887],[-2.5528152,51.908296],[-2.5716264,51.8989187],[-2.5803331,51.8964763],[-2.5850761,51.9022952],[-2.5894887,51.8973998],[-2.5911602,51.902713],[-2.6054597,51.9062544],[-2.6067079,51.9095471],[-2.5971801,51.9154985],[-2.5888344,51.9152227],[-2.5951177,51.9209139],[-2.5897943,51.9266552],[-2.5617796,51.9312852],[-2.5459837,51.925728],[-2.5624488,51.9200306]]],"type":"Polygon"},"id":"E02002927","properties":{"code":"E02002927","geography":"MSOA","name":"Herefordshire 023"},"type":"Feature"}],"type":"FeatureCollection"}
