{"features":[{"geometry":{"coordinates":[[[-1.5875509,54.8943332],[-1.5937578,54.9017387],[-1.5976815,54.9015772],[-1.6119038,54.8952795],[-1.6187424,54.8870464],[-1.6276057,54.8863001],[-1.6436781,54.8787957],[-1.6509704,54.8796594],[-1.6463346,54.8813876],[-1.650001,54.8936185],[-1.6599401,54.890656],[-1.6655068,54.8859446],[-1.6653529,54.8766624],[-1.6580078,54.8761124],[-1.6357456,54.8718229],[-1.6235738,54.873319],[-1.6205804,54.8767893],[-1.596134,54.8760579],[-1.5807013,54.8810497],[-1.5875509,54.8943332]]],"type":"Polygon"},"id":"E02004290","properties":{"code":"E02004290","geography":"MSOA","name":"County Durham 002"},"type":"Feature"},{"geometry":{"coordinates":[[[-1.596134,54.8760579],[-1.6205804,54.8767893],[-1.6235738,54.873319],[-1.6357456,54.8718229],[-1.6580078,54.8761124],[-1.6640247,54.8729524],[-1.6616077,54.8642048],[-1.6698573,54.8568825],[-1.6536073,54.8549891],[-1.6344766,54.8577604],[-1.6336198,54.8626987],[-1.6280123,54.8638921],[-1.6200383,54.8622891],[-1.6099631,54.8652559],[-1.6025647,54.8641086],[-1.6036384,54.8613842],[-1.5977371,54.8616754],[-1.5828309,54.8686974],[-1.5949693,54.8712654],[-1.596134,54.8760579]]],"type":"Polygon"},"id":"E02004291","properties":{"code":"E02004291","geography":"MSOA","name":"County Durham 005"},"type":"Feature"},{"geometry":{"coordinates":[[[-1.5195562,54.8759817],[-1.5319485,54.8781815],[-1.5415559,54.8734509],[-1.5617978,54.8757087],[-1.5593989,54.8820287],[-1.5798977,54.8777619],[-1.5807013,54.8810497],[-1.596134,54.8760579],[-1.5949693,54.8712654],[-1.5828309,54.8686974],[-1.5977371,54.8616754],[-1.574188,54.8584895],[-1.5647157,54.8580726],[-1.56488,54.8626692],[-1.5579961,54.8620737],[-1.5606872,54.8708301],[-1.5383588,54.865611],[-1.51893,54.8722878],[-1.5195562,54.8759817]]],"type":"Polygon"},"id":"E02004292","properties":{"code":"E02004292","geography":"MSOA","name":"County Durham 007"},"type":"Feature"},{"geometry":{"coordinates":[[[-1.5977371,54.8616754],[-1.6036384,54.8613842],[-1.6025647,54.8641086],[-1.6099631,54.8652559],[-1.6200383,54.8622891],[-1.6280123,54.8638921],[-1.6336198,54.8626987],[-1.6344766,54.8577604],[-1.6287779,54.8548832],[-1.6158472,54.8549924],[-1.611694,54.8477949],[-1.6065053,54.8490542],[-1.6007564,54.8519979],[-1.5878709,54.8467167],[-1.5768848,54.8492044],[-1.574188,54.8584895],[-1.5977371,54.8616754]]],"type":"Polygon"},"id":"E02004293","properties":{"code":"E02004293","geography":"MSOA","name":"County Durham 011"},"type":"Feature"},{"geometry":{"coordinates":[[[-1.5647157,54.8580726],[-1.574188,54.8584895],[-1.5768848,54.8492044],[-1.5878709,54.8467167],[-1.6007564,54.8519979],[-1.6065053,54.8490542],[-1.59823,54.8414616],[-1.5948071,54.8440344],[-1.5896531,54.8416782],[-1.5798082,54.8426634],[-1.5819355,54.8351395],[-1.5750125,54.8326683],[-1.5704834,54.8343335],[-1.5696591,54.8457703],[-1.5645731,54.8470811],[-1.5608992,54.840765],[-1.5560734,54.8462907],[-1.5647157,54.8580726]]],"type":"Polygon"},"id":"E02004294","properties":{"code":"E02004294","geography":"MSOA","name":"County Durham 013"},"type":"Feature"},{"geometry":{"coordinates":[[[-1.5066622,54.8711351],[-1.5195562,54.8759817],[-1.51893,54.8722878],[-1.5383588,54.865611],[-1.5606872,54.8708301],[-1.5579961,54.8620737],[-1.56488,54.8626692],[-1.5647157,54.8580726],[-1.5560734,54.8462907],[-1.5608992,54.840765],[-1.5645731,54.8470811],[-1.5696591,54.8457703],[-1.5704834,54.8343335],[-1.5585944,54.8305345],[-1.5569358,54.8257521],[-1.5399369,54.8251121],[-1.5353835,54.8276329],[-1.5141789,54.8284969],[-1.5164094,54.8348262],[-1.5035564,54.8374697],[-1.5076388,54.8504005],[-1.5103816,54.8620063],[-1.5066622,54.8711351]]],"type":"Polygon"},"id":"E02004295","properties":{"code":"E02004295","geography":"MSOA","name":"County Durham 015"},"type":"Feature"},{"geometry":{"coordinates":[[[-1.6065053,54.8490542],[-1.611694,54.8477949],[-1.6158472,54.8549924],[-1.6287779,54.8548832],[-1.6344766,54.8577604],[-1.6536073,54.8549891],[-1.6537603,54.8489006],[-1.6616729,54.8417018],[-1.6642346,54.8253519],[-1.647768,54.8258021],[-1.6458852,54.8221494],[-1.6387737,54.8205562],[-1.6410688,54.8144559],[-1.6241984,54.8114448],[-1.6070702,54.8176312],[-1.5925027,54.8172978],[-1.5842748,54.8230062],[-1.5730552,54.8200284],[-1.5703221,54.8243893],[-1.5569358,54.8257521],[-1.5585944,54.8305345],[-1.5704834,54.8343335],[-1.5750125,54.8326683],[-1.5819355,54.8351395],[-1.5798082,54.8426634],[-1.5896531,54.8416782],[-1.5948071,54.8440344],[-1.59823,54.8414616],[-1.6065053,54.8490542]]],"type":"Polygon"},"id":"E02004296","properties":{"code":"E02004296","geography":"MSOA","name":"County Durham 019"},"type":"Feature"},{"geometry":{"coordinates":[[[-1.7375798,54.9186924],[-1.7506688,54.9173749],[-1.759906,54.9107398],[-1.7610223,54.9084273],[-1.7711053,54.9072805],[-1.7765246,54.9049757],[-1.7732661,54.9002904],[-1.7621975,54.8873746],[-1.7528758,54.8833286],[-1.7627884,54.8813533],[-1.7591294,54.8761957],[-1.755129,54.8806474],[-1.7470043,54.8814975],[-1.7412503,54.8891965],[-1.7320353,54.8879267],[-1.7341612,54.885183],[-1.7286214,54.8845697],[-1.7327383,54.8839407],[-1.7328155,54.8790882],[-1.7270807,54.8790542],[-1.7273623,54.8854104],[-1.7218027,54.885393],[-1.7241896,54.8875791],[-1.7157857,54.8921783],[-1.710312,54.8837366],[-1.7131057,54.8819005],[-1.7057359,54.8804332],[-1.6762664,54.9053332],[-1.674826,54.909295],[-1.6876444,54.90791],[-1.6916823,54.9026016],[-1.6986213,54.9090458],[-1.7248962,54.908793],[-1.7375798,54.9186924]]],"type":"Polygon"},"id":"E02004297","properties":{"code":"E02004297","geography":"MSOA","name":"County Durham 001"},"type":"Feature"},{"geometry":{"coordinates":[[[-1.7711053,54.9072805],[-1.7817462,54.9115356],[-1.7912412,54.908666],[-1.7949164,54.9035394],[-1.8074518,54.907219],[-1.821003,54.9056544],[-1.8276861,54.9054863],[-1.834676,54.8990185],[-1.8454389,54.8968956],[-1.8474655,54.8897748],[-1.8544266,54.8911774],[-1.8508721,54.8848214],[-1.8600391,54.8780263],[-1.8611082,54.8666252],[-1.8490946,54.8610289],[-1.8407631,54.8674846],[-1.8295843,54.8642327],[-1.8202518,54.873168],[-1.7991903,54.8715855],[-1.7873925,54.8778813],[-1.7853516,54.8838804],[-1.7746724,54.887857],[-1.7732661,54.9002904],[-1.7765246,54.9049757],[-1.7711053,54.9072805]]],"type":"Polygon"},"id":"E02004298","properties":{"code":"E02004298","geography":"MSOA","name":"County Durham 003"},"type":"Feature"},{"geometry":{"coordinates":[[[-1.6599401,54.890656],[-1.6630332,54.8959351],[-1.6781227,54.8998373],[-1.6762664,54.9053332],[-1.7057359,54.8804332],[-1.7168476,54.8784327],[-1.7197172,54.8747047],[-1.7140259,54.8755735],[-1.7056886,54.8666525],[-1.7014565,54.8670534],[-1.6931366,54.8723318],[-1.6794403,54.8710962],[-1.6698573,54.8568825],[-1.6616077,54.8642048],[-1.6640247,54.8729524],[-1.6580078,54.8761124],[-1.6653529,54.8766624],[-1.6655068,54.8859446],[-1.6599401,54.890656]]],"type":"Polygon"},"id":"E02004299","properties":{"code":"E02004299","geography":"MSOA","name":"County Durham 004"},"type":"Feature"},{"geometry":{"coordinates":[[[-1.7057359,54.8804332],[-1.7131057,54.8819005],[-1.710312,54.8837366],[-1.7157857,54.8921783],[-1.7241896,54.8875791],[-1.7218027,54.885393],[-1.7273623,54.8854104],[-1.7270807,54.8790542],[-1.7328155,54.8790882],[-1.7327383,54.8839407],[-1.7286214,54.8845697],[-1.7341612,54.885183],[-1.7320353,54.8879267],[-1.7412503,54.8891965],[-1.7470043,54.8814975],[-1.755129,54.8806474],[-1.7591294,54.8761957],[-1.7627884,54.8813533],[-1.7528758,54.8833286],[-1.7621975,54.8873746],[-1.7732661,54.9002904],[-1.7746724,54.887857],[-1.7853516,54.8838804],[-1.7873925,54.8778813],[-1.7802854,54.8684511],[-1.7804778,54.8653164],[-1.7701827,54.8630767],[-1.7440864,54.8580894],[-1.7460364,54.8544722],[-1.7396618,54.8554719],[-1.7387146,54.8602009],[-1.7298755,54.858867],[-1.7297542,54.8629579],[-1.7211881,54.8659569],[-1.7281473,54.8711292],[-1.7197172,54.8747047],[-1.7168476,54.8784327],[-1.7057359,54.8804332]]],"type":"Polygon"},"id":"E02004300","properties":{"code":"E02004300","geography":"MSOA","name":"County Durham 006"},"type":"Feature"},{"geometry":{"coordinates":[[[-1.6698573,54.8568825],[-1.6794403,54.8710962],[-1.6931366,54.8723318],[-1.7014565,54.8670534],[-1.7028466,54.8616739],[-1.6953829,54.8605816],[-1.6839077,54.8476005],[-1.6616904,54.842997],[-1.6537603,54.8489006],[-1.6536073,54.8549891],[-1.6698573,54.8568825]]],"type":"Polygon"},"id":"E02004301","properties":{"code":"E02004301","geography":"MSOA","name":"County Durham 008"},"type":"Feature"},{"geometry":{"coordinates":[[[-1.7014565,54.8670534],[-1.7056886,54.8666525],[-1.7140259,54.8755735],[-1.7197172,54.8747047],[-1.7281473,54.8711292],[-1.7211881,54.8659569],[-1.7297542,54.8629579],[-1.7298755,54.858867],[-1.7387146,54.8602009],[-1.7396618,54.8554719],[-1.7460364,54.8544722],[-1.7440864,54.8580894],[-1.7701827,54.8630767],[-1.7734883,54.8568732],[-1.7317689,54.8421023],[-1.7288521,54.8460377],[-1.721068,54.8407642],[-1.7069514,54.8437616],[-1.70494,54.8404885],[-1.7000639,54.8410022],[-1.6976777,54.8452812],[-1.6839077,54.8476005],[-1.6953829,54.8605816],[-1.7028466,54.8616739],[-1.7014565,54.8670534]]],"type":"Polygon"},"id":"E02004302","properties":{"code":"E02004302","geography":"MSOA","name":"County Durham 009"},"type":"Feature"},{"geometry":{"coordinates":[[[-1.7802854,54.8684511],[-1.7873925,54.8778813],[-1.7991903,54.8715855],[-1.8202518,54.873168],[-1.8295843,54.8642327],[-1.8407631,54.8674846],[-1.8490946,54.8610289],[-1.8468562,54.8565821],[-1.8405035,54.8569837],[-1.8434641,54.8528358],[-1.8315221,54.8443255],[-1.8244273,54.8472018],[-1.8183994,54.8578586],[-1.8102573,54.854401],[-1.8107311,54.8574797],[-1.8069139,54.8569332],[-1.8108649,54.8604712],[-1.805725,54.8622575],[-1.8059535,54.8667869],[-1.7946393,54.8623101],[-1.7802854,54.8684511]]],"type":"Polygon"},"id":"E02004303","properties":{"code":"E02004303","geography":"MSOA","name":"County Durham 010"},"type":"Feature"},{"geometry":{"coordinates":[[[-1.7701827,54.8630767],[-1.7804778,54.8653164],[-1.7802854,54.8684511],[-1.7946393,54.8623101],[-1.8059535,54.8667869],[-1.805725,54.8622575],[-1.8108649,54.8604712],[-1.8069139,54.8569332],[-1.8107311,54.8574797],[-1.8102573,54.854401],[-1.8183994,54.8578586],[-1.8244273,54.8472018],[-1.8315221,54.8443255],[-1.8300269,54.8383007],[-1.8165537,54.8338556],[-1.8146844,54.8285736],[-1.8091483,54.8280663],[-1.8008948,54.8412041],[-1.7906783,54.8358182],[-1.7759879,54.847048],[-1.7734883,54.8568732],[-1.7701827,54.8630767]]],"type":"Polygon"},"id":"E02004304","properties":{"code":"E02004304","geography":"MSOA","name":"County Durham 012"},"type":"Feature"},{"geometry":{"coordinates":[[[-1.8490946,54.8610289],[-1.8611082,54.8666252],[-1.8696614,54.8615504],[-1.8665925,54.8553285],[-1.8704002,54.8506653],[-1.8874909,54.8436027],[-1.8967123,54.8458782],[-1.9140347,54.8395209],[-1.9138918,54.8339638],[-1.920746,54.8379837],[-1.9181281,54.8407655],[-1.9271469,54.8412902],[-1.920968,54.8424445],[-1.9224011,54.8497435],[-1.9318288,54.8508971],[-1.9326722,54.8541799],[-1.9393203,54.8517728],[-1.9524035,54.8542342],[-1.953142,54.8500799],[-1.9683148,54.8433434],[-1.9853168,54.8406781],[-2.0141425,54.8287143],[-2.0293226,54.8172938],[-2.0322702,54.7998745],[-2.0052225,54.7947896],[-1.9928562,54.7762454],[-1.9754476,54.7707433],[-1.9542403,54.7857616],[-1.945292,54.7970736],[-1.9261492,54.7940704],[-1.9160478,54.7965249],[-1.8994184,54.799232],[-1.890033,54.7963841],[-1.8982038,54.8004666],[-1.8914297,54.8068131],[-1.8714746,54.8071576],[-1.8700068,54.8150855],[-1.8634841,54.8145683],[-1.8567758,54.8184961],[-1.8449292,54.8171442],[-1.8462304,54.8206795],[-1.8185599,54.8157514],[-1.8146844,54.8285736],[-1.8165537,54.8338556],[-1.8300269,54.8383007],[-1.8315221,54.8443255],[-1.8434641,54.8528358],[-1.8405035,54.8569837],[-1.8468562,54.8565821],[-1.8490946,54.8610289]]],"type":"Polygon"},"id":"E02004305","properties":{"code":"E02004305","geography":"MSOA","name":"County Durham 014"},"type":"Feature"},{"geometry":{"coordinates":[[[-1.6839077,54.8476005],[-1.6976777,54.8452812],[-1.7000639,54.8410022],[-1.70494,54.8404885],[-1.7069514,54.8437616],[-1.721068,54.8407642],[-1.7288521,54.8460377],[-1.7317689,54.8421023],[-1.7734883,54.8568732],[-1.7759879,54.847048],[-1.7906783,54.8358182],[-1.8008948,54.8412041],[-1.8091483,54.8280663],[-1.8146844,54.8285736],[-1.8185599,54.8157514],[-1.8462304,54.8206795],[-1.8449292,54.8171442],[-1.8567758,54.8184961],[-1.8634841,54.8145683],[-1.8700068,54.8150855],[-1.8714746,54.8071576],[-1.8914297,54.8068131],[-1.8982038,54.8004666],[-1.890033,54.7963841],[-1.8994184,54.799232],[-1.9160478,54.7965249],[-1.8813318,54.7784165],[-1.8681268,54.7936996],[-1.8647647,54.7916099],[-1.8464984,54.7983782],[-1.8475838,54.8009445],[-1.8399341,54.802752],[-1.8392979,54.800526],[-1.8307246,54.8041303],[-1.8224337,54.8046212],[-1.8211226,54.8020873],[-1.8058428,54.8042296],[-1.8005455,54.7999817],[-1.7914672,54.8013745],[-1.8037057,54.793904],[-1.7995538,54.789631],[-1.7874332,54.7877231],[-1.7786752,54.7993352],[-1.7586311,54.7922257],[-1.7465601,54.7943375],[-1.7380184,54.7906317],[-1.7409319,54.7963083],[-1.7371259,54.7983501],[-1.7175702,54.7954379],[-1.707131,54.800046],[-1.7065816,54.8050808],[-1.6957273,54.8032984],[-1.689536,54.8039381],[-1.6899421,54.8074645],[-1.6546534,54.8065181],[-1.6552027,54.8155908],[-1.6642346,54.8253519],[-1.6616729,54.8417018],[-1.6537603,54.8489006],[-1.6616904,54.842997],[-1.6839077,54.8476005]]],"type":"Polygon"},"id":"E02004306","properties":{"code":"E02004306","geography":"MSOA","name":"County Durham 020"},"type":"Feature"},{"geometry":{"coordinates":[[[-1.6546534,54.8065181],[-1.6899421,54.8074645],[-1.689536,54.8039381],[-1.6957273,54.8032984],[-1.7065816,54.8050808],[-1.707131,54.800046],[-1.7175702,54.7954379],[-1.7371259,54.7983501],[-1.7409319,54.7963083],[-1.7380184,54.7906317],[-1.7465601,54.7943375],[-1.7586311,54.7922257],[-1.7786752,54.7993352],[-1.7874332,54.7877231],[-1.7995538,54.789631],[-1.8037057,54.793904],[-1.7914672,54.8013745],[-1.8005455,54.7999817],[-1.8058428,54.8042296],[-1.8211226,54.8020873],[-1.8224337,54.8046212],[-1.8307246,54.8041303],[-1.8392979,54.800526],[-1.8399341,54.802752],[-1.8475838,54.8009445],[-1.8464984,54.7983782],[-1.8647647,54.7916099],[-1.8681268,54.7936996],[-1.8813318,54.7784165],[-1.8587433,54.7710493],[-1.85033,54.7643441],[-1.8406165,54.7569961],[-1.8102867,54.7518358],[-1.8066119,54.7466049],[-1.7950888,54.7472756],[-1.7919696,54.7502202],[-1.7739701,54.751226],[-1.7443515,54.7594208],[-1.7463684,54.7644412],[-1.7556785,54.7678684],[-1.7360655,54.7733284],[-1.7165397,54.7750754],[-1.7022169,54.7729119],[-1.6696558,54.7818507],[-1.6676087,54.7859225],[-1.6475333,54.7831224],[-1.6660631,54.8003159],[-1.6566007,54.8037849],[-1.6514527,54.8000234],[-1.6546534,54.8065181]]],"type":"Polygon"},"id":"E02004307","properties":{"code":"E02004307","geography":"MSOA","name":"County Durham 024"},"type":"Feature"},{"geometry":{"coordinates":[[[-1.5254611,54.8060201],[-1.5403766,54.814485],[-1.5285903,54.81861],[-1.5291838,54.8244671],[-1.5353835,54.8276329],[-1.5399369,54.8251121],[-1.5569358,54.8257521],[-1.5703221,54.8243893],[-1.5730552,54.8200284],[-1.5842748,54.8230062],[-1.5925027,54.8172978],[-1.5885372,54.8083136],[-1.5894548,54.8063387],[-1.5835605,54.8081535],[-1.580427,54.8052654],[-1.5839445,54.8002075],[-1.5807138,54.7980755],[-1.5718939,54.7992522],[-1.5686179,54.7964189],[-1.5767655,54.7928257],[-1.5726957,54.7891677],[-1.569436,54.7926671],[-1.5583264,54.7899426],[-1.5448933,54.790964],[-1.5473783,54.7967404],[-1.5387144,54.797539],[-1.5362667,54.8030946],[-1.5254611,54.8060201]]],"type":"Polygon"},"id":"E02004308","properties":{"code":"E02004308","geography":"MSOA","name":"County Durham 022"},"type":"Feature"},{"geometry":{"coordinates":[[[-1.5767655,54.7928257],[-1.5686179,54.7964189],[-1.5718939,54.7992522],[-1.5807138,54.7980755],[-1.5839445,54.8002075],[-1.580427,54.8052654],[-1.5835605,54.8081535],[-1.5894548,54.8063387],[-1.5885372,54.8083136],[-1.6020188,54.8018996],[-1.5987396,54.7923092],[-1.604542,54.7919997],[-1.5998328,54.7891866],[-1.5767655,54.7928257]]],"type":"Polygon"},"id":"E02004309","properties":{"code":"E02004309","geography":"MSOA","name":"County Durham 023"},"type":"Feature"},{"geometry":{"coordinates":[[[-1.5925027,54.8172978],[-1.6070702,54.8176312],[-1.6241984,54.8114448],[-1.6410688,54.8144559],[-1.6387737,54.8205562],[-1.6458852,54.8221494],[-1.647768,54.8258021],[-1.6642346,54.8253519],[-1.6552027,54.8155908],[-1.6546534,54.8065181],[-1.6514527,54.8000234],[-1.6566007,54.8037849],[-1.6660631,54.8003159],[-1.6475333,54.7831224],[-1.6417879,54.7783008],[-1.6456285,54.7719615],[-1.6510394,54.7748582],[-1.6583632,54.7735636],[-1.6420999,54.7642375],[-1.6271752,54.7680412],[-1.6167242,54.7647387],[-1.6093957,54.7658684],[-1.6003299,54.7730293],[-1.6048549,54.7749038],[-1.5981075,54.7812581],[-1.6058415,54.788695],[-1.5998328,54.7891866],[-1.604542,54.7919997],[-1.5987396,54.7923092],[-1.6020188,54.8018996],[-1.5885372,54.8083136],[-1.5925027,54.8172978]]],"type":"Polygon"},"id":"E02004310","properties":{"code":"E02004310","geography":"MSOA","name":"County Durham 026"},"type":"Feature"},{"geometry":{"coordinates":[[[-1.5033055,54.8366211],[-1.5035564,54.8374697],[-1.5164094,54.8348262],[-1.5141789,54.8284969],[-1.5353835,54.8276329],[-1.5291838,54.8244671],[-1.5285903,54.81861],[-1.5403766,54.814485],[-1.5254611,54.8060201],[-1.5090497,54.7982573],[-1.5178329,54.7898216],[-1.5144949,54.7820024],[-1.526498,54.7802327],[-1.5279322,54.7749739],[-1.5327027,54.774953],[-1.5314561,54.7679504],[-1.5188345,54.7720057],[-1.5145146,54.7696891],[-1.5185385,54.7648461],[-1.4996986,54.7620161],[-1.4904945,54.7564209],[-1.4743867,54.7522075],[-1.4743178,54.7496162],[-1.4565563,54.74702],[-1.4360994,54.7563374],[-1.4164383,54.7518185],[-1.4106584,54.7529094],[-1.4109338,54.7574822],[-1.4032719,54.760016],[-1.4075181,54.7631446],[-1.4059596,54.7685492],[-1.4362606,54.7723535],[-1.449865,54.7682675],[-1.4715984,54.7789053],[-1.4684302,54.7906207],[-1.448758,54.7887907],[-1.4455465,54.7910542],[-1.4376392,54.7942139],[-1.4375186,54.8005174],[-1.444009,54.8024606],[-1.4545898,54.8000121],[-1.4931894,54.7998631],[-1.4818428,54.8096426],[-1.4942934,54.8160035],[-1.4903806,54.8203198],[-1.4937271,54.8234634],[-1.4974959,54.8226192],[-1.5042669,54.8312208],[-1.5033055,54.8366211]]],"type":"Polygon"},"id":"E02004311","properties":{"code":"E02004311","geography":"MSOA","name":"County Durham 027"},"type":"Feature"},{"geometry":{"coordinates":[[[-1.5327027,54.774953],[-1.5279322,54.7749739],[-1.526498,54.7802327],[-1.5144949,54.7820024],[-1.5178329,54.7898216],[-1.5090497,54.7982573],[-1.5254611,54.8060201],[-1.5362667,54.8030946],[-1.5387144,54.797539],[-1.5473783,54.7967404],[-1.5448933,54.790964],[-1.5583264,54.7899426],[-1.5643772,54.787101],[-1.5637454,54.7835586],[-1.5571633,54.7842393],[-1.5406388,54.782358],[-1.5331007,54.7853414],[-1.5327027,54.774953]]],"type":"Polygon"},"id":"E02004312","properties":{"code":"E02004312","geography":"MSOA","name":"County Durham 028"},"type":"Feature"},{"geometry":{"coordinates":[[[-1.5327027,54.774953],[-1.5331007,54.7853414],[-1.5406388,54.782358],[-1.5571633,54.7842393],[-1.5645802,54.7787303],[-1.5557472,54.7769121],[-1.5601086,54.770666],[-1.5564626,54.7679995],[-1.5454387,54.7659098],[-1.5314561,54.7679504],[-1.5327027,54.774953]]],"type":"Polygon"},"id":"E02004313","properties":{"code":"E02004313","geography":"MSOA","name":"County Durham 029"},"type":"Feature"},{"geometry":{"coordinates":[[[-1.5564626,54.7679995],[-1.5601086,54.770666],[-1.5557472,54.7769121],[-1.5645802,54.7787303],[-1.5571633,54.7842393],[-1.5637454,54.7835586],[-1.5750798,54.7812359],[-1.5795884,54.7766224],[-1.5904825,54.7774286],[-1.5795469,54.7688202],[-1.5879768,54.7650641],[-1.5803817,54.7620231],[-1.590651,54.7528789],[-1.5874664,54.7382027],[-1.5793387,54.7406316],[-1.5844007,54.7488917],[-1.5811145,54.7504919],[-1.5650576,54.7467149],[-1.5623328,54.7424303],[-1.5576364,54.7432383],[-1.5606756,54.7517221],[-1.5545695,54.7557236],[-1.5582505,54.7589902],[-1.5537258,54.7650227],[-1.5564626,54.7679995]]],"type":"Polygon"},"id":"E02004314","properties":{"code":"E02004314","geography":"MSOA","name":"County Durham 030"},"type":"Feature"},{"geometry":{"coordinates":[[[-1.5583264,54.7899426],[-1.569436,54.7926671],[-1.5726957,54.7891677],[-1.5767655,54.7928257],[-1.5998328,54.7891866],[-1.6058415,54.788695],[-1.5981075,54.7812581],[-1.6048549,54.7749038],[-1.6003299,54.7730293],[-1.6093957,54.7658684],[-1.6224369,54.7534987],[-1.6194686,54.751286],[-1.6252359,54.7491193],[-1.6172939,54.7408367],[-1.6197377,54.7358209],[-1.6054168,54.7288848],[-1.5960381,54.7302147],[-1.5793387,54.7406316],[-1.5874664,54.7382027],[-1.590651,54.7528789],[-1.5803817,54.7620231],[-1.5879768,54.7650641],[-1.5795469,54.7688202],[-1.5904825,54.7774286],[-1.5795884,54.7766224],[-1.5750798,54.7812359],[-1.5637454,54.7835586],[-1.5643772,54.787101],[-1.5583264,54.7899426]]],"type":"Polygon"},"id":"E02004315","properties":{"code":"E02004315","geography":"MSOA","name":"County Durham 033"},"type":"Feature"},{"geometry":{"coordinates":[[[-1.6475333,54.7831224],[-1.6676087,54.7859225],[-1.6696558,54.7818507],[-1.7022169,54.7729119],[-1.7165397,54.7750754],[-1.7360655,54.7733284],[-1.7556785,54.7678684],[-1.7463684,54.7644412],[-1.7443515,54.7594208],[-1.7278054,54.7581796],[-1.7310779,54.7501051],[-1.7206324,54.7521518],[-1.718342,54.7490406],[-1.7010325,54.7473327],[-1.702806,54.752558],[-1.7000791,54.7472641],[-1.6815362,54.7467226],[-1.6765708,54.750162],[-1.6781391,54.7551637],[-1.6541681,54.7566546],[-1.6539505,54.7608661],[-1.6420999,54.7642375],[-1.6583632,54.7735636],[-1.6510394,54.7748582],[-1.6456285,54.7719615],[-1.6417879,54.7783008],[-1.6475333,54.7831224]]],"type":"Polygon"},"id":"E02004316","properties":{"code":"E02004316","geography":"MSOA","name":"County Durham 031"},"type":"Feature"},{"geometry":{"coordinates":[[[-1.6093957,54.7658684],[-1.6167242,54.7647387],[-1.6271752,54.7680412],[-1.6420999,54.7642375],[-1.6539505,54.7608661],[-1.6541681,54.7566546],[-1.6781391,54.7551637],[-1.6765708,54.750162],[-1.6815362,54.7467226],[-1.7000791,54.7472641],[-1.702806,54.752558],[-1.7010325,54.7473327],[-1.718342,54.7490406],[-1.7206324,54.7521518],[-1.7310779,54.7501051],[-1.7329303,54.745635],[-1.7403388,54.7428788],[-1.7347329,54.7310437],[-1.7269198,54.7301979],[-1.7186488,54.7348172],[-1.6656393,54.7390366],[-1.6384606,54.7147629],[-1.6326484,54.7153031],[-1.6258968,54.7174186],[-1.6178417,54.7246454],[-1.6054168,54.7288848],[-1.6197377,54.7358209],[-1.6172939,54.7408367],[-1.6252359,54.7491193],[-1.6194686,54.751286],[-1.6224369,54.7534987],[-1.6093957,54.7658684]]],"type":"Polygon"},"id":"E02004317","properties":{"code":"E02004317","geography":"MSOA","name":"County Durham 038"},"type":"Feature"},{"geometry":{"coordinates":[[[-1.4904945,54.7564209],[-1.4996986,54.7620161],[-1.5185385,54.7648461],[-1.5145146,54.7696891],[-1.5188345,54.7720057],[-1.5314561,54.7679504],[-1.5454387,54.7659098],[-1.5564626,54.7679995],[-1.5537258,54.7650227],[-1.5582505,54.7589902],[-1.5545695,54.7557236],[-1.5606756,54.7517221],[-1.5576364,54.7432383],[-1.5623328,54.7424303],[-1.5650576,54.7467149],[-1.5811145,54.7504919],[-1.5844007,54.7488917],[-1.5793387,54.7406316],[-1.5960381,54.7302147],[-1.5985274,54.7273725],[-1.5816598,54.718132],[-1.5753129,54.7194616],[-1.5672376,54.7085679],[-1.5650557,54.7055419],[-1.534924,54.709508],[-1.5342549,54.7134241],[-1.5290468,54.7140157],[-1.5184553,54.7173986],[-1.5156045,54.7243589],[-1.5199378,54.7309242],[-1.5164571,54.73801],[-1.5259987,54.7434964],[-1.5145006,54.7443479],[-1.5136367,54.7506951],[-1.5074652,54.7504372],[-1.5061577,54.747523],[-1.4997809,54.7491246],[-1.5012256,54.7524073],[-1.4904945,54.7564209]]],"type":"Polygon"},"id":"E02004318","properties":{"code":"E02004318","geography":"MSOA","name":"County Durham 041"},"type":"Feature"},{"geometry":{"coordinates":[[[-1.4565563,54.74702],[-1.4743178,54.7496162],[-1.4743867,54.7522075],[-1.4904945,54.7564209],[-1.5012256,54.7524073],[-1.4997809,54.7491246],[-1.5061577,54.747523],[-1.5074652,54.7504372],[-1.5136367,54.7506951],[-1.5145006,54.7443479],[-1.5259987,54.7434964],[-1.5164571,54.73801],[-1.5199378,54.7309242],[-1.5156045,54.7243589],[-1.5184553,54.7173986],[-1.5290468,54.7140157],[-1.5190426,54.7136574],[-1.5222508,54.7089071],[-1.5188966,54.7073442],[-1.4937999,54.7080486],[-1.4709949,54.6983788],[-1.4483731,54.6988746],[-1.4540287,54.7094203],[-1.4398961,54.7116732],[-1.4350263,54.7184462],[-1.4288364,54.7198079],[-1.4306834,54.7325766],[-1.462822,54.7345508],[-1.4654345,54.7374606],[-1.4582592,54.7390913],[-1.4565563,54.74702]]],"type":"Polygon"},"id":"E02004319","properties":{"code":"E02004319","geography":"MSOA","name":"County Durham 044"},"type":"Feature"},{"geometry":{"coordinates":[[[-1.3359221,54.8441514],[-1.3473602,54.8605158],[-1.3688519,54.8576181],[-1.3816498,54.8471516],[-1.4135666,54.8448527],[-1.4119943,54.8418922],[-1.4215942,54.8380822],[-1.4131124,54.8245493],[-1.402293,54.8233309],[-1.3950988,54.8323836],[-1.3735251,54.8318597],[-1.3675061,54.8291382],[-1.3552183,54.8310512],[-1.3664514,54.8320534],[-1.3674971,54.8380258],[-1.3612138,54.8385973],[-1.3523073,54.8434895],[-1.3481697,54.8404955],[-1.3359221,54.8441514]]],"type":"Polygon"},"id":"E02004320","properties":{"code":"E02004320","geography":"MSOA","name":"County Durham 016"},"type":"Feature"},{"geometry":{"coordinates":[[[-1.3192754,54.8215764],[-1.3226574,54.8275608],[-1.3258705,54.8322858],[-1.3215393,54.8367595],[-1.3245948,54.8348516],[-1.3293323,54.8379531],[-1.320877,54.8375551],[-1.321388,54.8376557],[-1.3298097,54.838929],[-1.3354712,54.8437662],[-1.3359221,54.8441514],[-1.3481697,54.8404955],[-1.3523073,54.8434895],[-1.3612138,54.8385973],[-1.3430138,54.8372009],[-1.3483312,54.8305685],[-1.3382181,54.8291698],[-1.335072,54.8182174],[-1.3192754,54.8215764]]],"type":"Polygon"},"id":"E02004321","properties":{"code":"E02004321","geography":"MSOA","name":"County Durham 017"},"type":"Feature"},{"geometry":{"coordinates":[[[-1.335072,54.8182174],[-1.3382181,54.8291698],[-1.3483312,54.8305685],[-1.3430138,54.8372009],[-1.3612138,54.8385973],[-1.3674971,54.8380258],[-1.3664514,54.8320534],[-1.3552183,54.8310512],[-1.3675061,54.8291382],[-1.3735251,54.8318597],[-1.3950988,54.8323836],[-1.402293,54.8233309],[-1.3980191,54.8188767],[-1.4042431,54.8178829],[-1.3919807,54.8168606],[-1.3866933,54.8204264],[-1.3745687,54.8207443],[-1.3737664,54.8240039],[-1.3682032,54.8226569],[-1.3690007,54.8174191],[-1.3656557,54.8196679],[-1.3622019,54.8142923],[-1.3509422,54.8196021],[-1.335072,54.8182174]]],"type":"Polygon"},"id":"E02004322","properties":{"code":"E02004322","geography":"MSOA","name":"County Durham 018"},"type":"Feature"},{"geometry":{"coordinates":[[[-1.402293,54.8233309],[-1.4131124,54.8245493],[-1.4129996,54.8232968],[-1.4217121,54.813277],[-1.4225352,54.8031634],[-1.4375186,54.8005174],[-1.4376392,54.7942139],[-1.4455465,54.7910542],[-1.4254264,54.7962633],[-1.4105168,54.7906752],[-1.4037398,54.7912271],[-1.4013431,54.7859245],[-1.3957073,54.7872144],[-1.397303,54.7903255],[-1.3873944,54.7914224],[-1.3939789,54.8002358],[-1.3851315,54.802087],[-1.3803656,54.8071106],[-1.3581918,54.8099254],[-1.3622019,54.8142923],[-1.3656557,54.8196679],[-1.3690007,54.8174191],[-1.3682032,54.8226569],[-1.3737664,54.8240039],[-1.3745687,54.8207443],[-1.3866933,54.8204264],[-1.3919807,54.8168606],[-1.4042431,54.8178829],[-1.3980191,54.8188767],[-1.402293,54.8233309]]],"type":"Polygon"},"id":"E02004323","properties":{"code":"E02004323","geography":"MSOA","name":"County Durham 021"},"type":"Feature"},{"geometry":{"coordinates":[[[-1.3087088,54.7850345],[-1.3087439,54.7850861],[-1.3126143,54.8117714],[-1.3153106,54.8161948],[-1.3192754,54.8215764],[-1.335072,54.8182174],[-1.3509422,54.8196021],[-1.3622019,54.8142923],[-1.3581918,54.8099254],[-1.3803656,54.8071106],[-1.3851315,54.802087],[-1.3939789,54.8002358],[-1.3873944,54.7914224],[-1.397303,54.7903255],[-1.3957073,54.7872144],[-1.3839564,54.7760076],[-1.3833653,54.7720293],[-1.3915689,54.7707435],[-1.3915907,54.7665228],[-1.3712486,54.7645528],[-1.3584422,54.7716981],[-1.343942,54.7734656],[-1.3331179,54.7780988],[-1.3434847,54.7839169],[-1.3425554,54.7871718],[-1.3319772,54.7892976],[-1.325399,54.7873971],[-1.3227061,54.781864],[-1.3087088,54.7850345]]],"type":"Polygon"},"id":"E02004324","properties":{"code":"E02004324","geography":"MSOA","name":"County Durham 025"},"type":"Feature"},{"geometry":{"coordinates":[[[-1.3087088,54.7850345],[-1.3227061,54.781864],[-1.325399,54.7873971],[-1.3319772,54.7892976],[-1.3425554,54.7871718],[-1.3434847,54.7839169],[-1.3331179,54.7780988],[-1.343942,54.7734656],[-1.3358695,54.7606606],[-1.3313322,54.7601869],[-1.3294703,54.7555974],[-1.3179114,54.7603618],[-1.3244954,54.7614847],[-1.3240818,54.7695834],[-1.318524,54.7699556],[-1.3237626,54.7710819],[-1.3210599,54.7744631],[-1.3172301,54.7716623],[-1.3015322,54.7724691],[-1.3086614,54.7809894],[-1.3081329,54.7841892],[-1.3087088,54.7850345]]],"type":"Polygon"},"id":"E02004325","properties":{"code":"E02004325","geography":"MSOA","name":"County Durham 032"},"type":"Feature"},{"geometry":{"coordinates":[[[-1.3957073,54.7872144],[-1.4013431,54.7859245],[-1.4037398,54.7912271],[-1.4105168,54.7906752],[-1.4254264,54.7962633],[-1.4455465,54.7910542],[-1.448758,54.7887907],[-1.4684302,54.7906207],[-1.4715984,54.7789053],[-1.449865,54.7682675],[-1.4362606,54.7723535],[-1.4059596,54.7685492],[-1.4075181,54.7631446],[-1.4032719,54.760016],[-1.4109338,54.7574822],[-1.4106584,54.7529094],[-1.3898349,54.7517564],[-1.3862911,54.7436829],[-1.3672328,54.7428835],[-1.3591514,54.7568385],[-1.3584422,54.7716981],[-1.3712486,54.7645528],[-1.3915907,54.7665228],[-1.3915689,54.7707435],[-1.3833653,54.7720293],[-1.3839564,54.7760076],[-1.3957073,54.7872144]]],"type":"Polygon"},"id":"E02004326","properties":{"code":"E02004326","geography":"MSOA","name":"County Durham 034"},"type":"Feature"},{"geometry":{"coordinates":[[[-1.3015322,54.7724691],[-1.3172301,54.7716623],[-1.3210599,54.7744631],[-1.3237626,54.7710819],[-1.318524,54.7699556],[-1.3240818,54.7695834],[-1.3244954,54.7614847],[-1.3179114,54.7603618],[-1.3085922,54.7567598],[-1.2923513,54.761008],[-1.2941158,54.7636012],[-1.3015322,54.7724691]]],"type":"Polygon"},"id":"E02004327","properties":{"code":"E02004327","geography":"MSOA","name":"County Durham 036"},"type":"Feature"},{"geometry":{"coordinates":[[[-1.3358695,54.7606606],[-1.343942,54.7734656],[-1.3584422,54.7716981],[-1.3591514,54.7568385],[-1.3534287,54.7565471],[-1.3511623,54.7516574],[-1.3441504,54.7562916],[-1.3410471,54.754679],[-1.3358695,54.7606606]]],"type":"Polygon"},"id":"E02004328","properties":{"code":"E02004328","geography":"MSOA","name":"County Durham 035"},"type":"Feature"},{"geometry":{"coordinates":[[[-1.3294703,54.7555974],[-1.3313322,54.7601869],[-1.3358695,54.7606606],[-1.3410471,54.754679],[-1.3441504,54.7562916],[-1.3511623,54.7516574],[-1.3534287,54.7565471],[-1.3591514,54.7568385],[-1.3672328,54.7428835],[-1.343195,54.7421867],[-1.3255734,54.7496514],[-1.3302605,54.7533085],[-1.322561,54.7552915],[-1.3294703,54.7555974]]],"type":"Polygon"},"id":"E02004329","properties":{"code":"E02004329","geography":"MSOA","name":"County Durham 037"},"type":"Feature"},{"geometry":{"coordinates":[[[-1.2423276,54.7230219],[-1.2816721,54.7528208],[-1.2913317,54.7601297],[-1.2923513,54.761008],[-1.3085922,54.7567598],[-1.3179114,54.7603618],[-1.3294703,54.7555974],[-1.322561,54.7552915],[-1.3302605,54.7533085],[-1.3255734,54.7496514],[-1.3140002,54.7542707],[-1.3103185,54.7418325],[-1.2920723,54.7445941],[-1.2802858,54.7281576],[-1.2722865,54.7255973],[-1.2585476,54.726045],[-1.2518511,54.7196127],[-1.2436231,54.7225582],[-1.2459067,54.7234301],[-1.2433268,54.7226643],[-1.2423276,54.7230219]]],"type":"Polygon"},"id":"E02004330","properties":{"code":"E02004330","geography":"MSOA","name":"County Durham 039"},"type":"Feature"},{"geometry":{"coordinates":[[[-1.4106584,54.7529094],[-1.4164383,54.7518185],[-1.4360994,54.7563374],[-1.4565563,54.74702],[-1.4582592,54.7390913],[-1.4654345,54.7374606],[-1.462822,54.7345508],[-1.4306834,54.7325766],[-1.4288364,54.7198079],[-1.3981262,54.7171589],[-1.3945999,54.718901],[-1.3996931,54.7207793],[-1.4008544,54.7384861],[-1.3923897,54.7382547],[-1.3862911,54.7436829],[-1.3898349,54.7517564],[-1.4106584,54.7529094]]],"type":"Polygon"},"id":"E02004331","properties":{"code":"E02004331","geography":"MSOA","name":"County Durham 040"},"type":"Feature"},{"geometry":{"coordinates":[[[-1.2722865,54.7255973],[-1.2802858,54.7281576],[-1.2920723,54.7445941],[-1.3103185,54.7418325],[-1.3140002,54.7542707],[-1.3255734,54.7496514],[-1.343195,54.7421867],[-1.3672328,54.7428835],[-1.3862911,54.7436829],[-1.3923897,54.7382547],[-1.4008544,54.7384861],[-1.3996931,54.7207793],[-1.3945999,54.718901],[-1.3981262,54.7171589],[-1.4011973,54.7114523],[-1.3943475,54.7012256],[-1.4017415,54.699747],[-1.3971422,54.695915],[-1.397665,54.6880872],[-1.3896078,54.6829008],[-1.3806718,54.6842435],[-1.3725921,54.6921743],[-1.3446442,54.690809],[-1.3193594,54.6913171],[-1.3126507,54.6959378],[-1.3138353,54.7012174],[-1.3013125,54.7080905],[-1.3055064,54.7175109],[-1.2902875,54.7183878],[-1.2722865,54.7255973]]],"type":"Polygon"},"id":"E02004332","properties":{"code":"E02004332","geography":"MSOA","name":"County Durham 043"},"type":"Feature"},{"geometry":{"coordinates":[[[-1.5672376,54.7085679],[-1.5753129,54.7194616],[-1.5816598,54.718132],[-1.5985274,54.7273725],[-1.5960381,54.7302147],[-1.6054168,54.7288848],[-1.6178417,54.7246454],[-1.6258968,54.7174186],[-1.615113,54.712252],[-1.608532,54.7132962],[-1.6144279,54.7061842],[-1.609798,54.7007014],[-1.6009272,54.7010281],[-1.5908568,54.7041879],[-1.5868585,54.7006506],[-1.5885333,54.7115989],[-1.5769261,54.7069129],[-1.5672376,54.7085679]]],"type":"Polygon"},"id":"E02004333","properties":{"code":"E02004333","geography":"MSOA","name":"County Durham 047"},"type":"Feature"},{"geometry":{"coordinates":[[[-1.3981262,54.7171589],[-1.4288364,54.7198079],[-1.4350263,54.7184462],[-1.4398961,54.7116732],[-1.4540287,54.7094203],[-1.4483731,54.6988746],[-1.4709949,54.6983788],[-1.4937999,54.7080486],[-1.4825079,54.6974629],[-1.4630596,54.676293],[-1.4478222,54.6783598],[-1.4310909,54.6687266],[-1.4071761,54.6702088],[-1.3994007,54.6813305],[-1.3896078,54.6829008],[-1.397665,54.6880872],[-1.3971422,54.695915],[-1.4017415,54.699747],[-1.3943475,54.7012256],[-1.4011973,54.7114523],[-1.3981262,54.7171589]]],"type":"Polygon"},"id":"E02004334","properties":{"code":"E02004334","geography":"MSOA","name":"County Durham 048"},"type":"Feature"},{"geometry":{"coordinates":[[[-1.5672376,54.7085679],[-1.5769261,54.7069129],[-1.5885333,54.7115989],[-1.5868585,54.7006506],[-1.5908568,54.7041879],[-1.6009272,54.7010281],[-1.6028388,54.6974581],[-1.5963072,54.6925115],[-1.5820527,54.6969874],[-1.5824766,54.6837167],[-1.5688654,54.6722076],[-1.5476093,54.6794432],[-1.5509308,54.6838011],[-1.5593161,54.6894227],[-1.5650557,54.7055419],[-1.5672376,54.7085679]]],"type":"Polygon"},"id":"E02004335","properties":{"code":"E02004335","geography":"MSOA","name":"County Durham 049"},"type":"Feature"},{"geometry":{"coordinates":[[[-1.4937999,54.7080486],[-1.5188966,54.7073442],[-1.5222508,54.7089071],[-1.5190426,54.7136574],[-1.5290468,54.7140157],[-1.5342549,54.7134241],[-1.534924,54.709508],[-1.5650557,54.7055419],[-1.5593161,54.6894227],[-1.5509308,54.6838011],[-1.5459805,54.6846043],[-1.5466919,54.6872753],[-1.5410033,54.6839056],[-1.5371974,54.6852831],[-1.5401484,54.6929176],[-1.5344341,54.6946842],[-1.5303154,54.682674],[-1.5216331,54.6863424],[-1.50523,54.687332],[-1.5065888,54.6914057],[-1.4825079,54.6974629],[-1.4937999,54.7080486]]],"type":"Polygon"},"id":"E02004336","properties":{"code":"E02004336","geography":"MSOA","name":"County Durham 050"},"type":"Feature"},{"geometry":{"coordinates":[[[-1.6009272,54.7010281],[-1.609798,54.7007014],[-1.6144279,54.7061842],[-1.608532,54.7132962],[-1.615113,54.712252],[-1.6258968,54.7174186],[-1.6326484,54.7153031],[-1.6439431,54.7128751],[-1.6484925,54.7079103],[-1.6702301,54.7068644],[-1.6781417,54.7038742],[-1.6745417,54.7001264],[-1.6573015,54.6865394],[-1.6457584,54.685026],[-1.6359173,54.6768883],[-1.6221262,54.6763053],[-1.6050043,54.6798712],[-1.6018405,54.6659309],[-1.6077171,54.6610659],[-1.6094736,54.6580482],[-1.5929853,54.6557644],[-1.571167,54.6572984],[-1.5787738,54.6645678],[-1.5688654,54.6722076],[-1.5824766,54.6837167],[-1.5820527,54.6969874],[-1.5963072,54.6925115],[-1.6028388,54.6974581],[-1.6009272,54.7010281]]],"type":"Polygon"},"id":"E02004337","properties":{"code":"E02004337","geography":"MSOA","name":"County Durham 052"},"type":"Feature"},{"geometry":{"coordinates":[[[-1.5216331,54.6863424],[-1.5303154,54.682674],[-1.5344341,54.6946842],[-1.5401484,54.6929176],[-1.5371974,54.6852831],[-1.5410033,54.6839056],[-1.5466919,54.6872753],[-1.5459805,54.6846043],[-1.5509308,54.6838011],[-1.5476093,54.6794432],[-1.5688654,54.6722076],[-1.5787738,54.6645678],[-1.571167,54.6572984],[-1.5929853,54.6557644],[-1.6094736,54.6580482],[-1.6102506,54.6549736],[-1.611426,54.6436483],[-1.6048305,54.6418309],[-1.5832665,54.6380614],[-1.5715958,54.6464119],[-1.5595875,54.6405834],[-1.557504,54.6341783],[-1.5493902,54.6386359],[-1.5443237,54.6355962],[-1.5426168,54.6385678],[-1.536546,54.6536258],[-1.5203481,54.6618547],[-1.507076,54.6636146],[-1.5100424,54.6684441],[-1.5262302,54.6751018],[-1.5167357,54.6802325],[-1.5216331,54.6863424]]],"type":"Polygon"},"id":"E02004338","properties":{"code":"E02004338","geography":"MSOA","name":"County Durham 053"},"type":"Feature"},{"geometry":{"coordinates":[[[-1.3896078,54.6829008],[-1.3994007,54.6813305],[-1.4071761,54.6702088],[-1.4310909,54.6687266],[-1.4478222,54.6783598],[-1.4630596,54.676293],[-1.4825079,54.6974629],[-1.5065888,54.6914057],[-1.50523,54.687332],[-1.5216331,54.6863424],[-1.5167357,54.6802325],[-1.5262302,54.6751018],[-1.5100424,54.6684441],[-1.507076,54.6636146],[-1.5203481,54.6618547],[-1.536546,54.6536258],[-1.5426168,54.6385678],[-1.5402858,54.6310227],[-1.5236867,54.6227062],[-1.5198076,54.6146661],[-1.5453141,54.6097483],[-1.5578139,54.6006425],[-1.5586352,54.5921058],[-1.5263932,54.5964755],[-1.497307,54.5956643],[-1.4881611,54.599273],[-1.4689019,54.6005426],[-1.4602365,54.5968127],[-1.4560692,54.5992095],[-1.4516946,54.5908164],[-1.4433905,54.5906124],[-1.4383442,54.5950683],[-1.4507744,54.6046873],[-1.4509021,54.6105024],[-1.4428779,54.6100993],[-1.4299583,54.6152827],[-1.4261163,54.6114879],[-1.4128107,54.6165803],[-1.4047672,54.6240344],[-1.3991453,54.6241184],[-1.4015858,54.6263481],[-1.3942221,54.628871],[-1.3954976,54.6310865],[-1.3883041,54.6315716],[-1.3904169,54.6391986],[-1.3808853,54.6439058],[-1.3837517,54.6462247],[-1.3412084,54.650232],[-1.347837,54.6624102],[-1.3435165,54.6686097],[-1.3330243,54.672642],[-1.3309316,54.6821228],[-1.3344266,54.6890361],[-1.3446442,54.690809],[-1.3725921,54.6921743],[-1.3806718,54.6842435],[-1.3896078,54.6829008]]],"type":"Polygon"},"id":"E02004339","properties":{"code":"E02004339","geography":"MSOA","name":"County Durham 054"},"type":"Feature"},{"geometry":{"coordinates":[[[-1.6048305,54.6418309],[-1.611426,54.6436483],[-1.6102506,54.6549736],[-1.6256395,54.6534691],[-1.624449,54.6510277],[-1.6465273,54.6454881],[-1.6482991,54.6405529],[-1.6578236,54.6446027],[-1.6757804,54.6431052],[-1.6809711,54.6402141],[-1.6796947,54.6356589],[-1.6835389,54.6359231],[-1.6846116,54.6361204],[-1.6847635,54.6360502],[-1.6824135,54.6177616],[-1.6570304,54.6154637],[-1.6416191,54.6193559],[-1.6332291,54.616118],[-1.6313857,54.6184473],[-1.6184953,54.6191584],[-1.6126112,54.6391319],[-1.6059957,54.6387646],[-1.6048305,54.6418309]]],"type":"Polygon"},"id":"E02004340","properties":{"code":"E02004340","geography":"MSOA","name":"County Durham 059"},"type":"Feature"},{"geometry":{"coordinates":[[[-1.5595875,54.6405834],[-1.5715958,54.6464119],[-1.5832665,54.6380614],[-1.6048305,54.6418309],[-1.6059957,54.6387646],[-1.6126112,54.6391319],[-1.6184953,54.6191584],[-1.6121151,54.6181175],[-1.6081427,54.6186855],[-1.6005728,54.6166347],[-1.6005538,54.6215734],[-1.5917405,54.6279664],[-1.5948186,54.6206227],[-1.5798715,54.6282335],[-1.5802438,54.6335388],[-1.5737586,54.6323142],[-1.5755124,54.6280664],[-1.5694812,54.6266755],[-1.5648604,54.6279685],[-1.557504,54.6341783],[-1.5595875,54.6405834]]],"type":"Polygon"},"id":"E02004341","properties":{"code":"E02004341","geography":"MSOA","name":"County Durham 060"},"type":"Feature"},{"geometry":{"coordinates":[[[-1.5694812,54.6266755],[-1.5755124,54.6280664],[-1.5737586,54.6323142],[-1.5802438,54.6335388],[-1.5798715,54.6282335],[-1.5948186,54.6206227],[-1.5917405,54.6279664],[-1.6005538,54.6215734],[-1.6005728,54.6166347],[-1.580545,54.6156145],[-1.5864578,54.6195691],[-1.5694812,54.6266755]]],"type":"Polygon"},"id":"E02004342","properties":{"code":"E02004342","geography":"MSOA","name":"County Durham 061"},"type":"Feature"},{"geometry":{"coordinates":[[[-1.5426168,54.6385678],[-1.5443237,54.6355962],[-1.5493902,54.6386359],[-1.557504,54.6341783],[-1.5648604,54.6279685],[-1.5674232,54.6242006],[-1.5734371,54.6237195],[-1.5675787,54.6198275],[-1.5757624,54.6178801],[-1.5626901,54.61491],[-1.5600281,54.6076516],[-1.5571243,54.614117],[-1.5453141,54.6097483],[-1.5198076,54.6146661],[-1.5236867,54.6227062],[-1.5402858,54.6310227],[-1.5426168,54.6385678]]],"type":"Polygon"},"id":"E02004343","properties":{"code":"E02004343","geography":"MSOA","name":"County Durham 062"},"type":"Feature"},{"geometry":{"coordinates":[[[-1.5586352,54.5921058],[-1.5578139,54.6006425],[-1.5453141,54.6097483],[-1.5571243,54.614117],[-1.5600281,54.6076516],[-1.5626901,54.61491],[-1.5757624,54.6178801],[-1.5675787,54.6198275],[-1.5734371,54.6237195],[-1.5674232,54.6242006],[-1.5648604,54.6279685],[-1.5694812,54.6266755],[-1.5864578,54.6195691],[-1.580545,54.6156145],[-1.6005728,54.6166347],[-1.6081427,54.6186855],[-1.6121151,54.6181175],[-1.6067543,54.6175307],[-1.6067503,54.6174285],[-1.6062085,54.6034304],[-1.5841836,54.6104763],[-1.5840626,54.6072583],[-1.5929393,54.6045388],[-1.589866,54.5977386],[-1.5933993,54.5950665],[-1.5908513,54.5902039],[-1.5828554,54.5894649],[-1.5833064,54.5808984],[-1.5528147,54.5823318],[-1.5622525,54.585961],[-1.5586352,54.5921058]]],"type":"Polygon"},"id":"E02004344","properties":{"code":"E02004344","geography":"MSOA","name":"County Durham 063"},"type":"Feature"},{"geometry":{"coordinates":[[[-1.7382472,54.672304],[-1.743109,54.6769841],[-1.7530931,54.6736393],[-1.7640153,54.6767019],[-1.7684612,54.672352],[-1.7776147,54.6709189],[-1.7932051,54.6745568],[-1.7897779,54.6815652],[-1.8049234,54.6874524],[-1.822492,54.7087623],[-1.8704588,54.7002466],[-1.8853543,54.6926297],[-1.9162578,54.6844911],[-1.9219851,54.679934],[-1.9469162,54.6774196],[-1.9478899,54.6705324],[-1.9770463,54.6725329],[-1.9805315,54.6576353],[-1.9716039,54.6454465],[-1.9424754,54.6362296],[-1.9606809,54.6377419],[-1.9640732,54.622307],[-1.956345,54.6120558],[-1.9625022,54.6012761],[-1.9531166,54.5960824],[-1.9128651,54.599042],[-1.8849453,54.5963841],[-1.8827206,54.593284],[-1.8870865,54.5926771],[-1.8971824,54.5775523],[-1.90655,54.5712018],[-1.9016043,54.5675672],[-1.9142016,54.5586079],[-1.8846284,54.5518589],[-1.889636,54.5367654],[-1.8964731,54.5369506],[-1.8969019,54.5334431],[-1.9081499,54.5351775],[-1.9001202,54.5299903],[-1.8806646,54.523974],[-1.8643775,54.5267759],[-1.8541971,54.5247961],[-1.8448832,54.5283261],[-1.8158882,54.5242891],[-1.8131521,54.5282471],[-1.8019358,54.5282941],[-1.7888664,54.5349144],[-1.774549,54.5481854],[-1.7539496,54.552053],[-1.7457632,54.5470479],[-1.7444171,54.5417643],[-1.7361995,54.5450362],[-1.730309,54.5414676],[-1.7218718,54.5422506],[-1.6969167,54.5359962],[-1.6983305,54.5441989],[-1.7037622,54.5449267],[-1.7052648,54.5491618],[-1.6975534,54.5557023],[-1.6911974,54.5562345],[-1.7033019,54.5586856],[-1.7092726,54.5631694],[-1.7044712,54.5721519],[-1.7089752,54.5741314],[-1.6940189,54.5868839],[-1.679303,54.5859635],[-1.6824135,54.6177616],[-1.6847635,54.6360502],[-1.6862827,54.6329902],[-1.6914267,54.6336134],[-1.6980539,54.6297866],[-1.70968,54.6319942],[-1.7091517,54.6275856],[-1.713997,54.6257301],[-1.7311507,54.6276532],[-1.7320001,54.6312857],[-1.7244396,54.6335239],[-1.7312237,54.6390604],[-1.7256212,54.642114],[-1.7369055,54.6508201],[-1.7327468,54.6514946],[-1.7412683,54.6610603],[-1.7382472,54.672304]]],"type":"Polygon"},"id":"E02004345","properties":{"code":"E02004345","geography":"MSOA","name":"County Durham 064"},"type":"Feature"},{"geometry":{"coordinates":[[[-1.9524035,54.8542342],[-1.9724549,54.8602356],[-1.9747585,54.8620561],[-1.9706845,54.8634812],[-1.9802276,54.8681762],[-2.0009579,54.86966],[-2.026202,54.8588066],[-2.0397484,54.8482838],[-2.0678849,54.8447924],[-2.0824674,54.8382149],[-2.0977177,54.8367556],[-2.1039109,54.8402372],[-2.1221113,54.8413533],[-2.1397816,54.8418632],[-2.1431228,54.826952],[-2.1642581,54.81582],[-2.1694626,54.8036031],[-2.17741,54.8068139],[-2.1985931,54.8067294],[-2.2188992,54.7823703],[-2.2340578,54.7841583],[-2.2355133,54.7867902],[-2.248656,54.787953],[-2.2826717,54.798245],[-2.29298,54.7931583],[-2.3120829,54.7910079],[-2.3139172,54.7811066],[-2.3084395,54.7735097],[-2.3223757,54.7641891],[-2.3208614,54.7550584],[-2.332299,54.7319887],[-2.3257964,54.7265896],[-2.3211347,54.7223105],[-2.3054547,54.7262428],[-2.2792532,54.7181176],[-2.2663777,54.7178792],[-2.2584579,54.7081504],[-2.2287563,54.7167407],[-2.2030247,54.704216],[-2.1946193,54.7059596],[-2.1921652,54.6950797],[-2.159156,54.6936005],[-2.1461664,54.6957837],[-2.1147174,54.6875842],[-2.0808037,54.6945645],[-2.0470811,54.6851402],[-2.0257963,54.6845968],[-2.0054756,54.6804454],[-1.9895709,54.684324],[-1.9770463,54.6725329],[-1.9478899,54.6705324],[-1.9469162,54.6774196],[-1.9219851,54.679934],[-1.9162578,54.6844911],[-1.8853543,54.6926297],[-1.8704588,54.7002466],[-1.822492,54.7087623],[-1.8049234,54.6874524],[-1.7897779,54.6815652],[-1.7932051,54.6745568],[-1.7776147,54.6709189],[-1.7684612,54.672352],[-1.7640153,54.6767019],[-1.7530931,54.6736393],[-1.743109,54.6769841],[-1.7382472,54.672304],[-1.74612,54.6877705],[-1.7495872,54.6919194],[-1.7563133,54.6907008],[-1.7681861,54.6976157],[-1.7845001,54.7010758],[-1.7838507,54.7039567],[-1.7986481,54.7141292],[-1.8214738,54.7152606],[-1.8371247,54.7205684],[-1.8345776,54.735099],[-1.8550582,54.7543777],[-1.85033,54.7643441],[-1.8587433,54.7710493],[-1.8813318,54.7784165],[-1.9160478,54.7965249],[-1.9261492,54.7940704],[-1.945292,54.7970736],[-1.9542403,54.7857616],[-1.9754476,54.7707433],[-1.9928562,54.7762454],[-2.0052225,54.7947896],[-2.0322702,54.7998745],[-2.0293226,54.8172938],[-2.0141425,54.8287143],[-1.9853168,54.8406781],[-1.9683148,54.8433434],[-1.953142,54.8500799],[-1.9524035,54.8542342]]],"type":"Polygon"},"id":"E02004348","properties":{"code":"E02004348","geography":"MSOA","name":"County Durham 042"},"type":"Feature"},{"geometry":{"coordinates":[[[-1.7950888,54.7472756],[-1.8066119,54.7466049],[-1.8102867,54.7518358],[-1.8406165,54.7569961],[-1.85033,54.7643441],[-1.8550582,54.7543777],[-1.8345776,54.735099],[-1.8371247,54.7205684],[-1.8214738,54.7152606],[-1.7986481,54.7141292],[-1.7838507,54.7039567],[-1.7845001,54.7010758],[-1.7681861,54.6976157],[-1.7563133,54.6907008],[-1.7495872,54.6919194],[-1.74612,54.6877705],[-1.7459161,54.6973099],[-1.7382182,54.7005057],[-1.7301431,54.6996142],[-1.7286233,54.7038815],[-1.736355,54.7074209],[-1.7318418,54.7101237],[-1.7395645,54.7137567],[-1.7488772,54.70539],[-1.7785019,54.7139783],[-1.7726026,54.7182253],[-1.7657135,54.7181442],[-1.7639004,54.7137144],[-1.7586893,54.7141779],[-1.7534691,54.7105875],[-1.7484476,54.7125376],[-1.7479109,54.7237499],[-1.7537874,54.7290399],[-1.7651822,54.7306767],[-1.7888745,54.7412727],[-1.7950888,54.7472756]]],"type":"Polygon"},"id":"E02004349","properties":{"code":"E02004349","geography":"MSOA","name":"County Durham 045"},"type":"Feature"},{"geometry":{"coordinates":[[[-1.7310779,54.7501051],[-1.7278054,54.7581796],[-1.7443515,54.7594208],[-1.7739701,54.751226],[-1.7919696,54.7502202],[-1.7950888,54.7472756],[-1.7888745,54.7412727],[-1.7651822,54.7306767],[-1.7537874,54.7290399],[-1.7479109,54.7237499],[-1.7484476,54.7125376],[-1.7534691,54.7105875],[-1.7586893,54.7141779],[-1.7639004,54.7137144],[-1.7657135,54.7181442],[-1.7726026,54.7182253],[-1.7785019,54.7139783],[-1.7488772,54.70539],[-1.7395645,54.7137567],[-1.7318418,54.7101237],[-1.736355,54.7074209],[-1.7286233,54.7038815],[-1.7103917,54.7007513],[-1.7091641,54.7075722],[-1.6999363,54.7053906],[-1.6944251,54.7096085],[-1.695917,54.7137489],[-1.6921256,54.7115321],[-1.6870949,54.7141626],[-1.685822,54.712198],[-1.6758774,54.7148273],[-1.6722903,54.7130134],[-1.6668178,54.715982],[-1.6623117,54.7109191],[-1.6716466,54.7093463],[-1.6702301,54.7068644],[-1.6484925,54.7079103],[-1.6439431,54.7128751],[-1.6326484,54.7153031],[-1.6384606,54.7147629],[-1.6656393,54.7390366],[-1.7186488,54.7348172],[-1.7269198,54.7301979],[-1.7347329,54.7310437],[-1.7403388,54.7428788],[-1.7329303,54.745635],[-1.7310779,54.7501051]]],"type":"Polygon"},"id":"E02004350","properties":{"code":"E02004350","geography":"MSOA","name":"County Durham 046"},"type":"Feature"},{"geometry":{"coordinates":[[[-1.6702301,54.7068644],[-1.6716466,54.7093463],[-1.6623117,54.7109191],[-1.6668178,54.715982],[-1.6722903,54.7130134],[-1.6758774,54.7148273],[-1.685822,54.712198],[-1.6870949,54.7141626],[-1.6921256,54.7115321],[-1.695917,54.7137489],[-1.6944251,54.7096085],[-1.6999363,54.7053906],[-1.7091641,54.7075722],[-1.7103917,54.7007513],[-1.700154,54.7018516],[-1.6913748,54.6991313],[-1.6927331,54.6913304],[-1.6762626,54.6921424],[-1.685257,54.6796848],[-1.6822979,54.6735139],[-1.6703537,54.6737052],[-1.6650807,54.6690287],[-1.6666335,54.663942],[-1.6561257,54.664485],[-1.6530969,54.6600785],[-1.6480764,54.6625438],[-1.6365195,54.6592714],[-1.6382442,54.6623567],[-1.6439879,54.6623181],[-1.6355924,54.6658834],[-1.6241822,54.6588485],[-1.6230901,54.6627299],[-1.6159677,54.6614263],[-1.6166233,54.6658948],[-1.6064486,54.6676881],[-1.6077171,54.6610659],[-1.6018405,54.6659309],[-1.6050043,54.6798712],[-1.6221262,54.6763053],[-1.6359173,54.6768883],[-1.6457584,54.685026],[-1.6573015,54.6865394],[-1.6745417,54.7001264],[-1.6781417,54.7038742],[-1.6702301,54.7068644]]],"type":"Polygon"},"id":"E02004351","properties":{"code":"E02004351","geography":"MSOA","name":"County Durham 051"},"type":"Feature"},{"geometry":{"coordinates":[[[-1.6077171,54.6610659],[-1.6064486,54.6676881],[-1.6166233,54.6658948],[-1.6159677,54.6614263],[-1.6230901,54.6627299],[-1.6241822,54.6588485],[-1.6355924,54.6658834],[-1.6439879,54.6623181],[-1.6382442,54.6623567],[-1.6365195,54.6592714],[-1.6480764,54.6625438],[-1.6530969,54.6600785],[-1.6561257,54.664485],[-1.6666335,54.663942],[-1.6650807,54.6690287],[-1.6703537,54.6737052],[-1.6822979,54.6735139],[-1.7163937,54.6728705],[-1.697655,54.6627499],[-1.6949488,54.659799],[-1.6882447,54.6629379],[-1.6763101,54.6615311],[-1.6789635,54.6581328],[-1.6686336,54.6564316],[-1.6633423,54.6543025],[-1.6810529,54.6431243],[-1.6835389,54.6359231],[-1.6796947,54.6356589],[-1.6809711,54.6402141],[-1.6757804,54.6431052],[-1.6578236,54.6446027],[-1.6482991,54.6405529],[-1.6465273,54.6454881],[-1.624449,54.6510277],[-1.6256395,54.6534691],[-1.6102506,54.6549736],[-1.6094736,54.6580482],[-1.6077171,54.6610659]]],"type":"Polygon"},"id":"E02004352","properties":{"code":"E02004352","geography":"MSOA","name":"County Durham 055"},"type":"Feature"},{"geometry":{"coordinates":[[[-1.6686336,54.6564316],[-1.6789635,54.6581328],[-1.6763101,54.6615311],[-1.6882447,54.6629379],[-1.6949488,54.659799],[-1.697655,54.6627499],[-1.7040915,54.6605136],[-1.7039835,54.6539272],[-1.7101994,54.6524058],[-1.7027473,54.6473876],[-1.6976131,54.6533408],[-1.6792713,54.6499225],[-1.6772717,54.6550632],[-1.6775798,54.6526827],[-1.6726827,54.6530744],[-1.6686336,54.6564316]]],"type":"Polygon"},"id":"E02004353","properties":{"code":"E02004353","geography":"MSOA","name":"County Durham 056"},"type":"Feature"},{"geometry":{"coordinates":[[[-1.7103917,54.7007513],[-1.7286233,54.7038815],[-1.7301431,54.6996142],[-1.7382182,54.7005057],[-1.7459161,54.6973099],[-1.74612,54.6877705],[-1.7382472,54.672304],[-1.7412683,54.6610603],[-1.7327468,54.6514946],[-1.7369055,54.6508201],[-1.7256212,54.642114],[-1.7312237,54.6390604],[-1.7244396,54.6335239],[-1.7320001,54.6312857],[-1.7311507,54.6276532],[-1.713997,54.6257301],[-1.7091517,54.6275856],[-1.70968,54.6319942],[-1.6980539,54.6297866],[-1.6914267,54.6336134],[-1.6862827,54.6329902],[-1.6847635,54.6360502],[-1.6846116,54.6361204],[-1.7027473,54.6473876],[-1.7101994,54.6524058],[-1.7039835,54.6539272],[-1.7040915,54.6605136],[-1.697655,54.6627499],[-1.7163937,54.6728705],[-1.6822979,54.6735139],[-1.685257,54.6796848],[-1.6762626,54.6921424],[-1.6927331,54.6913304],[-1.6913748,54.6991313],[-1.700154,54.7018516],[-1.7103917,54.7007513]]],"type":"Polygon"},"id":"E02004354","properties":{"code":"E02004354","geography":"MSOA","name":"County Durham 057"},"type":"Feature"},{"geometry":{"coordinates":[[[-1.6835389,54.6359231],[-1.6810529,54.6431243],[-1.6633423,54.6543025],[-1.6686336,54.6564316],[-1.6726827,54.6530744],[-1.6775798,54.6526827],[-1.6772717,54.6550632],[-1.6792713,54.6499225],[-1.6976131,54.6533408],[-1.7027473,54.6473876],[-1.6846116,54.6361204],[-1.6835389,54.6359231]]],"type":"Polygon"},"id":"E02004355","properties":{"code":"E02004355","geography":"MSOA","name":"County Durham 058"},"type":"Feature"},{"geometry":{"coordinates":[[[-1.9770463,54.6725329],[-1.9895709,54.684324],[-2.0054756,54.6804454],[-2.0257963,54.6845968],[-2.0470811,54.6851402],[-2.0808037,54.6945645],[-2.1147174,54.6875842],[-2.1461664,54.6957837],[-2.159156,54.6936005],[-2.1921652,54.6950797],[-2.1946193,54.7059596],[-2.2030247,54.704216],[-2.2287563,54.7167407],[-2.2584579,54.7081504],[-2.2663777,54.7178792],[-2.2792532,54.7181176],[-2.3054547,54.7262428],[-2.3211347,54.7223105],[-2.3257964,54.7265896],[-2.3420172,54.7161367],[-2.3444222,54.7017256],[-2.3555125,54.6971322],[-2.3518882,54.6858477],[-2.3356551,54.6752867],[-2.327186,54.67369],[-2.3274058,54.6707154],[-2.3033111,54.6696222],[-2.303391,54.6668165],[-2.2928692,54.6638779],[-2.287973,54.6504725],[-2.3249951,54.6315909],[-2.3086588,54.6117434],[-2.3044947,54.5962307],[-2.2708753,54.5821907],[-2.2459228,54.5651011],[-2.2094827,54.5517047],[-2.2101448,54.5436807],[-2.1975755,54.5326617],[-2.1824411,54.5357949],[-2.1725235,54.532417],[-2.1744866,54.521718],[-2.1686982,54.5196424],[-2.1624615,54.5039776],[-2.1665288,54.4899218],[-2.1590184,54.4719766],[-2.1702068,54.458189],[-2.1592215,54.4555055],[-2.1501145,54.4599539],[-2.1165911,54.4622541],[-2.0863902,54.4683833],[-2.0612415,54.4805237],[-2.0431935,54.4835897],[-2.0447227,54.4751768],[-1.9967575,54.4668938],[-1.985533,54.4599144],[-1.9761181,54.4597185],[-1.9700525,54.4515107],[-1.9425366,54.4533855],[-1.8934233,54.4668884],[-1.8775958,54.4780397],[-1.8672477,54.4821072],[-1.8591231,54.4818474],[-1.8577936,54.5035303],[-1.8482087,54.5036534],[-1.8394251,54.5084276],[-1.8277789,54.5029195],[-1.8224353,54.4951679],[-1.7929381,54.4843575],[-1.7871675,54.5010276],[-1.7821663,54.5070025],[-1.7761228,54.5067176],[-1.7796887,54.5318628],[-1.7697137,54.5328342],[-1.7612038,54.5289415],[-1.7330818,54.5277261],[-1.7272748,54.5305018],[-1.7218718,54.5422506],[-1.730309,54.5414676],[-1.7361995,54.5450362],[-1.7444171,54.5417643],[-1.7457632,54.5470479],[-1.7539496,54.552053],[-1.774549,54.5481854],[-1.7888664,54.5349144],[-1.8019358,54.5282941],[-1.8131521,54.5282471],[-1.8158882,54.5242891],[-1.8448832,54.5283261],[-1.8541971,54.5247961],[-1.8643775,54.5267759],[-1.8806646,54.523974],[-1.9001202,54.5299903],[-1.9081499,54.5351775],[-1.8969019,54.5334431],[-1.8964731,54.5369506],[-1.889636,54.5367654],[-1.8846284,54.5518589],[-1.9142016,54.5586079],[-1.9016043,54.5675672],[-1.90655,54.5712018],[-1.8971824,54.5775523],[-1.8870865,54.5926771],[-1.8827206,54.593284],[-1.8849453,54.5963841],[-1.9128651,54.599042],[-1.9531166,54.5960824],[-1.9625022,54.6012761],[-1.956345,54.6120558],[-1.9640732,54.622307],[-1.9606809,54.6377419],[-1.9424754,54.6362296],[-1.9716039,54.6454465],[-1.9805315,54.6576353],[-1.9770463,54.6725329]]],"type":"Polygon"},"id":"E02007022","properties":{"code":"E02007022","geography":"MSOA","name":"County Durham 067"},"type":"Feature"}],"type":"FeatureCollection"}
