{"features":[{"geometry":{"coordinates":[[[-0.309985,52.6734594],[-0.3350493,52.6748471],[-0.339964,52.6660476],[-0.3594368,52.660011],[-0.3743795,52.6548332],[-0.3594966,52.653872],[-0.3546343,52.6490188],[-0.334024,52.6503151],[-0.329584,52.6360976],[-0.3243577,52.6364722],[-0.3263949,52.625189],[-0.3342915,52.6256959],[-0.3338178,52.6232761],[-0.340727,52.6221486],[-0.3383594,52.6131696],[-0.3438937,52.6143448],[-0.3451749,52.6119344],[-0.3415065,52.6110298],[-0.3144568,52.6127007],[-0.3042114,52.6238334],[-0.2967824,52.6178817],[-0.2965791,52.6177467],[-0.2913117,52.6208106],[-0.2841623,52.6172503],[-0.278291,52.6193849],[-0.2818169,52.6242927],[-0.2877912,52.624742],[-0.2833119,52.6302171],[-0.2864816,52.6451507],[-0.2741956,52.6470285],[-0.2763731,52.6496973],[-0.2649343,52.6486393],[-0.2586781,52.6516259],[-0.2790966,52.6659849],[-0.309985,52.6734594]]],"type":"Polygon"},"id":"E02003237","properties":{"code":"E02003237","geography":"MSOA","name":"Peterborough 001"},"type":"Feature"},{"geometry":{"coordinates":[[[-0.2652244,52.617419],[-0.2673138,52.6202729],[-0.2619538,52.6272763],[-0.2682204,52.6339378],[-0.2808741,52.6330039],[-0.2833119,52.6302171],[-0.2877912,52.624742],[-0.2818169,52.6242927],[-0.278291,52.6193849],[-0.2761376,52.6167306],[-0.2691755,52.6191236],[-0.2652244,52.617419]]],"type":"Polygon"},"id":"E02003238","properties":{"code":"E02003238","geography":"MSOA","name":"Peterborough 002"},"type":"Feature"},{"geometry":{"coordinates":[[[-0.1410776,52.6514883],[-0.1800349,52.6605417],[-0.1928822,52.6524192],[-0.2060523,52.6680536],[-0.2125154,52.6666601],[-0.2245121,52.6654441],[-0.2586781,52.6516259],[-0.2649343,52.6486393],[-0.2763731,52.6496973],[-0.2741956,52.6470285],[-0.2864816,52.6451507],[-0.2833119,52.6302171],[-0.2808741,52.6330039],[-0.2682204,52.6339378],[-0.2619538,52.6272763],[-0.2673138,52.6202729],[-0.2652244,52.617419],[-0.2672884,52.6097573],[-0.2620305,52.6107318],[-0.2536746,52.6116304],[-0.2456909,52.6067401],[-0.2409571,52.6103108],[-0.24708,52.6146331],[-0.2174286,52.6146984],[-0.2082946,52.6111792],[-0.1881096,52.6116389],[-0.1594138,52.6170801],[-0.1585093,52.6298074],[-0.1472534,52.6391191],[-0.1473335,52.6466457],[-0.1410776,52.6514883]]],"type":"Polygon"},"id":"E02003239","properties":{"code":"E02003239","geography":"MSOA","name":"Peterborough 003"},"type":"Feature"},{"geometry":{"coordinates":[[[-0.3594368,52.660011],[-0.36282,52.6600873],[-0.4175099,52.6467547],[-0.4504897,52.6541058],[-0.4530476,52.6492268],[-0.4758427,52.6486961],[-0.4752562,52.6450393],[-0.4843315,52.6461104],[-0.4947847,52.6402956],[-0.4888352,52.6328127],[-0.4861196,52.6344032],[-0.4767722,52.6305452],[-0.4709328,52.6235411],[-0.4737411,52.6144151],[-0.4796487,52.6144317],[-0.4810359,52.6027688],[-0.4854517,52.602162],[-0.4907189,52.5905162],[-0.4976637,52.5868329],[-0.4926773,52.5818823],[-0.4788472,52.5774206],[-0.4788281,52.5736273],[-0.4250406,52.5823948],[-0.4153944,52.5787248],[-0.4075211,52.5829171],[-0.3949452,52.5820779],[-0.3999788,52.5921976],[-0.3905352,52.5995636],[-0.3873432,52.5982981],[-0.3715133,52.6080181],[-0.3629453,52.6072482],[-0.3547978,52.6106712],[-0.352883,52.6079347],[-0.3413924,52.6077943],[-0.3415065,52.6110298],[-0.3451749,52.6119344],[-0.3438937,52.6143448],[-0.3383594,52.6131696],[-0.340727,52.6221486],[-0.3338178,52.6232761],[-0.3342915,52.6256959],[-0.3263949,52.625189],[-0.3243577,52.6364722],[-0.329584,52.6360976],[-0.334024,52.6503151],[-0.3546343,52.6490188],[-0.3594966,52.653872],[-0.3743795,52.6548332],[-0.3594368,52.660011]]],"type":"Polygon"},"id":"E02003240","properties":{"code":"E02003240","geography":"MSOA","name":"Peterborough 004"},"type":"Feature"},{"geometry":{"coordinates":[[[-0.0312872,52.6615141],[-0.0321197,52.6653417],[-0.0595063,52.6746675],[-0.0878531,52.6667613],[-0.1022133,52.6721877],[-0.1395169,52.6548427],[-0.1410776,52.6514883],[-0.1473335,52.6466457],[-0.1472534,52.6391191],[-0.1585093,52.6298074],[-0.1594138,52.6170801],[-0.1881096,52.6116389],[-0.2082946,52.6111792],[-0.2218397,52.6032797],[-0.2143652,52.5975903],[-0.1835417,52.5945445],[-0.1790863,52.5910455],[-0.1731095,52.5928],[-0.1735039,52.5849443],[-0.1906874,52.5748406],[-0.1869952,52.5684881],[-0.1199805,52.5774454],[-0.0127914,52.5942243],[-0.0312872,52.6615141]]],"type":"Polygon"},"id":"E02003241","properties":{"code":"E02003241","geography":"MSOA","name":"Peterborough 005"},"type":"Feature"},{"geometry":{"coordinates":[[[-0.278291,52.6193849],[-0.2841623,52.6172503],[-0.2913117,52.6208106],[-0.2965791,52.6177467],[-0.2679772,52.5989354],[-0.2677557,52.602981],[-0.2557703,52.5999321],[-0.2505196,52.601265],[-0.2510583,52.604872],[-0.2620305,52.6107318],[-0.2672884,52.6097573],[-0.2652244,52.617419],[-0.2691755,52.6191236],[-0.2761376,52.6167306],[-0.278291,52.6193849]]],"type":"Polygon"},"id":"E02003242","properties":{"code":"E02003242","geography":"MSOA","name":"Peterborough 006"},"type":"Feature"},{"geometry":{"coordinates":[[[-0.2082946,52.6111792],[-0.2174286,52.6146984],[-0.24708,52.6146331],[-0.2409571,52.6103108],[-0.2456909,52.6067401],[-0.2536746,52.6116304],[-0.2620305,52.6107318],[-0.2510583,52.604872],[-0.2505196,52.601265],[-0.2350003,52.6033635],[-0.2338121,52.5988321],[-0.227755,52.6002081],[-0.2225485,52.5963971],[-0.2123691,52.5950149],[-0.2143652,52.5975903],[-0.2218397,52.6032797],[-0.2082946,52.6111792]]],"type":"Polygon"},"id":"E02003243","properties":{"code":"E02003243","geography":"MSOA","name":"Peterborough 007"},"type":"Feature"},{"geometry":{"coordinates":[[[-0.2225485,52.5963971],[-0.227755,52.6002081],[-0.2338121,52.5988321],[-0.2350003,52.6033635],[-0.2505196,52.601265],[-0.2557703,52.5999321],[-0.259245,52.5982549],[-0.2521009,52.5980266],[-0.2500995,52.5945472],[-0.2421575,52.5961029],[-0.2226422,52.5887187],[-0.2178335,52.591645],[-0.2225485,52.5963971]]],"type":"Polygon"},"id":"E02003244","properties":{"code":"E02003244","geography":"MSOA","name":"Peterborough 008"},"type":"Feature"},{"geometry":{"coordinates":[[[-0.2965791,52.6177467],[-0.2967824,52.6178817],[-0.2973192,52.6151242],[-0.2878768,52.6110526],[-0.2885826,52.6039592],[-0.2848236,52.6000216],[-0.2802213,52.6024599],[-0.2739458,52.5993476],[-0.2793985,52.5959833],[-0.2808831,52.5880174],[-0.2698475,52.5822691],[-0.2635009,52.5826604],[-0.2665499,52.5912502],[-0.2768153,52.59182],[-0.2660877,52.5971982],[-0.2679772,52.5989354],[-0.2965791,52.6177467]]],"type":"Polygon"},"id":"E02003245","properties":{"code":"E02003245","geography":"MSOA","name":"Peterborough 009"},"type":"Feature"},{"geometry":{"coordinates":[[[-0.2557703,52.5999321],[-0.2677557,52.602981],[-0.2679772,52.5989354],[-0.2660877,52.5971982],[-0.2768153,52.59182],[-0.2665499,52.5912502],[-0.2635009,52.5826604],[-0.2623117,52.5828913],[-0.2559823,52.5832681],[-0.2509664,52.5832814],[-0.2500995,52.5945472],[-0.2521009,52.5980266],[-0.259245,52.5982549],[-0.2557703,52.5999321]]],"type":"Polygon"},"id":"E02003246","properties":{"code":"E02003246","geography":"MSOA","name":"Peterborough 010"},"type":"Feature"},{"geometry":{"coordinates":[[[-0.2885826,52.6039592],[-0.2915358,52.6046185],[-0.2941367,52.5963674],[-0.2868166,52.58849],[-0.2942007,52.5823176],[-0.2880412,52.5807395],[-0.2916004,52.5765097],[-0.2865685,52.5764794],[-0.2808831,52.5880174],[-0.2793985,52.5959833],[-0.2739458,52.5993476],[-0.2802213,52.6024599],[-0.2848236,52.6000216],[-0.2885826,52.6039592]]],"type":"Polygon"},"id":"E02003247","properties":{"code":"E02003247","geography":"MSOA","name":"Peterborough 011"},"type":"Feature"},{"geometry":{"coordinates":[[[-0.2226422,52.5887187],[-0.2421575,52.5961029],[-0.2500995,52.5945472],[-0.2509664,52.5832814],[-0.2450291,52.5813203],[-0.2417385,52.5854855],[-0.2353799,52.5825542],[-0.2317863,52.586025],[-0.2271787,52.5850124],[-0.2226422,52.5887187]]],"type":"Polygon"},"id":"E02003248","properties":{"code":"E02003248","geography":"MSOA","name":"Peterborough 012"},"type":"Feature"},{"geometry":{"coordinates":[[[-0.1906874,52.5748406],[-0.1735039,52.5849443],[-0.1731095,52.5928],[-0.1790863,52.5910455],[-0.1835417,52.5945445],[-0.2143652,52.5975903],[-0.2123691,52.5950149],[-0.2225485,52.5963971],[-0.2178335,52.591645],[-0.2226422,52.5887187],[-0.2271787,52.5850124],[-0.2320904,52.5812733],[-0.2240566,52.5756687],[-0.23502,52.5746843],[-0.2415691,52.5683025],[-0.2394871,52.5681616],[-0.2237215,52.5667986],[-0.2074354,52.5694294],[-0.2003024,52.5754081],[-0.1906874,52.5748406]]],"type":"Polygon"},"id":"E02003249","properties":{"code":"E02003249","geography":"MSOA","name":"Peterborough 013"},"type":"Feature"},{"geometry":{"coordinates":[[[-0.2271787,52.5850124],[-0.2317863,52.586025],[-0.2353799,52.5825542],[-0.2417385,52.5854855],[-0.2450291,52.5813203],[-0.2509664,52.5832814],[-0.2559823,52.5832681],[-0.245345,52.5681797],[-0.2415691,52.5683025],[-0.23502,52.5746843],[-0.2240566,52.5756687],[-0.2320904,52.5812733],[-0.2271787,52.5850124]]],"type":"Polygon"},"id":"E02003250","properties":{"code":"E02003250","geography":"MSOA","name":"Peterborough 014"},"type":"Feature"},{"geometry":{"coordinates":[[[-0.2635009,52.5826604],[-0.2698475,52.5822691],[-0.2808831,52.5880174],[-0.2865685,52.5764794],[-0.2916004,52.5765097],[-0.2880412,52.5807395],[-0.2942007,52.5823176],[-0.3034979,52.5761359],[-0.3047326,52.5707538],[-0.2954001,52.561564],[-0.2880175,52.5596458],[-0.2664304,52.5680916],[-0.259235,52.5681344],[-0.2583076,52.5718883],[-0.2632682,52.5722709],[-0.2610615,52.5755675],[-0.2671859,52.5795971],[-0.2623117,52.5828913],[-0.2635009,52.5826604]]],"type":"Polygon"},"id":"E02003251","properties":{"code":"E02003251","geography":"MSOA","name":"Peterborough 015"},"type":"Feature"},{"geometry":{"coordinates":[[[-0.2415691,52.5683025],[-0.245345,52.5681797],[-0.2559823,52.5832681],[-0.2623117,52.5828913],[-0.2671859,52.5795971],[-0.2610615,52.5755675],[-0.2632682,52.5722709],[-0.2583076,52.5718883],[-0.259235,52.5681344],[-0.2664304,52.5680916],[-0.2658215,52.5615616],[-0.2532105,52.5558627],[-0.2543879,52.5617653],[-0.2415691,52.5683025]]],"type":"Polygon"},"id":"E02003252","properties":{"code":"E02003252","geography":"MSOA","name":"Peterborough 016"},"type":"Feature"},{"geometry":{"coordinates":[[[-0.2394871,52.5681616],[-0.2415691,52.5683025],[-0.2543879,52.5617653],[-0.2532105,52.5558627],[-0.2474031,52.5542529],[-0.2438363,52.5563157],[-0.2447667,52.55042],[-0.2335538,52.5490357],[-0.2245003,52.5573788],[-0.2278462,52.5598193],[-0.2212436,52.5607845],[-0.2394871,52.5681616]]],"type":"Polygon"},"id":"E02003253","properties":{"code":"E02003253","geography":"MSOA","name":"Peterborough 017"},"type":"Feature"},{"geometry":{"coordinates":[[[-0.2967824,52.6178817],[-0.3042114,52.6238334],[-0.3144568,52.6127007],[-0.3415065,52.6110298],[-0.3413924,52.6077943],[-0.352883,52.6079347],[-0.3547978,52.6106712],[-0.3629453,52.6072482],[-0.3715133,52.6080181],[-0.3873432,52.5982981],[-0.3905352,52.5995636],[-0.3999788,52.5921976],[-0.3949452,52.5820779],[-0.385465,52.5671724],[-0.3733964,52.5663767],[-0.3673979,52.5627473],[-0.3484925,52.5643524],[-0.3373304,52.5536297],[-0.3254737,52.5528711],[-0.3259402,52.5486315],[-0.3327512,52.5465276],[-0.3200752,52.5353871],[-0.3171078,52.5362162],[-0.3100199,52.5392372],[-0.3112873,52.5414923],[-0.3047543,52.5415714],[-0.3043226,52.5482322],[-0.2982377,52.5449885],[-0.2867654,52.549291],[-0.2889213,52.550778],[-0.2896277,52.5544238],[-0.2962048,52.5581672],[-0.3012837,52.5569112],[-0.3055688,52.5609368],[-0.311409,52.5718146],[-0.3047326,52.5707538],[-0.3034979,52.5761359],[-0.2942007,52.5823176],[-0.2868166,52.58849],[-0.2941367,52.5963674],[-0.2915358,52.6046185],[-0.2885826,52.6039592],[-0.2878768,52.6110526],[-0.2973192,52.6151242],[-0.2967824,52.6178817]]],"type":"Polygon"},"id":"E02003254","properties":{"code":"E02003254","geography":"MSOA","name":"Peterborough 018"},"type":"Feature"},{"geometry":{"coordinates":[[[-0.1906874,52.5748406],[-0.2003024,52.5754081],[-0.2074354,52.5694294],[-0.2237215,52.5667986],[-0.2394871,52.5681616],[-0.2212436,52.5607845],[-0.2278462,52.5598193],[-0.2245003,52.5573788],[-0.2335538,52.5490357],[-0.2447667,52.55042],[-0.2435468,52.5352785],[-0.2426946,52.5296566],[-0.2382823,52.5290819],[-0.2317425,52.5344588],[-0.2366727,52.5382163],[-0.2348525,52.5436496],[-0.2231403,52.542423],[-0.2176803,52.5379055],[-0.21416,52.5417731],[-0.2027726,52.5425361],[-0.2004148,52.5451981],[-0.1878672,52.5418444],[-0.1856448,52.544919],[-0.1910472,52.5503204],[-0.1978893,52.5507869],[-0.1885302,52.5598661],[-0.1898944,52.5654236],[-0.1817122,52.5664845],[-0.1869952,52.5684881],[-0.1906874,52.5748406]]],"type":"Polygon"},"id":"E02003255","properties":{"code":"E02003255","geography":"MSOA","name":"Peterborough 019"},"type":"Feature"},{"geometry":{"coordinates":[[[-0.2761133,52.5424696],[-0.2646033,52.5446633],[-0.2678793,52.5521378],[-0.2788114,52.5465976],[-0.2799406,52.5512653],[-0.2889213,52.550778],[-0.2867654,52.549291],[-0.2982377,52.5449885],[-0.3043226,52.5482322],[-0.3047543,52.5415714],[-0.3112873,52.5414923],[-0.3100199,52.5392372],[-0.3171078,52.5362162],[-0.2984893,52.536734],[-0.2978083,52.5396725],[-0.2834717,52.5453524],[-0.2819334,52.5417818],[-0.2761133,52.5424696]]],"type":"Polygon"},"id":"E02003257","properties":{"code":"E02003257","geography":"MSOA","name":"Peterborough 021"},"type":"Feature"},{"geometry":{"coordinates":[[[-0.3047326,52.5707538],[-0.311409,52.5718146],[-0.3055688,52.5609368],[-0.3012837,52.5569112],[-0.2962048,52.5581672],[-0.2896277,52.5544238],[-0.2889213,52.550778],[-0.2799406,52.5512653],[-0.2788114,52.5465976],[-0.2678793,52.5521378],[-0.2646033,52.5446633],[-0.2761133,52.5424696],[-0.2716951,52.54041],[-0.2682605,52.5421718],[-0.2644239,52.536911],[-0.2760942,52.5371716],[-0.2752848,52.5354105],[-0.2435468,52.5352785],[-0.2447667,52.55042],[-0.2438363,52.5563157],[-0.2474031,52.5542529],[-0.2532105,52.5558627],[-0.2658215,52.5615616],[-0.2664304,52.5680916],[-0.2880175,52.5596458],[-0.2954001,52.561564],[-0.3047326,52.5707538]]],"type":"Polygon"},"id":"E02006877","properties":{"code":"E02006877","geography":"MSOA","name":"Peterborough 022"},"type":"Feature"},{"geometry":{"coordinates":[[[-0.2761133,52.5424696],[-0.2819334,52.5417818],[-0.2834717,52.5453524],[-0.2978083,52.5396725],[-0.2984893,52.536734],[-0.3171078,52.5362162],[-0.3200752,52.5353871],[-0.2957717,52.513826],[-0.2933074,52.5068708],[-0.2878274,52.5087329],[-0.2846562,52.5060952],[-0.2755356,52.5110668],[-0.2708465,52.5155883],[-0.274065,52.5189467],[-0.2693127,52.5208067],[-0.2447978,52.5229809],[-0.2426946,52.5296566],[-0.2435468,52.5352785],[-0.2752848,52.5354105],[-0.2760942,52.5371716],[-0.2644239,52.536911],[-0.2682605,52.5421718],[-0.2716951,52.54041],[-0.2761133,52.5424696]]],"type":"Polygon"},"id":"E02006878","properties":{"code":"E02006878","geography":"MSOA","name":"Peterborough 023"},"type":"Feature"}],"type":"FeatureCollection"}
