{"features":[{"geometry":{"coordinates":[[[-4.1880988,50.4988496],[-4.1805731,50.5012447],[-4.1839356,50.5078787],[-4.1908314,50.5072212],[-4.1940261,50.5028419],[-4.2019327,50.5027691],[-4.2018875,50.5133723],[-4.2094938,50.5137498],[-4.2062213,50.5201591],[-4.2120923,50.5289839],[-4.2071955,50.5335413],[-4.2144746,50.5345794],[-4.2255223,50.5297247],[-4.2322652,50.5310285],[-4.2408955,50.5423113],[-4.2478623,50.5439328],[-4.2687391,50.5352817],[-4.2746661,50.5253379],[-4.2709884,50.5170054],[-4.2878638,50.5138695],[-4.2780746,50.5034149],[-4.2580417,50.4997598],[-4.2514095,50.4940635],[-4.2235999,50.4899626],[-4.2205166,50.4982226],[-4.2007692,50.4922752],[-4.1945659,50.4938312],[-4.1947935,50.4986488],[-4.1880988,50.4988496]]],"type":"Polygon"},"id":"E02003892","properties":{"code":"E02003892","geography":"MSOA","name":"Cornwall 010"},"type":"Feature"},{"geometry":{"coordinates":[[[-4.3243368,50.520045],[-4.3375268,50.5259665],[-4.3360902,50.534442],[-4.3393276,50.5368379],[-4.3512034,50.5336537],[-4.3478664,50.5426139],[-4.3586464,50.5461898],[-4.3615593,50.5509769],[-4.3638726,50.5560747],[-4.352308,50.5631088],[-4.3508443,50.5692158],[-4.3684451,50.5681674],[-4.3959317,50.5750171],[-4.399693,50.5694045],[-4.394312,50.5678387],[-4.4015203,50.5618447],[-4.3941307,50.5547663],[-4.3966845,50.5523689],[-4.412561,50.5513255],[-4.4149091,50.5496949],[-4.4099155,50.5483778],[-4.4131237,50.5437293],[-4.422233,50.5418138],[-4.4373027,50.5453596],[-4.4451431,50.5417412],[-4.4614008,50.5435374],[-4.480138,50.5406997],[-4.4955705,50.5570768],[-4.5050472,50.559389],[-4.5177111,50.5563868],[-4.5210689,50.5490644],[-4.5343335,50.5426484],[-4.5507029,50.5613664],[-4.5555172,50.5615091],[-4.5582987,50.5569426],[-4.5646988,50.5603311],[-4.5698715,50.5582734],[-4.5893935,50.5403656],[-4.6106806,50.5345112],[-4.6053682,50.5251085],[-4.6159528,50.5148931],[-4.6086203,50.4959195],[-4.6190971,50.4871989],[-4.611541,50.4755275],[-4.6190654,50.4594977],[-4.5960428,50.4591342],[-4.5906314,50.4555121],[-4.576347,50.4543066],[-4.5525877,50.4562463],[-4.5430391,50.4636468],[-4.5204302,50.469177],[-4.5022494,50.4707109],[-4.493247,50.4678047],[-4.4921413,50.473308],[-4.4852543,50.4752327],[-4.4445955,50.4779517],[-4.4456774,50.4712774],[-4.4201358,50.485764],[-4.4073138,50.4808294],[-4.4063361,50.4859468],[-4.4264156,50.5048663],[-4.4231666,50.5115944],[-4.3982945,50.5185292],[-4.3854093,50.5141798],[-4.3717525,50.5141973],[-4.3682772,50.5059239],[-4.3541816,50.5012127],[-4.3538385,50.4970075],[-4.345008,50.4931006],[-4.3332707,50.5031891],[-4.3338009,50.5104504],[-4.3243368,50.520045]]],"type":"Polygon"},"id":"E02003893","properties":{"code":"E02003893","geography":"MSOA","name":"Cornwall 012"},"type":"Feature"},{"geometry":{"coordinates":[[[-4.2878638,50.5138695],[-4.3045052,50.515358],[-4.3049255,50.5204495],[-4.3143041,50.5243611],[-4.3243368,50.520045],[-4.3338009,50.5104504],[-4.3332707,50.5031891],[-4.345008,50.4931006],[-4.3538385,50.4970075],[-4.3541816,50.5012127],[-4.3682772,50.5059239],[-4.3717525,50.5141973],[-4.3854093,50.5141798],[-4.3982945,50.5185292],[-4.4231666,50.5115944],[-4.4264156,50.5048663],[-4.4063361,50.4859468],[-4.4073138,50.4808294],[-4.4009516,50.4734774],[-4.4047334,50.4667371],[-4.3850951,50.4738036],[-4.3759751,50.4710833],[-4.3709756,50.4730453],[-4.3550213,50.46552],[-4.3337881,50.4696551],[-4.3368385,50.4741589],[-4.3308623,50.4874467],[-4.3172095,50.4852865],[-4.301528,50.4893287],[-4.2911492,50.4941198],[-4.2879901,50.5024208],[-4.2780746,50.5034149],[-4.2878638,50.5138695]]],"type":"Polygon"},"id":"E02003894","properties":{"code":"E02003894","geography":"MSOA","name":"Cornwall 013"},"type":"Feature"},{"geometry":{"coordinates":[[[-4.4073138,50.4808294],[-4.4201358,50.485764],[-4.4456774,50.4712774],[-4.4445955,50.4779517],[-4.4852543,50.4752327],[-4.4921413,50.473308],[-4.493247,50.4678047],[-4.5022494,50.4707109],[-4.5204302,50.469177],[-4.5430391,50.4636468],[-4.5525877,50.4562463],[-4.576347,50.4543066],[-4.5829821,50.4454741],[-4.5721275,50.4411435],[-4.5654721,50.4416315],[-4.5720367,50.4265892],[-4.5556281,50.4178916],[-4.5361553,50.4242976],[-4.515468,50.4163367],[-4.5150222,50.4244191],[-4.5048668,50.4304825],[-4.4949779,50.4331965],[-4.492249,50.4301473],[-4.4659126,50.4319179],[-4.4605343,50.436068],[-4.4673801,50.4386269],[-4.467584,50.4416873],[-4.4765479,50.4387139],[-4.4920159,50.4586781],[-4.4794819,50.4548962],[-4.4619056,50.455501],[-4.4662627,50.4579609],[-4.46682,50.46443],[-4.4609934,50.4686229],[-4.4598731,50.4586086],[-4.4537592,50.454514],[-4.4588054,50.4536784],[-4.4507754,50.4506857],[-4.4632111,50.4477678],[-4.4667121,50.4419244],[-4.4609227,50.4422431],[-4.4536256,50.4375385],[-4.4562122,50.4286209],[-4.4128493,50.4222256],[-4.4117969,50.4199664],[-4.4200295,50.4182501],[-4.4320919,50.4193862],[-4.4263471,50.4134867],[-4.3947591,50.4122371],[-4.3978435,50.4191513],[-4.3862963,50.4273222],[-4.3685632,50.4298551],[-4.3592248,50.4262105],[-4.3498426,50.4297231],[-4.4010751,50.4591709],[-4.4047334,50.4667371],[-4.4009516,50.4734774],[-4.4073138,50.4808294]]],"type":"Polygon"},"id":"E02003895","properties":{"code":"E02003895","geography":"MSOA","name":"Cornwall 016"},"type":"Feature"},{"geometry":{"coordinates":[[[-4.4667121,50.4419244],[-4.4632111,50.4477678],[-4.4507754,50.4506857],[-4.4588054,50.4536784],[-4.4537592,50.454514],[-4.4598731,50.4586086],[-4.4609934,50.4686229],[-4.46682,50.46443],[-4.4662627,50.4579609],[-4.4619056,50.455501],[-4.4794819,50.4548962],[-4.4920159,50.4586781],[-4.4765479,50.4387139],[-4.467584,50.4416873],[-4.4667121,50.4419244]]],"type":"Polygon"},"id":"E02003896","properties":{"code":"E02003896","geography":"MSOA","name":"Cornwall 017"},"type":"Feature"},{"geometry":{"coordinates":[[[[-4.2381354,50.4648822],[-4.2392667,50.4651658],[-4.2391943,50.4650216],[-4.2380655,50.4627736],[-4.2378645,50.4623733],[-4.2381354,50.4648822]]],[[[-4.2578123,50.4698121],[-4.2709288,50.4651442],[-4.2772661,50.4665313],[-4.2828718,50.4617029],[-4.2925784,50.4670283],[-4.3009118,50.4650091],[-4.3017358,50.4589537],[-4.2984207,50.4583364],[-4.296074,50.4622724],[-4.2958448,50.4567676],[-4.2836408,50.4560231],[-4.2777426,50.4508501],[-4.2796293,50.4457303],[-4.2867283,50.4496394],[-4.3023167,50.4472002],[-4.3020265,50.4539605],[-4.3076258,50.4498971],[-4.2953945,50.4368926],[-4.2787205,50.4310063],[-4.2720077,50.4195924],[-4.2786578,50.4139252],[-4.2803967,50.4003068],[-4.288559,50.395355],[-4.2822562,50.3979356],[-4.2806162,50.398607],[-4.2838056,50.3959339],[-4.2840209,50.3957535],[-4.290288,50.3904999],[-4.2890882,50.3879934],[-4.2878672,50.3917663],[-4.287153,50.3889129],[-4.281893,50.3912946],[-4.2887122,50.3876059],[-4.284756,50.3844727],[-4.280021,50.3879953],[-4.284132,50.3840766],[-4.2762918,50.3770176],[-4.2706013,50.3795269],[-4.2710492,50.387195],[-4.2539737,50.3834123],[-4.2519294,50.3842638],[-4.2451858,50.3870722],[-4.2521169,50.3882156],[-4.2526965,50.3883112],[-4.2521337,50.3885711],[-4.2477318,50.3906037],[-4.2523656,50.3934607],[-4.2524079,50.3934868],[-4.252367,50.39349],[-4.2471618,50.3939004],[-4.2492987,50.3916932],[-4.2437121,50.3892],[-4.2327801,50.3936522],[-4.2355925,50.4015421],[-4.2322023,50.3994101],[-4.2287382,50.3972313],[-4.2297772,50.3938598],[-4.2291498,50.394046],[-4.2244279,50.3965034],[-4.2235916,50.3966902],[-4.2248697,50.4049486],[-4.228263,50.4047001],[-4.2357588,50.4041772],[-4.2380551,50.4152969],[-4.2317476,50.4150948],[-4.2236531,50.4188721],[-4.2228951,50.4242874],[-4.223043,50.4243086],[-4.2295875,50.4252453],[-4.2238148,50.4254241],[-4.2282212,50.42964],[-4.2281903,50.4297661],[-4.2268726,50.435138],[-4.2367309,50.4387355],[-4.2263243,50.4356064],[-4.2211944,50.4260295],[-4.2171326,50.4297323],[-4.2037203,50.4299981],[-4.1993505,50.4364281],[-4.2058264,50.4406812],[-4.2030302,50.4425511],[-4.2112885,50.4456728],[-4.2115688,50.4562125],[-4.2176211,50.4644601],[-4.2296855,50.4550427],[-4.2375186,50.4574602],[-4.2386163,50.4591935],[-4.2425873,50.4654627],[-4.2429301,50.4660039],[-4.2406537,50.4655134],[-4.2578123,50.4698121]]]],"type":"MultiPolygon"},"id":"E02003897","properties":{"code":"E02003897","geography":"MSOA","name":"Cornwall 022"},"type":"Feature"},{"geometry":{"coordinates":[[[[-4.2696344,50.3723965],[-4.2701579,50.372894],[-4.279789,50.3697728],[-4.2696344,50.3723965]]],[[[-4.2235999,50.4899626],[-4.2514095,50.4940635],[-4.2580417,50.4997598],[-4.2780746,50.5034149],[-4.2879901,50.5024208],[-4.2911492,50.4941198],[-4.301528,50.4893287],[-4.3172095,50.4852865],[-4.3308623,50.4874467],[-4.3368385,50.4741589],[-4.3337881,50.4696551],[-4.3550213,50.46552],[-4.3709756,50.4730453],[-4.3759751,50.4710833],[-4.3850951,50.4738036],[-4.4047334,50.4667371],[-4.4010751,50.4591709],[-4.3498426,50.4297231],[-4.3592248,50.4262105],[-4.3685632,50.4298551],[-4.3862963,50.4273222],[-4.3978435,50.4191513],[-4.3947591,50.4122371],[-4.392955,50.401852],[-4.3857565,50.397195],[-4.4046377,50.3856096],[-4.4032469,50.3806686],[-4.3940144,50.3772093],[-4.3898667,50.3714893],[-4.3980835,50.3676547],[-4.4036488,50.3712824],[-4.4009261,50.3637072],[-4.386938,50.3657074],[-4.3648791,50.3600591],[-4.3609096,50.3602324],[-4.357032,50.3611903],[-4.3516958,50.3606342],[-4.3329098,50.3614509],[-4.3316932,50.3619409],[-4.3255742,50.361769],[-4.3243692,50.3618212],[-4.3234224,50.3617085],[-4.316105,50.3615024],[-4.3084876,50.3599292],[-4.282674,50.3568491],[-4.2794443,50.3555949],[-4.2756411,50.3633363],[-4.2799104,50.3697335],[-4.2800031,50.3697034],[-4.2817616,50.3716792],[-4.2681247,50.3752633],[-4.2772353,50.3744565],[-4.2951807,50.3868173],[-4.2960569,50.3859279],[-4.2955567,50.3873784],[-4.3086883,50.3877848],[-4.3086348,50.3897859],[-4.3086174,50.3904378],[-4.3069351,50.3897252],[-4.3032322,50.3881566],[-4.3027519,50.3895757],[-4.3016913,50.3927086],[-4.3012033,50.3924904],[-4.2934859,50.38904],[-4.2915631,50.3941248],[-4.288559,50.395355],[-4.2803967,50.4003068],[-4.2786578,50.4139252],[-4.2720077,50.4195924],[-4.2787205,50.4310063],[-4.2953945,50.4368926],[-4.3076258,50.4498971],[-4.3020265,50.4539605],[-4.3023167,50.4472002],[-4.2867283,50.4496394],[-4.2796293,50.4457303],[-4.2777426,50.4508501],[-4.2836408,50.4560231],[-4.2958448,50.4567676],[-4.296074,50.4622724],[-4.2984207,50.4583364],[-4.3017358,50.4589537],[-4.3009118,50.4650091],[-4.2925784,50.4670283],[-4.2828718,50.4617029],[-4.2772661,50.4665313],[-4.2709288,50.4651442],[-4.2578123,50.4698121],[-4.2406537,50.4655134],[-4.2392804,50.4651931],[-4.2392667,50.4651658],[-4.2381354,50.4648822],[-4.2181434,50.4757956],[-4.2181407,50.4836243],[-4.2235999,50.4899626]]]],"type":"MultiPolygon"},"id":"E02003898","properties":{"code":"E02003898","geography":"MSOA","name":"Cornwall 023"},"type":"Feature"},{"geometry":{"coordinates":[[[-4.2317476,50.4150948],[-4.2380551,50.4152969],[-4.2357588,50.4041772],[-4.228263,50.4047001],[-4.2215514,50.4075777],[-4.2163568,50.406187],[-4.2171293,50.4086398],[-4.2241832,50.410874],[-4.2257756,50.4147551],[-4.2317476,50.4150948]]],"type":"Polygon"},"id":"E02003899","properties":{"code":"E02003899","geography":"MSOA","name":"Cornwall 025"},"type":"Feature"},{"geometry":{"coordinates":[[[-4.2235916,50.3966902],[-4.2234021,50.3967325],[-4.2119521,50.3993312],[-4.2100592,50.4039271],[-4.213431,50.4048002],[-4.21257,50.4051289],[-4.2083971,50.406722],[-4.2070343,50.4099989],[-4.2116064,50.4166438],[-4.2114286,50.4167433],[-4.2110265,50.4188316],[-4.2097678,50.4253672],[-4.2224663,50.4253402],[-4.2227199,50.4242624],[-4.2228951,50.4242874],[-4.2236531,50.4188721],[-4.2317476,50.4150948],[-4.2257756,50.4147551],[-4.2241832,50.410874],[-4.2171293,50.4086398],[-4.2163568,50.406187],[-4.2215514,50.4075777],[-4.228263,50.4047001],[-4.2248697,50.4049486],[-4.2235916,50.3966902]]],"type":"Polygon"},"id":"E02003900","properties":{"code":"E02003900","geography":"MSOA","name":"Cornwall 026"},"type":"Feature"},{"geometry":{"coordinates":[[[[-4.6597606,50.387148],[-4.6610336,50.3884392],[-4.6611461,50.3883602],[-4.6540167,50.3796397],[-4.6515833,50.378992],[-4.6597606,50.387148]]],[[[-4.5829821,50.4454741],[-4.576347,50.4543066],[-4.5906314,50.4555121],[-4.5960428,50.4591342],[-4.6190654,50.4594977],[-4.6341853,50.4560646],[-4.6362976,50.4428429],[-4.6459756,50.4436485],[-4.6599371,50.4505456],[-4.6631976,50.4464431],[-4.6768266,50.4421535],[-4.6808723,50.4359806],[-4.6752028,50.4353921],[-4.6679312,50.4265484],[-4.6435602,50.4181746],[-4.6505589,50.4040464],[-4.649727,50.3963773],[-4.6606463,50.3887112],[-4.6432484,50.3767728],[-4.6427255,50.3766336],[-4.642191,50.376047],[-4.6379267,50.3731194],[-4.6358473,50.3799056],[-4.6158085,50.3855439],[-4.6198049,50.3820403],[-4.6336002,50.3792586],[-4.6359184,50.3600827],[-4.6076231,50.3594096],[-4.6117298,50.3592243],[-4.6359128,50.35813],[-4.6360482,50.3473545],[-4.627381,50.3479249],[-4.6306385,50.3426296],[-4.6309709,50.3396617],[-4.629666,50.334531],[-4.6087923,50.3382982],[-4.6212558,50.3347645],[-4.6180125,50.3348814],[-4.6310844,50.331698],[-4.6310852,50.3315701],[-4.6378555,50.3284393],[-4.6366837,50.3257445],[-4.6360487,50.3254979],[-4.6342975,50.3248636],[-4.6183855,50.323889],[-4.618115,50.3239963],[-4.6066072,50.3289627],[-4.5983847,50.3239019],[-4.591845,50.3287886],[-4.5895934,50.3306699],[-4.5892665,50.330715],[-4.587421,50.3320936],[-4.5784202,50.3325591],[-4.5514691,50.3243372],[-4.5492127,50.3242276],[-4.5270042,50.3267429],[-4.526444,50.3268852],[-4.5231734,50.331886],[-4.5205067,50.3309595],[-4.5257999,50.3344221],[-4.5213172,50.341134],[-4.5251512,50.3467175],[-4.5102249,50.3517407],[-4.5071866,50.3495855],[-4.4940475,50.351865],[-4.4832574,50.3646762],[-4.4731762,50.3637454],[-4.4689992,50.3635804],[-4.4686781,50.3632773],[-4.4685588,50.3631529],[-4.4642359,50.3589574],[-4.4604695,50.3590989],[-4.4593383,50.3594821],[-4.4590762,50.3658217],[-4.4590569,50.366289],[-4.4591752,50.3675346],[-4.4593752,50.3696409],[-4.455463,50.3607946],[-4.4490035,50.362982],[-4.4476688,50.3568208],[-4.4430148,50.361891],[-4.4387861,50.3594557],[-4.4364706,50.3610629],[-4.4176589,50.3624385],[-4.4112688,50.3634117],[-4.4028323,50.3635205],[-4.4016059,50.36361],[-4.4011017,50.3636821],[-4.4009261,50.3637072],[-4.4036488,50.3712824],[-4.3980835,50.3676547],[-4.3898667,50.3714893],[-4.3940144,50.3772093],[-4.4032469,50.3806686],[-4.4046377,50.3856096],[-4.3857565,50.397195],[-4.392955,50.401852],[-4.3947591,50.4122371],[-4.4263471,50.4134867],[-4.4320919,50.4193862],[-4.4200295,50.4182501],[-4.4117969,50.4199664],[-4.4128493,50.4222256],[-4.4562122,50.4286209],[-4.4536256,50.4375385],[-4.4609227,50.4422431],[-4.4667121,50.4419244],[-4.467584,50.4416873],[-4.4673801,50.4386269],[-4.4605343,50.436068],[-4.4659126,50.4319179],[-4.492249,50.4301473],[-4.4949779,50.4331965],[-4.5048668,50.4304825],[-4.5150222,50.4244191],[-4.515468,50.4163367],[-4.5361553,50.4242976],[-4.5556281,50.4178916],[-4.5720367,50.4265892],[-4.5654721,50.4416315],[-4.5721275,50.4411435],[-4.5829821,50.4454741]]]],"type":"MultiPolygon"},"id":"E02003901","properties":{"code":"E02003901","geography":"MSOA","name":"Cornwall 028"},"type":"Feature"},{"geometry":{"coordinates":[[[-4.2077808,50.369659],[-4.2076561,50.3696896],[-4.2109749,50.373282],[-4.2111351,50.3734633],[-4.2013069,50.3702427],[-4.2002106,50.3705165],[-4.1947378,50.3718833],[-4.1930332,50.3756735],[-4.1932143,50.3759371],[-4.2025308,50.3791159],[-4.1987494,50.3831495],[-4.2075078,50.385284],[-4.2085569,50.3855396],[-4.2070546,50.3859933],[-4.2093477,50.385475],[-4.2073185,50.3760565],[-4.2171446,50.3757321],[-4.2155066,50.3694296],[-4.2117765,50.371863],[-4.2077808,50.369659]]],"type":"Polygon"},"id":"E02003902","properties":{"code":"E02003902","geography":"MSOA","name":"Cornwall 029"},"type":"Feature"},{"geometry":{"coordinates":[[[-4.2070546,50.3859933],[-4.2044805,50.3867705],[-4.201647,50.387626],[-4.2031522,50.3884299],[-4.2117338,50.3926514],[-4.224294,50.3911929],[-4.226851,50.3902531],[-4.2279737,50.3907653],[-4.2307524,50.3904424],[-4.2354057,50.3874343],[-4.2333849,50.3841245],[-4.2492943,50.3773049],[-4.2491705,50.3744803],[-4.2514872,50.3749225],[-4.2605124,50.3766447],[-4.2661883,50.374738],[-4.2666208,50.3695316],[-4.2696344,50.3723965],[-4.279789,50.3697728],[-4.2799104,50.3697335],[-4.2756411,50.3633363],[-4.2794443,50.3555949],[-4.2500318,50.3441657],[-4.2448354,50.3421451],[-4.2334205,50.3346605],[-4.2316747,50.3339383],[-4.2284587,50.3314061],[-4.2255355,50.3294884],[-4.2244213,50.3289865],[-4.2241704,50.3285928],[-4.2203171,50.3260644],[-4.2196827,50.3224616],[-4.2272578,50.3190643],[-4.2268034,50.3182957],[-4.2237463,50.3167159],[-4.2250353,50.315305],[-4.2230547,50.3119544],[-4.2222851,50.3123315],[-4.2212809,50.3146463],[-4.2105632,50.3183397],[-4.1883403,50.3176854],[-4.1896102,50.3237356],[-4.1923959,50.3251795],[-4.198755,50.3283088],[-4.1988291,50.3285133],[-4.2008447,50.3295577],[-4.2011966,50.3329447],[-4.1880772,50.3408872],[-4.1710143,50.3428738],[-4.1703333,50.3429803],[-4.1698868,50.3435202],[-4.1670624,50.3503306],[-4.1701562,50.3546679],[-4.1763049,50.3602843],[-4.1862495,50.356951],[-4.1934418,50.3536347],[-4.192358,50.3505853],[-4.2084988,50.3470444],[-4.2094946,50.3508428],[-4.2039065,50.3488019],[-4.1962109,50.3540528],[-4.1967657,50.3594624],[-4.2059219,50.3618929],[-4.2093208,50.3593602],[-4.2238641,50.3586889],[-4.2173723,50.3622102],[-4.2351496,50.3638296],[-4.2392743,50.3616887],[-4.2367485,50.3658963],[-4.2351375,50.3660363],[-4.2253205,50.3668892],[-4.2220348,50.368806],[-4.2192991,50.3668317],[-4.2077808,50.369659],[-4.2117765,50.371863],[-4.2155066,50.3694296],[-4.2171446,50.3757321],[-4.2073185,50.3760565],[-4.2093477,50.385475],[-4.2070546,50.3859933]]],"type":"Polygon"},"id":"E02003903","properties":{"code":"E02003903","geography":"MSOA","name":"Cornwall 034"},"type":"Feature"},{"geometry":{"coordinates":[[[[-4.4458916,50.3361806],[-4.450205,50.3382915],[-4.451655,50.3361401],[-4.4491195,50.3359196],[-4.4458916,50.3361806]]],[[[-4.4593524,50.3591409],[-4.4593383,50.3594821],[-4.4604695,50.3590989],[-4.4593524,50.3591409]]],[[[-4.4490035,50.362982],[-4.455463,50.3607946],[-4.4510946,50.3509124],[-4.450964,50.3510024],[-4.4510539,50.3513536],[-4.4459972,50.3544497],[-4.4387861,50.3594557],[-4.4430148,50.361891],[-4.4476688,50.3568208],[-4.4490035,50.362982]]],[[[-4.4832574,50.3646762],[-4.4940475,50.351865],[-4.5071866,50.3495855],[-4.5102249,50.3517407],[-4.5251512,50.3467175],[-4.5213172,50.341134],[-4.5257999,50.3344221],[-4.5205067,50.3309595],[-4.5231734,50.331886],[-4.526444,50.3268852],[-4.5260311,50.3269902],[-4.5168266,50.3307251],[-4.5182703,50.3313624],[-4.501706,50.3306777],[-4.4975902,50.3373765],[-4.4734743,50.3331679],[-4.473015,50.334808],[-4.4730312,50.3385737],[-4.4524043,50.3449141],[-4.4507621,50.3489872],[-4.4511515,50.3502695],[-4.4572068,50.3582967],[-4.463902,50.3578042],[-4.4693731,50.3626577],[-4.4836159,50.3641386],[-4.4784802,50.3639547],[-4.4735942,50.3637619],[-4.4731762,50.3637454],[-4.4832574,50.3646762]]]],"type":"MultiPolygon"},"id":"E02003904","properties":{"code":"E02003904","geography":"MSOA","name":"Cornwall 037"},"type":"Feature"},{"geometry":{"coordinates":[[[[-5.1383434,50.4039654],[-5.1383647,50.403932],[-5.1371702,50.4027502],[-5.1383434,50.4039654]]],[[[-5.1326992,50.3981182],[-5.1357622,50.4012916],[-5.1407407,50.4037557],[-5.145058,50.4047043],[-5.1495305,50.401703],[-5.1447191,50.3973231],[-5.1427653,50.3955442],[-5.1468842,50.390253],[-5.143564,50.3889234],[-5.1469713,50.3890569],[-5.1470839,50.3890613],[-5.1305259,50.376067],[-5.0956646,50.3652805],[-5.0985507,50.3598673],[-5.0913114,50.3521206],[-5.0926046,50.3389057],[-5.0825835,50.3293479],[-5.0913702,50.32815],[-5.084653,50.3173044],[-5.1047291,50.3042151],[-5.0776272,50.2977623],[-5.057444,50.3033707],[-5.0516075,50.292196],[-5.0312859,50.3000567],[-5.0092238,50.2961607],[-5.0104865,50.29156],[-5.0049333,50.2921662],[-5.0003634,50.2939161],[-5.0026548,50.2993074],[-4.9952966,50.3010186],[-4.9977033,50.3061471],[-4.991529,50.3112941],[-4.9869147,50.3069313],[-4.9656771,50.3086242],[-4.9628138,50.3133992],[-4.9571166,50.3129804],[-4.9568924,50.3167228],[-4.9527834,50.3172483],[-4.9281149,50.3138941],[-4.9260261,50.3107641],[-4.9052122,50.3052309],[-4.8990803,50.3109153],[-4.9004808,50.3165442],[-4.8998417,50.3213193],[-4.9069561,50.3288838],[-4.9224153,50.3300972],[-4.9251407,50.3381542],[-4.922137,50.3542668],[-4.926832,50.3608754],[-4.9449148,50.3570894],[-4.9452683,50.3594398],[-4.9524239,50.3594112],[-4.9423845,50.3445805],[-4.9713174,50.3453743],[-4.9729819,50.3358268],[-4.9775038,50.340854],[-4.993418,50.3408103],[-4.9985094,50.3432867],[-5.0050625,50.3467111],[-5.0064874,50.3526644],[-4.9947359,50.3609181],[-5.0012943,50.3771559],[-4.9977912,50.3829329],[-4.9897969,50.383428],[-4.984041,50.3889768],[-4.9873621,50.3914461],[-5.0004514,50.3958379],[-5.0148256,50.3925],[-5.0314857,50.3957116],[-5.0630569,50.3934099],[-5.0705479,50.3997533],[-5.0740116,50.3972942],[-5.0815118,50.3993696],[-5.0960156,50.3970086],[-5.0992611,50.3931494],[-5.1326992,50.3981182]]]],"type":"MultiPolygon"},"id":"E02003905","properties":{"code":"E02003905","geography":"MSOA","name":"Cornwall 032"},"type":"Feature"},{"geometry":{"coordinates":[[[-5.1470839,50.3890613],[-5.1575629,50.3894713],[-5.149512,50.3816485],[-5.1558287,50.3793933],[-5.1502994,50.3771446],[-5.1503502,50.3769536],[-5.1465789,50.3753221],[-5.1513931,50.3559346],[-5.1538206,50.3461532],[-5.1573693,50.3477704],[-5.1609376,50.3466749],[-5.1617988,50.3461985],[-5.1625915,50.3448052],[-5.1655728,50.3441106],[-5.169592,50.3418866],[-5.1698345,50.3413489],[-5.1706844,50.3412821],[-5.171305,50.3409387],[-5.1812845,50.3404152],[-5.180673,50.3349981],[-5.1807794,50.3349629],[-5.1618924,50.3319871],[-5.1665266,50.3133946],[-5.1597924,50.2991305],[-5.1662308,50.2783153],[-5.1411086,50.29288],[-5.1047291,50.3042151],[-5.084653,50.3173044],[-5.0913702,50.32815],[-5.0825835,50.3293479],[-5.0926046,50.3389057],[-5.0913114,50.3521206],[-5.0985507,50.3598673],[-5.0956646,50.3652805],[-5.1305259,50.376067],[-5.1470839,50.3890613]]],"type":"Polygon"},"id":"E02003906","properties":{"code":"E02003906","geography":"MSOA","name":"Cornwall 033"},"type":"Feature"},{"geometry":{"coordinates":[[[-5.1662308,50.2783153],[-5.1597924,50.2991305],[-5.1665266,50.3133946],[-5.1618924,50.3319871],[-5.1807794,50.3349629],[-5.1810112,50.3348863],[-5.1809714,50.3344052],[-5.1868899,50.3329425],[-5.1897584,50.3319939],[-5.1898549,50.3316408],[-5.1901388,50.328408],[-5.1908745,50.3279097],[-5.1913981,50.3259936],[-5.1938782,50.3258749],[-5.1974381,50.3234631],[-5.1990068,50.3224001],[-5.2006016,50.3205902],[-5.2088749,50.3213993],[-5.2209974,50.3224341],[-5.2212869,50.3223662],[-5.2339972,50.3187485],[-5.2340188,50.3059326],[-5.2338821,50.304888],[-5.2354319,50.3019589],[-5.2354142,50.3006951],[-5.2370243,50.2989489],[-5.2385372,50.2960889],[-5.2388105,50.2954862],[-5.2425815,50.2871698],[-5.2506805,50.28184],[-5.2510842,50.281766],[-5.2512219,50.2817407],[-5.245593,50.2771029],[-5.2409755,50.2799566],[-5.2306992,50.2675767],[-5.2102342,50.2595623],[-5.2017235,50.2592287],[-5.19647,50.2551688],[-5.1662308,50.2783153]]],"type":"Polygon"},"id":"E02003907","properties":{"code":"E02003907","geography":"MSOA","name":"Cornwall 040"},"type":"Feature"},{"geometry":{"coordinates":[[[-5.034124,50.2493643],[-5.0238882,50.2601283],[-5.0300275,50.264529],[-5.0264332,50.2650996],[-5.0308639,50.2739832],[-5.0431882,50.2781669],[-5.0484558,50.2716976],[-5.0541309,50.2719235],[-5.0536553,50.2674337],[-5.0446304,50.2647123],[-5.0459364,50.261203],[-5.0411306,50.2524276],[-5.0409725,50.252238],[-5.040935,50.2521956],[-5.0344031,50.2496546],[-5.034124,50.2493643]]],"type":"Polygon"},"id":"E02003908","properties":{"code":"E02003908","geography":"MSOA","name":"Cornwall 042"},"type":"Feature"},{"geometry":{"coordinates":[[[-5.0560434,50.2752007],[-5.0645008,50.2755077],[-5.0666261,50.2801393],[-5.0775756,50.2720191],[-5.0971807,50.2749717],[-5.1273621,50.2728584],[-5.1287367,50.2784077],[-5.1390516,50.2758943],[-5.1352772,50.2690142],[-5.1264126,50.2645389],[-5.1428081,50.263501],[-5.1400252,50.2600631],[-5.1049434,50.2520096],[-5.0763737,50.2561435],[-5.0682293,50.2668057],[-5.0607711,50.2645641],[-5.0536553,50.2674337],[-5.0541309,50.2719235],[-5.0560434,50.2752007]]],"type":"Polygon"},"id":"E02003909","properties":{"code":"E02003909","geography":"MSOA","name":"Cornwall 043"},"type":"Feature"},{"geometry":{"coordinates":[[[-5.0459364,50.261203],[-5.0446304,50.2647123],[-5.0536553,50.2674337],[-5.0607711,50.2645641],[-5.0682293,50.2668057],[-5.0763737,50.2561435],[-5.0678271,50.2560107],[-5.0567749,50.2485227],[-5.0467733,50.2477299],[-5.0504368,50.2482629],[-5.0492225,50.2483603],[-5.0391826,50.2491644],[-5.0469398,50.2587418],[-5.0501126,50.264113],[-5.0469496,50.2630353],[-5.0459364,50.261203]]],"type":"Polygon"},"id":"E02003910","properties":{"code":"E02003910","geography":"MSOA","name":"Cornwall 044"},"type":"Feature"},{"geometry":{"coordinates":[[[-5.0516075,50.292196],[-5.057444,50.3033707],[-5.0776272,50.2977623],[-5.1047291,50.3042151],[-5.1411086,50.29288],[-5.1662308,50.2783153],[-5.19647,50.2551688],[-5.1850572,50.2489109],[-5.1591918,50.2433871],[-5.1525647,50.2384738],[-5.1101628,50.2271394],[-5.0977116,50.2101338],[-5.0905216,50.2086918],[-5.0966523,50.2111828],[-5.0847235,50.2099577],[-5.0829232,50.2097727],[-5.0700874,50.2056717],[-5.0665689,50.2104741],[-5.0648892,50.202684],[-5.0578025,50.1983173],[-5.0589512,50.1933825],[-5.0580224,50.1942505],[-5.0501907,50.2023272],[-5.0438252,50.2033454],[-5.0480211,50.2090339],[-5.0438013,50.2051786],[-5.0422108,50.2048653],[-5.0359886,50.2096524],[-5.0388603,50.2126646],[-5.0283632,50.2099641],[-5.0282518,50.2161143],[-5.0288589,50.2204875],[-5.0289453,50.2211094],[-5.0416054,50.2210181],[-5.0310982,50.2243128],[-5.0395152,50.2283855],[-5.0442841,50.2275445],[-5.0389949,50.2295524],[-5.0327761,50.2279276],[-5.0293074,50.223469],[-5.0216306,50.2249779],[-5.0183721,50.2258955],[-5.0241645,50.2350816],[-5.0159647,50.2406437],[-5.0225493,50.243021],[-5.0312595,50.2381926],[-5.0298528,50.241708],[-5.0354003,50.2460744],[-5.0465903,50.2477033],[-5.0467733,50.2477299],[-5.0567749,50.2485227],[-5.0678271,50.2560107],[-5.0763737,50.2561435],[-5.1049434,50.2520096],[-5.1400252,50.2600631],[-5.1428081,50.263501],[-5.1264126,50.2645389],[-5.1352772,50.2690142],[-5.1390516,50.2758943],[-5.1287367,50.2784077],[-5.1273621,50.2728584],[-5.0971807,50.2749717],[-5.0775756,50.2720191],[-5.0666261,50.2801393],[-5.0645008,50.2755077],[-5.0560434,50.2752007],[-5.058738,50.2827438],[-5.0516075,50.292196]]],"type":"Polygon"},"id":"E02003911","properties":{"code":"E02003911","geography":"MSOA","name":"Cornwall 047"},"type":"Feature"},{"geometry":{"coordinates":[[[-4.9052122,50.3052309],[-4.9260261,50.3107641],[-4.9281149,50.3138941],[-4.9527834,50.3172483],[-4.9568924,50.3167228],[-4.9571166,50.3129804],[-4.9628138,50.3133992],[-4.9656771,50.3086242],[-4.9869147,50.3069313],[-4.991529,50.3112941],[-4.9977033,50.3061471],[-4.9952966,50.3010186],[-5.0026548,50.2993074],[-5.0003634,50.2939161],[-5.0049333,50.2921662],[-5.0104865,50.29156],[-5.0092238,50.2961607],[-5.0312859,50.3000567],[-5.0516075,50.292196],[-5.058738,50.2827438],[-5.0560434,50.2752007],[-5.0541309,50.2719235],[-5.0484558,50.2716976],[-5.0431882,50.2781669],[-5.0308639,50.2739832],[-5.0264332,50.2650996],[-5.0300275,50.264529],[-5.0238882,50.2601283],[-5.034124,50.2493643],[-5.0340726,50.2493109],[-5.0279685,50.2429616],[-5.0209963,50.2494033],[-5.0114661,50.2514033],[-5.01539,50.2557084],[-5.0094054,50.2648467],[-5.0076988,50.2671136],[-5.0028897,50.2735001],[-4.9977707,50.2763787],[-4.9963408,50.2771827],[-4.991509,50.2798992],[-5.0051551,50.2669578],[-5.0057648,50.2663794],[-5.0058118,50.2661958],[-5.009601,50.2514112],[-5.009642,50.2512511],[-5.0097155,50.2509642],[-5.0102109,50.2490304],[-5.0216723,50.2451757],[-5.0140915,50.241748],[-5.0130429,50.24146],[-5.0131265,50.2413157],[-5.0120651,50.2408403],[-5.0162771,50.2343521],[-5.0152003,50.2296017],[-5.0146465,50.2278843],[-5.0071998,50.2285758],[-5.0014932,50.2249273],[-4.9917755,50.2263764],[-4.9847731,50.2286931],[-4.9841259,50.2328801],[-4.9748625,50.2344043],[-4.9786593,50.2379861],[-4.9722461,50.235835],[-4.9672724,50.240299],[-4.9648081,50.2380195],[-4.9670499,50.2347526],[-4.9656506,50.2323191],[-4.9826673,50.2323392],[-4.981745,50.2295167],[-4.9708284,50.2282385],[-4.9718642,50.225865],[-4.9791234,50.2270994],[-4.9796875,50.2217604],[-4.9797318,50.221341],[-4.9799099,50.2217547],[-4.982039,50.2267007],[-4.9927426,50.224645],[-4.9921426,50.221557],[-4.994449,50.2247557],[-5.0061499,50.2221423],[-5.0089696,50.2267674],[-5.0118962,50.2259429],[-5.0241875,50.2207914],[-5.0242011,50.2206091],[-5.0243082,50.2191738],[-5.0230146,50.211613],[-5.0249987,50.2099119],[-5.0250341,50.2094368],[-5.0264298,50.2086849],[-5.0294962,50.2060555],[-5.0266954,50.2040128],[-5.0317714,50.2054636],[-5.0348611,50.2033741],[-5.0256479,50.1822065],[-5.0248686,50.1824079],[-5.0165941,50.1856195],[-5.0143369,50.1904621],[-5.0139274,50.1836504],[-5.0182855,50.1821128],[-5.0274324,50.1579036],[-5.0237546,50.1547684],[-5.013736,50.1591419],[-5.0049095,50.1571819],[-5.0047933,50.1574554],[-5.0059727,50.161505],[-5.0005702,50.1652809],[-5.0058951,50.1708194],[-4.9965977,50.1736371],[-4.9964361,50.1752614],[-4.9885343,50.1785102],[-5.0014985,50.1675796],[-4.9938013,50.1680491],[-4.9970973,50.1630686],[-4.9946741,50.1621337],[-4.9987759,50.1616965],[-5.0020686,50.1550484],[-5.0039095,50.1507289],[-5.0041374,50.1508708],[-5.0043602,50.1504208],[-5.0093901,50.1540713],[-5.0145352,50.1511323],[-5.0174045,50.1493363],[-5.0149311,50.1405112],[-5.0093151,50.139544],[-4.9988861,50.14648],[-4.9959429,50.1485784],[-4.981892,50.1518253],[-4.9838153,50.1578209],[-4.9724661,50.1646737],[-4.9735793,50.1856627],[-4.9675266,50.1858842],[-4.9686063,50.1921311],[-4.9575492,50.2022393],[-4.9532278,50.2031165],[-4.947514,50.2053029],[-4.9416858,50.2054587],[-4.9335817,50.2071024],[-4.922859,50.2018982],[-4.9217535,50.1956624],[-4.9187309,50.1962368],[-4.910889,50.2002667],[-4.9106582,50.2052938],[-4.903746,50.2062773],[-4.9028161,50.2122421],[-4.9012842,50.2124267],[-4.9008227,50.2138564],[-4.8962911,50.2130282],[-4.8958357,50.213083],[-4.8829491,50.2240834],[-4.8815272,50.2242382],[-4.8759576,50.2248442],[-4.8736454,50.23121],[-4.8632952,50.2357994],[-4.8669239,50.2409298],[-4.8643386,50.244666],[-4.8774079,50.2545563],[-4.8741976,50.2609857],[-4.8818687,50.2706906],[-4.8680259,50.2781715],[-4.8706737,50.2885449],[-4.8731863,50.2920764],[-4.9015127,50.2859003],[-4.9126555,50.3005763],[-4.903179,50.2994337],[-4.9052122,50.3052309]]],"type":"Polygon"},"id":"E02003912","properties":{"code":"E02003912","geography":"MSOA","name":"Cornwall 048"},"type":"Feature"},{"geometry":{"coordinates":[[[-5.0905216,50.2086918],[-5.0977116,50.2101338],[-5.1101628,50.2271394],[-5.1525647,50.2384738],[-5.1591918,50.2433871],[-5.1850572,50.2489109],[-5.186224,50.2446553],[-5.1772718,50.2401769],[-5.1795831,50.2329043],[-5.1720478,50.2303266],[-5.1756093,50.2294345],[-5.1737303,50.2268618],[-5.1857119,50.2223477],[-5.1817492,50.2120688],[-5.1992623,50.2018852],[-5.1875816,50.1972148],[-5.1849448,50.2009709],[-5.1669645,50.200907],[-5.1517937,50.2069183],[-5.146292,50.2035707],[-5.1471685,50.1993198],[-5.1363326,50.1964403],[-5.1243588,50.2001475],[-5.1235731,50.1965946],[-5.1131817,50.1948713],[-5.0987702,50.1867802],[-5.0855505,50.1880788],[-5.0899031,50.1815372],[-5.098924,50.1782957],[-5.0921365,50.1696744],[-5.0914361,50.1705916],[-5.0847085,50.1669573],[-5.0819613,50.1671014],[-5.0746964,50.1674821],[-5.0692615,50.1617455],[-5.0561516,50.1613115],[-5.046352,50.168773],[-5.0448112,50.1749978],[-5.0571575,50.1782315],[-5.065012,50.1777453],[-5.0772915,50.1842571],[-5.0607566,50.1784738],[-5.0564734,50.1805889],[-5.0549063,50.1847991],[-5.0561686,50.1892523],[-5.059386,50.1918322],[-5.0737534,50.1998615],[-5.0760432,50.2050939],[-5.076264,50.2055982],[-5.0775851,50.205815],[-5.0845297,50.2069543],[-5.0874073,50.2074262],[-5.0878506,50.2076063],[-5.0884141,50.2078353],[-5.0891511,50.2081349],[-5.0905216,50.2086918]]],"type":"Polygon"},"id":"E02003913","properties":{"code":"E02003913","geography":"MSOA","name":"Cornwall 056"},"type":"Feature"},{"geometry":{"coordinates":[[[-5.098924,50.1782957],[-5.1034077,50.1804059],[-5.1205824,50.1754798],[-5.1170112,50.1726323],[-5.1266444,50.1633124],[-5.1228699,50.1599993],[-5.1047282,50.1648068],[-5.0938957,50.1612108],[-5.0899967,50.1642644],[-5.084471,50.1624657],[-5.0839399,50.1630436],[-5.0859777,50.1632236],[-5.0863701,50.163682],[-5.0867939,50.164177],[-5.100835,50.1663647],[-5.0971979,50.1674684],[-5.1021641,50.1698015],[-5.0969441,50.1684104],[-5.0937514,50.1675595],[-5.0921365,50.1696744],[-5.098924,50.1782957]]],"type":"Polygon"},"id":"E02003914","properties":{"code":"E02003914","geography":"MSOA","name":"Cornwall 060"},"type":"Feature"},{"geometry":{"coordinates":[[[-5.0702212,50.1565443],[-5.0712664,50.1578083],[-5.0804124,50.1647759],[-5.0808002,50.1650713],[-5.0813543,50.164603],[-5.0817775,50.1642453],[-5.0832693,50.1629843],[-5.0837924,50.1630305],[-5.0839399,50.1630436],[-5.084471,50.1624657],[-5.0899967,50.1642644],[-5.0938957,50.1612108],[-5.095554,50.160568],[-5.0876614,50.1555187],[-5.0835356,50.156464],[-5.0846124,50.1591249],[-5.0780688,50.1505976],[-5.0702212,50.1565443]]],"type":"Polygon"},"id":"E02003915","properties":{"code":"E02003915","geography":"MSOA","name":"Cornwall 062"},"type":"Feature"},{"geometry":{"coordinates":[[[-5.0762822,50.1394905],[-5.0550129,50.1483344],[-5.0456153,50.1452492],[-5.0420312,50.1443501],[-5.0457909,50.1503788],[-5.0492187,50.1557916],[-5.0504134,50.1547668],[-5.0521887,50.1531672],[-5.0558804,50.1536497],[-5.0544314,50.1569413],[-5.0588701,50.1566661],[-5.0565282,50.15384],[-5.0589908,50.1522825],[-5.0590122,50.1515071],[-5.0598576,50.1517343],[-5.0604962,50.1513304],[-5.064696,50.1530342],[-5.0668189,50.1536045],[-5.0670125,50.1536565],[-5.0687448,50.1555405],[-5.0693704,50.1560459],[-5.0700589,50.1566022],[-5.0702212,50.1565443],[-5.0780688,50.1505976],[-5.0827757,50.1499203],[-5.074747,50.1465051],[-5.0780707,50.1450271],[-5.0762822,50.1394905]]],"type":"Polygon"},"id":"E02003916","properties":{"code":"E02003916","geography":"MSOA","name":"Cornwall 063"},"type":"Feature"},{"geometry":{"coordinates":[[[-5.0780688,50.1505976],[-5.0846124,50.1591249],[-5.0835356,50.156464],[-5.0876614,50.1555187],[-5.095554,50.160568],[-5.1011118,50.1568199],[-5.0909791,50.1411656],[-5.0966167,50.1282906],[-5.094135,50.1242052],[-5.0913138,50.1245749],[-5.0933433,50.1261828],[-5.0796806,50.1316326],[-5.0728985,50.1343368],[-5.0730073,50.1344982],[-5.0767249,50.1393064],[-5.0763903,50.1394455],[-5.0762822,50.1394905],[-5.0780707,50.1450271],[-5.074747,50.1465051],[-5.0827757,50.1499203],[-5.0780688,50.1505976]]],"type":"Polygon"},"id":"E02003917","properties":{"code":"E02003917","geography":"MSOA","name":"Cornwall 064"},"type":"Feature"},{"geometry":{"coordinates":[[[-5.2306992,50.2675767],[-5.2409755,50.2799566],[-5.245593,50.2771029],[-5.2512219,50.2817407],[-5.2610015,50.2799476],[-5.2616797,50.2797501],[-5.2618819,50.279415],[-5.2634581,50.2748929],[-5.2713896,50.2743817],[-5.2789346,50.2734066],[-5.2852321,50.2694099],[-5.287847,50.2676365],[-5.285208,50.2650153],[-5.2887287,50.2645765],[-5.2918467,50.2639876],[-5.2893182,50.2611404],[-5.2926778,50.2637035],[-5.2950929,50.261018],[-5.2997693,50.2624909],[-5.3019702,50.262075],[-5.3080269,50.2576024],[-5.3097669,50.2558911],[-5.3095472,50.2559001],[-5.3097658,50.2557418],[-5.3103446,50.2553229],[-5.3154618,50.2502891],[-5.3174975,50.2501443],[-5.3221019,50.2468101],[-5.3306,50.2421442],[-5.3253943,50.2329757],[-5.3163728,50.2294752],[-5.3059001,50.2284876],[-5.2963569,50.231231],[-5.2853029,50.2281125],[-5.2616607,50.2348732],[-5.2639486,50.2384252],[-5.2534998,50.2452974],[-5.26168,50.2581292],[-5.2306992,50.2675767]]],"type":"Polygon"},"id":"E02003918","properties":{"code":"E02003918","geography":"MSOA","name":"Cornwall 045"},"type":"Feature"},{"geometry":{"coordinates":[[[-5.19647,50.2551688],[-5.2017235,50.2592287],[-5.2102342,50.2595623],[-5.2306992,50.2675767],[-5.26168,50.2581292],[-5.2534998,50.2452974],[-5.2527307,50.2348943],[-5.2435598,50.2306898],[-5.2231042,50.2347213],[-5.2095765,50.2500978],[-5.2023022,50.2513964],[-5.19647,50.2551688]]],"type":"Polygon"},"id":"E02003919","properties":{"code":"E02003919","geography":"MSOA","name":"Cornwall 046"},"type":"Feature"},{"geometry":{"coordinates":[[[-5.2279215,50.2094993],[-5.2153617,50.2206936],[-5.2199753,50.2237394],[-5.2107766,50.2251774],[-5.2165604,50.2307314],[-5.2149424,50.2348406],[-5.2007872,50.2370075],[-5.1975247,50.2466602],[-5.2023022,50.2513964],[-5.2095765,50.2500978],[-5.2231042,50.2347213],[-5.2435598,50.2306898],[-5.2279215,50.2094993]]],"type":"Polygon"},"id":"E02003920","properties":{"code":"E02003920","geography":"MSOA","name":"Cornwall 049"},"type":"Feature"},{"geometry":{"coordinates":[[[-5.1850572,50.2489109],[-5.19647,50.2551688],[-5.2023022,50.2513964],[-5.1975247,50.2466602],[-5.2007872,50.2370075],[-5.2149424,50.2348406],[-5.2165604,50.2307314],[-5.2107766,50.2251774],[-5.2199753,50.2237394],[-5.2153617,50.2206936],[-5.2279215,50.2094993],[-5.2281479,50.20538],[-5.1992623,50.2018852],[-5.1817492,50.2120688],[-5.1857119,50.2223477],[-5.1737303,50.2268618],[-5.1756093,50.2294345],[-5.1720478,50.2303266],[-5.1795831,50.2329043],[-5.1772718,50.2401769],[-5.186224,50.2446553],[-5.1850572,50.2489109]]],"type":"Polygon"},"id":"E02003921","properties":{"code":"E02003921","geography":"MSOA","name":"Cornwall 050"},"type":"Feature"},{"geometry":{"coordinates":[[[-5.2435598,50.2306898],[-5.2527307,50.2348943],[-5.2534998,50.2452974],[-5.2639486,50.2384252],[-5.2616607,50.2348732],[-5.2853029,50.2281125],[-5.2820976,50.225059],[-5.2770364,50.2259692],[-5.28037,50.2219399],[-5.2776547,50.2172653],[-5.2625179,50.2017155],[-5.2551208,50.1880693],[-5.2281479,50.20538],[-5.2279215,50.2094993],[-5.2435598,50.2306898]]],"type":"Polygon"},"id":"E02003922","properties":{"code":"E02003922","geography":"MSOA","name":"Cornwall 051"},"type":"Feature"},{"geometry":{"coordinates":[[[-5.2853029,50.2281125],[-5.2963569,50.231231],[-5.3028809,50.2196475],[-5.2998428,50.2139872],[-5.2947458,50.212769],[-5.2776547,50.2172653],[-5.28037,50.2219399],[-5.2770364,50.2259692],[-5.2820976,50.225059],[-5.2853029,50.2281125]]],"type":"Polygon"},"id":"E02003923","properties":{"code":"E02003923","geography":"MSOA","name":"Cornwall 052"},"type":"Feature"},{"geometry":{"coordinates":[[[-5.2963569,50.231231],[-5.3059001,50.2284876],[-5.3163728,50.2294752],[-5.3253943,50.2329757],[-5.3306,50.2421442],[-5.3407682,50.2382603],[-5.3419661,50.238419],[-5.3420125,50.2384011],[-5.3558922,50.2404631],[-5.3619406,50.2371308],[-5.3669998,50.2371125],[-5.3731814,50.2371365],[-5.3732137,50.2371832],[-5.3821197,50.2344449],[-5.385113,50.2287704],[-5.3605425,50.2244012],[-5.3456285,50.2100908],[-5.3367721,50.2079078],[-5.3259958,50.2098697],[-5.3171408,50.1958898],[-5.3067209,50.1916423],[-5.3041647,50.2080991],[-5.2947458,50.212769],[-5.2998428,50.2139872],[-5.3028809,50.2196475],[-5.2963569,50.231231]]],"type":"Polygon"},"id":"E02003924","properties":{"code":"E02003924","geography":"MSOA","name":"Cornwall 053"},"type":"Feature"},{"geometry":{"coordinates":[[[-5.2551208,50.1880693],[-5.2625179,50.2017155],[-5.2776547,50.2172653],[-5.2947458,50.212769],[-5.3041647,50.2080991],[-5.3067209,50.1916423],[-5.2752544,50.1787171],[-5.2551208,50.1880693]]],"type":"Polygon"},"id":"E02003925","properties":{"code":"E02003925","geography":"MSOA","name":"Cornwall 055"},"type":"Feature"},{"geometry":{"coordinates":[[[-5.1992623,50.2018852],[-5.2281479,50.20538],[-5.2551208,50.1880693],[-5.2752544,50.1787171],[-5.3067209,50.1916423],[-5.3171408,50.1958898],[-5.3259799,50.1849821],[-5.3213942,50.1778892],[-5.3309869,50.1786743],[-5.3279552,50.1705045],[-5.3520143,50.1633094],[-5.3755596,50.1631962],[-5.3816254,50.1586204],[-5.3744044,50.1530649],[-5.3926123,50.145617],[-5.382035,50.1424915],[-5.4018932,50.1341037],[-5.3969739,50.1238822],[-5.3855904,50.1244562],[-5.380181,50.1281294],[-5.3815674,50.1312641],[-5.3746449,50.1319749],[-5.3642186,50.1278516],[-5.3644274,50.1219349],[-5.3577195,50.1192562],[-5.3518805,50.1282788],[-5.3431766,50.1321126],[-5.3397793,50.1313553],[-5.3409152,50.12657],[-5.3320532,50.1252266],[-5.3236336,50.1323983],[-5.3258075,50.1357643],[-5.3163538,50.1313483],[-5.3081689,50.1416887],[-5.2907677,50.1485368],[-5.2856867,50.1460629],[-5.2768513,50.1492321],[-5.2532125,50.1354945],[-5.2695699,50.1205697],[-5.2542063,50.1177283],[-5.2476759,50.1194808],[-5.2398966,50.1114797],[-5.2340917,50.1153757],[-5.2352297,50.1203316],[-5.2126501,50.1204212],[-5.2081637,50.1305984],[-5.213704,50.1377338],[-5.2082838,50.1455422],[-5.1969342,50.1499838],[-5.1924244,50.150672],[-5.1887656,50.1476375],[-5.1834684,50.1500437],[-5.1783533,50.1549698],[-5.1804452,50.162623],[-5.1714161,50.1545578],[-5.1691966,50.1614122],[-5.1514564,50.1666633],[-5.1590405,50.1727156],[-5.1500973,50.1833013],[-5.1471685,50.1993198],[-5.146292,50.2035707],[-5.1517937,50.2069183],[-5.1669645,50.200907],[-5.1849448,50.2009709],[-5.1875816,50.1972148],[-5.1992623,50.2018852]]],"type":"Polygon"},"id":"E02003926","properties":{"code":"E02003926","geography":"MSOA","name":"Cornwall 059"},"type":"Feature"},{"geometry":{"coordinates":[[[[-5.178704,50.0894551],[-5.1786961,50.0896841],[-5.1808337,50.0890701],[-5.178704,50.0894551]]],[[[-5.1627575,50.095958],[-5.1633885,50.0963465],[-5.1632921,50.0959111],[-5.1627575,50.095958]]],[[[-5.1243588,50.2001475],[-5.1363326,50.1964403],[-5.1471685,50.1993198],[-5.1500973,50.1833013],[-5.1590405,50.1727156],[-5.1514564,50.1666633],[-5.1691966,50.1614122],[-5.1714161,50.1545578],[-5.1804452,50.162623],[-5.1783533,50.1549698],[-5.1834684,50.1500437],[-5.1887656,50.1476375],[-5.1924244,50.150672],[-5.1969342,50.1499838],[-5.2082838,50.1455422],[-5.213704,50.1377338],[-5.2081637,50.1305984],[-5.2126501,50.1204212],[-5.2352297,50.1203316],[-5.2340917,50.1153757],[-5.2398966,50.1114797],[-5.2460664,50.1035254],[-5.2412234,50.0956694],[-5.2364072,50.092559],[-5.2372311,50.0836687],[-5.2118309,50.0854984],[-5.2020816,50.0911171],[-5.1879648,50.0877807],[-5.1859808,50.0881395],[-5.1859338,50.0881693],[-5.1909622,50.0896886],[-5.1869659,50.0894994],[-5.1613273,50.0934707],[-5.1593795,50.0939844],[-5.1615749,50.095278],[-5.1654705,50.0962994],[-5.1652637,50.0974513],[-5.1692313,50.0997884],[-5.164958,50.1014749],[-5.1701134,50.1057953],[-5.1658008,50.1024415],[-5.1628326,50.1040077],[-5.1636026,50.1127786],[-5.1592269,50.1081092],[-5.163102,50.096764],[-5.1452545,50.0987034],[-5.1419778,50.1039481],[-5.1449278,50.1072312],[-5.1445064,50.1071414],[-5.1409664,50.1062691],[-5.1377791,50.1117276],[-5.1301547,50.1102639],[-5.1393838,50.1059582],[-5.140328,50.1001748],[-5.1400821,50.1001318],[-5.1246232,50.0991239],[-5.1240433,50.0991322],[-5.1211099,50.1002529],[-5.1154338,50.1034652],[-5.1138622,50.1030213],[-5.1112592,50.1040154],[-5.1002225,50.0999797],[-5.097527,50.1007526],[-5.0814535,50.1098992],[-5.0912357,50.1143924],[-5.0913138,50.1245749],[-5.094135,50.1242052],[-5.0966167,50.1282906],[-5.0909791,50.1411656],[-5.1011118,50.1568199],[-5.095554,50.160568],[-5.0938957,50.1612108],[-5.1047282,50.1648068],[-5.1228699,50.1599993],[-5.1266444,50.1633124],[-5.1170112,50.1726323],[-5.1205824,50.1754798],[-5.1034077,50.1804059],[-5.098924,50.1782957],[-5.0899031,50.1815372],[-5.0855505,50.1880788],[-5.0987702,50.1867802],[-5.1131817,50.1948713],[-5.1235731,50.1965946],[-5.1243588,50.2001475]]]],"type":"MultiPolygon"},"id":"E02003927","properties":{"code":"E02003927","geography":"MSOA","name":"Cornwall 066"},"type":"Feature"},{"geometry":{"coordinates":[[[-5.2695699,50.1205697],[-5.2729352,50.1222556],[-5.2812163,50.1195094],[-5.2843548,50.1162026],[-5.2783863,50.1143233],[-5.2805398,50.1112511],[-5.2975471,50.103829],[-5.294797,50.0930092],[-5.2821942,50.0885454],[-5.2888509,50.0830886],[-5.2911635,50.0715869],[-5.2839983,50.07128],[-5.2460668,50.0865342],[-5.2452081,50.0941912],[-5.2412234,50.0956694],[-5.2460664,50.1035254],[-5.2398966,50.1114797],[-5.2476759,50.1194808],[-5.2542063,50.1177283],[-5.2695699,50.1205697]]],"type":"Polygon"},"id":"E02003928","properties":{"code":"E02003928","geography":"MSOA","name":"Cornwall 071"},"type":"Feature"},{"geometry":{"coordinates":[[[-5.2695699,50.1205697],[-5.2532125,50.1354945],[-5.2768513,50.1492321],[-5.2856867,50.1460629],[-5.2907677,50.1485368],[-5.3081689,50.1416887],[-5.3163538,50.1313483],[-5.3258075,50.1357643],[-5.3236336,50.1323983],[-5.3320532,50.1252266],[-5.3409152,50.12657],[-5.3397793,50.1313553],[-5.3431766,50.1321126],[-5.3518805,50.1282788],[-5.3577195,50.1192562],[-5.3644274,50.1219349],[-5.3642186,50.1278516],[-5.3746449,50.1319749],[-5.3815674,50.1312641],[-5.380181,50.1281294],[-5.3855904,50.1244562],[-5.3969739,50.1238822],[-5.4040558,50.1157001],[-5.4149079,50.1157508],[-5.4200757,50.1095845],[-5.4147628,50.1023291],[-5.4088779,50.1045325],[-5.39749,50.1007733],[-5.3952272,50.1018331],[-5.3944983,50.1025126],[-5.3939339,50.1024387],[-5.3916604,50.1035034],[-5.3748993,50.0976562],[-5.3736681,50.0956756],[-5.3703129,50.0934576],[-5.3662136,50.0936804],[-5.3631708,50.0890827],[-5.3566959,50.0903806],[-5.3462081,50.0925456],[-5.3348418,50.0914183],[-5.3285021,50.087633],[-5.3216259,50.0823446],[-5.3206321,50.0826825],[-5.3162325,50.0852065],[-5.3170241,50.0839093],[-5.3162737,50.0841644],[-5.318296,50.08164],[-5.2969952,50.0703807],[-5.2911635,50.0715869],[-5.2888509,50.0830886],[-5.2821942,50.0885454],[-5.294797,50.0930092],[-5.2975471,50.103829],[-5.2805398,50.1112511],[-5.2783863,50.1143233],[-5.2843548,50.1162026],[-5.2812163,50.1195094],[-5.2729352,50.1222556],[-5.2695699,50.1205697]]],"type":"Polygon"},"id":"E02003929","properties":{"code":"E02003929","geography":"MSOA","name":"Cornwall 072"},"type":"Feature"},{"geometry":{"coordinates":[[[-5.1859808,50.0881395],[-5.1879648,50.0877807],[-5.2020816,50.0911171],[-5.2118309,50.0854984],[-5.2372311,50.0836687],[-5.2364072,50.092559],[-5.2412234,50.0956694],[-5.2452081,50.0941912],[-5.2460668,50.0865342],[-5.2839983,50.07128],[-5.2911635,50.0715869],[-5.2969952,50.0703807],[-5.2969363,50.0703495],[-5.2886134,50.0625397],[-5.2793257,50.0545244],[-5.278566,50.053089],[-5.2755849,50.0502841],[-5.2764967,50.0491783],[-5.2764739,50.0491353],[-5.2801745,50.0430778],[-5.2715359,50.0411052],[-5.2698565,50.0389707],[-5.2689596,50.0382512],[-5.2673804,50.0378466],[-5.2637941,50.0341959],[-5.263515,50.0339118],[-5.2618502,50.0336741],[-5.2614637,50.033619],[-5.2657988,50.0298335],[-5.2661841,50.0293523],[-5.2649835,50.0284549],[-5.2564169,50.0232037],[-5.2569821,50.022473],[-5.2558708,50.021642],[-5.2612827,50.01671],[-5.2610081,50.0163968],[-5.2586107,50.0142447],[-5.2588788,50.0139684],[-5.2590419,50.0137811],[-5.258421,50.013031],[-5.2681417,50.0059138],[-5.2668602,50.0006565],[-5.2668029,50.000481],[-5.2564922,49.9972205],[-5.2552653,49.9974454],[-5.2548034,49.9966863],[-5.2544878,49.9965865],[-5.2512979,49.9914033],[-5.2550003,49.9882478],[-5.2545609,49.9880798],[-5.2450447,49.9854134],[-5.2453064,49.9845399],[-5.2438116,49.983968],[-5.2460582,49.9820307],[-5.2473435,49.9777401],[-5.2459363,49.9760044],[-5.244832,49.9756254],[-5.2370412,49.9766238],[-5.2188272,49.970993],[-5.2156654,49.9595386],[-5.209777,49.959337],[-5.2079527,49.959403],[-5.2079048,49.9593266],[-5.199947,49.959],[-5.1987262,49.9589754],[-5.1969107,49.9639565],[-5.1855645,49.9631192],[-5.1832226,49.9671275],[-5.1887649,49.9736602],[-5.1861053,49.9793659],[-5.1851569,49.9797264],[-5.1849136,49.9802263],[-5.182269,49.9821692],[-5.1800239,49.9853986],[-5.179809,49.9868446],[-5.1703126,49.9910002],[-5.1717664,49.9976725],[-5.1665807,50.0037481],[-5.156678,50.0076491],[-5.1564686,50.0076554],[-5.1378646,50.0082112],[-5.1324745,50.0052434],[-5.1331372,50.0079837],[-5.1314794,50.0081821],[-5.1223435,50.0092645],[-5.1125655,50.0028812],[-5.1115173,50.0030062],[-5.1061192,50.004838],[-5.1035058,50.0039612],[-5.1013296,50.0042205],[-5.0977425,50.0115063],[-5.0971765,50.0127321],[-5.0967921,50.0137141],[-5.096714,50.0137338],[-5.0957086,50.0156365],[-5.0910972,50.0157236],[-5.0969315,50.0260716],[-5.0891777,50.0313001],[-5.073439,50.0342145],[-5.068888,50.0350567],[-5.06797,50.0395432],[-5.0661895,50.0482425],[-5.0577774,50.0528043],[-5.0641502,50.0555912],[-5.0615701,50.0612488],[-5.0668015,50.0667955],[-5.0676525,50.0676432],[-5.0756255,50.0684044],[-5.0795055,50.0687747],[-5.0765567,50.0829426],[-5.0760283,50.0854804],[-5.0766995,50.0851726],[-5.0783503,50.0844157],[-5.0809776,50.0830769],[-5.0879129,50.0845285],[-5.0941962,50.0858431],[-5.0986147,50.085608],[-5.0997415,50.087003],[-5.1010228,50.087271],[-5.1178418,50.0823211],[-5.1017396,50.089168],[-5.0929436,50.0881551],[-5.1021826,50.0930912],[-5.1092646,50.0949056],[-5.1249789,50.0962843],[-5.1355551,50.0910978],[-5.1353823,50.0915115],[-5.1355992,50.0914001],[-5.1349645,50.0925117],[-5.1337508,50.095417],[-5.1412806,50.0964305],[-5.1508856,50.0941134],[-5.1474723,50.0853513],[-5.1546619,50.0932065],[-5.1773433,50.0893568],[-5.1788259,50.085922],[-5.1787108,50.0892576],[-5.178704,50.0894551],[-5.1808337,50.0890701],[-5.1841379,50.0881208],[-5.1847582,50.0879426],[-5.1928546,50.0832003],[-5.1920748,50.0800515],[-5.1944594,50.0827558],[-5.1869323,50.0875354],[-5.1859808,50.0881395]]],"type":"Polygon"},"id":"E02003930","properties":{"code":"E02003930","geography":"MSOA","name":"Cornwall 073"},"type":"Feature"},{"geometry":{"coordinates":[[[-4.5568711,50.8091447],[-4.5365533,50.8124142],[-4.5364829,50.8061952],[-4.5304127,50.8059458],[-4.515964,50.8159768],[-4.5152749,50.8207469],[-4.4999516,50.8209083],[-4.5010976,50.8285917],[-4.491391,50.8306146],[-4.497643,50.8319824],[-4.4980506,50.8372799],[-4.4920007,50.8412301],[-4.4946958,50.845469],[-4.5091239,50.8420386],[-4.5073778,50.8470858],[-4.5173199,50.855291],[-4.5335524,50.8557536],[-4.5553829,50.8495019],[-4.5552979,50.8486728],[-4.5545333,50.8358127],[-4.5543665,50.8330063],[-4.5527886,50.8308544],[-4.5565874,50.8314394],[-4.5573712,50.8304006],[-4.558632,50.8287295],[-4.5568768,50.8092079],[-4.5568711,50.8091447]]],"type":"Polygon"},"id":"E02003931","properties":{"code":"E02003931","geography":"MSOA","name":"Cornwall 001"},"type":"Feature"},{"geometry":{"coordinates":[[[-4.3931858,50.7779921],[-4.4143882,50.7744163],[-4.4088143,50.7624292],[-4.4221095,50.7642812],[-4.4457689,50.7764605],[-4.4508728,50.7857116],[-4.4562482,50.7837041],[-4.4730729,50.7849831],[-4.4776667,50.7900265],[-4.4934706,50.7929184],[-4.4899222,50.7963231],[-4.4744125,50.7973231],[-4.4745754,50.8017955],[-4.463381,50.8017357],[-4.4468461,50.8082764],[-4.4385167,50.8231582],[-4.444114,50.8278386],[-4.439661,50.8434655],[-4.4422398,50.8469624],[-4.4363525,50.852714],[-4.4336269,50.8655182],[-4.4208899,50.8662021],[-4.4461151,50.8911052],[-4.4499709,50.9058475],[-4.4584962,50.9076261],[-4.4626542,50.9135021],[-4.4560799,50.9289336],[-4.4712197,50.9312716],[-4.5171472,50.926835],[-4.5458664,50.9286468],[-4.5459251,50.928357],[-4.5550528,50.9259333],[-4.5519257,50.9242073],[-4.5564057,50.9209047],[-4.5579613,50.919132],[-4.5593613,50.9187256],[-4.5621025,50.9167043],[-4.564424,50.9149922],[-4.5634819,50.9087511],[-4.5698132,50.9037055],[-4.5641017,50.9010312],[-4.5655431,50.8949123],[-4.561304,50.8919132],[-4.5680798,50.8855483],[-4.5599291,50.8771122],[-4.558012,50.8751275],[-4.5553829,50.8495019],[-4.5335524,50.8557536],[-4.5173199,50.855291],[-4.5073778,50.8470858],[-4.5091239,50.8420386],[-4.4946958,50.845469],[-4.4920007,50.8412301],[-4.4980506,50.8372799],[-4.497643,50.8319824],[-4.491391,50.8306146],[-4.5010976,50.8285917],[-4.4999516,50.8209083],[-4.5152749,50.8207469],[-4.515964,50.8159768],[-4.5304127,50.8059458],[-4.5364829,50.8061952],[-4.5365533,50.8124142],[-4.5568711,50.8091447],[-4.5568573,50.8089912],[-4.5568208,50.8085841],[-4.5607432,50.8004401],[-4.5569085,50.7986264],[-4.5584669,50.788264],[-4.5669456,50.7779689],[-4.5764286,50.7718755],[-4.5792516,50.7717834],[-4.5868493,50.7692314],[-4.5896478,50.7667677],[-4.580359,50.7605652],[-4.5822024,50.7484836],[-4.5780063,50.7455768],[-4.5668838,50.7454761],[-4.5621639,50.7404058],[-4.5797914,50.7299194],[-4.5828887,50.7219664],[-4.5705009,50.7220468],[-4.5598838,50.7141972],[-4.5603433,50.7093437],[-4.5295506,50.6973441],[-4.5127123,50.698822],[-4.5224967,50.7079719],[-4.5207295,50.7123949],[-4.5084229,50.7120615],[-4.4990463,50.7187164],[-4.4868044,50.7212423],[-4.4785075,50.7212463],[-4.4785806,50.7192769],[-4.4491346,50.724482],[-4.4431278,50.7239875],[-4.4406628,50.7167188],[-4.4224254,50.7026033],[-4.4243091,50.6988414],[-4.4173371,50.6927346],[-4.4051971,50.6938176],[-4.3956103,50.6892581],[-4.389924,50.692038],[-4.3833013,50.6901728],[-4.3839044,50.6922838],[-4.3665403,50.6991458],[-4.3687247,50.7093073],[-4.3615726,50.7189532],[-4.3693151,50.7234808],[-4.3740178,50.7379261],[-4.3849032,50.7477252],[-4.3807877,50.7564946],[-4.387747,50.7577216],[-4.3873563,50.7650654],[-4.3801792,50.7694861],[-4.3931858,50.7779921]]],"type":"Polygon"},"id":"E02003932","properties":{"code":"E02003932","geography":"MSOA","name":"Cornwall 002"},"type":"Feature"},{"geometry":{"coordinates":[[[-4.5828887,50.7219664],[-4.5797914,50.7299194],[-4.5621639,50.7404058],[-4.5668838,50.7454761],[-4.5780063,50.7455768],[-4.5822024,50.7484836],[-4.580359,50.7605652],[-4.5896478,50.7667677],[-4.5902231,50.7662612],[-4.6104285,50.7622028],[-4.6179538,50.7573352],[-4.6194423,50.7549343],[-4.6199011,50.7513317],[-4.6331307,50.7499416],[-4.6342168,50.7464856],[-4.6397257,50.7457269],[-4.6345392,50.7409683],[-4.6415082,50.7381337],[-4.6538604,50.7398517],[-4.6493128,50.7289008],[-4.6542853,50.7247917],[-4.6555907,50.7204415],[-4.6551971,50.7157825],[-4.6551637,50.7153873],[-4.6611499,50.7132344],[-4.6678997,50.7080805],[-4.668125,50.7067037],[-4.6810441,50.7044373],[-4.6853127,50.6995762],[-4.6802498,50.6960249],[-4.6984474,50.6943985],[-4.7011941,50.6920033],[-4.7013959,50.6918015],[-4.695217,50.6904557],[-4.7052362,50.6905885],[-4.7024582,50.6876324],[-4.7053974,50.6857841],[-4.7068475,50.6856648],[-4.7158585,50.6838413],[-4.7197058,50.6846055],[-4.724066,50.684246],[-4.7272428,50.6806523],[-4.727908,50.6787848],[-4.7297484,50.673617],[-4.7298011,50.6736098],[-4.7333559,50.6726831],[-4.7335058,50.6724803],[-4.7337171,50.6725883],[-4.7382859,50.6713885],[-4.7420208,50.6765756],[-4.7425341,50.6765814],[-4.7446938,50.6757715],[-4.7453919,50.6742792],[-4.7436387,50.6732503],[-4.7464405,50.6710778],[-4.7570148,50.6720152],[-4.7585153,50.6693314],[-4.7586141,50.6688516],[-4.7586916,50.6688646],[-4.7592322,50.668049],[-4.7637178,50.6696464],[-4.7637985,50.6693712],[-4.7605846,50.6672968],[-4.7588946,50.6673608],[-4.7666471,50.6548604],[-4.7586802,50.6528429],[-4.7612951,50.6446235],[-4.7649243,50.6433007],[-4.7687448,50.6365124],[-4.7691181,50.6344922],[-4.7709058,50.6316802],[-4.7725286,50.6272572],[-4.7703941,50.622388],[-4.7914178,50.60225],[-4.7785119,50.5903023],[-4.7710558,50.5944476],[-4.7662273,50.5927565],[-4.7628016,50.5831052],[-4.7532531,50.5862611],[-4.7551102,50.5831031],[-4.7421359,50.572926],[-4.7338063,50.5777265],[-4.7241496,50.5653646],[-4.7031116,50.5678322],[-4.6952747,50.5746081],[-4.6922958,50.5881782],[-4.6964922,50.5868929],[-4.7137533,50.5942137],[-4.7262899,50.5930124],[-4.7281836,50.6091082],[-4.7167739,50.6090423],[-4.7162035,50.6134684],[-4.7092609,50.6132461],[-4.7014515,50.626408],[-4.7027469,50.6339515],[-4.6841442,50.6389764],[-4.6764279,50.6363305],[-4.6750937,50.6405059],[-4.6621738,50.6406023],[-4.6433832,50.6456069],[-4.6428668,50.6499118],[-4.6609832,50.6554996],[-4.6586956,50.6652724],[-4.6630776,50.6667059],[-4.653293,50.6712826],[-4.6416836,50.6685783],[-4.632379,50.6616958],[-4.6249184,50.662658],[-4.6135531,50.6764558],[-4.6201251,50.7012676],[-4.6169998,50.7058775],[-4.6236668,50.7092965],[-4.5905846,50.7127298],[-4.5988106,50.7241648],[-4.5844468,50.7191255],[-4.5828887,50.7219664]]],"type":"Polygon"},"id":"E02003933","properties":{"code":"E02003933","geography":"MSOA","name":"Cornwall 003"},"type":"Feature"},{"geometry":{"coordinates":[[[-4.5828887,50.7219664],[-4.5844468,50.7191255],[-4.5988106,50.7241648],[-4.5905846,50.7127298],[-4.6236668,50.7092965],[-4.6169998,50.7058775],[-4.6201251,50.7012676],[-4.6135531,50.6764558],[-4.6249184,50.662658],[-4.632379,50.6616958],[-4.6416836,50.6685783],[-4.653293,50.6712826],[-4.6630776,50.6667059],[-4.6586956,50.6652724],[-4.6609832,50.6554996],[-4.6428668,50.6499118],[-4.6433832,50.6456069],[-4.6621738,50.6406023],[-4.6750937,50.6405059],[-4.6764279,50.6363305],[-4.6841442,50.6389764],[-4.7027469,50.6339515],[-4.7014515,50.626408],[-4.7092609,50.6132461],[-4.7162035,50.6134684],[-4.7167739,50.6090423],[-4.7281836,50.6091082],[-4.7262899,50.5930124],[-4.7137533,50.5942137],[-4.6964922,50.5868929],[-4.6922958,50.5881782],[-4.6931302,50.591138],[-4.6866623,50.5935307],[-4.6759522,50.5846316],[-4.6713619,50.5887208],[-4.658746,50.5916073],[-4.6495189,50.6002575],[-4.6150963,50.6142698],[-4.6075195,50.6094773],[-4.6090894,50.6027258],[-4.6034057,50.6005128],[-4.6003459,50.6183949],[-4.5914436,50.6281179],[-4.5779066,50.6331073],[-4.5822051,50.6384825],[-4.5724394,50.6386528],[-4.5749514,50.6443708],[-4.5566016,50.6379619],[-4.5570793,50.6483967],[-4.5618758,50.6508017],[-4.5567472,50.6554889],[-4.5213409,50.6464057],[-4.5172481,50.6429089],[-4.5249577,50.6382196],[-4.5295968,50.6256588],[-4.5180071,50.6220244],[-4.4994983,50.6262692],[-4.4821486,50.6232126],[-4.4791421,50.6324185],[-4.4718088,50.6321374],[-4.4659646,50.6379117],[-4.4543942,50.6357393],[-4.4471442,50.6409035],[-4.435902,50.6413371],[-4.4380094,50.6509207],[-4.431119,50.6533599],[-4.425579,50.662084],[-4.415573,50.6650065],[-4.3921589,50.6611329],[-4.375834,50.6618124],[-4.3653403,50.6553153],[-4.3388095,50.657714],[-4.3388187,50.661269],[-4.3447547,50.663416],[-4.3489106,50.6895462],[-4.3665403,50.6991458],[-4.3839044,50.6922838],[-4.3833013,50.6901728],[-4.389924,50.692038],[-4.3956103,50.6892581],[-4.4051971,50.6938176],[-4.4173371,50.6927346],[-4.4243091,50.6988414],[-4.4224254,50.7026033],[-4.4406628,50.7167188],[-4.4431278,50.7239875],[-4.4491346,50.724482],[-4.4785806,50.7192769],[-4.4785075,50.7212463],[-4.4868044,50.7212423],[-4.4990463,50.7187164],[-4.5084229,50.7120615],[-4.5207295,50.7123949],[-4.5224967,50.7079719],[-4.5127123,50.698822],[-4.5295506,50.6973441],[-4.5603433,50.7093437],[-4.5598838,50.7141972],[-4.5705009,50.7220468],[-4.5828887,50.7219664]]],"type":"Polygon"},"id":"E02003934","properties":{"code":"E02003934","geography":"MSOA","name":"Cornwall 004"},"type":"Feature"},{"geometry":{"coordinates":[[[-4.3514342,50.6469687],[-4.3652989,50.6475658],[-4.3630817,50.6513615],[-4.3905201,50.6495386],[-4.3860782,50.6494022],[-4.3863523,50.6449894],[-4.3769475,50.6453607],[-4.3739418,50.6405138],[-4.3694765,50.6405724],[-4.3705629,50.6336039],[-4.3785905,50.6298445],[-4.3771495,50.6247353],[-4.359904,50.6147147],[-4.3453546,50.6123851],[-4.34379,50.6239519],[-4.3386472,50.6252604],[-4.3271409,50.6405576],[-4.3270999,50.6406121],[-4.3272828,50.6405741],[-4.3439666,50.6371105],[-4.3510915,50.6382692],[-4.3517108,50.6439825],[-4.3567291,50.6448323],[-4.3514342,50.6469687]]],"type":"Polygon"},"id":"E02003935","properties":{"code":"E02003935","geography":"MSOA","name":"Cornwall 005"},"type":"Feature"},{"geometry":{"coordinates":[[[-4.3388095,50.657714],[-4.3653403,50.6553153],[-4.375834,50.6618124],[-4.3921589,50.6611329],[-4.415573,50.6650065],[-4.425579,50.662084],[-4.431119,50.6533599],[-4.4380094,50.6509207],[-4.435902,50.6413371],[-4.4471442,50.6409035],[-4.4543942,50.6357393],[-4.4659646,50.6379117],[-4.4718088,50.6321374],[-4.4791421,50.6324185],[-4.4821486,50.6232126],[-4.4994983,50.6262692],[-4.5180071,50.6220244],[-4.5295968,50.6256588],[-4.5249577,50.6382196],[-4.5172481,50.6429089],[-4.5213409,50.6464057],[-4.5567472,50.6554889],[-4.5618758,50.6508017],[-4.5570793,50.6483967],[-4.5566016,50.6379619],[-4.5749514,50.6443708],[-4.5724394,50.6386528],[-4.5822051,50.6384825],[-4.5779066,50.6331073],[-4.5914436,50.6281179],[-4.6003459,50.6183949],[-4.6034057,50.6005128],[-4.5839692,50.5752607],[-4.5878475,50.5712125],[-4.5945286,50.57692],[-4.5996848,50.5753127],[-4.6040927,50.5668806],[-4.6019263,50.5567165],[-4.5863161,50.5491806],[-4.5698715,50.5582734],[-4.5646988,50.5603311],[-4.5582987,50.5569426],[-4.5555172,50.5615091],[-4.5507029,50.5613664],[-4.5343335,50.5426484],[-4.5210689,50.5490644],[-4.5177111,50.5563868],[-4.5050472,50.559389],[-4.4955705,50.5570768],[-4.480138,50.5406997],[-4.4614008,50.5435374],[-4.4451431,50.5417412],[-4.4373027,50.5453596],[-4.422233,50.5418138],[-4.4131237,50.5437293],[-4.4099155,50.5483778],[-4.4149091,50.5496949],[-4.412561,50.5513255],[-4.3966845,50.5523689],[-4.3941307,50.5547663],[-4.4015203,50.5618447],[-4.394312,50.5678387],[-4.399693,50.5694045],[-4.3959317,50.5750171],[-4.3684451,50.5681674],[-4.3508443,50.5692158],[-4.352308,50.5631088],[-4.3638726,50.5560747],[-4.3615593,50.5509769],[-4.3586464,50.5461898],[-4.3478664,50.5426139],[-4.3512034,50.5336537],[-4.3393276,50.5368379],[-4.3360902,50.534442],[-4.3375268,50.5259665],[-4.3243368,50.520045],[-4.3143041,50.5243611],[-4.3049255,50.5204495],[-4.3045052,50.515358],[-4.2878638,50.5138695],[-4.2709884,50.5170054],[-4.2746661,50.5253379],[-4.2687391,50.5352817],[-4.271402,50.5386323],[-4.2600979,50.5444594],[-4.2594315,50.550037],[-4.2794855,50.5691834],[-4.2778281,50.5747924],[-4.2696936,50.5789869],[-4.2711194,50.5822241],[-4.2858396,50.5847403],[-4.2817978,50.5774705],[-4.2861114,50.5750177],[-4.291297,50.5838677],[-4.2983429,50.5837107],[-4.306884,50.5785951],[-4.3115987,50.5860872],[-4.3033984,50.611539],[-4.3074358,50.6202338],[-4.3002934,50.6338476],[-4.3115138,50.6374507],[-4.3255618,50.6377349],[-4.325319,50.6403457],[-4.3271217,50.6407387],[-4.3335144,50.6412986],[-4.3350975,50.6464457],[-4.3388095,50.657714]],[[-4.3272828,50.6405741],[-4.3270999,50.6406121],[-4.3271409,50.6405576],[-4.3386472,50.6252604],[-4.34379,50.6239519],[-4.3453546,50.6123851],[-4.359904,50.6147147],[-4.3771495,50.6247353],[-4.3785905,50.6298445],[-4.3705629,50.6336039],[-4.3694765,50.6405724],[-4.3739418,50.6405138],[-4.3769475,50.6453607],[-4.3863523,50.6449894],[-4.3860782,50.6494022],[-4.3905201,50.6495386],[-4.3630817,50.6513615],[-4.3652989,50.6475658],[-4.3514342,50.6469687],[-4.3567291,50.6448323],[-4.3517108,50.6439825],[-4.3510915,50.6382692],[-4.3439666,50.6371105],[-4.3272828,50.6405741]]],"type":"Polygon"},"id":"E02003936","properties":{"code":"E02003936","geography":"MSOA","name":"Cornwall 006"},"type":"Feature"},{"geometry":{"coordinates":[[[-4.7421359,50.572926],[-4.7551102,50.5831031],[-4.7532531,50.5862611],[-4.7628016,50.5831052],[-4.7662273,50.5927565],[-4.7710558,50.5944476],[-4.7785119,50.5903023],[-4.7914178,50.60225],[-4.7999914,50.5971714],[-4.8067579,50.5967641],[-4.8242527,50.5941334],[-4.8235562,50.5930095],[-4.8271457,50.5939519],[-4.8278495,50.5941367],[-4.8322211,50.5943218],[-4.8324003,50.592156],[-4.8352889,50.5944516],[-4.8395022,50.5946298],[-4.8418083,50.5931149],[-4.8493135,50.5987763],[-4.8600037,50.5931676],[-4.860381,50.5932522],[-4.8607945,50.593042],[-4.869522,50.5952994],[-4.8699619,50.5953979],[-4.8693286,50.590027],[-4.8702481,50.5901853],[-4.8674981,50.5890415],[-4.8729614,50.5906524],[-4.8736082,50.5907638],[-4.8740295,50.590455],[-4.8745262,50.5876646],[-4.8804452,50.585752],[-4.88281,50.5840182],[-4.8851588,50.5822959],[-4.8900497,50.5838387],[-4.896458,50.5858597],[-4.9083231,50.5845474],[-4.9087808,50.5854108],[-4.914812,50.5885712],[-4.9166733,50.5888225],[-4.9185501,50.5945143],[-4.9230981,50.5927057],[-4.9219649,50.5917418],[-4.9342633,50.5876508],[-4.9341259,50.5860331],[-4.9332802,50.5855475],[-4.9254476,50.5829539],[-4.9175573,50.5803404],[-4.9155328,50.5759952],[-4.9234405,50.5730983],[-4.9248278,50.5715428],[-4.9255519,50.5700359],[-4.9269214,50.5691949],[-4.9311022,50.5645058],[-4.9264831,50.561436],[-4.9293032,50.5532433],[-4.9260787,50.5448618],[-4.9141092,50.5429404],[-4.9154221,50.5380465],[-4.9085619,50.5348942],[-4.9067307,50.5340526],[-4.8999625,50.5309416],[-4.8919214,50.5323283],[-4.8901582,50.5362203],[-4.870131,50.5336721],[-4.8675956,50.5372202],[-4.8665296,50.5338158],[-4.8601485,50.5371903],[-4.8527177,50.5316312],[-4.8549751,50.5301726],[-4.855009,50.5299875],[-4.855126,50.5293482],[-4.8552138,50.5288679],[-4.8852407,50.5301833],[-4.8994241,50.5261744],[-4.8997366,50.5262699],[-4.9015459,50.5267417],[-4.8872662,50.5103896],[-4.887374,50.5076245],[-4.8919773,50.5073626],[-4.887751,50.5022468],[-4.8950469,50.4969931],[-4.8962762,50.4903033],[-4.8941899,50.4853998],[-4.8870796,50.4837297],[-4.8866742,50.4778462],[-4.865044,50.4790026],[-4.8415251,50.4743319],[-4.801843,50.467651],[-4.7980797,50.4783069],[-4.7922668,50.4768341],[-4.7896828,50.4830962],[-4.7861386,50.4815395],[-4.7789074,50.4873325],[-4.7712059,50.4879122],[-4.7686089,50.4855256],[-4.7496491,50.4904998],[-4.7443016,50.4875462],[-4.7432193,50.496385],[-4.7518963,50.5002683],[-4.7536307,50.5068071],[-4.7617943,50.5113449],[-4.7735852,50.5111409],[-4.7770402,50.5143443],[-4.7724432,50.5192132],[-4.7886072,50.5212933],[-4.7817613,50.5301887],[-4.7707129,50.5350461],[-4.760418,50.5473565],[-4.754865,50.5635144],[-4.7421359,50.572926]],[[-4.8108467,50.5092518],[-4.835997,50.5069509],[-4.851251,50.5136069],[-4.8507798,50.5200779],[-4.8368671,50.5254189],[-4.833106,50.5278468],[-4.8108467,50.5092518]]],"type":"Polygon"},"id":"E02003937","properties":{"code":"E02003937","geography":"MSOA","name":"Cornwall 007"},"type":"Feature"},{"geometry":{"coordinates":[[[-4.9015459,50.5267417],[-4.9196963,50.5314727],[-4.9294533,50.5296433],[-4.929004,50.5244869],[-4.9377131,50.5246703],[-4.9362175,50.5115848],[-4.9419154,50.5201896],[-4.9420514,50.5203949],[-4.9401654,50.5223877],[-4.9366484,50.5261038],[-4.9356747,50.5271324],[-4.9386441,50.527366],[-4.9310961,50.5298754],[-4.9308004,50.5299737],[-4.9312303,50.5306447],[-4.9380612,50.5413026],[-4.9343004,50.5463727],[-4.9351227,50.548324],[-4.9397991,50.553986],[-4.9498201,50.5562088],[-4.9465522,50.5639573],[-4.9452381,50.5686363],[-4.9521433,50.5691776],[-4.9537785,50.5681453],[-4.9560645,50.5657731],[-4.9545289,50.5629518],[-4.960473,50.5611979],[-4.9622314,50.5593725],[-4.9712708,50.5580106],[-4.972094,50.5577676],[-4.9764962,50.5494252],[-4.9800151,50.5485993],[-4.9807553,50.5476945],[-4.9775986,50.5453672],[-4.9837616,50.5422309],[-4.9889692,50.542931],[-4.9935963,50.5428279],[-4.9982471,50.5402681],[-5.0047104,50.5431508],[-5.0035428,50.5465226],[-5.006974,50.5462457],[-5.0169098,50.5453107],[-5.0171413,50.5454245],[-5.0191958,50.5452585],[-5.0207539,50.5472001],[-5.02104,50.5473407],[-5.0209643,50.5474622],[-5.0242783,50.5515914],[-5.0365499,50.5494447],[-5.0383225,50.5469694],[-5.0396513,50.5450802],[-5.0351574,50.5455358],[-5.0241798,50.5386748],[-5.0226289,50.5326577],[-5.0264448,50.5294587],[-5.0225898,50.5265301],[-5.0277511,50.5251329],[-5.0284029,50.5243568],[-5.026241,50.523518],[-5.0290139,50.5211038],[-5.0290759,50.5202163],[-5.0260539,50.5202432],[-5.0275783,50.517999],[-5.0273128,50.5176415],[-5.0294175,50.5141574],[-5.0280854,50.5110303],[-5.0212126,50.5092417],[-5.0239777,50.5093116],[-5.0314812,50.5095008],[-5.0325345,50.5087311],[-5.0343589,50.5039304],[-5.0374911,50.5034772],[-5.0419284,50.5009751],[-5.0412994,50.4989213],[-5.0467473,50.4978027],[-5.0351273,50.494252],[-5.0360842,50.4799223],[-4.9744627,50.4705056],[-4.8935454,50.4774613],[-4.8866742,50.4778462],[-4.8870796,50.4837297],[-4.8941899,50.4853998],[-4.8962762,50.4903033],[-4.8950469,50.4969931],[-4.887751,50.5022468],[-4.8919773,50.5073626],[-4.887374,50.5076245],[-4.8872662,50.5103896],[-4.9015459,50.5267417]]],"type":"Polygon"},"id":"E02003938","properties":{"code":"E02003938","geography":"MSOA","name":"Cornwall 008"},"type":"Feature"},{"geometry":{"coordinates":[[[-4.8108467,50.5092518],[-4.833106,50.5278468],[-4.8368671,50.5254189],[-4.8507798,50.5200779],[-4.851251,50.5136069],[-4.835997,50.5069509],[-4.8108467,50.5092518]]],"type":"Polygon"},"id":"E02003939","properties":{"code":"E02003939","geography":"MSOA","name":"Cornwall 009"},"type":"Feature"},{"geometry":{"coordinates":[[[-4.6034057,50.6005128],[-4.6090894,50.6027258],[-4.6075195,50.6094773],[-4.6150963,50.6142698],[-4.6495189,50.6002575],[-4.658746,50.5916073],[-4.6713619,50.5887208],[-4.6759522,50.5846316],[-4.6866623,50.5935307],[-4.6931302,50.591138],[-4.6922958,50.5881782],[-4.6952747,50.5746081],[-4.7031116,50.5678322],[-4.7241496,50.5653646],[-4.7338063,50.5777265],[-4.7421359,50.572926],[-4.754865,50.5635144],[-4.760418,50.5473565],[-4.7707129,50.5350461],[-4.7817613,50.5301887],[-4.7886072,50.5212933],[-4.7724432,50.5192132],[-4.7770402,50.5143443],[-4.7735852,50.5111409],[-4.7617943,50.5113449],[-4.7536307,50.5068071],[-4.7518963,50.5002683],[-4.7432193,50.496385],[-4.7443016,50.4875462],[-4.7496491,50.4904998],[-4.7686089,50.4855256],[-4.7712059,50.4879122],[-4.7789074,50.4873325],[-4.7861386,50.4815395],[-4.7896828,50.4830962],[-4.7922668,50.4768341],[-4.7980797,50.4783069],[-4.801843,50.467651],[-4.8415251,50.4743319],[-4.8438174,50.4715955],[-4.8369524,50.4650095],[-4.8364573,50.4582697],[-4.8409802,50.4566211],[-4.8464111,50.4447155],[-4.8369473,50.4177696],[-4.8202619,50.430652],[-4.8121983,50.4321605],[-4.8091644,50.4428545],[-4.8015511,50.4378507],[-4.8030344,50.4314222],[-4.7981685,50.4293913],[-4.7647552,50.4366589],[-4.7623098,50.4283831],[-4.7464691,50.4216622],[-4.732742,50.4281483],[-4.7049861,50.4292596],[-4.7057596,50.4343013],[-4.6816612,50.4333297],[-4.6808723,50.4359806],[-4.6768266,50.4421535],[-4.6631976,50.4464431],[-4.6599371,50.4505456],[-4.6459756,50.4436485],[-4.6362976,50.4428429],[-4.6341853,50.4560646],[-4.6190654,50.4594977],[-4.611541,50.4755275],[-4.6190971,50.4871989],[-4.6086203,50.4959195],[-4.6159528,50.5148931],[-4.6053682,50.5251085],[-4.6106806,50.5345112],[-4.5893935,50.5403656],[-4.5698715,50.5582734],[-4.5863161,50.5491806],[-4.6019263,50.5567165],[-4.6040927,50.5668806],[-4.5996848,50.5753127],[-4.5945286,50.57692],[-4.5878475,50.5712125],[-4.5839692,50.5752607],[-4.6034057,50.6005128]],[[-4.7259315,50.4801454],[-4.7055786,50.4799739],[-4.6994793,50.4861639],[-4.7006696,50.4807086],[-4.6928909,50.4726011],[-4.679285,50.4693291],[-4.6729154,50.4622213],[-4.6800674,50.4605378],[-4.6831141,50.4559885],[-4.6948224,50.4589093],[-4.700947,50.4525202],[-4.7149316,50.4538028],[-4.7179376,50.4493718],[-4.7223164,50.4511412],[-4.7297565,50.4515847],[-4.7502798,50.4622549],[-4.7591367,50.4730355],[-4.7554833,50.47739],[-4.743361,50.4749862],[-4.7377816,50.4788785],[-4.7259315,50.4801454]]],"type":"Polygon"},"id":"E02003940","properties":{"code":"E02003940","geography":"MSOA","name":"Cornwall 011"},"type":"Feature"},{"geometry":{"coordinates":[[[-4.7223164,50.4511412],[-4.7179376,50.4493718],[-4.7149316,50.4538028],[-4.700947,50.4525202],[-4.6948224,50.4589093],[-4.6831141,50.4559885],[-4.6800674,50.4605378],[-4.6729154,50.4622213],[-4.679285,50.4693291],[-4.6928909,50.4726011],[-4.7006696,50.4807086],[-4.6994793,50.4861639],[-4.7055786,50.4799739],[-4.7259315,50.4801454],[-4.7274874,50.4740878],[-4.7212519,50.4723477],[-4.7270993,50.4597003],[-4.7330912,50.4565922],[-4.7223164,50.4511412]]],"type":"Polygon"},"id":"E02003941","properties":{"code":"E02003941","geography":"MSOA","name":"Cornwall 014"},"type":"Feature"},{"geometry":{"coordinates":[[[-4.7223164,50.4511412],[-4.7330912,50.4565922],[-4.7270993,50.4597003],[-4.7212519,50.4723477],[-4.7274874,50.4740878],[-4.7259315,50.4801454],[-4.7377816,50.4788785],[-4.743361,50.4749862],[-4.7554833,50.47739],[-4.7591367,50.4730355],[-4.7502798,50.4622549],[-4.7297565,50.4515847],[-4.7223164,50.4511412]]],"type":"Polygon"},"id":"E02003942","properties":{"code":"E02003942","geography":"MSOA","name":"Cornwall 015"},"type":"Feature"},{"geometry":{"coordinates":[[[-5.4681594,50.1999854],[-5.4691233,50.200187],[-5.4692057,50.2023734],[-5.4733021,50.2080384],[-5.4745419,50.2097526],[-5.4751764,50.2101558],[-5.4775418,50.2115815],[-5.4775329,50.2116147],[-5.4788796,50.2125093],[-5.4796292,50.2129856],[-5.4756239,50.218885],[-5.4844207,50.2149407],[-5.4904907,50.216465],[-5.4906721,50.216543],[-5.498137,50.2197537],[-5.5122439,50.2157175],[-5.5148543,50.2162996],[-5.5268554,50.2136786],[-5.527198,50.2137523],[-5.5222681,50.1983484],[-5.5090845,50.1882777],[-5.4951674,50.1897332],[-5.4880349,50.1874307],[-5.4895188,50.1928701],[-5.4778842,50.1980647],[-5.4692911,50.1949168],[-5.4681594,50.1999854]]],"type":"Polygon"},"id":"E02003943","properties":{"code":"E02003943","geography":"MSOA","name":"Cornwall 054"},"type":"Feature"},{"geometry":{"coordinates":[[[-5.4310762,50.1788047],[-5.4301927,50.1749822],[-5.4191457,50.1762547],[-5.3961554,50.1721619],[-5.3943504,50.1669959],[-5.383115,50.164797],[-5.3854458,50.1696923],[-5.3773148,50.1761016],[-5.3825603,50.1825327],[-5.3771323,50.1943767],[-5.3804464,50.2002798],[-5.3776307,50.2030639],[-5.3750427,50.2006863],[-5.3700856,50.2021924],[-5.3754086,50.2045158],[-5.3691174,50.2068815],[-5.383924,50.2083276],[-5.3992002,50.2018686],[-5.4090004,50.2100021],[-5.4090316,50.2099813],[-5.4090903,50.2099424],[-5.4335814,50.1936808],[-5.4224649,50.188463],[-5.4136816,50.1931704],[-5.4069575,50.1928112],[-5.4189433,50.1893078],[-5.4222927,50.1883285],[-5.4216268,50.1846022],[-5.4331103,50.1902973],[-5.4323472,50.1894176],[-5.4288768,50.1864483],[-5.4331995,50.1834623],[-5.4328855,50.1828255],[-5.4322147,50.1824317],[-5.4325024,50.1820485],[-5.4310418,50.1790855],[-5.4310762,50.1788047]]],"type":"Polygon"},"id":"E02003944","properties":{"code":"E02003944","geography":"MSOA","name":"Cornwall 057"},"type":"Feature"},{"geometry":{"coordinates":[[[[-5.4322147,50.1824317],[-5.4328855,50.1828255],[-5.4325024,50.1820485],[-5.4322147,50.1824317]]],[[[-5.4331103,50.1902973],[-5.4337049,50.1905921],[-5.433459,50.1903686],[-5.4323472,50.1894176],[-5.4331103,50.1902973]]],[[[-5.5222681,50.1983484],[-5.527198,50.2137523],[-5.5386364,50.216215],[-5.5429906,50.2118504],[-5.5263159,50.1963523],[-5.5395358,50.191958],[-5.5433426,50.1863098],[-5.5415572,50.1769395],[-5.5532201,50.1717203],[-5.5325164,50.1664381],[-5.5163484,50.1519572],[-5.5176218,50.1494122],[-5.5091183,50.1468958],[-5.5010324,50.1478447],[-5.4945325,50.1444737],[-5.4932942,50.1479061],[-5.4795531,50.1465985],[-5.46863,50.1509424],[-5.4690061,50.1460801],[-5.4751681,50.1436401],[-5.4646887,50.1388876],[-5.4673363,50.1375178],[-5.4537992,50.1419657],[-5.4564013,50.1451511],[-5.4533194,50.147493],[-5.4470201,50.1438487],[-5.4435292,50.146385],[-5.4504096,50.1507886],[-5.4465908,50.1559365],[-5.4578078,50.1638956],[-5.4371953,50.1759516],[-5.4376825,50.1759301],[-5.4407922,50.1761383],[-5.4413113,50.1762489],[-5.4410471,50.1766717],[-5.4356495,50.1853087],[-5.4307084,50.1867648],[-5.4367074,50.1934012],[-5.4679488,50.1999413],[-5.4681594,50.1999854],[-5.4692911,50.1949168],[-5.4778842,50.1980647],[-5.4895188,50.1928701],[-5.4880349,50.1874307],[-5.4951674,50.1897332],[-5.5090845,50.1882777],[-5.5222681,50.1983484]]]],"type":"MultiPolygon"},"id":"E02003945","properties":{"code":"E02003945","geography":"MSOA","name":"Cornwall 058"},"type":"Feature"},{"geometry":{"coordinates":[[[[-5.4783204,50.11572],[-5.4766767,50.1165983],[-5.4760834,50.1175324],[-5.4781822,50.1184257],[-5.4784855,50.1177998],[-5.4787956,50.1156492],[-5.4783204,50.11572]]],[[[-5.3779672,50.2440459],[-5.3801497,50.2427332],[-5.3846625,50.2397685],[-5.3956483,50.2404129],[-5.3916026,50.22872],[-5.4083683,50.2104215],[-5.4090004,50.2100021],[-5.3992002,50.2018686],[-5.383924,50.2083276],[-5.3691174,50.2068815],[-5.3754086,50.2045158],[-5.3700856,50.2021924],[-5.3750427,50.2006863],[-5.3776307,50.2030639],[-5.3804464,50.2002798],[-5.3771323,50.1943767],[-5.3825603,50.1825327],[-5.3773148,50.1761016],[-5.3854458,50.1696923],[-5.383115,50.164797],[-5.3943504,50.1669959],[-5.3961554,50.1721619],[-5.4191457,50.1762547],[-5.4301927,50.1749822],[-5.4310762,50.1788047],[-5.4366953,50.1759737],[-5.4371953,50.1759516],[-5.4578078,50.1638956],[-5.4465908,50.1559365],[-5.4504096,50.1507886],[-5.4435292,50.146385],[-5.4470201,50.1438487],[-5.4533194,50.147493],[-5.4564013,50.1451511],[-5.4537992,50.1419657],[-5.4673363,50.1375178],[-5.4803124,50.1330429],[-5.4815552,50.1263364],[-5.4797695,50.1260464],[-5.4711654,50.121905],[-5.462858,50.1230907],[-5.4605606,50.1211067],[-5.4548101,50.1178249],[-5.4545889,50.1159488],[-5.4504192,50.1123465],[-5.4444614,50.1115432],[-5.4418986,50.1121901],[-5.4290484,50.105415],[-5.429191,50.0969991],[-5.4186698,50.1011629],[-5.4151721,50.0999111],[-5.4155199,50.1020456],[-5.4147628,50.1023291],[-5.4200757,50.1095845],[-5.4149079,50.1157508],[-5.4040558,50.1157001],[-5.3969739,50.1238822],[-5.4018932,50.1341037],[-5.382035,50.1424915],[-5.3926123,50.145617],[-5.3744044,50.1530649],[-5.3816254,50.1586204],[-5.3755596,50.1631962],[-5.3520143,50.1633094],[-5.3279552,50.1705045],[-5.3309869,50.1786743],[-5.3213942,50.1778892],[-5.3259799,50.1849821],[-5.3171408,50.1958898],[-5.3259958,50.2098697],[-5.3367721,50.2079078],[-5.3456285,50.2100908],[-5.3605425,50.2244012],[-5.385113,50.2287704],[-5.3821197,50.2344449],[-5.3732137,50.2371832],[-5.3779672,50.2440459]]]],"type":"MultiPolygon"},"id":"E02003946","properties":{"code":"E02003946","geography":"MSOA","name":"Cornwall 061"},"type":"Feature"},{"geometry":{"coordinates":[[[-5.4673363,50.1375178],[-5.4646887,50.1388876],[-5.4751681,50.1436401],[-5.4690061,50.1460801],[-5.46863,50.1509424],[-5.4795531,50.1465985],[-5.4932942,50.1479061],[-5.4945325,50.1444737],[-5.5010324,50.1478447],[-5.5091183,50.1468958],[-5.5176218,50.1494122],[-5.5163484,50.1519572],[-5.5325164,50.1664381],[-5.5532201,50.1717203],[-5.5415572,50.1769395],[-5.5433426,50.1863098],[-5.5395358,50.191958],[-5.5263159,50.1963523],[-5.5429906,50.2118504],[-5.5432185,50.2116219],[-5.5549114,50.2093318],[-5.5550653,50.205562],[-5.5551195,50.2042333],[-5.5559384,50.2042802],[-5.5634789,50.2012048],[-5.5653995,50.1996247],[-5.5694693,50.198761],[-5.5696527,50.198697],[-5.5716013,50.1983085],[-5.5756317,50.2009805],[-5.577368,50.1950189],[-5.584538,50.1955295],[-5.5849018,50.1955327],[-5.5846415,50.1914098],[-5.5892524,50.1919762],[-5.5907997,50.1887309],[-5.5955245,50.188671],[-5.6006134,50.1932589],[-5.5985267,50.1904474],[-5.60275,50.1882516],[-5.6033104,50.1868532],[-5.6068138,50.1861385],[-5.608861,50.1850738],[-5.6069745,50.1809976],[-5.6148496,50.1818285],[-5.6241083,50.172645],[-5.6258563,50.1692039],[-5.627627,50.1691539],[-5.629054,50.1677378],[-5.6423165,50.1686469],[-5.6432533,50.168711],[-5.6467297,50.1686122],[-5.6563844,50.1644857],[-5.6568325,50.1642942],[-5.6716607,50.1661466],[-5.6716584,50.1636391],[-5.6711818,50.1626902],[-5.6716572,50.1623919],[-5.6716568,50.1619995],[-5.6727094,50.1617318],[-5.6810205,50.1565167],[-5.6810899,50.1560873],[-5.6824118,50.1553546],[-5.6691121,50.1407379],[-5.6756104,50.1404336],[-5.6764274,50.1361653],[-5.6589316,50.1363164],[-5.6590996,50.1434697],[-5.6466246,50.1409935],[-5.6506036,50.1400999],[-5.6495552,50.1295716],[-5.6323117,50.1127185],[-5.6380668,50.1038021],[-5.6330989,50.093876],[-5.6263062,50.091154],[-5.6089601,50.0958778],[-5.5909078,50.0840638],[-5.6111255,50.0759451],[-5.6201572,50.0769007],[-5.6187453,50.0802993],[-5.6225497,50.0776013],[-5.6243231,50.0745655],[-5.6130587,50.0660875],[-5.6146371,50.0588665],[-5.6233929,50.0571712],[-5.6205136,50.0507186],[-5.6191099,50.0512385],[-5.6093072,50.0486911],[-5.6076217,50.0482798],[-5.5961199,50.0526486],[-5.5898979,50.0502567],[-5.5843703,50.0533283],[-5.5799135,50.0523355],[-5.5769593,50.0518313],[-5.563671,50.0582355],[-5.5636414,50.0585188],[-5.5639499,50.0621519],[-5.5632794,50.0619864],[-5.5632257,50.062501],[-5.5547086,50.0598701],[-5.5504374,50.0621934],[-5.5483425,50.0648332],[-5.5413077,50.0752451],[-5.5580253,50.0773704],[-5.5576991,50.0907757],[-5.5662389,50.099106],[-5.5646041,50.1087657],[-5.5723955,50.1174714],[-5.5669501,50.1273851],[-5.5377069,50.1354476],[-5.5188723,50.1362662],[-5.517612,50.1265903],[-5.4961236,50.1287016],[-5.4853332,50.12695],[-5.4837032,50.1267975],[-5.4835582,50.1266618],[-5.4816398,50.1263502],[-5.4815552,50.1263364],[-5.4803124,50.1330429],[-5.4673363,50.1375178]]],"type":"Polygon"},"id":"E02003947","properties":{"code":"E02003947","geography":"MSOA","name":"Cornwall 065"},"type":"Feature"},{"geometry":{"coordinates":[[[-5.517612,50.1265903],[-5.5188723,50.1362662],[-5.5377069,50.1354476],[-5.5669501,50.1273851],[-5.5723955,50.1174714],[-5.5561166,50.1137829],[-5.5440096,50.1164087],[-5.5432697,50.1252681],[-5.5307633,50.1210076],[-5.5306755,50.1211586],[-5.5311063,50.1222527],[-5.5312114,50.1225195],[-5.52843,50.1246926],[-5.5279152,50.1250947],[-5.517612,50.1265903]]],"type":"Polygon"},"id":"E02003948","properties":{"code":"E02003948","geography":"MSOA","name":"Cornwall 067"},"type":"Feature"},{"geometry":{"coordinates":[[[-5.5307633,50.1210076],[-5.5432697,50.1252681],[-5.5440096,50.1164087],[-5.5408969,50.1153719],[-5.5454615,50.112787],[-5.5379558,50.1135631],[-5.537362,50.113925],[-5.5310851,50.1141555],[-5.5297137,50.1156837],[-5.5301168,50.1176248],[-5.5335553,50.117508],[-5.5318353,50.1191639],[-5.5315548,50.1196464],[-5.5307633,50.1210076]]],"type":"Polygon"},"id":"E02003949","properties":{"code":"E02003949","geography":"MSOA","name":"Cornwall 068"},"type":"Feature"},{"geometry":{"coordinates":[[[-5.6205136,50.0507186],[-5.6233929,50.0571712],[-5.6146371,50.0588665],[-5.6130587,50.0660875],[-5.6243231,50.0745655],[-5.6225497,50.0776013],[-5.6187453,50.0802993],[-5.6201572,50.0769007],[-5.6111255,50.0759451],[-5.5909078,50.0840638],[-5.6089601,50.0958778],[-5.6263062,50.091154],[-5.6330989,50.093876],[-5.6380668,50.1038021],[-5.6323117,50.1127185],[-5.6495552,50.1295716],[-5.6506036,50.1400999],[-5.6466246,50.1409935],[-5.6590996,50.1434697],[-5.6589316,50.1363164],[-5.6764274,50.1361653],[-5.6756104,50.1404336],[-5.6691121,50.1407379],[-5.6824118,50.1553546],[-5.686354,50.153169],[-5.6930793,50.1489468],[-5.693504,50.1379508],[-5.7012703,50.1359861],[-5.7047604,50.1348819],[-5.7046338,50.134647],[-5.7019252,50.1317119],[-5.702671,50.131004],[-5.702218,50.1301632],[-5.7043603,50.1294006],[-5.7050699,50.128727],[-5.7059019,50.1288518],[-5.70977,50.1274746],[-5.7057935,50.1237835],[-5.7004249,50.1194484],[-5.6974611,50.0989264],[-5.6962458,50.097437],[-5.6909016,50.0931678],[-5.6908778,50.090857],[-5.6889753,50.0885243],[-5.6947557,50.080487],[-5.7065593,50.0781735],[-5.7078772,50.0778492],[-5.7090197,50.0745842],[-5.709421,50.0712781],[-5.7102755,50.0709949],[-5.7103397,50.0708115],[-5.7169216,50.0686815],[-5.7130865,50.0620974],[-5.7083204,50.0574895],[-5.6925627,50.0540626],[-5.695802,50.0498323],[-5.6883264,50.0485717],[-5.6884879,50.0483012],[-5.6884064,50.0482848],[-5.6892144,50.0476436],[-5.6917098,50.0450352],[-5.6792143,50.0350022],[-5.6762263,50.0355859],[-5.6582198,50.0394376],[-5.6533077,50.0378756],[-5.6529174,50.0382589],[-5.6503104,50.0428971],[-5.6475485,50.0435306],[-5.6474541,50.0435445],[-5.642652,50.0446135],[-5.6416207,50.043849],[-5.6412849,50.0438665],[-5.6363533,50.040056],[-5.6342675,50.0440517],[-5.6328754,50.0441676],[-5.6280009,50.0445735],[-5.6287376,50.0463659],[-5.6292444,50.0474848],[-5.6289558,50.0475918],[-5.6205136,50.0507186]]],"type":"Polygon"},"id":"E02003950","properties":{"code":"E02003950","geography":"MSOA","name":"Cornwall 069"},"type":"Feature"},{"geometry":{"coordinates":[[[-5.5440096,50.1164087],[-5.5561166,50.1137829],[-5.5723955,50.1174714],[-5.5646041,50.1087657],[-5.5662389,50.099106],[-5.5576991,50.0907757],[-5.5580253,50.0773704],[-5.5413077,50.0752451],[-5.5398197,50.0774468],[-5.5391206,50.0830862],[-5.5331648,50.0885255],[-5.5404819,50.099819],[-5.5426848,50.1030359],[-5.5456295,50.1013472],[-5.5488588,50.1034593],[-5.5488528,50.1058614],[-5.5453158,50.1040004],[-5.5442376,50.103604],[-5.5444003,50.1037315],[-5.5485269,50.1066408],[-5.5482654,50.1068115],[-5.5471556,50.1075356],[-5.5392402,50.1126999],[-5.538305,50.1133502],[-5.5379558,50.1135631],[-5.5454615,50.112787],[-5.5408969,50.1153719],[-5.5440096,50.1164087]]],"type":"Polygon"},"id":"E02003951","properties":{"code":"E02003951","geography":"MSOA","name":"Cornwall 070"},"type":"Feature"},{"geometry":{"coordinates":[[[-4.9873621,50.3914461],[-4.968321,50.4000451],[-4.9725836,50.4136641],[-4.993888,50.4213922],[-4.9948474,50.4340709],[-5.0091114,50.4346678],[-5.0076646,50.4434533],[-5.0229826,50.4417571],[-5.0271288,50.4492899],[-5.0409859,50.4483813],[-5.0424179,50.4441583],[-5.0551467,50.4280022],[-5.062135,50.4275171],[-5.0633646,50.4269274],[-5.054649,50.4259149],[-5.0548948,50.4258373],[-5.0552615,50.4257214],[-5.0602078,50.4241594],[-5.0606427,50.4242025],[-5.0648516,50.4246199],[-5.0659048,50.4238586],[-5.0648543,50.4218888],[-5.067575,50.4205155],[-5.0670372,50.4192788],[-5.0564363,50.4188431],[-5.0552464,50.4070072],[-5.0705479,50.3997533],[-5.0630569,50.3934099],[-5.0314857,50.3957116],[-5.0148256,50.3925],[-5.0004514,50.3958379],[-4.9873621,50.3914461]]],"type":"Polygon"},"id":"E02003952","properties":{"code":"E02003952","geography":"MSOA","name":"Cornwall 018"},"type":"Feature"},{"geometry":{"coordinates":[[[-4.8935454,50.4774613],[-4.9744627,50.4705056],[-5.0360842,50.4799223],[-5.0371989,50.4781171],[-5.0386474,50.4728549],[-5.0325975,50.4659275],[-5.0409723,50.4644071],[-5.0413154,50.4631602],[-5.0380809,50.4602746],[-5.0424929,50.4588802],[-5.0427329,50.4580081],[-5.0393969,50.4530664],[-5.0409859,50.4483813],[-5.0271288,50.4492899],[-5.0229826,50.4417571],[-5.0076646,50.4434533],[-5.0091114,50.4346678],[-4.9948474,50.4340709],[-4.993888,50.4213922],[-4.9725836,50.4136641],[-4.968321,50.4000451],[-4.9873621,50.3914461],[-4.984041,50.3889768],[-4.9897969,50.383428],[-4.9977912,50.3829329],[-5.0012943,50.3771559],[-4.9947359,50.3609181],[-5.0064874,50.3526644],[-5.0050625,50.3467111],[-4.9985094,50.3432867],[-4.993418,50.3408103],[-4.9775038,50.340854],[-4.9729819,50.3358268],[-4.9713174,50.3453743],[-4.9423845,50.3445805],[-4.9524239,50.3594112],[-4.9452683,50.3594398],[-4.9449148,50.3570894],[-4.926832,50.3608754],[-4.9231589,50.3671189],[-4.9137434,50.3713655],[-4.9175114,50.3791806],[-4.9033815,50.38817],[-4.9016874,50.4017566],[-4.8810465,50.4135384],[-4.8783013,50.4182013],[-4.8771855,50.427825],[-4.8904036,50.4378705],[-4.8847201,50.4420092],[-4.8948715,50.4433651],[-4.8922401,50.4459529],[-4.9077236,50.4528063],[-4.9042506,50.4548934],[-4.8957423,50.4537465],[-4.8935454,50.4774613]]],"type":"Polygon"},"id":"E02003953","properties":{"code":"E02003953","geography":"MSOA","name":"Cornwall 019"},"type":"Feature"},{"geometry":{"coordinates":[[[-5.0773062,50.4164826],[-5.0852196,50.4151035],[-5.0861506,50.4172668],[-5.0864133,50.4172316],[-5.086806,50.4183783],[-5.0910868,50.4207238],[-5.0935283,50.4207147],[-5.093662,50.4208128],[-5.0939928,50.4208182],[-5.0954689,50.4221388],[-5.0986517,50.4244742],[-5.0995274,50.4251168],[-5.0984441,50.4212989],[-5.0977563,50.4188747],[-5.0982389,50.4181617],[-5.1013346,50.413588],[-5.1065628,50.4134182],[-5.1077532,50.4133796],[-5.1100482,50.413329],[-5.1237524,50.4129072],[-5.1218352,50.4100439],[-5.1217498,50.4099163],[-5.114797,50.4094043],[-5.0975843,50.4081348],[-5.0938971,50.4078625],[-5.0893534,50.4062704],[-5.0857823,50.4050189],[-5.0848055,50.4046766],[-5.08425,50.4044819],[-5.0831314,50.4040898],[-5.0874747,50.4036525],[-5.0974691,50.4063691],[-5.0981428,50.4065521],[-5.0994935,50.4046675],[-5.1013474,50.4077719],[-5.1070278,50.4085873],[-5.1089511,50.4088633],[-5.1092669,50.4087721],[-5.1259934,50.4039443],[-5.1347053,50.4085717],[-5.1352464,50.4088031],[-5.1383434,50.4039654],[-5.1371702,50.4027502],[-5.1356299,50.4012261],[-5.1357622,50.4012916],[-5.1326992,50.3981182],[-5.0992611,50.3931494],[-5.0960156,50.3970086],[-5.0815118,50.3993696],[-5.0740116,50.3972942],[-5.0705479,50.3997533],[-5.0744668,50.4048501],[-5.0884301,50.4083824],[-5.0786701,50.4129267],[-5.0773062,50.4164826]]],"type":"Polygon"},"id":"E02003954","properties":{"code":"E02003954","geography":"MSOA","name":"Cornwall 020"},"type":"Feature"},{"geometry":{"coordinates":[[[-5.0705479,50.3997533],[-5.0552464,50.4070072],[-5.0564363,50.4188431],[-5.0670372,50.4192788],[-5.067575,50.4205155],[-5.067881,50.420361],[-5.0744724,50.4170335],[-5.0746451,50.4169462],[-5.0773062,50.4164826],[-5.0786701,50.4129267],[-5.0884301,50.4083824],[-5.0744668,50.4048501],[-5.0705479,50.3997533]]],"type":"Polygon"},"id":"E02003955","properties":{"code":"E02003955","geography":"MSOA","name":"Cornwall 021"},"type":"Feature"},{"geometry":{"coordinates":[[[-4.8415251,50.4743319],[-4.865044,50.4790026],[-4.8866742,50.4778462],[-4.8935454,50.4774613],[-4.8957423,50.4537465],[-4.9042506,50.4548934],[-4.9077236,50.4528063],[-4.8922401,50.4459529],[-4.8948715,50.4433651],[-4.8847201,50.4420092],[-4.8904036,50.4378705],[-4.8771855,50.427825],[-4.8783013,50.4182013],[-4.8810465,50.4135384],[-4.9016874,50.4017566],[-4.9033815,50.38817],[-4.9175114,50.3791806],[-4.9137434,50.3713655],[-4.907517,50.3747247],[-4.8981893,50.3749244],[-4.8834506,50.3661311],[-4.8814415,50.3704537],[-4.876964,50.3717907],[-4.8739992,50.3691165],[-4.8621521,50.3729355],[-4.8619039,50.3669807],[-4.839575,50.3618832],[-4.8351256,50.3719663],[-4.827106,50.3816192],[-4.8155612,50.3830103],[-4.8123819,50.3886419],[-4.7965347,50.3972404],[-4.7993941,50.3990318],[-4.7955876,50.4031964],[-4.7931797,50.4004461],[-4.7902789,50.4040446],[-4.780466,50.4051594],[-4.7846817,50.412027],[-4.8037864,50.4243185],[-4.7981685,50.4293913],[-4.8030344,50.4314222],[-4.8015511,50.4378507],[-4.8091644,50.4428545],[-4.8121983,50.4321605],[-4.8202619,50.430652],[-4.8369473,50.4177696],[-4.8464111,50.4447155],[-4.8409802,50.4566211],[-4.8364573,50.4582697],[-4.8369524,50.4650095],[-4.8438174,50.4715955],[-4.8415251,50.4743319]]],"type":"Polygon"},"id":"E02003956","properties":{"code":"E02003956","geography":"MSOA","name":"Cornwall 024"},"type":"Feature"},{"geometry":{"coordinates":[[[-4.6808723,50.4359806],[-4.6816612,50.4333297],[-4.7057596,50.4343013],[-4.7049861,50.4292596],[-4.732742,50.4281483],[-4.7464691,50.4216622],[-4.7623098,50.4283831],[-4.7647552,50.4366589],[-4.7981685,50.4293913],[-4.8037864,50.4243185],[-4.7846817,50.412027],[-4.780466,50.4051594],[-4.7902789,50.4040446],[-4.7931797,50.4004461],[-4.7955876,50.4031964],[-4.7993941,50.3990318],[-4.7965347,50.3972404],[-4.8123819,50.3886419],[-4.8155612,50.3830103],[-4.827106,50.3816192],[-4.8351256,50.3719663],[-4.8312864,50.3726625],[-4.8252329,50.361838],[-4.8172182,50.3626422],[-4.8107814,50.3537685],[-4.8040971,50.3546103],[-4.7991812,50.3597525],[-4.7874797,50.3597555],[-4.7694719,50.3530027],[-4.7655877,50.3518742],[-4.7667084,50.3607566],[-4.7543605,50.3596322],[-4.7486091,50.3619381],[-4.7430172,50.3672847],[-4.7405074,50.3650753],[-4.714752,50.3647146],[-4.7015616,50.37773],[-4.7022443,50.3879597],[-4.6918036,50.3830461],[-4.6848315,50.3747565],[-4.6830773,50.3784364],[-4.6683173,50.3832755],[-4.6627743,50.389924],[-4.6611461,50.3883602],[-4.6610336,50.3884392],[-4.6623649,50.3897894],[-4.6612674,50.3891171],[-4.6607827,50.3888047],[-4.6606463,50.3887112],[-4.649727,50.3963773],[-4.6505589,50.4040464],[-4.6435602,50.4181746],[-4.6679312,50.4265484],[-4.6752028,50.4353921],[-4.6808723,50.4359806]]],"type":"Polygon"},"id":"E02003957","properties":{"code":"E02003957","geography":"MSOA","name":"Cornwall 027"},"type":"Feature"},{"geometry":{"coordinates":[[[-4.8351256,50.3719663],[-4.839575,50.3618832],[-4.8619039,50.3669807],[-4.8621521,50.3729355],[-4.8739992,50.3691165],[-4.876964,50.3717907],[-4.8814415,50.3704537],[-4.8834506,50.3661311],[-4.8981893,50.3749244],[-4.907517,50.3747247],[-4.9137434,50.3713655],[-4.9231589,50.3671189],[-4.926832,50.3608754],[-4.922137,50.3542668],[-4.9251407,50.3381542],[-4.9224153,50.3300972],[-4.9069561,50.3288838],[-4.8998417,50.3213193],[-4.9004808,50.3165442],[-4.8647421,50.3131516],[-4.8470161,50.3248913],[-4.8408504,50.3353681],[-4.818417,50.3285446],[-4.8103226,50.3319125],[-4.8101866,50.3421879],[-4.8220828,50.3511349],[-4.8252329,50.361838],[-4.8312864,50.3726625],[-4.8351256,50.3719663]]],"type":"Polygon"},"id":"E02003958","properties":{"code":"E02003958","geography":"MSOA","name":"Cornwall 030"},"type":"Feature"},{"geometry":{"coordinates":[[[-4.714752,50.3647146],[-4.7405074,50.3650753],[-4.7430172,50.3672847],[-4.7486091,50.3619381],[-4.74271,50.3520209],[-4.7472944,50.350012],[-4.7439033,50.3451439],[-4.721719,50.3427547],[-4.7244954,50.3375507],[-4.7059211,50.3402497],[-4.7021736,50.3425432],[-4.7015971,50.3431549],[-4.7044174,50.3423077],[-4.7056378,50.3454789],[-4.7017239,50.3447919],[-4.714752,50.3647146]]],"type":"Polygon"},"id":"E02003959","properties":{"code":"E02003959","geography":"MSOA","name":"Cornwall 031"},"type":"Feature"},{"geometry":{"coordinates":[[[[-4.6306385,50.3426296],[-4.6314078,50.3413791],[-4.6309709,50.3396617],[-4.6306385,50.3426296]]],[[[-4.6427255,50.3766336],[-4.6432484,50.3767728],[-4.642191,50.376047],[-4.6427255,50.3766336]]],[[[-4.6496434,50.3770648],[-4.6515833,50.378992],[-4.6540167,50.3796397],[-4.6611461,50.3883602],[-4.6627743,50.389924],[-4.6683173,50.3832755],[-4.6830773,50.3784364],[-4.6848315,50.3747565],[-4.6918036,50.3830461],[-4.7022443,50.3879597],[-4.7015616,50.37773],[-4.714752,50.3647146],[-4.7017239,50.3447919],[-4.7001942,50.3445234],[-4.7021617,50.3469688],[-4.6915247,50.3468438],[-4.6902252,50.3442681],[-4.6886056,50.3410573],[-4.6814025,50.3378209],[-4.6846923,50.3201218],[-4.6729228,50.3140475],[-4.6721122,50.3151198],[-4.6675553,50.3230873],[-4.6551678,50.3230669],[-4.6544502,50.3232291],[-4.6516154,50.3248686],[-4.6517522,50.3264786],[-4.6474817,50.3272591],[-4.6384907,50.3324572],[-4.6336787,50.3367032],[-4.6311975,50.3446688],[-4.6375871,50.3466638],[-4.6373092,50.352149],[-4.6417249,50.3546024],[-4.638832,50.3541815],[-4.6386987,50.3704052],[-4.6496434,50.3770648]]]],"type":"MultiPolygon"},"id":"E02003960","properties":{"code":"E02003960","geography":"MSOA","name":"Cornwall 035"},"type":"Feature"},{"geometry":{"coordinates":[[[-4.7244954,50.3375507],[-4.721719,50.3427547],[-4.7439033,50.3451439],[-4.7472944,50.350012],[-4.74271,50.3520209],[-4.7486091,50.3619381],[-4.7543605,50.3596322],[-4.7667084,50.3607566],[-4.7655877,50.3518742],[-4.7694719,50.3530027],[-4.7790971,50.3518088],[-4.7773756,50.3451839],[-4.7752613,50.3417857],[-4.7639508,50.34411],[-4.7619056,50.3399192],[-4.7536285,50.3400043],[-4.7692652,50.3361634],[-4.7711439,50.3315469],[-4.7715207,50.3264986],[-4.76338,50.3261452],[-4.7630395,50.3265505],[-4.7567941,50.3310472],[-4.7565592,50.3310947],[-4.7564306,50.3312002],[-4.7477217,50.3328782],[-4.72469,50.3375225],[-4.7244954,50.3375507]]],"type":"Polygon"},"id":"E02003961","properties":{"code":"E02003961","geography":"MSOA","name":"Cornwall 036"},"type":"Feature"},{"geometry":{"coordinates":[[[-4.7694719,50.3530027],[-4.7874797,50.3597555],[-4.7991812,50.3597525],[-4.8040971,50.3546103],[-4.8107814,50.3537685],[-4.8172182,50.3626422],[-4.8252329,50.361838],[-4.8220828,50.3511349],[-4.8101866,50.3421879],[-4.8103226,50.3319125],[-4.8031318,50.3332855],[-4.7981772,50.3357724],[-4.8042062,50.3387046],[-4.8041374,50.3421669],[-4.7974268,50.3376813],[-4.7874281,50.3377756],[-4.7803312,50.341911],[-4.7847506,50.3448341],[-4.7805999,50.3486722],[-4.7773756,50.3451839],[-4.7790971,50.3518088],[-4.7694719,50.3530027]]],"type":"Polygon"},"id":"E02003962","properties":{"code":"E02003962","geography":"MSOA","name":"Cornwall 038"},"type":"Feature"},{"geometry":{"coordinates":[[[-4.7773756,50.3451839],[-4.7805999,50.3486722],[-4.7847506,50.3448341],[-4.7803312,50.341911],[-4.7874281,50.3377756],[-4.7974268,50.3376813],[-4.8041374,50.3421669],[-4.8042062,50.3387046],[-4.7981772,50.3357724],[-4.8031318,50.3332855],[-4.796128,50.3309009],[-4.7765113,50.3333946],[-4.7711439,50.3315469],[-4.7692652,50.3361634],[-4.7536285,50.3400043],[-4.7619056,50.3399192],[-4.7639508,50.34411],[-4.7752613,50.3417857],[-4.7773756,50.3451839]]],"type":"Polygon"},"id":"E02003963","properties":{"code":"E02003963","geography":"MSOA","name":"Cornwall 039"},"type":"Feature"},{"geometry":{"coordinates":[[[-4.8103226,50.3319125],[-4.818417,50.3285446],[-4.8408504,50.3353681],[-4.8470161,50.3248913],[-4.8647421,50.3131516],[-4.9004808,50.3165442],[-4.8990803,50.3109153],[-4.9052122,50.3052309],[-4.903179,50.2994337],[-4.9126555,50.3005763],[-4.9015127,50.2859003],[-4.8731863,50.2920764],[-4.8706737,50.2885449],[-4.8680259,50.2781715],[-4.8818687,50.2706906],[-4.8741976,50.2609857],[-4.8774079,50.2545563],[-4.8643386,50.244666],[-4.8669239,50.2409298],[-4.8632952,50.2357994],[-4.8628905,50.2359788],[-4.854047,50.2349968],[-4.8467923,50.2352314],[-4.8423711,50.236601],[-4.841432,50.2368918],[-4.8383883,50.2320251],[-4.8320847,50.2333754],[-4.8306235,50.230277],[-4.8301943,50.2302661],[-4.8185019,50.2306643],[-4.8161569,50.2299076],[-4.8131398,50.2298304],[-4.8103766,50.225982],[-4.8052931,50.2189001],[-4.8049007,50.2189335],[-4.7987905,50.2194538],[-4.7983184,50.225467],[-4.7982963,50.2262741],[-4.7981892,50.2301781],[-4.7825752,50.2367583],[-4.7809233,50.2375032],[-4.7882012,50.241265],[-4.785394,50.2456322],[-4.7817459,50.2473802],[-4.7805014,50.2485515],[-4.7766406,50.2498755],[-4.7686423,50.2543741],[-4.7700467,50.2553434],[-4.7708293,50.2558836],[-4.7670154,50.2567481],[-4.785654,50.2618211],[-4.78182,50.2691776],[-4.7821313,50.2692058],[-4.7869645,50.2694825],[-4.7853619,50.2695376],[-4.7851592,50.2695352],[-4.7863606,50.2696638],[-4.783711,50.2695181],[-4.7825464,50.2695309],[-4.7839379,50.2750746],[-4.7777684,50.279066],[-4.778103,50.2793485],[-4.7824884,50.2817955],[-4.7821777,50.2827889],[-4.7843286,50.2846048],[-4.7811476,50.290169],[-4.7738938,50.2939191],[-4.7737136,50.2941355],[-4.7641057,50.2996491],[-4.7626523,50.300739],[-4.7525505,50.2988603],[-4.7542962,50.3061671],[-4.7650609,50.3130133],[-4.7667929,50.3220806],[-4.76338,50.3261452],[-4.7715207,50.3264986],[-4.7711439,50.3315469],[-4.7765113,50.3333946],[-4.796128,50.3309009],[-4.8031318,50.3332855],[-4.8103226,50.3319125]]],"type":"Polygon"},"id":"E02003964","properties":{"code":"E02003964","geography":"MSOA","name":"Cornwall 041"},"type":"Feature"}],"type":"FeatureCollection"}
