{"features":[{"geometry":{"coordinates":[[[-0.674682,52.5132048],[-0.6623959,52.5189629],[-0.6493894,52.518904],[-0.6358579,52.5238751],[-0.6431485,52.53634],[-0.6694751,52.5448966],[-0.6655935,52.5522349],[-0.6748776,52.5586207],[-0.6884627,52.5461199],[-0.6978468,52.5456848],[-0.696444,52.5385293],[-0.7136719,52.5249469],[-0.7157732,52.5223273],[-0.7268468,52.5231465],[-0.7468551,52.5168493],[-0.7561695,52.5109778],[-0.7748806,52.5182591],[-0.7878028,52.5136944],[-0.7961738,52.5163478],[-0.8079459,52.5065468],[-0.7822096,52.4913654],[-0.777128,52.4821273],[-0.7814517,52.47907],[-0.7748111,52.477172],[-0.7716473,52.4720318],[-0.7415815,52.4701155],[-0.7391293,52.4766381],[-0.7231551,52.503715],[-0.7151253,52.5111426],[-0.7034902,52.5060906],[-0.7088592,52.5022601],[-0.6991566,52.5031699],[-0.6968886,52.4957963],[-0.6903844,52.4983527],[-0.6877027,52.5018439],[-0.68097,52.5019901],[-0.6837404,52.5116886],[-0.674682,52.5132048]]],"type":"Polygon"},"id":"E02005612","properties":{"code":"E02005612","geography":"MSOA","name":"North Northamptonshire 002"},"type":"Feature"},{"geometry":{"coordinates":[[[-0.6968886,52.4957963],[-0.6991566,52.5031699],[-0.7088592,52.5022601],[-0.7034902,52.5060906],[-0.7151253,52.5111426],[-0.7231551,52.503715],[-0.7214974,52.4998771],[-0.7156466,52.4988525],[-0.7165306,52.4927445],[-0.7092614,52.4911547],[-0.6968886,52.4957963]]],"type":"Polygon"},"id":"E02005613","properties":{"code":"E02005613","geography":"MSOA","name":"North Northamptonshire 003"},"type":"Feature"},{"geometry":{"coordinates":[[[-0.5964033,52.4969273],[-0.608178,52.5062426],[-0.6085932,52.5092801],[-0.5976982,52.5116481],[-0.6054879,52.5142387],[-0.6296884,52.5112578],[-0.6360326,52.5158963],[-0.6714488,52.5066903],[-0.674682,52.5132048],[-0.6837404,52.5116886],[-0.68097,52.5019901],[-0.6877027,52.5018439],[-0.6903844,52.4983527],[-0.6856999,52.4930281],[-0.6919827,52.4790472],[-0.6928898,52.4765533],[-0.6848221,52.4782541],[-0.6743759,52.4749333],[-0.6769357,52.4734352],[-0.6713267,52.4689031],[-0.6762072,52.467194],[-0.6728729,52.4651518],[-0.6837722,52.4621676],[-0.6698932,52.4637399],[-0.6702682,52.4550974],[-0.6641583,52.4544608],[-0.6579341,52.4599833],[-0.6403214,52.4657015],[-0.6319109,52.4645826],[-0.6354876,52.4694859],[-0.6279989,52.4793395],[-0.6014059,52.4867961],[-0.5964033,52.4969273]]],"type":"Polygon"},"id":"E02005614","properties":{"code":"E02005614","geography":"MSOA","name":"North Northamptonshire 006"},"type":"Feature"},{"geometry":{"coordinates":[[[-0.7092614,52.4911547],[-0.7165306,52.4927445],[-0.7156466,52.4988525],[-0.7214974,52.4998771],[-0.7231551,52.503715],[-0.7391293,52.4766381],[-0.733067,52.4751853],[-0.7307508,52.4797301],[-0.7244141,52.4808262],[-0.7262324,52.4862339],[-0.7176802,52.4850138],[-0.7166266,52.4893641],[-0.713835,52.4885479],[-0.7092614,52.4911547]]],"type":"Polygon"},"id":"E02005615","properties":{"code":"E02005615","geography":"MSOA","name":"North Northamptonshire 004"},"type":"Feature"},{"geometry":{"coordinates":[[[-0.6919827,52.4790472],[-0.6856999,52.4930281],[-0.6903844,52.4983527],[-0.6968886,52.4957963],[-0.7092614,52.4911547],[-0.713835,52.4885479],[-0.6979078,52.484933],[-0.7040144,52.4806608],[-0.6919827,52.4790472]]],"type":"Polygon"},"id":"E02005616","properties":{"code":"E02005616","geography":"MSOA","name":"North Northamptonshire 005"},"type":"Feature"},{"geometry":{"coordinates":[[[-0.713835,52.4885479],[-0.7166266,52.4893641],[-0.7176802,52.4850138],[-0.7262324,52.4862339],[-0.7244141,52.4808262],[-0.7307508,52.4797301],[-0.733067,52.4751853],[-0.7232069,52.4706296],[-0.7040144,52.4806608],[-0.6979078,52.484933],[-0.713835,52.4885479]]],"type":"Polygon"},"id":"E02005617","properties":{"code":"E02005617","geography":"MSOA","name":"North Northamptonshire 007"},"type":"Feature"},{"geometry":{"coordinates":[[[-0.4950377,52.6402176],[-0.5174083,52.6423609],[-0.5234312,52.6350737],[-0.5402722,52.6259478],[-0.5390684,52.6178575],[-0.5501427,52.6122326],[-0.5475707,52.606938],[-0.5529506,52.6013308],[-0.5429413,52.5956654],[-0.5441855,52.5928703],[-0.55813,52.5944659],[-0.5622989,52.5864431],[-0.5719163,52.5857854],[-0.5779687,52.58788],[-0.5814851,52.5958653],[-0.5869854,52.5874108],[-0.6030318,52.588573],[-0.6380433,52.5717767],[-0.6422465,52.5729848],[-0.660902,52.5689041],[-0.6713006,52.5640883],[-0.6748776,52.5586207],[-0.6655935,52.5522349],[-0.6694751,52.5448966],[-0.6431485,52.53634],[-0.6358579,52.5238751],[-0.6493894,52.518904],[-0.6623959,52.5189629],[-0.674682,52.5132048],[-0.6714488,52.5066903],[-0.6360326,52.5158963],[-0.6296884,52.5112578],[-0.6054879,52.5142387],[-0.5976982,52.5116481],[-0.6085932,52.5092801],[-0.608178,52.5062426],[-0.5964033,52.4969273],[-0.5777445,52.5025048],[-0.5646741,52.510763],[-0.5467751,52.5132168],[-0.5359055,52.5062488],[-0.5245277,52.5100392],[-0.5154817,52.5111961],[-0.5061736,52.508471],[-0.4764688,52.5145325],[-0.4677771,52.5139385],[-0.4660703,52.510819],[-0.4563331,52.5127278],[-0.4623968,52.5186616],[-0.4565813,52.5226118],[-0.4620006,52.5224101],[-0.4702546,52.5298813],[-0.4652372,52.5357331],[-0.4555328,52.5375463],[-0.446204,52.5356684],[-0.4373916,52.5432086],[-0.4031983,52.5422382],[-0.4020758,52.5483033],[-0.4153537,52.5515353],[-0.4196078,52.5589438],[-0.407305,52.5640374],[-0.4157087,52.5700865],[-0.4153944,52.5787248],[-0.4250406,52.5823948],[-0.4788281,52.5736273],[-0.4788472,52.5774206],[-0.4926773,52.5818823],[-0.4976637,52.5868329],[-0.4907189,52.5905162],[-0.4854517,52.602162],[-0.4810359,52.6027688],[-0.4796487,52.6144317],[-0.4737411,52.6144151],[-0.4709328,52.6235411],[-0.4767722,52.6305452],[-0.4861196,52.6344032],[-0.4888352,52.6328127],[-0.4947847,52.6402956],[-0.4950377,52.6402176]]],"type":"Polygon"},"id":"E02005629","properties":{"code":"E02005629","geography":"MSOA","name":"North Northamptonshire 001"},"type":"Feature"},{"geometry":{"coordinates":[[[-0.4031983,52.5422382],[-0.4373916,52.5432086],[-0.446204,52.5356684],[-0.4555328,52.5375463],[-0.4652372,52.5357331],[-0.4702546,52.5298813],[-0.4620006,52.5224101],[-0.4565813,52.5226118],[-0.4623968,52.5186616],[-0.4563331,52.5127278],[-0.4660703,52.510819],[-0.4677771,52.5139385],[-0.4764688,52.5145325],[-0.5061736,52.508471],[-0.5154817,52.5111961],[-0.5245277,52.5100392],[-0.5359055,52.5062488],[-0.5221883,52.4965817],[-0.512381,52.4982164],[-0.4995824,52.4943694],[-0.4995712,52.4905455],[-0.5070483,52.491175],[-0.515237,52.4883093],[-0.523123,52.4794505],[-0.5273364,52.4809317],[-0.5243746,52.4787767],[-0.515102,52.4813362],[-0.5189006,52.4739513],[-0.5141772,52.47234],[-0.5093668,52.4743653],[-0.4985181,52.4705125],[-0.480687,52.4721647],[-0.4704036,52.4640905],[-0.493459,52.4416813],[-0.5039722,52.436572],[-0.5142796,52.438386],[-0.5188928,52.4364586],[-0.5186965,52.4292981],[-0.5019202,52.4269295],[-0.500663,52.4204716],[-0.5230497,52.4158696],[-0.5335707,52.4088834],[-0.5159619,52.407343],[-0.5181794,52.398076],[-0.4928486,52.3938447],[-0.4939058,52.3873561],[-0.5018019,52.383567],[-0.4959627,52.3794998],[-0.4867541,52.3790156],[-0.4847773,52.3816156],[-0.4699053,52.379881],[-0.4683072,52.3828779],[-0.4568492,52.3823138],[-0.454954,52.3856861],[-0.4437785,52.3838418],[-0.4329367,52.3963134],[-0.4161744,52.403573],[-0.4196291,52.4073083],[-0.4170899,52.4115827],[-0.4108512,52.4127774],[-0.3624258,52.4335143],[-0.3718841,52.436826],[-0.3702343,52.4399135],[-0.35291,52.4610431],[-0.3416081,52.4669251],[-0.3497351,52.4728709],[-0.3500854,52.4825306],[-0.3594131,52.4898342],[-0.3592112,52.4973237],[-0.3521922,52.5033073],[-0.354362,52.5064772],[-0.3779433,52.5106399],[-0.3907654,52.519422],[-0.4134831,52.525489],[-0.4026585,52.5348936],[-0.4031983,52.5422382]]],"type":"Polygon"},"id":"E02005630","properties":{"code":"E02005630","geography":"MSOA","name":"North Northamptonshire 010"},"type":"Feature"},{"geometry":{"coordinates":[[[-0.5359055,52.5062488],[-0.5467751,52.5132168],[-0.5646741,52.510763],[-0.5777445,52.5025048],[-0.5964033,52.4969273],[-0.6014059,52.4867961],[-0.6279989,52.4793395],[-0.6354876,52.4694859],[-0.6319109,52.4645826],[-0.6403214,52.4657015],[-0.6579341,52.4599833],[-0.6641583,52.4544608],[-0.6544996,52.4481485],[-0.6601687,52.4458251],[-0.6587274,52.4342667],[-0.6464812,52.4367199],[-0.6347444,52.4335498],[-0.6276196,52.4348584],[-0.6209253,52.4196626],[-0.6137924,52.4196237],[-0.6247001,52.4070494],[-0.6162202,52.3999188],[-0.6268086,52.3871962],[-0.6283855,52.3822614],[-0.6242697,52.3808596],[-0.5901934,52.3926516],[-0.5865902,52.3926769],[-0.5914354,52.3917617],[-0.589077,52.3903726],[-0.5728237,52.3911907],[-0.5666041,52.3878482],[-0.5434902,52.3897944],[-0.5421435,52.3926621],[-0.5403729,52.3890024],[-0.5018019,52.383567],[-0.4939058,52.3873561],[-0.4928486,52.3938447],[-0.5181794,52.398076],[-0.5159619,52.407343],[-0.5335707,52.4088834],[-0.5230497,52.4158696],[-0.500663,52.4204716],[-0.5019202,52.4269295],[-0.5186965,52.4292981],[-0.5188928,52.4364586],[-0.5142796,52.438386],[-0.5039722,52.436572],[-0.493459,52.4416813],[-0.4704036,52.4640905],[-0.480687,52.4721647],[-0.4985181,52.4705125],[-0.5093668,52.4743653],[-0.5141772,52.47234],[-0.5189006,52.4739513],[-0.515102,52.4813362],[-0.5243746,52.4787767],[-0.5273364,52.4809317],[-0.523123,52.4794505],[-0.515237,52.4883093],[-0.5070483,52.491175],[-0.4995712,52.4905455],[-0.4995824,52.4943694],[-0.512381,52.4982164],[-0.5221883,52.4965817],[-0.5359055,52.5062488]]],"type":"Polygon"},"id":"E02005631","properties":{"code":"E02005631","geography":"MSOA","name":"North Northamptonshire 011"},"type":"Feature"},{"geometry":{"coordinates":[[[-0.5018019,52.383567],[-0.5403729,52.3890024],[-0.5421435,52.3926621],[-0.5434902,52.3897944],[-0.5666041,52.3878482],[-0.5728237,52.3911907],[-0.589077,52.3903726],[-0.5914354,52.3917617],[-0.5865902,52.3926769],[-0.5901934,52.3926516],[-0.6242697,52.3808596],[-0.6211164,52.3693588],[-0.6288252,52.3644631],[-0.6323763,52.3615597],[-0.6227087,52.35336],[-0.6270486,52.3442646],[-0.6241394,52.3425888],[-0.6073221,52.3425725],[-0.5988305,52.3479403],[-0.5806551,52.3415437],[-0.5844465,52.3390339],[-0.5787471,52.3359661],[-0.5804335,52.3305476],[-0.5892442,52.3299644],[-0.5925162,52.3264303],[-0.5866442,52.321755],[-0.5665538,52.3180596],[-0.5411593,52.3202779],[-0.5284362,52.3128698],[-0.5200451,52.316785],[-0.487494,52.3210593],[-0.4762789,52.3180487],[-0.4653831,52.3229384],[-0.4666736,52.3389125],[-0.483286,52.3409378],[-0.4889598,52.3357741],[-0.4990988,52.3348371],[-0.5180817,52.3215414],[-0.5283341,52.3297004],[-0.5322308,52.3287987],[-0.5482975,52.3354919],[-0.57814,52.3389171],[-0.574406,52.3456712],[-0.5776243,52.352702],[-0.5675595,52.3509332],[-0.5651381,52.3471271],[-0.5528535,52.3525021],[-0.5406744,52.3508869],[-0.538128,52.3588749],[-0.5265716,52.363922],[-0.5227116,52.3708903],[-0.4995033,52.3669774],[-0.4885353,52.374008],[-0.4959627,52.3794998],[-0.5018019,52.383567]]],"type":"Polygon"},"id":"E02005632","properties":{"code":"E02005632","geography":"MSOA","name":"North Northamptonshire 024"},"type":"Feature"},{"geometry":{"coordinates":[[[-0.4995033,52.3669774],[-0.5227116,52.3708903],[-0.5265716,52.363922],[-0.538128,52.3588749],[-0.5406744,52.3508869],[-0.5528535,52.3525021],[-0.5651381,52.3471271],[-0.5675595,52.3509332],[-0.5776243,52.352702],[-0.574406,52.3456712],[-0.57814,52.3389171],[-0.5482975,52.3354919],[-0.5322308,52.3287987],[-0.5283341,52.3297004],[-0.5180817,52.3215414],[-0.4990988,52.3348371],[-0.4889598,52.3357741],[-0.483286,52.3409378],[-0.4773556,52.3483942],[-0.4987163,52.3600807],[-0.4995033,52.3669774]]],"type":"Polygon"},"id":"E02005633","properties":{"code":"E02005633","geography":"MSOA","name":"North Northamptonshire 025"},"type":"Feature"},{"geometry":{"coordinates":[[[-0.5925162,52.3264303],[-0.5892442,52.3299644],[-0.5804335,52.3305476],[-0.5787471,52.3359661],[-0.5844465,52.3390339],[-0.5806551,52.3415437],[-0.5988305,52.3479403],[-0.6073221,52.3425725],[-0.6241394,52.3425888],[-0.6334551,52.3369705],[-0.6394811,52.3137594],[-0.6370459,52.305189],[-0.6103063,52.3068762],[-0.6040802,52.3101363],[-0.6031906,52.3157014],[-0.608999,52.3179627],[-0.5925162,52.3264303]]],"type":"Polygon"},"id":"E02005634","properties":{"code":"E02005634","geography":"MSOA","name":"North Northamptonshire 027"},"type":"Feature"},{"geometry":{"coordinates":[[[-0.5200451,52.316785],[-0.5284362,52.3128698],[-0.5411593,52.3202779],[-0.5665538,52.3180596],[-0.5866442,52.321755],[-0.5925162,52.3264303],[-0.608999,52.3179627],[-0.6031906,52.3157014],[-0.6040802,52.3101363],[-0.6103063,52.3068762],[-0.6018806,52.3020611],[-0.5746133,52.2973672],[-0.5628411,52.2903484],[-0.5574519,52.2745994],[-0.5562604,52.2719617],[-0.5657846,52.265266],[-0.5547558,52.2581662],[-0.5409214,52.2565127],[-0.5393425,52.2660809],[-0.5312076,52.2703885],[-0.5340206,52.2811778],[-0.5420562,52.2897178],[-0.5140678,52.3146823],[-0.5200451,52.316785]]],"type":"Polygon"},"id":"E02005635","properties":{"code":"E02005635","geography":"MSOA","name":"North Northamptonshire 035"},"type":"Feature"},{"geometry":{"coordinates":[[[-0.5628411,52.2903484],[-0.5746133,52.2973672],[-0.6018806,52.3020611],[-0.6103063,52.3068762],[-0.6370459,52.305189],[-0.6363605,52.2963315],[-0.6154209,52.2850714],[-0.6002089,52.2890743],[-0.6118304,52.2933952],[-0.6040638,52.2963097],[-0.6014502,52.2932314],[-0.5933699,52.2967485],[-0.5851437,52.2918204],[-0.5628411,52.2903484]]],"type":"Polygon"},"id":"E02005636","properties":{"code":"E02005636","geography":"MSOA","name":"North Northamptonshire 034"},"type":"Feature"},{"geometry":{"coordinates":[[[-0.5628411,52.2903484],[-0.5851437,52.2918204],[-0.5933699,52.2967485],[-0.6014502,52.2932314],[-0.6040638,52.2963097],[-0.6118304,52.2933952],[-0.6002089,52.2890743],[-0.5952868,52.2837598],[-0.5834253,52.2857209],[-0.5685909,52.2763213],[-0.5665397,52.2781584],[-0.5574519,52.2745994],[-0.5628411,52.2903484]]],"type":"Polygon"},"id":"E02005637","properties":{"code":"E02005637","geography":"MSOA","name":"North Northamptonshire 037"},"type":"Feature"},{"geometry":{"coordinates":[[[-0.5574519,52.2745994],[-0.5665397,52.2781584],[-0.5685909,52.2763213],[-0.5834253,52.2857209],[-0.5952868,52.2837598],[-0.6002089,52.2890743],[-0.6154209,52.2850714],[-0.6106328,52.2794839],[-0.5866032,52.2730605],[-0.5881271,52.2707647],[-0.5657103,52.2534548],[-0.5547558,52.2581662],[-0.5657846,52.265266],[-0.5562604,52.2719617],[-0.5574519,52.2745994]]],"type":"Polygon"},"id":"E02005638","properties":{"code":"E02005638","geography":"MSOA","name":"North Northamptonshire 039"},"type":"Feature"},{"geometry":{"coordinates":[[[-0.7961738,52.5163478],[-0.81088,52.51935],[-0.8116994,52.5162422],[-0.8201359,52.5155883],[-0.8306399,52.5194415],[-0.8453578,52.5193497],[-0.845312,52.5216786],[-0.8484004,52.5202449],[-0.8633118,52.528316],[-0.8710058,52.5247351],[-0.872623,52.5183825],[-0.8834215,52.5137911],[-0.8789784,52.4979199],[-0.8837342,52.4922461],[-0.8956144,52.4920274],[-0.8978879,52.487397],[-0.896965,52.4854933],[-0.8845478,52.4812901],[-0.8823748,52.471389],[-0.88957,52.4704237],[-0.9012942,52.4597394],[-0.9062639,52.453643],[-0.9043971,52.4421548],[-0.8652293,52.4345797],[-0.850598,52.4422008],[-0.8492683,52.4516099],[-0.8375035,52.4521127],[-0.8364327,52.4584093],[-0.7901841,52.4523878],[-0.7909401,52.4489532],[-0.8011187,52.4445425],[-0.8001161,52.4369426],[-0.7849869,52.4359414],[-0.7880323,52.4303863],[-0.7842559,52.4264227],[-0.7750645,52.4266704],[-0.7740968,52.4167016],[-0.7396572,52.4205651],[-0.7345991,52.4167168],[-0.7274931,52.4219442],[-0.7167502,52.4209254],[-0.7116295,52.417466],[-0.7028401,52.4123856],[-0.6929342,52.4124176],[-0.6962568,52.4083896],[-0.6848383,52.4016161],[-0.6788641,52.4006502],[-0.6799239,52.378384],[-0.6550356,52.3795855],[-0.659822,52.3719699],[-0.6490843,52.3725392],[-0.6456323,52.3688916],[-0.6311632,52.3676532],[-0.6288252,52.3644631],[-0.6211164,52.3693588],[-0.6242697,52.3808596],[-0.6283855,52.3822614],[-0.6268086,52.3871962],[-0.6162202,52.3999188],[-0.6247001,52.4070494],[-0.6137924,52.4196237],[-0.6209253,52.4196626],[-0.6276196,52.4348584],[-0.6347444,52.4335498],[-0.6464812,52.4367199],[-0.6587274,52.4342667],[-0.6601687,52.4458251],[-0.6544996,52.4481485],[-0.6641583,52.4544608],[-0.6702682,52.4550974],[-0.6698932,52.4637399],[-0.6837722,52.4621676],[-0.6728729,52.4651518],[-0.6762072,52.467194],[-0.6713267,52.4689031],[-0.6769357,52.4734352],[-0.6743759,52.4749333],[-0.6848221,52.4782541],[-0.6928898,52.4765533],[-0.7048166,52.4623662],[-0.7202367,52.4567629],[-0.7228063,52.4597648],[-0.738042,52.4580722],[-0.7415815,52.4701155],[-0.7716473,52.4720318],[-0.7748111,52.477172],[-0.7814517,52.47907],[-0.777128,52.4821273],[-0.7822096,52.4913654],[-0.8079459,52.5065468],[-0.7961738,52.5163478]]],"type":"Polygon"},"id":"E02005639","properties":{"code":"E02005639","geography":"MSOA","name":"North Northamptonshire 012"},"type":"Feature"},{"geometry":{"coordinates":[[[-0.8001161,52.4369426],[-0.8011187,52.4445425],[-0.7909401,52.4489532],[-0.7901841,52.4523878],[-0.8364327,52.4584093],[-0.8375035,52.4521127],[-0.8492683,52.4516099],[-0.850598,52.4422008],[-0.8652293,52.4345797],[-0.8643424,52.4342088],[-0.8507559,52.4369771],[-0.8502651,52.432487],[-0.8587676,52.43142],[-0.8554266,52.4283332],[-0.851363,52.4251579],[-0.8388888,52.4270068],[-0.8189016,52.4343834],[-0.8001161,52.4369426]]],"type":"Polygon"},"id":"E02005640","properties":{"code":"E02005640","geography":"MSOA","name":"North Northamptonshire 013"},"type":"Feature"},{"geometry":{"coordinates":[[[-0.7345991,52.4167168],[-0.7396572,52.4205651],[-0.7740968,52.4167016],[-0.7750645,52.4266704],[-0.7842559,52.4264227],[-0.7880323,52.4303863],[-0.7849869,52.4359414],[-0.8001161,52.4369426],[-0.8189016,52.4343834],[-0.8388888,52.4270068],[-0.8281978,52.4190939],[-0.84233,52.4158564],[-0.8427096,52.4097788],[-0.8359896,52.4035175],[-0.807237,52.4143332],[-0.7885245,52.4058528],[-0.7784293,52.4107182],[-0.7665725,52.4078584],[-0.762118,52.4120644],[-0.7488722,52.4105169],[-0.7368962,52.4155054],[-0.7345991,52.4167168]]],"type":"Polygon"},"id":"E02005641","properties":{"code":"E02005641","geography":"MSOA","name":"North Northamptonshire 014"},"type":"Feature"},{"geometry":{"coordinates":[[[-0.7116295,52.417466],[-0.7167502,52.4209254],[-0.7274931,52.4219442],[-0.7345991,52.4167168],[-0.7368962,52.4155054],[-0.7273179,52.4067509],[-0.7180124,52.4086213],[-0.7189818,52.4130209],[-0.714857,52.4128781],[-0.7116295,52.417466]]],"type":"Polygon"},"id":"E02005642","properties":{"code":"E02005642","geography":"MSOA","name":"North Northamptonshire 015"},"type":"Feature"},{"geometry":{"coordinates":[[[-0.6962568,52.4083896],[-0.6929342,52.4124176],[-0.7028401,52.4123856],[-0.7116295,52.417466],[-0.714857,52.4128781],[-0.7189818,52.4130209],[-0.7180124,52.4086213],[-0.7116622,52.3996317],[-0.7148088,52.3969634],[-0.7104338,52.3953475],[-0.7038283,52.3956401],[-0.7042824,52.4024558],[-0.6962568,52.4083896]]],"type":"Polygon"},"id":"E02005643","properties":{"code":"E02005643","geography":"MSOA","name":"North Northamptonshire 016"},"type":"Feature"},{"geometry":{"coordinates":[[[-0.7148088,52.3969634],[-0.7116622,52.3996317],[-0.7180124,52.4086213],[-0.7273179,52.4067509],[-0.7333946,52.4056053],[-0.7292183,52.4022588],[-0.7173289,52.4006354],[-0.7259375,52.3990311],[-0.7278306,52.3953235],[-0.7244337,52.3955274],[-0.7148088,52.3969634]]],"type":"Polygon"},"id":"E02005644","properties":{"code":"E02005644","geography":"MSOA","name":"North Northamptonshire 017"},"type":"Feature"},{"geometry":{"coordinates":[[[-0.7273179,52.4067509],[-0.7368962,52.4155054],[-0.7488722,52.4105169],[-0.7545322,52.408128],[-0.7501685,52.3909697],[-0.7325713,52.383466],[-0.7317425,52.3903716],[-0.7203092,52.3903074],[-0.7244337,52.3955274],[-0.7278306,52.3953235],[-0.7259375,52.3990311],[-0.7173289,52.4006354],[-0.7292183,52.4022588],[-0.7333946,52.4056053],[-0.7273179,52.4067509]]],"type":"Polygon"},"id":"E02005645","properties":{"code":"E02005645","geography":"MSOA","name":"North Northamptonshire 018"},"type":"Feature"},{"geometry":{"coordinates":[[[-0.6848383,52.4016161],[-0.6962568,52.4083896],[-0.7042824,52.4024558],[-0.7038283,52.3956401],[-0.7104338,52.3953475],[-0.7183826,52.3921695],[-0.7161899,52.3890942],[-0.7024135,52.3849892],[-0.6962873,52.3863531],[-0.6997981,52.3902413],[-0.6861738,52.3932734],[-0.6848383,52.4016161]]],"type":"Polygon"},"id":"E02005646","properties":{"code":"E02005646","geography":"MSOA","name":"North Northamptonshire 019"},"type":"Feature"},{"geometry":{"coordinates":[[[-0.7104338,52.3953475],[-0.7148088,52.3969634],[-0.7244337,52.3955274],[-0.7203092,52.3903074],[-0.7317425,52.3903716],[-0.7325713,52.383466],[-0.7195883,52.3729865],[-0.7026029,52.3730137],[-0.7024135,52.3849892],[-0.7161899,52.3890942],[-0.7183826,52.3921695],[-0.7104338,52.3953475]]],"type":"Polygon"},"id":"E02005647","properties":{"code":"E02005647","geography":"MSOA","name":"North Northamptonshire 022"},"type":"Feature"},{"geometry":{"coordinates":[[[-0.6799239,52.378384],[-0.6788641,52.4006502],[-0.6848383,52.4016161],[-0.6861738,52.3932734],[-0.6997981,52.3902413],[-0.6962873,52.3863531],[-0.7024135,52.3849892],[-0.7026029,52.3730137],[-0.6961591,52.3737828],[-0.6945615,52.3705922],[-0.694032,52.373901],[-0.6799239,52.378384]]],"type":"Polygon"},"id":"E02005648","properties":{"code":"E02005648","geography":"MSOA","name":"North Northamptonshire 021"},"type":"Feature"},{"geometry":{"coordinates":[[[-0.6323763,52.3615597],[-0.6535968,52.3481051],[-0.661117,52.3500722],[-0.6749044,52.3484699],[-0.6864497,52.3505057],[-0.7000801,52.3642145],[-0.7270355,52.3612034],[-0.7478609,52.3472014],[-0.7762399,52.3499223],[-0.7788347,52.3537407],[-0.7886709,52.3472931],[-0.7857956,52.330603],[-0.7928644,52.323783],[-0.7758331,52.3121852],[-0.7594018,52.3090356],[-0.7521696,52.3123071],[-0.7360111,52.3204473],[-0.7337839,52.3183339],[-0.7238638,52.3207741],[-0.7064089,52.3191834],[-0.7090238,52.3248262],[-0.6813664,52.3284576],[-0.6795924,52.3231785],[-0.6691936,52.3175476],[-0.6730353,52.3049705],[-0.6394811,52.3137594],[-0.6334551,52.3369705],[-0.6241394,52.3425888],[-0.6270486,52.3442646],[-0.6227087,52.35336],[-0.6323763,52.3615597]]],"type":"Polygon"},"id":"E02005692","properties":{"code":"E02005692","geography":"MSOA","name":"North Northamptonshire 026"},"type":"Feature"},{"geometry":{"coordinates":[[[-0.6691936,52.3175476],[-0.6795924,52.3231785],[-0.6813664,52.3284576],[-0.7090238,52.3248262],[-0.7064089,52.3191834],[-0.699193,52.3056993],[-0.6882237,52.3102028],[-0.6860912,52.3087551],[-0.6691936,52.3175476]]],"type":"Polygon"},"id":"E02005693","properties":{"code":"E02005693","geography":"MSOA","name":"North Northamptonshire 028"},"type":"Feature"},{"geometry":{"coordinates":[[[-0.7064089,52.3191834],[-0.7238638,52.3207741],[-0.7337839,52.3183339],[-0.7360111,52.3204473],[-0.7521696,52.3123071],[-0.7141253,52.3079977],[-0.7013669,52.3042332],[-0.699193,52.3056993],[-0.7064089,52.3191834]]],"type":"Polygon"},"id":"E02005694","properties":{"code":"E02005694","geography":"MSOA","name":"North Northamptonshire 029"},"type":"Feature"},{"geometry":{"coordinates":[[[-0.6394811,52.3137594],[-0.6730353,52.3049705],[-0.6691936,52.3175476],[-0.6860912,52.3087551],[-0.6887798,52.2976936],[-0.6805684,52.289267],[-0.679431,52.2920117],[-0.6671899,52.2949148],[-0.6547017,52.2937517],[-0.6370459,52.305189],[-0.6394811,52.3137594]]],"type":"Polygon"},"id":"E02005695","properties":{"code":"E02005695","geography":"MSOA","name":"North Northamptonshire 030"},"type":"Feature"},{"geometry":{"coordinates":[[[-0.7141253,52.3079977],[-0.7521696,52.3123071],[-0.7594018,52.3090356],[-0.7613704,52.3059351],[-0.7572661,52.3037983],[-0.7444598,52.3031122],[-0.7397639,52.2978298],[-0.7225047,52.2951099],[-0.7141253,52.3079977]]],"type":"Polygon"},"id":"E02005696","properties":{"code":"E02005696","geography":"MSOA","name":"North Northamptonshire 031"},"type":"Feature"},{"geometry":{"coordinates":[[[-0.6860912,52.3087551],[-0.6882237,52.3102028],[-0.699193,52.3056993],[-0.7013669,52.3042332],[-0.7207296,52.2904251],[-0.7186129,52.290143],[-0.6990992,52.2974338],[-0.6887798,52.2976936],[-0.6860912,52.3087551]]],"type":"Polygon"},"id":"E02005697","properties":{"code":"E02005697","geography":"MSOA","name":"North Northamptonshire 032"},"type":"Feature"},{"geometry":{"coordinates":[[[-0.7013669,52.3042332],[-0.7141253,52.3079977],[-0.7225047,52.2951099],[-0.7207296,52.2904251],[-0.7013669,52.3042332]]],"type":"Polygon"},"id":"E02005698","properties":{"code":"E02005698","geography":"MSOA","name":"North Northamptonshire 033"},"type":"Feature"},{"geometry":{"coordinates":[[[-0.6805684,52.289267],[-0.6887798,52.2976936],[-0.6990992,52.2974338],[-0.7186129,52.290143],[-0.7112525,52.2837589],[-0.6855178,52.2801666],[-0.6805684,52.289267]]],"type":"Polygon"},"id":"E02005699","properties":{"code":"E02005699","geography":"MSOA","name":"North Northamptonshire 036"},"type":"Feature"},{"geometry":{"coordinates":[[[-0.7594018,52.3090356],[-0.7758331,52.3121852],[-0.7928644,52.323783],[-0.8179667,52.3095816],[-0.8059137,52.2882406],[-0.8091515,52.2753312],[-0.8026829,52.2629742],[-0.801487,52.2526598],[-0.7950997,52.2540664],[-0.7914325,52.2422277],[-0.7628056,52.2487318],[-0.748667,52.2459508],[-0.7240458,52.2524822],[-0.6994543,52.2720421],[-0.686532,52.2761121],[-0.6855178,52.2801666],[-0.7112525,52.2837589],[-0.7186129,52.290143],[-0.7207296,52.2904251],[-0.7225047,52.2951099],[-0.7397639,52.2978298],[-0.7444598,52.3031122],[-0.7572661,52.3037983],[-0.7613704,52.3059351],[-0.7594018,52.3090356]]],"type":"Polygon"},"id":"E02005700","properties":{"code":"E02005700","geography":"MSOA","name":"North Northamptonshire 038"},"type":"Feature"},{"geometry":{"coordinates":[[[-0.6154209,52.2850714],[-0.6363605,52.2963315],[-0.6370459,52.305189],[-0.6547017,52.2937517],[-0.6671899,52.2949148],[-0.679431,52.2920117],[-0.6805684,52.289267],[-0.6855178,52.2801666],[-0.686532,52.2761121],[-0.6994543,52.2720421],[-0.7240458,52.2524822],[-0.748667,52.2459508],[-0.7272853,52.2379193],[-0.7142391,52.2214272],[-0.7169655,52.2132769],[-0.7117267,52.1973428],[-0.7054726,52.1915581],[-0.6846716,52.1963231],[-0.6681536,52.1950212],[-0.6614778,52.2081128],[-0.6373488,52.2273043],[-0.6536715,52.268275],[-0.6399242,52.2724279],[-0.6314282,52.2700337],[-0.626994,52.2748634],[-0.6106328,52.2794839],[-0.6154209,52.2850714]]],"type":"Polygon"},"id":"E02005701","properties":{"code":"E02005701","geography":"MSOA","name":"North Northamptonshire 040"},"type":"Feature"},{"geometry":{"coordinates":[[[-0.733067,52.4751853],[-0.7391293,52.4766381],[-0.7415815,52.4701155],[-0.738042,52.4580722],[-0.7228063,52.4597648],[-0.7202367,52.4567629],[-0.7048166,52.4623662],[-0.7092204,52.461856],[-0.7232069,52.4706296],[-0.733067,52.4751853]]],"type":"Polygon"},"id":"E02006862","properties":{"code":"E02006862","geography":"MSOA","name":"North Northamptonshire 009"},"type":"Feature"},{"geometry":{"coordinates":[[[-0.6919827,52.4790472],[-0.7040144,52.4806608],[-0.7232069,52.4706296],[-0.7092204,52.461856],[-0.7048166,52.4623662],[-0.6928898,52.4765533],[-0.6919827,52.4790472]]],"type":"Polygon"},"id":"E02006863","properties":{"code":"E02006863","geography":"MSOA","name":"North Northamptonshire 008"},"type":"Feature"},{"geometry":{"coordinates":[[[-0.8388888,52.4270068],[-0.851363,52.4251579],[-0.8554266,52.4283332],[-0.8587676,52.43142],[-0.8502651,52.432487],[-0.8507559,52.4369771],[-0.8643424,52.4342088],[-0.875061,52.4235175],[-0.8869504,52.4233386],[-0.8906809,52.3990246],[-0.87371,52.402659],[-0.8618218,52.3961647],[-0.8405838,52.3928325],[-0.8329735,52.3811282],[-0.8295233,52.375073],[-0.7963321,52.3616493],[-0.7886709,52.3472931],[-0.7788347,52.3537407],[-0.7762399,52.3499223],[-0.7478609,52.3472014],[-0.7270355,52.3612034],[-0.7000801,52.3642145],[-0.7045318,52.367884],[-0.7026029,52.3730137],[-0.7195883,52.3729865],[-0.7325713,52.383466],[-0.7501685,52.3909697],[-0.7545322,52.408128],[-0.7488722,52.4105169],[-0.762118,52.4120644],[-0.7665725,52.4078584],[-0.7784293,52.4107182],[-0.7885245,52.4058528],[-0.807237,52.4143332],[-0.8359896,52.4035175],[-0.8427096,52.4097788],[-0.84233,52.4158564],[-0.8281978,52.4190939],[-0.8388888,52.4270068]]],"type":"Polygon"},"id":"E02007070","properties":{"code":"E02007070","geography":"MSOA","name":"North Northamptonshire 020"},"type":"Feature"},{"geometry":{"coordinates":[[[-0.6288252,52.3644631],[-0.6311632,52.3676532],[-0.6456323,52.3688916],[-0.6490843,52.3725392],[-0.659822,52.3719699],[-0.6550356,52.3795855],[-0.6799239,52.378384],[-0.694032,52.373901],[-0.6945615,52.3705922],[-0.6961591,52.3737828],[-0.7026029,52.3730137],[-0.7045318,52.367884],[-0.7000801,52.3642145],[-0.6864497,52.3505057],[-0.6749044,52.3484699],[-0.661117,52.3500722],[-0.6535968,52.3481051],[-0.6323763,52.3615597],[-0.6288252,52.3644631]]],"type":"Polygon"},"id":"E02007071","properties":{"code":"E02007071","geography":"MSOA","name":"North Northamptonshire 023"},"type":"Feature"}],"type":"FeatureCollection"}
