{"features":[{"geometry":{"coordinates":[[[-1.0984674,50.8471493],[-1.0819625,50.8475851],[-1.0860287,50.8499976],[-1.0811821,50.8553025],[-1.0908068,50.8585937],[-1.1010151,50.8572418],[-1.1031178,50.8540141],[-1.1135977,50.8548299],[-1.0984674,50.8471493]]],"type":"Polygon"},"id":"E02003524","properties":{"code":"E02003524","geography":"MSOA","name":"Portsmouth 001"},"type":"Feature"},{"geometry":{"coordinates":[[[-1.0715182,50.8570996],[-1.0908068,50.8585937],[-1.0811821,50.8553025],[-1.0860287,50.8499976],[-1.0819625,50.8475851],[-1.0984674,50.8471493],[-1.0876516,50.8396019],[-1.0846884,50.8448176],[-1.0733171,50.8425802],[-1.07475,50.8458573],[-1.0699067,50.8455771],[-1.0674499,50.8417581],[-1.0672827,50.8476124],[-1.0690081,50.8519157],[-1.0655944,50.8534352],[-1.0744751,50.8547309],[-1.0715182,50.8570996]]],"type":"Polygon"},"id":"E02003525","properties":{"code":"E02003525","geography":"MSOA","name":"Portsmouth 002"},"type":"Feature"},{"geometry":{"coordinates":[[[-1.0540299,50.8565607],[-1.0715182,50.8570996],[-1.0744751,50.8547309],[-1.0655944,50.8534352],[-1.0690081,50.8519157],[-1.0672827,50.8476124],[-1.0618385,50.8442498],[-1.0574014,50.8458081],[-1.0560227,50.8427995],[-1.0480868,50.8432249],[-1.0478468,50.8461428],[-1.0393868,50.8467462],[-1.0464654,50.8538771],[-1.0540299,50.8565607]]],"type":"Polygon"},"id":"E02003526","properties":{"code":"E02003526","geography":"MSOA","name":"Portsmouth 003"},"type":"Feature"},{"geometry":{"coordinates":[[[[-1.0915801,50.8281963],[-1.0930915,50.8290222],[-1.0960897,50.8281391],[-1.0915801,50.8281963]]],[[[-1.1129806,50.836136],[-1.1357463,50.8381128],[-1.1222606,50.8356749],[-1.1129806,50.836136]]],[[[-1.1010151,50.8572418],[-1.1158626,50.858281],[-1.1176464,50.8514858],[-1.1153051,50.8437972],[-1.1118318,50.8435114],[-1.1138562,50.8468093],[-1.103294,50.8464101],[-1.1062894,50.837872],[-1.0949889,50.8313444],[-1.087936,50.8313615],[-1.0843458,50.838393],[-1.0616603,50.8361382],[-1.0682911,50.8380262],[-1.0639974,50.8402625],[-1.0674499,50.8417581],[-1.0699067,50.8455771],[-1.07475,50.8458573],[-1.0733171,50.8425802],[-1.0846884,50.8448176],[-1.0876516,50.8396019],[-1.0984674,50.8471493],[-1.1135977,50.8548299],[-1.1031178,50.8540141],[-1.1010151,50.8572418]]]],"type":"MultiPolygon"},"id":"E02003527","properties":{"code":"E02003527","geography":"MSOA","name":"Portsmouth 004"},"type":"Feature"},{"geometry":{"coordinates":[[[-1.0480868,50.8432249],[-1.0560227,50.8427995],[-1.0574014,50.8458081],[-1.0618385,50.8442498],[-1.0672827,50.8476124],[-1.0674499,50.8417581],[-1.0639974,50.8402625],[-1.0682911,50.8380262],[-1.0616603,50.8361382],[-1.0611528,50.8360536],[-1.0476509,50.8327539],[-1.044442,50.8322],[-1.0480868,50.8432249]]],"type":"Polygon"},"id":"E02003529","properties":{"code":"E02003529","geography":"MSOA","name":"Portsmouth 006"},"type":"Feature"},{"geometry":{"coordinates":[[[[-1.0615564,50.834469],[-1.0766217,50.8368066],[-1.0856178,50.82495],[-1.0855014,50.8248674],[-1.0770028,50.8264918],[-1.0726833,50.8219113],[-1.0671422,50.8225881],[-1.0654682,50.8249194],[-1.0696337,50.8248781],[-1.0704148,50.8281336],[-1.0678878,50.8309647],[-1.062773,50.8296918],[-1.0615564,50.834469]]],[[[-1.0843458,50.838393],[-1.087936,50.8313615],[-1.0880202,50.8311923],[-1.0884571,50.8302697],[-1.089182,50.828605],[-1.0788062,50.8372267],[-1.0614536,50.8348724],[-1.0611528,50.8360536],[-1.0616603,50.8361382],[-1.0843458,50.838393]]]],"type":"MultiPolygon"},"id":"E02003530","properties":{"code":"E02003530","geography":"MSOA","name":"Portsmouth 007"},"type":"Feature"},{"geometry":{"coordinates":[[[[-1.044152,50.8313705],[-1.0441869,50.8316777],[-1.0495203,50.8325536],[-1.0547663,50.8334148],[-1.0615564,50.834469],[-1.062773,50.8296918],[-1.0678878,50.8309647],[-1.0704148,50.8281336],[-1.0696337,50.8248781],[-1.0654682,50.8249194],[-1.0671422,50.8225881],[-1.0646564,50.814708],[-1.0611976,50.8119594],[-1.0522984,50.8097946],[-1.0499824,50.8128246],[-1.0414927,50.809596],[-1.0413006,50.8095948],[-1.0423076,50.8151175],[-1.0423683,50.8156526],[-1.044152,50.8313705]]],[[[-1.0611528,50.8360536],[-1.0614536,50.8348724],[-1.0542927,50.8339001],[-1.0476509,50.8327539],[-1.0611528,50.8360536]]]],"type":"MultiPolygon"},"id":"E02003531","properties":{"code":"E02003531","geography":"MSOA","name":"Portsmouth 008"},"type":"Feature"},{"geometry":{"coordinates":[[[-1.0726833,50.8219113],[-1.0770028,50.8264918],[-1.0855014,50.8248674],[-1.0878642,50.8199788],[-1.0804658,50.817372],[-1.0726265,50.8169846],[-1.0726833,50.8219113]]],"type":"Polygon"},"id":"E02003532","properties":{"code":"E02003532","geography":"MSOA","name":"Portsmouth 009"},"type":"Feature"},{"geometry":{"coordinates":[[[[-1.0926123,50.8150581],[-1.09805,50.8203106],[-1.1016567,50.813681],[-1.0926123,50.8150581]]],[[[-1.0859231,50.814147],[-1.0804658,50.817372],[-1.0878642,50.8199788],[-1.0855014,50.8248674],[-1.0856178,50.82495],[-1.0877715,50.8261149],[-1.0915253,50.8281664],[-1.0915801,50.8281963],[-1.0960897,50.8281391],[-1.1002285,50.82692],[-1.0906682,50.8168568],[-1.0912232,50.8148125],[-1.0925091,50.8140137],[-1.0859231,50.814147]]]],"type":"MultiPolygon"},"id":"E02003533","properties":{"code":"E02003533","geography":"MSOA","name":"Portsmouth 010"},"type":"Feature"},{"geometry":{"coordinates":[[[-1.0646564,50.814708],[-1.0671422,50.8225881],[-1.0726833,50.8219113],[-1.0726265,50.8169846],[-1.0804658,50.817372],[-1.0859231,50.814147],[-1.0785111,50.811813],[-1.0657376,50.8124121],[-1.0646564,50.814708]]],"type":"Polygon"},"id":"E02003534","properties":{"code":"E02003534","geography":"MSOA","name":"Portsmouth 011"},"type":"Feature"},{"geometry":{"coordinates":[[[-1.0611976,50.8119594],[-1.0646564,50.814708],[-1.0657376,50.8124121],[-1.0785111,50.811813],[-1.0775758,50.809199],[-1.0636313,50.8083899],[-1.0611976,50.8119594]]],"type":"Polygon"},"id":"E02003535","properties":{"code":"E02003535","geography":"MSOA","name":"Portsmouth 012"},"type":"Feature"},{"geometry":{"coordinates":[[[-1.0785111,50.811813],[-1.0859231,50.814147],[-1.0925091,50.8140137],[-1.0968722,50.8113034],[-1.0905041,50.8116379],[-1.0913514,50.8090568],[-1.0898479,50.8086478],[-1.0942176,50.8021434],[-1.0877079,50.8029582],[-1.0863073,50.8010328],[-1.0770827,50.8065816],[-1.0775758,50.809199],[-1.0785111,50.811813]]],"type":"Polygon"},"id":"E02003536","properties":{"code":"E02003536","geography":"MSOA","name":"Portsmouth 013"},"type":"Feature"},{"geometry":{"coordinates":[[[-1.0414927,50.809596],[-1.0499824,50.8128246],[-1.0522984,50.8097946],[-1.0611976,50.8119594],[-1.0636313,50.8083899],[-1.0680902,50.8012255],[-1.0503696,50.7986605],[-1.0512571,50.8037425],[-1.0456972,50.806415],[-1.0481695,50.8089847],[-1.0414927,50.809596]]],"type":"Polygon"},"id":"E02003537","properties":{"code":"E02003537","geography":"MSOA","name":"Portsmouth 014"},"type":"Feature"},{"geometry":{"coordinates":[[[-1.0636313,50.8083899],[-1.0775758,50.809199],[-1.0770827,50.8065816],[-1.0768962,50.7963083],[-1.0680902,50.8012255],[-1.0636313,50.8083899]]],"type":"Polygon"},"id":"E02003538","properties":{"code":"E02003538","geography":"MSOA","name":"Portsmouth 015"},"type":"Feature"},{"geometry":{"coordinates":[[[-1.0377278,50.7911398],[-1.0380974,50.7910831],[-1.0440175,50.7901755],[-1.03832,50.7946629],[-1.0385562,50.7956012],[-1.0388897,50.7969256],[-1.0392581,50.7983891],[-1.0413006,50.8095948],[-1.0414927,50.809596],[-1.0481695,50.8089847],[-1.0456972,50.806415],[-1.0512571,50.8037425],[-1.0503696,50.7986605],[-1.0680902,50.8012255],[-1.0768962,50.7963083],[-1.0769741,50.795812],[-1.0724057,50.7954423],[-1.0625965,50.7935244],[-1.0520802,50.7938151],[-1.0539594,50.7895632],[-1.0455514,50.7883553],[-1.0377278,50.7911398]]],"type":"Polygon"},"id":"E02003540","properties":{"code":"E02003540","geography":"MSOA","name":"Portsmouth 017"},"type":"Feature"},{"geometry":{"coordinates":[[[-1.0780401,50.7954617],[-1.0837201,50.7976869],[-1.0948872,50.7952925],[-1.0955738,50.7912801],[-1.082669,50.7892492],[-1.0780401,50.7954617]]],"type":"Polygon"},"id":"E02003541","properties":{"code":"E02003541","geography":"MSOA","name":"Portsmouth 018"},"type":"Feature"},{"geometry":{"coordinates":[[[-1.0625965,50.7935244],[-1.0724057,50.7954423],[-1.0737524,50.7886015],[-1.0686828,50.7860973],[-1.0653509,50.7869681],[-1.0625965,50.7935244]]],"type":"Polygon"},"id":"E02003542","properties":{"code":"E02003542","geography":"MSOA","name":"Portsmouth 019"},"type":"Feature"},{"geometry":{"coordinates":[[[-1.0724057,50.7954423],[-1.0769741,50.795812],[-1.0780401,50.7954617],[-1.082669,50.7892492],[-1.0820363,50.7871744],[-1.0765116,50.7891918],[-1.0766288,50.7866621],[-1.0713559,50.7864059],[-1.0686828,50.7860973],[-1.0737524,50.7886015],[-1.0724057,50.7954423]]],"type":"Polygon"},"id":"E02003543","properties":{"code":"E02003543","geography":"MSOA","name":"Portsmouth 020"},"type":"Feature"},{"geometry":{"coordinates":[[[-1.0539594,50.7895632],[-1.0520802,50.7938151],[-1.0625965,50.7935244],[-1.0653509,50.7869681],[-1.0575816,50.786619],[-1.0539594,50.7895632]]],"type":"Polygon"},"id":"E02003544","properties":{"code":"E02003544","geography":"MSOA","name":"Portsmouth 021"},"type":"Feature"},{"geometry":{"coordinates":[[[-1.082669,50.7892492],[-1.0955738,50.7912801],[-1.0946486,50.785708],[-1.0843017,50.7824229],[-1.0820363,50.7871744],[-1.082669,50.7892492]]],"type":"Polygon"},"id":"E02003545","properties":{"code":"E02003545","geography":"MSOA","name":"Portsmouth 022"},"type":"Feature"},{"geometry":{"coordinates":[[[-1.0744707,50.7794455],[-1.0321118,50.7867959],[-1.0306748,50.7955362],[-1.0320082,50.7920163],[-1.0377278,50.7911398],[-1.0455514,50.7883553],[-1.0539594,50.7895632],[-1.0575816,50.786619],[-1.0653509,50.7869681],[-1.0686828,50.7860973],[-1.0713559,50.7864059],[-1.0728544,50.7816118],[-1.0744707,50.7794455]]],"type":"Polygon"},"id":"E02003546","properties":{"code":"E02003546","geography":"MSOA","name":"Portsmouth 023"},"type":"Feature"},{"geometry":{"coordinates":[[[[-1.123946,50.7822698],[-1.1122602,50.7892832],[-1.1122898,50.7893552],[-1.1247677,50.7821722],[-1.123946,50.7822698]]],[[[-1.0955738,50.7912801],[-1.0948872,50.7952925],[-1.0957535,50.7974785],[-1.106095,50.7971199],[-1.1058576,50.7970542],[-1.1088451,50.7965081],[-1.1087691,50.7963785],[-1.1086394,50.7961574],[-1.1056883,50.7911259],[-1.1096854,50.791553],[-1.1009169,50.7850676],[-1.089236,50.7777117],[-1.081817,50.7781689],[-1.0744707,50.7794455],[-1.0728544,50.7816118],[-1.0797285,50.7824845],[-1.0808891,50.779881],[-1.0843017,50.7824229],[-1.0946486,50.785708],[-1.0955738,50.7912801]]]],"type":"MultiPolygon"},"id":"E02003547","properties":{"code":"E02003547","geography":"MSOA","name":"Portsmouth 024"},"type":"Feature"},{"geometry":{"coordinates":[[[-1.0713559,50.7864059],[-1.0766288,50.7866621],[-1.0765116,50.7891918],[-1.0820363,50.7871744],[-1.0843017,50.7824229],[-1.0808891,50.779881],[-1.0797285,50.7824845],[-1.0728544,50.7816118],[-1.0713559,50.7864059]]],"type":"Polygon"},"id":"E02003548","properties":{"code":"E02003548","geography":"MSOA","name":"Portsmouth 025"},"type":"Feature"},{"geometry":{"coordinates":[[[-1.0226505,50.8521105],[-1.0464654,50.8538771],[-1.0393868,50.8467462],[-1.0478468,50.8461428],[-1.0480868,50.8432249],[-1.044442,50.8322],[-1.0441333,50.8321467],[-1.0363006,50.8353844],[-1.0349105,50.8293181],[-1.0241444,50.8263329],[-1.0240871,50.8329454],[-1.024153,50.8329476],[-1.0216025,50.8373933],[-1.0218816,50.8373229],[-1.0206408,50.8390687],[-1.0250824,50.8477304],[-1.0226505,50.8521105]]],"type":"Polygon"},"id":"E02006821","properties":{"code":"E02006821","geography":"MSOA","name":"Portsmouth 026"},"type":"Feature"},{"geometry":{"coordinates":[[[-1.0913514,50.8090568],[-1.0925179,50.8091869],[-1.104006,50.8104806],[-1.1037509,50.8057125],[-1.1115255,50.8069752],[-1.1112623,50.7985488],[-1.106095,50.7971199],[-1.0957535,50.7974785],[-1.0948872,50.7952925],[-1.0837201,50.7976869],[-1.0822891,50.80009],[-1.0891211,50.800795],[-1.0877079,50.8029582],[-1.0942176,50.8021434],[-1.0898479,50.8086478],[-1.0913514,50.8090568]]],"type":"Polygon"},"id":"E02006975","properties":{"code":"E02006975","geography":"MSOA","name":"Portsmouth 027"},"type":"Feature"},{"geometry":{"coordinates":[[[-1.0768962,50.7963083],[-1.0770827,50.8065816],[-1.0863073,50.8010328],[-1.0877079,50.8029582],[-1.0891211,50.800795],[-1.0822891,50.80009],[-1.0837201,50.7976869],[-1.0780401,50.7954617],[-1.0769741,50.795812],[-1.0768962,50.7963083]]],"type":"Polygon"},"id":"E02006976","properties":{"code":"E02006976","geography":"MSOA","name":"Portsmouth 028"},"type":"Feature"}],"type":"FeatureCollection"}
