{"features":[{"geometry":{"coordinates":[[[-0.7129706,51.5448394],[-0.7423276,51.5401403],[-0.7432899,51.5421357],[-0.754899,51.540974],[-0.7544978,51.5461624],[-0.7588986,51.5467242],[-0.7740826,51.5259475],[-0.7561354,51.5275884],[-0.7563638,51.530552],[-0.7443256,51.5313938],[-0.7326194,51.539439],[-0.7298047,51.537708],[-0.7282472,51.5412356],[-0.7275049,51.5372226],[-0.7211629,51.5383826],[-0.7250699,51.5323929],[-0.7139893,51.529758],[-0.7112153,51.5369827],[-0.7178637,51.5411421],[-0.7129706,51.5448394]]],"type":"Polygon"},"id":"E02003421","properties":{"code":"E02003421","geography":"MSOA","name":"Windsor and Maidenhead 001"},"type":"Feature"},{"geometry":{"coordinates":[[[-0.694196,51.5621724],[-0.6988318,51.5655877],[-0.7054869,51.5622427],[-0.7112209,51.564321],[-0.7168641,51.5771861],[-0.7278828,51.5772396],[-0.7488242,51.5684255],[-0.7574798,51.5648143],[-0.7732462,51.5673073],[-0.7825357,51.556166],[-0.7910997,51.5528057],[-0.8249098,51.5501643],[-0.8289046,51.5456274],[-0.8376161,51.5469846],[-0.8427625,51.5447559],[-0.8463049,51.5336617],[-0.8539258,51.5260706],[-0.8362052,51.5127484],[-0.8240755,51.5124774],[-0.8174093,51.5072356],[-0.8170853,51.4964304],[-0.8204605,51.4949879],[-0.8209583,51.4971752],[-0.8293748,51.4871958],[-0.8220081,51.4741171],[-0.8251966,51.4656697],[-0.8337721,51.4640971],[-0.8283091,51.4620418],[-0.8181028,51.4431895],[-0.800037,51.4411806],[-0.7993644,51.4461336],[-0.7857217,51.4577863],[-0.782582,51.4686867],[-0.7696582,51.4677563],[-0.764645,51.4597205],[-0.7573458,51.459023],[-0.752769,51.462225],[-0.7425604,51.475149],[-0.7472909,51.475036],[-0.7445858,51.4857173],[-0.748029,51.4891496],[-0.7541644,51.4869936],[-0.7564336,51.4973787],[-0.7601788,51.4946125],[-0.7640387,51.4977384],[-0.765098,51.5099112],[-0.7747794,51.5152613],[-0.7784728,51.5206527],[-0.7740826,51.5259475],[-0.7588986,51.5467242],[-0.7544978,51.5461624],[-0.754899,51.540974],[-0.7432899,51.5421357],[-0.7423276,51.5401403],[-0.7129706,51.5448394],[-0.6982566,51.5473792],[-0.6926969,51.5440224],[-0.694196,51.5621724]]],"type":"Polygon"},"id":"E02003422","properties":{"code":"E02003422","geography":"MSOA","name":"Windsor and Maidenhead 002"},"type":"Feature"},{"geometry":{"coordinates":[[[-0.7250699,51.5323929],[-0.7211629,51.5383826],[-0.7275049,51.5372226],[-0.7282472,51.5412356],[-0.7298047,51.537708],[-0.7326194,51.539439],[-0.7443256,51.5313938],[-0.7563638,51.530552],[-0.7561354,51.5275884],[-0.7527356,51.5262838],[-0.7362938,51.5313555],[-0.7250699,51.5323929]]],"type":"Polygon"},"id":"E02003423","properties":{"code":"E02003423","geography":"MSOA","name":"Windsor and Maidenhead 003"},"type":"Feature"},{"geometry":{"coordinates":[[[-0.6926969,51.5440224],[-0.6982566,51.5473792],[-0.7129706,51.5448394],[-0.7178637,51.5411421],[-0.7112153,51.5369827],[-0.7139893,51.529758],[-0.7083488,51.5237529],[-0.7110176,51.5191067],[-0.7185428,51.5153052],[-0.7214344,51.5186727],[-0.7284544,51.5173444],[-0.7329322,51.5137601],[-0.7264685,51.5094365],[-0.73186,51.5096942],[-0.7247329,51.5063888],[-0.7155624,51.5054302],[-0.7031828,51.5111045],[-0.6980425,51.537255],[-0.6926969,51.5440224]]],"type":"Polygon"},"id":"E02003424","properties":{"code":"E02003424","geography":"MSOA","name":"Windsor and Maidenhead 004"},"type":"Feature"},{"geometry":{"coordinates":[[[-0.7139893,51.529758],[-0.7250699,51.5323929],[-0.7362938,51.5313555],[-0.7383817,51.5275915],[-0.7332854,51.5222697],[-0.7376864,51.5214284],[-0.7372469,51.5191669],[-0.7310688,51.5207256],[-0.7284544,51.5173444],[-0.7214344,51.5186727],[-0.7185428,51.5153052],[-0.7110176,51.5191067],[-0.7083488,51.5237529],[-0.7139893,51.529758]]],"type":"Polygon"},"id":"E02003425","properties":{"code":"E02003425","geography":"MSOA","name":"Windsor and Maidenhead 005"},"type":"Feature"},{"geometry":{"coordinates":[[[-0.7376864,51.5214284],[-0.7332854,51.5222697],[-0.7383817,51.5275915],[-0.7362938,51.5313555],[-0.7527356,51.5262838],[-0.7561354,51.5275884],[-0.7740826,51.5259475],[-0.7784728,51.5206527],[-0.7747794,51.5152613],[-0.7618525,51.5192313],[-0.7613222,51.5149231],[-0.7513021,51.5114782],[-0.7445732,51.5134989],[-0.7491052,51.518769],[-0.7376864,51.5214284]]],"type":"Polygon"},"id":"E02003426","properties":{"code":"E02003426","geography":"MSOA","name":"Windsor and Maidenhead 006"},"type":"Feature"},{"geometry":{"coordinates":[[[-0.7284544,51.5173444],[-0.7310688,51.5207256],[-0.7372469,51.5191669],[-0.7376864,51.5214284],[-0.7491052,51.518769],[-0.7445732,51.5134989],[-0.7513021,51.5114782],[-0.7304774,51.5047885],[-0.7247329,51.5063888],[-0.73186,51.5096942],[-0.7264685,51.5094365],[-0.7329322,51.5137601],[-0.7284544,51.5173444]]],"type":"Polygon"},"id":"E02003427","properties":{"code":"E02003427","geography":"MSOA","name":"Windsor and Maidenhead 007"},"type":"Feature"},{"geometry":{"coordinates":[[[-0.7513021,51.5114782],[-0.7613222,51.5149231],[-0.7618525,51.5192313],[-0.7747794,51.5152613],[-0.765098,51.5099112],[-0.7640387,51.4977384],[-0.7601788,51.4946125],[-0.7564336,51.4973787],[-0.7541644,51.4869936],[-0.748029,51.4891496],[-0.725021,51.4987992],[-0.7304774,51.5047885],[-0.7513021,51.5114782]]],"type":"Polygon"},"id":"E02003428","properties":{"code":"E02003428","geography":"MSOA","name":"Windsor and Maidenhead 008"},"type":"Feature"},{"geometry":{"coordinates":[[[-0.6623016,51.4879243],[-0.6785163,51.4945623],[-0.6884845,51.5084704],[-0.7031828,51.5111045],[-0.7155624,51.5054302],[-0.7247329,51.5063888],[-0.7304774,51.5047885],[-0.725021,51.4987992],[-0.748029,51.4891496],[-0.7445858,51.4857173],[-0.7472909,51.475036],[-0.7425604,51.475149],[-0.752769,51.462225],[-0.7410873,51.4588675],[-0.7245431,51.4561377],[-0.714435,51.4671424],[-0.7057271,51.4677363],[-0.6888835,51.4669585],[-0.6727631,51.457848],[-0.6650326,51.4624648],[-0.6567726,51.4614929],[-0.6546551,51.4733519],[-0.6585519,51.4729637],[-0.6584417,51.479205],[-0.6633724,51.4799226],[-0.6623016,51.4879243]]],"type":"Polygon"},"id":"E02003429","properties":{"code":"E02003429","geography":"MSOA","name":"Windsor and Maidenhead 009"},"type":"Feature"},{"geometry":{"coordinates":[[[-0.617113,51.5017206],[-0.6272225,51.504425],[-0.6346012,51.5005142],[-0.6422297,51.5006251],[-0.6444523,51.4964763],[-0.6338474,51.4927001],[-0.6254874,51.4909292],[-0.6275047,51.4879692],[-0.6125477,51.485653],[-0.6149485,51.4814943],[-0.6093745,51.4803725],[-0.6130455,51.4775422],[-0.604451,51.4751853],[-0.6042533,51.4693448],[-0.5924426,51.4660374],[-0.5830219,51.4701647],[-0.5810364,51.4799223],[-0.5956911,51.4917174],[-0.5910619,51.4973072],[-0.6005791,51.5023189],[-0.6077617,51.4972937],[-0.617113,51.5017206]]],"type":"Polygon"},"id":"E02003430","properties":{"code":"E02003430","geography":"MSOA","name":"Windsor and Maidenhead 010"},"type":"Feature"},{"geometry":{"coordinates":[[[-0.5605371,51.4972429],[-0.5654862,51.4913978],[-0.589198,51.499351],[-0.5910619,51.4973072],[-0.5956911,51.4917174],[-0.5810364,51.4799223],[-0.5830219,51.4701647],[-0.574336,51.4692833],[-0.5645511,51.4741996],[-0.5524911,51.4662877],[-0.5617369,51.4607293],[-0.5614282,51.4567067],[-0.5483679,51.4586113],[-0.5498385,51.4548528],[-0.5455791,51.4522346],[-0.5346515,51.45295],[-0.5405752,51.4583388],[-0.5353211,51.4605109],[-0.529979,51.4701673],[-0.5243776,51.4715275],[-0.5243049,51.4794964],[-0.5343962,51.4868392],[-0.5493349,51.4902971],[-0.5541745,51.4913038],[-0.5525191,51.494864],[-0.5605371,51.4972429]]],"type":"Polygon"},"id":"E02003431","properties":{"code":"E02003431","geography":"MSOA","name":"Windsor and Maidenhead 011"},"type":"Feature"},{"geometry":{"coordinates":[[[-0.6130455,51.4775422],[-0.6093745,51.4803725],[-0.6149485,51.4814943],[-0.6125477,51.485653],[-0.6275047,51.4879692],[-0.6254874,51.4909292],[-0.6338474,51.4927001],[-0.641464,51.4901978],[-0.6402579,51.4851365],[-0.6354166,51.4844192],[-0.6329027,51.4796316],[-0.6201808,51.4779591],[-0.6254563,51.4713938],[-0.6165184,51.4714494],[-0.6130455,51.4775422]]],"type":"Polygon"},"id":"E02003432","properties":{"code":"E02003432","geography":"MSOA","name":"Windsor and Maidenhead 012"},"type":"Feature"},{"geometry":{"coordinates":[[[-0.6402579,51.4851365],[-0.641464,51.4901978],[-0.6517467,51.4854817],[-0.6623016,51.4879243],[-0.6633724,51.4799226],[-0.6584417,51.479205],[-0.6585519,51.4729637],[-0.6546551,51.4733519],[-0.6437049,51.4726224],[-0.6459348,51.4851053],[-0.6402579,51.4851365]]],"type":"Polygon"},"id":"E02003433","properties":{"code":"E02003433","geography":"MSOA","name":"Windsor and Maidenhead 013"},"type":"Feature"},{"geometry":{"coordinates":[[[-0.6254563,51.4713938],[-0.6201808,51.4779591],[-0.6329027,51.4796316],[-0.6354166,51.4844192],[-0.6402579,51.4851365],[-0.6459348,51.4851053],[-0.6437049,51.4726224],[-0.6254563,51.4713938]]],"type":"Polygon"},"id":"E02003434","properties":{"code":"E02003434","geography":"MSOA","name":"Windsor and Maidenhead 014"},"type":"Feature"},{"geometry":{"coordinates":[[[-0.5924426,51.4660374],[-0.6042533,51.4693448],[-0.604451,51.4751853],[-0.6130455,51.4775422],[-0.6165184,51.4714494],[-0.6254563,51.4713938],[-0.6437049,51.4726224],[-0.6546551,51.4733519],[-0.6567726,51.4614929],[-0.6582408,51.4493146],[-0.6562483,51.4455692],[-0.6366376,51.4476061],[-0.6284274,51.4540575],[-0.6148128,51.4536421],[-0.6025799,51.4653152],[-0.5924426,51.4660374]]],"type":"Polygon"},"id":"E02003435","properties":{"code":"E02003435","geography":"MSOA","name":"Windsor and Maidenhead 015"},"type":"Feature"},{"geometry":{"coordinates":[[[-0.5346515,51.45295],[-0.5455791,51.4522346],[-0.5498385,51.4548528],[-0.5483679,51.4586113],[-0.5614282,51.4567067],[-0.5617369,51.4607293],[-0.5524911,51.4662877],[-0.5645511,51.4741996],[-0.574336,51.4692833],[-0.5830219,51.4701647],[-0.5924426,51.4660374],[-0.6025799,51.4653152],[-0.6148128,51.4536421],[-0.6284274,51.4540575],[-0.6366376,51.4476061],[-0.6562483,51.4455692],[-0.6582408,51.4493146],[-0.6619989,51.4443185],[-0.6538851,51.441367],[-0.6305698,51.4421913],[-0.6371634,51.4280039],[-0.6312469,51.4228607],[-0.631327,51.4144543],[-0.622032,51.4131015],[-0.6225002,51.4099589],[-0.6085194,51.4120103],[-0.604979,51.4212751],[-0.6051419,51.4313114],[-0.5942371,51.4414673],[-0.5796932,51.4447468],[-0.5716931,51.4510071],[-0.5555853,51.4414857],[-0.5504634,51.4434727],[-0.534619,51.437412],[-0.5227841,51.4353005],[-0.5245595,51.4398801],[-0.5314556,51.4417126],[-0.5267515,51.4475097],[-0.5346515,51.45295]]],"type":"Polygon"},"id":"E02003436","properties":{"code":"E02003436","geography":"MSOA","name":"Windsor and Maidenhead 016"},"type":"Feature"},{"geometry":{"coordinates":[[[-0.631327,51.4144543],[-0.6384364,51.4146941],[-0.6679656,51.4307471],[-0.6789947,51.4299485],[-0.6961738,51.4128903],[-0.6853648,51.4014166],[-0.674023,51.4036895],[-0.6727013,51.3987071],[-0.6673962,51.4005336],[-0.6688188,51.4043086],[-0.6633701,51.4029736],[-0.6566569,51.4079054],[-0.6470238,51.4057207],[-0.6274019,51.4070845],[-0.6225002,51.4099589],[-0.622032,51.4131015],[-0.631327,51.4144543]]],"type":"Polygon"},"id":"E02003437","properties":{"code":"E02003437","geography":"MSOA","name":"Windsor and Maidenhead 017"},"type":"Feature"},{"geometry":{"coordinates":[[[-0.6185144,51.392388],[-0.6145385,51.3973937],[-0.6183867,51.3990254],[-0.6085194,51.4120103],[-0.6225002,51.4099589],[-0.6274019,51.4070845],[-0.6470238,51.4057207],[-0.6566569,51.4079054],[-0.6633701,51.4029736],[-0.6688188,51.4043086],[-0.6673962,51.4005336],[-0.6727013,51.3987071],[-0.674023,51.4036895],[-0.6853648,51.4014166],[-0.6676521,51.3845707],[-0.6404789,51.3873718],[-0.6259487,51.3828726],[-0.6209407,51.3851715],[-0.6163634,51.3835394],[-0.6235122,51.389543],[-0.6185144,51.392388]]],"type":"Polygon"},"id":"E02003438","properties":{"code":"E02003438","geography":"MSOA","name":"Windsor and Maidenhead 018"},"type":"Feature"}],"type":"FeatureCollection"}
