{"features":[{"geometry":{"coordinates":[[[-0.2863961,52.1402103],[-0.2830156,52.1406952],[-0.2877961,52.1440969],[-0.3000368,52.140828],[-0.2945642,52.1301035],[-0.2873734,52.1344969],[-0.2845775,52.1333685],[-0.2863961,52.1402103]]],"type":"Polygon"},"id":"E02003599","properties":{"code":"E02003599","geography":"MSOA","name":"Central Bedfordshire 001"},"type":"Feature"},{"geometry":{"coordinates":[[[-0.2514341,52.110746],[-0.2424105,52.1149411],[-0.2368638,52.1306584],[-0.277832,52.1475318],[-0.2778222,52.1517273],[-0.297152,52.151704],[-0.2970779,52.1536208],[-0.3098023,52.149398],[-0.3100346,52.1525386],[-0.3171211,52.1429997],[-0.3092609,52.140877],[-0.3023305,52.1296805],[-0.3060011,52.1132633],[-0.2982808,52.10884],[-0.2791432,52.1115229],[-0.2777866,52.1141696],[-0.2726326,52.1111081],[-0.2514341,52.110746]],[[-0.2863961,52.1402103],[-0.2845775,52.1333685],[-0.2873734,52.1344969],[-0.2945642,52.1301035],[-0.3000368,52.140828],[-0.2877961,52.1440969],[-0.2830156,52.1406952],[-0.2863961,52.1402103]]],"type":"Polygon"},"id":"E02003600","properties":{"code":"E02003600","geography":"MSOA","name":"Central Bedfordshire 002"},"type":"Feature"},{"geometry":{"coordinates":[[[-0.2166473,52.1587237],[-0.2288854,52.1662306],[-0.2498433,52.1722982],[-0.2590203,52.156141],[-0.2877288,52.1608973],[-0.2970779,52.1536208],[-0.297152,52.151704],[-0.2778222,52.1517273],[-0.277832,52.1475318],[-0.2368638,52.1306584],[-0.2424105,52.1149411],[-0.2514341,52.110746],[-0.2441958,52.1021226],[-0.2209954,52.0971625],[-0.2154342,52.0987114],[-0.2187773,52.0657282],[-0.234067,52.0581058],[-0.2273027,52.0472163],[-0.2195501,52.0366735],[-0.1950082,52.0624045],[-0.1726454,52.0601996],[-0.164192,52.0770247],[-0.1573724,52.0805049],[-0.1486147,52.0934516],[-0.1444702,52.138192],[-0.1496323,52.1387429],[-0.1543771,52.1443962],[-0.1715589,52.1394909],[-0.2062279,52.1444373],[-0.2348265,52.1447149],[-0.2166473,52.1587237]]],"type":"Polygon"},"id":"E02003601","properties":{"code":"E02003601","geography":"MSOA","name":"Central Bedfordshire 003"},"type":"Feature"},{"geometry":{"coordinates":[[[-0.2498073,52.1843587],[-0.2891388,52.1909131],[-0.3017003,52.1782126],[-0.3060482,52.1655469],[-0.3215749,52.1687776],[-0.3300874,52.1653299],[-0.3462572,52.1459607],[-0.3611039,52.1441565],[-0.3448269,52.1159443],[-0.3530375,52.1063535],[-0.3561318,52.1077171],[-0.3678357,52.0992749],[-0.3667173,52.0968063],[-0.3780655,52.0953062],[-0.3814078,52.0932193],[-0.3769317,52.0877287],[-0.3891721,52.080869],[-0.3849257,52.0755634],[-0.3896718,52.0745623],[-0.3876774,52.0694185],[-0.3747508,52.0641896],[-0.3791474,52.0585585],[-0.3733739,52.0512915],[-0.3623581,52.0472821],[-0.3466509,52.0454889],[-0.3458607,52.0512553],[-0.3338204,52.050806],[-0.3324475,52.0457307],[-0.3208293,52.0390569],[-0.3149391,52.0424554],[-0.3048657,52.0428035],[-0.2957596,52.053354],[-0.279781,52.0573938],[-0.2741174,52.0693021],[-0.2741871,52.0922857],[-0.2689428,52.0941052],[-0.2724869,52.0963511],[-0.2687883,52.1001469],[-0.2726326,52.1111081],[-0.2777866,52.1141696],[-0.2791432,52.1115229],[-0.2982808,52.10884],[-0.3060011,52.1132633],[-0.3023305,52.1296805],[-0.3092609,52.140877],[-0.3171211,52.1429997],[-0.3100346,52.1525386],[-0.3098023,52.149398],[-0.2970779,52.1536208],[-0.2877288,52.1608973],[-0.2590203,52.156141],[-0.2498433,52.1722982],[-0.2607155,52.1763895],[-0.2498073,52.1843587]]],"type":"Polygon"},"id":"E02003602","properties":{"code":"E02003602","geography":"MSOA","name":"Central Bedfordshire 004"},"type":"Feature"},{"geometry":{"coordinates":[[[-0.2514341,52.110746],[-0.2726326,52.1111081],[-0.2687883,52.1001469],[-0.2724869,52.0963511],[-0.2689428,52.0941052],[-0.2741871,52.0922857],[-0.2741174,52.0693021],[-0.2617298,52.0672318],[-0.2606793,52.0785088],[-0.2566772,52.0798101],[-0.2589257,52.0863548],[-0.2496381,52.0825102],[-0.2560951,52.0910922],[-0.2441958,52.1021226],[-0.2514341,52.110746]]],"type":"Polygon"},"id":"E02003603","properties":{"code":"E02003603","geography":"MSOA","name":"Central Bedfordshire 005"},"type":"Feature"},{"geometry":{"coordinates":[[[-0.2273027,52.0472163],[-0.234067,52.0581058],[-0.2187773,52.0657282],[-0.2154342,52.0987114],[-0.2209954,52.0971625],[-0.2441958,52.1021226],[-0.2560951,52.0910922],[-0.2496381,52.0825102],[-0.2589257,52.0863548],[-0.2566772,52.0798101],[-0.2606793,52.0785088],[-0.2617298,52.0672318],[-0.2620432,52.0635087],[-0.2403685,52.0576969],[-0.238517,52.0454802],[-0.2273027,52.0472163]]],"type":"Polygon"},"id":"E02003604","properties":{"code":"E02003604","geography":"MSOA","name":"Central Bedfordshire 006"},"type":"Feature"},{"geometry":{"coordinates":[[[-0.582546,52.0983483],[-0.5892058,52.0974877],[-0.5832521,52.1045371],[-0.5918297,52.1106804],[-0.6018917,52.1050165],[-0.5967714,52.1016731],[-0.6039793,52.0991133],[-0.6058112,52.0921079],[-0.6313784,52.080964],[-0.6416044,52.0677102],[-0.6510292,52.0641325],[-0.6689973,52.048706],[-0.6430748,52.037242],[-0.6448367,52.031207],[-0.6403515,52.0236499],[-0.6510462,52.0184758],[-0.6452757,52.0103337],[-0.6337388,51.9972476],[-0.6280808,52.0023948],[-0.6200455,52.0015853],[-0.6119978,52.0047509],[-0.5944693,51.998883],[-0.582385,52.0033877],[-0.5884623,52.0100702],[-0.5925786,52.0275688],[-0.5794972,52.0347622],[-0.6017128,52.0519398],[-0.6006041,52.0579751],[-0.5949126,52.0624839],[-0.5894128,52.0615059],[-0.5820837,52.0705779],[-0.5863346,52.0744278],[-0.5847282,52.0866967],[-0.5783169,52.0941033],[-0.582546,52.0983483]]],"type":"Polygon"},"id":"E02003605","properties":{"code":"E02003605","geography":"MSOA","name":"Central Bedfordshire 007"},"type":"Feature"},{"geometry":{"coordinates":[[[-0.4588052,52.0769683],[-0.4715501,52.0879976],[-0.4861453,52.0838688],[-0.5044967,52.070717],[-0.4996259,52.0674324],[-0.504512,52.0567708],[-0.5098372,52.0550147],[-0.498984,52.0436322],[-0.4835905,52.0433516],[-0.4702878,52.048017],[-0.4613714,52.046286],[-0.4694756,52.0378279],[-0.481775,52.0355668],[-0.4865447,52.0176032],[-0.4726057,52.0135223],[-0.4692051,52.0093029],[-0.4570187,52.017603],[-0.4437396,52.0181534],[-0.4244647,52.0262044],[-0.4187367,52.0174803],[-0.414126,52.0212323],[-0.4027591,52.022405],[-0.3776404,52.028044],[-0.3806422,52.0336001],[-0.4010502,52.042211],[-0.4041291,52.0480073],[-0.3901704,52.0569725],[-0.3791474,52.0585585],[-0.3747508,52.0641896],[-0.3876774,52.0694185],[-0.3896718,52.0745623],[-0.4031106,52.0692123],[-0.4298861,52.0677625],[-0.4400568,52.0632759],[-0.4576577,52.072736],[-0.4588052,52.0769683]]],"type":"Polygon"},"id":"E02003606","properties":{"code":"E02003606","geography":"MSOA","name":"Central Bedfordshire 008"},"type":"Feature"},{"geometry":{"coordinates":[[[-0.5098372,52.0550147],[-0.5115408,52.0595479],[-0.5179183,52.0603197],[-0.5177723,52.067815],[-0.5308048,52.0759081],[-0.5416069,52.0818712],[-0.5501068,52.0806933],[-0.5668219,52.0947559],[-0.5783169,52.0941033],[-0.5847282,52.0866967],[-0.5863346,52.0744278],[-0.5820837,52.0705779],[-0.5894128,52.0615059],[-0.5949126,52.0624839],[-0.6006041,52.0579751],[-0.6017128,52.0519398],[-0.5794972,52.0347622],[-0.5925786,52.0275688],[-0.5884623,52.0100702],[-0.582385,52.0033877],[-0.5944693,51.998883],[-0.6119978,52.0047509],[-0.6200455,52.0015853],[-0.6280808,52.0023948],[-0.6337388,51.9972476],[-0.6452757,52.0103337],[-0.6506793,52.0096598],[-0.6617119,51.9997264],[-0.6561951,51.9820161],[-0.6457044,51.9722185],[-0.6530011,51.9692203],[-0.6512561,51.9682717],[-0.5909089,51.9341236],[-0.5844477,51.9359464],[-0.5842714,51.9331273],[-0.5728039,51.9376194],[-0.5731338,51.9527987],[-0.5628867,51.9724495],[-0.5647376,51.9759444],[-0.5528812,51.979165],[-0.5380237,51.9946364],[-0.5502918,52.0083786],[-0.5464735,52.0164197],[-0.5517647,52.0194383],[-0.548388,52.0222159],[-0.5318154,52.0493342],[-0.5133299,52.0520394],[-0.5098372,52.0550147]]],"type":"Polygon"},"id":"E02003607","properties":{"code":"E02003607","geography":"MSOA","name":"Central Bedfordshire 009"},"type":"Feature"},{"geometry":{"coordinates":[[[-0.2617298,52.0672318],[-0.2741174,52.0693021],[-0.279781,52.0573938],[-0.2768151,52.0558375],[-0.3005459,52.0268021],[-0.2888135,52.0268047],[-0.298264,52.0189563],[-0.2982277,52.01335],[-0.2769518,52.0149577],[-0.2767141,52.0118396],[-0.2698936,52.0141696],[-0.269776,52.008127],[-0.2824433,52.0015548],[-0.2834026,51.9966513],[-0.2723087,51.9881272],[-0.2739281,51.9812011],[-0.2602826,51.9796963],[-0.2574892,51.9853339],[-0.2395091,52.0314469],[-0.2441935,52.0324979],[-0.2453383,52.0453562],[-0.238517,52.0454802],[-0.2403685,52.0576969],[-0.2620432,52.0635087],[-0.2617298,52.0672318]]],"type":"Polygon"},"id":"E02003608","properties":{"code":"E02003608","geography":"MSOA","name":"Central Bedfordshire 010"},"type":"Feature"},{"geometry":{"coordinates":[[[-0.3208293,52.0390569],[-0.3324475,52.0457307],[-0.3338204,52.050806],[-0.3458607,52.0512553],[-0.3466509,52.0454889],[-0.3623581,52.0472821],[-0.3733739,52.0512915],[-0.3791474,52.0585585],[-0.3901704,52.0569725],[-0.4041291,52.0480073],[-0.4010502,52.042211],[-0.3806422,52.0336001],[-0.3776404,52.028044],[-0.4027591,52.022405],[-0.3998187,52.0061403],[-0.4148369,51.998361],[-0.4057341,51.9920413],[-0.4126122,51.9868313],[-0.4140524,51.97095],[-0.3994646,51.9676624],[-0.3934579,51.9685678],[-0.3902918,51.9777195],[-0.380712,51.9794231],[-0.3782311,51.9716266],[-0.382938,51.9514045],[-0.3726086,51.9480096],[-0.3502513,51.9575688],[-0.3492,51.9637279],[-0.3508256,51.9728878],[-0.3637583,51.9752002],[-0.3671836,51.9837516],[-0.3587479,51.9855372],[-0.338702,51.9827459],[-0.3410975,51.990186],[-0.3289774,51.9954617],[-0.3420126,52.0035099],[-0.3429756,52.0092508],[-0.3701136,52.0118491],[-0.3586202,52.0212971],[-0.3586012,52.0256251],[-0.3495669,52.0260222],[-0.3455117,52.0314366],[-0.3371015,52.0318821],[-0.3163252,52.0255504],[-0.3230693,52.0336466],[-0.3208293,52.0390569]]],"type":"Polygon"},"id":"E02003609","properties":{"code":"E02003609","geography":"MSOA","name":"Central Bedfordshire 011"},"type":"Feature"},{"geometry":{"coordinates":[[[-0.4865447,52.0176032],[-0.481775,52.0355668],[-0.4694756,52.0378279],[-0.4613714,52.046286],[-0.4702878,52.048017],[-0.4835905,52.0433516],[-0.498984,52.0436322],[-0.5098372,52.0550147],[-0.5133299,52.0520394],[-0.5318154,52.0493342],[-0.548388,52.0222159],[-0.5246189,52.0157082],[-0.5040848,52.0160575],[-0.4865447,52.0176032]]],"type":"Polygon"},"id":"E02003610","properties":{"code":"E02003610","geography":"MSOA","name":"Central Bedfordshire 012"},"type":"Feature"},{"geometry":{"coordinates":[[[-0.2824433,52.0015548],[-0.269776,52.008127],[-0.2698936,52.0141696],[-0.2767141,52.0118396],[-0.2769518,52.0149577],[-0.2982277,52.01335],[-0.298264,52.0189563],[-0.2888135,52.0268047],[-0.3005459,52.0268021],[-0.2768151,52.0558375],[-0.279781,52.0573938],[-0.2957596,52.053354],[-0.3048657,52.0428035],[-0.3149391,52.0424554],[-0.3208293,52.0390569],[-0.3230693,52.0336466],[-0.3163252,52.0255504],[-0.3371015,52.0318821],[-0.3455117,52.0314366],[-0.3495669,52.0260222],[-0.3586012,52.0256251],[-0.3586202,52.0212971],[-0.3701136,52.0118491],[-0.3429756,52.0092508],[-0.3420126,52.0035099],[-0.3289774,51.9954617],[-0.3410975,51.990186],[-0.338702,51.9827459],[-0.3115832,51.982101],[-0.3068426,51.9890599],[-0.2953526,51.9953953],[-0.3000809,52.0007714],[-0.2824433,52.0015548]]],"type":"Polygon"},"id":"E02003611","properties":{"code":"E02003611","geography":"MSOA","name":"Central Bedfordshire 013"},"type":"Feature"},{"geometry":{"coordinates":[[[-0.2195501,52.0366735],[-0.2273027,52.0472163],[-0.238517,52.0454802],[-0.2453383,52.0453562],[-0.2441935,52.0324979],[-0.2395091,52.0314469],[-0.2574892,51.9853339],[-0.2479166,51.9851643],[-0.2441055,51.9990143],[-0.2368946,51.9979379],[-0.2135245,52.0084417],[-0.2012825,52.0098153],[-0.2195501,52.0366735]]],"type":"Polygon"},"id":"E02003612","properties":{"code":"E02003612","geography":"MSOA","name":"Central Bedfordshire 014"},"type":"Feature"},{"geometry":{"coordinates":[[[-0.4692051,52.0093029],[-0.4726057,52.0135223],[-0.4865447,52.0176032],[-0.5040848,52.0160575],[-0.491202,51.99566],[-0.4691748,52.0046643],[-0.4692051,52.0093029]]],"type":"Polygon"},"id":"E02003613","properties":{"code":"E02003613","geography":"MSOA","name":"Central Bedfordshire 015"},"type":"Feature"},{"geometry":{"coordinates":[[[-0.5040848,52.0160575],[-0.5246189,52.0157082],[-0.548388,52.0222159],[-0.5517647,52.0194383],[-0.5464735,52.0164197],[-0.5502918,52.0083786],[-0.5380237,51.9946364],[-0.5317519,51.9889452],[-0.5119466,51.984758],[-0.491202,51.99566],[-0.5040848,52.0160575]]],"type":"Polygon"},"id":"E02003614","properties":{"code":"E02003614","geography":"MSOA","name":"Central Bedfordshire 016"},"type":"Feature"},{"geometry":{"coordinates":[[[-0.4027591,52.022405],[-0.414126,52.0212323],[-0.4187367,52.0174803],[-0.4244647,52.0262044],[-0.4437396,52.0181534],[-0.4570187,52.017603],[-0.4692051,52.0093029],[-0.4691748,52.0046643],[-0.491202,51.99566],[-0.5119466,51.984758],[-0.5317519,51.9889452],[-0.5380237,51.9946364],[-0.5528812,51.979165],[-0.5647376,51.9759444],[-0.5628867,51.9724495],[-0.5460468,51.9696262],[-0.525872,51.9744942],[-0.5149002,51.9678958],[-0.508721,51.967561],[-0.508862,51.9631622],[-0.4958212,51.9525643],[-0.4876899,51.947117],[-0.4591412,51.9519794],[-0.4572628,51.950268],[-0.4619025,51.9573729],[-0.4714809,51.9606944],[-0.4681063,51.9684555],[-0.4559883,51.9766608],[-0.4478232,51.9742701],[-0.4492008,51.9777367],[-0.4435167,51.9795937],[-0.4299245,51.9815107],[-0.4268437,51.9788419],[-0.4126122,51.9868313],[-0.4057341,51.9920413],[-0.4148369,51.998361],[-0.3998187,52.0061403],[-0.4027591,52.022405]]],"type":"Polygon"},"id":"E02003615","properties":{"code":"E02003615","geography":"MSOA","name":"Central Bedfordshire 017"},"type":"Feature"},{"geometry":{"coordinates":[[[-0.3994646,51.9676624],[-0.4140524,51.97095],[-0.4126122,51.9868313],[-0.4268437,51.9788419],[-0.4299245,51.9815107],[-0.4435167,51.9795937],[-0.4492008,51.9777367],[-0.4478232,51.9742701],[-0.4559883,51.9766608],[-0.4681063,51.9684555],[-0.4714809,51.9606944],[-0.4619025,51.9573729],[-0.4572628,51.950268],[-0.4591412,51.9519794],[-0.4876899,51.947117],[-0.4958212,51.9525643],[-0.4951278,51.9294657],[-0.4792486,51.922939],[-0.4624113,51.9235886],[-0.4518694,51.9247477],[-0.4378429,51.9277389],[-0.4260657,51.9266801],[-0.421709,51.9256722],[-0.4223917,51.9205109],[-0.4190447,51.912294],[-0.4076023,51.9106962],[-0.4024625,51.9096954],[-0.4012459,51.9130451],[-0.385641,51.9156726],[-0.3835764,51.9182645],[-0.3892404,51.9257728],[-0.4056343,51.9324458],[-0.4025094,51.9334015],[-0.4063261,51.9412848],[-0.3994646,51.9676624]]],"type":"Polygon"},"id":"E02003636","properties":{"code":"E02003636","geography":"MSOA","name":"Central Bedfordshire 018"},"type":"Feature"},{"geometry":{"coordinates":[[[-0.4958212,51.9525643],[-0.508862,51.9631622],[-0.508721,51.967561],[-0.5149002,51.9678958],[-0.525872,51.9744942],[-0.5460468,51.9696262],[-0.5628867,51.9724495],[-0.5731338,51.9527987],[-0.5728039,51.9376194],[-0.5842714,51.9331273],[-0.5844477,51.9359464],[-0.5909089,51.9341236],[-0.6512561,51.9682717],[-0.6621263,51.9555631],[-0.6719543,51.9559798],[-0.6703701,51.9438102],[-0.6823696,51.9427272],[-0.6803428,51.935492],[-0.6715768,51.9404216],[-0.6666644,51.9361981],[-0.6567134,51.9385411],[-0.6377827,51.9350978],[-0.6333132,51.91703],[-0.6322777,51.9085615],[-0.645552,51.8993049],[-0.6515684,51.9010704],[-0.6602691,51.894548],[-0.6548525,51.887881],[-0.6373698,51.8825942],[-0.6282725,51.8821235],[-0.6201367,51.8854761],[-0.6009513,51.8966547],[-0.5711639,51.8994506],[-0.5563685,51.9022589],[-0.5505376,51.9062764],[-0.5595777,51.9131775],[-0.533222,51.9221368],[-0.5234657,51.926189],[-0.5026046,51.9199446],[-0.4959243,51.9173031],[-0.4915336,51.9063175],[-0.4820975,51.9090492],[-0.4785228,51.9173227],[-0.486598,51.9221392],[-0.4792486,51.922939],[-0.4951278,51.9294657],[-0.4958212,51.9525643]]],"type":"Polygon"},"id":"E02003637","properties":{"code":"E02003637","geography":"MSOA","name":"Central Bedfordshire 019"},"type":"Feature"},{"geometry":{"coordinates":[[[-0.6333132,51.91703],[-0.6377827,51.9350978],[-0.6567134,51.9385411],[-0.6666644,51.9361981],[-0.6715768,51.9404216],[-0.6803428,51.935492],[-0.6815657,51.9351405],[-0.6736283,51.9331194],[-0.6773599,51.9280419],[-0.6651072,51.9278122],[-0.6681148,51.9224468],[-0.6603521,51.9228559],[-0.6610451,51.9279473],[-0.6492926,51.9281826],[-0.6467788,51.9267148],[-0.6540783,51.9202428],[-0.6478997,51.9184825],[-0.6398849,51.9196609],[-0.637424,51.9159996],[-0.6333132,51.91703]]],"type":"Polygon"},"id":"E02003638","properties":{"code":"E02003638","geography":"MSOA","name":"Central Bedfordshire 020"},"type":"Feature"},{"geometry":{"coordinates":[[[-0.6478997,51.9184825],[-0.6540783,51.9202428],[-0.6467788,51.9267148],[-0.6492926,51.9281826],[-0.6610451,51.9279473],[-0.6603521,51.9228559],[-0.6681148,51.9224468],[-0.6698462,51.9129899],[-0.6578765,51.91208],[-0.6478997,51.9184825]]],"type":"Polygon"},"id":"E02003639","properties":{"code":"E02003639","geography":"MSOA","name":"Central Bedfordshire 021"},"type":"Feature"},{"geometry":{"coordinates":[[[-0.6681148,51.9224468],[-0.6651072,51.9278122],[-0.6773599,51.9280419],[-0.6736283,51.9331194],[-0.6815657,51.9351405],[-0.6914879,51.9270449],[-0.6913998,51.9229608],[-0.6763835,51.9186048],[-0.6782487,51.9117049],[-0.6963752,51.9041133],[-0.6922445,51.9001531],[-0.673262,51.901809],[-0.6687707,51.9049697],[-0.6698462,51.9129899],[-0.6681148,51.9224468]]],"type":"Polygon"},"id":"E02003640","properties":{"code":"E02003640","geography":"MSOA","name":"Central Bedfordshire 022"},"type":"Feature"},{"geometry":{"coordinates":[[[-0.6963752,51.9041133],[-0.6782487,51.9117049],[-0.6763835,51.9186048],[-0.6913998,51.9229608],[-0.7021811,51.9091098],[-0.6963752,51.9041133]]],"type":"Polygon"},"id":"E02003641","properties":{"code":"E02003641","geography":"MSOA","name":"Central Bedfordshire 023"},"type":"Feature"},{"geometry":{"coordinates":[[[-0.4915336,51.9063175],[-0.4959243,51.9173031],[-0.5026046,51.9199446],[-0.5234657,51.926189],[-0.533222,51.9221368],[-0.5313198,51.9136179],[-0.5239993,51.9065779],[-0.5154979,51.9110639],[-0.5140038,51.9064948],[-0.50551,51.9092349],[-0.5037978,51.9062507],[-0.4940957,51.9060641],[-0.4915336,51.9063175]]],"type":"Polygon"},"id":"E02003642","properties":{"code":"E02003642","geography":"MSOA","name":"Central Bedfordshire 025"},"type":"Feature"},{"geometry":{"coordinates":[[[-0.6333132,51.91703],[-0.637424,51.9159996],[-0.6398849,51.9196609],[-0.6478997,51.9184825],[-0.6578765,51.91208],[-0.6698462,51.9129899],[-0.6687707,51.9049697],[-0.673262,51.901809],[-0.6602691,51.894548],[-0.6515684,51.9010704],[-0.645552,51.8993049],[-0.6322777,51.9085615],[-0.6333132,51.91703]]],"type":"Polygon"},"id":"E02003643","properties":{"code":"E02003643","geography":"MSOA","name":"Central Bedfordshire 024"},"type":"Feature"},{"geometry":{"coordinates":[[[-0.4940957,51.9060641],[-0.5037978,51.9062507],[-0.50551,51.9092349],[-0.5140038,51.9064948],[-0.5154979,51.9110639],[-0.5239993,51.9065779],[-0.5313198,51.9136179],[-0.533222,51.9221368],[-0.5595777,51.9131775],[-0.5505376,51.9062764],[-0.5563685,51.9022589],[-0.5711639,51.8994506],[-0.5609736,51.8901033],[-0.5474631,51.8874878],[-0.541759,51.8936542],[-0.5479644,51.8943929],[-0.5410503,51.8997474],[-0.5369927,51.8972506],[-0.532507,51.8989406],[-0.5275212,51.8944934],[-0.5226025,51.8934187],[-0.514887,51.896821],[-0.5065,51.8947396],[-0.4998331,51.8978232],[-0.5059482,51.9006042],[-0.4940957,51.9060641]]],"type":"Polygon"},"id":"E02003644","properties":{"code":"E02003644","geography":"MSOA","name":"Central Bedfordshire 026"},"type":"Feature"},{"geometry":{"coordinates":[[[-0.4920451,51.8944423],[-0.4998331,51.8978232],[-0.5065,51.8947396],[-0.514887,51.896821],[-0.5226025,51.8934187],[-0.5111522,51.8871753],[-0.4957159,51.8863207],[-0.4839657,51.8882916],[-0.4920451,51.8944423]]],"type":"Polygon"},"id":"E02003645","properties":{"code":"E02003645","geography":"MSOA","name":"Central Bedfordshire 027"},"type":"Feature"},{"geometry":{"coordinates":[[[-0.5275212,51.8944934],[-0.532507,51.8989406],[-0.5369927,51.8972506],[-0.5410503,51.8997474],[-0.5479644,51.8943929],[-0.541759,51.8936542],[-0.5474631,51.8874878],[-0.5444393,51.8863639],[-0.5505315,51.8827392],[-0.5497905,51.8779007],[-0.5330792,51.8767557],[-0.5374033,51.8815544],[-0.5318591,51.8833398],[-0.5311781,51.8933533],[-0.5275212,51.8944934]]],"type":"Polygon"},"id":"E02003646","properties":{"code":"E02003646","geography":"MSOA","name":"Central Bedfordshire 028"},"type":"Feature"},{"geometry":{"coordinates":[[[-0.5226025,51.8934187],[-0.5275212,51.8944934],[-0.5311781,51.8933533],[-0.5318591,51.8833398],[-0.5374033,51.8815544],[-0.5330792,51.8767557],[-0.5273041,51.8745989],[-0.5207338,51.8783923],[-0.5220695,51.8819665],[-0.5168054,51.8832757],[-0.5111522,51.8871753],[-0.5226025,51.8934187]]],"type":"Polygon"},"id":"E02003647","properties":{"code":"E02003647","geography":"MSOA","name":"Central Bedfordshire 029"},"type":"Feature"},{"geometry":{"coordinates":[[[-0.4957159,51.8863207],[-0.5111522,51.8871753],[-0.5168054,51.8832757],[-0.5027037,51.873939],[-0.4931145,51.8750055],[-0.5011575,51.8820216],[-0.4957159,51.8863207]]],"type":"Polygon"},"id":"E02003648","properties":{"code":"E02003648","geography":"MSOA","name":"Central Bedfordshire 030"},"type":"Feature"},{"geometry":{"coordinates":[[[-0.5027037,51.873939],[-0.5168054,51.8832757],[-0.5220695,51.8819665],[-0.5207338,51.8783923],[-0.5273041,51.8745989],[-0.5216783,51.8763803],[-0.5218913,51.8727768],[-0.5132132,51.8695204],[-0.5017437,51.8733933],[-0.5027037,51.873939]]],"type":"Polygon"},"id":"E02003649","properties":{"code":"E02003649","geography":"MSOA","name":"Central Bedfordshire 031"},"type":"Feature"},{"geometry":{"coordinates":[[[-0.5474631,51.8874878],[-0.5609736,51.8901033],[-0.5711639,51.8994506],[-0.6009513,51.8966547],[-0.6201367,51.8854761],[-0.6089964,51.8755552],[-0.5835892,51.8703152],[-0.5692743,51.8580618],[-0.5714596,51.8550174],[-0.5687449,51.8513926],[-0.5637062,51.8512302],[-0.5668357,51.8508047],[-0.5644924,51.847419],[-0.5376538,51.8314023],[-0.5436757,51.8245094],[-0.5490176,51.8279776],[-0.5536537,51.826704],[-0.5417098,51.8184364],[-0.5432046,51.8154552],[-0.5241252,51.8058026],[-0.5197531,51.8050872],[-0.5023078,51.8154505],[-0.5016186,51.8214787],[-0.5112179,51.8258851],[-0.5060367,51.8273011],[-0.5018435,51.8367864],[-0.4919073,51.8352699],[-0.490958,51.8428109],[-0.4795953,51.842136],[-0.4712211,51.8454593],[-0.4783234,51.8531282],[-0.4861772,51.8643769],[-0.5017437,51.8733933],[-0.5132132,51.8695204],[-0.5218913,51.8727768],[-0.5216783,51.8763803],[-0.5273041,51.8745989],[-0.5330792,51.8767557],[-0.5497905,51.8779007],[-0.5505315,51.8827392],[-0.5444393,51.8863639],[-0.5474631,51.8874878]]],"type":"Polygon"},"id":"E02003650","properties":{"code":"E02003650","geography":"MSOA","name":"Central Bedfordshire 032"},"type":"Feature"},{"geometry":{"coordinates":[[[-0.4666797,51.8881862],[-0.4670003,51.888255],[-0.4839657,51.8882916],[-0.4957159,51.8863207],[-0.5011575,51.8820216],[-0.4931145,51.8750055],[-0.5027037,51.873939],[-0.5017437,51.8733933],[-0.4861772,51.8643769],[-0.4783234,51.8531282],[-0.4697078,51.85589],[-0.4658909,51.8507985],[-0.4540873,51.8530242],[-0.4475488,51.8475937],[-0.4390109,51.8518271],[-0.4252592,51.8467128],[-0.4215259,51.8501974],[-0.4048831,51.8405998],[-0.3832411,51.8319464],[-0.3740794,51.8291873],[-0.3687546,51.831076],[-0.3643952,51.8398835],[-0.3633272,51.8420975],[-0.3560548,51.8405056],[-0.3395104,51.8495979],[-0.3528961,51.8635353],[-0.3548583,51.8740067],[-0.3683228,51.8730522],[-0.3658086,51.8707542],[-0.36978,51.8681073],[-0.3892646,51.871575],[-0.3915123,51.8701149],[-0.4009181,51.8686432],[-0.4091461,51.8614869],[-0.4160799,51.8619747],[-0.4144422,51.8590272],[-0.4193215,51.8563307],[-0.4233864,51.8547756],[-0.4494608,51.8783453],[-0.4666797,51.8881862]]],"type":"Polygon"},"id":"E02003651","properties":{"code":"E02003651","geography":"MSOA","name":"Central Bedfordshire 033"},"type":"Feature"}],"type":"FeatureCollection"}
