{"features":[{"geometry":{"coordinates":[[[-1.3908359,50.9465274],[-1.3928715,50.9493905],[-1.4013669,50.9503983],[-1.4061387,50.9561778],[-1.4096911,50.9497796],[-1.4210497,50.9517141],[-1.4237101,50.9472581],[-1.4240711,50.9434587],[-1.4072547,50.9421076],[-1.4024162,50.936988],[-1.3964394,50.9380019],[-1.3878156,50.9385231],[-1.392996,50.9410946],[-1.3894548,50.9438847],[-1.3908359,50.9465274]]],"type":"Polygon"},"id":"E02003549","properties":{"code":"E02003549","geography":"MSOA","name":"Southampton 001"},"type":"Feature"},{"geometry":{"coordinates":[[[-1.4237101,50.9472581],[-1.4357263,50.949],[-1.4416068,50.9471021],[-1.4495548,50.9499194],[-1.4522245,50.9437196],[-1.4435597,50.9432417],[-1.447351,50.9406765],[-1.4405258,50.9422546],[-1.4362613,50.9343288],[-1.4315794,50.9338518],[-1.4240711,50.9434587],[-1.4237101,50.9472581]]],"type":"Polygon"},"id":"E02003550","properties":{"code":"E02003550","geography":"MSOA","name":"Southampton 002"},"type":"Feature"},{"geometry":{"coordinates":[[[-1.3547211,50.9409753],[-1.3669299,50.946877],[-1.3799018,50.9475268],[-1.3908359,50.9465274],[-1.3894548,50.9438847],[-1.3809367,50.9419165],[-1.3797844,50.9366685],[-1.3709354,50.9357292],[-1.3589541,50.9380054],[-1.3547211,50.9409753]]],"type":"Polygon"},"id":"E02003551","properties":{"code":"E02003551","geography":"MSOA","name":"Southampton 003"},"type":"Feature"},{"geometry":{"coordinates":[[[-1.4522245,50.9437196],[-1.4559643,50.9460764],[-1.4594541,50.9431844],[-1.453363,50.9366952],[-1.4466157,50.9382624],[-1.4449539,50.9333719],[-1.4362613,50.9343288],[-1.4405258,50.9422546],[-1.447351,50.9406765],[-1.4435597,50.9432417],[-1.4522245,50.9437196]]],"type":"Polygon"},"id":"E02003552","properties":{"code":"E02003552","geography":"MSOA","name":"Southampton 004"},"type":"Feature"},{"geometry":{"coordinates":[[[-1.3709354,50.9357292],[-1.3797844,50.9366685],[-1.3809367,50.9419165],[-1.3894548,50.9438847],[-1.392996,50.9410946],[-1.3878156,50.9385231],[-1.3964394,50.9380019],[-1.3931419,50.9343224],[-1.3826143,50.9320102],[-1.3808343,50.9323792],[-1.380566,50.9324348],[-1.3709354,50.9357292]]],"type":"Polygon"},"id":"E02003553","properties":{"code":"E02003553","geography":"MSOA","name":"Southampton 005"},"type":"Feature"},{"geometry":{"coordinates":[[[-1.4024162,50.936988],[-1.4072547,50.9421076],[-1.4240711,50.9434587],[-1.4315794,50.9338518],[-1.4319552,50.9318263],[-1.4288036,50.9289755],[-1.4190629,50.934218],[-1.406539,50.9358518],[-1.4024162,50.936988]]],"type":"Polygon"},"id":"E02003554","properties":{"code":"E02003554","geography":"MSOA","name":"Southampton 006"},"type":"Feature"},{"geometry":{"coordinates":[[[-1.4449539,50.9333719],[-1.4466157,50.9382624],[-1.453363,50.9366952],[-1.4594541,50.9431844],[-1.4704982,50.9315282],[-1.458557,50.9317467],[-1.4545497,50.9240181],[-1.4511794,50.9275673],[-1.4479264,50.930888],[-1.4449539,50.9333719]]],"type":"Polygon"},"id":"E02003555","properties":{"code":"E02003555","geography":"MSOA","name":"Southampton 007"},"type":"Feature"},{"geometry":{"coordinates":[[[-1.3579429,50.9307421],[-1.3528416,50.935252],[-1.3589541,50.9380054],[-1.3709354,50.9357292],[-1.380566,50.9324348],[-1.380578,50.9317066],[-1.3805244,50.9315627],[-1.3762261,50.9273527],[-1.3715273,50.9296033],[-1.3642631,50.9254505],[-1.360837,50.9244829],[-1.3579429,50.9307421]]],"type":"Polygon"},"id":"E02003556","properties":{"code":"E02003556","geography":"MSOA","name":"Southampton 008"},"type":"Feature"},{"geometry":{"coordinates":[[[-1.3826143,50.9320102],[-1.3931419,50.9343224],[-1.3964394,50.9380019],[-1.4024162,50.936988],[-1.406539,50.9358518],[-1.4050281,50.9219876],[-1.3956437,50.9252062],[-1.3826143,50.9320102]]],"type":"Polygon"},"id":"E02003557","properties":{"code":"E02003557","geography":"MSOA","name":"Southampton 009"},"type":"Feature"},{"geometry":{"coordinates":[[[-1.4315794,50.9338518],[-1.4362613,50.9343288],[-1.4449539,50.9333719],[-1.4479264,50.930888],[-1.4311597,50.9205384],[-1.427886,50.9201468],[-1.4279373,50.9245606],[-1.4334721,50.9286408],[-1.4319552,50.9318263],[-1.4315794,50.9338518]]],"type":"Polygon"},"id":"E02003558","properties":{"code":"E02003558","geography":"MSOA","name":"Southampton 010"},"type":"Feature"},{"geometry":{"coordinates":[[[-1.4050281,50.9219876],[-1.406539,50.9358518],[-1.4190629,50.934218],[-1.4288036,50.9289755],[-1.4319552,50.9318263],[-1.4334721,50.9286408],[-1.4279373,50.9245606],[-1.427886,50.9201468],[-1.4311597,50.9205384],[-1.4277354,50.9178928],[-1.4272641,50.9175315],[-1.422024,50.9214223],[-1.4153681,50.9188592],[-1.4100773,50.9225174],[-1.4049301,50.9215467],[-1.4050281,50.9219876]]],"type":"Polygon"},"id":"E02003559","properties":{"code":"E02003559","geography":"MSOA","name":"Southampton 011"},"type":"Feature"},{"geometry":{"coordinates":[[[-1.4545497,50.9240181],[-1.458557,50.9317467],[-1.4704982,50.9315282],[-1.4773367,50.9284697],[-1.4787998,50.9254109],[-1.4787331,50.9252413],[-1.4749986,50.921212],[-1.4734641,50.9195561],[-1.4648093,50.910214],[-1.4545497,50.9240181]]],"type":"Polygon"},"id":"E02003560","properties":{"code":"E02003560","geography":"MSOA","name":"Southampton 012"},"type":"Feature"},{"geometry":{"coordinates":[[[[-1.3808343,50.9323792],[-1.3826143,50.9320102],[-1.3956437,50.9252062],[-1.395347,50.9190041],[-1.3903129,50.9198405],[-1.3892041,50.9191633],[-1.3800316,50.9212801],[-1.3808343,50.9323792]]],[[[-1.3808343,50.9323792],[-1.380578,50.9317066],[-1.380566,50.9324348],[-1.3808343,50.9323792]]]],"type":"MultiPolygon"},"id":"E02003561","properties":{"code":"E02003561","geography":"MSOA","name":"Southampton 013"},"type":"Feature"},{"geometry":{"coordinates":[[[-1.3642631,50.9254505],[-1.3715273,50.9296033],[-1.3762261,50.9273527],[-1.3805244,50.9315627],[-1.3801429,50.9305393],[-1.3769168,50.9218561],[-1.3876618,50.9170292],[-1.3855445,50.9146943],[-1.3767572,50.9163312],[-1.3721757,50.9123031],[-1.3715862,50.9123612],[-1.3765406,50.9177785],[-1.3665021,50.9160499],[-1.3642631,50.9254505]]],"type":"Polygon"},"id":"E02003562","properties":{"code":"E02003562","geography":"MSOA","name":"Southampton 014"},"type":"Feature"},{"geometry":{"coordinates":[[[-1.4311597,50.9205384],[-1.4479264,50.930888],[-1.4511794,50.9275673],[-1.445167,50.9178805],[-1.4432072,50.9198617],[-1.4327289,50.9167819],[-1.4277354,50.9178928],[-1.4311597,50.9205384]]],"type":"Polygon"},"id":"E02003563","properties":{"code":"E02003563","geography":"MSOA","name":"Southampton 015"},"type":"Feature"},{"geometry":{"coordinates":[[[-1.3473828,50.9245469],[-1.3579429,50.9307421],[-1.360837,50.9244829],[-1.3642631,50.9254505],[-1.3665021,50.9160499],[-1.3561448,50.9134943],[-1.3541042,50.9124015],[-1.3493949,50.9146015],[-1.3560448,50.9202727],[-1.346463,50.9216799],[-1.3473828,50.9245469]]],"type":"Polygon"},"id":"E02003564","properties":{"code":"E02003564","geography":"MSOA","name":"Southampton 016"},"type":"Feature"},{"geometry":{"coordinates":[[[-1.3903129,50.9198405],[-1.395347,50.9190041],[-1.3956437,50.9252062],[-1.4050281,50.9219876],[-1.4049301,50.9215467],[-1.4058486,50.9165635],[-1.3980062,50.9145814],[-1.3903129,50.9198405]]],"type":"Polygon"},"id":"E02003565","properties":{"code":"E02003565","geography":"MSOA","name":"Southampton 017"},"type":"Feature"},{"geometry":{"coordinates":[[[-1.3324285,50.9181432],[-1.3394979,50.9237218],[-1.3473828,50.9245469],[-1.346463,50.9216799],[-1.3560448,50.9202727],[-1.3493949,50.9146015],[-1.329826,50.91495],[-1.3324285,50.9181432]]],"type":"Polygon"},"id":"E02003566","properties":{"code":"E02003566","geography":"MSOA","name":"Southampton 018"},"type":"Feature"},{"geometry":{"coordinates":[[[-1.4327289,50.9167819],[-1.4432072,50.9198617],[-1.445167,50.9178805],[-1.4511794,50.9275673],[-1.4545497,50.9240181],[-1.4648093,50.910214],[-1.464766,50.9101672],[-1.4646229,50.9100127],[-1.4509885,50.9040692],[-1.4409725,50.9080917],[-1.440811,50.9080417],[-1.4436403,50.9127421],[-1.4341462,50.9121093],[-1.4327289,50.9167819]]],"type":"Polygon"},"id":"E02003567","properties":{"code":"E02003567","geography":"MSOA","name":"Southampton 019"},"type":"Feature"},{"geometry":{"coordinates":[[[-1.4049301,50.9215467],[-1.4100773,50.9225174],[-1.4153681,50.9188592],[-1.422024,50.9214223],[-1.4272641,50.9175315],[-1.4218012,50.9189564],[-1.4245232,50.9134429],[-1.4156691,50.9113912],[-1.4154229,50.9148744],[-1.4064883,50.9166464],[-1.4058486,50.9165635],[-1.4049301,50.9215467]]],"type":"Polygon"},"id":"E02003568","properties":{"code":"E02003568","geography":"MSOA","name":"Southampton 020"},"type":"Feature"},{"geometry":{"coordinates":[[[-1.4156691,50.9113912],[-1.4245232,50.9134429],[-1.4218012,50.9189564],[-1.4272641,50.9175315],[-1.4277354,50.9178928],[-1.4327289,50.9167819],[-1.4341462,50.9121093],[-1.4436403,50.9127421],[-1.440811,50.9080417],[-1.4404506,50.9079299],[-1.4324939,50.9054625],[-1.418282,50.9010533],[-1.4156691,50.9113912]]],"type":"Polygon"},"id":"E02003569","properties":{"code":"E02003569","geography":"MSOA","name":"Southampton 021"},"type":"Feature"},{"geometry":{"coordinates":[[[-1.3892041,50.9191633],[-1.3903129,50.9198405],[-1.3980062,50.9145814],[-1.4058486,50.9165635],[-1.4064883,50.9166464],[-1.4054053,50.9103539],[-1.4011893,50.9101054],[-1.3921735,50.9081854],[-1.392073,50.9047232],[-1.388289,50.9049912],[-1.3882905,50.9050385],[-1.3775254,50.9113157],[-1.3896933,50.9151739],[-1.3892834,50.9185164],[-1.3892041,50.9191633]]],"type":"Polygon"},"id":"E02003570","properties":{"code":"E02003570","geography":"MSOA","name":"Southampton 022"},"type":"Feature"},{"geometry":{"coordinates":[[[-1.4011893,50.9101054],[-1.4054053,50.9103539],[-1.4064883,50.9166464],[-1.4154229,50.9148744],[-1.4156691,50.9113912],[-1.418282,50.9010533],[-1.4182398,50.9010402],[-1.4167353,50.9005733],[-1.4096111,50.8979065],[-1.4058192,50.9004922],[-1.402235,50.8994308],[-1.3998865,50.9018108],[-1.4040965,50.9017694],[-1.4045428,50.9069153],[-1.4011893,50.9101054]]],"type":"Polygon"},"id":"E02003571","properties":{"code":"E02003571","geography":"MSOA","name":"Southampton 023"},"type":"Feature"},{"geometry":{"coordinates":[[[-1.3665021,50.9160499],[-1.3765406,50.9177785],[-1.3715862,50.9123612],[-1.3721757,50.9123031],[-1.3717972,50.9119703],[-1.3820516,50.9057069],[-1.3727851,50.9046502],[-1.3626329,50.9086286],[-1.3606862,50.9062006],[-1.3600533,50.9088262],[-1.3561448,50.9134943],[-1.3665021,50.9160499]]],"type":"Polygon"},"id":"E02003572","properties":{"code":"E02003572","geography":"MSOA","name":"Southampton 024"},"type":"Feature"},{"geometry":{"coordinates":[[[-1.3286547,50.9065979],[-1.3246509,50.9084427],[-1.329826,50.91495],[-1.3493949,50.9146015],[-1.3541042,50.9124015],[-1.3394646,50.9051935],[-1.3286547,50.9065979]]],"type":"Polygon"},"id":"E02003573","properties":{"code":"E02003573","geography":"MSOA","name":"Southampton 025"},"type":"Feature"},{"geometry":{"coordinates":[[[-1.3541042,50.9124015],[-1.3561448,50.9134943],[-1.3600533,50.9088262],[-1.3485944,50.9036492],[-1.3529429,50.901409],[-1.3442133,50.8909482],[-1.3350652,50.8973809],[-1.3405922,50.8962475],[-1.3454284,50.9009769],[-1.3370067,50.9037907],[-1.3394646,50.9051935],[-1.3541042,50.9124015]]],"type":"Polygon"},"id":"E02003574","properties":{"code":"E02003574","geography":"MSOA","name":"Southampton 026"},"type":"Feature"},{"geometry":{"coordinates":[[[-1.3350652,50.8973809],[-1.3220997,50.9009386],[-1.3286547,50.9065979],[-1.3394646,50.9051935],[-1.3370067,50.9037907],[-1.3454284,50.9009769],[-1.3405922,50.8962475],[-1.3350652,50.8973809]]],"type":"Polygon"},"id":"E02003575","properties":{"code":"E02003575","geography":"MSOA","name":"Southampton 027"},"type":"Feature"},{"geometry":{"coordinates":[[[-1.3606862,50.9062006],[-1.3626329,50.9086286],[-1.3727851,50.9046502],[-1.3820516,50.9057069],[-1.3848447,50.9040004],[-1.38253,50.8981454],[-1.3824624,50.8979744],[-1.3827364,50.8978573],[-1.3827391,50.8978007],[-1.3653618,50.8968412],[-1.3617517,50.8974881],[-1.3645747,50.9025244],[-1.3606862,50.9062006]]],"type":"Polygon"},"id":"E02003576","properties":{"code":"E02003576","geography":"MSOA","name":"Southampton 028"},"type":"Feature"},{"geometry":{"coordinates":[[[-1.3442133,50.8909482],[-1.3529429,50.901409],[-1.3485944,50.9036492],[-1.3600533,50.9088262],[-1.3606862,50.9062006],[-1.3645747,50.9025244],[-1.3617517,50.8974881],[-1.3653618,50.8968412],[-1.357937,50.8942833],[-1.349395,50.8885975],[-1.3442133,50.8909482]]],"type":"Polygon"},"id":"E02003578","properties":{"code":"E02003578","geography":"MSOA","name":"Southampton 030"},"type":"Feature"},{"geometry":{"coordinates":[[[-1.3653618,50.8968412],[-1.3827391,50.8978007],[-1.3831348,50.8893939],[-1.375155,50.8852549],[-1.3739247,50.8865401],[-1.3627014,50.8912866],[-1.3591171,50.8899182],[-1.357937,50.8942833],[-1.3653618,50.8968412]]],"type":"Polygon"},"id":"E02003579","properties":{"code":"E02003579","geography":"MSOA","name":"Southampton 031"},"type":"Feature"},{"geometry":{"coordinates":[[[-1.349395,50.8885975],[-1.357937,50.8942833],[-1.3591171,50.8899182],[-1.3627014,50.8912866],[-1.3739247,50.8865401],[-1.375155,50.8852549],[-1.3651206,50.8800485],[-1.3640178,50.8792873],[-1.349395,50.8885975]]],"type":"Polygon"},"id":"E02003580","properties":{"code":"E02003580","geography":"MSOA","name":"Southampton 032"},"type":"Feature"},{"geometry":{"coordinates":[[[-1.392073,50.9047232],[-1.3921735,50.9081854],[-1.4011893,50.9101054],[-1.4045428,50.9069153],[-1.4040965,50.9017694],[-1.3998865,50.9018108],[-1.402235,50.8994308],[-1.3939943,50.8978509],[-1.392073,50.9047232]]],"type":"Polygon"},"id":"E02007074","properties":{"code":"E02007074","geography":"MSOA","name":"Southampton 033"},"type":"Feature"},{"geometry":{"coordinates":[[[-1.4096111,50.8979065],[-1.4035505,50.8956373],[-1.4008306,50.8902944],[-1.3990313,50.8945575],[-1.399498,50.8883416],[-1.3932798,50.883065],[-1.3963995,50.8925692],[-1.392673,50.8884124],[-1.3884019,50.8941921],[-1.3928702,50.894897],[-1.3880029,50.8954525],[-1.388289,50.9049912],[-1.392073,50.9047232],[-1.3939943,50.8978509],[-1.402235,50.8994308],[-1.4058192,50.9004922],[-1.4096111,50.8979065]]],"type":"Polygon"},"id":"E02007075","properties":{"code":"E02007075","geography":"MSOA","name":"Southampton 034"},"type":"Feature"}],"type":"FeatureCollection"}
