{"features":[{"geometry":{"coordinates":[[[-2.1812064,53.08978],[-2.1986152,53.0927023],[-2.2013706,53.0866829],[-2.215879,53.0852931],[-2.2091831,53.0817285],[-2.2014766,53.0673512],[-2.1951475,53.0714621],[-2.1841687,53.0738885],[-2.1802406,53.0832698],[-2.1673459,53.0832319],[-2.1776261,53.091172],[-2.1812064,53.08978]]],"type":"Polygon"},"id":"E02002951","properties":{"code":"E02002951","geography":"MSOA","name":"Stoke-on-Trent 001"},"type":"Feature"},{"geometry":{"coordinates":[[[-2.2014766,53.0673512],[-2.2091831,53.0817285],[-2.215879,53.0852931],[-2.2387613,53.0733221],[-2.2341396,53.0643762],[-2.2279172,53.0637137],[-2.2249052,53.0563397],[-2.2237261,53.0619842],[-2.2173751,53.0631133],[-2.2148424,53.0674378],[-2.2115232,53.0623455],[-2.2015443,53.0650092],[-2.2014766,53.0673512]]],"type":"Polygon"},"id":"E02002952","properties":{"code":"E02002952","geography":"MSOA","name":"Stoke-on-Trent 002"},"type":"Feature"},{"geometry":{"coordinates":[[[-2.1731568,53.054963],[-2.1772077,53.0694433],[-2.1841687,53.0738885],[-2.1951475,53.0714621],[-2.191431,53.0638539],[-2.1817849,53.064268],[-2.1851382,53.0595654],[-2.1822834,53.0538434],[-2.1731568,53.054963]]],"type":"Polygon"},"id":"E02002953","properties":{"code":"E02002953","geography":"MSOA","name":"Stoke-on-Trent 003"},"type":"Feature"},{"geometry":{"coordinates":[[[-2.1673459,53.0832319],[-2.1802406,53.0832698],[-2.1841687,53.0738885],[-2.1772077,53.0694433],[-2.1731568,53.054963],[-2.1646875,53.0561103],[-2.159623,53.053802],[-2.1556744,53.0502624],[-2.1425692,53.0614169],[-2.1272328,53.0653827],[-2.139158,53.0652284],[-2.1401742,53.0686711],[-2.1480239,53.0703501],[-2.1611502,53.0701048],[-2.1673459,53.0832319]]],"type":"Polygon"},"id":"E02002954","properties":{"code":"E02002954","geography":"MSOA","name":"Stoke-on-Trent 004"},"type":"Feature"},{"geometry":{"coordinates":[[[-2.2015443,53.0650092],[-2.2115232,53.0623455],[-2.2148424,53.0674378],[-2.2173751,53.0631133],[-2.2237261,53.0619842],[-2.2249052,53.0563397],[-2.2206656,53.0464985],[-2.2196285,53.0449458],[-2.2087922,53.0487884],[-2.202537,53.0552068],[-2.2015443,53.0650092]]],"type":"Polygon"},"id":"E02002955","properties":{"code":"E02002955","geography":"MSOA","name":"Stoke-on-Trent 005"},"type":"Feature"},{"geometry":{"coordinates":[[[-2.1822834,53.0538434],[-2.1851382,53.0595654],[-2.1817849,53.064268],[-2.191431,53.0638539],[-2.1951475,53.0714621],[-2.2014766,53.0673512],[-2.2015443,53.0650092],[-2.202537,53.0552068],[-2.1975271,53.0503341],[-2.1895502,53.0538647],[-2.1853647,53.0491469],[-2.1900094,53.0499346],[-2.1886729,53.0471742],[-2.1794824,53.0487223],[-2.1822834,53.0538434]]],"type":"Polygon"},"id":"E02002956","properties":{"code":"E02002956","geography":"MSOA","name":"Stoke-on-Trent 006"},"type":"Feature"},{"geometry":{"coordinates":[[[-2.1317778,53.0473174],[-2.1165844,53.0480158],[-2.1274384,53.0537217],[-2.1272328,53.0653827],[-2.1425692,53.0614169],[-2.1556744,53.0502624],[-2.159623,53.053802],[-2.1611005,53.0499296],[-2.1548582,53.0463539],[-2.152171,53.0478587],[-2.1514198,53.043461],[-2.1493379,53.0388864],[-2.1434146,53.0400877],[-2.1380113,53.0492948],[-2.1317778,53.0473174]]],"type":"Polygon"},"id":"E02002957","properties":{"code":"E02002957","geography":"MSOA","name":"Stoke-on-Trent 007"},"type":"Feature"},{"geometry":{"coordinates":[[[-2.159623,53.053802],[-2.1646875,53.0561103],[-2.1731568,53.054963],[-2.1822834,53.0538434],[-2.1794824,53.0487223],[-2.1696074,53.0399783],[-2.1582271,53.045018],[-2.1514198,53.043461],[-2.152171,53.0478587],[-2.1548582,53.0463539],[-2.1611005,53.0499296],[-2.159623,53.053802]]],"type":"Polygon"},"id":"E02002958","properties":{"code":"E02002958","geography":"MSOA","name":"Stoke-on-Trent 008"},"type":"Feature"},{"geometry":{"coordinates":[[[-2.1886729,53.0471742],[-2.1900094,53.0499346],[-2.1853647,53.0491469],[-2.1895502,53.0538647],[-2.1975271,53.0503341],[-2.202537,53.0552068],[-2.2087922,53.0487884],[-2.2196285,53.0449458],[-2.215012,53.0404503],[-2.2083295,53.0344491],[-2.2005946,53.0359431],[-2.1909021,53.0326742],[-2.1858598,53.0355047],[-2.1952841,53.0452877],[-2.1886729,53.0471742]]],"type":"Polygon"},"id":"E02002959","properties":{"code":"E02002959","geography":"MSOA","name":"Stoke-on-Trent 009"},"type":"Feature"},{"geometry":{"coordinates":[[[-2.1514198,53.043461],[-2.1582271,53.045018],[-2.1696074,53.0399783],[-2.1697685,53.0368946],[-2.1571171,53.0340764],[-2.1573642,53.0303289],[-2.1469956,53.033865],[-2.1493379,53.0388864],[-2.1514198,53.043461]]],"type":"Polygon"},"id":"E02002960","properties":{"code":"E02002960","geography":"MSOA","name":"Stoke-on-Trent 010"},"type":"Feature"},{"geometry":{"coordinates":[[[-2.1696074,53.0399783],[-2.1794824,53.0487223],[-2.1886729,53.0471742],[-2.1952841,53.0452877],[-2.1858598,53.0355047],[-2.1909021,53.0326742],[-2.186917,53.0288921],[-2.1799837,53.029802],[-2.1697632,53.0328197],[-2.1697685,53.0368946],[-2.1696074,53.0399783]]],"type":"Polygon"},"id":"E02002961","properties":{"code":"E02002961","geography":"MSOA","name":"Stoke-on-Trent 011"},"type":"Feature"},{"geometry":{"coordinates":[[[-2.1317778,53.0473174],[-2.1380113,53.0492948],[-2.1434146,53.0400877],[-2.1493379,53.0388864],[-2.1469956,53.033865],[-2.1573642,53.0303289],[-2.1577552,53.0240581],[-2.1560384,53.0235267],[-2.1513752,53.0276547],[-2.1383948,53.0253327],[-2.1255728,53.0329912],[-2.1291682,53.0355999],[-2.1265093,53.0401186],[-2.1317778,53.0473174]]],"type":"Polygon"},"id":"E02002962","properties":{"code":"E02002962","geography":"MSOA","name":"Stoke-on-Trent 012"},"type":"Feature"},{"geometry":{"coordinates":[[[-2.1573642,53.0303289],[-2.1571171,53.0340764],[-2.1697685,53.0368946],[-2.1697632,53.0328197],[-2.1799837,53.029802],[-2.1716408,53.0255866],[-2.1577552,53.0240581],[-2.1573642,53.0303289]]],"type":"Polygon"},"id":"E02002963","properties":{"code":"E02002963","geography":"MSOA","name":"Stoke-on-Trent 013"},"type":"Feature"},{"geometry":{"coordinates":[[[-2.1236135,53.02151],[-2.118804,53.0264282],[-2.1255728,53.0329912],[-2.1383948,53.0253327],[-2.1513752,53.0276547],[-2.1560384,53.0235267],[-2.1586127,53.0188154],[-2.1498509,53.0200795],[-2.1561461,53.0156144],[-2.1472647,53.0134212],[-2.1478801,53.0073513],[-2.1415444,53.0030548],[-2.1339845,53.0045597],[-2.1305731,53.0096957],[-2.1377109,53.0123828],[-2.1410673,53.0188106],[-2.1236135,53.02151]]],"type":"Polygon"},"id":"E02002964","properties":{"code":"E02002964","geography":"MSOA","name":"Stoke-on-Trent 014"},"type":"Feature"},{"geometry":{"coordinates":[[[-2.1909021,53.0326742],[-2.2005946,53.0359431],[-2.2083295,53.0344491],[-2.2057415,53.0257861],[-2.2025534,53.0200068],[-2.1946323,53.0146818],[-2.1887436,53.0163188],[-2.1801563,53.0124529],[-2.1789347,53.0173936],[-2.1707846,53.0162928],[-2.1716408,53.0255866],[-2.1799837,53.029802],[-2.186917,53.0288921],[-2.1909021,53.0326742]]],"type":"Polygon"},"id":"E02002965","properties":{"code":"E02002965","geography":"MSOA","name":"Stoke-on-Trent 015"},"type":"Feature"},{"geometry":{"coordinates":[[[-2.1577552,53.0240581],[-2.1716408,53.0255866],[-2.1707846,53.0162928],[-2.1789347,53.0173936],[-2.1801563,53.0124529],[-2.1887436,53.0163188],[-2.1946323,53.0146818],[-2.1869851,53.0113219],[-2.1770883,53.0034513],[-2.1651465,53.0083365],[-2.1591974,53.0046721],[-2.1523054,53.0073654],[-2.1478801,53.0073513],[-2.1472647,53.0134212],[-2.1561461,53.0156144],[-2.1498509,53.0200795],[-2.1586127,53.0188154],[-2.1560384,53.0235267],[-2.1577552,53.0240581]]],"type":"Polygon"},"id":"E02002966","properties":{"code":"E02002966","geography":"MSOA","name":"Stoke-on-Trent 016"},"type":"Feature"},{"geometry":{"coordinates":[[[-2.1209695,53.0202772],[-2.1236135,53.02151],[-2.1410673,53.0188106],[-2.1377109,53.0123828],[-2.1305731,53.0096957],[-2.1339845,53.0045597],[-2.1240786,53.000079],[-2.1192357,53.0009144],[-2.1135334,52.9964928],[-2.106572,53.0003649],[-2.103468,53.0108414],[-2.1149536,53.013875],[-2.1209695,53.0202772]]],"type":"Polygon"},"id":"E02002967","properties":{"code":"E02002967","geography":"MSOA","name":"Stoke-on-Trent 017"},"type":"Feature"},{"geometry":{"coordinates":[[[-2.1946323,53.0146818],[-2.2025534,53.0200068],[-2.2136547,53.0159462],[-2.215711,53.0110186],[-2.2114973,53.0070173],[-2.2159632,53.0024404],[-2.2124607,52.999134],[-2.2011772,53.0007646],[-2.1910739,53.003984],[-2.1950806,53.0068952],[-2.1875133,53.0076177],[-2.1869851,53.0113219],[-2.1946323,53.0146818]]],"type":"Polygon"},"id":"E02002968","properties":{"code":"E02002968","geography":"MSOA","name":"Stoke-on-Trent 018"},"type":"Feature"},{"geometry":{"coordinates":[[[-2.1770883,53.0034513],[-2.1869851,53.0113219],[-2.1875133,53.0076177],[-2.1950806,53.0068952],[-2.1910739,53.003984],[-2.2011772,53.0007646],[-2.1891356,52.9928379],[-2.1817399,52.9944089],[-2.1797864,52.9979421],[-2.1763618,52.996816],[-2.1770883,53.0034513]]],"type":"Polygon"},"id":"E02002969","properties":{"code":"E02002969","geography":"MSOA","name":"Stoke-on-Trent 019"},"type":"Feature"},{"geometry":{"coordinates":[[[-2.1523054,53.0073654],[-2.1591974,53.0046721],[-2.1651465,53.0083365],[-2.1770883,53.0034513],[-2.1763618,52.996816],[-2.1787718,52.9901248],[-2.1544491,52.9913368],[-2.1511749,52.9913386],[-2.1457046,52.9980997],[-2.1523054,53.0073654]]],"type":"Polygon"},"id":"E02002970","properties":{"code":"E02002970","geography":"MSOA","name":"Stoke-on-Trent 020"},"type":"Feature"},{"geometry":{"coordinates":[[[-2.2011772,53.0007646],[-2.2124607,52.999134],[-2.2159632,53.0024404],[-2.2171703,53.0016529],[-2.2101173,52.9845735],[-2.2043408,52.9813812],[-2.189225,52.9869219],[-2.1767034,52.9813629],[-2.1787718,52.9901248],[-2.1763618,52.996816],[-2.1797864,52.9979421],[-2.1817399,52.9944089],[-2.1891356,52.9928379],[-2.2011772,53.0007646]]],"type":"Polygon"},"id":"E02002973","properties":{"code":"E02002973","geography":"MSOA","name":"Stoke-on-Trent 023"},"type":"Feature"},{"geometry":{"coordinates":[[[-2.0915567,52.9871796],[-2.0885734,52.9971211],[-2.0950787,52.9987403],[-2.1011966,52.9955753],[-2.1063161,52.9917146],[-2.1039623,52.9898746],[-2.114119,52.9904391],[-2.1104818,52.9839153],[-2.1137989,52.9808297],[-2.1109381,52.9799869],[-2.1081498,52.97911],[-2.1080458,52.9815888],[-2.0915567,52.9871796]]],"type":"Polygon"},"id":"E02002974","properties":{"code":"E02002974","geography":"MSOA","name":"Stoke-on-Trent 024"},"type":"Feature"},{"geometry":{"coordinates":[[[-2.1011966,52.9955753],[-2.106572,53.0003649],[-2.1135334,52.9964928],[-2.1164837,52.9948221],[-2.1228708,52.9980057],[-2.1255589,52.9965079],[-2.121243,52.9929167],[-2.1298625,52.9920309],[-2.1155358,52.9814211],[-2.1137989,52.9808297],[-2.1104818,52.9839153],[-2.114119,52.9904391],[-2.1039623,52.9898746],[-2.1063161,52.9917146],[-2.1011966,52.9955753]]],"type":"Polygon"},"id":"E02002975","properties":{"code":"E02002975","geography":"MSOA","name":"Stoke-on-Trent 025"},"type":"Feature"},{"geometry":{"coordinates":[[[-2.1457999,52.9761205],[-2.1422663,52.9777665],[-2.1451204,52.9804787],[-2.1572345,52.9822799],[-2.1544491,52.9913368],[-2.1787718,52.9901248],[-2.1767034,52.9813629],[-2.1765103,52.9801941],[-2.1687056,52.9753631],[-2.1632701,52.9788999],[-2.1457999,52.9761205]]],"type":"Polygon"},"id":"E02002976","properties":{"code":"E02002976","geography":"MSOA","name":"Stoke-on-Trent 026"},"type":"Feature"},{"geometry":{"coordinates":[[[-2.1511749,52.9913386],[-2.1544491,52.9913368],[-2.1572345,52.9822799],[-2.1451204,52.9804787],[-2.1422663,52.9777665],[-2.1457999,52.9761205],[-2.1457107,52.9760937],[-2.133866,52.9737],[-2.1337565,52.9737364],[-2.1363958,52.9760032],[-2.1306001,52.9785151],[-2.1359134,52.9798213],[-2.13766,52.9861728],[-2.1511749,52.9913386]]],"type":"Polygon"},"id":"E02002977","properties":{"code":"E02002977","geography":"MSOA","name":"Stoke-on-Trent 027"},"type":"Feature"},{"geometry":{"coordinates":[[[-2.0842137,52.9750053],[-2.0792402,52.9744822],[-2.0915567,52.9871796],[-2.1080458,52.9815888],[-2.1081498,52.97911],[-2.0976845,52.97606],[-2.0842137,52.9750053]]],"type":"Polygon"},"id":"E02002978","properties":{"code":"E02002978","geography":"MSOA","name":"Stoke-on-Trent 028"},"type":"Feature"},{"geometry":{"coordinates":[[[-2.1155358,52.9814211],[-2.13766,52.9861728],[-2.1359134,52.9798213],[-2.1306001,52.9785151],[-2.1363958,52.9760032],[-2.1337565,52.9737364],[-2.1217256,52.9765839],[-2.1193372,52.9808715],[-2.1109381,52.9799869],[-2.1137989,52.9808297],[-2.1155358,52.9814211]]],"type":"Polygon"},"id":"E02002979","properties":{"code":"E02002979","geography":"MSOA","name":"Stoke-on-Trent 029"},"type":"Feature"},{"geometry":{"coordinates":[[[-2.1767034,52.9813629],[-2.189225,52.9869219],[-2.2043408,52.9813812],[-2.2125142,52.9805623],[-2.1947174,52.961918],[-2.1859676,52.9632649],[-2.1883969,52.9675875],[-2.1838259,52.9696053],[-2.1891561,52.9704197],[-2.1758372,52.9765531],[-2.1765103,52.9801941],[-2.1767034,52.9813629]]],"type":"Polygon"},"id":"E02002980","properties":{"code":"E02002980","geography":"MSOA","name":"Stoke-on-Trent 030"},"type":"Feature"},{"geometry":{"coordinates":[[[-2.1109381,52.9799869],[-2.1193372,52.9808715],[-2.1217256,52.9765839],[-2.1337565,52.9737364],[-2.133866,52.9737],[-2.1216578,52.9560695],[-2.1101844,52.9578426],[-2.1086329,52.9623454],[-2.1076031,52.9657767],[-2.1141047,52.9695429],[-2.1109497,52.9718359],[-2.1092549,52.9681973],[-2.1010882,52.9694327],[-2.1014684,52.9723441],[-2.0962466,52.9726755],[-2.0976845,52.97606],[-2.1081498,52.97911],[-2.1109381,52.9799869]]],"type":"Polygon"},"id":"E02002981","properties":{"code":"E02002981","geography":"MSOA","name":"Stoke-on-Trent 031"},"type":"Feature"},{"geometry":{"coordinates":[[[-2.1457999,52.9761205],[-2.1632701,52.9788999],[-2.1687056,52.9753631],[-2.1765103,52.9801941],[-2.1758372,52.9765531],[-2.1722138,52.9549298],[-2.1711208,52.9517125],[-2.1625957,52.9533493],[-2.1594998,52.9636026],[-2.1509857,52.9641037],[-2.15157,52.9711192],[-2.1457107,52.9760937],[-2.1457999,52.9761205]]],"type":"Polygon"},"id":"E02002982","properties":{"code":"E02002982","geography":"MSOA","name":"Stoke-on-Trent 032"},"type":"Feature"},{"geometry":{"coordinates":[[[-2.0842137,52.9750053],[-2.0976845,52.97606],[-2.0962466,52.9726755],[-2.1014684,52.9723441],[-2.1010882,52.9694327],[-2.1092549,52.9681973],[-2.1109497,52.9718359],[-2.1141047,52.9695429],[-2.1076031,52.9657767],[-2.1086329,52.9623454],[-2.1030092,52.9633949],[-2.0999943,52.9607274],[-2.08122,52.9668878],[-2.0881291,52.9738341],[-2.0842137,52.9750053]]],"type":"Polygon"},"id":"E02002983","properties":{"code":"E02002983","geography":"MSOA","name":"Stoke-on-Trent 033"},"type":"Feature"},{"geometry":{"coordinates":[[[-2.1722138,52.9549298],[-2.1758372,52.9765531],[-2.1891561,52.9704197],[-2.1838259,52.9696053],[-2.1883969,52.9675875],[-2.1859676,52.9632649],[-2.1947174,52.961918],[-2.1912547,52.9500713],[-2.1859982,52.9509901],[-2.18161,52.9461903],[-2.1745399,52.9472157],[-2.176899,52.9536908],[-2.1722138,52.9549298]]],"type":"Polygon"},"id":"E02002984","properties":{"code":"E02002984","geography":"MSOA","name":"Stoke-on-Trent 034"},"type":"Feature"},{"geometry":{"coordinates":[[[-2.1478801,53.0073513],[-2.1523054,53.0073654],[-2.1457046,52.9980997],[-2.1511749,52.9913386],[-2.13766,52.9861728],[-2.1155358,52.9814211],[-2.1298625,52.9920309],[-2.121243,52.9929167],[-2.1255589,52.9965079],[-2.1228708,52.9980057],[-2.1164837,52.9948221],[-2.1135334,52.9964928],[-2.1192357,53.0009144],[-2.1240786,53.000079],[-2.1339845,53.0045597],[-2.1415444,53.0030548],[-2.1478801,53.0073513]]],"type":"Polygon"},"id":"E02006974","properties":{"code":"E02006974","geography":"MSOA","name":"Stoke-on-Trent 035"},"type":"Feature"}],"type":"FeatureCollection"}
