{"features":[{"geometry":{"coordinates":[[[-1.1667879,53.0106047],[-1.167776,53.0142529],[-1.1844853,53.0144268],[-1.1861074,53.011735],[-1.1820293,53.0058802],[-1.1782995,53.008059],[-1.1750318,53.0064255],[-1.1807486,53.0036335],[-1.1749676,52.9979107],[-1.1663994,52.9988784],[-1.1668584,53.0023842],[-1.1667879,53.0106047]]],"type":"Polygon"},"id":"E02002868","properties":{"code":"E02002868","geography":"MSOA","name":"Nottingham 001"},"type":"Feature"},{"geometry":{"coordinates":[[[-1.1844853,53.0144268],[-1.1827499,53.0185492],[-1.1951892,53.0154326],[-1.2030265,53.0183159],[-1.2101633,53.0180255],[-1.2170822,53.0106092],[-1.2101828,53.0079357],[-1.2138946,53.0058797],[-1.2055136,53.0005371],[-1.1981067,53.0013696],[-1.1957694,52.9968558],[-1.1861074,53.011735],[-1.1844853,53.0144268]]],"type":"Polygon"},"id":"E02002869","properties":{"code":"E02002869","geography":"MSOA","name":"Nottingham 002"},"type":"Feature"},{"geometry":{"coordinates":[[[-1.1749676,52.9979107],[-1.1807486,53.0036335],[-1.1750318,53.0064255],[-1.1782995,53.008059],[-1.1820293,53.0058802],[-1.1861074,53.011735],[-1.1957694,52.9968558],[-1.1907591,52.9905853],[-1.1867204,52.9916578],[-1.1788333,52.9959751],[-1.1749676,52.9979107]]],"type":"Polygon"},"id":"E02002871","properties":{"code":"E02002871","geography":"MSOA","name":"Nottingham 004"},"type":"Feature"},{"geometry":{"coordinates":[[[-1.1957694,52.9968558],[-1.1981067,53.0013696],[-1.2055136,53.0005371],[-1.2138946,53.0058797],[-1.2101828,53.0079357],[-1.2170822,53.0106092],[-1.2251502,53.0080768],[-1.2187037,53.006466],[-1.2205996,53.0033871],[-1.21394,52.9973769],[-1.219111,52.9914793],[-1.2033551,52.98751],[-1.1992822,52.9911028],[-1.1907591,52.9905853],[-1.1957694,52.9968558]]],"type":"Polygon"},"id":"E02002872","properties":{"code":"E02002872","geography":"MSOA","name":"Nottingham 005"},"type":"Feature"},{"geometry":{"coordinates":[[[-1.1498156,53.0000752],[-1.1547317,52.9974195],[-1.1498522,53.0011312],[-1.1525722,53.0032866],[-1.157185,52.9988744],[-1.1668584,53.0023842],[-1.1663994,52.9988784],[-1.1749676,52.9979107],[-1.1788333,52.9959751],[-1.1653672,52.9897078],[-1.1523041,52.9937702],[-1.1523872,52.996621],[-1.1498156,53.0000752]]],"type":"Polygon"},"id":"E02002873","properties":{"code":"E02002873","geography":"MSOA","name":"Nottingham 006"},"type":"Feature"},{"geometry":{"coordinates":[[[-1.1382579,52.9948236],[-1.1460959,52.9983579],[-1.1523872,52.996621],[-1.1523041,52.9937702],[-1.1653672,52.9897078],[-1.159455,52.986916],[-1.1577966,52.9818684],[-1.1460055,52.9828557],[-1.1424486,52.986251],[-1.1382579,52.9948236]]],"type":"Polygon"},"id":"E02002874","properties":{"code":"E02002874","geography":"MSOA","name":"Nottingham 007"},"type":"Feature"},{"geometry":{"coordinates":[[[-1.1653672,52.9897078],[-1.1788333,52.9959751],[-1.1867204,52.9916578],[-1.1753032,52.9796426],[-1.1717626,52.9841602],[-1.159455,52.986916],[-1.1653672,52.9897078]]],"type":"Polygon"},"id":"E02002875","properties":{"code":"E02002875","geography":"MSOA","name":"Nottingham 008"},"type":"Feature"},{"geometry":{"coordinates":[[[-1.1753032,52.9796426],[-1.1867204,52.9916578],[-1.1907591,52.9905853],[-1.1992822,52.9911028],[-1.2033551,52.98751],[-1.2036147,52.9870047],[-1.1954811,52.9822434],[-1.1905752,52.9773758],[-1.1857124,52.9729004],[-1.1746365,52.9715057],[-1.1740663,52.9738055],[-1.1753032,52.9796426]]],"type":"Polygon"},"id":"E02002876","properties":{"code":"E02002876","geography":"MSOA","name":"Nottingham 009"},"type":"Feature"},{"geometry":{"coordinates":[[[-1.1227898,52.9834462],[-1.1424486,52.986251],[-1.1460055,52.9828557],[-1.1577966,52.9818684],[-1.157086,52.9793144],[-1.1510761,52.9786775],[-1.1538573,52.9767866],[-1.1503209,52.9754142],[-1.1485891,52.9779735],[-1.1333342,52.9788641],[-1.1286718,52.9811224],[-1.1295557,52.9788003],[-1.124322,52.9786667],[-1.1227898,52.9834462]]],"type":"Polygon"},"id":"E02002877","properties":{"code":"E02002877","geography":"MSOA","name":"Nottingham 010"},"type":"Feature"},{"geometry":{"coordinates":[[[-1.1954811,52.9822434],[-1.2036147,52.9870047],[-1.2150538,52.9831245],[-1.2225319,52.9860081],[-1.2260918,52.9811466],[-1.2236424,52.9744594],[-1.2159179,52.9738256],[-1.2157852,52.9738143],[-1.20688,52.9804111],[-1.1954811,52.9822434]]],"type":"Polygon"},"id":"E02002878","properties":{"code":"E02002878","geography":"MSOA","name":"Nottingham 011"},"type":"Feature"},{"geometry":{"coordinates":[[[-1.1577966,52.9818684],[-1.159455,52.986916],[-1.1717626,52.9841602],[-1.1753032,52.9796426],[-1.1740663,52.9738055],[-1.1675395,52.9722594],[-1.1559559,52.9752992],[-1.157086,52.9793144],[-1.1577966,52.9818684]]],"type":"Polygon"},"id":"E02002879","properties":{"code":"E02002879","geography":"MSOA","name":"Nottingham 012"},"type":"Feature"},{"geometry":{"coordinates":[[[-1.1905752,52.9773758],[-1.1954811,52.9822434],[-1.20688,52.9804111],[-1.2157852,52.9738143],[-1.198277,52.9710074],[-1.1905752,52.9773758]]],"type":"Polygon"},"id":"E02002880","properties":{"code":"E02002880","geography":"MSOA","name":"Nottingham 013"},"type":"Feature"},{"geometry":{"coordinates":[[[-1.2260918,52.9811466],[-1.2468408,52.9845237],[-1.2333115,52.9692076],[-1.2266049,52.9677633],[-1.2213778,52.9701136],[-1.2210104,52.9665529],[-1.2160735,52.9670239],[-1.2108227,52.9689168],[-1.2159179,52.9738256],[-1.2236424,52.9744594],[-1.2260918,52.9811466]]],"type":"Polygon"},"id":"E02002881","properties":{"code":"E02002881","geography":"MSOA","name":"Nottingham 014"},"type":"Feature"},{"geometry":{"coordinates":[[[-1.1333342,52.9788641],[-1.1485891,52.9779735],[-1.1503209,52.9754142],[-1.1538573,52.9767866],[-1.1510761,52.9786775],[-1.157086,52.9793144],[-1.1559559,52.9752992],[-1.154149,52.9680833],[-1.1526641,52.9647787],[-1.1447185,52.9646546],[-1.1429741,52.9682286],[-1.1386174,52.9656514],[-1.1309212,52.9674118],[-1.1304105,52.9719316],[-1.1372391,52.9730094],[-1.1320609,52.9759037],[-1.1333342,52.9788641]]],"type":"Polygon"},"id":"E02002882","properties":{"code":"E02002882","geography":"MSOA","name":"Nottingham 015"},"type":"Feature"},{"geometry":{"coordinates":[[[-1.124322,52.9786667],[-1.1295557,52.9788003],[-1.1286718,52.9811224],[-1.1333342,52.9788641],[-1.1320609,52.9759037],[-1.1372391,52.9730094],[-1.1304105,52.9719316],[-1.1309212,52.9674118],[-1.1206696,52.9618245],[-1.1152538,52.9648734],[-1.1204605,52.9737534],[-1.124322,52.9786667]]],"type":"Polygon"},"id":"E02002883","properties":{"code":"E02002883","geography":"MSOA","name":"Nottingham 016"},"type":"Feature"},{"geometry":{"coordinates":[[[-1.154149,52.9680833],[-1.1559559,52.9752992],[-1.1675395,52.9722594],[-1.1659994,52.9661625],[-1.154149,52.9680833]]],"type":"Polygon"},"id":"E02002884","properties":{"code":"E02002884","geography":"MSOA","name":"Nottingham 017"},"type":"Feature"},{"geometry":{"coordinates":[[[-1.1675395,52.9722594],[-1.1740663,52.9738055],[-1.1746365,52.9715057],[-1.1808315,52.9650342],[-1.1706444,52.9615035],[-1.1659994,52.9661625],[-1.1675395,52.9722594]]],"type":"Polygon"},"id":"E02002885","properties":{"code":"E02002885","geography":"MSOA","name":"Nottingham 018"},"type":"Feature"},{"geometry":{"coordinates":[[[-1.1746365,52.9715057],[-1.1857124,52.9729004],[-1.1905752,52.9773758],[-1.198277,52.9710074],[-1.1978774,52.959817],[-1.1935227,52.9596627],[-1.192254,52.9551211],[-1.1843856,52.9555015],[-1.1831002,52.9667601],[-1.1808315,52.9650342],[-1.1746365,52.9715057]]],"type":"Polygon"},"id":"E02002886","properties":{"code":"E02002886","geography":"MSOA","name":"Nottingham 019"},"type":"Feature"},{"geometry":{"coordinates":[[[-1.2157852,52.9738143],[-1.2159179,52.9738256],[-1.2108227,52.9689168],[-1.2160735,52.9670239],[-1.2210104,52.9665529],[-1.2213778,52.9701136],[-1.2266049,52.9677633],[-1.2333115,52.9692076],[-1.2326635,52.9683876],[-1.2289965,52.9657288],[-1.2324049,52.9629492],[-1.2284852,52.9645997],[-1.2181793,52.9601897],[-1.1978774,52.959817],[-1.198277,52.9710074],[-1.2157852,52.9738143]]],"type":"Polygon"},"id":"E02002887","properties":{"code":"E02002887","geography":"MSOA","name":"Nottingham 020"},"type":"Feature"},{"geometry":{"coordinates":[[[-1.1206696,52.9618245],[-1.1309212,52.9674118],[-1.1386174,52.9656514],[-1.1419533,52.9645624],[-1.1353213,52.9597556],[-1.137221,52.9572006],[-1.1309361,52.9567352],[-1.1205849,52.9568651],[-1.1206696,52.9618245]]],"type":"Polygon"},"id":"E02002888","properties":{"code":"E02002888","geography":"MSOA","name":"Nottingham 021"},"type":"Feature"},{"geometry":{"coordinates":[[[-1.1526641,52.9647787],[-1.154149,52.9680833],[-1.1659994,52.9661625],[-1.1706444,52.9615035],[-1.167035,52.9586644],[-1.1552153,52.9542199],[-1.1508277,52.954996],[-1.1526641,52.9647787]]],"type":"Polygon"},"id":"E02002889","properties":{"code":"E02002889","geography":"MSOA","name":"Nottingham 022"},"type":"Feature"},{"geometry":{"coordinates":[[[-1.1386174,52.9656514],[-1.1429741,52.9682286],[-1.1447185,52.9646546],[-1.1526641,52.9647787],[-1.1508277,52.954996],[-1.1385466,52.9529459],[-1.1309361,52.9567352],[-1.137221,52.9572006],[-1.1353213,52.9597556],[-1.1419533,52.9645624],[-1.1386174,52.9656514]]],"type":"Polygon"},"id":"E02002890","properties":{"code":"E02002890","geography":"MSOA","name":"Nottingham 023"},"type":"Feature"},{"geometry":{"coordinates":[[[-1.0945855,52.9567035],[-1.101499,52.9589172],[-1.1040616,52.9640625],[-1.1152538,52.9648734],[-1.1206696,52.9618245],[-1.1205849,52.9568651],[-1.1240677,52.9532121],[-1.1192373,52.953436],[-1.1189303,52.9503412],[-1.1232136,52.9468682],[-1.1017976,52.9526442],[-1.0936018,52.9497886],[-1.0881295,52.9515747],[-1.0968789,52.9555005],[-1.0945855,52.9567035]]],"type":"Polygon"},"id":"E02002891","properties":{"code":"E02002891","geography":"MSOA","name":"Nottingham 024"},"type":"Feature"},{"geometry":{"coordinates":[[[-1.2181793,52.9601897],[-1.2284852,52.9645997],[-1.2324049,52.9629492],[-1.2289965,52.9657288],[-1.2326635,52.9683876],[-1.2391689,52.9653783],[-1.2468256,52.9530795],[-1.2450745,52.9503732],[-1.226027,52.958439],[-1.2181793,52.9601897]]],"type":"Polygon"},"id":"E02002892","properties":{"code":"E02002892","geography":"MSOA","name":"Nottingham 025"},"type":"Feature"},{"geometry":{"coordinates":[[[-1.1808315,52.9650342],[-1.1831002,52.9667601],[-1.1843856,52.9555015],[-1.1788824,52.9490613],[-1.1717003,52.9523579],[-1.1751553,52.9552594],[-1.167035,52.9586644],[-1.1706444,52.9615035],[-1.1808315,52.9650342]]],"type":"Polygon"},"id":"E02002893","properties":{"code":"E02002893","geography":"MSOA","name":"Nottingham 026"},"type":"Feature"},{"geometry":{"coordinates":[[[-1.1552153,52.9542199],[-1.167035,52.9586644],[-1.1751553,52.9552594],[-1.1717003,52.9523579],[-1.1689338,52.9539516],[-1.1643108,52.9469937],[-1.1515327,52.947963],[-1.1552153,52.9542199]]],"type":"Polygon"},"id":"E02002895","properties":{"code":"E02002895","geography":"MSOA","name":"Nottingham 028"},"type":"Feature"},{"geometry":{"coordinates":[[[-1.0881295,52.9515747],[-1.0936018,52.9497886],[-1.1017976,52.9526442],[-1.1232136,52.9468682],[-1.1189303,52.9503412],[-1.1192373,52.953436],[-1.1240677,52.9532121],[-1.1205849,52.9568651],[-1.1309361,52.9567352],[-1.1385466,52.9529459],[-1.1302118,52.9465361],[-1.1317635,52.9427958],[-1.1315851,52.9428424],[-1.1150037,52.9438894],[-1.0996801,52.9419542],[-1.086119,52.9485494],[-1.0881295,52.9515747]]],"type":"Polygon"},"id":"E02002896","properties":{"code":"E02002896","geography":"MSOA","name":"Nottingham 029"},"type":"Feature"},{"geometry":{"coordinates":[[[-1.21713,52.9389118],[-1.2046965,52.9425941],[-1.2143376,52.9442867],[-1.2171636,52.9482053],[-1.213515,52.9501971],[-1.2211796,52.9532426],[-1.2167764,52.9545789],[-1.2234388,52.9548376],[-1.226027,52.958439],[-1.2450745,52.9503732],[-1.2324314,52.9420281],[-1.2242641,52.9424427],[-1.21713,52.9389118]]],"type":"Polygon"},"id":"E02002897","properties":{"code":"E02002897","geography":"MSOA","name":"Nottingham 030"},"type":"Feature"},{"geometry":{"coordinates":[[[-1.1643108,52.9469937],[-1.1689338,52.9539516],[-1.1717003,52.9523579],[-1.1788824,52.9490613],[-1.1903847,52.9445225],[-1.1865828,52.9379805],[-1.2031158,52.9322699],[-1.1957783,52.9278414],[-1.1823057,52.9173169],[-1.165747,52.9251853],[-1.1614305,52.9287078],[-1.1674349,52.9307254],[-1.1721818,52.9409271],[-1.1722697,52.9453421],[-1.1643108,52.9469937]]],"type":"Polygon"},"id":"E02002898","properties":{"code":"E02002898","geography":"MSOA","name":"Nottingham 031"},"type":"Feature"},{"geometry":{"coordinates":[[[-1.1588961,52.9127708],[-1.152292,52.9370061],[-1.1582058,52.93688],[-1.1614305,52.9287078],[-1.165747,52.9251853],[-1.1674519,52.9201188],[-1.1768955,52.915465],[-1.1708924,52.9120792],[-1.1757195,52.9139556],[-1.1740757,52.9096832],[-1.1600129,52.9096701],[-1.1588961,52.9127708]]],"type":"Polygon"},"id":"E02002901","properties":{"code":"E02002901","geography":"MSOA","name":"Nottingham 034"},"type":"Feature"},{"geometry":{"coordinates":[[[-1.1600129,52.9096701],[-1.1740757,52.9096832],[-1.1757195,52.9139556],[-1.1708924,52.9120792],[-1.1768955,52.915465],[-1.1674519,52.9201188],[-1.165747,52.9251853],[-1.1823057,52.9173169],[-1.1933894,52.912423],[-1.1845158,52.9073347],[-1.1838975,52.9025858],[-1.1794651,52.8999398],[-1.1745297,52.9037037],[-1.1662777,52.8989182],[-1.1586077,52.9000421],[-1.1600129,52.9096701]]],"type":"Polygon"},"id":"E02002902","properties":{"code":"E02002902","geography":"MSOA","name":"Nottingham 035"},"type":"Feature"},{"geometry":{"coordinates":[[[-1.1838975,52.9025858],[-1.1845158,52.9073347],[-1.1933894,52.912423],[-1.199015,52.9094595],[-1.2105112,52.9122492],[-1.2139244,52.904395],[-1.2165773,52.9001454],[-1.2113072,52.902591],[-1.1857561,52.8932601],[-1.1835324,52.8953418],[-1.1888006,52.8967407],[-1.1838975,52.9025858]]],"type":"Polygon"},"id":"E02002903","properties":{"code":"E02002903","geography":"MSOA","name":"Nottingham 036"},"type":"Feature"},{"geometry":{"coordinates":[[[-1.1662777,52.8989182],[-1.1745297,52.9037037],[-1.1794651,52.8999398],[-1.1838975,52.9025858],[-1.1888006,52.8967407],[-1.1835324,52.8953418],[-1.1857561,52.8932601],[-1.1768176,52.8890093],[-1.1662777,52.8989182]]],"type":"Polygon"},"id":"E02002904","properties":{"code":"E02002904","geography":"MSOA","name":"Nottingham 037"},"type":"Feature"},{"geometry":{"coordinates":[[[-1.1435162,53.0064816],[-1.1667879,53.0106047],[-1.1668584,53.0023842],[-1.157185,52.9988744],[-1.1525722,53.0032866],[-1.1498522,53.0011312],[-1.1547317,52.9974195],[-1.1498156,53.0000752],[-1.1435162,53.0064816]]],"type":"Polygon"},"id":"E02006834","properties":{"code":"E02006834","geography":"MSOA","name":"Nottingham 038"},"type":"Feature"},{"geometry":{"coordinates":[[[-1.1385466,52.9529459],[-1.1508277,52.954996],[-1.1552153,52.9542199],[-1.1515327,52.947963],[-1.1421615,52.9434604],[-1.1419843,52.9389633],[-1.1493979,52.9345126],[-1.1454056,52.9319838],[-1.1392522,52.9332496],[-1.1317635,52.9427958],[-1.1302118,52.9465361],[-1.1385466,52.9529459]]],"type":"Polygon"},"id":"E02006904","properties":{"code":"E02006904","geography":"MSOA","name":"Nottingham 039"},"type":"Feature"},{"geometry":{"coordinates":[[[-1.1493979,52.9345126],[-1.1419843,52.9389633],[-1.1421615,52.9434604],[-1.1515327,52.947963],[-1.1643108,52.9469937],[-1.1722697,52.9453421],[-1.1721818,52.9409271],[-1.1674349,52.9307254],[-1.1614305,52.9287078],[-1.1582058,52.93688],[-1.152292,52.9370061],[-1.1493979,52.9345126]]],"type":"Polygon"},"id":"E02006905","properties":{"code":"E02006905","geography":"MSOA","name":"Nottingham 040"},"type":"Feature"},{"geometry":{"coordinates":[[[-1.1978774,52.959817],[-1.2181793,52.9601897],[-1.226027,52.958439],[-1.2234388,52.9548376],[-1.2167764,52.9545789],[-1.2211796,52.9532426],[-1.213515,52.9501971],[-1.2171636,52.9482053],[-1.2143376,52.9442867],[-1.2046965,52.9425941],[-1.21713,52.9389118],[-1.2152973,52.9339704],[-1.2060535,52.9327457],[-1.2031158,52.9322699],[-1.1865828,52.9379805],[-1.1903847,52.9445225],[-1.1788824,52.9490613],[-1.1843856,52.9555015],[-1.192254,52.9551211],[-1.1935227,52.9596627],[-1.1978774,52.959817]]],"type":"Polygon"},"id":"E02007082","properties":{"code":"E02007082","geography":"MSOA","name":"Nottingham 041"},"type":"Feature"}],"type":"FeatureCollection"}
