{"features":[{"geometry":{"coordinates":[[[[-6.3342722,49.8986084],[-6.3345289,49.898768],[-6.3359802,49.8982205],[-6.3384044,49.89725],[-6.3375544,49.8954616],[-6.3367465,49.8943961],[-6.337037,49.8945077],[-6.3369577,49.8943909],[-6.3370609,49.8944231],[-6.3369223,49.8941315],[-6.3429292,49.896259],[-6.3490652,49.8981781],[-6.3502484,49.8955075],[-6.3563599,49.8975456],[-6.3494998,49.8945728],[-6.3528099,49.8887371],[-6.3525248,49.8884757],[-6.3460463,49.8900639],[-6.3411952,49.8823463],[-6.3357597,49.8866417],[-6.3382721,49.8934187],[-6.3343566,49.8937435],[-6.3296525,49.8891618],[-6.3290365,49.8895781],[-6.328102,49.8936048],[-6.3342722,49.8986084]]],[[[-6.3701082,49.8957248],[-6.3748823,49.8996126],[-6.3778569,49.8959051],[-6.3708039,49.895741],[-6.3668577,49.8920453],[-6.3701082,49.8957248]]],[[[-6.2758747,49.9208366],[-6.2762197,49.9222351],[-6.2807513,49.9271372],[-6.2808235,49.927149],[-6.2807789,49.9271681],[-6.2813066,49.9277751],[-6.2779948,49.9283579],[-6.2769601,49.9288001],[-6.2881376,49.9308904],[-6.2903094,49.9362502],[-6.2977097,49.9368],[-6.3042201,49.9351682],[-6.3090688,49.9331047],[-6.3132408,49.9281929],[-6.3134118,49.9272064],[-6.308358,49.9227052],[-6.3098688,49.9220854],[-6.3091125,49.9218596],[-6.3111426,49.9215629],[-6.3127315,49.920911],[-6.3083521,49.9200788],[-6.309029,49.9166244],[-6.3166343,49.9152603],[-6.3166087,49.9161966],[-6.318284,49.917582],[-6.3184446,49.9174956],[-6.3178002,49.9168092],[-6.3193521,49.9170073],[-6.3275785,49.9125805],[-6.3236687,49.9088826],[-6.3206508,49.9080884],[-6.3176561,49.9086292],[-6.3174363,49.9120424],[-6.3175458,49.9123581],[-6.3174801,49.9123709],[-6.3173581,49.9132573],[-6.3128129,49.913245],[-6.3049729,49.9042236],[-6.3034934,49.9033099],[-6.3029984,49.9037087],[-6.3006236,49.9071013],[-6.3029386,49.9115393],[-6.2877639,49.9100283],[-6.2871014,49.9102714],[-6.2841754,49.9132991],[-6.2863888,49.9167622],[-6.2791103,49.9150816],[-6.2758747,49.9208366]]],[[[-6.3521953,49.9376402],[-6.3549437,49.9339177],[-6.3543484,49.933091],[-6.3568883,49.9312837],[-6.35759,49.9303331],[-6.3505476,49.9281387],[-6.3521953,49.9376402]]],[[[-6.3480091,49.9556584],[-6.3593737,49.9640197],[-6.35897,49.9657117],[-6.3589023,49.9669297],[-6.3592927,49.9667848],[-6.3620945,49.9654351],[-6.3625486,49.9651804],[-6.3564414,49.9613648],[-6.3621329,49.9580875],[-6.3583585,49.9536603],[-6.3642362,49.954237],[-6.364979,49.951613],[-6.357942,49.9495747],[-6.3571947,49.9494651],[-6.3572749,49.9494349],[-6.356259,49.9490872],[-6.3617667,49.9463039],[-6.3583697,49.9454351],[-6.3585145,49.9452162],[-6.352235,49.9445531],[-6.3480091,49.9556584]]],[[[-6.3416365,49.9662443],[-6.3453923,49.9678926],[-6.3479273,49.9679149],[-6.3497159,49.9666925],[-6.3499919,49.9636573],[-6.3390315,49.9558611],[-6.3391542,49.9470309],[-6.3363169,49.9438146],[-6.3347512,49.9432084],[-6.3351209,49.9424586],[-6.3322295,49.9391801],[-6.3281919,49.9435153],[-6.3196737,49.9447279],[-6.3226947,49.9468827],[-6.3206008,49.9506548],[-6.3216122,49.955165],[-6.3262886,49.9585956],[-6.3286946,49.9591188],[-6.3323564,49.9589176],[-6.3342078,49.9629835],[-6.3358551,49.9637066],[-6.339572,49.9626841],[-6.3416365,49.9662443]]],[[[-6.3090799,49.9695989],[-6.3141276,49.9699292],[-6.3178573,49.9677872],[-6.3141862,49.9664483],[-6.3141144,49.9664787],[-6.3093098,49.9650441],[-6.3090799,49.9695989]]],[[[-6.3203029,49.9732422],[-6.3202994,49.9732681],[-6.3265774,49.974788],[-6.3270073,49.9704558],[-6.3264642,49.9703844],[-6.3203029,49.9732422]]],[[[-6.2911542,49.9704444],[-6.2917404,49.9710375],[-6.2916554,49.97131],[-6.2927916,49.9732723],[-6.2911878,49.9745492],[-6.290314,49.9756088],[-6.2893029,49.9788484],[-6.2922126,49.9799913],[-6.2942405,49.9797505],[-6.2928405,49.9762709],[-6.291397,49.974767],[-6.2916704,49.974474],[-6.2922167,49.9743758],[-6.2979321,49.9734982],[-6.2985773,49.9694242],[-6.3007638,49.9696532],[-6.3035763,49.9677991],[-6.3040363,49.9651245],[-6.3026844,49.9636844],[-6.2900924,49.9617808],[-6.2844388,49.9562755],[-6.2838805,49.9561993],[-6.2796748,49.9574502],[-6.2770823,49.9590034],[-6.2755655,49.9586722],[-6.2615127,49.9628497],[-6.2658826,49.9675392],[-6.2699042,49.9643019],[-6.2700675,49.9644131],[-6.2705953,49.9640034],[-6.2734136,49.9662372],[-6.2746531,49.965709],[-6.2781051,49.9638566],[-6.2886845,49.9661782],[-6.2911542,49.9704444]]]],"type":"MultiPolygon"},"id":"E02006781","properties":{"code":"E02006781","geography":"MSOA","name":"Isles of Scilly 001"},"type":"Feature"}],"type":"FeatureCollection"}
