{"features":[{"geometry":{"coordinates":[[[-2.4456566,51.6493315],[-2.4604427,51.6525994],[-2.470336,51.6474721],[-2.4855723,51.6450676],[-2.4822528,51.6435905],[-2.4862447,51.6423972],[-2.4839609,51.6380261],[-2.4948289,51.6308417],[-2.5061595,51.6335213],[-2.508289,51.6287279],[-2.5023754,51.6281435],[-2.5059871,51.6258231],[-2.5132099,51.6325861],[-2.5248497,51.6346049],[-2.5366151,51.6271199],[-2.5473858,51.6269606],[-2.5424353,51.6050626],[-2.5476994,51.6040823],[-2.5488811,51.6004928],[-2.5197433,51.6104477],[-2.5099621,51.6083787],[-2.5004992,51.6100925],[-2.4882757,51.6051662],[-2.4869316,51.6077488],[-2.481348,51.6062011],[-2.4832288,51.604637],[-2.4769384,51.6020751],[-2.4615617,51.6008535],[-2.459421,51.6051458],[-2.4687422,51.6143246],[-2.4524807,51.6248705],[-2.4577787,51.6339699],[-2.4444193,51.6412009],[-2.4456566,51.6493315]]],"type":"Polygon"},"id":"E02003090","properties":{"code":"E02003090","geography":"MSOA","name":"South Gloucestershire 001"},"type":"Feature"},{"geometry":{"coordinates":[[[-2.4615617,51.6008535],[-2.4769384,51.6020751],[-2.4832288,51.604637],[-2.481348,51.6062011],[-2.4869316,51.6077488],[-2.4882757,51.6051662],[-2.5004992,51.6100925],[-2.5099621,51.6083787],[-2.5197433,51.6104477],[-2.5488811,51.6004928],[-2.5486101,51.5935797],[-2.5392267,51.5924877],[-2.5193466,51.5990969],[-2.5111941,51.5982812],[-2.5035672,51.5922828],[-2.5063237,51.5858654],[-2.4990975,51.5774783],[-2.5001712,51.5727841],[-2.4936138,51.5718445],[-2.4779845,51.575754],[-2.4701206,51.57217],[-2.4648776,51.5848384],[-2.4549949,51.5899736],[-2.4594414,51.5945129],[-2.4553444,51.5989137],[-2.4615617,51.6008535]]],"type":"Polygon"},"id":"E02003091","properties":{"code":"E02003091","geography":"MSOA","name":"South Gloucestershire 002"},"type":"Feature"},{"geometry":{"coordinates":[[[-2.398838,51.6458082],[-2.4072065,51.6411975],[-2.4308357,51.6465599],[-2.4429845,51.6524894],[-2.4456566,51.6493315],[-2.4444193,51.6412009],[-2.4577787,51.6339699],[-2.4524807,51.6248705],[-2.4687422,51.6143246],[-2.459421,51.6051458],[-2.4615617,51.6008535],[-2.4553444,51.5989137],[-2.4594414,51.5945129],[-2.4549949,51.5899736],[-2.4648776,51.5848384],[-2.4701206,51.57217],[-2.4779845,51.575754],[-2.4936138,51.5718445],[-2.4970376,51.5634577],[-2.4932863,51.5601504],[-2.5107619,51.553441],[-2.5061766,51.5479359],[-2.4863109,51.5497057],[-2.483713,51.5436229],[-2.4755914,51.5475125],[-2.4700648,51.545535],[-2.4514446,51.5392171],[-2.4348654,51.5454911],[-2.4319748,51.5417734],[-2.4289294,51.5509941],[-2.4290399,51.5642611],[-2.3960158,51.5693426],[-2.382489,51.5648084],[-2.3819238,51.5769044],[-2.3906765,51.5971333],[-2.3964872,51.6004441],[-2.3902621,51.6121087],[-2.3889105,51.6275284],[-2.400561,51.6346748],[-2.3853672,51.6393201],[-2.3957849,51.6387415],[-2.398838,51.6458082]]],"type":"Polygon"},"id":"E02003092","properties":{"code":"E02003092","geography":"MSOA","name":"South Gloucestershire 003"},"type":"Feature"},{"geometry":{"coordinates":[[[-2.4855723,51.6450676],[-2.4906759,51.6448316],[-2.4849712,51.6484166],[-2.4930347,51.6518987],[-2.4896405,51.6639584],[-2.5090053,51.6659982],[-2.5323918,51.6780552],[-2.5347418,51.6772425],[-2.5582692,51.6664172],[-2.5740255,51.6487092],[-2.5793688,51.6361346],[-2.5801868,51.6342091],[-2.5793401,51.6338859],[-2.5667054,51.6290609],[-2.5793248,51.6326868],[-2.580749,51.6330959],[-2.5852048,51.6260102],[-2.597781,51.6185981],[-2.5962113,51.6165264],[-2.5990196,51.6177799],[-2.6277998,51.605634],[-2.6374983,51.5922888],[-2.6379981,51.5918415],[-2.6336497,51.5897758],[-2.6360656,51.5847959],[-2.6303737,51.584618],[-2.6276277,51.587828],[-2.6238506,51.5849919],[-2.6176084,51.5865993],[-2.6145432,51.5827903],[-2.6332249,51.575319],[-2.6381737,51.5698272],[-2.6285991,51.5688808],[-2.6180612,51.5618517],[-2.6058641,51.5669898],[-2.5824111,51.5627102],[-2.5756872,51.5687511],[-2.5601311,51.5602308],[-2.55418,51.5647078],[-2.5357026,51.5612953],[-2.5311478,51.5665202],[-2.5170627,51.5658187],[-2.5185693,51.561286],[-2.5129544,51.5592274],[-2.5164159,51.555817],[-2.5107619,51.553441],[-2.4932863,51.5601504],[-2.4970376,51.5634577],[-2.4936138,51.5718445],[-2.5001712,51.5727841],[-2.4990975,51.5774783],[-2.5063237,51.5858654],[-2.5035672,51.5922828],[-2.5111941,51.5982812],[-2.5193466,51.5990969],[-2.5392267,51.5924877],[-2.5486101,51.5935797],[-2.5488811,51.6004928],[-2.5476994,51.6040823],[-2.5424353,51.6050626],[-2.5473858,51.6269606],[-2.5366151,51.6271199],[-2.5248497,51.6346049],[-2.5132099,51.6325861],[-2.5059871,51.6258231],[-2.5023754,51.6281435],[-2.508289,51.6287279],[-2.5061595,51.6335213],[-2.4948289,51.6308417],[-2.4839609,51.6380261],[-2.4862447,51.6423972],[-2.4822528,51.6435905],[-2.4855723,51.6450676]]],"type":"Polygon"},"id":"E02003093","properties":{"code":"E02003093","geography":"MSOA","name":"South Gloucestershire 004"},"type":"Feature"},{"geometry":{"coordinates":[[[[-2.6943893,51.5233014],[-2.6946211,51.5231739],[-2.6950035,51.5226711],[-2.6943893,51.5233014]]],[[[-2.6744772,51.5437348],[-2.6746103,51.5436315],[-2.674753,51.5434805],[-2.6751408,51.5430759],[-2.6762054,51.5419084],[-2.6744772,51.5437348]]],[[[-2.6360656,51.5847959],[-2.6336497,51.5897758],[-2.6379981,51.5918415],[-2.6572448,51.5746048],[-2.6638904,51.5731533],[-2.6738153,51.5444336],[-2.6636838,51.5369978],[-2.6654202,51.5309673],[-2.6513995,51.5207057],[-2.6544833,51.5137254],[-2.6472024,51.5121716],[-2.5957608,51.5153521],[-2.5809871,51.5174098],[-2.5952967,51.5323299],[-2.5881429,51.5378576],[-2.5683305,51.5471735],[-2.5524556,51.5513908],[-2.5394182,51.5372049],[-2.532945,51.5401258],[-2.5407903,51.5424893],[-2.5379457,51.5463512],[-2.5164159,51.555817],[-2.5129544,51.5592274],[-2.5185693,51.561286],[-2.5170627,51.5658187],[-2.5311478,51.5665202],[-2.5357026,51.5612953],[-2.55418,51.5647078],[-2.5601311,51.5602308],[-2.5756872,51.5687511],[-2.5824111,51.5627102],[-2.6058641,51.5669898],[-2.6180612,51.5618517],[-2.6285991,51.5688808],[-2.6381737,51.5698272],[-2.6332249,51.575319],[-2.6145432,51.5827903],[-2.6176084,51.5865993],[-2.6238506,51.5849919],[-2.6276277,51.587828],[-2.6303737,51.584618],[-2.6360656,51.5847959]]]],"type":"MultiPolygon"},"id":"E02003094","properties":{"code":"E02003094","geography":"MSOA","name":"South Gloucestershire 005"},"type":"Feature"},{"geometry":{"coordinates":[[[-2.382489,51.5648084],[-2.3960158,51.5693426],[-2.4290399,51.5642611],[-2.4289294,51.5509941],[-2.4110636,51.5499288],[-2.4096919,51.5476266],[-2.4172618,51.546121],[-2.4184124,51.5408834],[-2.4059563,51.5375571],[-2.400349,51.5398545],[-2.4026191,51.5581988],[-2.3978989,51.5617826],[-2.3839521,51.5629809],[-2.382489,51.5648084]]],"type":"Polygon"},"id":"E02003095","properties":{"code":"E02003095","geography":"MSOA","name":"South Gloucestershire 006"},"type":"Feature"},{"geometry":{"coordinates":[[[-2.4184124,51.5408834],[-2.4172618,51.546121],[-2.4096919,51.5476266],[-2.4110636,51.5499288],[-2.4289294,51.5509941],[-2.4319748,51.5417734],[-2.4324412,51.5409602],[-2.4184124,51.5408834]]],"type":"Polygon"},"id":"E02003096","properties":{"code":"E02003096","geography":"MSOA","name":"South Gloucestershire 007"},"type":"Feature"},{"geometry":{"coordinates":[[[-2.4071853,51.5283945],[-2.3964448,51.5320483],[-2.3948979,51.5276023],[-2.3883822,51.5294364],[-2.3898514,51.5330442],[-2.3803281,51.5329083],[-2.3871069,51.5423437],[-2.3773728,51.5436302],[-2.3839521,51.5629809],[-2.3978989,51.5617826],[-2.4026191,51.5581988],[-2.400349,51.5398545],[-2.4059563,51.5375571],[-2.4093677,51.5308099],[-2.4071853,51.5283945]]],"type":"Polygon"},"id":"E02003097","properties":{"code":"E02003097","geography":"MSOA","name":"South Gloucestershire 008"},"type":"Feature"},{"geometry":{"coordinates":[[[-2.5394182,51.5372049],[-2.5524556,51.5513908],[-2.5683305,51.5471735],[-2.5671403,51.5429398],[-2.5590274,51.5423583],[-2.5581224,51.5452534],[-2.5545786,51.5435398],[-2.5557312,51.5387381],[-2.5479234,51.5374834],[-2.5380988,51.5225217],[-2.5362458,51.5220028],[-2.5253946,51.5210921],[-2.5394182,51.5372049]]],"type":"Polygon"},"id":"E02003098","properties":{"code":"E02003098","geography":"MSOA","name":"South Gloucestershire 009"},"type":"Feature"},{"geometry":{"coordinates":[[[-2.4184124,51.5408834],[-2.4324412,51.5409602],[-2.4362509,51.5313046],[-2.4093677,51.5308099],[-2.4059563,51.5375571],[-2.4184124,51.5408834]]],"type":"Polygon"},"id":"E02003099","properties":{"code":"E02003099","geography":"MSOA","name":"South Gloucestershire 010"},"type":"Feature"},{"geometry":{"coordinates":[[[-2.5380988,51.5225217],[-2.5479234,51.5374834],[-2.5557312,51.5387381],[-2.5545786,51.5435398],[-2.5581224,51.5452534],[-2.5590274,51.5423583],[-2.5671403,51.5429398],[-2.5609154,51.5405514],[-2.5578062,51.5331766],[-2.5487487,51.5282106],[-2.5505145,51.5219016],[-2.5380988,51.5225217]]],"type":"Polygon"},"id":"E02003101","properties":{"code":"E02003101","geography":"MSOA","name":"South Gloucestershire 012"},"type":"Feature"},{"geometry":{"coordinates":[[[-2.5107619,51.553441],[-2.5164159,51.555817],[-2.5379457,51.5463512],[-2.5407903,51.5424893],[-2.532945,51.5401258],[-2.5241641,51.5350157],[-2.509226,51.5396161],[-2.4889032,51.5305386],[-2.4872174,51.5246732],[-2.4710633,51.5249397],[-2.4642071,51.5316199],[-2.473324,51.5408167],[-2.4700648,51.545535],[-2.4755914,51.5475125],[-2.483713,51.5436229],[-2.4863109,51.5497057],[-2.5061766,51.5479359],[-2.5107619,51.553441]]],"type":"Polygon"},"id":"E02003102","properties":{"code":"E02003102","geography":"MSOA","name":"South Gloucestershire 013"},"type":"Feature"},{"geometry":{"coordinates":[[[-2.4093677,51.5308099],[-2.4362509,51.5313046],[-2.4312946,51.5242988],[-2.4354561,51.5207183],[-2.4296559,51.521565],[-2.4071853,51.5283945],[-2.4093677,51.5308099]]],"type":"Polygon"},"id":"E02003103","properties":{"code":"E02003103","geography":"MSOA","name":"South Gloucestershire 014"},"type":"Feature"},{"geometry":{"coordinates":[[[-2.5380988,51.5225217],[-2.5505145,51.5219016],[-2.5487487,51.5282106],[-2.5578062,51.5331766],[-2.5662065,51.5311261],[-2.5617033,51.5302274],[-2.5586449,51.5193688],[-2.546591,51.5161058],[-2.5378536,51.5174255],[-2.5417168,51.5203543],[-2.5362458,51.5220028],[-2.5380988,51.5225217]]],"type":"Polygon"},"id":"E02003104","properties":{"code":"E02003104","geography":"MSOA","name":"South Gloucestershire 015"},"type":"Feature"},{"geometry":{"coordinates":[[[-2.4872174,51.5246732],[-2.4889032,51.5305386],[-2.509226,51.5396161],[-2.5241641,51.5350157],[-2.532945,51.5401258],[-2.5394182,51.5372049],[-2.5253946,51.5210921],[-2.5284635,51.5165073],[-2.5113031,51.5084365],[-2.5071597,51.5090717],[-2.5067468,51.5051732],[-2.4992632,51.5085056],[-2.5018414,51.5128379],[-2.4955962,51.5158618],[-2.4872174,51.5246732]]],"type":"Polygon"},"id":"E02003105","properties":{"code":"E02003105","geography":"MSOA","name":"South Gloucestershire 016"},"type":"Feature"},{"geometry":{"coordinates":[[[-2.5714839,51.5233324],[-2.5781656,51.5238491],[-2.5809871,51.5174098],[-2.5829739,51.5130129],[-2.5912212,51.5096834],[-2.5877271,51.5035328],[-2.5881485,51.5012361],[-2.5804688,51.5009785],[-2.5673459,51.498749],[-2.5565879,51.5080987],[-2.5610025,51.5106691],[-2.5592912,51.5156531],[-2.5689119,51.5238467],[-2.5714839,51.5233324]]],"type":"Polygon"},"id":"E02003107","properties":{"code":"E02003107","geography":"MSOA","name":"South Gloucestershire 018"},"type":"Feature"},{"geometry":{"coordinates":[[[-2.4319748,51.5417734],[-2.4348654,51.5454911],[-2.4514446,51.5392171],[-2.4700648,51.545535],[-2.473324,51.5408167],[-2.4642071,51.5316199],[-2.4710633,51.5249397],[-2.4872174,51.5246732],[-2.4955962,51.5158618],[-2.4909028,51.5103073],[-2.4831282,51.5028311],[-2.467045,51.4984937],[-2.47362,51.4782274],[-2.4793373,51.479503],[-2.4816869,51.4838565],[-2.4874029,51.4821642],[-2.488065,51.4698032],[-2.4800893,51.4600772],[-2.4783424,51.4574289],[-2.4703732,51.4629894],[-2.461506,51.4592211],[-2.4553419,51.4610025],[-2.4550829,51.4637957],[-2.4374073,51.466377],[-2.4330924,51.4799352],[-2.4149811,51.4804017],[-2.4227371,51.4888404],[-2.4193957,51.4936944],[-2.423204,51.4936637],[-2.4244272,51.4978367],[-2.410294,51.4981999],[-2.4196874,51.5086309],[-2.4321268,51.5155469],[-2.4296559,51.521565],[-2.4354561,51.5207183],[-2.4312946,51.5242988],[-2.4362509,51.5313046],[-2.4324412,51.5409602],[-2.4319748,51.5417734]]],"type":"Polygon"},"id":"E02003108","properties":{"code":"E02003108","geography":"MSOA","name":"South Gloucestershire 019"},"type":"Feature"},{"geometry":{"coordinates":[[[-2.4874213,51.4992575],[-2.4972707,51.499815],[-2.4951421,51.5048279],[-2.5125387,51.5026061],[-2.5139326,51.4973911],[-2.5039968,51.4960875],[-2.5080866,51.4925167],[-2.5112397,51.4939292],[-2.5066045,51.4910481],[-2.4983196,51.4908874],[-2.4948068,51.4936501],[-2.4874213,51.4992575]]],"type":"Polygon"},"id":"E02003109","properties":{"code":"E02003109","geography":"MSOA","name":"South Gloucestershire 020"},"type":"Feature"},{"geometry":{"coordinates":[[[-2.4816869,51.4838565],[-2.4793373,51.479503],[-2.47362,51.4782274],[-2.467045,51.4984937],[-2.4831282,51.5028311],[-2.4909028,51.5103073],[-2.4951421,51.5048279],[-2.4972707,51.499815],[-2.4874213,51.4992575],[-2.4857087,51.492746],[-2.490117,51.4902532],[-2.4816869,51.4838565]]],"type":"Polygon"},"id":"E02003110","properties":{"code":"E02003110","geography":"MSOA","name":"South Gloucestershire 021"},"type":"Feature"},{"geometry":{"coordinates":[[[-2.4948068,51.4936501],[-2.4983196,51.4908874],[-2.5066045,51.4910481],[-2.5112397,51.4939292],[-2.5080866,51.4925167],[-2.5039968,51.4960875],[-2.5139326,51.4973911],[-2.5158649,51.4938682],[-2.5150133,51.4921028],[-2.5109991,51.4899866],[-2.5167112,51.4851568],[-2.5151275,51.4817599],[-2.5103621,51.4852206],[-2.4959951,51.4833776],[-2.4986237,51.4892259],[-2.4929226,51.4917281],[-2.4948068,51.4936501]]],"type":"Polygon"},"id":"E02003111","properties":{"code":"E02003111","geography":"MSOA","name":"South Gloucestershire 022"},"type":"Feature"},{"geometry":{"coordinates":[[[-2.4816869,51.4838565],[-2.490117,51.4902532],[-2.4857087,51.492746],[-2.4874213,51.4992575],[-2.4948068,51.4936501],[-2.4929226,51.4917281],[-2.4986237,51.4892259],[-2.4959951,51.4833776],[-2.4960268,51.4793834],[-2.4874029,51.4821642],[-2.4816869,51.4838565]]],"type":"Polygon"},"id":"E02003112","properties":{"code":"E02003112","geography":"MSOA","name":"South Gloucestershire 023"},"type":"Feature"},{"geometry":{"coordinates":[[[-2.2916413,51.5936952],[-2.2965535,51.5949938],[-2.300102,51.5914811],[-2.3082572,51.5928641],[-2.316574,51.5898334],[-2.3198505,51.5939147],[-2.3310721,51.5916034],[-2.3341796,51.5966324],[-2.3352561,51.594253],[-2.3441153,51.5942287],[-2.3440227,51.5964979],[-2.352789,51.5966949],[-2.3655843,51.6037337],[-2.3705795,51.5976129],[-2.3906765,51.5971333],[-2.3819238,51.5769044],[-2.382489,51.5648084],[-2.3839521,51.5629809],[-2.3773728,51.5436302],[-2.3871069,51.5423437],[-2.3803281,51.5329083],[-2.3898514,51.5330442],[-2.3883822,51.5294364],[-2.3948979,51.5276023],[-2.3964448,51.5320483],[-2.4071853,51.5283945],[-2.4296559,51.521565],[-2.4321268,51.5155469],[-2.4196874,51.5086309],[-2.410294,51.4981999],[-2.4244272,51.4978367],[-2.423204,51.4936637],[-2.4193957,51.4936944],[-2.4227371,51.4888404],[-2.4149811,51.4804017],[-2.4330924,51.4799352],[-2.4374073,51.466377],[-2.4550829,51.4637957],[-2.4553419,51.4610025],[-2.4492896,51.4537475],[-2.4525045,51.4517392],[-2.4432739,51.4494741],[-2.4443722,51.4437468],[-2.4308463,51.4422454],[-2.4573994,51.4408373],[-2.4632322,51.4368502],[-2.4732061,51.4318966],[-2.4799904,51.4333821],[-2.4764714,51.430342],[-2.4831949,51.4325172],[-2.4884345,51.4264818],[-2.4928961,51.4183474],[-2.481039,51.4215858],[-2.4696454,51.4159351],[-2.4609339,51.4166643],[-2.4459107,51.4184816],[-2.4415259,51.4192927],[-2.4440071,51.4225719],[-2.4111976,51.426078],[-2.4030999,51.4315973],[-2.377255,51.4328334],[-2.3672207,51.4370563],[-2.3576716,51.4358405],[-2.3432917,51.4395359],[-2.3250249,51.4369865],[-2.3138466,51.4289063],[-2.312618,51.4224487],[-2.2946183,51.428804],[-2.2852665,51.4579301],[-2.2957458,51.458592],[-2.2888542,51.4781512],[-2.2905613,51.4868591],[-2.3114262,51.4873746],[-2.3243274,51.4975108],[-2.2974563,51.5062155],[-2.2963883,51.5097467],[-2.2798588,51.5161694],[-2.2558134,51.5220787],[-2.2523925,51.5268741],[-2.2665062,51.536262],[-2.2617259,51.5447412],[-2.2683727,51.5496923],[-2.2686276,51.5597085],[-2.2603037,51.5699005],[-2.2738536,51.5723818],[-2.2725632,51.5775898],[-2.2765661,51.5798957],[-2.2827498,51.5785161],[-2.2808928,51.5813127],[-2.2872815,51.5831564],[-2.2835074,51.5849629],[-2.2940899,51.588573],[-2.2916413,51.5936952]]],"type":"Polygon"},"id":"E02003113","properties":{"code":"E02003113","geography":"MSOA","name":"South Gloucestershire 024"},"type":"Feature"},{"geometry":{"coordinates":[[[-2.4959951,51.4833776],[-2.5103621,51.4852206],[-2.5151275,51.4817599],[-2.5152313,51.481448],[-2.514985,51.4809354],[-2.5020315,51.4806851],[-2.4973439,51.4772317],[-2.5016924,51.4752629],[-2.4986293,51.4721628],[-2.488065,51.4698032],[-2.4874029,51.4821642],[-2.4960268,51.4793834],[-2.4959951,51.4833776]]],"type":"Polygon"},"id":"E02003114","properties":{"code":"E02003114","geography":"MSOA","name":"South Gloucestershire 025"},"type":"Feature"},{"geometry":{"coordinates":[[[-2.4986293,51.4721628],[-2.5016924,51.4752629],[-2.4973439,51.4772317],[-2.5020315,51.4806851],[-2.514985,51.4809354],[-2.512926,51.4691524],[-2.5128643,51.4671804],[-2.5121485,51.4630592],[-2.5038549,51.4624302],[-2.5075428,51.4647196],[-2.5014146,51.4656872],[-2.5029766,51.4711744],[-2.4986293,51.4721628]]],"type":"Polygon"},"id":"E02003115","properties":{"code":"E02003115","geography":"MSOA","name":"South Gloucestershire 026"},"type":"Feature"},{"geometry":{"coordinates":[[[-2.488065,51.4698032],[-2.4986293,51.4721628],[-2.5029766,51.4711744],[-2.5014146,51.4656872],[-2.5075428,51.4647196],[-2.5038549,51.4624302],[-2.4899558,51.4610917],[-2.4800893,51.4600772],[-2.488065,51.4698032]]],"type":"Polygon"},"id":"E02003116","properties":{"code":"E02003116","geography":"MSOA","name":"South Gloucestershire 027"},"type":"Feature"},{"geometry":{"coordinates":[[[-2.5038549,51.4624302],[-2.5121485,51.4630592],[-2.5188529,51.4565378],[-2.520632,51.451053],[-2.5116482,51.4475339],[-2.5072051,51.4496199],[-2.5124012,51.4518106],[-2.5086322,51.4531715],[-2.494671,51.4596999],[-2.4879789,51.4580287],[-2.4899558,51.4610917],[-2.5038549,51.4624302]]],"type":"Polygon"},"id":"E02003117","properties":{"code":"E02003117","geography":"MSOA","name":"South Gloucestershire 028"},"type":"Feature"},{"geometry":{"coordinates":[[[-2.4553419,51.4610025],[-2.461506,51.4592211],[-2.4703732,51.4629894],[-2.4783424,51.4574289],[-2.4800893,51.4600772],[-2.4899558,51.4610917],[-2.4879789,51.4580287],[-2.494671,51.4596999],[-2.5086322,51.4531715],[-2.4951796,51.4507946],[-2.4975184,51.4492474],[-2.4915028,51.4464744],[-2.4859006,51.4511691],[-2.4677716,51.4543522],[-2.4615188,51.4514133],[-2.4525045,51.4517392],[-2.4492896,51.4537475],[-2.4553419,51.4610025]]],"type":"Polygon"},"id":"E02003118","properties":{"code":"E02003118","geography":"MSOA","name":"South Gloucestershire 029"},"type":"Feature"},{"geometry":{"coordinates":[[[-2.4525045,51.4517392],[-2.4615188,51.4514133],[-2.4677716,51.4543522],[-2.4859006,51.4511691],[-2.4915028,51.4464744],[-2.4883251,51.445704],[-2.4908648,51.4412055],[-2.4787219,51.4405384],[-2.4767831,51.445203],[-2.4632322,51.4368502],[-2.4573994,51.4408373],[-2.4308463,51.4422454],[-2.4443722,51.4437468],[-2.4432739,51.4494741],[-2.4525045,51.4517392]]],"type":"Polygon"},"id":"E02003119","properties":{"code":"E02003119","geography":"MSOA","name":"South Gloucestershire 030"},"type":"Feature"},{"geometry":{"coordinates":[[[-2.4975184,51.4492474],[-2.4951796,51.4507946],[-2.5086322,51.4531715],[-2.5124012,51.4518106],[-2.5072051,51.4496199],[-2.5116482,51.4475339],[-2.520632,51.451053],[-2.5356063,51.4473424],[-2.5386077,51.4466031],[-2.5274182,51.4444266],[-2.525419,51.434449],[-2.5253543,51.434126],[-2.5134359,51.4296337],[-2.5133389,51.4298742],[-2.5092925,51.4399085],[-2.4975184,51.4492474]]],"type":"Polygon"},"id":"E02003120","properties":{"code":"E02003120","geography":"MSOA","name":"South Gloucestershire 031"},"type":"Feature"},{"geometry":{"coordinates":[[[-2.4908648,51.4412055],[-2.4883251,51.445704],[-2.4915028,51.4464744],[-2.4975184,51.4492474],[-2.5092925,51.4399085],[-2.5133389,51.4298742],[-2.5134359,51.4296337],[-2.5104618,51.4287843],[-2.5079851,51.4246436],[-2.4942667,51.429413],[-2.4884345,51.4264818],[-2.4831949,51.4325172],[-2.4764714,51.430342],[-2.4799904,51.4333821],[-2.4732061,51.4318966],[-2.4632322,51.4368502],[-2.4767831,51.445203],[-2.4787219,51.4405384],[-2.4908648,51.4412055]]],"type":"Polygon"},"id":"E02003121","properties":{"code":"E02003121","geography":"MSOA","name":"South Gloucestershire 032"},"type":"Feature"},{"geometry":{"coordinates":[[[-2.5671403,51.5429398],[-2.5683305,51.5471735],[-2.5881429,51.5378576],[-2.5881875,51.5337721],[-2.5803078,51.5296488],[-2.5713732,51.5306982],[-2.5714839,51.5233324],[-2.5689119,51.5238467],[-2.5662065,51.5311261],[-2.5578062,51.5331766],[-2.5609154,51.5405514],[-2.5671403,51.5429398]]],"type":"Polygon"},"id":"E02007064","properties":{"code":"E02007064","geography":"MSOA","name":"South Gloucestershire 033"},"type":"Feature"},{"geometry":{"coordinates":[[[-2.5714839,51.5233324],[-2.5713732,51.5306982],[-2.5803078,51.5296488],[-2.5881875,51.5337721],[-2.5881429,51.5378576],[-2.5952967,51.5323299],[-2.5809871,51.5174098],[-2.5781656,51.5238491],[-2.5714839,51.5233324]]],"type":"Polygon"},"id":"E02007065","properties":{"code":"E02007065","geography":"MSOA","name":"South Gloucestershire 034"},"type":"Feature"},{"geometry":{"coordinates":[[[-2.546591,51.5161058],[-2.5586449,51.5193688],[-2.5617033,51.5302274],[-2.5662065,51.5311261],[-2.5689119,51.5238467],[-2.5592912,51.5156531],[-2.5610025,51.5106691],[-2.5565879,51.5080987],[-2.5673459,51.498749],[-2.5647879,51.4955183],[-2.5546612,51.4963496],[-2.5553469,51.4926876],[-2.5516008,51.4922342],[-2.5397964,51.4952456],[-2.5396975,51.5043095],[-2.5439572,51.5050007],[-2.5326334,51.5062948],[-2.5316674,51.5088966],[-2.5324969,51.5108156],[-2.5440212,51.5090139],[-2.541032,51.5119974],[-2.546591,51.5161058]]],"type":"Polygon"},"id":"E02007066","properties":{"code":"E02007066","geography":"MSOA","name":"South Gloucestershire 035"},"type":"Feature"},{"geometry":{"coordinates":[[[-2.5253946,51.5210921],[-2.5362458,51.5220028],[-2.5417168,51.5203543],[-2.5378536,51.5174255],[-2.546591,51.5161058],[-2.541032,51.5119974],[-2.5440212,51.5090139],[-2.5324969,51.5108156],[-2.5316674,51.5088966],[-2.5326334,51.5062948],[-2.5439572,51.5050007],[-2.5396975,51.5043095],[-2.5397964,51.4952456],[-2.5343289,51.4967459],[-2.527472,51.4926555],[-2.5158649,51.4938682],[-2.5139326,51.4973911],[-2.5125387,51.5026061],[-2.4951421,51.5048279],[-2.4909028,51.5103073],[-2.4955962,51.5158618],[-2.5018414,51.5128379],[-2.4992632,51.5085056],[-2.5067468,51.5051732],[-2.5071597,51.5090717],[-2.5113031,51.5084365],[-2.5284635,51.5165073],[-2.5253946,51.5210921]]],"type":"Polygon"},"id":"E02007067","properties":{"code":"E02007067","geography":"MSOA","name":"South Gloucestershire 036"},"type":"Feature"}],"type":"FeatureCollection"}
