{"features":[{"geometry":{"coordinates":[[[-1.6057981,55.3734689],[-1.6058855,55.373612],[-1.6060441,55.3738717],[-1.6084709,55.3839444],[-1.6137733,55.3843611],[-1.6146292,55.3799267],[-1.6234552,55.3894897],[-1.6235752,55.391812],[-1.6178132,55.3904975],[-1.6173484,55.3892542],[-1.6212581,55.388304],[-1.6114058,55.3851659],[-1.5966659,55.3947166],[-1.5925826,55.4027677],[-1.5912763,55.40335],[-1.5788298,55.4088961],[-1.5818121,55.4181238],[-1.5753407,55.4308791],[-1.5872994,55.4342563],[-1.5933286,55.4402339],[-1.5863133,55.446645],[-1.5930279,55.4570279],[-1.5885901,55.4619677],[-1.5933441,55.4730968],[-1.5933379,55.4731505],[-1.5911246,55.4923305],[-1.5926157,55.4920169],[-1.5954717,55.4912717],[-1.6142567,55.4981541],[-1.6139653,55.5031342],[-1.6144686,55.5045819],[-1.6138671,55.5048133],[-1.6135991,55.5093911],[-1.6186846,55.5145036],[-1.6105752,55.5217185],[-1.6190154,55.5225601],[-1.6189026,55.5233538],[-1.6189658,55.5233627],[-1.6188927,55.5234231],[-1.6184715,55.5263862],[-1.6261896,55.5278197],[-1.6366486,55.5393187],[-1.6370551,55.5397655],[-1.641896,55.5374164],[-1.6447914,55.5273325],[-1.6542265,55.5238451],[-1.6659828,55.5265812],[-1.67667,55.5229735],[-1.6730001,55.5209028],[-1.6994073,55.5164821],[-1.6963153,55.5130724],[-1.7230497,55.5114007],[-1.7213965,55.5093878],[-1.7290064,55.5086542],[-1.7192811,55.5021211],[-1.7059799,55.4901603],[-1.7132343,55.4795653],[-1.7276532,55.4741862],[-1.72171,55.4670159],[-1.7144708,55.4665685],[-1.7143224,55.4614891],[-1.7228487,55.4584328],[-1.7509633,55.465116],[-1.7585824,55.4593064],[-1.7581143,55.4494641],[-1.7636342,55.4414536],[-1.7611627,55.434781],[-1.7850578,55.4283644],[-1.7799043,55.4182625],[-1.7683428,55.4176818],[-1.7562949,55.4240039],[-1.7353398,55.4156157],[-1.7198237,55.4164455],[-1.7171481,55.418602],[-1.7217277,55.4199837],[-1.7114122,55.4203105],[-1.6990468,55.4162282],[-1.6915108,55.4182223],[-1.6978259,55.4116594],[-1.684619,55.4042596],[-1.6953119,55.3980069],[-1.7134214,55.4027035],[-1.723734,55.3955635],[-1.7268103,55.3997391],[-1.7395657,55.3981871],[-1.7493594,55.3884958],[-1.7434986,55.3840835],[-1.752341,55.3837204],[-1.7578719,55.3763896],[-1.7587565,55.3718593],[-1.7540805,55.3704594],[-1.7579162,55.3665381],[-1.7815184,55.3649892],[-1.782281,55.370925],[-1.7918461,55.3687576],[-1.8000292,55.3516462],[-1.7850684,55.3459566],[-1.7410929,55.3428551],[-1.7384293,55.3464239],[-1.759202,55.357678],[-1.7430027,55.3627208],[-1.7307524,55.3795875],[-1.7242606,55.3774114],[-1.7033994,55.3797365],[-1.6966545,55.3845812],[-1.6936711,55.3829671],[-1.673182,55.3905428],[-1.6731174,55.3815632],[-1.6566318,55.3672489],[-1.6206633,55.3696086],[-1.6057981,55.3734689]]],"type":"Polygon"},"id":"E02005702","properties":{"code":"E02005702","geography":"MSOA","name":"Northumberland 004"},"type":"Feature"},{"geometry":{"coordinates":[[[-1.782281,55.370925],[-1.7815184,55.3649892],[-1.7579162,55.3665381],[-1.7540805,55.3704594],[-1.7587565,55.3718593],[-1.7578719,55.3763896],[-1.752341,55.3837204],[-1.7434986,55.3840835],[-1.7493594,55.3884958],[-1.7395657,55.3981871],[-1.7268103,55.3997391],[-1.723734,55.3955635],[-1.7134214,55.4027035],[-1.6953119,55.3980069],[-1.684619,55.4042596],[-1.6978259,55.4116594],[-1.6915108,55.4182223],[-1.6990468,55.4162282],[-1.7114122,55.4203105],[-1.7217277,55.4199837],[-1.7171481,55.418602],[-1.7198237,55.4164455],[-1.7353398,55.4156157],[-1.7562949,55.4240039],[-1.7683428,55.4176818],[-1.7707645,55.3993558],[-1.7863228,55.3880419],[-1.7807515,55.3784259],[-1.782281,55.370925]]],"type":"Polygon"},"id":"E02005703","properties":{"code":"E02005703","geography":"MSOA","name":"Northumberland 005"},"type":"Feature"},{"geometry":{"coordinates":[[[-1.6057981,55.3734689],[-1.6206633,55.3696086],[-1.6566318,55.3672489],[-1.6731174,55.3815632],[-1.673182,55.3905428],[-1.6936711,55.3829671],[-1.6966545,55.3845812],[-1.7033994,55.3797365],[-1.7242606,55.3774114],[-1.7307524,55.3795875],[-1.7430027,55.3627208],[-1.759202,55.357678],[-1.7384293,55.3464239],[-1.7410929,55.3428551],[-1.7850684,55.3459566],[-1.8000292,55.3516462],[-1.8036168,55.3494304],[-1.8003372,55.3440433],[-1.7851669,55.3373935],[-1.7885949,55.3330936],[-1.7773511,55.3307767],[-1.7734932,55.3229352],[-1.7546862,55.3099954],[-1.7606551,55.3071094],[-1.7705676,55.3077961],[-1.7601714,55.296405],[-1.7711326,55.2955637],[-1.7668989,55.2914163],[-1.7512337,55.2872304],[-1.7434237,55.2982313],[-1.7370836,55.2919604],[-1.7193256,55.2919603],[-1.6906794,55.302067],[-1.682476,55.3007102],[-1.6849164,55.2970443],[-1.6805682,55.2950848],[-1.6657638,55.2933616],[-1.6624431,55.2880326],[-1.6254242,55.2999631],[-1.6264977,55.3038814],[-1.6200716,55.3041907],[-1.6185448,55.3073557],[-1.589986,55.306336],[-1.5621856,55.3017265],[-1.5578463,55.3072593],[-1.5497643,55.3113605],[-1.549379,55.3217206],[-1.5701998,55.3353794],[-1.5707426,55.3389881],[-1.5736744,55.3362506],[-1.5839422,55.3356075],[-1.5849516,55.3360851],[-1.5853278,55.336263],[-1.5924232,55.3396194],[-1.5941065,55.3426304],[-1.594434,55.3432729],[-1.5881083,55.3403889],[-1.5828831,55.3380042],[-1.5819902,55.3375966],[-1.5710505,55.339652],[-1.5818253,55.3394768],[-1.5885561,55.3452287],[-1.5968481,55.3588044],[-1.5982079,55.3603353],[-1.5989001,55.3621675],[-1.6057981,55.3734689]]],"type":"Polygon"},"id":"E02005704","properties":{"code":"E02005704","geography":"MSOA","name":"Northumberland 006"},"type":"Feature"},{"geometry":{"coordinates":[[[-1.7192811,55.5021211],[-1.7521512,55.5045102],[-1.7609391,55.5097616],[-1.7808099,55.5129616],[-1.8069027,55.5135721],[-1.7931469,55.4972423],[-1.8264202,55.4813374],[-1.8454713,55.477858],[-1.8581404,55.4840649],[-1.8579583,55.4814752],[-1.8763537,55.4771899],[-1.8765453,55.4727327],[-1.8905371,55.4651202],[-1.9100215,55.4697237],[-1.9177619,55.4676686],[-1.9066259,55.4426047],[-1.908073,55.4341065],[-1.9148263,55.4307138],[-1.9123567,55.42789],[-1.9201967,55.4232481],[-1.9164244,55.4201176],[-1.924817,55.4179665],[-1.9311426,55.4217531],[-1.9559277,55.4132181],[-1.9600432,55.4173326],[-1.9799739,55.4136989],[-1.9884339,55.4182826],[-2.000994,55.4182932],[-2.0108782,55.4226748],[-2.0108126,55.431885],[-2.0387815,55.4289438],[-2.0494129,55.4381069],[-2.0694382,55.4364376],[-2.0777409,55.4399532],[-2.1082044,55.4369378],[-2.1352187,55.454974],[-2.1355047,55.4603896],[-2.1528954,55.4649698],[-2.1551976,55.4692461],[-2.1655246,55.4683708],[-2.1880701,55.4621144],[-2.1948947,55.4445551],[-2.2312749,55.4284284],[-2.2425361,55.432145],[-2.2606175,55.4330057],[-2.2622974,55.4285591],[-2.2706604,55.4295905],[-2.2738869,55.4260017],[-2.2945062,55.4204639],[-2.2960732,55.4148216],[-2.3125523,55.4098533],[-2.3132597,55.4068259],[-2.3323593,55.4099096],[-2.3356221,55.4082067],[-2.3334689,55.4024838],[-2.3449398,55.3993121],[-2.335626,55.3926559],[-2.3347357,55.3830472],[-2.3300624,55.3811707],[-2.3462259,55.3730593],[-2.3375323,55.3672832],[-2.3292273,55.3679192],[-2.2996932,55.3540293],[-2.2893394,55.3443166],[-2.2876558,55.3365272],[-2.2810861,55.3333447],[-2.2496062,55.3326078],[-2.244236,55.3184331],[-2.2206907,55.3188339],[-2.2105424,55.310188],[-2.1716681,55.3109407],[-2.1639038,55.2917596],[-2.1489989,55.2873404],[-2.1504081,55.2681676],[-2.1585418,55.2589002],[-2.1510557,55.2548183],[-2.1333527,55.2543672],[-2.1291024,55.2482744],[-2.1207886,55.2470637],[-2.1164413,55.2361653],[-2.1196133,55.2374056],[-2.1218618,55.2302328],[-2.1405521,55.2247897],[-2.1536835,55.2146254],[-2.1512135,55.2111212],[-2.1602696,55.2042579],[-2.1669605,55.1846749],[-2.1408914,55.1878288],[-2.1435913,55.1925853],[-2.1333088,55.1930519],[-2.1326389,55.1955895],[-2.0956432,55.1961335],[-2.1015065,55.1859214],[-2.0923223,55.1841023],[-2.0908293,55.180818],[-2.0700958,55.1776496],[-2.069479,55.1751008],[-2.0524902,55.1789974],[-2.0522182,55.1849147],[-2.0389867,55.1894239],[-2.0053832,55.1956667],[-1.9979872,55.1815799],[-1.9916296,55.1804143],[-1.9380896,55.1800743],[-1.9259419,55.175956],[-1.9092905,55.1779134],[-1.9119024,55.1850061],[-1.9070411,55.2016477],[-1.9135989,55.2139435],[-1.9029555,55.2168919],[-1.8833361,55.2130198],[-1.8694272,55.2165271],[-1.8579813,55.2158269],[-1.8570307,55.2197251],[-1.864767,55.2249591],[-1.865575,55.2305346],[-1.8592194,55.2307757],[-1.8629991,55.2353454],[-1.8569071,55.2366795],[-1.8541209,55.2319879],[-1.8425638,55.2312496],[-1.8241649,55.2358809],[-1.8291405,55.2376705],[-1.8283816,55.2415911],[-1.8179714,55.2379262],[-1.801524,55.246427],[-1.7988679,55.2483569],[-1.80638,55.2528787],[-1.8050951,55.2582788],[-1.8119971,55.2640276],[-1.7885616,55.2693856],[-1.7912953,55.2765742],[-1.7820995,55.2817676],[-1.7716461,55.2806904],[-1.7668989,55.2914163],[-1.7711326,55.2955637],[-1.7601714,55.296405],[-1.7705676,55.3077961],[-1.7606551,55.3071094],[-1.7546862,55.3099954],[-1.7734932,55.3229352],[-1.7773511,55.3307767],[-1.7885949,55.3330936],[-1.7851669,55.3373935],[-1.8003372,55.3440433],[-1.8036168,55.3494304],[-1.8000292,55.3516462],[-1.7918461,55.3687576],[-1.782281,55.370925],[-1.7807515,55.3784259],[-1.7863228,55.3880419],[-1.7707645,55.3993558],[-1.7683428,55.4176818],[-1.7799043,55.4182625],[-1.7850578,55.4283644],[-1.7611627,55.434781],[-1.7636342,55.4414536],[-1.7581143,55.4494641],[-1.7585824,55.4593064],[-1.7509633,55.465116],[-1.7228487,55.4584328],[-1.7143224,55.4614891],[-1.7144708,55.4665685],[-1.72171,55.4670159],[-1.7276532,55.4741862],[-1.7132343,55.4795653],[-1.7059799,55.4901603],[-1.7192811,55.5021211]]],"type":"Polygon"},"id":"E02005705","properties":{"code":"E02005705","geography":"MSOA","name":"Northumberland 007"},"type":"Feature"},{"geometry":{"coordinates":[[[[-1.9925594,55.7613761],[-2.0015677,55.7616951],[-2.0037317,55.7617716],[-2.0134111,55.7712617],[-2.0253644,55.7693407],[-2.0265721,55.7691914],[-2.0283457,55.7655231],[-2.0220704,55.759359],[-2.0105589,55.7611572],[-2.0168114,55.7525679],[-2.0074596,55.7560427],[-1.9983429,55.7463761],[-1.9835332,55.7512764],[-1.9925594,55.7613761]]],[[[-2.0252252,55.7708762],[-2.0251776,55.7712913],[-2.0256058,55.7711899],[-2.0259216,55.7705367],[-2.0252252,55.7708762]]],[[[-1.9999775,55.7859314],[-2.0015689,55.786866],[-2.0041941,55.7884076],[-2.0121744,55.7917171],[-2.01207,55.7930314],[-2.0142819,55.7943296],[-2.0238398,55.7911134],[-2.0107839,55.7809263],[-2.0069394,55.7694572],[-2.012746,55.7718267],[-2.0102937,55.7700086],[-2.0096985,55.7695673],[-2.0041959,55.7654869],[-2.0015679,55.7656675],[-1.9915895,55.7663528],[-1.9843505,55.7647836],[-1.987154,55.7657263],[-1.9883815,55.7658117],[-1.9883607,55.7661257],[-1.9920093,55.7673331],[-1.9999775,55.7859314]]]],"type":"MultiPolygon"},"id":"E02005706","properties":{"code":"E02005706","geography":"MSOA","name":"Northumberland 001"},"type":"Feature"},{"geometry":{"coordinates":[[[[-1.801197,55.6893145],[-1.8133298,55.6850656],[-1.8265798,55.6846752],[-1.851813,55.6881639],[-1.854943,55.6856329],[-1.8520576,55.68149],[-1.8423822,55.6787177],[-1.8310018,55.6834333],[-1.8155783,55.6824129],[-1.806062,55.6781842],[-1.8024258,55.6682866],[-1.794912,55.6681117],[-1.7932185,55.670605],[-1.7788608,55.6677335],[-1.778943,55.6721028],[-1.781014,55.6767771],[-1.7791312,55.682115],[-1.7791974,55.685629],[-1.7893572,55.6850394],[-1.7924564,55.6887538],[-1.7973729,55.6872264],[-1.801197,55.6893145]]],[[[-2.0311623,55.8042334],[-2.0344242,55.8110914],[-2.052616,55.8025761],[-2.0625738,55.8026638],[-2.0769546,55.7941286],[-2.0861144,55.7930486],[-2.0856467,55.7620854],[-2.1073496,55.7600776],[-2.1064354,55.7485667],[-2.1156743,55.7476156],[-2.1174067,55.738962],[-2.1450189,55.7390431],[-2.149803,55.735223],[-2.1506846,55.7230866],[-2.1676863,55.7224485],[-2.1762852,55.7190601],[-2.1672225,55.7060378],[-2.1837482,55.7018113],[-2.197801,55.6884017],[-2.2186522,55.6759089],[-2.2184362,55.6642701],[-2.2308053,55.6621103],[-2.2482867,55.652344],[-2.2336239,55.645763],[-2.2274261,55.6417088],[-2.2332561,55.6357815],[-2.220587,55.631605],[-2.2100898,55.6353523],[-2.2136019,55.6424626],[-2.2033506,55.6462072],[-2.1817181,55.6451023],[-2.1442293,55.6513817],[-2.1493344,55.6554072],[-2.1402265,55.6615772],[-2.1340749,55.6614909],[-2.1293685,55.6562289],[-2.1094518,55.664832],[-2.0970412,55.6613731],[-2.0866273,55.6636901],[-2.0857835,55.6761862],[-2.0647145,55.6837125],[-2.0396469,55.6785073],[-2.0160013,55.6822668],[-2.0175609,55.6786945],[-2.0073964,55.6766171],[-2.003514,55.6706556],[-1.9661328,55.6716692],[-1.9495431,55.6647652],[-1.9482882,55.6603334],[-1.9399895,55.6605615],[-1.930127,55.6454668],[-1.9108669,55.6420354],[-1.9196056,55.6337352],[-1.8927689,55.6284129],[-1.8571074,55.6312102],[-1.8477756,55.6275989],[-1.8433613,55.630613],[-1.8494501,55.6344707],[-1.8411336,55.6435546],[-1.8466989,55.6467063],[-1.8410372,55.6456613],[-1.8470793,55.6522776],[-1.8490317,55.6534393],[-1.8700126,55.6659166],[-1.866172,55.6659286],[-1.8740639,55.6755645],[-1.8732345,55.6827869],[-1.8856151,55.6839554],[-1.8801988,55.6853043],[-1.8840812,55.6944621],[-1.9119972,55.7049618],[-1.9192038,55.7119859],[-1.9607613,55.7332694],[-1.9632105,55.7382829],[-1.9832607,55.7509714],[-1.9835064,55.7512464],[-1.9835332,55.7512764],[-1.9983429,55.7463761],[-2.0074596,55.7560427],[-2.0168114,55.7525679],[-2.0105589,55.7611572],[-2.0220704,55.759359],[-2.0283457,55.7655231],[-2.0265721,55.7691914],[-2.0293981,55.7688419],[-2.0259216,55.7705367],[-2.0256058,55.7711899],[-2.031643,55.7697588],[-2.0381286,55.7601259],[-2.0460251,55.7579901],[-2.0419477,55.759941],[-2.0404811,55.7606426],[-2.0388579,55.7691089],[-2.0320299,55.7708071],[-2.0293144,55.7714824],[-2.016559,55.7746532],[-2.0132658,55.772212],[-2.0130605,55.7720599],[-2.012746,55.7718267],[-2.0069394,55.7694572],[-2.0107839,55.7809263],[-2.0238398,55.7911134],[-2.0142819,55.7943296],[-2.0311623,55.8042334]]]],"type":"MultiPolygon"},"id":"E02005707","properties":{"code":"E02005707","geography":"MSOA","name":"Northumberland 002"},"type":"Feature"},{"geometry":{"coordinates":[[[[-1.6549873,55.6173867],[-1.6556538,55.6173355],[-1.658327,55.6169187],[-1.6551095,55.616657],[-1.6549873,55.6173867]]],[[[-2.0647145,55.6837125],[-2.0857835,55.6761862],[-2.0866273,55.6636901],[-2.0970412,55.6613731],[-2.1094518,55.664832],[-2.1293685,55.6562289],[-2.1340749,55.6614909],[-2.1402265,55.6615772],[-2.1493344,55.6554072],[-2.1442293,55.6513817],[-2.1817181,55.6451023],[-2.2033506,55.6462072],[-2.2136019,55.6424626],[-2.2100898,55.6353523],[-2.220587,55.631605],[-2.2332561,55.6357815],[-2.2274261,55.6417088],[-2.2336239,55.645763],[-2.2346361,55.6409752],[-2.2456025,55.639585],[-2.2557055,55.6445212],[-2.2792771,55.6427877],[-2.3056344,55.6470685],[-2.3248787,55.6431321],[-2.326424,55.6368347],[-2.3360915,55.6321692],[-2.3243042,55.6261675],[-2.3086173,55.6287825],[-2.3089981,55.6224611],[-2.3160878,55.6204598],[-2.3072798,55.6111054],[-2.2952108,55.6086341],[-2.2892387,55.6037628],[-2.2860404,55.5965254],[-2.2923531,55.5859494],[-2.2894427,55.5809863],[-2.247808,55.556693],[-2.2402952,55.555616],[-2.2323205,55.5449448],[-2.233228,55.529619],[-2.2275822,55.5283862],[-2.2243003,55.5227553],[-2.2289806,55.5097988],[-2.2194123,55.5057004],[-2.2026417,55.4895406],[-2.2063384,55.4813209],[-2.201328,55.4752666],[-2.1737625,55.4722606],[-2.1655246,55.4683708],[-2.1551976,55.4692461],[-2.1528954,55.4649698],[-2.1355047,55.4603896],[-2.1352187,55.454974],[-2.1082044,55.4369378],[-2.0777409,55.4399532],[-2.0694382,55.4364376],[-2.0494129,55.4381069],[-2.0387815,55.4289438],[-2.0108126,55.431885],[-2.0108782,55.4226748],[-2.000994,55.4182932],[-1.9884339,55.4182826],[-1.9799739,55.4136989],[-1.9600432,55.4173326],[-1.9559277,55.4132181],[-1.9311426,55.4217531],[-1.924817,55.4179665],[-1.9164244,55.4201176],[-1.9201967,55.4232481],[-1.9123567,55.42789],[-1.9148263,55.4307138],[-1.908073,55.4341065],[-1.9066259,55.4426047],[-1.9177619,55.4676686],[-1.9100215,55.4697237],[-1.8905371,55.4651202],[-1.8765453,55.4727327],[-1.8763537,55.4771899],[-1.8579583,55.4814752],[-1.8581404,55.4840649],[-1.8454713,55.477858],[-1.8264202,55.4813374],[-1.7931469,55.4972423],[-1.8069027,55.5135721],[-1.7808099,55.5129616],[-1.7609391,55.5097616],[-1.7521512,55.5045102],[-1.7192811,55.5021211],[-1.7290064,55.5086542],[-1.7213965,55.5093878],[-1.7230497,55.5114007],[-1.6963153,55.5130724],[-1.6994073,55.5164821],[-1.6730001,55.5209028],[-1.67667,55.5229735],[-1.6659828,55.5265812],[-1.6542265,55.5238451],[-1.6447914,55.5273325],[-1.641896,55.5374164],[-1.6370551,55.5397655],[-1.6380944,55.5409077],[-1.6323628,55.5502624],[-1.6189291,55.5521843],[-1.6281206,55.554373],[-1.6265009,55.5576765],[-1.6332533,55.5596665],[-1.645644,55.5741784],[-1.6521437,55.5712579],[-1.6394089,55.5782324],[-1.6528466,55.5829021],[-1.6490037,55.5838271],[-1.6648118,55.5861118],[-1.684158,55.6003806],[-1.6920005,55.606161],[-1.7164808,55.612294],[-1.7215175,55.6159382],[-1.7269979,55.6171805],[-1.7423223,55.6185643],[-1.7690737,55.6029696],[-1.7783561,55.6146182],[-1.7863183,55.6160061],[-1.7718137,55.6173512],[-1.7647624,55.6259116],[-1.7839492,55.644106],[-1.7871124,55.6533473],[-1.7871857,55.6555112],[-1.7917028,55.6581229],[-1.7952694,55.6577964],[-1.7918061,55.6533555],[-1.790093,55.6467889],[-1.8021571,55.6361165],[-1.8131733,55.6337068],[-1.8390044,55.6423486],[-1.8404529,55.643169],[-1.8411336,55.6435546],[-1.8494501,55.6344707],[-1.8433613,55.630613],[-1.8477756,55.6275989],[-1.8571074,55.6312102],[-1.8927689,55.6284129],[-1.9196056,55.6337352],[-1.9108669,55.6420354],[-1.930127,55.6454668],[-1.9399895,55.6605615],[-1.9482882,55.6603334],[-1.9495431,55.6647652],[-1.9661328,55.6716692],[-2.003514,55.6706556],[-2.0073964,55.6766171],[-2.0175609,55.6786945],[-2.0160013,55.6822668],[-2.0396469,55.6785073],[-2.0647145,55.6837125]]]],"type":"MultiPolygon"},"id":"E02005708","properties":{"code":"E02005708","geography":"MSOA","name":"Northumberland 003"},"type":"Feature"},{"geometry":{"coordinates":[[[-1.5138236,55.1333978],[-1.5144528,55.1336714],[-1.5158132,55.1340326],[-1.5276306,55.1371693],[-1.534735,55.1351208],[-1.535216,55.1349704],[-1.543824,55.1322778],[-1.5424839,55.1339883],[-1.546205,55.1343205],[-1.5490474,55.1343094],[-1.5524438,55.1332739],[-1.5561881,55.1334328],[-1.5587985,55.1335434],[-1.5576529,55.1279993],[-1.5504373,55.1293273],[-1.5383036,55.121223],[-1.5323191,55.1218695],[-1.5315844,55.131056],[-1.5191268,55.1274541],[-1.5165132,55.1312853],[-1.5117314,55.1295763],[-1.5138236,55.1333978]]],"type":"Polygon"},"id":"E02005709","properties":{"code":"E02005709","geography":"MSOA","name":"Northumberland 022"},"type":"Feature"},{"geometry":{"coordinates":[[[-1.4981271,55.1117286],[-1.4984746,55.112637],[-1.4980072,55.1133636],[-1.4946654,55.1183685],[-1.4914604,55.1171677],[-1.4908233,55.1177636],[-1.4954261,55.1220856],[-1.4977275,55.1177533],[-1.4973206,55.1244391],[-1.4973089,55.1246309],[-1.497277,55.1251548],[-1.5002955,55.1279305],[-1.5025637,55.1286978],[-1.5045948,55.1293849],[-1.5050514,55.1295835],[-1.5138236,55.1333978],[-1.5117314,55.1295763],[-1.5165132,55.1312853],[-1.5191268,55.1274541],[-1.5232227,55.119476],[-1.5196927,55.1222034],[-1.5103115,55.1220822],[-1.5097947,55.1175226],[-1.5028714,55.1092937],[-1.4981271,55.1117286]]],"type":"Polygon"},"id":"E02005710","properties":{"code":"E02005710","geography":"MSOA","name":"Northumberland 023"},"type":"Feature"},{"geometry":{"coordinates":[[[-1.5191268,55.1274541],[-1.5315844,55.131056],[-1.5323191,55.1218695],[-1.527695,55.1118813],[-1.5097947,55.1175226],[-1.5103115,55.1220822],[-1.5196927,55.1222034],[-1.5232227,55.119476],[-1.5191268,55.1274541]]],"type":"Polygon"},"id":"E02005711","properties":{"code":"E02005711","geography":"MSOA","name":"Northumberland 024"},"type":"Feature"},{"geometry":{"coordinates":[[[-1.5587985,55.1335434],[-1.5619939,55.1336788],[-1.5808573,55.1300132],[-1.5859864,55.1278101],[-1.5833814,55.1263668],[-1.5862654,55.1199258],[-1.5813549,55.1188846],[-1.5770222,55.1078044],[-1.5662882,55.1041739],[-1.5665666,55.09945],[-1.5333132,55.1034897],[-1.5303295,55.096311],[-1.520518,55.0979218],[-1.527695,55.1118813],[-1.5323191,55.1218695],[-1.5383036,55.121223],[-1.5504373,55.1293273],[-1.5576529,55.1279993],[-1.5587985,55.1335434]]],"type":"Polygon"},"id":"E02005712","properties":{"code":"E02005712","geography":"MSOA","name":"Northumberland 025"},"type":"Feature"},{"geometry":{"coordinates":[[[-1.4981271,55.1117286],[-1.5028714,55.1092937],[-1.5097947,55.1175226],[-1.527695,55.1118813],[-1.520518,55.0979218],[-1.4941723,55.1020667],[-1.4945565,55.1023934],[-1.4981271,55.1117286]]],"type":"Polygon"},"id":"E02005713","properties":{"code":"E02005713","geography":"MSOA","name":"Northumberland 026"},"type":"Feature"},{"geometry":{"coordinates":[[[-1.5665666,55.09945],[-1.5662882,55.1041739],[-1.5770222,55.1078044],[-1.5813549,55.1188846],[-1.5862147,55.1129101],[-1.5955078,55.1107095],[-1.602697,55.1109533],[-1.6065425,55.1155335],[-1.6132104,55.1104974],[-1.6180428,55.1143121],[-1.6214739,55.1132417],[-1.6259678,55.10787],[-1.6308548,55.1114805],[-1.6470855,55.1050945],[-1.6371882,55.1008937],[-1.635164,55.0848115],[-1.630917,55.085156],[-1.6328602,55.0659338],[-1.5987811,55.0643123],[-1.5958823,55.0813955],[-1.5891249,55.0824318],[-1.591163,55.0781623],[-1.5803873,55.0804141],[-1.577807,55.0879171],[-1.5962939,55.0874247],[-1.5957952,55.1028535],[-1.5737961,55.1038781],[-1.5693116,55.0989386],[-1.5783943,55.0957364],[-1.5668433,55.0930953],[-1.5665666,55.09945]]],"type":"Polygon"},"id":"E02005715","properties":{"code":"E02005715","geography":"MSOA","name":"Northumberland 029"},"type":"Feature"},{"geometry":{"coordinates":[[[-1.4619713,55.0745654],[-1.4663901,55.0797778],[-1.4683621,55.080285],[-1.4687698,55.0825842],[-1.4711871,55.0854345],[-1.4737232,55.0846676],[-1.4766158,55.0871299],[-1.4768839,55.0871614],[-1.4781234,55.0884131],[-1.4941723,55.1020667],[-1.520518,55.0979218],[-1.5303295,55.096311],[-1.5267247,55.0909385],[-1.5339107,55.0872297],[-1.5271869,55.0818834],[-1.5301247,55.0806052],[-1.5134952,55.0837857],[-1.5056324,55.079653],[-1.5227763,55.0738854],[-1.5141504,55.0646208],[-1.5288994,55.0622356],[-1.5347925,55.0644048],[-1.5398542,55.0615834],[-1.5323257,55.0541422],[-1.5102701,55.0550019],[-1.5086181,55.0480129],[-1.4978945,55.0515007],[-1.4876343,55.053808],[-1.4923148,55.0660515],[-1.479631,55.0672022],[-1.4707036,55.0744791],[-1.4619713,55.0745654]]],"type":"Polygon"},"id":"E02005717","properties":{"code":"E02005717","geography":"MSOA","name":"Northumberland 030"},"type":"Feature"},{"geometry":{"coordinates":[[[-1.5803873,55.0804141],[-1.591163,55.0781623],[-1.5891249,55.0824318],[-1.5958823,55.0813955],[-1.5987811,55.0643123],[-1.5981905,55.0642385],[-1.5785255,55.063074],[-1.5740444,55.0717732],[-1.566774,55.0740928],[-1.5713899,55.0753771],[-1.5696138,55.080281],[-1.5803873,55.0804141]]],"type":"Polygon"},"id":"E02005718","properties":{"code":"E02005718","geography":"MSOA","name":"Northumberland 031"},"type":"Feature"},{"geometry":{"coordinates":[[[-1.5303295,55.096311],[-1.5333132,55.1034897],[-1.5665666,55.09945],[-1.5668433,55.0930953],[-1.567222,55.0837665],[-1.5605399,55.0844103],[-1.5466943,55.0768896],[-1.5639962,55.0767402],[-1.566774,55.0740928],[-1.5740444,55.0717732],[-1.5785255,55.063074],[-1.5759493,55.056003],[-1.5597945,55.0545169],[-1.5475705,55.0566339],[-1.5398542,55.0615834],[-1.5347925,55.0644048],[-1.5288994,55.0622356],[-1.5141504,55.0646208],[-1.5227763,55.0738854],[-1.5056324,55.079653],[-1.5134952,55.0837857],[-1.5301247,55.0806052],[-1.5271869,55.0818834],[-1.5339107,55.0872297],[-1.5267247,55.0909385],[-1.5303295,55.096311]]],"type":"Polygon"},"id":"E02005719","properties":{"code":"E02005719","geography":"MSOA","name":"Northumberland 032"},"type":"Feature"},{"geometry":{"coordinates":[[[-1.5621856,55.3017265],[-1.589986,55.306336],[-1.6185448,55.3073557],[-1.6200716,55.3041907],[-1.6264977,55.3038814],[-1.6254242,55.2999631],[-1.6624431,55.2880326],[-1.656105,55.2819891],[-1.6524651,55.2675442],[-1.6709732,55.2655023],[-1.6719425,55.2590363],[-1.6589576,55.2448031],[-1.6642156,55.235483],[-1.6497694,55.2276169],[-1.6585975,55.2238774],[-1.6667923,55.2250204],[-1.6723734,55.2186404],[-1.661195,55.2078779],[-1.6521065,55.2132417],[-1.6207209,55.2100632],[-1.6156473,55.2129397],[-1.6004129,55.2105393],[-1.5871848,55.2129361],[-1.5904131,55.2055431],[-1.5892724,55.2050765],[-1.5688357,55.2016599],[-1.5650083,55.2048962],[-1.5631156,55.2065313],[-1.557566,55.2033792],[-1.5542764,55.2068419],[-1.5523766,55.2050423],[-1.519067,55.2068637],[-1.5269098,55.2160764],[-1.5259072,55.2172904],[-1.5288502,55.2212739],[-1.5254362,55.2272031],[-1.5543528,55.2472967],[-1.5708954,55.2754477],[-1.5721917,55.2753999],[-1.5731209,55.2753447],[-1.5699428,55.2918316],[-1.5687502,55.2933532],[-1.5621856,55.3017265]]],"type":"Polygon"},"id":"E02005720","properties":{"code":"E02005720","geography":"MSOA","name":"Northumberland 008"},"type":"Feature"},{"geometry":{"coordinates":[[[-1.5904131,55.2055431],[-1.5871848,55.2129361],[-1.6004129,55.2105393],[-1.6156473,55.2129397],[-1.6207209,55.2100632],[-1.6521065,55.2132417],[-1.661195,55.2078779],[-1.6698619,55.2055243],[-1.6749783,55.1993182],[-1.6690288,55.1964463],[-1.6845687,55.1906427],[-1.6813899,55.1876636],[-1.6848415,55.1825331],[-1.7064109,55.1820522],[-1.7092692,55.177486],[-1.6962547,55.170991],[-1.6864311,55.1696608],[-1.6713611,55.1747157],[-1.6632323,55.1716658],[-1.6629514,55.1677212],[-1.6565218,55.1658405],[-1.6482846,55.1689902],[-1.6512719,55.1714029],[-1.6350659,55.1785051],[-1.6366402,55.1903523],[-1.6116949,55.1929336],[-1.6161678,55.197562],[-1.5973856,55.2003438],[-1.5904131,55.2055431]]],"type":"Polygon"},"id":"E02005721","properties":{"code":"E02005721","geography":"MSOA","name":"Northumberland 011"},"type":"Feature"},{"geometry":{"coordinates":[[[-1.6624431,55.2880326],[-1.6657638,55.2933616],[-1.6805682,55.2950848],[-1.6849164,55.2970443],[-1.682476,55.3007102],[-1.6906794,55.302067],[-1.7193256,55.2919603],[-1.7370836,55.2919604],[-1.7434237,55.2982313],[-1.7512337,55.2872304],[-1.7668989,55.2914163],[-1.7716461,55.2806904],[-1.7820995,55.2817676],[-1.7912953,55.2765742],[-1.7885616,55.2693856],[-1.8119971,55.2640276],[-1.8050951,55.2582788],[-1.80638,55.2528787],[-1.7988679,55.2483569],[-1.801524,55.246427],[-1.8179714,55.2379262],[-1.8283816,55.2415911],[-1.8291405,55.2376705],[-1.8241649,55.2358809],[-1.8425638,55.2312496],[-1.8541209,55.2319879],[-1.8569071,55.2366795],[-1.8629991,55.2353454],[-1.8592194,55.2307757],[-1.865575,55.2305346],[-1.864767,55.2249591],[-1.8570307,55.2197251],[-1.8579813,55.2158269],[-1.8694272,55.2165271],[-1.8833361,55.2130198],[-1.9029555,55.2168919],[-1.9135989,55.2139435],[-1.9070411,55.2016477],[-1.9119024,55.1850061],[-1.9092905,55.1779134],[-1.9259419,55.175956],[-1.9380896,55.1800743],[-1.9916296,55.1804143],[-1.9859352,55.1725707],[-1.9942107,55.1698341],[-1.9762689,55.1511261],[-1.9586371,55.1460679],[-1.959104,55.1358151],[-1.9535365,55.1276948],[-1.9623042,55.1254256],[-1.9689188,55.1126016],[-1.9850508,55.1108651],[-1.9854262,55.099265],[-1.9983422,55.0925978],[-1.9925502,55.0818148],[-1.9351886,55.0873827],[-1.9276151,55.0804845],[-1.9092597,55.0847298],[-1.9054825,55.0752316],[-1.8881129,55.0735056],[-1.8697107,55.0667473],[-1.8505897,55.0627569],[-1.8420312,55.06782],[-1.8433721,55.0771497],[-1.8106053,55.0801147],[-1.8032338,55.0890349],[-1.7696993,55.0936491],[-1.7528559,55.0894259],[-1.7392866,55.0954688],[-1.7301634,55.0950452],[-1.7187105,55.0892665],[-1.7130157,55.0936205],[-1.7083734,55.0916494],[-1.7153659,55.0744497],[-1.6911049,55.0728196],[-1.6476672,55.0793826],[-1.6378755,55.0647628],[-1.6328602,55.0659338],[-1.630917,55.085156],[-1.635164,55.0848115],[-1.6371882,55.1008937],[-1.6470855,55.1050945],[-1.6308548,55.1114805],[-1.6259678,55.10787],[-1.6214739,55.1132417],[-1.6392892,55.1166233],[-1.6399941,55.1212172],[-1.6514127,55.1287122],[-1.6488712,55.1392084],[-1.6248294,55.1489293],[-1.6210802,55.1506661],[-1.63486,55.1548478],[-1.6370962,55.1645347],[-1.6316252,55.1695683],[-1.6482846,55.1689902],[-1.6565218,55.1658405],[-1.6629514,55.1677212],[-1.6649468,55.1599736],[-1.6764226,55.1566408],[-1.6740466,55.1523074],[-1.6864915,55.1497571],[-1.7088406,55.1511671],[-1.7103547,55.1680649],[-1.7160777,55.1756417],[-1.7092692,55.177486],[-1.7064109,55.1820522],[-1.6848415,55.1825331],[-1.6813899,55.1876636],[-1.6845687,55.1906427],[-1.6690288,55.1964463],[-1.6749783,55.1993182],[-1.6698619,55.2055243],[-1.661195,55.2078779],[-1.6723734,55.2186404],[-1.6667923,55.2250204],[-1.6585975,55.2238774],[-1.6497694,55.2276169],[-1.6642156,55.235483],[-1.6589576,55.2448031],[-1.6719425,55.2590363],[-1.6709732,55.2655023],[-1.6524651,55.2675442],[-1.656105,55.2819891],[-1.6624431,55.2880326]]],"type":"Polygon"},"id":"E02005722","properties":{"code":"E02005722","geography":"MSOA","name":"Northumberland 015"},"type":"Feature"},{"geometry":{"coordinates":[[[-1.6629514,55.1677212],[-1.6632323,55.1716658],[-1.6713611,55.1747157],[-1.6864311,55.1696608],[-1.6962547,55.170991],[-1.7042803,55.1654137],[-1.6985724,55.1562291],[-1.699248,55.1600577],[-1.6918837,55.1592377],[-1.6868898,55.1646546],[-1.6823204,55.1604795],[-1.6787117,55.16157],[-1.6812621,55.1590778],[-1.6764226,55.1566408],[-1.6649468,55.1599736],[-1.6629514,55.1677212]]],"type":"Polygon"},"id":"E02005723","properties":{"code":"E02005723","geography":"MSOA","name":"Northumberland 016"},"type":"Feature"},{"geometry":{"coordinates":[[[-1.6962547,55.170991],[-1.7092692,55.177486],[-1.7160777,55.1756417],[-1.7103547,55.1680649],[-1.7088406,55.1511671],[-1.6864915,55.1497571],[-1.6740466,55.1523074],[-1.6764226,55.1566408],[-1.6812621,55.1590778],[-1.6787117,55.16157],[-1.6823204,55.1604795],[-1.6868898,55.1646546],[-1.6918837,55.1592377],[-1.699248,55.1600577],[-1.6985724,55.1562291],[-1.7042803,55.1654137],[-1.6962547,55.170991]]],"type":"Polygon"},"id":"E02005724","properties":{"code":"E02005724","geography":"MSOA","name":"Northumberland 018"},"type":"Feature"},{"geometry":{"coordinates":[[[-1.6911049,55.0728196],[-1.7153659,55.0744497],[-1.7083734,55.0916494],[-1.7130157,55.0936205],[-1.7187105,55.0892665],[-1.7301634,55.0950452],[-1.7392866,55.0954688],[-1.7528559,55.0894259],[-1.7696993,55.0936491],[-1.8032338,55.0890349],[-1.8106053,55.0801147],[-1.8433721,55.0771497],[-1.8420312,55.06782],[-1.8293304,55.0511083],[-1.8147283,55.0467995],[-1.7770548,55.0511828],[-1.7724391,55.0493283],[-1.7668726,55.0414574],[-1.771692,55.0335628],[-1.7503145,55.0404973],[-1.7502315,55.0240142],[-1.7400187,55.0245746],[-1.7393072,55.0295889],[-1.7269093,55.0331458],[-1.7144335,55.0340173],[-1.716929,55.0386192],[-1.7086392,55.042254],[-1.6949021,55.0428871],[-1.6979131,55.0523727],[-1.7105265,55.0527442],[-1.7137464,55.0654733],[-1.7040938,55.0658215],[-1.7045997,55.0709268],[-1.6913249,55.0697202],[-1.6911049,55.0728196]]],"type":"Polygon"},"id":"E02005725","properties":{"code":"E02005725","geography":"MSOA","name":"Northumberland 033"},"type":"Feature"},{"geometry":{"coordinates":[[[-1.8420312,55.06782],[-1.8505897,55.0627569],[-1.8697107,55.0667473],[-1.8881129,55.0735056],[-1.9054825,55.0752316],[-1.9092597,55.0847298],[-1.9276151,55.0804845],[-1.9351886,55.0873827],[-1.9925502,55.0818148],[-1.989791,55.0772811],[-2.0144308,55.0719109],[-2.0188719,55.065629],[-1.9750427,55.0506909],[-1.9824364,55.0403071],[-1.9717437,55.0322519],[-1.9611437,55.0345549],[-1.959624,55.0224014],[-1.9480575,55.0113997],[-1.9588775,55.0015983],[-1.9368233,55.0045238],[-1.9355959,55.0018275],[-1.9243522,55.0032032],[-1.9278147,55.0084728],[-1.9219932,55.0096105],[-1.9206797,55.0153625],[-1.9047565,55.0141379],[-1.8985132,55.010616],[-1.8987053,55.0051407],[-1.8855462,54.9989517],[-1.8748161,54.9971597],[-1.871296,55.002437],[-1.8542486,55.0053535],[-1.843198,54.9985946],[-1.843022,54.9947522],[-1.8361148,54.9968172],[-1.8267625,54.9877647],[-1.818702,54.9890948],[-1.8102628,54.9821704],[-1.8029005,54.9821357],[-1.8027182,54.9787977],[-1.7859232,54.9845019],[-1.782795,54.9838205],[-1.7849591,54.9845171],[-1.7700507,54.9814223],[-1.7756721,54.9896233],[-1.7738006,55.0039626],[-1.7566624,55.0023098],[-1.7568631,55.0078107],[-1.7502315,55.0240142],[-1.7503145,55.0404973],[-1.771692,55.0335628],[-1.7668726,55.0414574],[-1.7724391,55.0493283],[-1.7770548,55.0511828],[-1.8147283,55.0467995],[-1.8293304,55.0511083],[-1.8420312,55.06782]]],"type":"Polygon"},"id":"E02005726","properties":{"code":"E02005726","geography":"MSOA","name":"Northumberland 034"},"type":"Feature"},{"geometry":{"coordinates":[[[-1.9916296,55.1804143],[-1.9979872,55.1815799],[-2.0053832,55.1956667],[-2.0389867,55.1894239],[-2.0522182,55.1849147],[-2.0524902,55.1789974],[-2.069479,55.1751008],[-2.0700958,55.1776496],[-2.0908293,55.180818],[-2.0923223,55.1841023],[-2.1015065,55.1859214],[-2.0956432,55.1961335],[-2.1326389,55.1955895],[-2.1333088,55.1930519],[-2.1435913,55.1925853],[-2.1408914,55.1878288],[-2.1669605,55.1846749],[-2.1602696,55.2042579],[-2.1512135,55.2111212],[-2.1536835,55.2146254],[-2.1405521,55.2247897],[-2.1218618,55.2302328],[-2.1196133,55.2374056],[-2.1164413,55.2361653],[-2.1207886,55.2470637],[-2.1291024,55.2482744],[-2.1333527,55.2543672],[-2.1510557,55.2548183],[-2.1585418,55.2589002],[-2.1504081,55.2681676],[-2.1489989,55.2873404],[-2.1639038,55.2917596],[-2.1716681,55.3109407],[-2.2105424,55.310188],[-2.2206907,55.3188339],[-2.244236,55.3184331],[-2.2496062,55.3326078],[-2.2810861,55.3333447],[-2.2876558,55.3365272],[-2.2893394,55.3443166],[-2.2996932,55.3540293],[-2.3292273,55.3679192],[-2.3375323,55.3672832],[-2.3728875,55.3550507],[-2.3789128,55.3492353],[-2.3929798,55.3474457],[-2.3996792,55.3482982],[-2.4008495,55.3534853],[-2.4149897,55.35892],[-2.4292542,55.3564403],[-2.4445341,55.3592081],[-2.4612075,55.3532384],[-2.4811265,55.3537184],[-2.4949778,55.3475192],[-2.501982,55.3371977],[-2.5202633,55.3230451],[-2.5307624,55.3227068],[-2.5504226,55.3158157],[-2.5589851,55.3179006],[-2.55722,55.3114893],[-2.5736983,55.3007838],[-2.5733524,55.2969256],[-2.6092316,55.2832615],[-2.628185,55.2679303],[-2.6267109,55.2622207],[-2.6469785,55.2599145],[-2.6270796,55.2503535],[-2.6114453,55.247132],[-2.6302346,55.2448539],[-2.6358,55.2297633],[-2.6318434,55.2236026],[-2.6480644,55.2198643],[-2.6667993,55.2215874],[-2.689785,55.1889814],[-2.6745501,55.1758883],[-2.6832486,55.1666273],[-2.6773187,55.1554845],[-2.6685727,55.1473077],[-2.661619,55.1463616],[-2.6569337,55.1361287],[-2.6326325,55.1277536],[-2.6212672,55.1292128],[-2.5988961,55.1245721],[-2.6004641,55.1171584],[-2.5934295,55.1128289],[-2.5935517,55.1051165],[-2.5854863,55.1030781],[-2.5833192,55.0990211],[-2.5806866,55.0955802],[-2.5684189,55.0962576],[-2.5666985,55.0919618],[-2.5582878,55.0888061],[-2.5627864,55.0843714],[-2.5569404,55.0810347],[-2.518088,55.0849529],[-2.5164605,55.0891114],[-2.5037,55.0907464],[-2.4863342,55.0830412],[-2.4815016,55.0874772],[-2.448641,55.0919312],[-2.4501871,55.0878654],[-2.4635738,55.0821129],[-2.4339923,55.0706568],[-2.4357496,55.0569486],[-2.4227345,55.0624578],[-2.4156652,55.0592769],[-2.4007206,55.0622582],[-2.3829217,55.0522359],[-2.373044,55.0516163],[-2.3631119,55.0468888],[-2.3802098,55.038923],[-2.3783214,55.0358101],[-2.3689363,55.0357289],[-2.3575128,55.0214868],[-2.3271714,55.0372053],[-2.3152294,55.0234324],[-2.2755461,55.0296837],[-2.2771188,55.0383603],[-2.2634069,55.0397324],[-2.2508198,55.0384841],[-2.2504313,55.03618],[-2.2350025,55.0364265],[-2.2336476,55.0431552],[-2.2267559,55.0351453],[-2.1949229,55.0387877],[-2.1841478,55.0363238],[-2.1908501,55.043094],[-2.1673587,55.0511004],[-2.1698817,55.0527287],[-2.1627764,55.0574384],[-2.169021,55.0611187],[-2.1619051,55.0630199],[-2.1572426,55.0558496],[-2.1487434,55.0528067],[-2.124584,55.051459],[-2.1195197,55.0418455],[-2.1099483,55.0363779],[-2.10308,55.0415102],[-2.0959069,55.0401799],[-2.0643144,55.0471757],[-2.0583109,55.051073],[-2.0448375,55.0421522],[-2.0087428,55.0371028],[-2.020974,55.0342734],[-2.0176085,55.0265324],[-2.0072749,55.0264487],[-2.0036421,55.0187141],[-2.0104791,55.0171652],[-2.0121427,55.0063081],[-2.0021454,54.9993552],[-1.9813976,55.0021019],[-1.976894,55.0095602],[-1.9659054,55.0112066],[-1.9595194,55.0019051],[-1.9588775,55.0015983],[-1.9480575,55.0113997],[-1.959624,55.0224014],[-1.9611437,55.0345549],[-1.9717437,55.0322519],[-1.9824364,55.0403071],[-1.9750427,55.0506909],[-2.0188719,55.065629],[-2.0144308,55.0719109],[-1.989791,55.0772811],[-1.9925502,55.0818148],[-1.9983422,55.0925978],[-1.9854262,55.099265],[-1.9850508,55.1108651],[-1.9689188,55.1126016],[-1.9623042,55.1254256],[-1.9535365,55.1276948],[-1.959104,55.1358151],[-1.9586371,55.1460679],[-1.9762689,55.1511261],[-1.9942107,55.1698341],[-1.9859352,55.1725707],[-1.9916296,55.1804143]]],"type":"Polygon"},"id":"E02005727","properties":{"code":"E02005727","geography":"MSOA","name":"Northumberland 019"},"type":"Feature"},{"geometry":{"coordinates":[[[-2.3152294,55.0234324],[-2.3271714,55.0372053],[-2.3575128,55.0214868],[-2.3689363,55.0357289],[-2.3783214,55.0358101],[-2.3802098,55.038923],[-2.3631119,55.0468888],[-2.373044,55.0516163],[-2.3829217,55.0522359],[-2.4007206,55.0622582],[-2.4156652,55.0592769],[-2.4227345,55.0624578],[-2.4357496,55.0569486],[-2.4339923,55.0706568],[-2.4635738,55.0821129],[-2.4501871,55.0878654],[-2.448641,55.0919312],[-2.4815016,55.0874772],[-2.4863342,55.0830412],[-2.4866317,55.0810979],[-2.4946469,55.0818592],[-2.5012276,55.0752201],[-2.492193,55.068149],[-2.5039784,55.0624266],[-2.4999525,55.062032],[-2.5006706,55.0565688],[-2.4946994,55.0531257],[-2.4907455,55.0545211],[-2.4943346,55.0507099],[-2.4829493,55.0436958],[-2.4830431,55.0400138],[-2.5052503,55.0368651],[-2.504473,55.0331854],[-2.5093553,55.0363402],[-2.5122913,55.0338342],[-2.5269055,55.0329348],[-2.5276149,55.0290948],[-2.5395653,55.0288716],[-2.5526123,55.0210366],[-2.5728447,55.0163931],[-2.5736464,55.0067212],[-2.5702348,55.0065008],[-2.5741738,55.0036948],[-2.5677065,55.0027417],[-2.5733037,54.987632],[-2.57923,54.9828872],[-2.5866226,54.9820284],[-2.591585,54.9741452],[-2.600339,54.9736563],[-2.5955621,54.9634747],[-2.5684843,54.9583557],[-2.5712783,54.9483638],[-2.5676427,54.9408496],[-2.5514145,54.9294129],[-2.5452657,54.9291654],[-2.5662147,54.9192311],[-2.5675591,54.9089961],[-2.5764079,54.8967103],[-2.6054251,54.8843753],[-2.5902412,54.8737767],[-2.5733466,54.8535391],[-2.5826654,54.8458599],[-2.5678429,54.8235679],[-2.5583012,54.8167178],[-2.5306413,54.8059852],[-2.4954035,54.8102993],[-2.4605869,54.8341636],[-2.4522121,54.8320237],[-2.4226843,54.8428265],[-2.4116173,54.8564241],[-2.4016163,54.8514773],[-2.3927197,54.8345085],[-2.3612951,54.8580299],[-2.3411445,54.8655975],[-2.3440255,54.8808095],[-2.3382723,54.8945226],[-2.3445714,54.9049284],[-2.3382739,54.9126347],[-2.3128313,54.9232072],[-2.3087753,54.9198163],[-2.3039728,54.9213957],[-2.3146275,54.9292465],[-2.3070747,54.9318802],[-2.3129668,54.93462],[-2.3119328,54.9393427],[-2.3197103,54.9422257],[-2.314727,54.9457427],[-2.317237,54.9532308],[-2.3220499,54.9537068],[-2.3161486,54.9603929],[-2.313538,54.9774301],[-2.3044393,54.9831613],[-2.3072041,55.0044977],[-2.313832,55.0143853],[-2.3174359,55.0123254],[-2.3288486,55.0144832],[-2.3172082,55.018509],[-2.3152294,55.0234324]]],"type":"Polygon"},"id":"E02005728","properties":{"code":"E02005728","geography":"MSOA","name":"Northumberland 037"},"type":"Feature"},{"geometry":{"coordinates":[[[-1.8027182,54.9787977],[-1.8029005,54.9821357],[-1.8102628,54.9821704],[-1.818702,54.9890948],[-1.8267625,54.9877647],[-1.8361148,54.9968172],[-1.843022,54.9947522],[-1.843198,54.9985946],[-1.8542486,55.0053535],[-1.871296,55.002437],[-1.8748161,54.9971597],[-1.8855462,54.9989517],[-1.8987053,55.0051407],[-1.8985132,55.010616],[-1.9047565,55.0141379],[-1.9206797,55.0153625],[-1.9219932,55.0096105],[-1.9278147,55.0084728],[-1.9243522,55.0032032],[-1.9355959,55.0018275],[-1.9368233,55.0045238],[-1.9588775,55.0015983],[-1.9595194,55.0019051],[-1.9563798,54.9921917],[-1.9609105,54.9828285],[-1.9857824,54.9717573],[-1.9831225,54.9552218],[-1.9667776,54.9505091],[-1.9570253,54.9537321],[-1.927414,54.9463241],[-1.9204972,54.9522715],[-1.9018324,54.9575199],[-1.902481,54.9546288],[-1.8934811,54.9539134],[-1.90035,54.9493949],[-1.8991859,54.9463052],[-1.9044711,54.9463406],[-1.8986731,54.9437263],[-1.8971707,54.9460072],[-1.8913062,54.9419422],[-1.8935749,54.9314529],[-1.8767638,54.9326934],[-1.8605702,54.9410988],[-1.8595277,54.948586],[-1.873668,54.9570154],[-1.8758876,54.962249],[-1.8370463,54.9774925],[-1.8225816,54.9648249],[-1.8155131,54.9672863],[-1.8128007,54.9763148],[-1.8027182,54.9787977]]],"type":"Polygon"},"id":"E02005729","properties":{"code":"E02005729","geography":"MSOA","name":"Northumberland 036"},"type":"Feature"},{"geometry":{"coordinates":[[[-2.0718764,54.9503725],[-2.0631181,54.9565286],[-2.065033,54.9700949],[-2.0877608,54.9716914],[-2.0937713,54.9765885],[-2.0898153,54.9822756],[-2.0812964,54.9846158],[-2.0782193,54.9908071],[-2.0663599,54.9935948],[-2.0594763,54.999741],[-2.0603689,55.0098455],[-2.054337,55.0161352],[-2.0628041,55.0172444],[-2.0728318,55.0104115],[-2.0901731,55.0085738],[-2.1038707,55.0016757],[-2.1271601,55.0045678],[-2.1279162,55.0072483],[-2.1330735,55.0061481],[-2.1298829,54.9888398],[-2.1472004,54.9881488],[-2.1497074,54.9840407],[-2.1648293,54.9807772],[-2.1784498,54.9680385],[-2.1688316,54.9634221],[-2.1764776,54.9487468],[-2.1452637,54.9490595],[-2.1116071,54.9437629],[-2.1031068,54.9454828],[-2.1029487,54.9500639],[-2.0949585,54.9530199],[-2.0906033,54.9510985],[-2.0782984,54.9544921],[-2.0718764,54.9503725]]],"type":"Polygon"},"id":"E02005730","properties":{"code":"E02005730","geography":"MSOA","name":"Northumberland 035"},"type":"Feature"},{"geometry":{"coordinates":[[[-1.8225816,54.9648249],[-1.8370463,54.9774925],[-1.8758876,54.962249],[-1.873668,54.9570154],[-1.8595277,54.948586],[-1.8605702,54.9410988],[-1.851485,54.9421564],[-1.8485267,54.9378618],[-1.8424361,54.9403607],[-1.8370889,54.9351793],[-1.8353757,54.9431422],[-1.8310673,54.9443225],[-1.8326875,54.9536628],[-1.822987,54.9557459],[-1.8225816,54.9648249]]],"type":"Polygon"},"id":"E02005731","properties":{"code":"E02005731","geography":"MSOA","name":"Northumberland 038"},"type":"Feature"},{"geometry":{"coordinates":[[[-2.0176085,55.0265324],[-2.020974,55.0342734],[-2.0087428,55.0371028],[-2.0448375,55.0421522],[-2.0583109,55.051073],[-2.0643144,55.0471757],[-2.0959069,55.0401799],[-2.10308,55.0415102],[-2.1099483,55.0363779],[-2.1195197,55.0418455],[-2.124584,55.051459],[-2.1487434,55.0528067],[-2.1572426,55.0558496],[-2.1619051,55.0630199],[-2.169021,55.0611187],[-2.1627764,55.0574384],[-2.1698817,55.0527287],[-2.1673587,55.0511004],[-2.1908501,55.043094],[-2.1841478,55.0363238],[-2.1949229,55.0387877],[-2.2267559,55.0351453],[-2.2336476,55.0431552],[-2.2350025,55.0364265],[-2.2504313,55.03618],[-2.2508198,55.0384841],[-2.2634069,55.0397324],[-2.2771188,55.0383603],[-2.2755461,55.0296837],[-2.3152294,55.0234324],[-2.3172082,55.018509],[-2.3288486,55.0144832],[-2.3174359,55.0123254],[-2.313832,55.0143853],[-2.3072041,55.0044977],[-2.3044393,54.9831613],[-2.313538,54.9774301],[-2.3161486,54.9603929],[-2.3220499,54.9537068],[-2.317237,54.9532308],[-2.314727,54.9457427],[-2.3197103,54.9422257],[-2.3119328,54.9393427],[-2.3129668,54.93462],[-2.3070747,54.9318802],[-2.3146275,54.9292465],[-2.3039728,54.9213957],[-2.3087753,54.9198163],[-2.3128313,54.9232072],[-2.3382739,54.9126347],[-2.3445714,54.9049284],[-2.3382723,54.8945226],[-2.3440255,54.8808095],[-2.3411445,54.8655975],[-2.3612951,54.8580299],[-2.3927197,54.8345085],[-2.3726631,54.8273722],[-2.3698241,54.8209597],[-2.348422,54.8070722],[-2.3273907,54.8053308],[-2.3232776,54.7950022],[-2.3120829,54.7910079],[-2.29298,54.7931583],[-2.2826717,54.798245],[-2.248656,54.787953],[-2.2355133,54.7867902],[-2.2340578,54.7841583],[-2.2188992,54.7823703],[-2.1985931,54.8067294],[-2.17741,54.8068139],[-2.1694626,54.8036031],[-2.1642581,54.81582],[-2.1431228,54.826952],[-2.1397816,54.8418632],[-2.1221113,54.8413533],[-2.1298562,54.8493399],[-2.1059655,54.8525333],[-2.0980992,54.8707744],[-2.0877317,54.8803865],[-2.0741067,54.8864861],[-2.063088,54.8869118],[-2.0447404,54.8813064],[-2.0428307,54.8866839],[-2.0262618,54.8880414],[-2.0224671,54.885403],[-2.0005522,54.8892946],[-2.0092687,54.8987798],[-2.0080956,54.9037358],[-2.0184839,54.9080168],[-2.0075932,54.9195489],[-2.0112797,54.9289505],[-2.0082065,54.9425215],[-2.0352075,54.9314305],[-2.0465624,54.9311021],[-2.0625107,54.9357959],[-2.0808237,54.930819],[-2.0760655,54.9380246],[-2.0815345,54.9442046],[-2.0718764,54.9503725],[-2.0782984,54.9544921],[-2.0906033,54.9510985],[-2.0949585,54.9530199],[-2.1029487,54.9500639],[-2.1031068,54.9454828],[-2.1116071,54.9437629],[-2.1452637,54.9490595],[-2.1764776,54.9487468],[-2.1688316,54.9634221],[-2.1784498,54.9680385],[-2.1648293,54.9807772],[-2.1497074,54.9840407],[-2.1472004,54.9881488],[-2.1298829,54.9888398],[-2.1330735,55.0061481],[-2.1279162,55.0072483],[-2.1271601,55.0045678],[-2.1038707,55.0016757],[-2.0901731,55.0085738],[-2.0728318,55.0104115],[-2.0628041,55.0172444],[-2.0505483,55.0163346],[-2.0488076,55.0203465],[-2.0282536,55.0183738],[-2.02457,55.0199298],[-2.027006,55.0258225],[-2.0176085,55.0265324]]],"type":"Polygon"},"id":"E02005733","properties":{"code":"E02005733","geography":"MSOA","name":"Northumberland 040"},"type":"Feature"},{"geometry":{"coordinates":[[[-1.5382633,55.1623094],[-1.5382074,55.1623329],[-1.5379809,55.162338],[-1.5250634,55.1626266],[-1.520684,55.1671324],[-1.5199908,55.1705494],[-1.5139264,55.1740828],[-1.5132088,55.1748207],[-1.5127085,55.1777495],[-1.5143622,55.1786665],[-1.5118192,55.1829546],[-1.5117005,55.1836488],[-1.4990095,55.1854332],[-1.505096,55.192592],[-1.5017225,55.1963308],[-1.5105074,55.1991214],[-1.5123999,55.2010296],[-1.519067,55.2068637],[-1.5523766,55.2050423],[-1.5542764,55.2068419],[-1.557566,55.2033792],[-1.5631156,55.2065313],[-1.5650083,55.2048962],[-1.536898,55.1906467],[-1.5388585,55.1868678],[-1.5302724,55.1746944],[-1.5382633,55.1623094]]],"type":"Polygon"},"id":"E02005734","properties":{"code":"E02005734","geography":"MSOA","name":"Northumberland 009"},"type":"Feature"},{"geometry":{"coordinates":[[[-1.558676,55.1756764],[-1.5521053,55.1788487],[-1.558871,55.1836376],[-1.5565228,55.1861167],[-1.5774911,55.1877422],[-1.5781202,55.1799837],[-1.558676,55.1756764]]],"type":"Polygon"},"id":"E02005735","properties":{"code":"E02005735","geography":"MSOA","name":"Northumberland 010"},"type":"Feature"},{"geometry":{"coordinates":[[[-1.5650083,55.2048962],[-1.5688357,55.2016599],[-1.5892724,55.2050765],[-1.5774911,55.1877422],[-1.5565228,55.1861167],[-1.558871,55.1836376],[-1.5521053,55.1788487],[-1.558676,55.1756764],[-1.5530473,55.1707245],[-1.5441567,55.1722013],[-1.5431054,55.1617197],[-1.5395816,55.1617537],[-1.5382633,55.1623094],[-1.5302724,55.1746944],[-1.5388585,55.1868678],[-1.536898,55.1906467],[-1.5650083,55.2048962]]],"type":"Polygon"},"id":"E02005736","properties":{"code":"E02005736","geography":"MSOA","name":"Northumberland 013"},"type":"Feature"},{"geometry":{"coordinates":[[[-1.5658881,55.1658786],[-1.5928941,55.1707325],[-1.6008045,55.1647875],[-1.6131744,55.1616081],[-1.617134,55.1638132],[-1.6128626,55.1666011],[-1.6215562,55.1681975],[-1.6224201,55.1722961],[-1.6316252,55.1695683],[-1.6370962,55.1645347],[-1.63486,55.1548478],[-1.6210802,55.1506661],[-1.6248294,55.1489293],[-1.5996617,55.1451864],[-1.5701921,55.1411513],[-1.5658881,55.1658786]]],"type":"Polygon"},"id":"E02005739","properties":{"code":"E02005739","geography":"MSOA","name":"Northumberland 017"},"type":"Feature"},{"geometry":{"coordinates":[[[[-1.546205,55.1343205],[-1.5480317,55.1344836],[-1.5483754,55.1345143],[-1.5488012,55.1343845],[-1.5490474,55.1343094],[-1.546205,55.1343205]]],[[[-1.5658881,55.1658786],[-1.5701921,55.1411513],[-1.5996617,55.1451864],[-1.5982109,55.1388869],[-1.584722,55.1365116],[-1.5919729,55.1334566],[-1.5897281,55.1304772],[-1.5954465,55.1295031],[-1.5884857,55.1275064],[-1.5926154,55.1258117],[-1.5833814,55.1263668],[-1.5859864,55.1278101],[-1.5808573,55.1300132],[-1.5619939,55.1336788],[-1.5651236,55.1338114],[-1.5611057,55.1346236],[-1.5540669,55.1342897],[-1.5539104,55.1342876],[-1.5538611,55.1342905],[-1.5339671,55.1376223],[-1.5581294,55.1469175],[-1.5332226,55.1390518],[-1.522514,55.1417125],[-1.5200204,55.1388074],[-1.521926,55.1435693],[-1.5041178,55.1305475],[-1.4986267,55.1284448],[-1.4909657,55.1207507],[-1.4912774,55.1214923],[-1.4986547,55.1295898],[-1.5038344,55.1337056],[-1.5052381,55.1341838],[-1.5055695,55.134507],[-1.5056149,55.1345259],[-1.5080175,55.1370288],[-1.516152,55.1434891],[-1.5187762,55.1485842],[-1.5193072,55.1491488],[-1.5193973,55.14979],[-1.5249206,55.160509],[-1.5400607,55.1615518],[-1.539701,55.1617034],[-1.5395816,55.1617537],[-1.5431054,55.1617197],[-1.5658881,55.1658786]]]],"type":"MultiPolygon"},"id":"E02005740","properties":{"code":"E02005740","geography":"MSOA","name":"Northumberland 020"},"type":"Feature"},{"geometry":{"coordinates":[[[-1.5996617,55.1451864],[-1.6248294,55.1489293],[-1.6488712,55.1392084],[-1.6514127,55.1287122],[-1.6399941,55.1212172],[-1.6392892,55.1166233],[-1.6214739,55.1132417],[-1.6180428,55.1143121],[-1.6132104,55.1104974],[-1.6065425,55.1155335],[-1.602697,55.1109533],[-1.5955078,55.1107095],[-1.5862147,55.1129101],[-1.5813549,55.1188846],[-1.5862654,55.1199258],[-1.5833814,55.1263668],[-1.5926154,55.1258117],[-1.5884857,55.1275064],[-1.5954465,55.1295031],[-1.5897281,55.1304772],[-1.5919729,55.1334566],[-1.584722,55.1365116],[-1.5982109,55.1388869],[-1.5996617,55.1451864]]],"type":"Polygon"},"id":"E02005741","properties":{"code":"E02005741","geography":"MSOA","name":"Northumberland 021"},"type":"Feature"},{"geometry":{"coordinates":[[[-1.5892724,55.2050765],[-1.5904131,55.2055431],[-1.5973856,55.2003438],[-1.6161678,55.197562],[-1.6116949,55.1929336],[-1.6366402,55.1903523],[-1.6350659,55.1785051],[-1.6512719,55.1714029],[-1.6482846,55.1689902],[-1.6316252,55.1695683],[-1.6224201,55.1722961],[-1.6215562,55.1681975],[-1.6128626,55.1666011],[-1.617134,55.1638132],[-1.6131744,55.1616081],[-1.6008045,55.1647875],[-1.5928941,55.1707325],[-1.5658881,55.1658786],[-1.5431054,55.1617197],[-1.5441567,55.1722013],[-1.5530473,55.1707245],[-1.558676,55.1756764],[-1.5781202,55.1799837],[-1.5774911,55.1877422],[-1.5892724,55.2050765]]],"type":"Polygon"},"id":"E02007105","properties":{"code":"E02007105","geography":"MSOA","name":"Northumberland 041"},"type":"Feature"},{"geometry":{"coordinates":[[[-1.5668433,55.0930953],[-1.5783943,55.0957364],[-1.5693116,55.0989386],[-1.5737961,55.1038781],[-1.5957952,55.1028535],[-1.5962939,55.0874247],[-1.577807,55.0879171],[-1.5803873,55.0804141],[-1.5696138,55.080281],[-1.5713899,55.0753771],[-1.566774,55.0740928],[-1.5639962,55.0767402],[-1.5466943,55.0768896],[-1.5605399,55.0844103],[-1.567222,55.0837665],[-1.5668433,55.0930953]]],"type":"Polygon"},"id":"E02007106","properties":{"code":"E02007106","geography":"MSOA","name":"Northumberland 042"},"type":"Feature"},{"geometry":{"coordinates":[[[-2.1298562,54.8493399],[-2.1221113,54.8413533],[-2.1039109,54.8402372],[-2.0977177,54.8367556],[-2.0824674,54.8382149],[-2.0678849,54.8447924],[-2.0397484,54.8482838],[-2.026202,54.8588066],[-2.0009579,54.86966],[-1.9802276,54.8681762],[-1.9706845,54.8634812],[-1.9747585,54.8620561],[-1.9724549,54.8602356],[-1.9524035,54.8542342],[-1.9393203,54.8517728],[-1.9326722,54.8541799],[-1.9318288,54.8508971],[-1.9224011,54.8497435],[-1.920968,54.8424445],[-1.9271469,54.8412902],[-1.9181281,54.8407655],[-1.920746,54.8379837],[-1.9138918,54.8339638],[-1.9140347,54.8395209],[-1.8967123,54.8458782],[-1.8874909,54.8436027],[-1.8704002,54.8506653],[-1.8665925,54.8553285],[-1.8696614,54.8615504],[-1.8611082,54.8666252],[-1.8600391,54.8780263],[-1.8508721,54.8848214],[-1.8544266,54.8911774],[-1.8474655,54.8897748],[-1.8454389,54.8968956],[-1.834676,54.8990185],[-1.8276861,54.9054863],[-1.821003,54.9056544],[-1.8267105,54.9101246],[-1.8527111,54.9174062],[-1.8411446,54.9297148],[-1.8269408,54.9302183],[-1.8248463,54.9403114],[-1.8310673,54.9443225],[-1.8353757,54.9431422],[-1.8370889,54.9351793],[-1.8424361,54.9403607],[-1.8485267,54.9378618],[-1.851485,54.9421564],[-1.8605702,54.9410988],[-1.8767638,54.9326934],[-1.8935749,54.9314529],[-1.8913062,54.9419422],[-1.8971707,54.9460072],[-1.8986731,54.9437263],[-1.9044711,54.9463406],[-1.8991859,54.9463052],[-1.90035,54.9493949],[-1.8934811,54.9539134],[-1.902481,54.9546288],[-1.9018324,54.9575199],[-1.9204972,54.9522715],[-1.927414,54.9463241],[-1.9570253,54.9537321],[-1.9667776,54.9505091],[-1.9831225,54.9552218],[-1.9857824,54.9717573],[-1.9609105,54.9828285],[-1.9563798,54.9921917],[-1.9595194,55.0019051],[-1.9659054,55.0112066],[-1.976894,55.0095602],[-1.9813976,55.0021019],[-2.0021454,54.9993552],[-2.0121427,55.0063081],[-2.0104791,55.0171652],[-2.0036421,55.0187141],[-2.0072749,55.0264487],[-2.0176085,55.0265324],[-2.027006,55.0258225],[-2.02457,55.0199298],[-2.0282536,55.0183738],[-2.0488076,55.0203465],[-2.0505483,55.0163346],[-2.0628041,55.0172444],[-2.054337,55.0161352],[-2.0603689,55.0098455],[-2.0594763,54.999741],[-2.0663599,54.9935948],[-2.0782193,54.9908071],[-2.0812964,54.9846158],[-2.0898153,54.9822756],[-2.0937713,54.9765885],[-2.0877608,54.9716914],[-2.065033,54.9700949],[-2.0631181,54.9565286],[-2.0718764,54.9503725],[-2.0815345,54.9442046],[-2.0760655,54.9380246],[-2.0808237,54.930819],[-2.0625107,54.9357959],[-2.0465624,54.9311021],[-2.0352075,54.9314305],[-2.0082065,54.9425215],[-2.0112797,54.9289505],[-2.0075932,54.9195489],[-2.0184839,54.9080168],[-2.0080956,54.9037358],[-2.0092687,54.8987798],[-2.0005522,54.8892946],[-2.0224671,54.885403],[-2.0262618,54.8880414],[-2.0428307,54.8866839],[-2.0447404,54.8813064],[-2.063088,54.8869118],[-2.0741067,54.8864861],[-2.0877317,54.8803865],[-2.0980992,54.8707744],[-2.1059655,54.8525333],[-2.1298562,54.8493399]]],"type":"Polygon"},"id":"E02007107","properties":{"code":"E02007107","geography":"MSOA","name":"Northumberland 043"},"type":"Feature"}],"type":"FeatureCollection"}
