{"features":[{"geometry":{"coordinates":[[[-1.8835194,50.7720942],[-1.8954494,50.7803581],[-1.9101616,50.775291],[-1.9048852,50.7674725],[-1.9020399,50.7685362],[-1.908193,50.7646705],[-1.901332,50.7603091],[-1.8992085,50.759116],[-1.894517,50.7652626],[-1.8906319,50.7633421],[-1.884185,50.7676466],[-1.8835194,50.7720942]]],"type":"Polygon"},"id":"E02003172","properties":{"code":"E02003172","geography":"MSOA","name":"Bournemouth, Christchurch and Poole 003"},"type":"Feature"},{"geometry":{"coordinates":[[[-1.901332,50.7603091],[-1.908193,50.7646705],[-1.9020399,50.7685362],[-1.9048852,50.7674725],[-1.9101616,50.775291],[-1.9192314,50.7746953],[-1.9240626,50.7718483],[-1.9268409,50.7642411],[-1.9376167,50.7556873],[-1.9257666,50.751135],[-1.9255127,50.7510252],[-1.9271377,50.7556902],[-1.9214459,50.7580075],[-1.9261333,50.7610036],[-1.9214266,50.7664922],[-1.9040627,50.7608349],[-1.901332,50.7603091]]],"type":"Polygon"},"id":"E02003173","properties":{"code":"E02003173","geography":"MSOA","name":"Bournemouth, Christchurch and Poole 005"},"type":"Feature"},{"geometry":{"coordinates":[[[-1.8733909,50.7633906],[-1.8835194,50.7720942],[-1.884185,50.7676466],[-1.8906319,50.7633421],[-1.894517,50.7652626],[-1.8992085,50.759116],[-1.8930374,50.7583844],[-1.896006,50.7525341],[-1.8862963,50.7516543],[-1.8833499,50.7532833],[-1.8734549,50.7633052],[-1.8733909,50.7633906]]],"type":"Polygon"},"id":"E02003174","properties":{"code":"E02003174","geography":"MSOA","name":"Bournemouth, Christchurch and Poole 006"},"type":"Feature"},{"geometry":{"coordinates":[[[-1.8377783,50.7598761],[-1.8511887,50.7735935],[-1.8638888,50.7646808],[-1.8652132,50.7532861],[-1.8598156,50.7499272],[-1.856273,50.753313],[-1.846386,50.75092],[-1.8377783,50.7598761]]],"type":"Polygon"},"id":"E02003175","properties":{"code":"E02003175","geography":"MSOA","name":"Bournemouth, Christchurch and Poole 007"},"type":"Feature"},{"geometry":{"coordinates":[[[-1.9040627,50.7608349],[-1.9214266,50.7664922],[-1.9261333,50.7610036],[-1.9214459,50.7580075],[-1.9271377,50.7556902],[-1.9255127,50.7510252],[-1.9076231,50.7459077],[-1.9050212,50.7454212],[-1.9107776,50.7497158],[-1.9065986,50.7555151],[-1.9101892,50.7563824],[-1.909397,50.760343],[-1.9051579,50.7588039],[-1.9040627,50.7608349]]],"type":"Polygon"},"id":"E02003176","properties":{"code":"E02003176","geography":"MSOA","name":"Bournemouth, Christchurch and Poole 010"},"type":"Feature"},{"geometry":{"coordinates":[[[-1.8652132,50.7532861],[-1.8638888,50.7646808],[-1.8734549,50.7633052],[-1.8833499,50.7532833],[-1.8659561,50.7493322],[-1.8652132,50.7532861]]],"type":"Polygon"},"id":"E02003177","properties":{"code":"E02003177","geography":"MSOA","name":"Bournemouth, Christchurch and Poole 009"},"type":"Feature"},{"geometry":{"coordinates":[[[-1.901332,50.7603091],[-1.9040627,50.7608349],[-1.9051579,50.7588039],[-1.909397,50.760343],[-1.9101892,50.7563824],[-1.9065986,50.7555151],[-1.9107776,50.7497158],[-1.9050212,50.7454212],[-1.8982461,50.7441422],[-1.8865305,50.7469662],[-1.8812172,50.7506488],[-1.8862963,50.7516543],[-1.896006,50.7525341],[-1.8930374,50.7583844],[-1.8992085,50.759116],[-1.901332,50.7603091]]],"type":"Polygon"},"id":"E02003178","properties":{"code":"E02003178","geography":"MSOA","name":"Bournemouth, Christchurch and Poole 011"},"type":"Feature"},{"geometry":{"coordinates":[[[-1.8161852,50.7561547],[-1.8377783,50.7598761],[-1.846386,50.75092],[-1.856273,50.753313],[-1.8598156,50.7499272],[-1.8467769,50.74528],[-1.8396682,50.7475905],[-1.8382339,50.744543],[-1.8306577,50.7465627],[-1.8161852,50.7561547]]],"type":"Polygon"},"id":"E02003179","properties":{"code":"E02003179","geography":"MSOA","name":"Bournemouth, Christchurch and Poole 012"},"type":"Feature"},{"geometry":{"coordinates":[[[-1.8659561,50.7493322],[-1.8833499,50.7532833],[-1.8862963,50.7516543],[-1.8812172,50.7506488],[-1.8865305,50.7469662],[-1.8818824,50.7454432],[-1.8847602,50.7413399],[-1.8739617,50.7389241],[-1.8728665,50.7431493],[-1.8659561,50.7493322]]],"type":"Polygon"},"id":"E02003180","properties":{"code":"E02003180","geography":"MSOA","name":"Bournemouth, Christchurch and Poole 015"},"type":"Feature"},{"geometry":{"coordinates":[[[-1.8598156,50.7499272],[-1.8652132,50.7532861],[-1.8659561,50.7493322],[-1.8728665,50.7431493],[-1.8649267,50.7390896],[-1.8588442,50.7395651],[-1.8593598,50.736748],[-1.8547276,50.7374061],[-1.8499759,50.7423569],[-1.8382339,50.744543],[-1.8396682,50.7475905],[-1.8467769,50.74528],[-1.8598156,50.7499272]]],"type":"Polygon"},"id":"E02003181","properties":{"code":"E02003181","geography":"MSOA","name":"Bournemouth, Christchurch and Poole 017"},"type":"Feature"},{"geometry":{"coordinates":[[[-1.8150009,50.7440164],[-1.8161852,50.7561547],[-1.8306577,50.7465627],[-1.842864,50.7368697],[-1.8409913,50.7309114],[-1.8232017,50.7339973],[-1.8199094,50.7316103],[-1.8166886,50.7324139],[-1.8108104,50.7380911],[-1.8170809,50.7385362],[-1.8200897,50.7430712],[-1.8154349,50.7432649],[-1.8150009,50.7440164]]],"type":"Polygon"},"id":"E02003182","properties":{"code":"E02003182","geography":"MSOA","name":"Bournemouth, Christchurch and Poole 020"},"type":"Feature"},{"geometry":{"coordinates":[[[-1.8739617,50.7389241],[-1.8847602,50.7413399],[-1.8818824,50.7454432],[-1.8865305,50.7469662],[-1.8982461,50.7441422],[-1.8911471,50.741953],[-1.9036832,50.7288514],[-1.8858899,50.7234355],[-1.8808232,50.7286148],[-1.8840619,50.7347028],[-1.8720764,50.7361933],[-1.8739617,50.7389241]]],"type":"Polygon"},"id":"E02003183","properties":{"code":"E02003183","geography":"MSOA","name":"Bournemouth, Christchurch and Poole 028"},"type":"Feature"},{"geometry":{"coordinates":[[[-1.8547276,50.7374061],[-1.8593598,50.736748],[-1.8588442,50.7395651],[-1.8649267,50.7390896],[-1.8728665,50.7431493],[-1.8739617,50.7389241],[-1.8720764,50.7361933],[-1.8840619,50.7347028],[-1.8808232,50.7286148],[-1.8780329,50.7325497],[-1.8636665,50.7323425],[-1.8547276,50.7374061]]],"type":"Polygon"},"id":"E02003184","properties":{"code":"E02003184","geography":"MSOA","name":"Bournemouth, Christchurch and Poole 027"},"type":"Feature"},{"geometry":{"coordinates":[[[-1.807413,50.7416843],[-1.8154349,50.7432649],[-1.8200897,50.7430712],[-1.8170809,50.7385362],[-1.8108104,50.7380911],[-1.8166886,50.7324139],[-1.8120053,50.7284873],[-1.8013131,50.7314781],[-1.7971975,50.7334642],[-1.7998525,50.7361544],[-1.7930577,50.7364946],[-1.807413,50.7416843]]],"type":"Polygon"},"id":"E02003185","properties":{"code":"E02003185","geography":"MSOA","name":"Bournemouth, Christchurch and Poole 026"},"type":"Feature"},{"geometry":{"coordinates":[[[-1.8409913,50.7309114],[-1.842864,50.7368697],[-1.8306577,50.7465627],[-1.8382339,50.744543],[-1.8499759,50.7423569],[-1.8547276,50.7374061],[-1.8636665,50.7323425],[-1.8582234,50.7301759],[-1.8547202,50.7320623],[-1.8568914,50.7283866],[-1.8501885,50.7293936],[-1.8409913,50.7309114]]],"type":"Polygon"},"id":"E02003186","properties":{"code":"E02003186","geography":"MSOA","name":"Bournemouth, Christchurch and Poole 025"},"type":"Feature"},{"geometry":{"coordinates":[[[-1.8199094,50.7316103],[-1.8232017,50.7339973],[-1.8409913,50.7309114],[-1.8339413,50.7280678],[-1.8374987,50.7201207],[-1.8310454,50.7203273],[-1.8166948,50.7207853],[-1.8232687,50.725157],[-1.8185434,50.7269934],[-1.8199094,50.7316103]]],"type":"Polygon"},"id":"E02003187","properties":{"code":"E02003187","geography":"MSOA","name":"Bournemouth, Christchurch and Poole 035"},"type":"Feature"},{"geometry":{"coordinates":[[[-1.8636665,50.7323425],[-1.8780329,50.7325497],[-1.8808232,50.7286148],[-1.8858899,50.7234355],[-1.8900152,50.7206365],[-1.8761905,50.7166644],[-1.8693451,50.7214756],[-1.8729926,50.7228952],[-1.8676523,50.7259302],[-1.8650159,50.7233343],[-1.8622344,50.7260237],[-1.8660218,50.7276624],[-1.8582234,50.7301759],[-1.8636665,50.7323425]]],"type":"Polygon"},"id":"E02003188","properties":{"code":"E02003188","geography":"MSOA","name":"Bournemouth, Christchurch and Poole 038"},"type":"Feature"},{"geometry":{"coordinates":[[[-1.8013131,50.7314781],[-1.8120053,50.7284873],[-1.8166886,50.7324139],[-1.8199094,50.7316103],[-1.8185434,50.7269934],[-1.8232687,50.725157],[-1.8166948,50.7207853],[-1.8163495,50.7207963],[-1.8091941,50.7206998],[-1.8025715,50.720001],[-1.796961,50.7194086],[-1.7993824,50.7213622],[-1.7958167,50.7230238],[-1.8030615,50.7249977],[-1.8013131,50.7314781]]],"type":"Polygon"},"id":"E02003189","properties":{"code":"E02003189","geography":"MSOA","name":"Bournemouth, Christchurch and Poole 036"},"type":"Feature"},{"geometry":{"coordinates":[[[-1.8374987,50.7201207],[-1.8339413,50.7280678],[-1.8409913,50.7309114],[-1.8501885,50.7293936],[-1.8440932,50.7194405],[-1.8438083,50.7194671],[-1.8378863,50.7201083],[-1.8374987,50.7201207]]],"type":"Polygon"},"id":"E02003190","properties":{"code":"E02003190","geography":"MSOA","name":"Bournemouth, Christchurch and Poole 037"},"type":"Feature"},{"geometry":{"coordinates":[[[-1.7687413,50.7259274],[-1.7735596,50.7299565],[-1.7938583,50.7306961],[-1.7930577,50.7364946],[-1.7998525,50.7361544],[-1.7971975,50.7334642],[-1.8013131,50.7314781],[-1.8030615,50.7249977],[-1.7958167,50.7230238],[-1.7993824,50.7213622],[-1.796961,50.7194086],[-1.7692839,50.7164821],[-1.7686293,50.716307],[-1.7668335,50.7161171],[-1.7488484,50.7110527],[-1.7434688,50.7178838],[-1.7418689,50.7215342],[-1.7426902,50.7215495],[-1.7460367,50.7154915],[-1.7501225,50.7174427],[-1.7470582,50.7180449],[-1.7634359,50.7186152],[-1.7657158,50.7198725],[-1.7608799,50.7201262],[-1.7670041,50.7217752],[-1.7687413,50.7259274]]],"type":"Polygon"},"id":"E02003191","properties":{"code":"E02003191","geography":"MSOA","name":"Bournemouth, Christchurch and Poole 039"},"type":"Feature"},{"geometry":{"coordinates":[[[-1.8501885,50.7293936],[-1.8568914,50.7283866],[-1.8547202,50.7320623],[-1.8582234,50.7301759],[-1.8660218,50.7276624],[-1.8622344,50.7260237],[-1.8650159,50.7233343],[-1.8676523,50.7259302],[-1.8729926,50.7228952],[-1.8693451,50.7214756],[-1.8761905,50.7166644],[-1.8761878,50.7154514],[-1.8651969,50.717464],[-1.8648881,50.717493],[-1.8441934,50.7194311],[-1.8440932,50.7194405],[-1.8501885,50.7293936]]],"type":"Polygon"},"id":"E02003192","properties":{"code":"E02003192","geography":"MSOA","name":"Bournemouth, Christchurch and Poole 041"},"type":"Feature"},{"geometry":{"coordinates":[[[-1.9356195,50.792103],[-1.9361287,50.7971629],[-1.940518,50.7988841],[-1.9523178,50.7905155],[-1.9911024,50.7914149],[-2.005826,50.7910032],[-1.9991395,50.7881374],[-2.0093267,50.7825985],[-2.010268,50.773764],[-1.9985851,50.7779177],[-1.9779221,50.7782847],[-1.978847,50.7644547],[-1.9534391,50.7569703],[-1.940851,50.7615694],[-1.9402275,50.766161],[-1.9489559,50.7709777],[-1.9393881,50.7753228],[-1.9240626,50.7718483],[-1.9192314,50.7746953],[-1.9195133,50.7840119],[-1.9325963,50.7800005],[-1.9371327,50.7827971],[-1.9356195,50.792103]]],"type":"Polygon"},"id":"E02003194","properties":{"code":"E02003194","geography":"MSOA","name":"Bournemouth, Christchurch and Poole 001"},"type":"Feature"},{"geometry":{"coordinates":[[[-1.9240626,50.7718483],[-1.9393881,50.7753228],[-1.9489559,50.7709777],[-1.9402275,50.766161],[-1.940851,50.7615694],[-1.9534391,50.7569703],[-1.9475507,50.7566309],[-1.9490387,50.7535553],[-1.9504411,50.7514714],[-1.9460062,50.748652],[-1.9408448,50.7476144],[-1.9346935,50.7522056],[-1.9284287,50.7490951],[-1.9257666,50.751135],[-1.9376167,50.7556873],[-1.9268409,50.7642411],[-1.9240626,50.7718483]]],"type":"Polygon"},"id":"E02003195","properties":{"code":"E02003195","geography":"MSOA","name":"Bournemouth, Christchurch and Poole 008"},"type":"Feature"},{"geometry":{"coordinates":[[[-1.978847,50.7644547],[-1.9779221,50.7782847],[-1.9985851,50.7779177],[-2.010268,50.773764],[-2.0127069,50.7485387],[-2.0027741,50.7518216],[-1.998793,50.7573183],[-1.9973764,50.7525024],[-1.9836855,50.7499465],[-1.978847,50.7644547]]],"type":"Polygon"},"id":"E02003196","properties":{"code":"E02003196","geography":"MSOA","name":"Bournemouth, Christchurch and Poole 004"},"type":"Feature"},{"geometry":{"coordinates":[[[-1.9534391,50.7569703],[-1.978847,50.7644547],[-1.9836855,50.7499465],[-1.9864765,50.7391105],[-1.9765216,50.7381083],[-1.9727847,50.749291],[-1.9617399,50.7500242],[-1.9588723,50.7539661],[-1.9490387,50.7535553],[-1.9475507,50.7566309],[-1.9534391,50.7569703]]],"type":"Polygon"},"id":"E02003197","properties":{"code":"E02003197","geography":"MSOA","name":"Bournemouth, Christchurch and Poole 013"},"type":"Feature"},{"geometry":{"coordinates":[[[-1.9490387,50.7535553],[-1.9588723,50.7539661],[-1.9617399,50.7500242],[-1.9727847,50.749291],[-1.9765216,50.7381083],[-1.9750375,50.7381214],[-1.9597088,50.7397826],[-1.9537486,50.7465929],[-1.9504411,50.7514714],[-1.9490387,50.7535553]]],"type":"Polygon"},"id":"E02003198","properties":{"code":"E02003198","geography":"MSOA","name":"Bournemouth, Christchurch and Poole 016"},"type":"Feature"},{"geometry":{"coordinates":[[[-1.9836855,50.7499465],[-1.9973764,50.7525024],[-1.998793,50.7573183],[-2.0027741,50.7518216],[-2.0127069,50.7485387],[-2.0127433,50.7483099],[-2.0166209,50.7363441],[-2.0105228,50.7326985],[-2.010337,50.7332505],[-2.0013649,50.7359029],[-1.9959673,50.7374982],[-1.9919595,50.7297967],[-1.9992493,50.7301441],[-2.0013647,50.7299673],[-2.0050716,50.7296574],[-2.0013647,50.7298146],[-1.9989163,50.7299183],[-1.9923356,50.7295351],[-1.9911111,50.7295237],[-1.9946352,50.7361205],[-1.9864765,50.7391105],[-1.9836855,50.7499465]]],"type":"Polygon"},"id":"E02003199","properties":{"code":"E02003199","geography":"MSOA","name":"Bournemouth, Christchurch and Poole 021"},"type":"Feature"},{"geometry":{"coordinates":[[[-1.9257666,50.751135],[-1.9284287,50.7490951],[-1.9346935,50.7522056],[-1.9408448,50.7476144],[-1.9460062,50.748652],[-1.9293666,50.7366757],[-1.9207896,50.7345103],[-1.9186022,50.7364798],[-1.9076231,50.7459077],[-1.9255127,50.7510252],[-1.9257666,50.751135]]],"type":"Polygon"},"id":"E02003200","properties":{"code":"E02003200","geography":"MSOA","name":"Bournemouth, Christchurch and Poole 022"},"type":"Feature"},{"geometry":{"coordinates":[[[-1.9460062,50.748652],[-1.9504411,50.7514714],[-1.9537486,50.7465929],[-1.9573476,50.7400669],[-1.9523348,50.7394958],[-1.9531028,50.7311487],[-1.946946,50.7296342],[-1.9419734,50.7290389],[-1.9389641,50.7288595],[-1.9364209,50.7364065],[-1.9293666,50.7366757],[-1.9460062,50.748652]]],"type":"Polygon"},"id":"E02003201","properties":{"code":"E02003201","geography":"MSOA","name":"Bournemouth, Christchurch and Poole 023"},"type":"Feature"},{"geometry":{"coordinates":[[[-1.9050212,50.7454212],[-1.9076231,50.7459077],[-1.9186022,50.7364798],[-1.9142065,50.7355452],[-1.9184399,50.7324428],[-1.9139757,50.7297714],[-1.92136,50.7270924],[-1.9058163,50.7236453],[-1.9036832,50.7288514],[-1.8911471,50.741953],[-1.8982461,50.7441422],[-1.9050212,50.7454212]]],"type":"Polygon"},"id":"E02003202","properties":{"code":"E02003202","geography":"MSOA","name":"Bournemouth, Christchurch and Poole 029"},"type":"Feature"},{"geometry":{"coordinates":[[[-1.9186022,50.7364798],[-1.9207896,50.7345103],[-1.9293666,50.7366757],[-1.9364209,50.7364065],[-1.9389641,50.7288595],[-1.9249541,50.7279215],[-1.92136,50.7270924],[-1.9139757,50.7297714],[-1.9184399,50.7324428],[-1.9142065,50.7355452],[-1.9186022,50.7364798]]],"type":"Polygon"},"id":"E02003203","properties":{"code":"E02003203","geography":"MSOA","name":"Bournemouth, Christchurch and Poole 032"},"type":"Feature"},{"geometry":{"coordinates":[[[-1.946946,50.7296342],[-1.9531028,50.7311487],[-1.9523348,50.7394958],[-1.9573476,50.7400669],[-1.9537486,50.7465929],[-1.9597088,50.7397826],[-1.9750375,50.7381214],[-1.9765661,50.7365514],[-1.9709027,50.7371074],[-1.9685641,50.7344605],[-1.9709873,50.7297737],[-1.9670178,50.7312415],[-1.9636668,50.7286728],[-1.9686795,50.7262203],[-1.9632829,50.7229119],[-1.9513927,50.7239807],[-1.946946,50.7296342]]],"type":"Polygon"},"id":"E02003204","properties":{"code":"E02003204","geography":"MSOA","name":"Bournemouth, Christchurch and Poole 030"},"type":"Feature"},{"geometry":{"coordinates":[[[-1.9765216,50.7381083],[-1.9864765,50.7391105],[-1.9946352,50.7361205],[-1.9911111,50.7295237],[-1.97821,50.7250271],[-1.9686795,50.7262203],[-1.9636668,50.7286728],[-1.9670178,50.7312415],[-1.9709873,50.7297737],[-1.9685641,50.7344605],[-1.9709027,50.7371074],[-1.9765661,50.7365514],[-1.9750375,50.7381214],[-1.9765216,50.7381083]]],"type":"Polygon"},"id":"E02003205","properties":{"code":"E02003205","geography":"MSOA","name":"Bournemouth, Christchurch and Poole 034"},"type":"Feature"},{"geometry":{"coordinates":[[[-1.9389641,50.7288595],[-1.9419734,50.7290389],[-1.9414661,50.7218654],[-1.9458369,50.7205692],[-1.9435732,50.7181422],[-1.9473819,50.7145418],[-1.936784,50.7116809],[-1.9368362,50.7079532],[-1.9322903,50.708551],[-1.9291894,50.7081544],[-1.9301688,50.7132675],[-1.9266009,50.713237],[-1.9249541,50.7279215],[-1.9389641,50.7288595]]],"type":"Polygon"},"id":"E02003206","properties":{"code":"E02003206","geography":"MSOA","name":"Bournemouth, Christchurch and Poole 043"},"type":"Feature"},{"geometry":{"coordinates":[[[[-2.0407435,50.7200075],[-2.0415032,50.7199379],[-2.0416192,50.7196566],[-2.0407435,50.7200075]]],[[[-2.0105228,50.7326985],[-2.0166209,50.7363441],[-2.0225275,50.7365751],[-2.0246847,50.7294102],[-2.0363642,50.7252855],[-2.0350496,50.7228231],[-2.0402328,50.7190733],[-2.010567,50.710401],[-2.0105014,50.7104035],[-2.0100793,50.7119305],[-2.0156859,50.7136079],[-2.0109687,50.7207014],[-2.0172121,50.7268282],[-2.0056024,50.7295743],[-2.0055317,50.7296106],[-2.0118195,50.7288458],[-2.0105228,50.7326985]]]],"type":"MultiPolygon"},"id":"E02003207","properties":{"code":"E02003207","geography":"MSOA","name":"Bournemouth, Christchurch and Poole 042"},"type":"Feature"},{"geometry":{"coordinates":[[[-1.9911111,50.7295237],[-1.9923356,50.7295351],[-1.9922609,50.7234164],[-1.9845595,50.7203158],[-1.9895929,50.7188434],[-1.9919159,50.7124746],[-1.9726914,50.7104326],[-1.9630886,50.7157425],[-1.9630886,50.7166297],[-1.967303,50.721249],[-1.9632829,50.7229119],[-1.9686795,50.7262203],[-1.97821,50.7250271],[-1.9911111,50.7295237]]],"type":"Polygon"},"id":"E02003208","properties":{"code":"E02003208","geography":"MSOA","name":"Bournemouth, Christchurch and Poole 044"},"type":"Feature"},{"geometry":{"coordinates":[[[-1.9868509,50.7098438],[-1.9931999,50.7122403],[-1.9945712,50.713181],[-1.9937959,50.7177565],[-2.0013643,50.7177559],[-2.0031675,50.7177557],[-2.0073022,50.7268606],[-2.0114066,50.726594],[-2.0056024,50.7295743],[-2.0172121,50.7268282],[-2.0109687,50.7207014],[-2.0156859,50.7136079],[-2.0100793,50.7119305],[-2.0105014,50.7104035],[-2.001364,50.7107497],[-2.0002522,50.7107918],[-1.99659,50.7073026],[-1.9865107,50.7082075],[-1.9868509,50.7098438]]],"type":"Polygon"},"id":"E02003209","properties":{"code":"E02003209","geography":"MSOA","name":"Bournemouth, Christchurch and Poole 046"},"type":"Feature"},{"geometry":{"coordinates":[[[-1.9419734,50.7290389],[-1.946946,50.7296342],[-1.9513927,50.7239807],[-1.9632829,50.7229119],[-1.967303,50.721249],[-1.9630886,50.7166297],[-1.9630886,50.7157425],[-1.9576023,50.7152589],[-1.9603897,50.7119426],[-1.9538243,50.708334],[-1.9502522,50.7115043],[-1.9495071,50.7113011],[-1.9493215,50.7112223],[-1.9487409,50.7101613],[-1.9489704,50.7075596],[-1.9496606,50.7071561],[-1.9532031,50.7079139],[-1.952319,50.7040997],[-1.9500999,50.7058741],[-1.9481463,50.707436],[-1.9512479,50.7043182],[-1.9514711,50.7040788],[-1.9508106,50.7044979],[-1.9473767,50.7067171],[-1.9391898,50.7010462],[-1.9346441,50.7023397],[-1.9322903,50.708551],[-1.9368362,50.7079532],[-1.936784,50.7116809],[-1.9473819,50.7145418],[-1.9435732,50.7181422],[-1.9458369,50.7205692],[-1.9414661,50.7218654],[-1.9419734,50.7290389]]],"type":"Polygon"},"id":"E02003210","properties":{"code":"E02003210","geography":"MSOA","name":"Bournemouth, Christchurch and Poole 047"},"type":"Feature"},{"geometry":{"coordinates":[[[-1.92136,50.7270924],[-1.9249541,50.7279215],[-1.9266009,50.713237],[-1.9301688,50.7132675],[-1.9291894,50.7081544],[-1.9322903,50.708551],[-1.9346441,50.7023397],[-1.9391898,50.7010462],[-1.9321355,50.6961582],[-1.9400152,50.6891086],[-1.9512848,50.6866264],[-1.9478168,50.6826879],[-1.9205505,50.7007129],[-1.9023766,50.7087849],[-1.9010425,50.7093773],[-1.9075743,50.7158929],[-1.9064133,50.7198228],[-1.9058163,50.7236453],[-1.92136,50.7270924]]],"type":"Polygon"},"id":"E02003211","properties":{"code":"E02003211","geography":"MSOA","name":"Bournemouth, Christchurch and Poole 048"},"type":"Feature"},{"geometry":{"coordinates":[[[-1.8042994,50.7960382],[-1.8338571,50.8000515],[-1.8452405,50.8096152],[-1.8566254,50.8048956],[-1.8646061,50.8066296],[-1.8655187,50.8018377],[-1.8653328,50.773932],[-1.8733909,50.7633906],[-1.8734549,50.7633052],[-1.8638888,50.7646808],[-1.8511887,50.7735935],[-1.8377783,50.7598761],[-1.8161852,50.7561547],[-1.8150009,50.7440164],[-1.8059688,50.7582743],[-1.7947557,50.7501068],[-1.7889855,50.7528176],[-1.7770209,50.7519599],[-1.7772756,50.7478574],[-1.782582,50.7469924],[-1.7794191,50.7414417],[-1.761667,50.7426628],[-1.7445517,50.7462874],[-1.7441757,50.7474663],[-1.7446917,50.7560544],[-1.7390984,50.763508],[-1.7487039,50.7793647],[-1.7573591,50.7781487],[-1.7761612,50.7663553],[-1.7856094,50.7647795],[-1.790557,50.7716424],[-1.7878756,50.7788656],[-1.7974815,50.7838709],[-1.8009724,50.7918952],[-1.8059443,50.7920851],[-1.8008985,50.7942533],[-1.8042994,50.7960382]]],"type":"Polygon"},"id":"E02004236","properties":{"code":"E02004236","geography":"MSOA","name":"Bournemouth, Christchurch and Poole 002"},"type":"Feature"},{"geometry":{"coordinates":[[[-1.7794191,50.7414417],[-1.782582,50.7469924],[-1.7772756,50.7478574],[-1.7770209,50.7519599],[-1.7889855,50.7528176],[-1.7947557,50.7501068],[-1.8059688,50.7582743],[-1.8150009,50.7440164],[-1.8154349,50.7432649],[-1.807413,50.7416843],[-1.7984128,50.7443166],[-1.7948185,50.7419219],[-1.7878879,50.745035],[-1.7886582,50.7409324],[-1.7794191,50.7414417]]],"type":"Polygon"},"id":"E02004237","properties":{"code":"E02004237","geography":"MSOA","name":"Bournemouth, Christchurch and Poole 014"},"type":"Feature"},{"geometry":{"coordinates":[[[-1.6818132,50.7518299],[-1.7135932,50.7522659],[-1.7100138,50.7399392],[-1.7242678,50.7399951],[-1.7221586,50.7346711],[-1.7179602,50.7350533],[-1.6925548,50.7373625],[-1.6918169,50.7372978],[-1.6847146,50.7438235],[-1.6818132,50.7518299]]],"type":"Polygon"},"id":"E02004238","properties":{"code":"E02004238","geography":"MSOA","name":"Bournemouth, Christchurch and Poole 019"},"type":"Feature"},{"geometry":{"coordinates":[[[-1.7242678,50.7399951],[-1.7100138,50.7399392],[-1.7135932,50.7522659],[-1.7441757,50.7474663],[-1.7445517,50.7462874],[-1.7423981,50.7366853],[-1.7342505,50.7358511],[-1.7242678,50.7399951]]],"type":"Polygon"},"id":"E02004239","properties":{"code":"E02004239","geography":"MSOA","name":"Bournemouth, Christchurch and Poole 018"},"type":"Feature"},{"geometry":{"coordinates":[[[-1.7423981,50.7366853],[-1.7445517,50.7462874],[-1.761667,50.7426628],[-1.7680849,50.7398805],[-1.7682795,50.7363975],[-1.7614223,50.7383843],[-1.7596296,50.7360992],[-1.7524754,50.7332515],[-1.7423981,50.7366853]]],"type":"Polygon"},"id":"E02004240","properties":{"code":"E02004240","geography":"MSOA","name":"Bournemouth, Christchurch and Poole 024"},"type":"Feature"},{"geometry":{"coordinates":[[[[-1.7411076,50.723271],[-1.7426902,50.7215495],[-1.7418689,50.7215342],[-1.7411076,50.723271]]],[[[-1.7415109,50.7239093],[-1.741129,50.724083],[-1.7425585,50.7245558],[-1.7423636,50.7237293],[-1.7415109,50.7239093]]],[[[-1.7518215,50.7276048],[-1.755723,50.7288886],[-1.754174,50.7274179],[-1.7518215,50.7276048]]],[[[-1.7878879,50.745035],[-1.7948185,50.7419219],[-1.7984128,50.7443166],[-1.807413,50.7416843],[-1.7930577,50.7364946],[-1.7938583,50.7306961],[-1.7735596,50.7299565],[-1.7687413,50.7259274],[-1.7694799,50.7276927],[-1.7705748,50.7303091],[-1.7656869,50.7289028],[-1.7643401,50.7233391],[-1.760298,50.7228443],[-1.7620026,50.7252983],[-1.7575303,50.7235778],[-1.7571488,50.7293578],[-1.7599896,50.7302924],[-1.7596296,50.7360992],[-1.7614223,50.7383843],[-1.7682795,50.7363975],[-1.7680849,50.7398805],[-1.761667,50.7426628],[-1.7794191,50.7414417],[-1.7886582,50.7409324],[-1.7878879,50.745035]]]],"type":"MultiPolygon"},"id":"E02004241","properties":{"code":"E02004241","geography":"MSOA","name":"Bournemouth, Christchurch and Poole 031"},"type":"Feature"},{"geometry":{"coordinates":[[[-1.7221586,50.7346711],[-1.7242678,50.7399951],[-1.7342505,50.7358511],[-1.7423981,50.7366853],[-1.7524754,50.7332515],[-1.7596296,50.7360992],[-1.7599896,50.7302924],[-1.7571488,50.7293578],[-1.7570938,50.7301901],[-1.755723,50.7288886],[-1.7518215,50.7276048],[-1.7434343,50.7282707],[-1.7425585,50.7245558],[-1.741129,50.724083],[-1.7221586,50.7346711]]],"type":"Polygon"},"id":"E02004242","properties":{"code":"E02004242","geography":"MSOA","name":"Bournemouth, Christchurch and Poole 033"},"type":"Feature"},{"geometry":{"coordinates":[[[-1.8858899,50.7234355],[-1.9036832,50.7288514],[-1.9058163,50.7236453],[-1.9064133,50.7198228],[-1.9029282,50.7186026],[-1.9003223,50.7224904],[-1.8900152,50.7206365],[-1.8858899,50.7234355]]],"type":"Polygon"},"id":"E02006883","properties":{"code":"E02006883","geography":"MSOA","name":"Bournemouth, Christchurch and Poole 040"},"type":"Feature"},{"geometry":{"coordinates":[[[-1.8900152,50.7206365],[-1.9003223,50.7224904],[-1.9029282,50.7186026],[-1.9064133,50.7198228],[-1.9075743,50.7158929],[-1.9010425,50.7093773],[-1.9009079,50.709437],[-1.8792627,50.7147045],[-1.8761878,50.7154514],[-1.8761905,50.7166644],[-1.8900152,50.7206365]]],"type":"Polygon"},"id":"E02006885","properties":{"code":"E02006885","geography":"MSOA","name":"Bournemouth, Christchurch and Poole 045"},"type":"Feature"}],"type":"FeatureCollection"}
