{"features":[{"geometry":{"coordinates":[[[-2.4658088,53.780799],[-2.4770891,53.7810335],[-2.480828,53.773977],[-2.4947045,53.7701537],[-2.4880111,53.7615534],[-2.4874048,53.7586069],[-2.4779894,53.7605873],[-2.4768515,53.7643001],[-2.4715002,53.7618373],[-2.4654829,53.7630785],[-2.4560941,53.75819],[-2.4520083,53.7600153],[-2.4463179,53.7665751],[-2.4658088,53.780799]]],"type":"Polygon"},"id":"E02002615","properties":{"code":"E02002615","geography":"MSOA","name":"Blackburn with Darwen 001"},"type":"Feature"},{"geometry":{"coordinates":[[[-2.4880111,53.7615534],[-2.4947045,53.7701537],[-2.5086036,53.7694275],[-2.5133553,53.7665247],[-2.5097758,53.7524897],[-2.502729,53.7497442],[-2.5042471,53.752552],[-2.4910529,53.7521315],[-2.491374,53.7525885],[-2.4932016,53.7596106],[-2.4880111,53.7615534]]],"type":"Polygon"},"id":"E02002616","properties":{"code":"E02002616","geography":"MSOA","name":"Blackburn with Darwen 002"},"type":"Feature"},{"geometry":{"coordinates":[[[-2.4520083,53.7600153],[-2.4560941,53.75819],[-2.4654829,53.7630785],[-2.4715002,53.7618373],[-2.4768515,53.7643001],[-2.4779894,53.7605873],[-2.4732523,53.7581241],[-2.4745941,53.7543533],[-2.4725354,53.7519715],[-2.467192,53.7542355],[-2.4634237,53.7554772],[-2.4578251,53.7516598],[-2.4457461,53.7547118],[-2.4517809,53.7564397],[-2.4520083,53.7600153]]],"type":"Polygon"},"id":"E02002617","properties":{"code":"E02002617","geography":"MSOA","name":"Blackburn with Darwen 003"},"type":"Feature"},{"geometry":{"coordinates":[[[-2.4779894,53.7605873],[-2.4874048,53.7586069],[-2.4880111,53.7615534],[-2.4932016,53.7596106],[-2.491374,53.7525885],[-2.4828343,53.7561713],[-2.4745941,53.7543533],[-2.4732523,53.7581241],[-2.4779894,53.7605873]]],"type":"Polygon"},"id":"E02002618","properties":{"code":"E02002618","geography":"MSOA","name":"Blackburn with Darwen 004"},"type":"Feature"},{"geometry":{"coordinates":[[[-2.4910529,53.7521315],[-2.5042471,53.752552],[-2.502729,53.7497442],[-2.5097758,53.7524897],[-2.5073632,53.740658],[-2.5008059,53.7425463],[-2.5015999,53.7457378],[-2.485946,53.7499918],[-2.4910529,53.7521315]]],"type":"Polygon"},"id":"E02002619","properties":{"code":"E02002619","geography":"MSOA","name":"Blackburn with Darwen 005"},"type":"Feature"},{"geometry":{"coordinates":[[[-2.4745941,53.7543533],[-2.4828343,53.7561713],[-2.491374,53.7525885],[-2.4910529,53.7521315],[-2.485946,53.7499918],[-2.5015999,53.7457378],[-2.5008059,53.7425463],[-2.4933576,53.7432819],[-2.4901771,53.7397281],[-2.4869735,53.7410519],[-2.4880417,53.7378077],[-2.4779795,53.7349951],[-2.4701073,53.7402338],[-2.4770369,53.7453681],[-2.4725354,53.7519715],[-2.4745941,53.7543533]]],"type":"Polygon"},"id":"E02002620","properties":{"code":"E02002620","geography":"MSOA","name":"Blackburn with Darwen 006"},"type":"Feature"},{"geometry":{"coordinates":[[[-2.4566868,53.7441272],[-2.4611136,53.7511871],[-2.4680992,53.7502965],[-2.467192,53.7542355],[-2.4725354,53.7519715],[-2.4770369,53.7453681],[-2.4701073,53.7402338],[-2.4566868,53.7441272]]],"type":"Polygon"},"id":"E02002621","properties":{"code":"E02002621","geography":"MSOA","name":"Blackburn with Darwen 007"},"type":"Feature"},{"geometry":{"coordinates":[[[-2.4457461,53.7547118],[-2.4578251,53.7516598],[-2.4634237,53.7554772],[-2.467192,53.7542355],[-2.4680992,53.7502965],[-2.4611136,53.7511871],[-2.4566868,53.7441272],[-2.4549635,53.7338483],[-2.4441699,53.7322325],[-2.4398858,53.7359413],[-2.4396522,53.7482847],[-2.4457461,53.7547118]]],"type":"Polygon"},"id":"E02002622","properties":{"code":"E02002622","geography":"MSOA","name":"Blackburn with Darwen 008"},"type":"Feature"},{"geometry":{"coordinates":[[[-2.4779795,53.7349951],[-2.4880417,53.7378077],[-2.4869735,53.7410519],[-2.4901771,53.7397281],[-2.4933576,53.7432819],[-2.5008059,53.7425463],[-2.5073632,53.740658],[-2.5132425,53.7380448],[-2.5104713,53.7329505],[-2.5005965,53.7311659],[-2.4851755,53.7288022],[-2.4871649,53.7332092],[-2.4779795,53.7349951]]],"type":"Polygon"},"id":"E02002623","properties":{"code":"E02002623","geography":"MSOA","name":"Blackburn with Darwen 009"},"type":"Feature"},{"geometry":{"coordinates":[[[-2.5097758,53.7524897],[-2.5133553,53.7665247],[-2.525689,53.7596612],[-2.5457262,53.7594127],[-2.5513,53.7563733],[-2.553989,53.7496923],[-2.5616036,53.7468859],[-2.5645937,53.7424435],[-2.5571572,53.7345966],[-2.5564321,53.7266499],[-2.5461774,53.7248832],[-2.5394465,53.7145461],[-2.5028597,53.7137011],[-2.5062665,53.7179275],[-2.5135224,53.7189592],[-2.5223716,53.7372655],[-2.5132425,53.7380448],[-2.5073632,53.740658],[-2.5097758,53.7524897]]],"type":"Polygon"},"id":"E02002624","properties":{"code":"E02002624","geography":"MSOA","name":"Blackburn with Darwen 010"},"type":"Feature"},{"geometry":{"coordinates":[[[-2.4398858,53.7359413],[-2.4441699,53.7322325],[-2.4549635,53.7338483],[-2.4566868,53.7441272],[-2.4701073,53.7402338],[-2.4779795,53.7349951],[-2.4871649,53.7332092],[-2.4851755,53.7288022],[-2.4675363,53.7210483],[-2.4648588,53.7152982],[-2.4552525,53.7182562],[-2.4385876,53.7322681],[-2.4398858,53.7359413]]],"type":"Polygon"},"id":"E02002625","properties":{"code":"E02002625","geography":"MSOA","name":"Blackburn with Darwen 011"},"type":"Feature"},{"geometry":{"coordinates":[[[-2.5005965,53.7311659],[-2.5104713,53.7329505],[-2.5132425,53.7380448],[-2.5223716,53.7372655],[-2.5135224,53.7189592],[-2.5062665,53.7179275],[-2.4976742,53.7267105],[-2.5005965,53.7311659]]],"type":"Polygon"},"id":"E02002626","properties":{"code":"E02002626","geography":"MSOA","name":"Blackburn with Darwen 012"},"type":"Feature"},{"geometry":{"coordinates":[[[-2.4851755,53.7288022],[-2.5005965,53.7311659],[-2.4976742,53.7267105],[-2.5062665,53.7179275],[-2.5028597,53.7137011],[-2.4706258,53.715432],[-2.4648588,53.7152982],[-2.4675363,53.7210483],[-2.4851755,53.7288022]]],"type":"Polygon"},"id":"E02002627","properties":{"code":"E02002627","geography":"MSOA","name":"Blackburn with Darwen 013"},"type":"Feature"},{"geometry":{"coordinates":[[[-2.4591642,53.7066131],[-2.4698175,53.7086062],[-2.4706258,53.715432],[-2.5028597,53.7137011],[-2.4902618,53.7015429],[-2.5004469,53.6957531],[-2.4916458,53.6928636],[-2.4784663,53.6979743],[-2.4823563,53.700581],[-2.4795768,53.7052718],[-2.4716493,53.7007495],[-2.468196,53.7046736],[-2.4592127,53.7064212],[-2.4591642,53.7066131]]],"type":"Polygon"},"id":"E02002628","properties":{"code":"E02002628","geography":"MSOA","name":"Blackburn with Darwen 014"},"type":"Feature"},{"geometry":{"coordinates":[[[-2.441666,53.6954839],[-2.4591642,53.7066131],[-2.4592127,53.7064212],[-2.4596208,53.7017756],[-2.46401,53.7016422],[-2.4607169,53.6996955],[-2.4655567,53.7002173],[-2.4612999,53.6926705],[-2.4589275,53.6905953],[-2.4607156,53.6943411],[-2.441666,53.6954839]]],"type":"Polygon"},"id":"E02002629","properties":{"code":"E02002629","geography":"MSOA","name":"Blackburn with Darwen 015"},"type":"Feature"},{"geometry":{"coordinates":[[[-2.4612999,53.6926705],[-2.4655567,53.7002173],[-2.4607169,53.6996955],[-2.46401,53.7016422],[-2.4596208,53.7017756],[-2.4592127,53.7064212],[-2.468196,53.7046736],[-2.4716493,53.7007495],[-2.4795768,53.7052718],[-2.4823563,53.700581],[-2.4784663,53.6979743],[-2.4916458,53.6928636],[-2.5004469,53.6957531],[-2.502526,53.6914253],[-2.4944701,53.6833526],[-2.4970934,53.6777923],[-2.4769326,53.6884327],[-2.4627267,53.6902923],[-2.4612999,53.6926705]]],"type":"Polygon"},"id":"E02002630","properties":{"code":"E02002630","geography":"MSOA","name":"Blackburn with Darwen 016"},"type":"Feature"},{"geometry":{"coordinates":[[[-2.4970934,53.6777923],[-2.4982397,53.6720216],[-2.4928485,53.6653162],[-2.4602724,53.6643825],[-2.4446412,53.6583871],[-2.4479693,53.670428],[-2.4332369,53.6758938],[-2.4253141,53.6716594],[-2.423054,53.673305],[-2.441666,53.6954839],[-2.4607156,53.6943411],[-2.4589275,53.6905953],[-2.4612999,53.6926705],[-2.4627267,53.6902923],[-2.4769326,53.6884327],[-2.4970934,53.6777923]]],"type":"Polygon"},"id":"E02002631","properties":{"code":"E02002631","geography":"MSOA","name":"Blackburn with Darwen 017"},"type":"Feature"},{"geometry":{"coordinates":[[[-2.4109908,53.7051214],[-2.4338704,53.7191661],[-2.4335538,53.727608],[-2.4385876,53.7322681],[-2.4552525,53.7182562],[-2.4648588,53.7152982],[-2.4706258,53.715432],[-2.4698175,53.7086062],[-2.4591642,53.7066131],[-2.441666,53.6954839],[-2.423054,53.673305],[-2.4253141,53.6716594],[-2.4332369,53.6758938],[-2.4479693,53.670428],[-2.4446412,53.6583871],[-2.4602724,53.6643825],[-2.4928485,53.6653162],[-2.4982397,53.6720216],[-2.4970934,53.6777923],[-2.4944701,53.6833526],[-2.502526,53.6914253],[-2.5004469,53.6957531],[-2.4902618,53.7015429],[-2.5028597,53.7137011],[-2.5394465,53.7145461],[-2.5432634,53.7098799],[-2.5397952,53.7021759],[-2.5319341,53.6964269],[-2.5153781,53.6916529],[-2.519173,53.6762711],[-2.5255517,53.6746605],[-2.5323462,53.6648861],[-2.5220144,53.6474047],[-2.5237616,53.6390846],[-2.5200634,53.6304658],[-2.5113248,53.6269791],[-2.5103843,53.6263782],[-2.4730271,53.6165668],[-2.4660211,53.6216831],[-2.4537828,53.6219584],[-2.458291,53.6246153],[-2.4484996,53.6318689],[-2.4502722,53.6414159],[-2.4387263,53.6460293],[-2.4261454,53.6349942],[-2.4229824,53.6246373],[-2.4052881,53.6251167],[-2.4012113,53.624583],[-2.3978474,53.6321921],[-2.3791339,53.6308541],[-2.3703298,53.6315182],[-2.3715172,53.6432675],[-2.3626431,53.6559726],[-2.371238,53.6670647],[-2.3759365,53.6756256],[-2.3744255,53.6872389],[-2.3983499,53.6915442],[-2.4109908,53.7051214]]],"type":"Polygon"},"id":"E02002632","properties":{"code":"E02002632","geography":"MSOA","name":"Blackburn with Darwen 018"},"type":"Feature"}],"type":"FeatureCollection"}
