{"features":[{"geometry":{"coordinates":[[[-1.1407852,52.6843656],[-1.1475256,52.6906433],[-1.1523828,52.6884189],[-1.1572592,52.6915038],[-1.1707436,52.6835431],[-1.1743875,52.6785329],[-1.1698699,52.6754793],[-1.1737446,52.6750643],[-1.1738303,52.6689094],[-1.1639863,52.6663322],[-1.1674867,52.6614465],[-1.1511935,52.6652514],[-1.1498176,52.6749267],[-1.1377185,52.6753478],[-1.1373633,52.6770553],[-1.1407852,52.6843656]]],"type":"Polygon"},"id":"E02002827","properties":{"code":"E02002827","geography":"MSOA","name":"Leicester 001"},"type":"Feature"},{"geometry":{"coordinates":[[[-1.11496,52.6727674],[-1.1188744,52.6731434],[-1.1290954,52.6653708],[-1.1268277,52.6629332],[-1.1208543,52.6608353],[-1.1180319,52.6666737],[-1.1098014,52.6651063],[-1.0977561,52.6670362],[-1.0939934,52.663648],[-1.0987338,52.6560594],[-1.087801,52.6553988],[-1.070495,52.6650925],[-1.0644594,52.6647103],[-1.0750865,52.669607],[-1.0905647,52.6685212],[-1.11496,52.6727674]]],"type":"Polygon"},"id":"E02002828","properties":{"code":"E02002828","geography":"MSOA","name":"Leicester 002"},"type":"Feature"},{"geometry":{"coordinates":[[[-1.1293659,52.6691315],[-1.1377185,52.6753478],[-1.1498176,52.6749267],[-1.1511935,52.6652514],[-1.1455414,52.6593116],[-1.1396789,52.6575467],[-1.1389613,52.6531108],[-1.1361113,52.6559018],[-1.1300106,52.6518589],[-1.1250003,52.6562588],[-1.1268277,52.6629332],[-1.1290954,52.6653708],[-1.1293659,52.6691315]]],"type":"Polygon"},"id":"E02002829","properties":{"code":"E02002829","geography":"MSOA","name":"Leicester 003"},"type":"Feature"},{"geometry":{"coordinates":[[[-1.1511935,52.6652514],[-1.1674867,52.6614465],[-1.1639863,52.6663322],[-1.1738303,52.6689094],[-1.1737446,52.6750643],[-1.1698699,52.6754793],[-1.1743875,52.6785329],[-1.1790925,52.6763789],[-1.1802373,52.6693458],[-1.1766604,52.6642841],[-1.1852144,52.6606239],[-1.1829258,52.6529973],[-1.1768641,52.6522527],[-1.1603972,52.6478308],[-1.1566748,52.6504022],[-1.1593064,52.6534365],[-1.1519912,52.6524862],[-1.1494124,52.6551434],[-1.1539654,52.6567542],[-1.1455414,52.6593116],[-1.1511935,52.6652514]]],"type":"Polygon"},"id":"E02002830","properties":{"code":"E02002830","geography":"MSOA","name":"Leicester 004"},"type":"Feature"},{"geometry":{"coordinates":[[[-1.087801,52.6553988],[-1.0987338,52.6560594],[-1.0939934,52.663648],[-1.0977561,52.6670362],[-1.1098014,52.6651063],[-1.1065196,52.6634002],[-1.1096528,52.659399],[-1.1070573,52.654941],[-1.1008149,52.6536317],[-1.0929658,52.6515253],[-1.087801,52.6553988]]],"type":"Polygon"},"id":"E02002831","properties":{"code":"E02002831","geography":"MSOA","name":"Leicester 005"},"type":"Feature"},{"geometry":{"coordinates":[[[-1.1098014,52.6651063],[-1.1180319,52.6666737],[-1.1208543,52.6608353],[-1.1268277,52.6629332],[-1.1250003,52.6562588],[-1.1300106,52.6518589],[-1.1268917,52.6453675],[-1.1236338,52.6477907],[-1.1264121,52.6500232],[-1.1230584,52.6491983],[-1.119362,52.6530707],[-1.1178511,52.6592866],[-1.1096528,52.659399],[-1.1065196,52.6634002],[-1.1098014,52.6651063]]],"type":"Polygon"},"id":"E02002832","properties":{"code":"E02002832","geography":"MSOA","name":"Leicester 006"},"type":"Feature"},{"geometry":{"coordinates":[[[-1.1008149,52.6536317],[-1.1070573,52.654941],[-1.1096528,52.659399],[-1.1178511,52.6592866],[-1.119362,52.6530707],[-1.1054087,52.6487619],[-1.1008149,52.6536317]]],"type":"Polygon"},"id":"E02002833","properties":{"code":"E02002833","geography":"MSOA","name":"Leicester 007"},"type":"Feature"},{"geometry":{"coordinates":[[[-1.1300106,52.6518589],[-1.1361113,52.6559018],[-1.1389613,52.6531108],[-1.1396789,52.6575467],[-1.1455414,52.6593116],[-1.1539654,52.6567542],[-1.1494124,52.6551434],[-1.1519912,52.6524862],[-1.1593064,52.6534365],[-1.1566748,52.6504022],[-1.1603972,52.6478308],[-1.1513851,52.6442053],[-1.1410928,52.6453658],[-1.1458205,52.6411235],[-1.1423341,52.6337044],[-1.1295707,52.6412596],[-1.1264879,52.6446665],[-1.1268917,52.6453675],[-1.1300106,52.6518589]]],"type":"Polygon"},"id":"E02002834","properties":{"code":"E02002834","geography":"MSOA","name":"Leicester 008"},"type":"Feature"},{"geometry":{"coordinates":[[[-1.1054087,52.6487619],[-1.119362,52.6530707],[-1.1230584,52.6491983],[-1.1264121,52.6500232],[-1.1236338,52.6477907],[-1.1268917,52.6453675],[-1.1264879,52.6446665],[-1.1144962,52.6403856],[-1.1091735,52.6452816],[-1.1054087,52.6487619]]],"type":"Polygon"},"id":"E02002836","properties":{"code":"E02002836","geography":"MSOA","name":"Leicester 010"},"type":"Feature"},{"geometry":{"coordinates":[[[-1.0929658,52.6515253],[-1.1008149,52.6536317],[-1.1054087,52.6487619],[-1.1091735,52.6452816],[-1.097986,52.6421505],[-1.0869648,52.642051],[-1.0852741,52.6456098],[-1.0941353,52.6462349],[-1.0929658,52.6515253]]],"type":"Polygon"},"id":"E02002837","properties":{"code":"E02002837","geography":"MSOA","name":"Leicester 011"},"type":"Feature"},{"geometry":{"coordinates":[[[-1.1603972,52.6478308],[-1.1768641,52.6522527],[-1.1730499,52.6473311],[-1.1825834,52.6470967],[-1.1831717,52.6421906],[-1.1756814,52.6390636],[-1.1709353,52.6409022],[-1.1611909,52.6374418],[-1.1608395,52.6396029],[-1.1611511,52.6427956],[-1.1513495,52.6413161],[-1.1513851,52.6442053],[-1.1603972,52.6478308]]],"type":"Polygon"},"id":"E02002838","properties":{"code":"E02002838","geography":"MSOA","name":"Leicester 012"},"type":"Feature"},{"geometry":{"coordinates":[[[-1.0649761,52.6343435],[-1.0614156,52.6356008],[-1.0654592,52.6366157],[-1.061278,52.6396205],[-1.0646495,52.6433308],[-1.0594729,52.6435056],[-1.061906,52.648928],[-1.0553242,52.6501262],[-1.0603584,52.6535236],[-1.064439,52.6532867],[-1.0697736,52.6442748],[-1.0845547,52.6419705],[-1.0829824,52.6412532],[-1.0649761,52.6343435]]],"type":"Polygon"},"id":"E02002839","properties":{"code":"E02002839","geography":"MSOA","name":"Leicester 013"},"type":"Feature"},{"geometry":{"coordinates":[[[-1.1423341,52.6337044],[-1.1458205,52.6411235],[-1.1410928,52.6453658],[-1.1513851,52.6442053],[-1.1513495,52.6413161],[-1.1611511,52.6427956],[-1.1608395,52.6396029],[-1.1523964,52.6366097],[-1.1524157,52.6340104],[-1.1423341,52.6337044]]],"type":"Polygon"},"id":"E02002842","properties":{"code":"E02002842","geography":"MSOA","name":"Leicester 016"},"type":"Feature"},{"geometry":{"coordinates":[[[-1.097986,52.6421505],[-1.1091735,52.6452816],[-1.1144962,52.6403856],[-1.1098009,52.6340241],[-1.1137599,52.6336492],[-1.1055577,52.6320883],[-1.100156,52.6336032],[-1.1041057,52.6363267],[-1.0990052,52.6385177],[-1.097986,52.6421505]]],"type":"Polygon"},"id":"E02002843","properties":{"code":"E02002843","geography":"MSOA","name":"Leicester 017"},"type":"Feature"},{"geometry":{"coordinates":[[[-1.1144962,52.6403856],[-1.1264879,52.6446665],[-1.1295707,52.6412596],[-1.1230371,52.6334561],[-1.1183808,52.6304431],[-1.1137599,52.6336492],[-1.1098009,52.6340241],[-1.1144962,52.6403856]]],"type":"Polygon"},"id":"E02002844","properties":{"code":"E02002844","geography":"MSOA","name":"Leicester 018"},"type":"Feature"},{"geometry":{"coordinates":[[[-1.0869648,52.642051],[-1.097986,52.6421505],[-1.0990052,52.6385177],[-1.0885988,52.6351836],[-1.0882634,52.6263447],[-1.090283,52.621718],[-1.0766955,52.6205666],[-1.077196,52.6265279],[-1.0707141,52.6303079],[-1.0829824,52.6412532],[-1.0845547,52.6419705],[-1.0869648,52.642051]]],"type":"Polygon"},"id":"E02002845","properties":{"code":"E02002845","geography":"MSOA","name":"Leicester 019"},"type":"Feature"},{"geometry":{"coordinates":[[[-1.1608395,52.6396029],[-1.1611909,52.6374418],[-1.1709353,52.6409022],[-1.1756814,52.6390636],[-1.1831717,52.6421906],[-1.192651,52.636568],[-1.1898529,52.6333119],[-1.2069582,52.6352346],[-1.2084048,52.630389],[-1.2054719,52.6288544],[-1.1806738,52.6326084],[-1.1605771,52.6269192],[-1.1586244,52.635582],[-1.1523964,52.6366097],[-1.1608395,52.6396029]]],"type":"Polygon"},"id":"E02002846","properties":{"code":"E02002846","geography":"MSOA","name":"Leicester 020"},"type":"Feature"},{"geometry":{"coordinates":[[[-1.0882634,52.6263447],[-1.0885988,52.6351836],[-1.0990052,52.6385177],[-1.1041057,52.6363267],[-1.100156,52.6336032],[-1.1055577,52.6320883],[-1.1070596,52.6265416],[-1.1061501,52.6228322],[-1.100747,52.6273646],[-1.0882634,52.6263447]]],"type":"Polygon"},"id":"E02002847","properties":{"code":"E02002847","geography":"MSOA","name":"Leicester 021"},"type":"Feature"},{"geometry":{"coordinates":[[[-1.1055577,52.6320883],[-1.1137599,52.6336492],[-1.1183808,52.6304431],[-1.121692,52.6284557],[-1.118971,52.6267971],[-1.1070596,52.6265416],[-1.1055577,52.6320883]]],"type":"Polygon"},"id":"E02002848","properties":{"code":"E02002848","geography":"MSOA","name":"Leicester 022"},"type":"Feature"},{"geometry":{"coordinates":[[[-1.1423341,52.6337044],[-1.1524157,52.6340104],[-1.1523964,52.6366097],[-1.1586244,52.635582],[-1.1605771,52.6269192],[-1.1538351,52.6234635],[-1.1430462,52.625611],[-1.1422424,52.6310761],[-1.1423341,52.6337044]]],"type":"Polygon"},"id":"E02002849","properties":{"code":"E02002849","geography":"MSOA","name":"Leicester 023"},"type":"Feature"},{"geometry":{"coordinates":[[[-1.0649761,52.6343435],[-1.0829824,52.6412532],[-1.0707141,52.6303079],[-1.077196,52.6265279],[-1.0766955,52.6205666],[-1.090283,52.621718],[-1.0932419,52.6161478],[-1.0743748,52.6134074],[-1.0704984,52.6180482],[-1.0553084,52.6248946],[-1.0561919,52.6321745],[-1.0649761,52.6343435]]],"type":"Polygon"},"id":"E02002851","properties":{"code":"E02002851","geography":"MSOA","name":"Leicester 025"},"type":"Feature"},{"geometry":{"coordinates":[[[-1.1748013,52.6179418],[-1.1683154,52.6179678],[-1.168642,52.6205656],[-1.1653738,52.6182237],[-1.1630017,52.6210967],[-1.1786701,52.6284433],[-1.1806738,52.6326084],[-1.2054719,52.6288544],[-1.2054023,52.6287981],[-1.2012509,52.6273138],[-1.1761307,52.6180434],[-1.1748013,52.6179418]]],"type":"Polygon"},"id":"E02002852","properties":{"code":"E02002852","geography":"MSOA","name":"Leicester 026"},"type":"Feature"},{"geometry":{"coordinates":[[[-1.0882634,52.6263447],[-1.100747,52.6273646],[-1.1061501,52.6228322],[-1.1070596,52.6265416],[-1.118971,52.6267971],[-1.1186552,52.6265743],[-1.1111892,52.6196504],[-1.1043161,52.6207276],[-1.0992893,52.6169603],[-1.0966421,52.6163608],[-1.0932419,52.6161478],[-1.090283,52.621718],[-1.0882634,52.6263447]]],"type":"Polygon"},"id":"E02002853","properties":{"code":"E02002853","geography":"MSOA","name":"Leicester 027"},"type":"Feature"},{"geometry":{"coordinates":[[[-1.1605771,52.6269192],[-1.1806738,52.6326084],[-1.1786701,52.6284433],[-1.1630017,52.6210967],[-1.1653738,52.6182237],[-1.168642,52.6205656],[-1.1683154,52.6179678],[-1.1748013,52.6179418],[-1.1658459,52.6132203],[-1.1614512,52.6202947],[-1.1538351,52.6234635],[-1.1605771,52.6269192]]],"type":"Polygon"},"id":"E02002854","properties":{"code":"E02002854","geography":"MSOA","name":"Leicester 028"},"type":"Feature"},{"geometry":{"coordinates":[[[-1.1434049,52.6235498],[-1.1430462,52.625611],[-1.1538351,52.6234635],[-1.1614512,52.6202947],[-1.1658459,52.6132203],[-1.1640556,52.6094351],[-1.1626666,52.6077622],[-1.1540238,52.610815],[-1.1489188,52.6167315],[-1.1434049,52.6235498]]],"type":"Polygon"},"id":"E02002855","properties":{"code":"E02002855","geography":"MSOA","name":"Leicester 029"},"type":"Feature"},{"geometry":{"coordinates":[[[-1.1186552,52.6265743],[-1.1257776,52.6240194],[-1.1330591,52.6270306],[-1.1371638,52.6197977],[-1.1335636,52.6186933],[-1.1266444,52.6173904],[-1.1216446,52.6079678],[-1.1194362,52.6109547],[-1.1157239,52.6091408],[-1.0992893,52.6169603],[-1.1043161,52.6207276],[-1.1111892,52.6196504],[-1.1186552,52.6265743]]],"type":"Polygon"},"id":"E02002856","properties":{"code":"E02002856","geography":"MSOA","name":"Leicester 030"},"type":"Feature"},{"geometry":{"coordinates":[[[-1.1371638,52.6197977],[-1.1434049,52.6235498],[-1.1489188,52.6167315],[-1.1425116,52.6112554],[-1.1480188,52.6040644],[-1.1414562,52.6001224],[-1.1373308,52.6076701],[-1.136933,52.611442],[-1.1307296,52.6118289],[-1.1335636,52.6186933],[-1.1371638,52.6197977]]],"type":"Polygon"},"id":"E02002857","properties":{"code":"E02002857","geography":"MSOA","name":"Leicester 031"},"type":"Feature"},{"geometry":{"coordinates":[[[-1.0966421,52.6163608],[-1.0992893,52.6169603],[-1.1157239,52.6091408],[-1.1186174,52.6007706],[-1.1132717,52.5987007],[-1.1082463,52.6006125],[-1.1082643,52.5961027],[-1.1036595,52.5958935],[-1.0953765,52.6073735],[-1.0966421,52.6163608]]],"type":"Polygon"},"id":"E02002858","properties":{"code":"E02002858","geography":"MSOA","name":"Leicester 032"},"type":"Feature"},{"geometry":{"coordinates":[[[-1.1414562,52.6001224],[-1.1480188,52.6040644],[-1.1425116,52.6112554],[-1.1489188,52.6167315],[-1.1540238,52.610815],[-1.1626666,52.6077622],[-1.1640556,52.6094351],[-1.1710531,52.6058002],[-1.1653743,52.6030226],[-1.1679925,52.6014078],[-1.1741664,52.5928296],[-1.1593447,52.5912077],[-1.1571456,52.595769],[-1.1455899,52.5958086],[-1.1414562,52.6001224]]],"type":"Polygon"},"id":"E02002860","properties":{"code":"E02002860","geography":"MSOA","name":"Leicester 034"},"type":"Feature"},{"geometry":{"coordinates":[[[-1.126485,52.5956611],[-1.1288835,52.603822],[-1.137006,52.6043043],[-1.1373308,52.6076701],[-1.1414562,52.6001224],[-1.1455899,52.5958086],[-1.1410041,52.5940412],[-1.1459971,52.5881172],[-1.1436271,52.588007],[-1.1264499,52.5929054],[-1.126485,52.5956611]]],"type":"Polygon"},"id":"E02002861","properties":{"code":"E02002861","geography":"MSOA","name":"Leicester 035"},"type":"Feature"},{"geometry":{"coordinates":[[[-1.1459971,52.5881172],[-1.1410041,52.5940412],[-1.1455899,52.5958086],[-1.1571456,52.595769],[-1.1593447,52.5912077],[-1.1557243,52.5863374],[-1.1610182,52.5832329],[-1.1495042,52.5810057],[-1.1459971,52.5881172]]],"type":"Polygon"},"id":"E02002862","properties":{"code":"E02002862","geography":"MSOA","name":"Leicester 036"},"type":"Feature"},{"geometry":{"coordinates":[[[-1.0486212,52.6549774],[-1.0589492,52.6564263],[-1.0603584,52.6535236],[-1.0553242,52.6501262],[-1.061906,52.648928],[-1.0594729,52.6435056],[-1.0646495,52.6433308],[-1.061278,52.6396205],[-1.0654592,52.6366157],[-1.0614156,52.6356008],[-1.0649761,52.6343435],[-1.0561919,52.6321745],[-1.0469708,52.6346017],[-1.0474402,52.642381],[-1.0516323,52.6440634],[-1.0486212,52.6549774]]],"type":"Polygon"},"id":"E02006815","properties":{"code":"E02006815","geography":"MSOA","name":"Leicester 037"},"type":"Feature"},{"geometry":{"coordinates":[[[-1.1157239,52.6091408],[-1.1194362,52.6109547],[-1.1216446,52.6079678],[-1.1266444,52.6173904],[-1.1335636,52.6186933],[-1.1307296,52.6118289],[-1.136933,52.611442],[-1.1373308,52.6076701],[-1.137006,52.6043043],[-1.1288835,52.603822],[-1.126485,52.5956611],[-1.1082643,52.5961027],[-1.1082463,52.6006125],[-1.1132717,52.5987007],[-1.1186174,52.6007706],[-1.1157239,52.6091408]]],"type":"Polygon"},"id":"E02006817","properties":{"code":"E02006817","geography":"MSOA","name":"Leicester 038"},"type":"Feature"},{"geometry":{"coordinates":[[[-1.1768641,52.6522527],[-1.1829258,52.6529973],[-1.1906623,52.6403754],[-1.2009063,52.6398255],[-1.2072577,52.6425699],[-1.2156762,52.6346695],[-1.2084048,52.630389],[-1.2069582,52.6352346],[-1.1898529,52.6333119],[-1.192651,52.636568],[-1.1831717,52.6421906],[-1.1825834,52.6470967],[-1.1730499,52.6473311],[-1.1768641,52.6522527]]],"type":"Polygon"},"id":"E02006819","properties":{"code":"E02006819","geography":"MSOA","name":"Leicester 039"},"type":"Feature"},{"geometry":{"coordinates":[[[-1.1183808,52.6304431],[-1.1230371,52.6334561],[-1.1268007,52.6290254],[-1.1422424,52.6310761],[-1.1430462,52.625611],[-1.1434049,52.6235498],[-1.1371638,52.6197977],[-1.1330591,52.6270306],[-1.1257776,52.6240194],[-1.1186552,52.6265743],[-1.118971,52.6267971],[-1.121692,52.6284557],[-1.1183808,52.6304431]]],"type":"Polygon"},"id":"E02006850","properties":{"code":"E02006850","geography":"MSOA","name":"Leicester 040"},"type":"Feature"},{"geometry":{"coordinates":[[[-1.1230371,52.6334561],[-1.1295707,52.6412596],[-1.1423341,52.6337044],[-1.1422424,52.6310761],[-1.1268007,52.6290254],[-1.1230371,52.6334561]]],"type":"Polygon"},"id":"E02006851","properties":{"code":"E02006851","geography":"MSOA","name":"Leicester 041"},"type":"Feature"},{"geometry":{"coordinates":[[[-1.0644594,52.6647103],[-1.070495,52.6650925],[-1.0748475,52.6580598],[-1.0669918,52.6569359],[-1.064439,52.6532867],[-1.0603584,52.6535236],[-1.0589492,52.6564263],[-1.0567342,52.6637845],[-1.0644594,52.6647103]]],"type":"Polygon"},"id":"E02006964","properties":{"code":"E02006964","geography":"MSOA","name":"Leicester 042"},"type":"Feature"},{"geometry":{"coordinates":[[[-1.064439,52.6532867],[-1.0669918,52.6569359],[-1.0748475,52.6580598],[-1.070495,52.6650925],[-1.087801,52.6553988],[-1.0929658,52.6515253],[-1.0941353,52.6462349],[-1.0852741,52.6456098],[-1.0869648,52.642051],[-1.0845547,52.6419705],[-1.0697736,52.6442748],[-1.064439,52.6532867]]],"type":"Polygon"},"id":"E02006965","properties":{"code":"E02006965","geography":"MSOA","name":"Leicester 043"},"type":"Feature"}],"type":"FeatureCollection"}
