{"features":[{"geometry":{"coordinates":[[[-4.080226,50.4177014],[-4.0847039,50.4258398],[-4.1100261,50.4324389],[-4.1064865,50.4385749],[-4.1108163,50.4426843],[-4.1198135,50.4419184],[-4.1145174,50.438603],[-4.1190873,50.4363785],[-4.1155373,50.4330547],[-4.1212224,50.4298549],[-4.1192181,50.4263582],[-4.1310475,50.4262809],[-4.1366213,50.4232968],[-4.128076,50.4230527],[-4.1286052,50.4195248],[-4.1217787,50.4182532],[-4.1103745,50.4283917],[-4.1043015,50.4232131],[-4.0937687,50.4239691],[-4.0973823,50.4211525],[-4.0901321,50.416678],[-4.080226,50.4177014]]],"type":"Polygon"},"id":"E02003122","properties":{"code":"E02003122","geography":"MSOA","name":"Plymouth 001"},"type":"Feature"},{"geometry":{"coordinates":[[[-4.1217787,50.4182532],[-4.1286052,50.4195248],[-4.128076,50.4230527],[-4.1366213,50.4232968],[-4.1310475,50.4262809],[-4.1192181,50.4263582],[-4.1212224,50.4298549],[-4.1155373,50.4330547],[-4.1190873,50.4363785],[-4.1145174,50.438603],[-4.1198135,50.4419184],[-4.1248506,50.4357228],[-4.1319441,50.433683],[-4.1456403,50.4279622],[-4.1424886,50.4276925],[-4.1463331,50.424496],[-4.1418917,50.4242159],[-4.1361178,50.4150418],[-4.1312569,50.4173061],[-4.1250953,50.4155629],[-4.1217787,50.4182532]]],"type":"Polygon"},"id":"E02003123","properties":{"code":"E02003123","geography":"MSOA","name":"Plymouth 002"},"type":"Feature"},{"geometry":{"coordinates":[[[-4.1319441,50.433683],[-4.1465461,50.4311153],[-4.1510935,50.4366483],[-4.1558268,50.4364395],[-4.1652743,50.4300107],[-4.1633913,50.4275411],[-4.1556022,50.4270834],[-4.1646106,50.4218813],[-4.1617685,50.4183114],[-4.1552756,50.4159278],[-4.1518718,50.4153869],[-4.1510658,50.4184693],[-4.1558582,50.4207208],[-4.1465488,50.4212677],[-4.1422992,50.4168272],[-4.1466594,50.4159835],[-4.1373517,50.4105359],[-4.1361178,50.4150418],[-4.1418917,50.4242159],[-4.1463331,50.424496],[-4.1424886,50.4276925],[-4.1456403,50.4279622],[-4.1319441,50.433683]]],"type":"Polygon"},"id":"E02003124","properties":{"code":"E02003124","geography":"MSOA","name":"Plymouth 003"},"type":"Feature"},{"geometry":{"coordinates":[[[[-4.1845191,50.4248503],[-4.1876502,50.4258358],[-4.1865594,50.4245197],[-4.1845191,50.4248503]]],[[[-4.1556022,50.4270834],[-4.1633913,50.4275411],[-4.1760065,50.4225665],[-4.1694435,50.4223827],[-4.1696837,50.4222338],[-4.1758389,50.4219892],[-4.185764,50.4236344],[-4.1862054,50.4237421],[-4.1923105,50.4246957],[-4.1950411,50.419134],[-4.2005018,50.4080076],[-4.1887019,50.4078805],[-4.1795105,50.4114811],[-4.1729524,50.4108005],[-4.1688837,50.4169104],[-4.1617685,50.4183114],[-4.1646106,50.4218813],[-4.1556022,50.4270834]]]],"type":"MultiPolygon"},"id":"E02003125","properties":{"code":"E02003125","geography":"MSOA","name":"Plymouth 004"},"type":"Feature"},{"geometry":{"coordinates":[[[-4.080226,50.4177014],[-4.0901321,50.416678],[-4.0973823,50.4211525],[-4.0937687,50.4239691],[-4.1043015,50.4232131],[-4.1103745,50.4283917],[-4.1217787,50.4182532],[-4.1250953,50.4155629],[-4.1280894,50.4123166],[-4.1210261,50.4118737],[-4.1175916,50.4062767],[-4.103989,50.4053644],[-4.0905436,50.4081316],[-4.0873232,50.4049577],[-4.0789349,50.4096554],[-4.080226,50.4177014]]],"type":"Polygon"},"id":"E02003126","properties":{"code":"E02003126","geography":"MSOA","name":"Plymouth 005"},"type":"Feature"},{"geometry":{"coordinates":[[[-4.1552756,50.4159278],[-4.1617685,50.4183114],[-4.1688837,50.4169104],[-4.1729524,50.4108005],[-4.1795105,50.4114811],[-4.1887019,50.4078805],[-4.1806205,50.4085935],[-4.1715499,50.4015068],[-4.1633659,50.4073205],[-4.1607814,50.4061379],[-4.1552756,50.4159278]]],"type":"Polygon"},"id":"E02003127","properties":{"code":"E02003127","geography":"MSOA","name":"Plymouth 006"},"type":"Feature"},{"geometry":{"coordinates":[[[-4.1373517,50.4105359],[-4.1466594,50.4159835],[-4.1422992,50.4168272],[-4.1465488,50.4212677],[-4.1558582,50.4207208],[-4.1510658,50.4184693],[-4.1518718,50.4153869],[-4.1552756,50.4159278],[-4.1607814,50.4061379],[-4.1573721,50.4044775],[-4.1432586,50.4023496],[-4.1438309,50.4052724],[-4.1372686,50.4057013],[-4.1373517,50.4105359]]],"type":"Polygon"},"id":"E02003128","properties":{"code":"E02003128","geography":"MSOA","name":"Plymouth 007"},"type":"Feature"},{"geometry":{"coordinates":[[[-4.1250953,50.4155629],[-4.1312569,50.4173061],[-4.1361178,50.4150418],[-4.1373517,50.4105359],[-4.1372686,50.4057013],[-4.1438309,50.4052724],[-4.1432586,50.4023496],[-4.1357851,50.4005699],[-4.1280931,50.3993057],[-4.114013,50.4030824],[-4.1175916,50.4062767],[-4.1210261,50.4118737],[-4.1280894,50.4123166],[-4.1250953,50.4155629]]],"type":"Polygon"},"id":"E02003129","properties":{"code":"E02003129","geography":"MSOA","name":"Plymouth 008"},"type":"Feature"},{"geometry":{"coordinates":[[[-4.1715499,50.4015068],[-4.1806205,50.4085935],[-4.1887019,50.4078805],[-4.2005018,50.4080076],[-4.2005233,50.4079638],[-4.1995587,50.4029129],[-4.2031524,50.4008144],[-4.1922544,50.3964399],[-4.1836694,50.3995424],[-4.1828733,50.396249],[-4.1825037,50.3963017],[-4.1715499,50.4015068]]],"type":"Polygon"},"id":"E02003130","properties":{"code":"E02003130","geography":"MSOA","name":"Plymouth 009"},"type":"Feature"},{"geometry":{"coordinates":[[[-4.0873232,50.4049577],[-4.0905436,50.4081316],[-4.103989,50.4053644],[-4.1175916,50.4062767],[-4.114013,50.4030824],[-4.1023395,50.4007525],[-4.1134065,50.3976522],[-4.1069731,50.3947968],[-4.1106839,50.393486],[-4.1022592,50.3922784],[-4.1071602,50.3908276],[-4.1010136,50.3899577],[-4.0934879,50.3938484],[-4.0854227,50.3905986],[-4.0873994,50.4007754],[-4.0873232,50.4049577]]],"type":"Polygon"},"id":"E02003131","properties":{"code":"E02003131","geography":"MSOA","name":"Plymouth 010"},"type":"Feature"},{"geometry":{"coordinates":[[[-4.1432586,50.4023496],[-4.1573721,50.4044775],[-4.1653441,50.4006157],[-4.1587249,50.3991874],[-4.1641424,50.3958603],[-4.16046,50.3905788],[-4.1441887,50.3923984],[-4.1493919,50.3943408],[-4.1424084,50.3968437],[-4.1357851,50.4005699],[-4.1432586,50.4023496]]],"type":"Polygon"},"id":"E02003132","properties":{"code":"E02003132","geography":"MSOA","name":"Plymouth 011"},"type":"Feature"},{"geometry":{"coordinates":[[[-4.1071602,50.3908276],[-4.1022592,50.3922784],[-4.1106839,50.393486],[-4.1069731,50.3947968],[-4.1134065,50.3976522],[-4.1023395,50.4007525],[-4.114013,50.4030824],[-4.1280931,50.3993057],[-4.1188896,50.3960127],[-4.1188039,50.3865898],[-4.1128664,50.3855043],[-4.1127279,50.3889752],[-4.1071602,50.3908276]]],"type":"Polygon"},"id":"E02003133","properties":{"code":"E02003133","geography":"MSOA","name":"Plymouth 012"},"type":"Feature"},{"geometry":{"coordinates":[[[-4.1607814,50.4061379],[-4.1633659,50.4073205],[-4.1715499,50.4015068],[-4.1683699,50.3959974],[-4.1761728,50.3940509],[-4.1666047,50.3891479],[-4.1613449,50.3870435],[-4.1554828,50.384455],[-4.1547826,50.3877324],[-4.1494212,50.3858349],[-4.1411874,50.3891614],[-4.1441887,50.3923984],[-4.16046,50.3905788],[-4.1641424,50.3958603],[-4.1587249,50.3991874],[-4.1653441,50.4006157],[-4.1573721,50.4044775],[-4.1607814,50.4061379]]],"type":"Polygon"},"id":"E02003134","properties":{"code":"E02003134","geography":"MSOA","name":"Plymouth 013"},"type":"Feature"},{"geometry":{"coordinates":[[[[-4.2031524,50.4008144],[-4.2039093,50.4003724],[-4.2044751,50.398394],[-4.2027775,50.396378],[-4.200019,50.3949501],[-4.1946511,50.3926729],[-4.1942828,50.3921823],[-4.1829419,50.3962393],[-4.1828733,50.396249],[-4.1836694,50.3995424],[-4.1922544,50.3964399],[-4.2031524,50.4008144]]],[[[-4.1715499,50.4015068],[-4.1825037,50.3963017],[-4.1796731,50.3967053],[-4.1817971,50.3956393],[-4.1926476,50.3901924],[-4.187288,50.3839288],[-4.1842543,50.3843427],[-4.1855413,50.3828202],[-4.1764888,50.3833985],[-4.1774789,50.387379],[-4.1726615,50.3861825],[-4.1666047,50.3891479],[-4.1761728,50.3940509],[-4.1683699,50.3959974],[-4.1715499,50.4015068]]]],"type":"MultiPolygon"},"id":"E02003135","properties":{"code":"E02003135","geography":"MSOA","name":"Plymouth 014"},"type":"Feature"},{"geometry":{"coordinates":[[[-4.0416197,50.3976394],[-4.039623,50.4014349],[-4.0714832,50.4018645],[-4.0725116,50.4071509],[-4.0789349,50.4096554],[-4.0873232,50.4049577],[-4.0873994,50.4007754],[-4.0800601,50.3955225],[-4.0678293,50.3974731],[-4.0654862,50.389689],[-4.0550283,50.387952],[-4.0423534,50.3858745],[-4.045967,50.390945],[-4.0423002,50.3911707],[-4.0416197,50.3976394]]],"type":"Polygon"},"id":"E02003136","properties":{"code":"E02003136","geography":"MSOA","name":"Plymouth 015"},"type":"Feature"},{"geometry":{"coordinates":[[[-4.1280931,50.3993057],[-4.1357851,50.4005699],[-4.1424084,50.3968437],[-4.1320209,50.3868717],[-4.1221544,50.3824175],[-4.1187758,50.3824881],[-4.1188039,50.3865898],[-4.1188896,50.3960127],[-4.1280931,50.3993057]]],"type":"Polygon"},"id":"E02003137","properties":{"code":"E02003137","geography":"MSOA","name":"Plymouth 016"},"type":"Feature"},{"geometry":{"coordinates":[[[-4.1320209,50.3868717],[-4.1424084,50.3968437],[-4.1493919,50.3943408],[-4.1441887,50.3923984],[-4.1411874,50.3891614],[-4.1494212,50.3858349],[-4.1547826,50.3877324],[-4.1554828,50.384455],[-4.1445301,50.3787808],[-4.1320209,50.3868717]]],"type":"Polygon"},"id":"E02003138","properties":{"code":"E02003138","geography":"MSOA","name":"Plymouth 017"},"type":"Feature"},{"geometry":{"coordinates":[[[-4.0230848,50.3851055],[-4.0211452,50.3917915],[-4.0288756,50.3922246],[-4.0303849,50.397093],[-4.0416197,50.3976394],[-4.0423002,50.3911707],[-4.0354958,50.3880022],[-4.0363359,50.3840259],[-4.0329184,50.3830015],[-4.0327454,50.3858313],[-4.0238268,50.389281],[-4.0230848,50.3851055]]],"type":"Polygon"},"id":"E02003139","properties":{"code":"E02003139","geography":"MSOA","name":"Plymouth 018"},"type":"Feature"},{"geometry":{"coordinates":[[[-4.0550283,50.387952],[-4.0654862,50.389689],[-4.0678293,50.3974731],[-4.0800601,50.3955225],[-4.0873994,50.4007754],[-4.0854227,50.3905986],[-4.0683392,50.378067],[-4.0501651,50.3765952],[-4.047683,50.3776557],[-4.0465887,50.3839219],[-4.0525418,50.3839917],[-4.0494145,50.3857258],[-4.0550283,50.387952]]],"type":"Polygon"},"id":"E02003140","properties":{"code":"E02003140","geography":"MSOA","name":"Plymouth 019"},"type":"Feature"},{"geometry":{"coordinates":[[[-4.1613449,50.3870435],[-4.1666047,50.3891479],[-4.1726615,50.3861825],[-4.1774789,50.387379],[-4.1764888,50.3833985],[-4.1708912,50.3762539],[-4.1657043,50.3770928],[-4.1667939,50.3851976],[-4.1613449,50.3870435]]],"type":"Polygon"},"id":"E02003141","properties":{"code":"E02003141","geography":"MSOA","name":"Plymouth 020"},"type":"Feature"},{"geometry":{"coordinates":[[[-4.0854227,50.3905986],[-4.0934879,50.3938484],[-4.1010136,50.3899577],[-4.1071602,50.3908276],[-4.1127279,50.3889752],[-4.1128664,50.3855043],[-4.1188039,50.3865898],[-4.1187758,50.3824881],[-4.1198448,50.3792774],[-4.1151618,50.3777105],[-4.1179445,50.3743185],[-4.1148448,50.3728597],[-4.1060372,50.378644],[-4.1095195,50.3799335],[-4.1042126,50.3799194],[-4.0886827,50.3882065],[-4.0839536,50.3867471],[-4.0859965,50.3858147],[-4.0836256,50.3866281],[-4.0854227,50.3905986]]],"type":"Polygon"},"id":"E02003142","properties":{"code":"E02003142","geography":"MSOA","name":"Plymouth 021"},"type":"Feature"},{"geometry":{"coordinates":[[[-4.0230848,50.3851055],[-4.0238268,50.389281],[-4.0327454,50.3858313],[-4.0329184,50.3830015],[-4.0363359,50.3840259],[-4.0354958,50.3880022],[-4.0423002,50.3911707],[-4.045967,50.390945],[-4.0423534,50.3858745],[-4.0550283,50.387952],[-4.0494145,50.3857258],[-4.0525418,50.3839917],[-4.0465887,50.3839219],[-4.047683,50.3776557],[-4.034972,50.3772197],[-4.0269194,50.37912],[-4.0230848,50.3851055]]],"type":"Polygon"},"id":"E02003143","properties":{"code":"E02003143","geography":"MSOA","name":"Plymouth 022"},"type":"Feature"},{"geometry":{"coordinates":[[[-4.1221544,50.3824175],[-4.1320209,50.3868717],[-4.1445301,50.3787808],[-4.1461504,50.3772374],[-4.1447611,50.3768941],[-4.136094,50.3769584],[-4.1311255,50.378956],[-4.1326139,50.3814491],[-4.1221544,50.3824175]]],"type":"Polygon"},"id":"E02003144","properties":{"code":"E02003144","geography":"MSOA","name":"Plymouth 023"},"type":"Feature"},{"geometry":{"coordinates":[[[-4.1554828,50.384455],[-4.1613449,50.3870435],[-4.1667939,50.3851976],[-4.1657043,50.3770928],[-4.1708912,50.3762539],[-4.1694431,50.3747549],[-4.1618543,50.3746402],[-4.1546375,50.3788307],[-4.1461504,50.3772374],[-4.1445301,50.3787808],[-4.1554828,50.384455]]],"type":"Polygon"},"id":"E02003145","properties":{"code":"E02003145","geography":"MSOA","name":"Plymouth 024"},"type":"Feature"},{"geometry":{"coordinates":[[[-4.1179445,50.3743185],[-4.1151618,50.3777105],[-4.1198448,50.3792774],[-4.1187758,50.3824881],[-4.1221544,50.3824175],[-4.1326139,50.3814491],[-4.1311255,50.378956],[-4.1224835,50.3731068],[-4.1179445,50.3743185]]],"type":"Polygon"},"id":"E02003146","properties":{"code":"E02003146","geography":"MSOA","name":"Plymouth 025"},"type":"Feature"},{"geometry":{"coordinates":[[[-4.1708912,50.3762539],[-4.1764888,50.3833985],[-4.1855413,50.3828202],[-4.185938,50.3823509],[-4.1822049,50.3779866],[-4.1822198,50.377937],[-4.1821764,50.3778951],[-4.1822243,50.3777385],[-4.1814523,50.3771696],[-4.1853772,50.3672087],[-4.1684262,50.364145],[-4.166583,50.366558],[-4.1665649,50.3664952],[-4.1665283,50.3665414],[-4.1637221,50.3695911],[-4.1694431,50.3747549],[-4.1708912,50.3762539]]],"type":"Polygon"},"id":"E02003147","properties":{"code":"E02003147","geography":"MSOA","name":"Plymouth 026"},"type":"Feature"},{"geometry":{"coordinates":[[[-4.1335437,50.3633291],[-4.1358932,50.3681116],[-4.1264064,50.3713463],[-4.1291902,50.3773907],[-4.136094,50.3769584],[-4.1447611,50.3768941],[-4.1471788,50.3722937],[-4.1486461,50.3745509],[-4.1520294,50.3719183],[-4.1459845,50.3709094],[-4.141372,50.3639302],[-4.1339647,50.3633397],[-4.1335437,50.3633291]]],"type":"Polygon"},"id":"E02003148","properties":{"code":"E02003148","geography":"MSOA","name":"Plymouth 027"},"type":"Feature"},{"geometry":{"coordinates":[[[-4.1042126,50.3799194],[-4.1095195,50.3799335],[-4.1060372,50.378644],[-4.1148448,50.3728597],[-4.1179445,50.3743185],[-4.1224835,50.3731068],[-4.1311255,50.378956],[-4.136094,50.3769584],[-4.1291902,50.3773907],[-4.1264064,50.3713463],[-4.1358932,50.3681116],[-4.1335437,50.3633291],[-4.1335256,50.3633047],[-4.13345,50.3632986],[-4.133141,50.3664101],[-4.1212457,50.3614524],[-4.113918,50.3625402],[-4.1043101,50.3798673],[-4.1042126,50.3799194]]],"type":"Polygon"},"id":"E02003149","properties":{"code":"E02003149","geography":"MSOA","name":"Plymouth 028"},"type":"Feature"},{"geometry":{"coordinates":[[[-4.0501651,50.3765952],[-4.0683392,50.378067],[-4.0844727,50.3638306],[-4.0855478,50.3558598],[-4.0680261,50.3546594],[-4.0501477,50.3580813],[-4.0550598,50.3682709],[-4.0501651,50.3765952]]],"type":"Polygon"},"id":"E02003151","properties":{"code":"E02003151","geography":"MSOA","name":"Plymouth 030"},"type":"Feature"},{"geometry":{"coordinates":[[[-4.0683392,50.378067],[-4.0854227,50.3905986],[-4.0836256,50.3866281],[-4.0859965,50.3858147],[-4.0860767,50.3857781],[-4.099281,50.3797499],[-4.1081253,50.3679106],[-4.0980119,50.3668623],[-4.1088048,50.3665852],[-4.1124166,50.3594447],[-4.1053028,50.3565466],[-4.1135002,50.3542154],[-4.1161185,50.3603919],[-4.1204308,50.3578695],[-4.1282467,50.3607371],[-4.1352747,50.3594353],[-4.1258415,50.3570035],[-4.1229965,50.3467454],[-4.1146464,50.344388],[-4.1046343,50.3457026],[-4.0905762,50.350599],[-4.0911344,50.3540859],[-4.098568,50.3543214],[-4.0894002,50.3603333],[-4.0954698,50.3666089],[-4.0844727,50.3638306],[-4.0683392,50.378067]]],"type":"Polygon"},"id":"E02003152","properties":{"code":"E02003152","geography":"MSOA","name":"Plymouth 031"},"type":"Feature"},{"geometry":{"coordinates":[[[-4.0844727,50.3638306],[-4.0954698,50.3666089],[-4.0894002,50.3603333],[-4.098568,50.3543214],[-4.0911344,50.3540859],[-4.0905762,50.350599],[-4.1046343,50.3457026],[-4.0905596,50.3409172],[-4.0680261,50.3546594],[-4.0855478,50.3558598],[-4.0844727,50.3638306]]],"type":"Polygon"},"id":"E02003153","properties":{"code":"E02003153","geography":"MSOA","name":"Plymouth 032"},"type":"Feature"},{"geometry":{"coordinates":[[[-4.1461504,50.3772374],[-4.1546375,50.3788307],[-4.1618543,50.3746402],[-4.1694431,50.3747549],[-4.1637221,50.3695911],[-4.1594076,50.3725553],[-4.1520294,50.3719183],[-4.1486461,50.3745509],[-4.1471788,50.3722937],[-4.1447611,50.3768941],[-4.1461504,50.3772374]]],"type":"Polygon"},"id":"E02006989","properties":{"code":"E02006989","geography":"MSOA","name":"Plymouth 033"},"type":"Feature"},{"geometry":{"coordinates":[[[-4.1520294,50.3719183],[-4.1594076,50.3725553],[-4.1637221,50.3695911],[-4.1665283,50.3665414],[-4.1664668,50.3663233],[-4.1661567,50.3666768],[-4.1625687,50.3635989],[-4.1651587,50.361679],[-4.1644153,50.3590391],[-4.1641642,50.3589532],[-4.1531838,50.3660415],[-4.1527722,50.3623227],[-4.1518729,50.3622949],[-4.1463823,50.3637963],[-4.145606,50.3642676],[-4.141372,50.3639302],[-4.1459845,50.3709094],[-4.1520294,50.3719183]]],"type":"Polygon"},"id":"E02006990","properties":{"code":"E02006990","geography":"MSOA","name":"Plymouth 034"},"type":"Feature"}],"type":"FeatureCollection"}
