{"features":[{"geometry":{"coordinates":[[[-1.5290435,51.4555123],[-1.5484047,51.460656],[-1.5595405,51.4697386],[-1.561608,51.476386],[-1.5668449,51.47693],[-1.5704641,51.486273],[-1.5823051,51.4941115],[-1.5880782,51.513503],[-1.5847221,51.5249112],[-1.6028253,51.5182946],[-1.623587,51.5141996],[-1.6284781,51.517364],[-1.6343053,51.5129405],[-1.6677535,51.5052783],[-1.719093,51.5007056],[-1.715749,51.4883836],[-1.7668011,51.4860521],[-1.7747282,51.4845392],[-1.7743411,51.4824551],[-1.793204,51.4861674],[-1.7978068,51.4844463],[-1.8130555,51.4965355],[-1.8134593,51.5070416],[-1.8375937,51.5008375],[-1.8441525,51.5138354],[-1.8588021,51.5053323],[-1.8604551,51.4966561],[-1.8644066,51.4966329],[-1.8590604,51.4914116],[-1.8789475,51.4872373],[-1.8785047,51.4830856],[-1.8892043,51.4784908],[-1.8924652,51.4665816],[-1.897904,51.4639461],[-1.8889088,51.4565314],[-1.892027,51.4525114],[-1.8795015,51.4425043],[-1.8981895,51.4226322],[-1.9069963,51.4222353],[-1.9154595,51.4131817],[-1.8929257,51.4141047],[-1.877407,51.4034993],[-1.8560771,51.4022576],[-1.8397405,51.3970198],[-1.8382626,51.3842139],[-1.8310614,51.383516],[-1.8213039,51.3978654],[-1.8283784,51.4035837],[-1.8224612,51.4039857],[-1.8226012,51.4063515],[-1.8299146,51.4084831],[-1.8302735,51.419208],[-1.8163653,51.4507964],[-1.8059982,51.4378355],[-1.8049623,51.4277021],[-1.7917531,51.4219265],[-1.7918004,51.4155605],[-1.7792847,51.404736],[-1.7820153,51.3994219],[-1.7651099,51.3873015],[-1.7683742,51.3814599],[-1.7611873,51.3813082],[-1.7546583,51.3886605],[-1.7566522,51.3918211],[-1.7493693,51.4009932],[-1.7532725,51.4035973],[-1.7619601,51.410175],[-1.7621226,51.4158243],[-1.7595935,51.4193804],[-1.7398854,51.4217465],[-1.7445184,51.4303968],[-1.7321343,51.4375786],[-1.7235442,51.4298981],[-1.7247344,51.4264757],[-1.7060131,51.4214066],[-1.7045751,51.4173923],[-1.6901052,51.4078712],[-1.6677476,51.4063514],[-1.6603973,51.408849],[-1.6615337,51.4136412],[-1.6448261,51.4130155],[-1.6352299,51.4161844],[-1.6292526,51.4139654],[-1.6232921,51.4187866],[-1.6186386,51.410039],[-1.5907068,51.4098854],[-1.5915125,51.404778],[-1.5757481,51.4041283],[-1.5721634,51.4014407],[-1.5762888,51.3970001],[-1.5664668,51.391022],[-1.5621235,51.3990061],[-1.5554997,51.3990833],[-1.5530267,51.4100745],[-1.5622893,51.4082389],[-1.5635056,51.4132302],[-1.5711793,51.4164658],[-1.5651332,51.4220446],[-1.5531274,51.4212773],[-1.5396393,51.426113],[-1.5253036,51.4250191],[-1.5320771,51.4295569],[-1.5240006,51.4413391],[-1.5290435,51.4555123]]],"type":"Polygon"},"id":"E02006634","properties":{"code":"E02006634","geography":"MSOA","name":"Wiltshire 012"},"type":"Feature"},{"geometry":{"coordinates":[[[-1.7045751,51.4173923],[-1.7060131,51.4214066],[-1.7247344,51.4264757],[-1.7235442,51.4298981],[-1.7321343,51.4375786],[-1.7445184,51.4303968],[-1.7398854,51.4217465],[-1.7595935,51.4193804],[-1.7621226,51.4158243],[-1.7619601,51.410175],[-1.7532725,51.4035973],[-1.7477557,51.4104811],[-1.7332104,51.4120446],[-1.7242841,51.4085865],[-1.7201055,51.41031],[-1.7232067,51.4140225],[-1.7045751,51.4173923]]],"type":"Polygon"},"id":"E02006635","properties":{"code":"E02006635","geography":"MSOA","name":"Wiltshire 019"},"type":"Feature"},{"geometry":{"coordinates":[[[-1.7532725,51.4035973],[-1.7493693,51.4009932],[-1.7566522,51.3918211],[-1.7546583,51.3886605],[-1.7611873,51.3813082],[-1.7683742,51.3814599],[-1.7651099,51.3873015],[-1.7820153,51.3994219],[-1.7792847,51.404736],[-1.7918004,51.4155605],[-1.7917531,51.4219265],[-1.8049623,51.4277021],[-1.8059982,51.4378355],[-1.8163653,51.4507964],[-1.8302735,51.419208],[-1.8299146,51.4084831],[-1.8226012,51.4063515],[-1.8224612,51.4039857],[-1.8283784,51.4035837],[-1.8213039,51.3978654],[-1.8310614,51.383516],[-1.8382626,51.3842139],[-1.8397405,51.3970198],[-1.8570425,51.3826367],[-1.8711594,51.3762203],[-1.8718969,51.3604851],[-1.8853257,51.3525704],[-1.8739477,51.343559],[-1.8820968,51.3343213],[-1.8317883,51.3345917],[-1.8351453,51.3374823],[-1.7971977,51.3416],[-1.7966299,51.335143],[-1.7903463,51.3330804],[-1.7930122,51.3285529],[-1.7802525,51.3172657],[-1.7684807,51.3151965],[-1.7547538,51.3055376],[-1.7428219,51.3023784],[-1.7296501,51.3055505],[-1.7242592,51.3107019],[-1.7105942,51.3104147],[-1.704721,51.3143889],[-1.6935402,51.3132685],[-1.6859837,51.3269006],[-1.6898802,51.3290945],[-1.6820455,51.3636213],[-1.686816,51.3651264],[-1.6867845,51.3780459],[-1.675029,51.3773731],[-1.6721322,51.3821071],[-1.6521578,51.3918188],[-1.6677476,51.4063514],[-1.6901052,51.4078712],[-1.7045751,51.4173923],[-1.7232067,51.4140225],[-1.7201055,51.41031],[-1.7242841,51.4085865],[-1.7332104,51.4120446],[-1.7477557,51.4104811],[-1.7532725,51.4035973]]],"type":"Polygon"},"id":"E02006636","properties":{"code":"E02006636","geography":"MSOA","name":"Wiltshire 024"},"type":"Feature"},{"geometry":{"coordinates":[[[-1.968038,51.335144],[-1.9720793,51.3506683],[-1.964536,51.3598108],[-1.9731905,51.3635285],[-1.9690462,51.3661389],[-1.9745175,51.3797164],[-1.9724152,51.3851407],[-1.975971,51.3850551],[-1.984476,51.3847828],[-2.0023043,51.3772509],[-1.9935281,51.3703533],[-2.003804,51.3565933],[-1.9884263,51.3553831],[-1.9902496,51.3485478],[-1.9795566,51.3374104],[-1.9842678,51.337199],[-1.9842621,51.3419881],[-1.9967219,51.3407296],[-1.9989999,51.34607],[-2.0022261,51.3428032],[-2.0024313,51.3384986],[-1.9938669,51.3365612],[-1.9938027,51.3332546],[-1.968038,51.335144]]],"type":"Polygon"},"id":"E02006637","properties":{"code":"E02006637","geography":"MSOA","name":"Wiltshire 025"},"type":"Feature"},{"geometry":{"coordinates":[[[-2.003804,51.3565933],[-2.0131246,51.3579024],[-2.0108458,51.352703],[-2.0234087,51.3521579],[-2.0211876,51.3490443],[-2.0258801,51.3446693],[-2.0200463,51.3375248],[-2.0022261,51.3428032],[-1.9989999,51.34607],[-1.9967219,51.3407296],[-1.9842621,51.3419881],[-1.9842678,51.337199],[-1.9795566,51.3374104],[-1.9902496,51.3485478],[-1.9884263,51.3553831],[-2.003804,51.3565933]]],"type":"Polygon"},"id":"E02006638","properties":{"code":"E02006638","geography":"MSOA","name":"Wiltshire 026"},"type":"Feature"},{"geometry":{"coordinates":[[[-2.0630702,51.4124889],[-2.0825974,51.4128663],[-2.0853128,51.4062745],[-2.0803197,51.4062301],[-2.0834166,51.399389],[-2.0899156,51.3982081],[-2.0902766,51.3924378],[-2.0824789,51.3935352],[-2.0798078,51.3816537],[-2.0714588,51.3720821],[-2.0780292,51.3666892],[-2.0907442,51.3657594],[-2.0902784,51.3589709],[-2.099054,51.36063],[-2.1066956,51.3548353],[-2.1231666,51.3512786],[-2.1250124,51.3467546],[-2.1200401,51.3440916],[-2.1151778,51.3458985],[-2.1156069,51.3385373],[-2.106362,51.3379523],[-2.1054024,51.332824],[-2.0755583,51.3352154],[-2.0649423,51.3305551],[-2.0659839,51.3102111],[-2.0819136,51.3103367],[-2.0641792,51.2958398],[-2.0631612,51.282694],[-2.0707892,51.2706215],[-2.072136,51.2548544],[-2.0610411,51.2475505],[-2.0467297,51.2515683],[-2.0415229,51.2502754],[-2.037249,51.2608744],[-2.0191995,51.2670169],[-2.0089892,51.2758077],[-2.0072417,51.2848191],[-2.0213758,51.3035055],[-2.0147693,51.301223],[-2.0098195,51.3032316],[-2.0205465,51.3072963],[-2.007052,51.3112179],[-2.0088134,51.3093402],[-2.0005563,51.3076192],[-1.9891315,51.3114291],[-1.9829205,51.3152798],[-1.9833018,51.3211531],[-1.9686801,51.326522],[-1.968038,51.335144],[-1.9938027,51.3332546],[-1.9938669,51.3365612],[-2.0024313,51.3384986],[-2.0022261,51.3428032],[-2.0200463,51.3375248],[-2.0258801,51.3446693],[-2.0211876,51.3490443],[-2.0234087,51.3521579],[-2.0108458,51.352703],[-2.0131246,51.3579024],[-2.003804,51.3565933],[-1.9935281,51.3703533],[-2.0023043,51.3772509],[-1.984476,51.3847828],[-2.019694,51.3925064],[-2.0509102,51.4072124],[-2.052564,51.4122776],[-2.0630702,51.4124889]]],"type":"Polygon"},"id":"E02006639","properties":{"code":"E02006639","geography":"MSOA","name":"Wiltshire 028"},"type":"Feature"},{"geometry":{"coordinates":[[[-1.5554997,51.3990833],[-1.5621235,51.3990061],[-1.5664668,51.391022],[-1.5762888,51.3970001],[-1.5721634,51.4014407],[-1.5757481,51.4041283],[-1.5915125,51.404778],[-1.5907068,51.4098854],[-1.6186386,51.410039],[-1.6232921,51.4187866],[-1.6292526,51.4139654],[-1.6352299,51.4161844],[-1.6448261,51.4130155],[-1.6615337,51.4136412],[-1.6603973,51.408849],[-1.6677476,51.4063514],[-1.6521578,51.3918188],[-1.6721322,51.3821071],[-1.675029,51.3773731],[-1.6867845,51.3780459],[-1.686816,51.3651264],[-1.6820455,51.3636213],[-1.6898802,51.3290945],[-1.6859837,51.3269006],[-1.6935402,51.3132685],[-1.704721,51.3143889],[-1.7105942,51.3104147],[-1.7242592,51.3107019],[-1.7296501,51.3055505],[-1.7428219,51.3023784],[-1.7512823,51.298147],[-1.7497071,51.2902429],[-1.7387448,51.2783006],[-1.7224572,51.266861],[-1.7132696,51.2734214],[-1.7050166,51.2713177],[-1.6940335,51.2573836],[-1.6674036,51.2571835],[-1.6219553,51.2637843],[-1.6115128,51.2617683],[-1.5966458,51.2723796],[-1.5904465,51.2678938],[-1.5821085,51.2696997],[-1.5784526,51.267871],[-1.5776476,51.2556337],[-1.5635294,51.2521876],[-1.5451722,51.2451024],[-1.5359668,51.2486224],[-1.5298345,51.2605174],[-1.5305819,51.2626202],[-1.5405245,51.2608371],[-1.535929,51.2773073],[-1.5425961,51.2812539],[-1.5345239,51.2870946],[-1.5228203,51.2870611],[-1.5241598,51.293164],[-1.5195246,51.2959415],[-1.5280363,51.2998113],[-1.5252382,51.3070697],[-1.5335754,51.3162263],[-1.5275218,51.3384686],[-1.5162947,51.3393572],[-1.4983133,51.3293787],[-1.4857357,51.3477528],[-1.5006236,51.3562703],[-1.4954644,51.3696667],[-1.5134201,51.3720472],[-1.5154506,51.3775828],[-1.5278806,51.3789355],[-1.5383461,51.3855393],[-1.537732,51.3883243],[-1.5556171,51.395586],[-1.5554997,51.3990833]]],"type":"Polygon"},"id":"E02006640","properties":{"code":"E02006640","geography":"MSOA","name":"Wiltshire 029"},"type":"Feature"},{"geometry":{"coordinates":[[[-2.007052,51.3112179],[-2.0205465,51.3072963],[-2.0098195,51.3032316],[-2.0147693,51.301223],[-2.0213758,51.3035055],[-2.0072417,51.2848191],[-2.0089892,51.2758077],[-2.0191995,51.2670169],[-2.037249,51.2608744],[-2.0415229,51.2502754],[-2.0374244,51.2492125],[-2.0409234,51.2417904],[-2.0379601,51.238884],[-2.0202361,51.24452],[-2.0065385,51.2323709],[-2.0051503,51.2348667],[-1.9735036,51.2382722],[-1.9787045,51.2444228],[-1.967824,51.2504602],[-1.9342274,51.2445116],[-1.9129833,51.251978],[-1.8953743,51.2421302],[-1.897024,51.2610299],[-1.9112995,51.2810288],[-1.9172785,51.3016463],[-1.9101274,51.3035566],[-1.9094947,51.3155698],[-1.8984322,51.3218488],[-1.9125784,51.3289501],[-1.9069343,51.3422807],[-1.9221236,51.3514027],[-1.922561,51.3599874],[-1.9182008,51.3657492],[-1.8844345,51.3861832],[-1.877407,51.4034993],[-1.8929257,51.4141047],[-1.9154595,51.4131817],[-1.9732575,51.4039719],[-1.9699917,51.3965845],[-1.975971,51.3850551],[-1.9724152,51.3851407],[-1.9745175,51.3797164],[-1.9690462,51.3661389],[-1.9731905,51.3635285],[-1.964536,51.3598108],[-1.9720793,51.3506683],[-1.968038,51.335144],[-1.9686801,51.326522],[-1.9833018,51.3211531],[-1.9829205,51.3152798],[-1.9891315,51.3114291],[-2.0005563,51.3076192],[-2.0088134,51.3093402],[-2.007052,51.3112179]]],"type":"Polygon"},"id":"E02006641","properties":{"code":"E02006641","geography":"MSOA","name":"Wiltshire 034"},"type":"Feature"},{"geometry":{"coordinates":[[[-1.8397405,51.3970198],[-1.8560771,51.4022576],[-1.877407,51.4034993],[-1.8844345,51.3861832],[-1.9182008,51.3657492],[-1.922561,51.3599874],[-1.9221236,51.3514027],[-1.9069343,51.3422807],[-1.9125784,51.3289501],[-1.8984322,51.3218488],[-1.9094947,51.3155698],[-1.9101274,51.3035566],[-1.9172785,51.3016463],[-1.9112995,51.2810288],[-1.897024,51.2610299],[-1.8953743,51.2421302],[-1.8865231,51.2403188],[-1.8795931,51.2499938],[-1.8720314,51.2463612],[-1.876822,51.2394282],[-1.8643994,51.2319924],[-1.8648588,51.2239401],[-1.8457907,51.214795],[-1.8369893,51.2149251],[-1.8078391,51.2177351],[-1.7869605,51.2240672],[-1.7796993,51.2291853],[-1.7883119,51.2335658],[-1.7841833,51.2388091],[-1.7679497,51.2426783],[-1.7457802,51.2461031],[-1.7261646,51.2438469],[-1.7051408,51.2459596],[-1.6940335,51.2573836],[-1.7050166,51.2713177],[-1.7132696,51.2734214],[-1.7224572,51.266861],[-1.7387448,51.2783006],[-1.7497071,51.2902429],[-1.7512823,51.298147],[-1.7428219,51.3023784],[-1.7547538,51.3055376],[-1.7684807,51.3151965],[-1.7802525,51.3172657],[-1.7930122,51.3285529],[-1.7903463,51.3330804],[-1.7966299,51.335143],[-1.7971977,51.3416],[-1.8351453,51.3374823],[-1.8317883,51.3345917],[-1.8820968,51.3343213],[-1.8739477,51.343559],[-1.8853257,51.3525704],[-1.8718969,51.3604851],[-1.8711594,51.3762203],[-1.8570425,51.3826367],[-1.8397405,51.3970198]]],"type":"Polygon"},"id":"E02006642","properties":{"code":"E02006642","geography":"MSOA","name":"Wiltshire 038"},"type":"Feature"},{"geometry":{"coordinates":[[[-1.7886285,51.6669988],[-1.8111841,51.6974778],[-1.8075046,51.6991504],[-1.8145429,51.7029213],[-1.8184993,51.7023056],[-1.819526,51.6951451],[-1.812483,51.6859963],[-1.8231821,51.6734809],[-1.8152097,51.6635262],[-1.8344824,51.6575173],[-1.8504952,51.6562818],[-1.8738938,51.682586],[-1.8933001,51.6769346],[-1.8990229,51.6796826],[-1.8873621,51.6600785],[-1.8766181,51.6515873],[-1.8884075,51.6488557],[-1.9039122,51.6560246],[-1.9209253,51.6572481],[-1.9420678,51.6704129],[-1.9522475,51.6678133],[-1.9578954,51.6596777],[-1.9630653,51.6586529],[-1.950815,51.6370559],[-1.9510182,51.6308089],[-1.9366063,51.6320725],[-1.9414274,51.6186878],[-1.9481878,51.6128944],[-1.9347,51.6094234],[-1.8966783,51.6162131],[-1.8798734,51.6227865],[-1.8390214,51.6166907],[-1.8202004,51.627747],[-1.8143284,51.6245043],[-1.8063875,51.632717],[-1.7885968,51.6327113],[-1.799092,51.6625019],[-1.7917378,51.6631035],[-1.7886285,51.6669988]]],"type":"Polygon"},"id":"E02006644","properties":{"code":"E02006644","geography":"MSOA","name":"Wiltshire 001"},"type":"Feature"},{"geometry":{"coordinates":[[[-1.9773349,51.638088],[-1.9764853,51.6433443],[-1.9847853,51.643181],[-1.9955608,51.6514071],[-2.0032181,51.6489753],[-2.0155997,51.6505123],[-2.0571806,51.6724395],[-2.1525426,51.5903405],[-2.1602664,51.582034],[-2.150544,51.5827598],[-2.1442934,51.5794969],[-2.1325723,51.5862362],[-2.1315427,51.5828484],[-2.1125939,51.5853884],[-2.1097823,51.5830345],[-2.100913,51.5839586],[-2.0993029,51.5802897],[-2.0931723,51.5796795],[-2.0890434,51.5942849],[-2.1059095,51.5977502],[-2.1154587,51.6119514],[-2.1099034,51.616285],[-2.094303,51.6108594],[-2.0888656,51.6139816],[-2.0913309,51.6193229],[-2.0782017,51.6250403],[-2.0549026,51.6231032],[-2.0485615,51.6257818],[-2.0365594,51.6222545],[-2.0394522,51.6211085],[-2.0243657,51.623763],[-2.0180672,51.6191028],[-2.0056976,51.6171894],[-2.0105664,51.6303491],[-2.0047839,51.6357398],[-1.9957038,51.6380308],[-1.9833527,51.6357073],[-1.9773349,51.638088]]],"type":"Polygon"},"id":"E02006645","properties":{"code":"E02006645","geography":"MSOA","name":"Wiltshire 002"},"type":"Feature"},{"geometry":{"coordinates":[[[-1.8390214,51.6166907],[-1.8798734,51.6227865],[-1.8966783,51.6162131],[-1.9347,51.6094234],[-1.9435018,51.6009275],[-1.9373966,51.5964153],[-1.9722313,51.5925965],[-1.9709134,51.5888353],[-1.9600986,51.5877278],[-1.9664382,51.5829211],[-1.9520378,51.582815],[-1.9434151,51.5754154],[-1.9253235,51.5759714],[-1.908821,51.5810511],[-1.9013133,51.5737719],[-1.8865811,51.5754733],[-1.8771992,51.5656112],[-1.8469413,51.5657061],[-1.8469549,51.5658983],[-1.850087,51.5680963],[-1.8443592,51.5702118],[-1.843156,51.5786576],[-1.8308477,51.5817489],[-1.8263464,51.5794352],[-1.8229463,51.5835607],[-1.8236356,51.5844627],[-1.8375723,51.5872403],[-1.8318676,51.5967272],[-1.8398566,51.5999109],[-1.8398609,51.6071916],[-1.8423902,51.6121153],[-1.8390214,51.6166907]]],"type":"Polygon"},"id":"E02006646","properties":{"code":"E02006646","geography":"MSOA","name":"Wiltshire 003"},"type":"Feature"},{"geometry":{"coordinates":[[[-1.950815,51.6370559],[-1.968749,51.6399564],[-1.9773349,51.638088],[-1.9833527,51.6357073],[-1.9957038,51.6380308],[-2.0047839,51.6357398],[-2.0105664,51.6303491],[-2.0056976,51.6171894],[-2.0180672,51.6191028],[-2.0243657,51.623763],[-2.0394522,51.6211085],[-2.0365594,51.6222545],[-2.0485615,51.6257818],[-2.0549026,51.6231032],[-2.0782017,51.6250403],[-2.0913309,51.6193229],[-2.0888656,51.6139816],[-2.094303,51.6108594],[-2.0980766,51.6072054],[-2.0947081,51.6013979],[-2.0874411,51.600847],[-2.0864997,51.5965206],[-2.0784644,51.5934192],[-2.063429,51.5959047],[-2.0616314,51.5888939],[-2.0694467,51.5788552],[-2.0812027,51.5787736],[-2.0852427,51.5736481],[-2.0758616,51.5681474],[-2.0797723,51.5621697],[-2.0673238,51.5597922],[-2.0634679,51.5574895],[-2.0695544,51.557197],[-2.0602034,51.5530824],[-2.0649726,51.550717],[-2.071886,51.5530879],[-2.0933429,51.5425968],[-2.0966626,51.5386262],[-2.0888527,51.5317705],[-2.0708361,51.5345111],[-2.0421258,51.5329478],[-2.0346813,51.5368535],[-2.0099519,51.5179222],[-2.0048371,51.5181321],[-2.0047804,51.5141848],[-1.9671722,51.5193104],[-1.9609982,51.5295117],[-1.9449267,51.5363486],[-1.939674,51.5491222],[-1.9476459,51.5537292],[-1.9378849,51.5547],[-1.9431831,51.5566666],[-1.9418745,51.5663532],[-1.9483569,51.5706486],[-1.9434151,51.5754154],[-1.9520378,51.582815],[-1.9664382,51.5829211],[-1.9600986,51.5877278],[-1.9709134,51.5888353],[-1.9722313,51.5925965],[-1.9373966,51.5964153],[-1.9435018,51.6009275],[-1.9347,51.6094234],[-1.9481878,51.6128944],[-1.9414274,51.6186878],[-1.9366063,51.6320725],[-1.9510182,51.6308089],[-1.950815,51.6370559]]],"type":"Polygon"},"id":"E02006647","properties":{"code":"E02006647","geography":"MSOA","name":"Wiltshire 004"},"type":"Feature"},{"geometry":{"coordinates":[[[-2.094303,51.6108594],[-2.1099034,51.616285],[-2.1154587,51.6119514],[-2.1059095,51.5977502],[-2.0890434,51.5942849],[-2.0931723,51.5796795],[-2.0993029,51.5802897],[-2.100913,51.5839586],[-2.1097823,51.5830345],[-2.1125939,51.5853884],[-2.1315427,51.5828484],[-2.1325723,51.5862362],[-2.1442934,51.5794969],[-2.150544,51.5827598],[-2.1602664,51.582034],[-2.1525426,51.5903405],[-2.1747222,51.5961647],[-2.1794964,51.6000446],[-2.1900169,51.5925021],[-2.1924474,51.5958122],[-2.2065569,51.5959485],[-2.2074316,51.6034],[-2.2229487,51.5961091],[-2.2418713,51.5921063],[-2.2451207,51.5814088],[-2.2674574,51.5827168],[-2.2725632,51.5775898],[-2.2738536,51.5723818],[-2.2603037,51.5699005],[-2.2686276,51.5597085],[-2.2683727,51.5496923],[-2.2617259,51.5447412],[-2.2665062,51.536262],[-2.2523925,51.5268741],[-2.2453255,51.525669],[-2.2078852,51.5374859],[-2.203984,51.5349662],[-2.1772901,51.5356175],[-2.1749841,51.5283262],[-2.1663216,51.5211691],[-2.1290934,51.5293258],[-2.0888527,51.5317705],[-2.0966626,51.5386262],[-2.0933429,51.5425968],[-2.071886,51.5530879],[-2.0649726,51.550717],[-2.0602034,51.5530824],[-2.0695544,51.557197],[-2.0634679,51.5574895],[-2.0673238,51.5597922],[-2.0797723,51.5621697],[-2.0758616,51.5681474],[-2.0852427,51.5736481],[-2.0812027,51.5787736],[-2.0694467,51.5788552],[-2.0616314,51.5888939],[-2.063429,51.5959047],[-2.0784644,51.5934192],[-2.0864997,51.5965206],[-2.0874411,51.600847],[-2.0947081,51.6013979],[-2.0980766,51.6072054],[-2.094303,51.6108594]]],"type":"Polygon"},"id":"E02006648","properties":{"code":"E02006648","geography":"MSOA","name":"Wiltshire 005"},"type":"Feature"},{"geometry":{"coordinates":[[[-1.8885345,51.5487934],[-1.8920652,51.5508684],[-1.8950916,51.5465826],[-1.9012555,51.5497522],[-1.9118564,51.5482561],[-1.9130949,51.5422877],[-1.9051504,51.5414986],[-1.9080707,51.5384588],[-1.9028793,51.5397725],[-1.8991905,51.5351393],[-1.8989287,51.5406103],[-1.8933861,51.5439955],[-1.8887948,51.5409953],[-1.8781579,51.5447612],[-1.8885345,51.5487934]]],"type":"Polygon"},"id":"E02006649","properties":{"code":"E02006649","geography":"MSOA","name":"Wiltshire 006"},"type":"Feature"},{"geometry":{"coordinates":[[[-1.8469413,51.5657061],[-1.8771992,51.5656112],[-1.8865811,51.5754733],[-1.9013133,51.5737719],[-1.908821,51.5810511],[-1.9253235,51.5759714],[-1.9434151,51.5754154],[-1.9483569,51.5706486],[-1.9418745,51.5663532],[-1.9431831,51.5566666],[-1.9378849,51.5547],[-1.9476459,51.5537292],[-1.939674,51.5491222],[-1.9449267,51.5363486],[-1.9609982,51.5295117],[-1.9671722,51.5193104],[-2.0047804,51.5141848],[-2.0151358,51.5128794],[-2.0127638,51.5108385],[-2.0193753,51.5037154],[-2.0064583,51.4989425],[-1.9978953,51.5017289],[-1.9899664,51.4966606],[-1.9905868,51.5030271],[-1.9617462,51.4908467],[-1.955383,51.4942308],[-1.9368051,51.4925086],[-1.9308669,51.4864072],[-1.8924652,51.4665816],[-1.8892043,51.4784908],[-1.8785047,51.4830856],[-1.8789475,51.4872373],[-1.8590604,51.4914116],[-1.8644066,51.4966329],[-1.8604551,51.4966561],[-1.8588021,51.5053323],[-1.8441525,51.5138354],[-1.8415153,51.5157037],[-1.8469142,51.5242818],[-1.8421854,51.5262643],[-1.8438345,51.5216549],[-1.8369834,51.5109025],[-1.8308049,51.5111429],[-1.8298646,51.5136834],[-1.8443746,51.543441],[-1.8538331,51.5463006],[-1.8492967,51.553318],[-1.8651229,51.5596018],[-1.8601137,51.5652423],[-1.8451992,51.561717],[-1.8469413,51.5657061]],[[-1.8885345,51.5487934],[-1.8781579,51.5447612],[-1.8887948,51.5409953],[-1.8933861,51.5439955],[-1.8989287,51.5406103],[-1.8991905,51.5351393],[-1.9028793,51.5397725],[-1.9080707,51.5384588],[-1.9051504,51.5414986],[-1.9130949,51.5422877],[-1.9118564,51.5482561],[-1.9012555,51.5497522],[-1.8950916,51.5465826],[-1.8920652,51.5508684],[-1.8885345,51.5487934]]],"type":"Polygon"},"id":"E02006650","properties":{"code":"E02006650","geography":"MSOA","name":"Wiltshire 007"},"type":"Feature"},{"geometry":{"coordinates":[[[-2.0888527,51.5317705],[-2.1290934,51.5293258],[-2.1663216,51.5211691],[-2.1749841,51.5283262],[-2.1772901,51.5356175],[-2.203984,51.5349662],[-2.2078852,51.5374859],[-2.2453255,51.525669],[-2.2523925,51.5268741],[-2.2558134,51.5220787],[-2.2798588,51.5161694],[-2.2963883,51.5097467],[-2.2974563,51.5062155],[-2.3243274,51.4975108],[-2.3114262,51.4873746],[-2.2905613,51.4868591],[-2.2888542,51.4781512],[-2.2957458,51.458592],[-2.2852665,51.4579301],[-2.2647,51.4671129],[-2.2414752,51.4725031],[-2.2367626,51.463895],[-2.2270349,51.4620724],[-2.2319051,51.456061],[-2.2324855,51.4448632],[-2.2162284,51.4425737],[-2.2063798,51.4447917],[-2.2063642,51.4531108],[-2.1892835,51.4498413],[-2.1808955,51.453437],[-2.1575829,51.4453042],[-2.149278,51.4472158],[-2.1514133,51.4646101],[-2.1436779,51.4686267],[-2.1332331,51.4768942],[-2.130134,51.4862893],[-2.1224165,51.4822915],[-2.1036786,51.4830605],[-2.0818162,51.4912253],[-2.0719967,51.4906882],[-2.0697324,51.4863059],[-2.0650253,51.4898691],[-2.0682421,51.4968055],[-2.0605011,51.5014913],[-2.0601704,51.5056946],[-2.0639102,51.510211],[-2.0708674,51.5116787],[-2.0717464,51.517596],[-2.062624,51.5238364],[-2.0428463,51.5263244],[-2.0421258,51.5329478],[-2.0708361,51.5345111],[-2.0888527,51.5317705]]],"type":"Polygon"},"id":"E02006651","properties":{"code":"E02006651","geography":"MSOA","name":"Wiltshire 008"},"type":"Feature"},{"geometry":{"coordinates":[[[-2.1051895,51.4673476],[-2.1028986,51.4690671],[-2.1111964,51.4738775],[-2.1171856,51.4723327],[-2.1285434,51.4782728],[-2.1332331,51.4768942],[-2.1436779,51.4686267],[-2.1300971,51.4643885],[-2.1319103,51.4612285],[-2.1234186,51.4593914],[-2.1203562,51.4630162],[-2.1051895,51.4673476]]],"type":"Polygon"},"id":"E02006652","properties":{"code":"E02006652","geography":"MSOA","name":"Wiltshire 009"},"type":"Feature"},{"geometry":{"coordinates":[[[-2.1319103,51.4612285],[-2.1300971,51.4643885],[-2.1436779,51.4686267],[-2.1514133,51.4646101],[-2.149278,51.4472158],[-2.1388942,51.448123],[-2.1384047,51.4543043],[-2.1429284,51.4553997],[-2.1304177,51.4559263],[-2.1319103,51.4612285]]],"type":"Polygon"},"id":"E02006653","properties":{"code":"E02006653","geography":"MSOA","name":"Wiltshire 010"},"type":"Feature"},{"geometry":{"coordinates":[[[-2.1037571,51.453461],[-2.0952695,51.4647901],[-2.1014031,51.464025],[-2.1051895,51.4673476],[-2.1203562,51.4630162],[-2.1234186,51.4593914],[-2.1319103,51.4612285],[-2.1304177,51.4559263],[-2.1429284,51.4553997],[-2.1384047,51.4543043],[-2.1388942,51.448123],[-2.1270638,51.4460455],[-2.1243331,51.4489017],[-2.1169196,51.4489561],[-2.1172751,51.453046],[-2.1060279,51.4514746],[-2.1037571,51.453461]]],"type":"Polygon"},"id":"E02006654","properties":{"code":"E02006654","geography":"MSOA","name":"Wiltshire 011"},"type":"Feature"},{"geometry":{"coordinates":[[[-2.0047804,51.5141848],[-2.0048371,51.5181321],[-2.0099519,51.5179222],[-2.0346813,51.5368535],[-2.0421258,51.5329478],[-2.0428463,51.5263244],[-2.062624,51.5238364],[-2.0717464,51.517596],[-2.0708674,51.5116787],[-2.0639102,51.510211],[-2.0601704,51.5056946],[-2.0605011,51.5014913],[-2.0682421,51.4968055],[-2.0650253,51.4898691],[-2.0697324,51.4863059],[-2.0719967,51.4906882],[-2.0818162,51.4912253],[-2.1036786,51.4830605],[-2.1224165,51.4822915],[-2.130134,51.4862893],[-2.1332331,51.4768942],[-2.1285434,51.4782728],[-2.1171856,51.4723327],[-2.1111964,51.4738775],[-2.1028986,51.4690671],[-2.1051895,51.4673476],[-2.1014031,51.464025],[-2.0952695,51.4647901],[-2.1037571,51.453461],[-2.0942859,51.4527036],[-2.0814981,51.4446012],[-2.090865,51.4410551],[-2.0981543,51.4306386],[-2.1016052,51.4286449],[-2.096656,51.4221132],[-2.0630702,51.4124889],[-2.052564,51.4122776],[-2.0509102,51.4072124],[-2.019694,51.3925064],[-1.984476,51.3847828],[-1.975971,51.3850551],[-1.9699917,51.3965845],[-1.9732575,51.4039719],[-1.9154595,51.4131817],[-1.9069963,51.4222353],[-1.8981895,51.4226322],[-1.8795015,51.4425043],[-1.892027,51.4525114],[-1.8889088,51.4565314],[-1.897904,51.4639461],[-1.8924652,51.4665816],[-1.9308669,51.4864072],[-1.9368051,51.4925086],[-1.955383,51.4942308],[-1.9617462,51.4908467],[-1.9905868,51.5030271],[-1.9899664,51.4966606],[-1.9978953,51.5017289],[-2.0064583,51.4989425],[-2.0193753,51.5037154],[-2.0127638,51.5108385],[-2.0151358,51.5128794],[-2.0047804,51.5141848]],[[-2.0174779,51.4399589],[-2.0223193,51.4400217],[-2.0232656,51.4449911],[-1.9926498,51.4560952],[-1.9889705,51.4516279],[-1.9941366,51.4456975],[-1.9901641,51.4429648],[-1.9877903,51.4380264],[-1.9916197,51.4291934],[-1.9749692,51.4262939],[-1.9890056,51.4264607],[-1.9947494,51.4219563],[-2.0035731,51.4288474],[-2.0093494,51.4281733],[-2.0174779,51.4399589]]],"type":"Polygon"},"id":"E02006655","properties":{"code":"E02006655","geography":"MSOA","name":"Wiltshire 013"},"type":"Feature"},{"geometry":{"coordinates":[[[-2.0981543,51.4306386],[-2.090865,51.4410551],[-2.0814981,51.4446012],[-2.0942859,51.4527036],[-2.1037571,51.453461],[-2.1060279,51.4514746],[-2.1172751,51.453046],[-2.1169196,51.4489561],[-2.1200452,51.4320793],[-2.1072149,51.4336527],[-2.0981543,51.4306386]]],"type":"Polygon"},"id":"E02006656","properties":{"code":"E02006656","geography":"MSOA","name":"Wiltshire 014"},"type":"Feature"},{"geometry":{"coordinates":[[[-1.9901641,51.4429648],[-1.9941366,51.4456975],[-1.9889705,51.4516279],[-1.9926498,51.4560952],[-2.0232656,51.4449911],[-2.0223193,51.4400217],[-2.0174779,51.4399589],[-2.0020178,51.4381983],[-1.9901641,51.4429648]]],"type":"Polygon"},"id":"E02006657","properties":{"code":"E02006657","geography":"MSOA","name":"Wiltshire 015"},"type":"Feature"},{"geometry":{"coordinates":[[[-2.0174779,51.4399589],[-2.0093494,51.4281733],[-2.0035731,51.4288474],[-1.9947494,51.4219563],[-1.9890056,51.4264607],[-1.9749692,51.4262939],[-1.9916197,51.4291934],[-1.9877903,51.4380264],[-1.9901641,51.4429648],[-2.0020178,51.4381983],[-2.0174779,51.4399589]]],"type":"Polygon"},"id":"E02006658","properties":{"code":"E02006658","geography":"MSOA","name":"Wiltshire 016"},"type":"Feature"},{"geometry":{"coordinates":[[[-2.2162284,51.4425737],[-2.2324855,51.4448632],[-2.2319051,51.456061],[-2.2270349,51.4620724],[-2.2367626,51.463895],[-2.2414752,51.4725031],[-2.2647,51.4671129],[-2.2852665,51.4579301],[-2.2946183,51.428804],[-2.295352,51.4262545],[-2.284745,51.4234271],[-2.2785444,51.4158843],[-2.2908639,51.4057147],[-2.281816,51.3972306],[-2.2303455,51.3990221],[-2.2042014,51.4002979],[-2.2155473,51.4100713],[-2.2172191,51.422382],[-2.2048789,51.4241201],[-2.2028254,51.4286765],[-2.2135144,51.432066],[-2.2083618,51.432831],[-2.2125838,51.4393072],[-2.2065273,51.4403112],[-2.2076794,51.4428228],[-2.2162284,51.4425737]]],"type":"Polygon"},"id":"E02006659","properties":{"code":"E02006659","geography":"MSOA","name":"Wiltshire 017"},"type":"Feature"},{"geometry":{"coordinates":[[[-2.149278,51.4472158],[-2.1575829,51.4453042],[-2.1808955,51.453437],[-2.1892835,51.4498413],[-2.2063642,51.4531108],[-2.2063798,51.4447917],[-2.2162284,51.4425737],[-2.2076794,51.4428228],[-2.2065273,51.4403112],[-2.2125838,51.4393072],[-2.2083618,51.432831],[-2.2135144,51.432066],[-2.2028254,51.4286765],[-2.2048789,51.4241201],[-2.2172191,51.422382],[-2.2155473,51.4100713],[-2.2042014,51.4002979],[-2.0853128,51.4062745],[-2.0825974,51.4128663],[-2.0630702,51.4124889],[-2.096656,51.4221132],[-2.1016052,51.4286449],[-2.0981543,51.4306386],[-2.1072149,51.4336527],[-2.1200452,51.4320793],[-2.1169196,51.4489561],[-2.1243331,51.4489017],[-2.1270638,51.4460455],[-2.1388942,51.448123],[-2.149278,51.4472158]]],"type":"Polygon"},"id":"E02006660","properties":{"code":"E02006660","geography":"MSOA","name":"Wiltshire 018"},"type":"Feature"},{"geometry":{"coordinates":[[[-1.8953743,51.2421302],[-1.9129833,51.251978],[-1.9342274,51.2445116],[-1.967824,51.2504602],[-1.9787045,51.2444228],[-1.9735036,51.2382722],[-2.0051503,51.2348667],[-2.0065385,51.2323709],[-1.9913059,51.2285051],[-1.9933097,51.2143863],[-1.9769855,51.2177697],[-1.9724872,51.208361],[-1.9574983,51.2076042],[-1.955869,51.1926105],[-1.9909848,51.1846597],[-1.9700262,51.1745501],[-1.9423107,51.1670387],[-1.9173804,51.1671803],[-1.8906336,51.1604755],[-1.8505512,51.1636955],[-1.8595412,51.1716022],[-1.8535583,51.1765388],[-1.8427628,51.1839588],[-1.8468129,51.1918589],[-1.821889,51.1873538],[-1.7833747,51.1876204],[-1.7841234,51.1960097],[-1.7952166,51.195553],[-1.7946849,51.205713],[-1.7867781,51.208435],[-1.7809502,51.208222],[-1.776277,51.2032907],[-1.7638561,51.204423],[-1.7665518,51.1991581],[-1.75161,51.2007267],[-1.7543261,51.1962747],[-1.7491713,51.1941417],[-1.7511718,51.1920508],[-1.7467877,51.1922371],[-1.7504018,51.1872816],[-1.7427235,51.1826088],[-1.7315954,51.179544],[-1.7129804,51.1810992],[-1.7029486,51.1817292],[-1.704989,51.1937368],[-1.6928043,51.2030542],[-1.6898005,51.2147731],[-1.6905646,51.2241884],[-1.7015219,51.235776],[-1.7051408,51.2459596],[-1.7261646,51.2438469],[-1.7457802,51.2461031],[-1.7679497,51.2426783],[-1.7841833,51.2388091],[-1.7883119,51.2335658],[-1.7796993,51.2291853],[-1.7869605,51.2240672],[-1.8078391,51.2177351],[-1.8369893,51.2149251],[-1.8457907,51.214795],[-1.8648588,51.2239401],[-1.8643994,51.2319924],[-1.876822,51.2394282],[-1.8720314,51.2463612],[-1.8795931,51.2499938],[-1.8865231,51.2403188],[-1.8953743,51.2421302]]],"type":"Polygon"},"id":"E02006661","properties":{"code":"E02006661","geography":"MSOA","name":"Wiltshire 045"},"type":"Feature"},{"geometry":{"coordinates":[[[-1.7427235,51.1826088],[-1.7504018,51.1872816],[-1.7467877,51.1922371],[-1.7511718,51.1920508],[-1.7491713,51.1941417],[-1.7543261,51.1962747],[-1.75161,51.2007267],[-1.7665518,51.1991581],[-1.7638561,51.204423],[-1.776277,51.2032907],[-1.7809502,51.208222],[-1.7867781,51.208435],[-1.7946849,51.205713],[-1.7952166,51.195553],[-1.7841234,51.1960097],[-1.7833747,51.1876204],[-1.7792188,51.1843607],[-1.7712268,51.1863422],[-1.7427235,51.1826088]]],"type":"Polygon"},"id":"E02006662","properties":{"code":"E02006662","geography":"MSOA","name":"Wiltshire 046"},"type":"Feature"},{"geometry":{"coordinates":[[[-1.7833747,51.1876204],[-1.821889,51.1873538],[-1.8468129,51.1918589],[-1.8427628,51.1839588],[-1.8535583,51.1765388],[-1.818057,51.1677822],[-1.8028944,51.1680364],[-1.8047416,51.1641469],[-1.797858,51.160097],[-1.8002832,51.1560128],[-1.7680961,51.149453],[-1.7676466,51.1519571],[-1.7541652,51.1533458],[-1.7299283,51.1702846],[-1.7146366,51.1700254],[-1.7129804,51.1810992],[-1.7315954,51.179544],[-1.7427235,51.1826088],[-1.7712268,51.1863422],[-1.7792188,51.1843607],[-1.7833747,51.1876204]]],"type":"Polygon"},"id":"E02006663","properties":{"code":"E02006663","geography":"MSOA","name":"Wiltshire 048"},"type":"Feature"},{"geometry":{"coordinates":[[[-1.6608476,51.1344272],[-1.6539971,51.1560289],[-1.6723793,51.1785488],[-1.6688472,51.1907769],[-1.6928043,51.2030542],[-1.704989,51.1937368],[-1.7029486,51.1817292],[-1.7129804,51.1810992],[-1.7146366,51.1700254],[-1.7299283,51.1702846],[-1.7541652,51.1533458],[-1.7676466,51.1519571],[-1.7680961,51.149453],[-1.8002832,51.1560128],[-1.797858,51.160097],[-1.8047416,51.1641469],[-1.8028944,51.1680364],[-1.818057,51.1677822],[-1.8535583,51.1765388],[-1.8595412,51.1716022],[-1.8505512,51.1636955],[-1.8471648,51.1602648],[-1.8614764,51.1510824],[-1.8565532,51.131898],[-1.8804826,51.1340123],[-1.9002344,51.1317712],[-1.898776,51.1269709],[-1.9042835,51.1266927],[-1.9069697,51.1295183],[-1.9208797,51.1300931],[-1.926275,51.1236028],[-1.924936,51.1190833],[-1.9397583,51.1118323],[-1.9301011,51.110912],[-1.9283817,51.1151417],[-1.9123735,51.1190265],[-1.9095557,51.1171928],[-1.9165572,51.1138402],[-1.9030689,51.1084843],[-1.9074094,51.1054001],[-1.8930568,51.1016318],[-1.896271,51.0983322],[-1.8902861,51.0963155],[-1.8769153,51.1002171],[-1.8678674,51.0904476],[-1.8599637,51.0961579],[-1.8500882,51.0920642],[-1.8375732,51.0995675],[-1.8273263,51.0907596],[-1.8167883,51.0955127],[-1.8083395,51.1004631],[-1.8118885,51.1073833],[-1.8070432,51.1098251],[-1.7949846,51.1057177],[-1.7918467,51.1113313],[-1.7818961,51.1101615],[-1.7626199,51.1013526],[-1.7690261,51.0951962],[-1.7572318,51.1004429],[-1.7519383,51.0972994],[-1.7449602,51.1071123],[-1.7335733,51.1054951],[-1.7314683,51.1089802],[-1.7192341,51.112998],[-1.6914573,51.1058631],[-1.6836944,51.1148074],[-1.6682775,51.1199226],[-1.6705088,51.1222228],[-1.6629868,51.1271974],[-1.6608476,51.1344272]]],"type":"Polygon"},"id":"E02006664","properties":{"code":"E02006664","geography":"MSOA","name":"Wiltshire 049"},"type":"Feature"},{"geometry":{"coordinates":[[[-2.1154824,51.1229032],[-2.1297683,51.1213308],[-2.1474667,51.1275299],[-2.1694559,51.1191306],[-2.1710997,51.1091095],[-2.1840995,51.1029518],[-2.2024477,51.1106263],[-2.2211136,51.1103608],[-2.2289416,51.1152374],[-2.2380254,51.1156493],[-2.2539908,51.1250081],[-2.2576925,51.1475183],[-2.251673,51.1520441],[-2.2483738,51.1493034],[-2.2481134,51.1617959],[-2.2588923,51.1573643],[-2.2569519,51.1524287],[-2.2661831,51.1515538],[-2.2767994,51.1551282],[-2.2823301,51.1699612],[-2.2940062,51.1756109],[-2.3008629,51.1741331],[-2.3162801,51.1605837],[-2.33229,51.1449634],[-2.3322477,51.1379001],[-2.3458613,51.1333746],[-2.3463073,51.1305164],[-2.3445415,51.124684],[-2.3645293,51.1188844],[-2.3625314,51.1016296],[-2.3470538,51.0882417],[-2.3291434,51.0852647],[-2.3258561,51.0796817],[-2.2912739,51.0770817],[-2.2686247,51.0687472],[-2.244701,51.0723171],[-2.2258126,51.0575894],[-2.2179982,51.0551847],[-2.2053281,51.0428002],[-2.1951763,51.0396641],[-2.1888423,51.0252762],[-2.1729226,51.0227076],[-2.1520338,51.0310418],[-2.1300628,51.0287427],[-2.112985,51.0375243],[-2.1101236,51.0457966],[-2.1360104,51.0460128],[-2.1483039,51.0522295],[-2.1695366,51.0493321],[-2.1678283,51.0532625],[-2.1461317,51.0640666],[-2.1423763,51.0717453],[-2.1468431,51.075226],[-2.1351567,51.0765743],[-2.1278431,51.0680724],[-2.1183075,51.0665505],[-2.1054497,51.0718835],[-2.0955586,51.0898104],[-2.096934,51.0948027],[-2.114556,51.0982641],[-2.1118731,51.1016557],[-2.1172648,51.1056032],[-2.115057,51.1098777],[-2.1204389,51.1188705],[-2.1154824,51.1229032]]],"type":"Polygon"},"id":"E02006665","properties":{"code":"E02006665","geography":"MSOA","name":"Wiltshire 050"},"type":"Feature"},{"geometry":{"coordinates":[[[-1.7807835,51.0790945],[-1.7682066,51.0898479],[-1.7741402,51.0940574],[-1.7989689,51.0929596],[-1.7912621,51.0882156],[-1.7963054,51.0842403],[-1.7951981,51.0811007],[-1.791394,51.0814075],[-1.7977147,51.0776617],[-1.7904552,51.0809536],[-1.783736,51.0779025],[-1.7807835,51.0790945]]],"type":"Polygon"},"id":"E02006666","properties":{"code":"E02006666","geography":"MSOA","name":"Wiltshire 051"},"type":"Feature"},{"geometry":{"coordinates":[[[-1.8167883,51.0955127],[-1.8273263,51.0907596],[-1.8375732,51.0995675],[-1.8500882,51.0920642],[-1.8423032,51.0877989],[-1.8475164,51.0810116],[-1.8345768,51.0793062],[-1.8255932,51.0763633],[-1.8230322,51.0794452],[-1.8165534,51.0880994],[-1.8167883,51.0955127]]],"type":"Polygon"},"id":"E02006667","properties":{"code":"E02006667","geography":"MSOA","name":"Wiltshire 052"},"type":"Feature"},{"geometry":{"coordinates":[[[-1.7949846,51.1057177],[-1.8070432,51.1098251],[-1.8118885,51.1073833],[-1.8083395,51.1004631],[-1.8167883,51.0955127],[-1.8165534,51.0880994],[-1.8230322,51.0794452],[-1.8122417,51.0764089],[-1.807297,51.0806299],[-1.7979822,51.0747302],[-1.7934046,51.0766641],[-1.7863873,51.0745085],[-1.783736,51.0779025],[-1.7904552,51.0809536],[-1.7977147,51.0776617],[-1.791394,51.0814075],[-1.7951981,51.0811007],[-1.7963054,51.0842403],[-1.7912621,51.0882156],[-1.7989689,51.0929596],[-1.7949846,51.1057177]]],"type":"Polygon"},"id":"E02006668","properties":{"code":"E02006668","geography":"MSOA","name":"Wiltshire 053"},"type":"Feature"},{"geometry":{"coordinates":[[[-1.8505512,51.1636955],[-1.8906336,51.1604755],[-1.9173804,51.1671803],[-1.9423107,51.1670387],[-1.9700262,51.1745501],[-1.9909848,51.1846597],[-2.002319,51.1817079],[-2.0063185,51.1554574],[-2.0118129,51.1478058],[-1.997361,51.1439075],[-2.0168925,51.1139864],[-2.0473732,51.1206029],[-2.0619136,51.1174756],[-2.0732588,51.1203692],[-2.0889115,51.1198926],[-2.1040792,51.124269],[-2.1154824,51.1229032],[-2.1204389,51.1188705],[-2.115057,51.1098777],[-2.1172648,51.1056032],[-2.1118731,51.1016557],[-2.114556,51.0982641],[-2.096934,51.0948027],[-2.0955586,51.0898104],[-2.0803365,51.0882053],[-2.0754814,51.0812856],[-2.064681,51.0781376],[-2.0325148,51.0765298],[-2.0274882,51.0708723],[-2.0197916,51.0688739],[-2.0109561,51.0761498],[-1.9847685,51.0744927],[-1.9802712,51.0623746],[-1.9707774,51.0548571],[-1.9716444,51.0507297],[-1.9982475,51.0383196],[-2.0382868,51.028627],[-2.0319875,51.0186895],[-2.0257187,51.0164318],[-2.0300634,50.97993],[-2.0348413,50.9723743],[-1.9940437,50.9757342],[-1.9852172,50.9847619],[-1.9653656,50.9920433],[-1.9568285,50.9898364],[-1.9499433,50.9823171],[-1.9278847,50.9977031],[-1.8867489,50.999535],[-1.8744896,51.0063373],[-1.874245,50.9876907],[-1.8590565,51.0309341],[-1.8649638,51.0461035],[-1.8627995,51.0548065],[-1.8688944,51.0557514],[-1.8638409,51.0566673],[-1.8460977,51.0746575],[-1.8322231,51.0690922],[-1.8287529,51.0725086],[-1.8361632,51.0746854],[-1.8345768,51.0793062],[-1.8475164,51.0810116],[-1.8423032,51.0877989],[-1.8500882,51.0920642],[-1.8599637,51.0961579],[-1.8678674,51.0904476],[-1.8769153,51.1002171],[-1.8902861,51.0963155],[-1.896271,51.0983322],[-1.8930568,51.1016318],[-1.9074094,51.1054001],[-1.9030689,51.1084843],[-1.9165572,51.1138402],[-1.9095557,51.1171928],[-1.9123735,51.1190265],[-1.9283817,51.1151417],[-1.9301011,51.110912],[-1.9397583,51.1118323],[-1.924936,51.1190833],[-1.926275,51.1236028],[-1.9208797,51.1300931],[-1.9069697,51.1295183],[-1.9042835,51.1266927],[-1.898776,51.1269709],[-1.9002344,51.1317712],[-1.8804826,51.1340123],[-1.8565532,51.131898],[-1.8614764,51.1510824],[-1.8471648,51.1602648],[-1.8505512,51.1636955]]],"type":"Polygon"},"id":"E02006669","properties":{"code":"E02006669","geography":"MSOA","name":"Wiltshire 054"},"type":"Feature"},{"geometry":{"coordinates":[[[-1.7979822,51.0747302],[-1.807297,51.0806299],[-1.8122417,51.0764089],[-1.8230322,51.0794452],[-1.8255932,51.0763633],[-1.8345768,51.0793062],[-1.8361632,51.0746854],[-1.8287529,51.0725086],[-1.8188123,51.0713315],[-1.8173944,51.0648561],[-1.8108972,51.0658401],[-1.8093612,51.0696617],[-1.8044247,51.0678879],[-1.803348,51.0705506],[-1.7979822,51.0747302]]],"type":"Polygon"},"id":"E02006670","properties":{"code":"E02006670","geography":"MSOA","name":"Wiltshire 055"},"type":"Feature"},{"geometry":{"coordinates":[[[-1.7872434,51.0615593],[-1.7836753,51.0634368],[-1.7727777,51.0559918],[-1.76906,51.0613601],[-1.7797352,51.0649775],[-1.7763346,51.066978],[-1.7823665,51.0708549],[-1.7807835,51.0790945],[-1.783736,51.0779025],[-1.7863873,51.0745085],[-1.7934046,51.0766641],[-1.7979822,51.0747302],[-1.803348,51.0705506],[-1.7896831,51.0683417],[-1.7872434,51.0615593]]],"type":"Polygon"},"id":"E02006671","properties":{"code":"E02006671","geography":"MSOA","name":"Wiltshire 056"},"type":"Feature"},{"geometry":{"coordinates":[[[-1.7519383,51.0972994],[-1.7572318,51.1004429],[-1.7690261,51.0951962],[-1.7626199,51.1013526],[-1.7818961,51.1101615],[-1.7918467,51.1113313],[-1.7949846,51.1057177],[-1.7989689,51.0929596],[-1.7741402,51.0940574],[-1.7682066,51.0898479],[-1.7807835,51.0790945],[-1.7823665,51.0708549],[-1.7763346,51.066978],[-1.7797352,51.0649775],[-1.76906,51.0613601],[-1.7727777,51.0559918],[-1.7836753,51.0634368],[-1.7872434,51.0615593],[-1.7784611,51.0567427],[-1.7928298,51.0485195],[-1.8058252,51.050261],[-1.8045303,51.0525468],[-1.8098697,51.0537047],[-1.8087338,51.0581655],[-1.8190307,51.0587593],[-1.8173944,51.0648561],[-1.8188123,51.0713315],[-1.8287529,51.0725086],[-1.8322231,51.0690922],[-1.8460977,51.0746575],[-1.8638409,51.0566673],[-1.8688944,51.0557514],[-1.8627995,51.0548065],[-1.8649638,51.0461035],[-1.8590565,51.0309341],[-1.874245,50.9876907],[-1.8739915,50.9844478],[-1.8523767,51.0052101],[-1.8358216,51.0094285],[-1.831739,51.0038494],[-1.8132902,51.0047863],[-1.7775564,51.0228216],[-1.7596786,51.0263664],[-1.756962,51.0335542],[-1.751292,51.0438855],[-1.7546481,51.0521555],[-1.7507193,51.048758],[-1.7426968,51.0483296],[-1.7089128,51.0542631],[-1.7015934,51.0595834],[-1.7005823,51.0667422],[-1.7058046,51.0789511],[-1.7184242,51.0915229],[-1.7422319,51.0954849],[-1.7464278,51.0938627],[-1.7519383,51.0972994]]],"type":"Polygon"},"id":"E02006672","properties":{"code":"E02006672","geography":"MSOA","name":"Wiltshire 057"},"type":"Feature"},{"geometry":{"coordinates":[[[-1.7896831,51.0683417],[-1.803348,51.0705506],[-1.8044247,51.0678879],[-1.8093612,51.0696617],[-1.8108972,51.0658401],[-1.8173944,51.0648561],[-1.8190307,51.0587593],[-1.8087338,51.0581655],[-1.8098697,51.0537047],[-1.7970676,51.0588221],[-1.7934364,51.0685627],[-1.7896831,51.0683417]]],"type":"Polygon"},"id":"E02006673","properties":{"code":"E02006673","geography":"MSOA","name":"Wiltshire 058"},"type":"Feature"},{"geometry":{"coordinates":[[[-1.7896831,51.0683417],[-1.7934364,51.0685627],[-1.7970676,51.0588221],[-1.8098697,51.0537047],[-1.8045303,51.0525468],[-1.8058252,51.050261],[-1.7928298,51.0485195],[-1.7784611,51.0567427],[-1.7872434,51.0615593],[-1.7896831,51.0683417]]],"type":"Polygon"},"id":"E02006674","properties":{"code":"E02006674","geography":"MSOA","name":"Wiltshire 059"},"type":"Feature"},{"geometry":{"coordinates":[[[-1.5994088,51.0237355],[-1.619469,51.0330655],[-1.6323875,51.0327857],[-1.6349534,51.0405666],[-1.62774,51.0780171],[-1.6373229,51.0921715],[-1.6269675,51.1028698],[-1.6309421,51.1111585],[-1.6262628,51.1173433],[-1.6405925,51.1253876],[-1.6629868,51.1271974],[-1.6705088,51.1222228],[-1.6682775,51.1199226],[-1.6836944,51.1148074],[-1.6914573,51.1058631],[-1.7192341,51.112998],[-1.7314683,51.1089802],[-1.7335733,51.1054951],[-1.7449602,51.1071123],[-1.7519383,51.0972994],[-1.7464278,51.0938627],[-1.7422319,51.0954849],[-1.7184242,51.0915229],[-1.7058046,51.0789511],[-1.7005823,51.0667422],[-1.7015934,51.0595834],[-1.7089128,51.0542631],[-1.7426968,51.0483296],[-1.7507193,51.048758],[-1.7546481,51.0521555],[-1.751292,51.0438855],[-1.756962,51.0335542],[-1.7592652,51.0265578],[-1.7527007,51.026996],[-1.7533498,51.0244517],[-1.7186973,51.0268469],[-1.7002715,51.021383],[-1.6950686,51.0142977],[-1.6925101,50.996045],[-1.6783983,50.9901398],[-1.6681768,50.9893541],[-1.6573023,50.9946641],[-1.6288156,50.9991012],[-1.6172426,51.0041886],[-1.6060896,51.0019044],[-1.6149417,51.0066629],[-1.6091001,51.0098195],[-1.6050264,51.0070121],[-1.5975354,51.0080619],[-1.6053808,51.0172646],[-1.5994088,51.0237355]]],"type":"Polygon"},"id":"E02006675","properties":{"code":"E02006675","geography":"MSOA","name":"Wiltshire 060"},"type":"Feature"},{"geometry":{"coordinates":[[[-2.0348413,50.9723743],[-2.0300634,50.97993],[-2.0257187,51.0164318],[-2.0319875,51.0186895],[-2.0382868,51.028627],[-1.9982475,51.0383196],[-1.9716444,51.0507297],[-1.9707774,51.0548571],[-1.9802712,51.0623746],[-1.9847685,51.0744927],[-2.0109561,51.0761498],[-2.0197916,51.0688739],[-2.0274882,51.0708723],[-2.0325148,51.0765298],[-2.064681,51.0781376],[-2.0754814,51.0812856],[-2.0803365,51.0882053],[-2.0955586,51.0898104],[-2.1054497,51.0718835],[-2.1183075,51.0665505],[-2.1278431,51.0680724],[-2.1351567,51.0765743],[-2.1468431,51.075226],[-2.1423763,51.0717453],[-2.1461317,51.0640666],[-2.1678283,51.0532625],[-2.1695366,51.0493321],[-2.1483039,51.0522295],[-2.1360104,51.0460128],[-2.1101236,51.0457966],[-2.112985,51.0375243],[-2.1300628,51.0287427],[-2.1520338,51.0310418],[-2.1729226,51.0227076],[-2.1888423,51.0252762],[-2.18861,51.018539],[-2.1763938,51.0128244],[-2.178107,51.0082672],[-2.1718278,51.0010094],[-2.14875,50.9865507],[-2.1219742,50.978174],[-2.1206153,50.961435],[-2.1017987,50.9449921],[-2.0892256,50.9501621],[-2.0672897,50.951827],[-2.058334,50.9636496],[-2.0348413,50.9723743]]],"type":"Polygon"},"id":"E02006676","properties":{"code":"E02006676","geography":"MSOA","name":"Wiltshire 061"},"type":"Feature"},{"geometry":{"coordinates":[[[-1.6288156,50.9991012],[-1.6573023,50.9946641],[-1.6681768,50.9893541],[-1.6783983,50.9901398],[-1.6925101,50.996045],[-1.6950686,51.0142977],[-1.7002715,51.021383],[-1.7186973,51.0268469],[-1.7533498,51.0244517],[-1.7527007,51.026996],[-1.7592652,51.0265578],[-1.756962,51.0335542],[-1.7596786,51.0263664],[-1.7775564,51.0228216],[-1.8132902,51.0047863],[-1.831739,51.0038494],[-1.8154301,50.9859294],[-1.807592,50.9920527],[-1.8003228,50.9914015],[-1.7543287,50.9804549],[-1.7544103,50.9778995],[-1.7196265,50.9767866],[-1.6894228,50.9547037],[-1.6768909,50.9496745],[-1.6616695,50.9452857],[-1.6463868,50.9494725],[-1.6349753,50.9592496],[-1.6234113,50.9546448],[-1.6197614,50.9585744],[-1.6029341,50.9785241],[-1.6144296,50.9795018],[-1.619655,50.9830035],[-1.6189649,50.9873729],[-1.6252067,50.9903324],[-1.6288156,50.9991012]]],"type":"Polygon"},"id":"E02006677","properties":{"code":"E02006677","geography":"MSOA","name":"Wiltshire 062"},"type":"Feature"},{"geometry":{"coordinates":[[[-2.1211068,51.3716134],[-2.1184701,51.3770976],[-2.1249189,51.3850187],[-2.1515728,51.3879139],[-2.1520444,51.3834428],[-2.1482758,51.3798075],[-2.1346774,51.3782837],[-2.1285511,51.3729111],[-2.1211068,51.3716134]]],"type":"Polygon"},"id":"E02006678","properties":{"code":"E02006678","geography":"MSOA","name":"Wiltshire 020"},"type":"Feature"},{"geometry":{"coordinates":[[[-2.1250124,51.3467546],[-2.1231666,51.3512786],[-2.1066956,51.3548353],[-2.099054,51.36063],[-2.0902784,51.3589709],[-2.0907442,51.3657594],[-2.0780292,51.3666892],[-2.0714588,51.3720821],[-2.0798078,51.3816537],[-2.0824789,51.3935352],[-2.0902766,51.3924378],[-2.0899156,51.3982081],[-2.0834166,51.399389],[-2.0803197,51.4062301],[-2.0853128,51.4062745],[-2.2042014,51.4002979],[-2.2303455,51.3990221],[-2.2289067,51.3812286],[-2.2225273,51.3756383],[-2.2258689,51.3685348],[-2.2012965,51.3667067],[-2.1915661,51.3578101],[-2.1865051,51.3606269],[-2.1812401,51.3593674],[-2.1839228,51.3527145],[-2.158448,51.3534709],[-2.1621655,51.3508344],[-2.1573411,51.3513916],[-2.1537168,51.3476427],[-2.1250124,51.3467546]],[[-2.1211068,51.3716134],[-2.1271476,51.3641401],[-2.144059,51.3656326],[-2.144945,51.3755424],[-2.1482083,51.3737881],[-2.1552685,51.3809063],[-2.1520444,51.3834428],[-2.1515728,51.3879139],[-2.1249189,51.3850187],[-2.1184701,51.3770976],[-2.1211068,51.3716134]]],"type":"Polygon"},"id":"E02006679","properties":{"code":"E02006679","geography":"MSOA","name":"Wiltshire 021"},"type":"Feature"},{"geometry":{"coordinates":[[[-2.1211068,51.3716134],[-2.1285511,51.3729111],[-2.1346774,51.3782837],[-2.1482758,51.3798075],[-2.1520444,51.3834428],[-2.1552685,51.3809063],[-2.1482083,51.3737881],[-2.144945,51.3755424],[-2.144059,51.3656326],[-2.1271476,51.3641401],[-2.1211068,51.3716134]]],"type":"Polygon"},"id":"E02006680","properties":{"code":"E02006680","geography":"MSOA","name":"Wiltshire 022"},"type":"Feature"},{"geometry":{"coordinates":[[[-2.1839228,51.3527145],[-2.1812401,51.3593674],[-2.1865051,51.3606269],[-2.1915661,51.3578101],[-2.2012965,51.3667067],[-2.2258689,51.3685348],[-2.2225273,51.3756383],[-2.2289067,51.3812286],[-2.2303455,51.3990221],[-2.281816,51.3972306],[-2.2967902,51.3948897],[-2.2974971,51.3849217],[-2.2902908,51.3726242],[-2.2968173,51.363911],[-2.30013,51.362124],[-2.3075209,51.3650002],[-2.3102167,51.3575376],[-2.322985,51.35666],[-2.3443413,51.3456967],[-2.3240495,51.3477634],[-2.3085303,51.3397541],[-2.2964112,51.3426653],[-2.2944438,51.3372667],[-2.3009292,51.3332262],[-2.2884411,51.3297745],[-2.2890932,51.3252757],[-2.27485,51.3246381],[-2.2604635,51.3272394],[-2.2590948,51.330439],[-2.2451089,51.3268581],[-2.2436771,51.3286144],[-2.2486643,51.3330332],[-2.2550042,51.332285],[-2.2709973,51.339766],[-2.2698076,51.3425904],[-2.2744272,51.3442892],[-2.2730824,51.3527913],[-2.2677067,51.3543106],[-2.2698169,51.3568424],[-2.2574448,51.3625494],[-2.2418216,51.3624109],[-2.2330557,51.3586953],[-2.2269661,51.3495704],[-2.2348296,51.3365524],[-2.2316388,51.3326546],[-2.2244416,51.3276321],[-2.2172431,51.3299448],[-2.2126358,51.3299118],[-2.2102064,51.3336958],[-2.215677,51.3368329],[-2.2172248,51.3474328],[-2.1964138,51.347799],[-2.1839228,51.3527145]]],"type":"Polygon"},"id":"E02006681","properties":{"code":"E02006681","geography":"MSOA","name":"Wiltshire 023"},"type":"Feature"},{"geometry":{"coordinates":[[[-2.2316388,51.3326546],[-2.2348296,51.3365524],[-2.2269661,51.3495704],[-2.2330557,51.3586953],[-2.2418216,51.3624109],[-2.2574448,51.3625494],[-2.2698169,51.3568424],[-2.2677067,51.3543106],[-2.2730824,51.3527913],[-2.2744272,51.3442892],[-2.2698076,51.3425904],[-2.2709973,51.339766],[-2.2550042,51.332285],[-2.2486643,51.3330332],[-2.2436771,51.3286144],[-2.2322806,51.3301986],[-2.2316388,51.3326546]]],"type":"Polygon"},"id":"E02006682","properties":{"code":"E02006682","geography":"MSOA","name":"Wiltshire 027"},"type":"Feature"},{"geometry":{"coordinates":[[[-2.1250124,51.3467546],[-2.1537168,51.3476427],[-2.1573411,51.3513916],[-2.1621655,51.3508344],[-2.158448,51.3534709],[-2.1839228,51.3527145],[-2.1964138,51.347799],[-2.2172248,51.3474328],[-2.215677,51.3368329],[-2.2102064,51.3336958],[-2.2033536,51.337515],[-2.1988716,51.3318868],[-2.1829631,51.3223428],[-2.1799642,51.3232475],[-2.165492,51.3264168],[-2.1603404,51.3250186],[-2.1567092,51.3303286],[-2.1608147,51.3312474],[-2.1479173,51.3360891],[-2.133827,51.3369231],[-2.1330381,51.3349623],[-2.1282217,51.338973],[-2.1267799,51.3365222],[-2.1156069,51.3385373],[-2.1151778,51.3458985],[-2.1200401,51.3440916],[-2.1250124,51.3467546]]],"type":"Polygon"},"id":"E02006683","properties":{"code":"E02006683","geography":"MSOA","name":"Wiltshire 030"},"type":"Feature"},{"geometry":{"coordinates":[[[-2.1988716,51.3318868],[-2.2033536,51.337515],[-2.2102064,51.3336958],[-2.2126358,51.3299118],[-2.2172431,51.3299448],[-2.2160033,51.3259023],[-2.2276255,51.3207737],[-2.2184085,51.3157054],[-2.2137742,51.3182219],[-2.2110192,51.3153396],[-2.2073602,51.317583],[-2.2055414,51.3239966],[-2.1989401,51.3254656],[-2.1988716,51.3318868]]],"type":"Polygon"},"id":"E02006684","properties":{"code":"E02006684","geography":"MSOA","name":"Wiltshire 031"},"type":"Feature"},{"geometry":{"coordinates":[[[-2.1799642,51.3232475],[-2.1829631,51.3223428],[-2.1988716,51.3318868],[-2.1989401,51.3254656],[-2.2055414,51.3239966],[-2.2073602,51.317583],[-2.1970569,51.3145851],[-2.1807594,51.315883],[-2.1804014,51.3127406],[-2.1757298,51.3138023],[-2.1737098,51.3208004],[-2.1782364,51.3202631],[-2.1799642,51.3232475]]],"type":"Polygon"},"id":"E02006685","properties":{"code":"E02006685","geography":"MSOA","name":"Wiltshire 032"},"type":"Feature"},{"geometry":{"coordinates":[[[-2.2172431,51.3299448],[-2.2244416,51.3276321],[-2.2316388,51.3326546],[-2.2322806,51.3301986],[-2.2306885,51.327237],[-2.2355616,51.3234353],[-2.2298168,51.3165101],[-2.2354657,51.3081414],[-2.232078,51.3065605],[-2.2184085,51.3157054],[-2.2276255,51.3207737],[-2.2160033,51.3259023],[-2.2172431,51.3299448]]],"type":"Polygon"},"id":"E02006686","properties":{"code":"E02006686","geography":"MSOA","name":"Wiltshire 033"},"type":"Feature"},{"geometry":{"coordinates":[[[-2.1970569,51.3145851],[-2.2073602,51.317583],[-2.2110192,51.3153396],[-2.2165829,51.3124421],[-2.2094431,51.3020434],[-2.1980972,51.3083683],[-2.1970569,51.3145851]]],"type":"Polygon"},"id":"E02006687","properties":{"code":"E02006687","geography":"MSOA","name":"Wiltshire 035"},"type":"Feature"},{"geometry":{"coordinates":[[[-2.2110192,51.3153396],[-2.2137742,51.3182219],[-2.2184085,51.3157054],[-2.232078,51.3065605],[-2.228047,51.3036917],[-2.2094431,51.3020434],[-2.2165829,51.3124421],[-2.2110192,51.3153396]]],"type":"Polygon"},"id":"E02006688","properties":{"code":"E02006688","geography":"MSOA","name":"Wiltshire 036"},"type":"Feature"},{"geometry":{"coordinates":[[[-2.1156069,51.3385373],[-2.1267799,51.3365222],[-2.1282217,51.338973],[-2.1330381,51.3349623],[-2.133827,51.3369231],[-2.1479173,51.3360891],[-2.1608147,51.3312474],[-2.1567092,51.3303286],[-2.1603404,51.3250186],[-2.165492,51.3264168],[-2.1799642,51.3232475],[-2.1782364,51.3202631],[-2.1737098,51.3208004],[-2.1757298,51.3138023],[-2.1804014,51.3127406],[-2.1807594,51.315883],[-2.1970569,51.3145851],[-2.1980972,51.3083683],[-2.2094431,51.3020434],[-2.228047,51.3036917],[-2.232078,51.3065605],[-2.2354657,51.3081414],[-2.2298168,51.3165101],[-2.2355616,51.3234353],[-2.2306885,51.327237],[-2.2322806,51.3301986],[-2.2436771,51.3286144],[-2.2451089,51.3268581],[-2.2590948,51.330439],[-2.2604635,51.3272394],[-2.27485,51.3246381],[-2.271957,51.3142579],[-2.2850817,51.3093928],[-2.2767678,51.3040014],[-2.2814949,51.2986741],[-2.2800451,51.2923076],[-2.2652556,51.2962241],[-2.2652895,51.2928629],[-2.2535,51.289839],[-2.2452394,51.2725656],[-2.2409646,51.273724],[-2.2396495,51.2676497],[-2.2367712,51.2768687],[-2.2310547,51.2810942],[-2.2241155,51.2810594],[-2.2233855,51.2858163],[-2.2189066,51.284262],[-2.2214053,51.2883965],[-2.2177219,51.2959068],[-2.2093548,51.2948931],[-2.2096956,51.2925517],[-2.2029108,51.2926146],[-2.2040741,51.2959455],[-2.1949839,51.295222],[-2.2028599,51.2878188],[-2.1991837,51.2853547],[-2.1845844,51.2862454],[-2.1661288,51.2930089],[-2.1466727,51.2821058],[-2.1341624,51.2895772],[-2.1056363,51.2951473],[-2.1077099,51.3048502],[-2.1020971,51.3101263],[-2.0819136,51.3103367],[-2.0659839,51.3102111],[-2.0649423,51.3305551],[-2.0755583,51.3352154],[-2.1054024,51.332824],[-2.106362,51.3379523],[-2.1156069,51.3385373]]],"type":"Polygon"},"id":"E02006689","properties":{"code":"E02006689","geography":"MSOA","name":"Wiltshire 037"},"type":"Feature"},{"geometry":{"coordinates":[[[-2.072136,51.2548544],[-2.0707892,51.2706215],[-2.0631612,51.282694],[-2.0641792,51.2958398],[-2.0819136,51.3103367],[-2.1020971,51.3101263],[-2.1077099,51.3048502],[-2.1056363,51.2951473],[-2.1341624,51.2895772],[-2.1466727,51.2821058],[-2.1661288,51.2930089],[-2.1845844,51.2862454],[-2.1991837,51.2853547],[-2.2028599,51.2878188],[-2.1949839,51.295222],[-2.2040741,51.2959455],[-2.2029108,51.2926146],[-2.2096956,51.2925517],[-2.2093548,51.2948931],[-2.2177219,51.2959068],[-2.2214053,51.2883965],[-2.2189066,51.284262],[-2.2233855,51.2858163],[-2.2241155,51.2810594],[-2.2310547,51.2810942],[-2.2367712,51.2768687],[-2.2396495,51.2676497],[-2.2409646,51.273724],[-2.2452394,51.2725656],[-2.244434,51.2631238],[-2.2495869,51.2589708],[-2.2453449,51.2538809],[-2.2528649,51.2473561],[-2.2413955,51.2374034],[-2.2350955,51.241245],[-2.2298629,51.2387503],[-2.2291373,51.2293984],[-2.2394592,51.2261442],[-2.2289484,51.2245206],[-2.2292726,51.2208909],[-2.2229723,51.2173566],[-2.2150659,51.219641],[-2.2131211,51.2147332],[-2.203551,51.2172222],[-2.2048767,51.220046],[-2.1902134,51.2201302],[-2.1872082,51.2248404],[-2.1777199,51.2248822],[-2.1717256,51.2299203],[-2.1654744,51.2299797],[-2.1584925,51.2362015],[-2.1536858,51.2349405],[-2.1397737,51.2407542],[-2.1298712,51.232825],[-2.1220453,51.2320508],[-2.0995616,51.2213551],[-2.0894351,51.2351975],[-2.076245,51.2362719],[-2.072136,51.2548544]],[[-2.2050206,51.2504971],[-2.2145077,51.2741613],[-2.2060453,51.2717447],[-2.1911111,51.2753846],[-2.1832089,51.2703078],[-2.1788387,51.2718063],[-2.1804917,51.2667648],[-2.1755111,51.2603154],[-2.180628,51.2578234],[-2.1722122,51.2531708],[-2.1746132,51.2515307],[-2.1833164,51.253001],[-2.1832411,51.2497077],[-2.1915296,51.2467655],[-2.1957647,51.2488176],[-2.2010086,51.2439942],[-2.2050206,51.2504971]]],"type":"Polygon"},"id":"E02006690","properties":{"code":"E02006690","geography":"MSOA","name":"Wiltshire 039"},"type":"Feature"},{"geometry":{"coordinates":[[[-2.1298712,51.232825],[-2.1397737,51.2407542],[-2.1536858,51.2349405],[-2.1584925,51.2362015],[-2.1654744,51.2299797],[-2.1608591,51.2257046],[-2.1680519,51.2145259],[-2.1812652,51.2086673],[-2.1835484,51.2066292],[-2.172685,51.2066807],[-2.1752436,51.2025689],[-2.1720813,51.2010631],[-2.1764356,51.2005452],[-2.1700972,51.1946148],[-2.1521738,51.1950953],[-2.1364271,51.2076805],[-2.1198026,51.2279559],[-2.1298712,51.232825]]],"type":"Polygon"},"id":"E02006692","properties":{"code":"E02006692","geography":"MSOA","name":"Wiltshire 042"},"type":"Feature"},{"geometry":{"coordinates":[[[-2.1812652,51.2086673],[-2.1680519,51.2145259],[-2.1608591,51.2257046],[-2.1654744,51.2299797],[-2.1717256,51.2299203],[-2.1777199,51.2248822],[-2.1872082,51.2248404],[-2.1902134,51.2201302],[-2.2048767,51.220046],[-2.203551,51.2172222],[-2.2131211,51.2147332],[-2.2128,51.2090492],[-2.2206852,51.2076686],[-2.2193566,51.2039933],[-2.225388,51.2036313],[-2.2282969,51.1958979],[-2.2139104,51.1911099],[-2.2089404,51.1941496],[-2.2038558,51.1896313],[-2.1894936,51.1904434],[-2.1984119,51.1947988],[-2.1946503,51.1959351],[-2.196616,51.1998553],[-2.1902772,51.2017887],[-2.1925552,51.211084],[-2.1875497,51.2101357],[-2.1861848,51.205287],[-2.1837338,51.2097809],[-2.1812652,51.2086673]]],"type":"Polygon"},"id":"E02006693","properties":{"code":"E02006693","geography":"MSOA","name":"Wiltshire 043"},"type":"Feature"},{"geometry":{"coordinates":[[[-2.1812652,51.2086673],[-2.1837338,51.2097809],[-2.1861848,51.205287],[-2.1875497,51.2101357],[-2.1925552,51.211084],[-2.1902772,51.2017887],[-2.196616,51.1998553],[-2.1946503,51.1959351],[-2.1984119,51.1947988],[-2.1894936,51.1904434],[-2.1821503,51.1894625],[-2.1749375,51.1930808],[-2.1701494,51.1913826],[-2.1700972,51.1946148],[-2.1764356,51.2005452],[-2.1720813,51.2010631],[-2.1752436,51.2025689],[-2.172685,51.2066807],[-2.1835484,51.2066292],[-2.1812652,51.2086673]]],"type":"Polygon"},"id":"E02006694","properties":{"code":"E02006694","geography":"MSOA","name":"Wiltshire 044"},"type":"Feature"},{"geometry":{"coordinates":[[[-2.0415229,51.2502754],[-2.0467297,51.2515683],[-2.0610411,51.2475505],[-2.072136,51.2548544],[-2.076245,51.2362719],[-2.0894351,51.2351975],[-2.0995616,51.2213551],[-2.1220453,51.2320508],[-2.1298712,51.232825],[-2.1198026,51.2279559],[-2.1364271,51.2076805],[-2.1521738,51.1950953],[-2.1700972,51.1946148],[-2.1701494,51.1913826],[-2.1749375,51.1930808],[-2.1821503,51.1894625],[-2.1894936,51.1904434],[-2.2038558,51.1896313],[-2.2089404,51.1941496],[-2.2139104,51.1911099],[-2.2282969,51.1958979],[-2.225388,51.2036313],[-2.2193566,51.2039933],[-2.2206852,51.2076686],[-2.2128,51.2090492],[-2.2131211,51.2147332],[-2.2150659,51.219641],[-2.2229723,51.2173566],[-2.2292726,51.2208909],[-2.2289484,51.2245206],[-2.2394592,51.2261442],[-2.2291373,51.2293984],[-2.2298629,51.2387503],[-2.2350955,51.241245],[-2.2413955,51.2374034],[-2.2528649,51.2473561],[-2.263768,51.2343779],[-2.269765,51.2189579],[-2.2666681,51.2155388],[-2.3008629,51.1741331],[-2.2940062,51.1756109],[-2.2823301,51.1699612],[-2.2767994,51.1551282],[-2.2661831,51.1515538],[-2.2569519,51.1524287],[-2.2588923,51.1573643],[-2.2481134,51.1617959],[-2.2483738,51.1493034],[-2.251673,51.1520441],[-2.2576925,51.1475183],[-2.2539908,51.1250081],[-2.2380254,51.1156493],[-2.2289416,51.1152374],[-2.2211136,51.1103608],[-2.2024477,51.1106263],[-2.1840995,51.1029518],[-2.1710997,51.1091095],[-2.1694559,51.1191306],[-2.1474667,51.1275299],[-2.1297683,51.1213308],[-2.1154824,51.1229032],[-2.1040792,51.124269],[-2.0889115,51.1198926],[-2.0732588,51.1203692],[-2.0619136,51.1174756],[-2.0473732,51.1206029],[-2.0168925,51.1139864],[-1.997361,51.1439075],[-2.0118129,51.1478058],[-2.0063185,51.1554574],[-2.002319,51.1817079],[-1.9909848,51.1846597],[-1.955869,51.1926105],[-1.9574983,51.2076042],[-1.9724872,51.208361],[-1.9769855,51.2177697],[-1.9933097,51.2143863],[-1.9913059,51.2285051],[-2.0065385,51.2323709],[-2.0202361,51.24452],[-2.0379601,51.238884],[-2.0409234,51.2417904],[-2.0374244,51.2492125],[-2.0415229,51.2502754]]],"type":"Polygon"},"id":"E02006695","properties":{"code":"E02006695","geography":"MSOA","name":"Wiltshire 047"},"type":"Feature"},{"geometry":{"coordinates":[[[-2.1804917,51.2667648],[-2.1788387,51.2718063],[-2.1832089,51.2703078],[-2.1911111,51.2753846],[-2.2060453,51.2717447],[-2.2145077,51.2741613],[-2.2050206,51.2504971],[-2.1860883,51.2565947],[-2.1863222,51.2612769],[-2.1930417,51.2637304],[-2.1804917,51.2667648]]],"type":"Polygon"},"id":"E02007023","properties":{"code":"E02007023","geography":"MSOA","name":"Wiltshire 063"},"type":"Feature"},{"geometry":{"coordinates":[[[-2.2050206,51.2504971],[-2.2010086,51.2439942],[-2.1957647,51.2488176],[-2.1915296,51.2467655],[-2.1832411,51.2497077],[-2.1833164,51.253001],[-2.1746132,51.2515307],[-2.1722122,51.2531708],[-2.180628,51.2578234],[-2.1755111,51.2603154],[-2.1804917,51.2667648],[-2.1930417,51.2637304],[-2.1863222,51.2612769],[-2.1860883,51.2565947],[-2.2050206,51.2504971]]],"type":"Polygon"},"id":"E02007024","properties":{"code":"E02007024","geography":"MSOA","name":"Wiltshire 064"},"type":"Feature"},{"geometry":{"coordinates":[[[-1.5776476,51.2556337],[-1.5784526,51.267871],[-1.5821085,51.2696997],[-1.5904465,51.2678938],[-1.5966458,51.2723796],[-1.6115128,51.2617683],[-1.6219553,51.2637843],[-1.6674036,51.2571835],[-1.6651314,51.2461202],[-1.6569737,51.2415832],[-1.660373,51.2394945],[-1.6471695,51.2468674],[-1.6477994,51.2406928],[-1.6530545,51.2390514],[-1.649545,51.2388906],[-1.6503779,51.2359536],[-1.6284126,51.2325707],[-1.6224612,51.2344027],[-1.6193467,51.2412215],[-1.6104045,51.2429833],[-1.6074345,51.2527689],[-1.6007323,51.25072],[-1.6001978,51.2535279],[-1.5776476,51.2556337]]],"type":"Polygon"},"id":"E02007025","properties":{"code":"E02007025","geography":"MSOA","name":"Wiltshire 065"},"type":"Feature"},{"geometry":{"coordinates":[[[-1.6674036,51.2571835],[-1.6940335,51.2573836],[-1.7051408,51.2459596],[-1.7015219,51.235776],[-1.6905646,51.2241884],[-1.6898005,51.2147731],[-1.6535079,51.2204716],[-1.6335521,51.21752],[-1.6224612,51.2344027],[-1.6284126,51.2325707],[-1.6503779,51.2359536],[-1.649545,51.2388906],[-1.6530545,51.2390514],[-1.6477994,51.2406928],[-1.6471695,51.2468674],[-1.660373,51.2394945],[-1.6569737,51.2415832],[-1.6651314,51.2461202],[-1.6674036,51.2571835]]],"type":"Polygon"},"id":"E02007026","properties":{"code":"E02007026","geography":"MSOA","name":"Wiltshire 066"},"type":"Feature"}],"type":"FeatureCollection"}
