{"features":[{"geometry":{"coordinates":[[[-2.4897313,53.4601262],[-2.4891427,53.47582],[-2.4963492,53.4809111],[-2.512876,53.4771822],[-2.5383131,53.4710253],[-2.5526389,53.4677976],[-2.5490759,53.4614703],[-2.5702534,53.4584794],[-2.5767429,53.4460409],[-2.5846223,53.440394],[-2.5561531,53.4260016],[-2.5293918,53.4326092],[-2.4992074,53.4350581],[-2.4826549,53.4365628],[-2.4944825,53.4437592],[-2.5228501,53.4485747],[-2.5264056,53.4518856],[-2.5218847,53.4524947],[-2.5263725,53.4592663],[-2.5185137,53.4589387],[-2.5193759,53.4617124],[-2.5138362,53.4619611],[-2.5121725,53.4526291],[-2.5067566,53.4555915],[-2.4997965,53.4538109],[-2.5016731,53.4574862],[-2.4864446,53.4562911],[-2.4897313,53.4601262]]],"type":"Polygon"},"id":"E02002590","properties":{"code":"E02002590","geography":"MSOA","name":"Warrington 001"},"type":"Feature"},{"geometry":{"coordinates":[[[-2.4864446,53.4562911],[-2.5016731,53.4574862],[-2.4997965,53.4538109],[-2.5067566,53.4555915],[-2.5121725,53.4526291],[-2.5138362,53.4619611],[-2.5193759,53.4617124],[-2.5185137,53.4589387],[-2.5263725,53.4592663],[-2.5218847,53.4524947],[-2.5264056,53.4518856],[-2.5228501,53.4485747],[-2.4944825,53.4437592],[-2.4826549,53.4365628],[-2.4769264,53.4324686],[-2.4996492,53.41859],[-2.5102362,53.4073061],[-2.507887,53.4037637],[-2.499511,53.3983294],[-2.4783344,53.3962297],[-2.465977,53.400731],[-2.4535107,53.4133308],[-2.4493787,53.4158752],[-2.4516295,53.4267931],[-2.461725,53.4363526],[-2.4743366,53.439541],[-2.4783096,53.4437074],[-2.475988,53.4482219],[-2.4864446,53.4562911]]],"type":"Polygon"},"id":"E02002591","properties":{"code":"E02002591","geography":"MSOA","name":"Warrington 002"},"type":"Feature"},{"geometry":{"coordinates":[[[-2.6731453,53.451735],[-2.6739427,53.4528193],[-2.6771682,53.452737],[-2.6821693,53.4392183],[-2.6687685,53.4410849],[-2.675303,53.4329402],[-2.6639563,53.4301904],[-2.6723199,53.4220089],[-2.6668569,53.4162484],[-2.6720182,53.4134693],[-2.6214151,53.4201304],[-2.5688277,53.4240619],[-2.5561531,53.4260016],[-2.5846223,53.440394],[-2.5987377,53.4503658],[-2.5967329,53.442465],[-2.6111874,53.4422903],[-2.6274119,53.4343744],[-2.6388413,53.4442624],[-2.6731453,53.451735]]],"type":"Polygon"},"id":"E02002592","properties":{"code":"E02002592","geography":"MSOA","name":"Warrington 003"},"type":"Feature"},{"geometry":{"coordinates":[[[-2.5343354,53.4117787],[-2.5320517,53.4178551],[-2.5281097,53.4190771],[-2.5230957,53.4156802],[-2.5234474,53.4210571],[-2.5031851,53.4255788],[-2.505537,53.4321663],[-2.4992074,53.4350581],[-2.5293918,53.4326092],[-2.5561531,53.4260016],[-2.5343354,53.4117787]]],"type":"Polygon"},"id":"E02002593","properties":{"code":"E02002593","geography":"MSOA","name":"Warrington 004"},"type":"Feature"},{"geometry":{"coordinates":[[[-2.4996492,53.41859],[-2.4769264,53.4324686],[-2.4826549,53.4365628],[-2.4992074,53.4350581],[-2.505537,53.4321663],[-2.5031851,53.4255788],[-2.5234474,53.4210571],[-2.5230957,53.4156802],[-2.5281097,53.4190771],[-2.5320517,53.4178551],[-2.5343354,53.4117787],[-2.5323556,53.4109025],[-2.4996492,53.41859]]],"type":"Polygon"},"id":"E02002594","properties":{"code":"E02002594","geography":"MSOA","name":"Warrington 005"},"type":"Feature"},{"geometry":{"coordinates":[[[-2.5741291,53.4168194],[-2.5672263,53.4198505],[-2.5688277,53.4240619],[-2.6214151,53.4201304],[-2.6071969,53.4156509],[-2.597942,53.4139293],[-2.5935621,53.4103832],[-2.5884482,53.4115411],[-2.5792582,53.4130398],[-2.5803466,53.4148499],[-2.5769744,53.4128252],[-2.5741291,53.4168194]]],"type":"Polygon"},"id":"E02002595","properties":{"code":"E02002595","geography":"MSOA","name":"Warrington 006"},"type":"Feature"},{"geometry":{"coordinates":[[[-2.5343354,53.4117787],[-2.5561531,53.4260016],[-2.5688277,53.4240619],[-2.5672263,53.4198505],[-2.5741291,53.4168194],[-2.5640054,53.4134586],[-2.5576368,53.4147974],[-2.5613674,53.4119678],[-2.5564051,53.4090247],[-2.5487004,53.4105925],[-2.5486756,53.4071309],[-2.5450081,53.4078698],[-2.5323556,53.4109025],[-2.5343354,53.4117787]]],"type":"Polygon"},"id":"E02002596","properties":{"code":"E02002596","geography":"MSOA","name":"Warrington 007"},"type":"Feature"},{"geometry":{"coordinates":[[[-2.5564051,53.4090247],[-2.5613674,53.4119678],[-2.5576368,53.4147974],[-2.5640054,53.4134586],[-2.5741291,53.4168194],[-2.5769744,53.4128252],[-2.5803466,53.4148499],[-2.5792582,53.4130398],[-2.5884482,53.4115411],[-2.5840595,53.408769],[-2.5865088,53.407263],[-2.5744653,53.4077841],[-2.5731032,53.4032571],[-2.5564051,53.4090247]]],"type":"Polygon"},"id":"E02002597","properties":{"code":"E02002597","geography":"MSOA","name":"Warrington 008"},"type":"Feature"},{"geometry":{"coordinates":[[[-2.6071969,53.4156509],[-2.6214151,53.4201304],[-2.6720182,53.4134693],[-2.6713603,53.400166],[-2.639511,53.3935006],[-2.6385407,53.3935827],[-2.6349225,53.3978423],[-2.6398097,53.4015658],[-2.6439916,53.4005997],[-2.6434275,53.4064469],[-2.6264358,53.4145116],[-2.6144672,53.4099988],[-2.6112115,53.4124762],[-2.6153268,53.4143102],[-2.6089452,53.4126602],[-2.6071969,53.4156509]]],"type":"Polygon"},"id":"E02002598","properties":{"code":"E02002598","geography":"MSOA","name":"Warrington 009"},"type":"Feature"},{"geometry":{"coordinates":[[[-2.6089452,53.4126602],[-2.6153268,53.4143102],[-2.6112115,53.4124762],[-2.6144672,53.4099988],[-2.6264358,53.4145116],[-2.6434275,53.4064469],[-2.6439916,53.4005997],[-2.6398097,53.4015658],[-2.6349225,53.3978423],[-2.6385407,53.3935827],[-2.6177589,53.3964959],[-2.6091471,53.406294],[-2.6089452,53.4126602]]],"type":"Polygon"},"id":"E02002599","properties":{"code":"E02002599","geography":"MSOA","name":"Warrington 010"},"type":"Feature"},{"geometry":{"coordinates":[[[-2.5884482,53.4115411],[-2.5935621,53.4103832],[-2.597942,53.4139293],[-2.5943166,53.3998649],[-2.591601,53.3995962],[-2.5697397,53.3962612],[-2.5652112,53.3999734],[-2.5731032,53.4032571],[-2.5744653,53.4077841],[-2.5865088,53.407263],[-2.5840595,53.408769],[-2.5884482,53.4115411]]],"type":"Polygon"},"id":"E02002600","properties":{"code":"E02002600","geography":"MSOA","name":"Warrington 011"},"type":"Feature"},{"geometry":{"coordinates":[[[-2.5450081,53.4078698],[-2.5486756,53.4071309],[-2.5487004,53.4105925],[-2.5564051,53.4090247],[-2.5731032,53.4032571],[-2.5652112,53.3999734],[-2.5697397,53.3962612],[-2.5669088,53.3899829],[-2.5748681,53.3918142],[-2.5750584,53.3891975],[-2.5656053,53.3878628],[-2.5622225,53.3945671],[-2.5574146,53.3894259],[-2.5517242,53.3904369],[-2.5538141,53.3938632],[-2.5455636,53.3973551],[-2.5490743,53.4002016],[-2.5450081,53.4078698]]],"type":"Polygon"},"id":"E02002601","properties":{"code":"E02002601","geography":"MSOA","name":"Warrington 012"},"type":"Feature"},{"geometry":{"coordinates":[[[-2.597942,53.4139293],[-2.6071969,53.4156509],[-2.6089452,53.4126602],[-2.6091471,53.406294],[-2.6177589,53.3964959],[-2.616774,53.3924991],[-2.6123534,53.3897513],[-2.6054438,53.3966399],[-2.5980614,53.396646],[-2.5943166,53.3998649],[-2.597942,53.4139293]]],"type":"Polygon"},"id":"E02002602","properties":{"code":"E02002602","geography":"MSOA","name":"Warrington 013"},"type":"Feature"},{"geometry":{"coordinates":[[[-2.4783344,53.3962297],[-2.499511,53.3983294],[-2.507887,53.4037637],[-2.5102362,53.4073061],[-2.4996492,53.41859],[-2.5323556,53.4109025],[-2.5450081,53.4078698],[-2.5490743,53.4002016],[-2.5455636,53.3973551],[-2.5538141,53.3938632],[-2.5517242,53.3904369],[-2.5352054,53.3838658],[-2.527641,53.3855138],[-2.5097876,53.3893675],[-2.4783344,53.3962297]]],"type":"Polygon"},"id":"E02002603","properties":{"code":"E02002603","geography":"MSOA","name":"Warrington 014"},"type":"Feature"},{"geometry":{"coordinates":[[[-2.639511,53.3935006],[-2.6713603,53.400166],[-2.6765177,53.3938114],[-2.6451797,53.3873165],[-2.639511,53.3935006]]],"type":"Polygon"},"id":"E02002604","properties":{"code":"E02002604","geography":"MSOA","name":"Warrington 015"},"type":"Feature"},{"geometry":{"coordinates":[[[-2.616774,53.3924991],[-2.6177589,53.3964959],[-2.6385407,53.3935827],[-2.639511,53.3935006],[-2.6451797,53.3873165],[-2.6394665,53.378896],[-2.6266939,53.3811309],[-2.616774,53.3924991]]],"type":"Polygon"},"id":"E02002605","properties":{"code":"E02002605","geography":"MSOA","name":"Warrington 016"},"type":"Feature"},{"geometry":{"coordinates":[[[-2.5697397,53.3962612],[-2.591601,53.3995962],[-2.5848139,53.3955591],[-2.5929187,53.3835065],[-2.5826696,53.3739352],[-2.5656053,53.3878628],[-2.5750584,53.3891975],[-2.5748681,53.3918142],[-2.5669088,53.3899829],[-2.5697397,53.3962612]]],"type":"Polygon"},"id":"E02002606","properties":{"code":"E02002606","geography":"MSOA","name":"Warrington 017"},"type":"Feature"},{"geometry":{"coordinates":[[[-2.591601,53.3995962],[-2.5943166,53.3998649],[-2.5980614,53.396646],[-2.6054438,53.3966399],[-2.6123534,53.3897513],[-2.616774,53.3924991],[-2.6266939,53.3811309],[-2.6394665,53.378896],[-2.6213393,53.3749426],[-2.6163647,53.3690723],[-2.6119818,53.372473],[-2.6122584,53.3675297],[-2.5884184,53.3721263],[-2.5823352,53.3733686],[-2.5826696,53.3739352],[-2.5929187,53.3835065],[-2.5848139,53.3955591],[-2.591601,53.3995962]]],"type":"Polygon"},"id":"E02002607","properties":{"code":"E02002607","geography":"MSOA","name":"Warrington 018"},"type":"Feature"},{"geometry":{"coordinates":[[[-2.6451797,53.3873165],[-2.6765177,53.3938114],[-2.6762545,53.387613],[-2.6906324,53.3853721],[-2.6906481,53.3852351],[-2.6977244,53.3792971],[-2.6923018,53.3615124],[-2.6744879,53.3567471],[-2.6601729,53.3738915],[-2.6542996,53.3758016],[-2.6456867,53.3739222],[-2.6389641,53.378388],[-2.6217311,53.3750093],[-2.6381947,53.3776011],[-2.6423276,53.3724464],[-2.6567684,53.3740828],[-2.6639774,53.367233],[-2.6661412,53.357683],[-2.6751877,53.3544393],[-2.6779783,53.3546951],[-2.6746403,53.3536488],[-2.6306228,53.3640344],[-2.6122584,53.3675297],[-2.6119818,53.372473],[-2.6163647,53.3690723],[-2.6213393,53.3749426],[-2.6394665,53.378896],[-2.6451797,53.3873165]]],"type":"Polygon"},"id":"E02002608","properties":{"code":"E02002608","geography":"MSOA","name":"Warrington 019"},"type":"Feature"},{"geometry":{"coordinates":[[[-2.5517242,53.3904369],[-2.5574146,53.3894259],[-2.5622225,53.3945671],[-2.5656053,53.3878628],[-2.5826696,53.3739352],[-2.5823352,53.3733686],[-2.5529051,53.3799649],[-2.5352054,53.3838658],[-2.5517242,53.3904369]]],"type":"Polygon"},"id":"E02002609","properties":{"code":"E02002609","geography":"MSOA","name":"Warrington 020"},"type":"Feature"},{"geometry":{"coordinates":[[[-2.4265903,53.3874447],[-2.4484392,53.3947832],[-2.458503,53.3929947],[-2.4659062,53.3948033],[-2.4710443,53.3923217],[-2.4783344,53.3962297],[-2.5097876,53.3893675],[-2.5084941,53.3761689],[-2.5164164,53.3630861],[-2.5058245,53.3554694],[-2.4868802,53.367888],[-2.4653126,53.363545],[-2.4587134,53.368223],[-2.4398808,53.366647],[-2.4397403,53.3704608],[-2.42749,53.375895],[-2.4265903,53.3874447]]],"type":"Polygon"},"id":"E02002610","properties":{"code":"E02002610","geography":"MSOA","name":"Warrington 021"},"type":"Feature"},{"geometry":{"coordinates":[[[-2.5552612,53.3636556],[-2.5453449,53.3619786],[-2.5510634,53.3676324],[-2.5487236,53.3695224],[-2.5428426,53.3666983],[-2.5444046,53.3708875],[-2.5392802,53.3685868],[-2.5368954,53.3756633],[-2.5421249,53.3757889],[-2.5255993,53.3816338],[-2.5305587,53.3825365],[-2.527641,53.3855138],[-2.5352054,53.3838658],[-2.5529051,53.3799649],[-2.5614475,53.3760703],[-2.5577259,53.3733847],[-2.5653823,53.3726897],[-2.5687669,53.3692338],[-2.5552612,53.3636556]]],"type":"Polygon"},"id":"E02002611","properties":{"code":"E02002611","geography":"MSOA","name":"Warrington 022"},"type":"Feature"},{"geometry":{"coordinates":[[[-2.5687669,53.3692338],[-2.5653823,53.3726897],[-2.5577259,53.3733847],[-2.5614475,53.3760703],[-2.5529051,53.3799649],[-2.5823352,53.3733686],[-2.5884184,53.3721263],[-2.5884452,53.3658582],[-2.5937906,53.3652941],[-2.594832,53.3617086],[-2.5793244,53.3673911],[-2.5810458,53.3557267],[-2.57756,53.359287],[-2.5704192,53.35718],[-2.5687669,53.3692338]]],"type":"Polygon"},"id":"E02002612","properties":{"code":"E02002612","geography":"MSOA","name":"Warrington 023"},"type":"Feature"},{"geometry":{"coordinates":[[[-2.5058245,53.3554694],[-2.5164164,53.3630861],[-2.5084941,53.3761689],[-2.5097876,53.3893675],[-2.527641,53.3855138],[-2.5305587,53.3825365],[-2.5255993,53.3816338],[-2.5421249,53.3757889],[-2.5368954,53.3756633],[-2.5392802,53.3685868],[-2.5444046,53.3708875],[-2.5428426,53.3666983],[-2.5487236,53.3695224],[-2.5510634,53.3676324],[-2.5453449,53.3619786],[-2.5552612,53.3636556],[-2.5630657,53.3568924],[-2.5567014,53.3549002],[-2.561911,53.3515621],[-2.5560341,53.3508609],[-2.5648017,53.3416151],[-2.5668327,53.3454474],[-2.5712545,53.3438854],[-2.5711757,53.3466177],[-2.5749317,53.3463657],[-2.5793845,53.3392545],[-2.588247,53.3376716],[-2.5987621,53.3453184],[-2.602992,53.3544693],[-2.594832,53.3617086],[-2.5937906,53.3652941],[-2.5884452,53.3658582],[-2.5884184,53.3721263],[-2.6122584,53.3675297],[-2.6306228,53.3640344],[-2.6268359,53.354625],[-2.6313933,53.3460474],[-2.6141378,53.3476456],[-2.6066068,53.3429805],[-2.6198264,53.3319415],[-2.5952247,53.3224391],[-2.5862907,53.3293812],[-2.5618768,53.3233276],[-2.5516654,53.3323582],[-2.5445302,53.3305101],[-2.539454,53.3363744],[-2.5183947,53.3423748],[-2.5210505,53.3478845],[-2.5058245,53.3554694]]],"type":"Polygon"},"id":"E02002613","properties":{"code":"E02002613","geography":"MSOA","name":"Warrington 024"},"type":"Feature"},{"geometry":{"coordinates":[[[-2.5552612,53.3636556],[-2.5687669,53.3692338],[-2.5704192,53.35718],[-2.57756,53.359287],[-2.5810458,53.3557267],[-2.5793244,53.3673911],[-2.594832,53.3617086],[-2.602992,53.3544693],[-2.5987621,53.3453184],[-2.588247,53.3376716],[-2.5793845,53.3392545],[-2.5749317,53.3463657],[-2.5711757,53.3466177],[-2.5712545,53.3438854],[-2.5668327,53.3454474],[-2.5648017,53.3416151],[-2.5560341,53.3508609],[-2.561911,53.3515621],[-2.5567014,53.3549002],[-2.5630657,53.3568924],[-2.5552612,53.3636556]]],"type":"Polygon"},"id":"E02002614","properties":{"code":"E02002614","geography":"MSOA","name":"Warrington 025"},"type":"Feature"}],"type":"FeatureCollection"}
