{"features":[{"geometry":{"coordinates":[[[-2.7865632,53.2807832],[-2.8044707,53.2797935],[-2.8099857,53.2825687],[-2.8393456,53.2682413],[-2.8558476,53.2688368],[-2.863227,53.2725042],[-2.8766772,53.2691709],[-2.8718452,53.2633904],[-2.8838273,53.2620631],[-2.8848885,53.2596248],[-2.9101538,53.2570133],[-2.9118384,53.2560499],[-2.8913326,53.2534661],[-2.8869218,53.2455923],[-2.8763042,53.2414173],[-2.8763808,53.2365096],[-2.8646635,53.2291143],[-2.8660274,53.2262486],[-2.8587234,53.2164359],[-2.8679434,53.2123445],[-2.8604674,53.2081865],[-2.8550911,53.2029513],[-2.8339695,53.2122574],[-2.8080443,53.2181503],[-2.8130005,53.2064642],[-2.7989553,53.1993308],[-2.7705335,53.2042483],[-2.7625309,53.2104373],[-2.753108,53.2067051],[-2.7486767,53.2136833],[-2.7549248,53.2147052],[-2.7547879,53.2179487],[-2.7199351,53.2359716],[-2.7255439,53.2384293],[-2.736038,53.2381349],[-2.7436022,53.2345966],[-2.7645158,53.2383492],[-2.7727554,53.236358],[-2.7796008,53.2412116],[-2.7771423,53.246268],[-2.7717751,53.247242],[-2.7784533,53.2517056],[-2.7792053,53.2718066],[-2.7865632,53.2807832]]],"type":"Polygon"},"id":"E02003794","properties":{"code":"E02003794","geography":"MSOA","name":"Cheshire West and Chester 022"},"type":"Feature"},{"geometry":{"coordinates":[[[-2.9695825,53.2750126],[-2.9769101,53.2770759],[-2.9976034,53.2717151],[-2.9949595,53.2695421],[-3.0031949,53.2660833],[-3.0094091,53.2575496],[-3.0258662,53.2484269],[-3.0164239,53.2441059],[-2.9495099,53.2112639],[-2.9436751,53.2040101],[-2.9359121,53.2081271],[-2.931336,53.2121922],[-2.9219323,53.2135983],[-2.9159673,53.210502],[-2.9061398,53.211108],[-2.904614,53.2202743],[-2.8892439,53.2255237],[-2.8710689,53.2262298],[-2.8660274,53.2262486],[-2.8646635,53.2291143],[-2.8763808,53.2365096],[-2.8763042,53.2414173],[-2.8869218,53.2455923],[-2.8913326,53.2534661],[-2.9118384,53.2560499],[-2.9192423,53.2539591],[-2.9270595,53.2515486],[-2.9384311,53.2669155],[-2.945557,53.2657345],[-2.9447539,53.268196],[-2.9597186,53.2749188],[-2.9695825,53.2750126]]],"type":"Polygon"},"id":"E02003795","properties":{"code":"E02003795","geography":"MSOA","name":"Cheshire West and Chester 025"},"type":"Feature"},{"geometry":{"coordinates":[[[-2.8660274,53.2262486],[-2.8710689,53.2262298],[-2.8738512,53.2202236],[-2.8822154,53.2191703],[-2.8865527,53.2146676],[-2.8761285,53.2034156],[-2.8604674,53.2081865],[-2.8679434,53.2123445],[-2.8587234,53.2164359],[-2.8660274,53.2262486]]],"type":"Polygon"},"id":"E02003796","properties":{"code":"E02003796","geography":"MSOA","name":"Cheshire West and Chester 027"},"type":"Feature"},{"geometry":{"coordinates":[[[-2.8761285,53.2034156],[-2.8865527,53.2146676],[-2.8822154,53.2191703],[-2.8738512,53.2202236],[-2.8710689,53.2262298],[-2.8892439,53.2255237],[-2.904614,53.2202743],[-2.9061398,53.211108],[-2.8990823,53.2020487],[-2.8935587,53.2006094],[-2.8761285,53.2034156]]],"type":"Polygon"},"id":"E02003797","properties":{"code":"E02003797","geography":"MSOA","name":"Cheshire West and Chester 028"},"type":"Feature"},{"geometry":{"coordinates":[[[-2.9061398,53.211108],[-2.9159673,53.210502],[-2.9219323,53.2135983],[-2.931336,53.2121922],[-2.9359121,53.2081271],[-2.9149064,53.2046028],[-2.8990823,53.2020487],[-2.9061398,53.211108]]],"type":"Polygon"},"id":"E02003798","properties":{"code":"E02003798","geography":"MSOA","name":"Cheshire West and Chester 029"},"type":"Feature"},{"geometry":{"coordinates":[[[-2.9149064,53.2046028],[-2.9359121,53.2081271],[-2.9436751,53.2040101],[-2.9325932,53.1954021],[-2.9149064,53.2046028]]],"type":"Polygon"},"id":"E02003799","properties":{"code":"E02003799","geography":"MSOA","name":"Cheshire West and Chester 031"},"type":"Feature"},{"geometry":{"coordinates":[[[-2.7118194,53.2345525],[-2.7141488,53.2378717],[-2.7199351,53.2359716],[-2.7547879,53.2179487],[-2.7549248,53.2147052],[-2.7486767,53.2136833],[-2.753108,53.2067051],[-2.7625309,53.2104373],[-2.7705335,53.2042483],[-2.7989553,53.1993308],[-2.7974882,53.1977929],[-2.7964131,53.193905],[-2.7890712,53.1912816],[-2.7779063,53.1945326],[-2.762998,53.186706],[-2.7642619,53.1833782],[-2.7469621,53.1816766],[-2.7415861,53.1826605],[-2.7487301,53.1860182],[-2.7338906,53.1931841],[-2.7176709,53.1909169],[-2.7042603,53.1955473],[-2.7105254,53.2032918],[-2.7016167,53.2068936],[-2.7006666,53.2143635],[-2.7041986,53.2150674],[-2.7034809,53.2275538],[-2.7118194,53.2345525]]],"type":"Polygon"},"id":"E02003800","properties":{"code":"E02003800","geography":"MSOA","name":"Cheshire West and Chester 030"},"type":"Feature"},{"geometry":{"coordinates":[[[-2.8550911,53.2029513],[-2.8604674,53.2081865],[-2.8761285,53.2034156],[-2.8744939,53.2009748],[-2.8712821,53.2020995],[-2.8587223,53.1936636],[-2.8482548,53.1954447],[-2.8512144,53.2012283],[-2.8465841,53.1999391],[-2.8550911,53.2029513]]],"type":"Polygon"},"id":"E02003801","properties":{"code":"E02003801","geography":"MSOA","name":"Cheshire West and Chester 032"},"type":"Feature"},{"geometry":{"coordinates":[[[-2.8712821,53.2020995],[-2.8744939,53.2009748],[-2.8761285,53.2034156],[-2.8935587,53.2006094],[-2.8934959,53.1952577],[-2.8863926,53.1954186],[-2.8789322,53.1899116],[-2.8716107,53.1903757],[-2.8690186,53.1934327],[-2.8756173,53.1925235],[-2.8691909,53.1959968],[-2.8779228,53.1980605],[-2.8712821,53.2020995]]],"type":"Polygon"},"id":"E02003802","properties":{"code":"E02003802","geography":"MSOA","name":"Cheshire West and Chester 033"},"type":"Feature"},{"geometry":{"coordinates":[[[-2.8990823,53.2020487],[-2.9149064,53.2046028],[-2.9325932,53.1954021],[-2.922298,53.1892772],[-2.9203944,53.1825579],[-2.905653,53.193229],[-2.9005716,53.1832295],[-2.8789322,53.1899116],[-2.8863926,53.1954186],[-2.8934959,53.1952577],[-2.8935587,53.2006094],[-2.8990823,53.2020487]]],"type":"Polygon"},"id":"E02003803","properties":{"code":"E02003803","geography":"MSOA","name":"Cheshire West and Chester 034"},"type":"Feature"},{"geometry":{"coordinates":[[[-2.8465841,53.1999391],[-2.8512144,53.2012283],[-2.8482548,53.1954447],[-2.8587223,53.1936636],[-2.8712821,53.2020995],[-2.8779228,53.1980605],[-2.8691909,53.1959968],[-2.8756173,53.1925235],[-2.8690186,53.1934327],[-2.8716107,53.1903757],[-2.8707822,53.1872231],[-2.8598216,53.1871873],[-2.8582242,53.191907],[-2.8499542,53.1885282],[-2.8503297,53.1940893],[-2.8405246,53.1960615],[-2.8465841,53.1999391]]],"type":"Polygon"},"id":"E02003804","properties":{"code":"E02003804","geography":"MSOA","name":"Cheshire West and Chester 036"},"type":"Feature"},{"geometry":{"coordinates":[[[-2.7989553,53.1993308],[-2.8130005,53.2064642],[-2.8080443,53.2181503],[-2.8339695,53.2122574],[-2.8550911,53.2029513],[-2.8465841,53.1999391],[-2.8405246,53.1960615],[-2.8503297,53.1940893],[-2.8499542,53.1885282],[-2.8565872,53.1764064],[-2.8508903,53.1752148],[-2.8440934,53.1671333],[-2.8247007,53.1630794],[-2.8131862,53.155624],[-2.7999216,53.1590783],[-2.7893486,53.1558564],[-2.7836167,53.1585072],[-2.7827947,53.1670029],[-2.7887569,53.1727767],[-2.7824726,53.1757358],[-2.7918902,53.1834224],[-2.8031898,53.1807211],[-2.8117047,53.1885296],[-2.7974882,53.1977929],[-2.7989553,53.1993308]]],"type":"Polygon"},"id":"E02003805","properties":{"code":"E02003805","geography":"MSOA","name":"Cheshire West and Chester 039"},"type":"Feature"},{"geometry":{"coordinates":[[[-2.8499542,53.1885282],[-2.8582242,53.191907],[-2.8598216,53.1871873],[-2.8707822,53.1872231],[-2.8709121,53.1812878],[-2.8813933,53.1699876],[-2.8750923,53.1607262],[-2.8769423,53.1504746],[-2.8614854,53.1460603],[-2.8538646,53.1471147],[-2.8513114,53.1526596],[-2.8564707,53.1671062],[-2.8440934,53.1671333],[-2.8508903,53.1752148],[-2.8565872,53.1764064],[-2.8499542,53.1885282]]],"type":"Polygon"},"id":"E02003806","properties":{"code":"E02003806","geography":"MSOA","name":"Cheshire West and Chester 041"},"type":"Feature"},{"geometry":{"coordinates":[[[-2.8789322,53.1899116],[-2.9005716,53.1832295],[-2.905653,53.193229],[-2.9203944,53.1825579],[-2.920318,53.1794169],[-2.9115833,53.1784693],[-2.9069611,53.1735952],[-2.9166728,53.1667082],[-2.9138107,53.1654339],[-2.9040052,53.1712644],[-2.9027308,53.1691042],[-2.8813933,53.1699876],[-2.8709121,53.1812878],[-2.8707822,53.1872231],[-2.8716107,53.1903757],[-2.8789322,53.1899116]]],"type":"Polygon"},"id":"E02003807","properties":{"code":"E02003807","geography":"MSOA","name":"Cheshire West and Chester 043"},"type":"Feature"},{"geometry":{"coordinates":[[[-2.9166728,53.1667082],[-2.9069611,53.1735952],[-2.9115833,53.1784693],[-2.920318,53.1794169],[-2.9277949,53.1714544],[-2.9248574,53.1654188],[-2.9166728,53.1667082]]],"type":"Polygon"},"id":"E02003808","properties":{"code":"E02003808","geography":"MSOA","name":"Cheshire West and Chester 044"},"type":"Feature"},{"geometry":{"coordinates":[[[-2.6269656,53.1500385],[-2.6435016,53.1507954],[-2.656369,53.1462532],[-2.6643098,53.1499351],[-2.6936308,53.1525762],[-2.6896747,53.1645592],[-2.6934203,53.1654085],[-2.6935828,53.1759349],[-2.6984023,53.1814086],[-2.6903916,53.1810831],[-2.6892929,53.1855264],[-2.6803923,53.1851869],[-2.6745044,53.1934274],[-2.679193,53.1991652],[-2.692808,53.2012883],[-2.7042603,53.1955473],[-2.7176709,53.1909169],[-2.7338906,53.1931841],[-2.7487301,53.1860182],[-2.7415861,53.1826605],[-2.7469621,53.1816766],[-2.7642619,53.1833782],[-2.762998,53.186706],[-2.7779063,53.1945326],[-2.7890712,53.1912816],[-2.7964131,53.193905],[-2.7974882,53.1977929],[-2.8117047,53.1885296],[-2.8031898,53.1807211],[-2.7918902,53.1834224],[-2.7824726,53.1757358],[-2.7887569,53.1727767],[-2.7827947,53.1670029],[-2.7836167,53.1585072],[-2.7893486,53.1558564],[-2.7999216,53.1590783],[-2.8131862,53.155624],[-2.8247007,53.1630794],[-2.8440934,53.1671333],[-2.8564707,53.1671062],[-2.8513114,53.1526596],[-2.8538646,53.1471147],[-2.8614854,53.1460603],[-2.8769423,53.1504746],[-2.8750923,53.1607262],[-2.8813933,53.1699876],[-2.9027308,53.1691042],[-2.9040052,53.1712644],[-2.9138107,53.1654339],[-2.9166728,53.1667082],[-2.9248574,53.1654188],[-2.9277949,53.1714544],[-2.9440399,53.1652323],[-2.9465519,53.1670964],[-2.9662619,53.1598493],[-2.970925,53.160767],[-2.9753496,53.1573562],[-2.9899561,53.1575269],[-2.9929285,53.1532724],[-2.9845642,53.1477643],[-2.979497,53.1506063],[-2.9638954,53.1327511],[-2.9469047,53.1272548],[-2.9436692,53.1216102],[-2.9208351,53.1184082],[-2.9102312,53.1126234],[-2.9033908,53.111782],[-2.8813211,53.1217413],[-2.8838672,53.1113945],[-2.8916581,53.1094369],[-2.8934037,53.1042273],[-2.8873055,53.1046126],[-2.879883,53.1045085],[-2.8797037,53.1089011],[-2.8699772,53.109192],[-2.8706376,53.1110569],[-2.8406842,53.1118504],[-2.8364738,53.1182416],[-2.8309561,53.1181707],[-2.8205535,53.1133887],[-2.8087844,53.1127089],[-2.7948139,53.1052439],[-2.7972634,53.0956944],[-2.7717201,53.0904055],[-2.7616928,53.1015157],[-2.7384472,53.1098401],[-2.7363092,53.1071116],[-2.7446674,53.0998849],[-2.7368197,53.0954728],[-2.738048,53.0927423],[-2.7317382,53.0917933],[-2.7113628,53.0936267],[-2.705919,53.1184584],[-2.6952432,53.1198442],[-2.6744372,53.115129],[-2.6626348,53.121086],[-2.6597305,53.1307006],[-2.6412959,53.1284507],[-2.6403427,53.1406344],[-2.6269656,53.1500385]]],"type":"Polygon"},"id":"E02003809","properties":{"code":"E02003809","geography":"MSOA","name":"Cheshire West and Chester 046"},"type":"Feature"},{"geometry":{"coordinates":[[[-2.7317382,53.0917933],[-2.738048,53.0927423],[-2.7368197,53.0954728],[-2.7446674,53.0998849],[-2.7363092,53.1071116],[-2.7384472,53.1098401],[-2.7616928,53.1015157],[-2.7717201,53.0904055],[-2.7972634,53.0956944],[-2.7948139,53.1052439],[-2.8087844,53.1127089],[-2.8205535,53.1133887],[-2.8309561,53.1181707],[-2.8364738,53.1182416],[-2.8406842,53.1118504],[-2.8706376,53.1110569],[-2.8699772,53.109192],[-2.8797037,53.1089011],[-2.879883,53.1045085],[-2.8873055,53.1046126],[-2.8934859,53.096226],[-2.8973174,53.0956174],[-2.8951386,53.0989267],[-2.8993185,53.0979881],[-2.9019061,53.0918142],[-2.8934494,53.0914889],[-2.8911918,53.0876081],[-2.8757871,53.0814974],[-2.8817505,53.074579],[-2.8754592,53.0733628],[-2.877508,53.0689193],[-2.8693685,53.0698232],[-2.8654815,53.0660833],[-2.8703617,53.0641681],[-2.8614609,53.0607035],[-2.8724571,53.0587302],[-2.8609594,53.0576294],[-2.8671791,53.0565423],[-2.8592358,53.0541486],[-2.8660529,53.0526957],[-2.8683446,53.0500227],[-2.8633995,53.0520543],[-2.8631193,53.0486061],[-2.8700901,53.0453714],[-2.8615765,53.0438296],[-2.8666677,53.0405188],[-2.8617995,53.0385583],[-2.8558221,53.037353],[-2.8555247,53.0344805],[-2.8610051,53.0227902],[-2.8515181,53.016944],[-2.8440648,53.0176129],[-2.8377522,53.0105456],[-2.8408557,53.0085159],[-2.8360284,52.9971252],[-2.8033122,52.9895786],[-2.792151,52.9909811],[-2.789936,52.9957316],[-2.7851324,52.9938917],[-2.7808988,52.9961704],[-2.7797093,52.9933439],[-2.7668065,52.9946397],[-2.7598017,52.9863678],[-2.7437224,52.9871319],[-2.7268416,52.9832582],[-2.7118799,52.9860703],[-2.6992928,52.9954246],[-2.6887561,53.0122558],[-2.678321,53.0149963],[-2.6850183,53.0216982],[-2.6793213,53.0259244],[-2.6786818,53.0326753],[-2.6688173,53.0386379],[-2.7024108,53.0543051],[-2.7183598,53.0442525],[-2.7346432,53.0550138],[-2.7324235,53.0576679],[-2.7410595,53.0645544],[-2.7529287,53.0692103],[-2.7454655,53.082141],[-2.7349291,53.0865374],[-2.7317382,53.0917933]]],"type":"Polygon"},"id":"E02003810","properties":{"code":"E02003810","geography":"MSOA","name":"Cheshire West and Chester 047"},"type":"Feature"},{"geometry":{"coordinates":[[[[-3.092449,53.2693829],[-3.092502,53.269746],[-3.0966806,53.2723056],[-3.1013551,53.2669021],[-3.0995294,53.2653353],[-3.092449,53.2693829]]],[[[-3.0785906,53.2773018],[-3.0790101,53.2782119],[-3.0918179,53.2783208],[-3.0846629,53.2746656],[-3.0849226,53.2745023],[-3.0923648,53.276127],[-3.0879502,53.2726022],[-3.0872507,53.2723538],[-3.0785906,53.2773018]]],[[[-3.0763057,53.278607],[-3.0775217,53.2791458],[-3.0783382,53.2786332],[-3.0780576,53.2776062],[-3.0763057,53.278607]]],[[[-3.0725986,53.3158209],[-3.10529,53.2985319],[-3.1035381,53.2991344],[-3.1059841,53.2951942],[-3.096657,53.2971528],[-3.1037625,53.2952697],[-3.096397,53.2942077],[-3.1095855,53.2931274],[-3.103362,53.2914314],[-3.1084502,53.2903064],[-3.1013108,53.290715],[-3.1045397,53.288695],[-3.1011958,53.2868867],[-3.097711,53.2901603],[-3.0989008,53.2867757],[-3.0933537,53.2880735],[-3.0963147,53.2843167],[-3.0837412,53.2900409],[-3.0906394,53.284518],[-3.0838807,53.2794351],[-3.0815974,53.2813103],[-3.0769105,53.2795289],[-3.0757212,53.2789408],[-3.0560805,53.2901547],[-3.0265953,53.2874302],[-3.0326963,53.2903608],[-3.0296986,53.2989553],[-3.0483913,53.3109449],[-3.0596597,53.308988],[-3.0725986,53.3158209]]]],"type":"MultiPolygon"},"id":"E02003841","properties":{"code":"E02003841","geography":"MSOA","name":"Cheshire West and Chester 001"},"type":"Feature"},{"geometry":{"coordinates":[[[-2.9800878,53.3046268],[-2.9901218,53.3065966],[-3.0127829,53.2989339],[-3.0296986,53.2989553],[-3.0326963,53.2903608],[-3.0265953,53.2874302],[-3.0230302,53.2855838],[-3.0329498,53.2812719],[-3.0458512,53.2817479],[-3.0470878,53.2782049],[-3.0522977,53.281398],[-3.0638796,53.2742544],[-3.0675292,53.2783715],[-3.0706987,53.2764571],[-3.0641766,53.2732312],[-3.0710185,53.2762639],[-3.0811035,53.2701709],[-3.0780605,53.2690901],[-3.0813055,53.2700488],[-3.084467,53.2681382],[-3.0842995,53.2670667],[-3.0850727,53.2677721],[-3.0871087,53.2665415],[-3.0811507,53.2631391],[-3.0875085,53.2662999],[-3.0906886,53.2643775],[-3.0841392,53.2623228],[-3.0908703,53.2642676],[-3.0950095,53.2617651],[-3.0805238,53.2549288],[-3.061118,53.2527036],[-3.036064,53.2517903],[-3.0258662,53.2484269],[-3.0094091,53.2575496],[-3.0031949,53.2660833],[-2.9949595,53.2695421],[-2.9976034,53.2717151],[-2.9769101,53.2770759],[-2.9695825,53.2750126],[-2.962896,53.287451],[-2.9511528,53.2898616],[-2.9412419,53.2990129],[-2.9465871,53.30551],[-2.9680334,53.3012391],[-2.9800878,53.3046268]]],"type":"Polygon"},"id":"E02003842","properties":{"code":"E02003842","geography":"MSOA","name":"Cheshire West and Chester 004"},"type":"Feature"},{"geometry":{"coordinates":[[[-2.9188617,53.283668],[-2.9167432,53.2892837],[-2.9226044,53.2904716],[-2.9218474,53.2973523],[-2.9324907,53.2953002],[-2.9412419,53.2990129],[-2.9511528,53.2898616],[-2.9471031,53.2856296],[-2.9188617,53.283668]]],"type":"Polygon"},"id":"E02003843","properties":{"code":"E02003843","geography":"MSOA","name":"Cheshire West and Chester 005"},"type":"Feature"},{"geometry":{"coordinates":[[[[-3.0875085,53.2662999],[-3.0895871,53.2673331],[-3.0915927,53.2646611],[-3.0906886,53.2643775],[-3.0875085,53.2662999]]],[[[-3.0908703,53.2642676],[-3.091739,53.2645186],[-3.0920595,53.2667142],[-3.092449,53.2693829],[-3.0995294,53.2653353],[-3.0951155,53.2618647],[-3.0950095,53.2617651],[-3.0908703,53.2642676]]],[[[-3.0813055,53.2700488],[-3.084562,53.2710108],[-3.084933,53.2711204],[-3.0848868,53.2708248],[-3.084467,53.2681382],[-3.0813055,53.2700488]]],[[[-3.0850727,53.2677721],[-3.087056,53.2695818],[-3.0889643,53.2713228],[-3.090857,53.2686815],[-3.0897398,53.2680437],[-3.0871087,53.2665415],[-3.0850727,53.2677721]]],[[[-3.0710185,53.2762639],[-3.0734843,53.2773567],[-3.0763057,53.278607],[-3.0780576,53.2776062],[-3.0773799,53.2751255],[-3.0770779,53.2740197],[-3.0775441,53.2750314],[-3.0785906,53.2773018],[-3.0872507,53.2723538],[-3.0841436,53.2712506],[-3.0811035,53.2701709],[-3.0710185,53.2762639]]],[[[-3.0230302,53.2855838],[-3.0265953,53.2874302],[-3.0560805,53.2901547],[-3.0757212,53.2789408],[-3.0730364,53.2776133],[-3.0706987,53.2764571],[-3.0675292,53.2783715],[-3.0638796,53.2742544],[-3.0522977,53.281398],[-3.0470878,53.2782049],[-3.0458512,53.2817479],[-3.0329498,53.2812719],[-3.0230302,53.2855838]]]],"type":"MultiPolygon"},"id":"E02003844","properties":{"code":"E02003844","geography":"MSOA","name":"Cheshire West and Chester 006"},"type":"Feature"},{"geometry":{"coordinates":[[[-2.928764,53.3083905],[-2.9316028,53.3060524],[-2.9395513,53.3103992],[-2.9465871,53.30551],[-2.9412419,53.2990129],[-2.9324907,53.2953002],[-2.9218474,53.2973523],[-2.9226044,53.2904716],[-2.9167432,53.2892837],[-2.9188617,53.283668],[-2.9105668,53.2830821],[-2.912405,53.2808427],[-2.9170827,53.280944],[-2.9170549,53.2770045],[-2.9051658,53.2769799],[-2.895184,53.2789592],[-2.8941933,53.2762051],[-2.8848713,53.2790487],[-2.8912953,53.2864931],[-2.8824958,53.291922],[-2.886841,53.2931441],[-2.9005345,53.2969939],[-2.9016988,53.2976827],[-2.9036266,53.2988231],[-2.9046511,53.29945],[-2.9147783,53.3056444],[-2.928572,53.3082326],[-2.928764,53.3083905]]],"type":"Polygon"},"id":"E02003845","properties":{"code":"E02003845","geography":"MSOA","name":"Cheshire West and Chester 007"},"type":"Feature"},{"geometry":{"coordinates":[[[-2.9188617,53.283668],[-2.9471031,53.2856296],[-2.937552,53.274325],[-2.9233509,53.2761777],[-2.9257036,53.2795655],[-2.9183291,53.2798482],[-2.9195044,53.2826327],[-2.912405,53.2808427],[-2.9105668,53.2830821],[-2.9188617,53.283668]]],"type":"Polygon"},"id":"E02003846","properties":{"code":"E02003846","geography":"MSOA","name":"Cheshire West and Chester 008"},"type":"Feature"},{"geometry":{"coordinates":[[[-2.9471031,53.2856296],[-2.9511528,53.2898616],[-2.962896,53.287451],[-2.9695825,53.2750126],[-2.9597186,53.2749188],[-2.9447539,53.268196],[-2.945557,53.2657345],[-2.9384311,53.2669155],[-2.9270595,53.2515486],[-2.9192423,53.2539591],[-2.9305551,53.2628521],[-2.937552,53.274325],[-2.9471031,53.2856296]]],"type":"Polygon"},"id":"E02003847","properties":{"code":"E02003847","geography":"MSOA","name":"Cheshire West and Chester 009"},"type":"Feature"},{"geometry":{"coordinates":[[[-2.912405,53.2808427],[-2.9195044,53.2826327],[-2.9183291,53.2798482],[-2.9257036,53.2795655],[-2.9233509,53.2761777],[-2.9175971,53.2687967],[-2.9103133,53.2650973],[-2.91017,53.2731933],[-2.9051658,53.2769799],[-2.9170549,53.2770045],[-2.9170827,53.280944],[-2.912405,53.2808427]]],"type":"Polygon"},"id":"E02003848","properties":{"code":"E02003848","geography":"MSOA","name":"Cheshire West and Chester 010"},"type":"Feature"},{"geometry":{"coordinates":[[[-2.790958,53.2962265],[-2.8159559,53.3061475],[-2.8429974,53.3075208],[-2.847746,53.3062395],[-2.8482882,53.3020989],[-2.8396011,53.2987212],[-2.853962,53.2952627],[-2.8555683,53.2920062],[-2.8783898,53.290767],[-2.8824958,53.291922],[-2.8912953,53.2864931],[-2.8848713,53.2790487],[-2.8941933,53.2762051],[-2.895184,53.2789592],[-2.9051658,53.2769799],[-2.8838273,53.2620631],[-2.8718452,53.2633904],[-2.8766772,53.2691709],[-2.863227,53.2725042],[-2.8558476,53.2688368],[-2.8393456,53.2682413],[-2.8099857,53.2825687],[-2.8044707,53.2797935],[-2.7865632,53.2807832],[-2.7811536,53.2842074],[-2.7916689,53.2898723],[-2.790958,53.2962265]]],"type":"Polygon"},"id":"E02003849","properties":{"code":"E02003849","geography":"MSOA","name":"Cheshire West and Chester 011"},"type":"Feature"},{"geometry":{"coordinates":[[[-2.9175971,53.2687967],[-2.9233509,53.2761777],[-2.937552,53.274325],[-2.9305551,53.2628521],[-2.9175971,53.2687967]]],"type":"Polygon"},"id":"E02003850","properties":{"code":"E02003850","geography":"MSOA","name":"Cheshire West and Chester 013"},"type":"Feature"},{"geometry":{"coordinates":[[[-2.8838273,53.2620631],[-2.9051658,53.2769799],[-2.91017,53.2731933],[-2.9103133,53.2650973],[-2.9101538,53.2570133],[-2.8848885,53.2596248],[-2.8838273,53.2620631]]],"type":"Polygon"},"id":"E02003851","properties":{"code":"E02003851","geography":"MSOA","name":"Cheshire West and Chester 014"},"type":"Feature"},{"geometry":{"coordinates":[[[-2.9103133,53.2650973],[-2.9175971,53.2687967],[-2.9305551,53.2628521],[-2.9192423,53.2539591],[-2.9118384,53.2560499],[-2.9101538,53.2570133],[-2.9103133,53.2650973]]],"type":"Polygon"},"id":"E02003852","properties":{"code":"E02003852","geography":"MSOA","name":"Cheshire West and Chester 016"},"type":"Feature"},{"geometry":{"coordinates":[[[-2.7281575,53.3123951],[-2.7392922,53.3068551],[-2.7524798,53.3147189],[-2.7527915,53.3145543],[-2.7889661,53.2954355],[-2.790958,53.2962265],[-2.7916689,53.2898723],[-2.7811536,53.2842074],[-2.7632298,53.2904191],[-2.7533809,53.2881859],[-2.7476016,53.2836621],[-2.7457802,53.2689524],[-2.7242387,53.2611157],[-2.7148717,53.2629678],[-2.7194775,53.2657763],[-2.7144941,53.2679305],[-2.7144324,53.2744038],[-2.7006144,53.2857399],[-2.6872834,53.2864111],[-2.6819644,53.2906595],[-2.6929976,53.3027833],[-2.6963049,53.303326],[-2.6972021,53.2992793],[-2.7066854,53.3008491],[-2.7241484,53.3124456],[-2.7281575,53.3123951]]],"type":"Polygon"},"id":"E02003874","properties":{"code":"E02003874","geography":"MSOA","name":"Cheshire West and Chester 002"},"type":"Feature"},{"geometry":{"coordinates":[[[-2.4782196,53.2894841],[-2.4980075,53.2898931],[-2.4975921,53.2993249],[-2.5016949,53.2986066],[-2.5055345,53.3106648],[-2.5029485,53.3133491],[-2.5122748,53.3213237],[-2.4939692,53.3432824],[-2.5183947,53.3423748],[-2.539454,53.3363744],[-2.5445302,53.3305101],[-2.5516654,53.3323582],[-2.5618768,53.3233276],[-2.5862907,53.3293812],[-2.5952247,53.3224391],[-2.6091022,53.3120551],[-2.6100716,53.3180152],[-2.6199357,53.3203056],[-2.6178022,53.31612],[-2.6241241,53.3093831],[-2.6325104,53.3075062],[-2.6450622,53.3101203],[-2.6415636,53.3050251],[-2.6703185,53.312417],[-2.680918,53.3145713],[-2.6853527,53.315315],[-2.7008007,53.3057922],[-2.7241484,53.3124456],[-2.7066854,53.3008491],[-2.6972021,53.2992793],[-2.6963049,53.303326],[-2.6929976,53.3027833],[-2.6819644,53.2906595],[-2.6730233,53.2886765],[-2.6722581,53.2842492],[-2.6670026,53.282438],[-2.658003,53.2868052],[-2.6469251,53.2855228],[-2.6448804,53.2830055],[-2.6517369,53.2808796],[-2.6495655,53.2665545],[-2.6391082,53.2614542],[-2.6426407,53.2551879],[-2.6333366,53.2494199],[-2.6340533,53.239191],[-2.6260097,53.2412967],[-2.6268644,53.2502775],[-2.6215868,53.252913],[-2.6041507,53.2522781],[-2.6073972,53.2623774],[-2.5916683,53.2623554],[-2.5915856,53.2717733],[-2.5683929,53.2717972],[-2.5619803,53.2759383],[-2.5650278,53.2779354],[-2.5610581,53.2841781],[-2.5480233,53.2808391],[-2.5354835,53.2713959],[-2.5274921,53.2725596],[-2.5204457,53.2680046],[-2.5099073,53.2725408],[-2.5047388,53.274509],[-2.504507,53.2698644],[-2.4918203,53.2741324],[-2.483043,53.2801082],[-2.4782196,53.2894841]]],"type":"Polygon"},"id":"E02003875","properties":{"code":"E02003875","geography":"MSOA","name":"Cheshire West and Chester 003"},"type":"Feature"},{"geometry":{"coordinates":[[[-2.5354835,53.2713959],[-2.5480233,53.2808391],[-2.5610581,53.2841781],[-2.5650278,53.2779354],[-2.5619803,53.2759383],[-2.5683929,53.2717972],[-2.5601086,53.2706706],[-2.564221,53.262643],[-2.5570598,53.2600196],[-2.5497338,53.2602685],[-2.5457814,53.2667766],[-2.5354835,53.2713959]]],"type":"Polygon"},"id":"E02003876","properties":{"code":"E02003876","geography":"MSOA","name":"Cheshire West and Chester 012"},"type":"Feature"},{"geometry":{"coordinates":[[[-2.6819644,53.2906595],[-2.6872834,53.2864111],[-2.7006144,53.2857399],[-2.7144324,53.2744038],[-2.7144941,53.2679305],[-2.7194775,53.2657763],[-2.7148717,53.2629678],[-2.7242387,53.2611157],[-2.7457802,53.2689524],[-2.7476016,53.2836621],[-2.7533809,53.2881859],[-2.7632298,53.2904191],[-2.7811536,53.2842074],[-2.7865632,53.2807832],[-2.7792053,53.2718066],[-2.7784533,53.2517056],[-2.7717751,53.247242],[-2.7771423,53.246268],[-2.7796008,53.2412116],[-2.7727554,53.236358],[-2.7645158,53.2383492],[-2.7436022,53.2345966],[-2.736038,53.2381349],[-2.7255439,53.2384293],[-2.7199351,53.2359716],[-2.7141488,53.2378717],[-2.7118194,53.2345525],[-2.6822725,53.2415516],[-2.6711871,53.2418752],[-2.6670595,53.2375756],[-2.6498438,53.2426992],[-2.6340533,53.239191],[-2.6333366,53.2494199],[-2.6426407,53.2551879],[-2.6391082,53.2614542],[-2.6495655,53.2665545],[-2.6517369,53.2808796],[-2.6448804,53.2830055],[-2.6469251,53.2855228],[-2.658003,53.2868052],[-2.6670026,53.282438],[-2.6722581,53.2842492],[-2.6730233,53.2886765],[-2.6819644,53.2906595]]],"type":"Polygon"},"id":"E02003877","properties":{"code":"E02003877","geography":"MSOA","name":"Cheshire West and Chester 015"},"type":"Feature"},{"geometry":{"coordinates":[[[-2.3490128,53.2486576],[-2.3641541,53.2484848],[-2.3703601,53.2544072],[-2.3810725,53.2572732],[-2.3789931,53.2633599],[-2.3868641,53.2640258],[-2.388236,53.2612293],[-2.3879344,53.2646514],[-2.3940797,53.2667751],[-2.3999834,53.2652885],[-2.4145487,53.26825],[-2.4230235,53.2599369],[-2.4274249,53.2611492],[-2.4337354,53.268623],[-2.4465088,53.2722418],[-2.4504848,53.2781548],[-2.4468922,53.2800981],[-2.4520769,53.2840687],[-2.4644645,53.2872329],[-2.4699913,53.2856705],[-2.4782196,53.2894841],[-2.483043,53.2801082],[-2.4918203,53.2741324],[-2.504507,53.2698644],[-2.5047388,53.274509],[-2.5099073,53.2725408],[-2.5056614,53.267355],[-2.4736761,53.2690245],[-2.4756289,53.2610131],[-2.4888812,53.260762],[-2.4863666,53.2577985],[-2.4821483,53.2534472],[-2.4778956,53.2553984],[-2.4884419,53.2474459],[-2.4598664,53.2170323],[-2.4738769,53.2125242],[-2.475616,53.209036],[-2.4672462,53.2062969],[-2.4687649,53.2041516],[-2.4602565,53.1990654],[-2.4565526,53.2025712],[-2.4484901,53.1998966],[-2.4431249,53.2013472],[-2.4344727,53.1966994],[-2.4306477,53.1979926],[-2.4163383,53.1879146],[-2.4065802,53.1741205],[-2.397943,53.172282],[-2.3979722,53.1772114],[-2.3922108,53.1798497],[-2.3782026,53.1720648],[-2.3687103,53.1829929],[-2.3768641,53.1872568],[-2.3711537,53.1904236],[-2.3725615,53.1955344],[-2.3898634,53.1960693],[-2.3947184,53.2057459],[-2.4008909,53.203267],[-2.4101208,53.205673],[-2.4129013,53.2211434],[-2.4011214,53.2217014],[-2.3978881,53.2251674],[-2.4028232,53.2292795],[-2.3988722,53.2282508],[-2.3963192,53.2343109],[-2.3638583,53.2235719],[-2.3591099,53.2333044],[-2.3463548,53.2409203],[-2.3490128,53.2486576]]],"type":"Polygon"},"id":"E02003878","properties":{"code":"E02003878","geography":"MSOA","name":"Cheshire West and Chester 017"},"type":"Feature"},{"geometry":{"coordinates":[[[-2.5099073,53.2725408],[-2.5204457,53.2680046],[-2.5274921,53.2725596],[-2.5354835,53.2713959],[-2.5457814,53.2667766],[-2.5497338,53.2602685],[-2.5570598,53.2600196],[-2.5427288,53.2559686],[-2.5419248,53.2539598],[-2.5314377,53.2606273],[-2.5281807,53.2581367],[-2.5282292,53.2602718],[-2.5240781,53.2585197],[-2.5159191,53.2604574],[-2.5158879,53.2541564],[-2.5089018,53.2548107],[-2.5034377,53.2615329],[-2.4925478,53.2619436],[-2.4898174,53.2556268],[-2.4863666,53.2577985],[-2.4888812,53.260762],[-2.4756289,53.2610131],[-2.4736761,53.2690245],[-2.5056614,53.267355],[-2.5099073,53.2725408]]],"type":"Polygon"},"id":"E02003879","properties":{"code":"E02003879","geography":"MSOA","name":"Cheshire West and Chester 018"},"type":"Feature"},{"geometry":{"coordinates":[[[-2.5752576,53.23574],[-2.5678765,53.2371035],[-2.5737554,53.2390007],[-2.5698951,53.2390552],[-2.5708298,53.2452593],[-2.5708527,53.251334],[-2.5590274,53.2558305],[-2.5427288,53.2559686],[-2.5570598,53.2600196],[-2.564221,53.262643],[-2.5601086,53.2706706],[-2.5683929,53.2717972],[-2.5915856,53.2717733],[-2.5916683,53.2623554],[-2.6073972,53.2623774],[-2.6041507,53.2522781],[-2.5979916,53.2511469],[-2.5928767,53.2412324],[-2.5781142,53.2443173],[-2.5752576,53.23574]]],"type":"Polygon"},"id":"E02003880","properties":{"code":"E02003880","geography":"MSOA","name":"Cheshire West and Chester 019"},"type":"Feature"},{"geometry":{"coordinates":[[[-2.5158879,53.2541564],[-2.5159191,53.2604574],[-2.5240781,53.2585197],[-2.5282292,53.2602718],[-2.5281807,53.2581367],[-2.5314377,53.2606273],[-2.5419248,53.2539598],[-2.5324266,53.2479208],[-2.5273872,53.2494247],[-2.5229671,53.2463267],[-2.5158879,53.2541564]]],"type":"Polygon"},"id":"E02003881","properties":{"code":"E02003881","geography":"MSOA","name":"Cheshire West and Chester 020"},"type":"Feature"},{"geometry":{"coordinates":[[[-2.4863666,53.2577985],[-2.4898174,53.2556268],[-2.4925478,53.2619436],[-2.5034377,53.2615329],[-2.5089018,53.2548107],[-2.505755,53.252223],[-2.4963396,53.2550896],[-2.4939119,53.2514746],[-2.4972611,53.2511829],[-2.4965749,53.2466684],[-2.5091433,53.2482832],[-2.5156247,53.2460716],[-2.5130534,53.2388859],[-2.500239,53.2410292],[-2.4884419,53.2474459],[-2.4778956,53.2553984],[-2.4821483,53.2534472],[-2.4863666,53.2577985]]],"type":"Polygon"},"id":"E02003882","properties":{"code":"E02003882","geography":"MSOA","name":"Cheshire West and Chester 021"},"type":"Feature"},{"geometry":{"coordinates":[[[-2.5419248,53.2539598],[-2.5427288,53.2559686],[-2.5590274,53.2558305],[-2.5708527,53.251334],[-2.5708298,53.2452593],[-2.5563328,53.2456262],[-2.5528173,53.2421069],[-2.5574417,53.2394438],[-2.538028,53.2312579],[-2.530369,53.2377011],[-2.5241996,53.2357107],[-2.5130534,53.2388859],[-2.5156247,53.2460716],[-2.5091433,53.2482832],[-2.4965749,53.2466684],[-2.4972611,53.2511829],[-2.4939119,53.2514746],[-2.4963396,53.2550896],[-2.505755,53.252223],[-2.5089018,53.2548107],[-2.5158879,53.2541564],[-2.5229671,53.2463267],[-2.5273872,53.2494247],[-2.5324266,53.2479208],[-2.5419248,53.2539598]]],"type":"Polygon"},"id":"E02003883","properties":{"code":"E02003883","geography":"MSOA","name":"Cheshire West and Chester 023"},"type":"Feature"},{"geometry":{"coordinates":[[[-2.6041507,53.2522781],[-2.6215868,53.252913],[-2.6268644,53.2502775],[-2.6260097,53.2412967],[-2.6340533,53.239191],[-2.6498438,53.2426992],[-2.6670595,53.2375756],[-2.6657203,53.2268628],[-2.6519728,53.2049113],[-2.6306124,53.200393],[-2.6253393,53.206742],[-2.6021727,53.1996849],[-2.5843553,53.199334],[-2.5746156,53.1871993],[-2.5674699,53.1934762],[-2.5599061,53.1943271],[-2.5671952,53.1978312],[-2.5633902,53.2045677],[-2.5477233,53.212614],[-2.5245173,53.2150196],[-2.5401669,53.2277884],[-2.538028,53.2312579],[-2.5574417,53.2394438],[-2.5528173,53.2421069],[-2.5563328,53.2456262],[-2.5708298,53.2452593],[-2.5698951,53.2390552],[-2.5737554,53.2390007],[-2.5678765,53.2371035],[-2.5752576,53.23574],[-2.5781142,53.2443173],[-2.5928767,53.2412324],[-2.5979916,53.2511469],[-2.6041507,53.2522781]]],"type":"Polygon"},"id":"E02003884","properties":{"code":"E02003884","geography":"MSOA","name":"Cheshire West and Chester 024"},"type":"Feature"},{"geometry":{"coordinates":[[[-2.4602565,53.1990654],[-2.4687649,53.2041516],[-2.4672462,53.2062969],[-2.475616,53.209036],[-2.4738769,53.2125242],[-2.4598664,53.2170323],[-2.4884419,53.2474459],[-2.500239,53.2410292],[-2.5130534,53.2388859],[-2.5241996,53.2357107],[-2.530369,53.2377011],[-2.538028,53.2312579],[-2.5401669,53.2277884],[-2.5245173,53.2150196],[-2.5174023,53.2086531],[-2.510928,53.2114807],[-2.4982352,53.2073256],[-2.4907185,53.2079284],[-2.4736727,53.1987703],[-2.4791371,53.1949244],[-2.4713773,53.1865392],[-2.4917547,53.1753947],[-2.4871947,53.1714628],[-2.4961955,53.1642671],[-2.485026,53.162722],[-2.4861813,53.1601404],[-2.4688678,53.1527207],[-2.4564663,53.1568516],[-2.4548084,53.1608502],[-2.4437171,53.1599948],[-2.4419856,53.1687906],[-2.4527878,53.1740706],[-2.457303,53.176621],[-2.4602565,53.1990654]]],"type":"Polygon"},"id":"E02003885","properties":{"code":"E02003885","geography":"MSOA","name":"Cheshire West and Chester 026"},"type":"Feature"},{"geometry":{"coordinates":[[[-2.4917547,53.1753947],[-2.4713773,53.1865392],[-2.4791371,53.1949244],[-2.4736727,53.1987703],[-2.4907185,53.2079284],[-2.4982352,53.2073256],[-2.510928,53.2114807],[-2.5174023,53.2086531],[-2.5175998,53.2012966],[-2.5037564,53.1954153],[-2.5118179,53.1917076],[-2.4981046,53.1907869],[-2.5010536,53.1889668],[-2.4959331,53.1863514],[-2.5019273,53.1796395],[-2.4917547,53.1753947]]],"type":"Polygon"},"id":"E02003886","properties":{"code":"E02003886","geography":"MSOA","name":"Cheshire West and Chester 035"},"type":"Feature"},{"geometry":{"coordinates":[[[-2.5174023,53.2086531],[-2.5245173,53.2150196],[-2.5477233,53.212614],[-2.5633902,53.2045677],[-2.5671952,53.1978312],[-2.5599061,53.1943271],[-2.5674699,53.1934762],[-2.5746156,53.1871993],[-2.5748965,53.1851054],[-2.5653936,53.1896385],[-2.5592437,53.1845479],[-2.5517665,53.1854674],[-2.548341,53.1907197],[-2.5448744,53.185188],[-2.5400967,53.1896373],[-2.5460196,53.1935],[-2.5434088,53.1959572],[-2.5366329,53.1939924],[-2.5411983,53.1996474],[-2.5321998,53.1965732],[-2.5231677,53.1998476],[-2.5205001,53.1953918],[-2.5175998,53.2012966],[-2.5174023,53.2086531]]],"type":"Polygon"},"id":"E02003887","properties":{"code":"E02003887","geography":"MSOA","name":"Cheshire West and Chester 037"},"type":"Feature"},{"geometry":{"coordinates":[[[-2.5118179,53.1917076],[-2.5037564,53.1954153],[-2.5175998,53.2012966],[-2.5205001,53.1953918],[-2.5231677,53.1998476],[-2.5321998,53.1965732],[-2.5411983,53.1996474],[-2.5366329,53.1939924],[-2.5434088,53.1959572],[-2.5460196,53.1935],[-2.5400967,53.1896373],[-2.5383777,53.1865205],[-2.5296947,53.1879485],[-2.5259469,53.1923615],[-2.5118179,53.1917076]]],"type":"Polygon"},"id":"E02003888","properties":{"code":"E02003888","geography":"MSOA","name":"Cheshire West and Chester 038"},"type":"Feature"},{"geometry":{"coordinates":[[[-2.5400967,53.1896373],[-2.5448744,53.185188],[-2.548341,53.1907197],[-2.5517665,53.1854674],[-2.5592437,53.1845479],[-2.5653936,53.1896385],[-2.5748965,53.1851054],[-2.560543,53.1731817],[-2.5546181,53.1814449],[-2.5494348,53.1789943],[-2.5434767,53.1811531],[-2.5378773,53.1780644],[-2.5273079,53.1849851],[-2.5296947,53.1879485],[-2.5383777,53.1865205],[-2.5400967,53.1896373]]],"type":"Polygon"},"id":"E02003889","properties":{"code":"E02003889","geography":"MSOA","name":"Cheshire West and Chester 040"},"type":"Feature"},{"geometry":{"coordinates":[[[-2.5118179,53.1917076],[-2.5259469,53.1923615],[-2.5296947,53.1879485],[-2.5273079,53.1849851],[-2.5378773,53.1780644],[-2.5369939,53.173079],[-2.5296688,53.1723313],[-2.530711,53.1688338],[-2.5187971,53.1717869],[-2.5162563,53.1817181],[-2.5113913,53.1834299],[-2.5019273,53.1796395],[-2.4959331,53.1863514],[-2.5010536,53.1889668],[-2.4981046,53.1907869],[-2.5118179,53.1917076]]],"type":"Polygon"},"id":"E02003890","properties":{"code":"E02003890","geography":"MSOA","name":"Cheshire West and Chester 042"},"type":"Feature"},{"geometry":{"coordinates":[[[-2.6670595,53.2375756],[-2.6711871,53.2418752],[-2.6822725,53.2415516],[-2.7118194,53.2345525],[-2.7034809,53.2275538],[-2.7041986,53.2150674],[-2.7006666,53.2143635],[-2.7016167,53.2068936],[-2.7105254,53.2032918],[-2.7042603,53.1955473],[-2.692808,53.2012883],[-2.679193,53.1991652],[-2.6745044,53.1934274],[-2.6803923,53.1851869],[-2.6892929,53.1855264],[-2.6903916,53.1810831],[-2.6984023,53.1814086],[-2.6935828,53.1759349],[-2.6934203,53.1654085],[-2.6896747,53.1645592],[-2.6936308,53.1525762],[-2.6643098,53.1499351],[-2.656369,53.1462532],[-2.6435016,53.1507954],[-2.6269656,53.1500385],[-2.6104478,53.1502766],[-2.6044754,53.1451339],[-2.5887985,53.1465681],[-2.5974956,53.1551874],[-2.5965059,53.1588559],[-2.583588,53.1555278],[-2.5725514,53.1634757],[-2.5602419,53.1621292],[-2.5426892,53.1497087],[-2.5264452,53.1530194],[-2.5206394,53.1603853],[-2.5061214,53.1589558],[-2.4961955,53.1642671],[-2.4871947,53.1714628],[-2.4917547,53.1753947],[-2.5019273,53.1796395],[-2.5113913,53.1834299],[-2.5162563,53.1817181],[-2.5187971,53.1717869],[-2.530711,53.1688338],[-2.5296688,53.1723313],[-2.5369939,53.173079],[-2.5378773,53.1780644],[-2.5434767,53.1811531],[-2.5494348,53.1789943],[-2.5546181,53.1814449],[-2.560543,53.1731817],[-2.5748965,53.1851054],[-2.5746156,53.1871993],[-2.5843553,53.199334],[-2.6021727,53.1996849],[-2.6253393,53.206742],[-2.6306124,53.200393],[-2.6519728,53.2049113],[-2.6657203,53.2268628],[-2.6670595,53.2375756]]],"type":"Polygon"},"id":"E02003891","properties":{"code":"E02003891","geography":"MSOA","name":"Cheshire West and Chester 045"},"type":"Feature"}],"type":"FeatureCollection"}
