{"features":[{"geometry":{"coordinates":[[[-1.2985793,54.6311455],[-1.3090853,54.6322377],[-1.3146171,54.6165412],[-1.2833034,54.6165775],[-1.2832676,54.61398],[-1.2719073,54.6253145],[-1.2801182,54.6282764],[-1.2990176,54.6279958],[-1.2985793,54.6311455]]],"type":"Polygon"},"id":"E02002535","properties":{"code":"E02002535","geography":"MSOA","name":"Stockton-on-Tees 001"},"type":"Feature"},{"geometry":{"coordinates":[[[-1.2832676,54.61398],[-1.2833034,54.6165775],[-1.3146171,54.6165412],[-1.3136534,54.6132234],[-1.3000587,54.6092287],[-1.3011672,54.6022478],[-1.2869775,54.6015919],[-1.2832676,54.61398]]],"type":"Polygon"},"id":"E02002536","properties":{"code":"E02002536","geography":"MSOA","name":"Stockton-on-Tees 002"},"type":"Feature"},{"geometry":{"coordinates":[[[[-1.2509919,54.5904772],[-1.2516939,54.5906644],[-1.2523534,54.5902363],[-1.2509919,54.5904772]]],[[[-1.2007295,54.6230138],[-1.2002488,54.6234001],[-1.1998768,54.6236991],[-1.2043086,54.622782],[-1.2007295,54.6230138]]],[[[-1.1720339,54.621775],[-1.164832,54.628216],[-1.1678056,54.6292987],[-1.1734655,54.6215247],[-1.2127516,54.6214867],[-1.2126203,54.6217159],[-1.2124339,54.6222685],[-1.2117195,54.6223135],[-1.2203393,54.6251644],[-1.2239163,54.6236618],[-1.2233296,54.6264081],[-1.2320444,54.625625],[-1.2341508,54.6288843],[-1.2406553,54.6246868],[-1.2719073,54.6253145],[-1.2832676,54.61398],[-1.2869775,54.6015919],[-1.2580412,54.5978544],[-1.2637453,54.5907249],[-1.2573342,54.5895718],[-1.2525042,54.5923851],[-1.2449955,54.5916169],[-1.2453743,54.593813],[-1.2339583,54.587545],[-1.2247723,54.5849776],[-1.2044412,54.58262],[-1.1674188,54.6047731],[-1.1657337,54.6101097],[-1.1605706,54.610314],[-1.1620305,54.6226067],[-1.1672259,54.6197595],[-1.1720339,54.621775]]]],"type":"MultiPolygon"},"id":"E02002537","properties":{"code":"E02002537","geography":"MSOA","name":"Stockton-on-Tees 003"},"type":"Feature"},{"geometry":{"coordinates":[[[-1.2869775,54.6015919],[-1.3011672,54.6022478],[-1.2974823,54.5984286],[-1.2999616,54.5864799],[-1.2934223,54.5817914],[-1.2613135,54.5718399],[-1.2596904,54.5780778],[-1.2594132,54.5809035],[-1.2585669,54.5888537],[-1.2573342,54.5895718],[-1.2637453,54.5907249],[-1.2580412,54.5978544],[-1.2869775,54.6015919]]],"type":"Polygon"},"id":"E02002538","properties":{"code":"E02002538","geography":"MSOA","name":"Stockton-on-Tees 004"},"type":"Feature"},{"geometry":{"coordinates":[[[-1.2985793,54.6311455],[-1.2981698,54.6354983],[-1.3070017,54.6369652],[-1.3163498,54.6452234],[-1.3286401,54.6441732],[-1.335042,54.6313017],[-1.3396521,54.6361944],[-1.3568129,54.6383655],[-1.3680013,54.6435396],[-1.3808853,54.6439058],[-1.3904169,54.6391986],[-1.3883041,54.6315716],[-1.3954976,54.6310865],[-1.3942221,54.628871],[-1.4015858,54.6263481],[-1.3991453,54.6241184],[-1.4047672,54.6240344],[-1.4128107,54.6165803],[-1.4261163,54.6114879],[-1.4299583,54.6152827],[-1.4428779,54.6100993],[-1.4509021,54.6105024],[-1.4507744,54.6046873],[-1.4383442,54.5950683],[-1.4314679,54.5952833],[-1.4233015,54.6031172],[-1.4073459,54.5937524],[-1.4167722,54.5756599],[-1.4112983,54.5648867],[-1.4275351,54.56269],[-1.4467448,54.5556571],[-1.4425767,54.5430318],[-1.4469769,54.5372268],[-1.4439165,54.534537],[-1.4496314,54.5329501],[-1.444686,54.5270278],[-1.4355527,54.5274906],[-1.4214742,54.5196259],[-1.4234555,54.5140248],[-1.4287033,54.5130676],[-1.4251627,54.500519],[-1.4353468,54.4927727],[-1.4348349,54.4874519],[-1.4265726,54.4847681],[-1.432107,54.4794432],[-1.4127764,54.4771836],[-1.4070786,54.4935182],[-1.3992041,54.4928808],[-1.3950389,54.4856684],[-1.3830535,54.4872753],[-1.3809994,54.4940174],[-1.3766106,54.5024796],[-1.3592334,54.503968],[-1.359374,54.5100054],[-1.3646445,54.5090742],[-1.3643422,54.5155401],[-1.3744924,54.5212612],[-1.3815597,54.5192624],[-1.3878398,54.5260588],[-1.3687955,54.5330492],[-1.3630523,54.5382442],[-1.3484036,54.5338002],[-1.3412305,54.5369884],[-1.3363148,54.542202],[-1.3395917,54.5431512],[-1.3576212,54.5518809],[-1.3828513,54.5593177],[-1.390234,54.5666517],[-1.3883628,54.5695397],[-1.3800645,54.5786254],[-1.3703258,54.5799064],[-1.3662241,54.5889014],[-1.3708889,54.5942884],[-1.3566991,54.5939783],[-1.3410135,54.5947036],[-1.3337076,54.5957907],[-1.3348393,54.5979639],[-1.3264274,54.6003163],[-1.3283149,54.6022216],[-1.3011672,54.6022478],[-1.3000587,54.6092287],[-1.3136534,54.6132234],[-1.3146171,54.6165412],[-1.3090853,54.6322377],[-1.2985793,54.6311455]]],"type":"Polygon"},"id":"E02002539","properties":{"code":"E02002539","geography":"MSOA","name":"Stockton-on-Tees 005"},"type":"Feature"},{"geometry":{"coordinates":[[[-1.2974823,54.5984286],[-1.3011672,54.6022478],[-1.3283149,54.6022216],[-1.3264274,54.6003163],[-1.3348393,54.5979639],[-1.3337076,54.5957907],[-1.3410135,54.5947036],[-1.3257517,54.584753],[-1.3254569,54.5852809],[-1.3211173,54.5916578],[-1.2974823,54.5984286]]],"type":"Polygon"},"id":"E02002540","properties":{"code":"E02002540","geography":"MSOA","name":"Stockton-on-Tees 006"},"type":"Feature"},{"geometry":{"coordinates":[[[-1.2999616,54.5864799],[-1.2974823,54.5984286],[-1.3211173,54.5916578],[-1.3254569,54.5852809],[-1.3224597,54.5834281],[-1.310462,54.584709],[-1.3105813,54.5877203],[-1.3034001,54.5847941],[-1.2999616,54.5864799]]],"type":"Polygon"},"id":"E02002541","properties":{"code":"E02002541","geography":"MSOA","name":"Stockton-on-Tees 007"},"type":"Feature"},{"geometry":{"coordinates":[[[-1.3257517,54.584753],[-1.3410135,54.5947036],[-1.3566991,54.5939783],[-1.3314627,54.577709],[-1.3158862,54.5768034],[-1.3257517,54.584753]]],"type":"Polygon"},"id":"E02002542","properties":{"code":"E02002542","geography":"MSOA","name":"Stockton-on-Tees 008"},"type":"Feature"},{"geometry":{"coordinates":[[[-1.3566991,54.5939783],[-1.3708889,54.5942884],[-1.3662241,54.5889014],[-1.3540809,54.5764741],[-1.3339864,54.5761422],[-1.3314627,54.577709],[-1.3566991,54.5939783]]],"type":"Polygon"},"id":"E02002543","properties":{"code":"E02002543","geography":"MSOA","name":"Stockton-on-Tees 009"},"type":"Feature"},{"geometry":{"coordinates":[[[-1.2999616,54.5864799],[-1.3034001,54.5847941],[-1.3105813,54.5877203],[-1.310462,54.584709],[-1.3224597,54.5834281],[-1.3254569,54.5852809],[-1.3257517,54.584753],[-1.3158862,54.5768034],[-1.3147448,54.5729938],[-1.3087992,54.5718813],[-1.3030459,54.5777997],[-1.2817862,54.5745398],[-1.2663875,54.5682838],[-1.2613135,54.5718399],[-1.2934223,54.5817914],[-1.2999616,54.5864799]]],"type":"Polygon"},"id":"E02002544","properties":{"code":"E02002544","geography":"MSOA","name":"Stockton-on-Tees 010"},"type":"Feature"},{"geometry":{"coordinates":[[[-1.3540809,54.5764741],[-1.3662241,54.5889014],[-1.3703258,54.5799064],[-1.3800645,54.5786254],[-1.3883628,54.5695397],[-1.373636,54.571368],[-1.3737969,54.5691943],[-1.3675651,54.5710841],[-1.3592665,54.5693703],[-1.3537953,54.5695102],[-1.3540809,54.5764741]]],"type":"Polygon"},"id":"E02002545","properties":{"code":"E02002545","geography":"MSOA","name":"Stockton-on-Tees 011"},"type":"Feature"},{"geometry":{"coordinates":[[[-1.3158862,54.5768034],[-1.3314627,54.577709],[-1.3339864,54.5761422],[-1.3382193,54.5711346],[-1.3371536,54.5617975],[-1.3331749,54.5616465],[-1.3319121,54.5665015],[-1.3220794,54.5641927],[-1.3147448,54.5729938],[-1.3158862,54.5768034]]],"type":"Polygon"},"id":"E02002546","properties":{"code":"E02002546","geography":"MSOA","name":"Stockton-on-Tees 012"},"type":"Feature"},{"geometry":{"coordinates":[[[-1.3339864,54.5761422],[-1.3540809,54.5764741],[-1.3537953,54.5695102],[-1.3592665,54.5693703],[-1.3482278,54.5583133],[-1.3452225,54.5619129],[-1.3371536,54.5617975],[-1.3382193,54.5711346],[-1.3339864,54.5761422]]],"type":"Polygon"},"id":"E02002547","properties":{"code":"E02002547","geography":"MSOA","name":"Stockton-on-Tees 013"},"type":"Feature"},{"geometry":{"coordinates":[[[-1.3592665,54.5693703],[-1.3675651,54.5710841],[-1.3737969,54.5691943],[-1.373636,54.571368],[-1.3883628,54.5695397],[-1.390234,54.5666517],[-1.3828513,54.5593177],[-1.3576212,54.5518809],[-1.3489512,54.5538998],[-1.3482278,54.5583133],[-1.3592665,54.5693703]]],"type":"Polygon"},"id":"E02002549","properties":{"code":"E02002549","geography":"MSOA","name":"Stockton-on-Tees 015"},"type":"Feature"},{"geometry":{"coordinates":[[[-1.3220794,54.5641927],[-1.3319121,54.5665015],[-1.3331749,54.5616465],[-1.3371536,54.5617975],[-1.3452225,54.5619129],[-1.3482278,54.5583133],[-1.3489512,54.5538998],[-1.3576212,54.5518809],[-1.3395917,54.5431512],[-1.326039,54.5590322],[-1.3220794,54.5641927]]],"type":"Polygon"},"id":"E02002550","properties":{"code":"E02002550","geography":"MSOA","name":"Stockton-on-Tees 016"},"type":"Feature"},{"geometry":{"coordinates":[[[-1.2829265,54.5651928],[-1.3073319,54.5657269],[-1.3085225,54.560453],[-1.3111659,54.5507584],[-1.2762689,54.5488265],[-1.2762747,54.5489683],[-1.2708452,54.5569137],[-1.2829265,54.5651928]]],"type":"Polygon"},"id":"E02002551","properties":{"code":"E02002551","geography":"MSOA","name":"Stockton-on-Tees 017"},"type":"Feature"},{"geometry":{"coordinates":[[[-1.2762689,54.5488265],[-1.3111659,54.5507584],[-1.3096185,54.5455163],[-1.2923947,54.5454492],[-1.2899634,54.541052],[-1.2845623,54.537499],[-1.2762689,54.5488265]]],"type":"Polygon"},"id":"E02002552","properties":{"code":"E02002552","geography":"MSOA","name":"Stockton-on-Tees 018"},"type":"Feature"},{"geometry":{"coordinates":[[[-1.2899634,54.541052],[-1.2923947,54.5454492],[-1.3096185,54.5455163],[-1.3078666,54.5387922],[-1.3173332,54.5396404],[-1.3123755,54.5353677],[-1.2981246,54.5334259],[-1.2899634,54.541052]]],"type":"Polygon"},"id":"E02002553","properties":{"code":"E02002553","geography":"MSOA","name":"Stockton-on-Tees 019"},"type":"Feature"},{"geometry":{"coordinates":[[[-1.2845623,54.537499],[-1.2899634,54.541052],[-1.2981246,54.5334259],[-1.3123755,54.5353677],[-1.3162926,54.53373],[-1.3196489,54.5337605],[-1.3193971,54.5334065],[-1.3174387,54.5306533],[-1.3103673,54.5298074],[-1.3012086,54.5275633],[-1.2911445,54.5125806],[-1.2794117,54.5176044],[-1.2842451,54.5285603],[-1.2845623,54.537499]]],"type":"Polygon"},"id":"E02002554","properties":{"code":"E02002554","geography":"MSOA","name":"Stockton-on-Tees 020"},"type":"Feature"},{"geometry":{"coordinates":[[[-1.3412305,54.5369884],[-1.3484036,54.5338002],[-1.3630523,54.5382442],[-1.3687955,54.5330492],[-1.3878398,54.5260588],[-1.3815597,54.5192624],[-1.3744924,54.5212612],[-1.3643422,54.5155401],[-1.3646445,54.5090742],[-1.359374,54.5100054],[-1.3589884,54.5123454],[-1.3536549,54.5113277],[-1.3478341,54.5033723],[-1.3369959,54.5085636],[-1.3387315,54.5302976],[-1.344934,54.5319437],[-1.3412305,54.5369884]]],"type":"Polygon"},"id":"E02002555","properties":{"code":"E02002555","geography":"MSOA","name":"Stockton-on-Tees 021"},"type":"Feature"},{"geometry":{"coordinates":[[[-1.2794117,54.5176044],[-1.2911445,54.5125806],[-1.3012086,54.5275633],[-1.3103673,54.5298074],[-1.3103874,54.5227364],[-1.3184853,54.519275],[-1.3120721,54.5143491],[-1.3095832,54.5064387],[-1.3160704,54.506079],[-1.3134013,54.5014804],[-1.3192921,54.4962942],[-1.3111827,54.4970445],[-1.3078037,54.4897888],[-1.2895787,54.4879745],[-1.2745059,54.4910701],[-1.2573911,54.4873093],[-1.2532494,54.4977701],[-1.2566612,54.5010956],[-1.2423072,54.5016454],[-1.2343669,54.5061298],[-1.2348526,54.5103037],[-1.2638402,54.5125343],[-1.2794117,54.5176044]]],"type":"Polygon"},"id":"E02002556","properties":{"code":"E02002556","geography":"MSOA","name":"Stockton-on-Tees 022"},"type":"Feature"},{"geometry":{"coordinates":[[[-1.3369959,54.5085636],[-1.3478341,54.5033723],[-1.3536549,54.5113277],[-1.3589884,54.5123454],[-1.359374,54.5100054],[-1.3592334,54.503968],[-1.3766106,54.5024796],[-1.3809994,54.4940174],[-1.370287,54.4861274],[-1.3743723,54.4842217],[-1.3743322,54.4740498],[-1.3644053,54.4659411],[-1.3562815,54.4729631],[-1.3449026,54.4723967],[-1.3436163,54.4641438],[-1.3183,54.4721876],[-1.3131041,54.4772657],[-1.2985992,54.4774692],[-1.2913022,54.4835677],[-1.286697,54.4827225],[-1.2895787,54.4879745],[-1.3078037,54.4897888],[-1.3111827,54.4970445],[-1.3192921,54.4962942],[-1.3134013,54.5014804],[-1.3160704,54.506079],[-1.3238966,54.5059946],[-1.3300452,54.510205],[-1.3369959,54.5085636]]],"type":"Polygon"},"id":"E02002558","properties":{"code":"E02002558","geography":"MSOA","name":"Stockton-on-Tees 024"},"type":"Feature"},{"geometry":{"coordinates":[[[-1.2663875,54.5682838],[-1.2817862,54.5745398],[-1.3030459,54.5777997],[-1.3087992,54.5718813],[-1.3147448,54.5729938],[-1.3220794,54.5641927],[-1.326039,54.5590322],[-1.32166,54.5619383],[-1.3085225,54.560453],[-1.3073319,54.5657269],[-1.2829265,54.5651928],[-1.2663875,54.5682838]]],"type":"Polygon"},"id":"E02007060","properties":{"code":"E02007060","geography":"MSOA","name":"Stockton-on-Tees 025"},"type":"Feature"},{"geometry":{"coordinates":[[[-1.3096185,54.5455163],[-1.3111659,54.5507584],[-1.3085225,54.560453],[-1.32166,54.5619383],[-1.326039,54.5590322],[-1.3395917,54.5431512],[-1.3363148,54.542202],[-1.3412305,54.5369884],[-1.344934,54.5319437],[-1.3387315,54.5302976],[-1.335243,54.5302406],[-1.3332475,54.5362692],[-1.330855,54.5322117],[-1.3253413,54.5327045],[-1.3205193,54.5349427],[-1.3162926,54.53373],[-1.3123755,54.5353677],[-1.3173332,54.5396404],[-1.3078666,54.5387922],[-1.3096185,54.5455163]]],"type":"Polygon"},"id":"E02007061","properties":{"code":"E02007061","geography":"MSOA","name":"Stockton-on-Tees 026"},"type":"Feature"},{"geometry":{"coordinates":[[[-1.3103673,54.5298074],[-1.3174387,54.5306533],[-1.3167678,54.5277589],[-1.3289779,54.5263375],[-1.3292528,54.5168772],[-1.3227261,54.5154309],[-1.3245376,54.5130543],[-1.3120721,54.5143491],[-1.3184853,54.519275],[-1.3103874,54.5227364],[-1.3103673,54.5298074]]],"type":"Polygon"},"id":"E02007062","properties":{"code":"E02007062","geography":"MSOA","name":"Stockton-on-Tees 027"},"type":"Feature"},{"geometry":{"coordinates":[[[-1.3162926,54.53373],[-1.3205193,54.5349427],[-1.3253413,54.5327045],[-1.330855,54.5322117],[-1.3332475,54.5362692],[-1.335243,54.5302406],[-1.3387315,54.5302976],[-1.3369959,54.5085636],[-1.3300452,54.510205],[-1.3238966,54.5059946],[-1.3160704,54.506079],[-1.3095832,54.5064387],[-1.3120721,54.5143491],[-1.3245376,54.5130543],[-1.3227261,54.5154309],[-1.3292528,54.5168772],[-1.3289779,54.5263375],[-1.3167678,54.5277589],[-1.3174387,54.5306533],[-1.3193971,54.5334065],[-1.3196489,54.5337605],[-1.3162926,54.53373]]],"type":"Polygon"},"id":"E02007063","properties":{"code":"E02007063","geography":"MSOA","name":"Stockton-on-Tees 028"},"type":"Feature"}],"type":"FeatureCollection"}
