{"features":[{"geometry":{"coordinates":[[[[-3.2493825,54.9110915],[-3.2506501,54.9117747],[-3.2553727,54.9100939],[-3.2548056,54.9053034],[-3.2491123,54.9023692],[-3.248569,54.9020892],[-3.2490855,54.9015034],[-3.2526047,54.8975119],[-3.251625,54.9029277],[-3.255431,54.9010928],[-3.2534028,54.8954421],[-3.2573688,54.8977188],[-3.2577491,54.8944103],[-3.260866,54.8954574],[-3.2645425,54.8920149],[-3.2590674,54.8922344],[-3.2664144,54.8900541],[-3.2599727,54.8905184],[-3.2661628,54.8856639],[-3.262994,54.8884685],[-3.2680091,54.8881592],[-3.2664081,54.8916935],[-3.2733748,54.8872592],[-3.2724554,54.8910766],[-3.2771678,54.885581],[-3.2753365,54.8905809],[-3.2779421,54.8863071],[-3.2776954,54.8910652],[-3.2751313,54.8917343],[-3.2880454,54.8926001],[-3.279974,54.8840111],[-3.2866178,54.8884128],[-3.2811454,54.8831989],[-3.2836328,54.8803408],[-3.277794,54.8777853],[-3.283559,54.869344],[-3.2793574,54.8699698],[-3.2845757,54.8672061],[-3.2842438,54.866491],[-3.2835264,54.8649447],[-3.2819329,54.8615101],[-3.2870846,54.8673143],[-3.285649,54.869639],[-3.2819286,54.8756621],[-3.2836264,54.8766684],[-3.2895984,54.8802075],[-3.2858095,54.875321],[-3.2944758,54.8787518],[-3.2885705,54.8723205],[-3.3022018,54.8851247],[-3.3077262,54.883524],[-3.3087788,54.8874338],[-3.3091615,54.8850993],[-3.3115184,54.8882607],[-3.3195182,54.8867954],[-3.3209809,54.8896644],[-3.3264988,54.8865423],[-3.3224668,54.8896221],[-3.3274606,54.8909757],[-3.3296483,54.8915685],[-3.3295022,54.8910765],[-3.3283558,54.8872132],[-3.3326171,54.8886961],[-3.3308404,54.8906055],[-3.3334232,54.8893559],[-3.3397563,54.8962638],[-3.344547,54.894497],[-3.3448005,54.894479],[-3.345705,54.8913486],[-3.3473061,54.8913937],[-3.3486635,54.8895066],[-3.3417169,54.8890111],[-3.3417089,54.8869648],[-3.3487054,54.8890334],[-3.3497725,54.8935745],[-3.3547701,54.8909809],[-3.3482732,54.8879472],[-3.3530891,54.8898115],[-3.3525284,54.8868574],[-3.3576068,54.8918443],[-3.3369439,54.8981042],[-3.3351308,54.8986532],[-3.3356884,54.8988897],[-3.3388431,54.9002282],[-3.3669868,54.8914641],[-3.37939,54.8824558],[-3.3865811,54.8755722],[-3.3961118,54.8703027],[-3.3970933,54.869589],[-3.3948036,54.868323],[-3.3941506,54.8680815],[-3.3943411,54.8680984],[-3.3943009,54.8680789],[-3.3947472,54.8681345],[-3.3988694,54.8685],[-3.4102587,54.8398608],[-3.4066693,54.8391536],[-3.3869166,54.830352],[-3.3666884,54.8341135],[-3.3038851,54.8568269],[-3.2991852,54.8614371],[-3.3076226,54.8741605],[-3.3071327,54.876463],[-3.3014606,54.8753788],[-3.292139,54.8704607],[-3.2904488,54.8634519],[-3.2959899,54.8556128],[-3.2831644,54.8529978],[-3.2722629,54.8547522],[-3.2749164,54.8528853],[-3.267203,54.845896],[-3.2704252,54.8394023],[-3.2844281,54.8390319],[-3.2943071,54.8212447],[-3.2633149,54.8282498],[-3.2505803,54.8240084],[-3.2374928,54.8256973],[-3.2265723,54.822474],[-3.2352208,54.8129717],[-3.2281678,54.8088845],[-3.2464539,54.8052166],[-3.2312788,54.7967889],[-3.2361407,54.7901956],[-3.2241708,54.7842484],[-3.2102453,54.7860075],[-3.2037094,54.7886168],[-3.2043066,54.7917223],[-3.1889674,54.7933206],[-3.1522662,54.8121673],[-3.1376871,54.8140712],[-3.1304019,54.8229574],[-3.1179376,54.825572],[-3.1080929,54.823977],[-3.0997177,54.8277172],[-3.0960801,54.8358652],[-3.1097382,54.8429245],[-3.1177435,54.8348922],[-3.1316094,54.8423024],[-3.1468709,54.8568063],[-3.1651037,54.8627754],[-3.1914321,54.8810797],[-3.1815662,54.8906438],[-3.1899658,54.8926812],[-3.1853949,54.8964689],[-3.1899461,54.8986801],[-3.1850634,54.8986733],[-3.1886456,54.9017484],[-3.1919324,54.9004321],[-3.1896641,54.9058246],[-3.1936487,54.9084468],[-3.1867903,54.9091847],[-3.1922919,54.9114556],[-3.2124134,54.9047588],[-3.2113467,54.9044169],[-3.2097106,54.9038924],[-3.2210114,54.9018956],[-3.2210805,54.9018784],[-3.2215765,54.9017957],[-3.2326971,54.909076],[-3.2447414,54.9103696],[-3.2412056,54.9066833],[-3.2493825,54.9110915]]],[[[-3.2494467,54.9131626],[-3.248675,54.9134719],[-3.2489692,54.9135177],[-3.2604993,54.909924],[-3.2614657,54.9083441],[-3.2494467,54.9131626]]]],"type":"MultiPolygon"},"id":"E02003965","properties":{"code":"E02003965","geography":"MSOA","name":"Allerdale 001"},"type":"Feature"},{"geometry":{"coordinates":[[[[-3.1181415,54.9271271],[-3.1182854,54.9271668],[-3.1183993,54.9268099],[-3.1181415,54.9271271]]],[[[-3.1766504,54.9418094],[-3.1859984,54.949928],[-3.2043893,54.9538695],[-3.2321992,54.9532142],[-3.2478647,54.9444045],[-3.2504097,54.9442155],[-3.2649262,54.9431362],[-3.268936,54.9370678],[-3.265335,54.9430286],[-3.2833043,54.9421176],[-3.3020369,54.9276979],[-3.3134741,54.9188873],[-3.3136934,54.9148893],[-3.3031382,54.9091533],[-3.2745762,54.9030854],[-3.2622313,54.9080371],[-3.2614657,54.9083441],[-3.2604993,54.909924],[-3.2489692,54.9135177],[-3.248675,54.9134719],[-3.2485277,54.913531],[-3.24763,54.9138907],[-3.2336697,54.9113638],[-3.2212308,54.9023761],[-3.2145153,54.9054325],[-3.2124134,54.9047588],[-3.1922919,54.9114556],[-3.1867903,54.9091847],[-3.1936487,54.9084468],[-3.1896641,54.9058246],[-3.1919324,54.9004321],[-3.1886456,54.9017484],[-3.1850634,54.8986733],[-3.1899461,54.8986801],[-3.1853949,54.8964689],[-3.1899658,54.8926812],[-3.1815662,54.8906438],[-3.1914321,54.8810797],[-3.1651037,54.8627754],[-3.1468709,54.8568063],[-3.1316094,54.8423024],[-3.1177435,54.8348922],[-3.1097382,54.8429245],[-3.0960801,54.8358652],[-3.0997177,54.8277172],[-3.1080929,54.823977],[-3.1179376,54.825572],[-3.1304019,54.8229574],[-3.1376871,54.8140712],[-3.1522662,54.8121673],[-3.1889674,54.7933206],[-3.2043066,54.7917223],[-3.2037094,54.7886168],[-3.2102453,54.7860075],[-3.2241708,54.7842484],[-3.2272968,54.7727105],[-3.2396567,54.7638969],[-3.239384,54.7604733],[-3.2477457,54.7591384],[-3.2296446,54.7507326],[-3.2117973,54.7474702],[-3.2097598,54.7443798],[-3.2160613,54.7410545],[-3.2183848,54.7314669],[-3.2494299,54.7263737],[-3.2463173,54.7195688],[-3.2582963,54.7097209],[-3.2316725,54.700944],[-3.2343081,54.696874],[-3.224038,54.6871416],[-3.2416044,54.6775234],[-3.2352905,54.6762039],[-3.2341153,54.6705359],[-3.2269725,54.6682504],[-3.2126786,54.6477761],[-3.1996426,54.6367163],[-3.1992507,54.6312306],[-3.1850674,54.6247635],[-3.1874683,54.6217915],[-3.1689573,54.6179633],[-3.1635212,54.6072907],[-3.1455848,54.6095724],[-3.1259746,54.6037824],[-3.1096631,54.6061394],[-3.1027016,54.6091984],[-3.102973,54.6124897],[-3.0869464,54.6126377],[-3.0924003,54.6172286],[-3.0920412,54.6573944],[-3.0864921,54.6633475],[-3.0728921,54.6668586],[-3.0546003,54.6797494],[-3.0704248,54.6849266],[-3.0871866,54.6860844],[-3.0819159,54.6952463],[-3.0637943,54.7000744],[-3.0336955,54.694313],[-2.9957642,54.6945206],[-2.9912256,54.7128372],[-2.9829939,54.7193735],[-2.9896088,54.7277597],[-2.9966101,54.7336263],[-3.0119787,54.7347516],[-3.0215074,54.7401335],[-3.0261358,54.7479334],[-3.0008775,54.7552936],[-2.9977668,54.7620589],[-2.9929568,54.760214],[-2.9857211,54.7660218],[-2.9886012,54.7700397],[-2.9844326,54.7761502],[-2.9912051,54.7814302],[-2.9830645,54.7859995],[-2.9879332,54.7937122],[-3.0093167,54.7910637],[-3.0017581,54.8002346],[-3.0119806,54.8033221],[-3.0210401,54.7988471],[-3.0267666,54.801196],[-3.0242208,54.8105753],[-3.0301287,54.8145496],[-3.0307298,54.8267723],[-3.047454,54.833488],[-3.0290146,54.839755],[-3.0209456,54.8472227],[-3.0232687,54.8525531],[-3.0282677,54.8508539],[-3.0662044,54.8549445],[-3.0640225,54.8598023],[-3.0702471,54.8613561],[-3.0580462,54.8624658],[-3.0545095,54.8680577],[-3.0723629,54.8760483],[-3.0571673,54.88673],[-3.0614408,54.8895961],[-3.0708758,54.8897048],[-3.0783521,54.9046237],[-3.0994435,54.9040713],[-3.1054708,54.9087616],[-3.1149346,54.9040469],[-3.1263592,54.9055018],[-3.1185059,54.9102796],[-3.1222803,54.922035],[-3.1192513,54.9257618],[-3.1195616,54.9261005],[-3.1197228,54.9262764],[-3.1212991,54.9279965],[-3.1227267,54.9283895],[-3.1379613,54.9274565],[-3.1443813,54.9292851],[-3.1551533,54.932352],[-3.1570381,54.9378197],[-3.1766504,54.9418094]]]],"type":"MultiPolygon"},"id":"E02003966","properties":{"code":"E02003966","geography":"MSOA","name":"Allerdale 002"},"type":"Feature"},{"geometry":{"coordinates":[[[-3.2241708,54.7842484],[-3.2361407,54.7901956],[-3.2312788,54.7967889],[-3.2464539,54.8052166],[-3.2281678,54.8088845],[-3.2352208,54.8129717],[-3.2265723,54.822474],[-3.2374928,54.8256973],[-3.2505803,54.8240084],[-3.2633149,54.8282498],[-3.2943071,54.8212447],[-3.2844281,54.8390319],[-3.2704252,54.8394023],[-3.267203,54.845896],[-3.2749164,54.8528853],[-3.2722629,54.8547522],[-3.2831644,54.8529978],[-3.2959899,54.8556128],[-3.2904488,54.8634519],[-3.292139,54.8704607],[-3.3014606,54.8753788],[-3.3071327,54.876463],[-3.3076226,54.8741605],[-3.2991852,54.8614371],[-3.3038851,54.8568269],[-3.3666884,54.8341135],[-3.3869166,54.830352],[-3.4066693,54.8391536],[-3.4102587,54.8398608],[-3.4103112,54.8397288],[-3.4378545,54.8016209],[-3.4315423,54.7810973],[-3.433316,54.7662201],[-3.4454114,54.7521622],[-3.4463957,54.7515829],[-3.4364839,54.7435839],[-3.4051251,54.736402],[-3.4055996,54.731855],[-3.4174879,54.7313604],[-3.4227417,54.7276842],[-3.4059056,54.7200371],[-3.4020691,54.7177659],[-3.3728028,54.7222638],[-3.3574709,54.7154083],[-3.349363,54.7199886],[-3.3405031,54.7158252],[-3.3362609,54.7211205],[-3.3200662,54.7271618],[-3.3109677,54.7172809],[-3.3016193,54.7219151],[-3.2902958,54.7135493],[-3.2813424,54.7144874],[-3.276645,54.7187453],[-3.2664559,54.7191886],[-3.2625568,54.710624],[-3.2582963,54.7097209],[-3.2463173,54.7195688],[-3.2494299,54.7263737],[-3.2183848,54.7314669],[-3.2160613,54.7410545],[-3.2097598,54.7443798],[-3.2117973,54.7474702],[-3.2296446,54.7507326],[-3.2477457,54.7591384],[-3.239384,54.7604733],[-3.2396567,54.7638969],[-3.2272968,54.7727105],[-3.2241708,54.7842484]]],"type":"Polygon"},"id":"E02003967","properties":{"code":"E02003967","geography":"MSOA","name":"Allerdale 003"},"type":"Feature"},{"geometry":{"coordinates":[[[-3.4059056,54.7200371],[-3.4227417,54.7276842],[-3.4174879,54.7313604],[-3.4055996,54.731855],[-3.4051251,54.736402],[-3.4364839,54.7435839],[-3.4463957,54.7515829],[-3.4555239,54.7462095],[-3.4789881,54.7323873],[-3.4803754,54.7317604],[-3.4935713,54.7257959],[-3.5011321,54.7171454],[-3.5071282,54.7176147],[-3.5010646,54.715319],[-3.5083139,54.7172081],[-3.5104859,54.7143232],[-3.5119584,54.7063074],[-3.5124294,54.7054131],[-3.5021548,54.7032712],[-3.5035345,54.7063867],[-3.4980071,54.7099815],[-3.4871802,54.708354],[-3.4854004,54.7116647],[-3.4649119,54.7066733],[-3.4673028,54.7012789],[-3.4554578,54.6951799],[-3.4317737,54.6989993],[-3.4291465,54.71186],[-3.4196895,54.713003],[-3.4059056,54.7200371]]],"type":"Polygon"},"id":"E02003968","properties":{"code":"E02003968","geography":"MSOA","name":"Allerdale 004"},"type":"Feature"},{"geometry":{"coordinates":[[[-3.4317737,54.6989993],[-3.4554578,54.6951799],[-3.4673028,54.7012789],[-3.4649119,54.7066733],[-3.4854004,54.7116647],[-3.4871802,54.708354],[-3.4980071,54.7099815],[-3.5035345,54.7063867],[-3.5021548,54.7032712],[-3.5124294,54.7054131],[-3.5189807,54.6929682],[-3.5331778,54.6821155],[-3.5158279,54.6751134],[-3.4783371,54.6832145],[-3.4752028,54.677399],[-3.4600579,54.6724281],[-3.4440859,54.675704],[-3.4306402,54.6867879],[-3.4317737,54.6989993]]],"type":"Polygon"},"id":"E02003969","properties":{"code":"E02003969","geography":"MSOA","name":"Allerdale 005"},"type":"Feature"},{"geometry":{"coordinates":[[[-3.3574709,54.7154083],[-3.3728028,54.7222638],[-3.4020691,54.7177659],[-3.4059056,54.7200371],[-3.4196895,54.713003],[-3.4291465,54.71186],[-3.4317737,54.6989993],[-3.4306402,54.6867879],[-3.4440859,54.675704],[-3.4600579,54.6724281],[-3.4565792,54.6651557],[-3.4625553,54.6592598],[-3.4625643,54.646213],[-3.4537329,54.6412048],[-3.4617064,54.6338878],[-3.4603234,54.629924],[-3.4693746,54.6277951],[-3.4789793,54.6172659],[-3.4874617,54.6167221],[-3.4922672,54.6097102],[-3.4872686,54.6067987],[-3.4958206,54.6061416],[-3.5019157,54.6002514],[-3.4891259,54.5974519],[-3.4853314,54.5840204],[-3.481127,54.5811817],[-3.4619981,54.5836997],[-3.4462169,54.5815419],[-3.4339913,54.5974662],[-3.4189485,54.5902763],[-3.4231849,54.5938925],[-3.4181197,54.60255],[-3.3857948,54.6115395],[-3.376048,54.6196465],[-3.391405,54.6266267],[-3.3825187,54.6384554],[-3.3717068,54.6379158],[-3.3717859,54.6418733],[-3.348308,54.6425308],[-3.3641118,54.646583],[-3.3659568,54.650527],[-3.3796566,54.6494267],[-3.3811491,54.6553746],[-3.3764023,54.6633864],[-3.3756993,54.6608887],[-3.3658115,54.661155],[-3.3630712,54.658233],[-3.3611664,54.6753862],[-3.3464499,54.6849201],[-3.3543501,54.6865593],[-3.3706268,54.6997811],[-3.351938,54.7106804],[-3.3574709,54.7154083]]],"type":"Polygon"},"id":"E02003970","properties":{"code":"E02003970","geography":"MSOA","name":"Allerdale 006"},"type":"Feature"},{"geometry":{"coordinates":[[[-3.2582963,54.7097209],[-3.2625568,54.710624],[-3.2664559,54.7191886],[-3.276645,54.7187453],[-3.2813424,54.7144874],[-3.2902958,54.7135493],[-3.3016193,54.7219151],[-3.3109677,54.7172809],[-3.3200662,54.7271618],[-3.3362609,54.7211205],[-3.3405031,54.7158252],[-3.349363,54.7199886],[-3.3574709,54.7154083],[-3.351938,54.7106804],[-3.3706268,54.6997811],[-3.3543501,54.6865593],[-3.3464499,54.6849201],[-3.3611664,54.6753862],[-3.3630712,54.658233],[-3.3658115,54.661155],[-3.3756993,54.6608887],[-3.3764023,54.6633864],[-3.3811491,54.6553746],[-3.3796566,54.6494267],[-3.3659568,54.650527],[-3.3641118,54.646583],[-3.348308,54.6425308],[-3.3717859,54.6418733],[-3.3717068,54.6379158],[-3.3825187,54.6384554],[-3.391405,54.6266267],[-3.376048,54.6196465],[-3.3857948,54.6115395],[-3.4181197,54.60255],[-3.4231849,54.5938925],[-3.4189485,54.5902763],[-3.4081958,54.5863747],[-3.3933863,54.5859945],[-3.3860132,54.5765155],[-3.3782769,54.5759484],[-3.3769267,54.5646708],[-3.3643675,54.5507266],[-3.366149,54.5446361],[-3.3613521,54.5437502],[-3.3553444,54.5354718],[-3.3400368,54.5352262],[-3.3164554,54.5278072],[-3.3057806,54.5301258],[-3.2578372,54.5087464],[-3.2399092,54.5061748],[-3.2331532,54.5003665],[-3.2247128,54.5023281],[-3.2136218,54.4965837],[-3.1996252,54.5088854],[-3.2010578,54.5256652],[-3.2165907,54.5330701],[-3.2324952,54.535892],[-3.2345164,54.5389091],[-3.2582156,54.5408031],[-3.240845,54.5604639],[-3.2292536,54.5665168],[-3.2520039,54.5726699],[-3.2594531,54.5854652],[-3.2456919,54.5887227],[-3.2303371,54.6042278],[-3.2346069,54.6126134],[-3.2259245,54.6230619],[-3.2340934,54.6278786],[-3.2225196,54.6357494],[-3.2229943,54.6429345],[-3.2126786,54.6477761],[-3.2269725,54.6682504],[-3.2341153,54.6705359],[-3.2352905,54.6762039],[-3.2416044,54.6775234],[-3.224038,54.6871416],[-3.2343081,54.696874],[-3.2316725,54.700944],[-3.2582963,54.7097209]]],"type":"Polygon"},"id":"E02003971","properties":{"code":"E02003971","geography":"MSOA","name":"Allerdale 007"},"type":"Feature"},{"geometry":{"coordinates":[[[-3.4600579,54.6724281],[-3.4752028,54.677399],[-3.4783371,54.6832145],[-3.5158279,54.6751134],[-3.5331778,54.6821155],[-3.5332241,54.6820801],[-3.5334991,54.6818698],[-3.550785,54.6695765],[-3.5520447,54.6684508],[-3.5717431,54.6508383],[-3.5634113,54.6481406],[-3.5639235,54.6480516],[-3.5644868,54.6479537],[-3.5572146,54.6462463],[-3.5625158,54.646391],[-3.5780762,54.6516975],[-3.5779337,54.6497258],[-3.5653625,54.6444134],[-3.5549026,54.6462544],[-3.5459856,54.6443447],[-3.553414,54.6377951],[-3.5364322,54.640362],[-3.5400926,54.6402747],[-3.5161531,54.6527552],[-3.5116112,54.6594674],[-3.5010535,54.6543844],[-3.4915387,54.6558965],[-3.4983986,54.6579245],[-3.4874753,54.6642354],[-3.4791071,54.6579162],[-3.4625553,54.6592598],[-3.4565792,54.6651557],[-3.4600579,54.6724281]]],"type":"Polygon"},"id":"E02003972","properties":{"code":"E02003972","geography":"MSOA","name":"Allerdale 008"},"type":"Feature"},{"geometry":{"coordinates":[[[-3.553414,54.6377951],[-3.5459856,54.6443447],[-3.5549026,54.6462544],[-3.5653625,54.6444134],[-3.5779337,54.6497258],[-3.5777326,54.6469417],[-3.574595,54.6393319],[-3.5744819,54.6388578],[-3.5720578,54.6286948],[-3.56906,54.616119],[-3.5686776,54.6156479],[-3.5640509,54.6152916],[-3.5497788,54.6233159],[-3.5593454,54.6242141],[-3.563206,54.6277135],[-3.5547616,54.629309],[-3.5502097,54.6356309],[-3.5564527,54.6359238],[-3.553414,54.6377951]]],"type":"Polygon"},"id":"E02003973","properties":{"code":"E02003973","geography":"MSOA","name":"Allerdale 009"},"type":"Feature"},{"geometry":{"coordinates":[[[-3.5497788,54.6233159],[-3.532902,54.6304109],[-3.524259,54.6280945],[-3.5100404,54.632034],[-3.5273663,54.6401562],[-3.5312011,54.6380074],[-3.5364322,54.640362],[-3.553414,54.6377951],[-3.5564527,54.6359238],[-3.5502097,54.6356309],[-3.5547616,54.629309],[-3.563206,54.6277135],[-3.5593454,54.6242141],[-3.5497788,54.6233159]]],"type":"Polygon"},"id":"E02003974","properties":{"code":"E02003974","geography":"MSOA","name":"Allerdale 010"},"type":"Feature"},{"geometry":{"coordinates":[[[-3.4625553,54.6592598],[-3.4791071,54.6579162],[-3.4874753,54.6642354],[-3.4983986,54.6579245],[-3.4915387,54.6558965],[-3.5010535,54.6543844],[-3.5116112,54.6594674],[-3.5161531,54.6527552],[-3.5400926,54.6402747],[-3.5364322,54.640362],[-3.5312011,54.6380074],[-3.5273663,54.6401562],[-3.5100404,54.632034],[-3.524259,54.6280945],[-3.532902,54.6304109],[-3.5497788,54.6233159],[-3.5640509,54.6152916],[-3.5686776,54.6156479],[-3.5658934,54.612218],[-3.5713309,54.6126382],[-3.5725842,54.6007808],[-3.5542266,54.5964349],[-3.5443813,54.607345],[-3.5369643,54.6028629],[-3.5127631,54.6050087],[-3.5019157,54.6002514],[-3.4958206,54.6061416],[-3.4872686,54.6067987],[-3.4922672,54.6097102],[-3.4874617,54.6167221],[-3.4789793,54.6172659],[-3.4693746,54.6277951],[-3.4603234,54.629924],[-3.4617064,54.6338878],[-3.4537329,54.6412048],[-3.4625643,54.646213],[-3.4625553,54.6592598]]],"type":"Polygon"},"id":"E02003975","properties":{"code":"E02003975","geography":"MSOA","name":"Allerdale 011"},"type":"Feature"},{"geometry":{"coordinates":[[[-3.0869464,54.6126377],[-3.102973,54.6124897],[-3.1027016,54.6091984],[-3.1096631,54.6061394],[-3.1259746,54.6037824],[-3.1455848,54.6095724],[-3.1635212,54.6072907],[-3.1689573,54.6179633],[-3.1874683,54.6217915],[-3.1850674,54.6247635],[-3.1992507,54.6312306],[-3.1996426,54.6367163],[-3.2126786,54.6477761],[-3.2229943,54.6429345],[-3.2225196,54.6357494],[-3.2340934,54.6278786],[-3.2259245,54.6230619],[-3.2346069,54.6126134],[-3.2303371,54.6042278],[-3.2456919,54.5887227],[-3.2594531,54.5854652],[-3.2520039,54.5726699],[-3.2292536,54.5665168],[-3.240845,54.5604639],[-3.2582156,54.5408031],[-3.2345164,54.5389091],[-3.2324952,54.535892],[-3.2165907,54.5330701],[-3.2010578,54.5256652],[-3.1996252,54.5088854],[-3.2136218,54.4965837],[-3.2112339,54.4881735],[-3.2193174,54.4820158],[-3.200037,54.4736186],[-3.193116,54.4633351],[-3.1843581,54.4624498],[-3.1748962,54.4545952],[-3.1671359,54.4541022],[-3.1538221,54.4601459],[-3.145555,54.4684358],[-3.1364409,54.4707382],[-3.1322098,54.464536],[-3.1194222,54.4602297],[-3.1125701,54.461483],[-3.1157015,54.466575],[-3.1094761,54.4739959],[-3.0977506,54.4718958],[-3.0882622,54.4839565],[-3.0762114,54.489358],[-3.0619825,54.4925152],[-3.0507987,54.4912578],[-3.048301,54.4962708],[-3.0148324,54.499836],[-3.011386,54.5073755],[-3.0169806,54.5149285],[-3.0153113,54.5255869],[-3.0257582,54.5300887],[-3.0250513,54.5410368],[-3.0165779,54.5479521],[-3.0203595,54.5589162],[-3.0167749,54.5615825],[-3.0287907,54.5669199],[-3.0182796,54.5749878],[-3.0269611,54.5745432],[-3.0370622,54.5809796],[-3.007489,54.5953405],[-3.0228863,54.6027527],[-3.0343389,54.6027705],[-3.0391121,54.6123369],[-3.0447039,54.6142885],[-3.0677022,54.6141704],[-3.077791,54.6105596],[-3.0869464,54.6126377]]],"type":"Polygon"},"id":"E02003976","properties":{"code":"E02003976","geography":"MSOA","name":"Allerdale 012"},"type":"Feature"},{"geometry":{"coordinates":[[[[-3.0238432,54.9459713],[-3.0249439,54.9459556],[-3.040756,54.9457284],[-3.0416074,54.9457161],[-3.0418709,54.9457123],[-3.0386398,54.9449462],[-3.0238432,54.9459713]]],[[[-3.1168268,54.975119],[-3.1165382,54.9752253],[-3.1177742,54.9749927],[-3.1183502,54.9745578],[-3.1168268,54.975119]]],[[[-3.1024097,54.9778833],[-3.1037736,54.9776268],[-3.099727,54.9769094],[-3.1024097,54.9778833]]],[[[-3.0871644,54.9782014],[-3.0870678,54.9782281],[-3.0881868,54.9781461],[-3.0884228,54.9778535],[-3.0871644,54.9782014]]],[[[-3.0669691,54.9841678],[-3.0663974,54.9843482],[-3.0636368,54.9852189],[-3.0656178,54.9850746],[-3.0671482,54.9841113],[-3.0669691,54.9841678]]],[[[-2.661619,55.1463616],[-2.6685727,55.1473077],[-2.6773187,55.1554845],[-2.6832486,55.1666273],[-2.6745501,55.1758883],[-2.689785,55.1889814],[-2.7035025,55.1731647],[-2.7325566,55.1672845],[-2.7462514,55.1582208],[-2.7751044,55.1492033],[-2.7849151,55.1417719],[-2.8128879,55.1361813],[-2.8254994,55.1383102],[-2.8329739,55.1327306],[-2.827474,55.1249851],[-2.8325538,55.1215094],[-2.8413625,55.1224787],[-2.837964,55.1172885],[-2.8453517,55.1156173],[-2.8447542,55.1116806],[-2.8707858,55.1063827],[-2.8767584,55.0952519],[-2.8864029,55.0947414],[-2.8822571,55.0927617],[-2.8842529,55.0871866],[-2.8934495,55.0877628],[-2.8971269,55.0778396],[-2.9151953,55.0789212],[-2.9261793,55.0705606],[-2.9396969,55.0696247],[-2.9432059,55.0647559],[-2.9365157,55.0595521],[-2.9554123,55.0547391],[-2.9586154,55.0492844],[-3.028021,55.0552989],[-3.0431686,55.0556555],[-3.05075,55.0529101],[-3.0536448,55.0473952],[-3.043507,55.0474067],[-3.0402256,55.0411709],[-3.0258758,55.0364879],[-3.0343112,55.0299035],[-3.0302017,55.0246158],[-3.0400618,55.0227189],[-3.0393474,55.0164092],[-3.0494728,55.0095377],[-3.0485807,55.006716],[-3.0450706,55.0078328],[-3.0440441,54.9987175],[-3.0582434,54.9916756],[-3.0582343,54.9916321],[-3.0578999,54.9917137],[-3.053449,54.9927989],[-3.0575531,54.9917154],[-3.0563689,54.9865611],[-3.0468872,54.9846884],[-3.0417506,54.9796227],[-3.0510351,54.9849438],[-3.0378693,54.9740518],[-3.0402786,54.970026],[-3.0423691,54.9746721],[-3.053736,54.9760173],[-3.0491998,54.9771943],[-3.0565956,54.9828206],[-3.0609362,54.9772919],[-3.0584146,54.98306],[-3.0627037,54.9775425],[-3.0640779,54.9802921],[-3.0723323,54.9748761],[-3.0695434,54.9713473],[-3.0756809,54.9675915],[-3.1040203,54.9713681],[-3.1085033,54.9676643],[-3.0949895,54.9662122],[-3.1086693,54.9659211],[-3.1162661,54.9606563],[-3.1159595,54.9569206],[-3.1033197,54.9545907],[-3.1137191,54.9533276],[-3.1087279,54.949109],[-3.1159629,54.9523643],[-3.1150555,54.9470615],[-3.1209378,54.9519204],[-3.1311159,54.9476041],[-3.1260031,54.9401359],[-3.1286461,54.9380264],[-3.120624,54.9405316],[-3.1241163,54.9366269],[-3.1156348,54.937593],[-3.1297822,54.9343987],[-3.1101181,54.9333855],[-3.094734,54.9379259],[-3.1006279,54.9392953],[-3.0828402,54.9399691],[-3.071693,54.9464162],[-3.0746586,54.9486727],[-3.068568,54.9489115],[-3.0769461,54.9521204],[-3.0665049,54.9486483],[-3.0549848,54.9536313],[-3.0565129,54.9509328],[-3.0500378,54.9524313],[-3.0557806,54.9503928],[-3.0442225,54.9474776],[-3.042514,54.9493903],[-3.0400272,54.9460828],[-3.0080306,54.9470354],[-3.0007979,54.9375675],[-2.9998085,54.9372368],[-2.9889975,54.9362989],[-2.9873551,54.9399409],[-2.9414934,54.9358674],[-2.9431877,54.9455053],[-2.93092,54.9461262],[-2.9198421,54.9507128],[-2.913319,54.9585849],[-2.8699354,54.9714258],[-2.850259,54.9818001],[-2.8356815,54.9761577],[-2.8183953,54.9804416],[-2.8190671,54.9852808],[-2.8097645,54.990343],[-2.8101815,54.9962027],[-2.7931619,54.9950534],[-2.7781867,54.9967301],[-2.7777747,55.0064634],[-2.7704109,55.0088563],[-2.7466049,55.0083532],[-2.731696,55.0124187],[-2.7429684,55.0165621],[-2.7250513,55.0236256],[-2.7511235,55.0323474],[-2.7525907,55.0440928],[-2.7437917,55.0453145],[-2.7402792,55.0523122],[-2.7337574,55.0550251],[-2.7230012,55.0525868],[-2.7151072,55.0609884],[-2.7077692,55.0629544],[-2.6834128,55.0623039],[-2.6576051,55.0659838],[-2.6458661,55.0784252],[-2.6192524,55.0952402],[-2.6051317,55.0975791],[-2.6028642,55.1010124],[-2.5833192,55.0990211],[-2.5854863,55.1030781],[-2.5935517,55.1051165],[-2.5934295,55.1128289],[-2.6004641,55.1171584],[-2.5988961,55.1245721],[-2.6212672,55.1292128],[-2.6326325,55.1277536],[-2.6569337,55.1361287],[-2.661619,55.1463616]]]],"type":"MultiPolygon"},"id":"E02003987","properties":{"code":"E02003987","geography":"MSOA","name":"Carlisle 001"},"type":"Feature"},{"geometry":{"coordinates":[[[-2.5833192,55.0990211],[-2.6028642,55.1010124],[-2.6051317,55.0975791],[-2.6192524,55.0952402],[-2.6458661,55.0784252],[-2.6576051,55.0659838],[-2.6834128,55.0623039],[-2.7077692,55.0629544],[-2.7151072,55.0609884],[-2.7230012,55.0525868],[-2.7337574,55.0550251],[-2.7402792,55.0523122],[-2.7437917,55.0453145],[-2.7525907,55.0440928],[-2.7511235,55.0323474],[-2.7250513,55.0236256],[-2.7429684,55.0165621],[-2.731696,55.0124187],[-2.7466049,55.0083532],[-2.7704109,55.0088563],[-2.7777747,55.0064634],[-2.7781867,54.9967301],[-2.7931619,54.9950534],[-2.7834453,54.9941802],[-2.765564,54.9849661],[-2.7628058,54.9764907],[-2.7635356,54.9643874],[-2.7683898,54.959728],[-2.7648882,54.9542058],[-2.7703367,54.9512895],[-2.7733132,54.9410827],[-2.7934062,54.9351311],[-2.7876849,54.9313984],[-2.7974217,54.9292848],[-2.7932293,54.9220978],[-2.7855823,54.9268159],[-2.7628373,54.9271355],[-2.7470154,54.9242419],[-2.718071,54.9118802],[-2.6955442,54.9169625],[-2.6713347,54.9098019],[-2.6536551,54.910114],[-2.6553851,54.8991811],[-2.6416667,54.8975547],[-2.6327497,54.8925348],[-2.6162333,54.893888],[-2.6054251,54.8843753],[-2.5764079,54.8967103],[-2.5675591,54.9089961],[-2.5662147,54.9192311],[-2.5452657,54.9291654],[-2.5514145,54.9294129],[-2.5676427,54.9408496],[-2.5712783,54.9483638],[-2.5684843,54.9583557],[-2.5955621,54.9634747],[-2.600339,54.9736563],[-2.591585,54.9741452],[-2.5866226,54.9820284],[-2.57923,54.9828872],[-2.5733037,54.987632],[-2.5677065,55.0027417],[-2.5741738,55.0036948],[-2.5702348,55.0065008],[-2.5736464,55.0067212],[-2.5728447,55.0163931],[-2.5526123,55.0210366],[-2.5395653,55.0288716],[-2.5276149,55.0290948],[-2.5269055,55.0329348],[-2.5122913,55.0338342],[-2.5093553,55.0363402],[-2.504473,55.0331854],[-2.5052503,55.0368651],[-2.4830431,55.0400138],[-2.4829493,55.0436958],[-2.4943346,55.0507099],[-2.4907455,55.0545211],[-2.4946994,55.0531257],[-2.5006706,55.0565688],[-2.4999525,55.062032],[-2.5039784,55.0624266],[-2.492193,55.068149],[-2.5012276,55.0752201],[-2.4946469,55.0818592],[-2.4866317,55.0810979],[-2.4863342,55.0830412],[-2.5037,55.0907464],[-2.5164605,55.0891114],[-2.518088,55.0849529],[-2.5569404,55.0810347],[-2.5627864,55.0843714],[-2.5582878,55.0888061],[-2.5666985,55.0919618],[-2.5684189,55.0962576],[-2.5806866,55.0955802],[-2.5833192,55.0990211]]],"type":"Polygon"},"id":"E02003988","properties":{"code":"E02003988","geography":"MSOA","name":"Carlisle 002"},"type":"Feature"},{"geometry":{"coordinates":[[[-2.9366143,54.9067985],[-2.9341742,54.9108718],[-2.9401147,54.9270273],[-2.9453943,54.929374],[-2.9571863,54.9269533],[-2.9599768,54.929336],[-2.9652116,54.9113807],[-2.9632278,54.8994447],[-2.9451553,54.9109307],[-2.9436371,54.9076381],[-2.9366143,54.9067985]]],"type":"Polygon"},"id":"E02003989","properties":{"code":"E02003989","geography":"MSOA","name":"Carlisle 003"},"type":"Feature"},{"geometry":{"coordinates":[[[-2.8801095,54.8779597],[-2.8753326,54.8860344],[-2.8630499,54.8799552],[-2.8619781,54.8838429],[-2.8717949,54.8867648],[-2.8703216,54.8887572],[-2.8556938,54.887833],[-2.8548605,54.891144],[-2.8755744,54.8975192],[-2.8646247,54.8986616],[-2.8517331,54.9064425],[-2.8375978,54.9033716],[-2.8395926,54.9089382],[-2.8536631,54.9126954],[-2.8600402,54.9082832],[-2.8710972,54.9108362],[-2.8621345,54.9018012],[-2.8705153,54.9024969],[-2.88173,54.9216759],[-2.8723682,54.9237951],[-2.8729743,54.9272497],[-2.8653768,54.9271199],[-2.8656664,54.929535],[-2.8815332,54.9267222],[-2.891067,54.930557],[-2.8840173,54.9431489],[-2.8973464,54.9424033],[-2.9007467,54.9480829],[-2.9198421,54.9507128],[-2.93092,54.9461262],[-2.9431877,54.9455053],[-2.9414934,54.9358674],[-2.9873551,54.9399409],[-2.9889975,54.9362989],[-2.9998085,54.9372368],[-2.9958591,54.9359168],[-3.0063842,54.9308802],[-3.0049802,54.9334457],[-3.0135748,54.9230398],[-3.0094227,54.919528],[-2.9797009,54.9178475],[-2.9730464,54.9133779],[-2.9839401,54.9125549],[-2.9823579,54.9061978],[-2.9679456,54.8995054],[-2.9634083,54.8994336],[-2.9632278,54.8994447],[-2.9652116,54.9113807],[-2.9599768,54.929336],[-2.9571863,54.9269533],[-2.9453943,54.929374],[-2.9401147,54.9270273],[-2.9341742,54.9108718],[-2.9366143,54.9067985],[-2.9369553,54.90234],[-2.9434047,54.9042548],[-2.9414314,54.9004126],[-2.9277537,54.903739],[-2.9238579,54.898576],[-2.909273,54.8965664],[-2.9122665,54.8918476],[-2.9009673,54.8920096],[-2.8991055,54.8883192],[-2.8908716,54.8917319],[-2.8968491,54.893059],[-2.8929582,54.8954284],[-2.8889803,54.8917009],[-2.8962744,54.8869742],[-2.8850067,54.8856268],[-2.8891654,54.8796113],[-2.8801095,54.8779597]]],"type":"Polygon"},"id":"E02003990","properties":{"code":"E02003990","geography":"MSOA","name":"Carlisle 004"},"type":"Feature"},{"geometry":{"coordinates":[[[[-3.121716,54.9284514],[-3.1227267,54.9283895],[-3.1212991,54.9279965],[-3.121716,54.9284514]]],[[[-3.05019,54.9459928],[-3.0628995,54.9452685],[-3.0728855,54.9371457],[-3.0972032,54.9319571],[-3.101883,54.9296782],[-3.1042939,54.9285039],[-3.1001986,54.9283722],[-3.1180994,54.9277495],[-3.1182854,54.9271668],[-3.1181415,54.9271271],[-3.1183993,54.9268099],[-3.1188675,54.925343],[-3.1192513,54.9257618],[-3.1222803,54.922035],[-3.1185059,54.9102796],[-3.1263592,54.9055018],[-3.1149346,54.9040469],[-3.1054708,54.9087616],[-3.0994435,54.9040713],[-3.0783521,54.9046237],[-3.0708758,54.8897048],[-3.0614408,54.8895961],[-3.0571673,54.88673],[-3.0723629,54.8760483],[-3.0545095,54.8680577],[-3.0580462,54.8624658],[-3.0702471,54.8613561],[-3.0640225,54.8598023],[-3.0662044,54.8549445],[-3.0282677,54.8508539],[-3.0232687,54.8525531],[-2.9891763,54.8678965],[-2.9983687,54.8701336],[-3.0051759,54.8770361],[-2.9984336,54.8839676],[-2.9895904,54.8812847],[-2.9801444,54.8867124],[-2.9736189,54.8881727],[-2.977115,54.8933681],[-2.9677666,54.8940852],[-2.9679456,54.8995054],[-2.9823579,54.9061978],[-2.9839401,54.9125549],[-2.9730464,54.9133779],[-2.9797009,54.9178475],[-3.0094227,54.919528],[-3.0135748,54.9230398],[-3.0049802,54.9334457],[-3.0045443,54.9342423],[-3.0026046,54.9377863],[-3.0096046,54.946174],[-3.0207703,54.9460152],[-3.0238432,54.9459713],[-3.0386398,54.9449462],[-3.0418709,54.9457123],[-3.0469585,54.9456387],[-3.0521704,54.9429148],[-3.05019,54.9459928]]]],"type":"MultiPolygon"},"id":"E02003991","properties":{"code":"E02003991","geography":"MSOA","name":"Carlisle 005"},"type":"Feature"},{"geometry":{"coordinates":[[[-2.9366143,54.9067985],[-2.9436371,54.9076381],[-2.9451553,54.9109307],[-2.9632278,54.8994447],[-2.9634083,54.8994336],[-2.9642017,54.8976334],[-2.9536445,54.8971686],[-2.9464759,54.8906781],[-2.9450654,54.8950484],[-2.9412378,54.8927456],[-2.9262416,54.888597],[-2.9139203,54.8898803],[-2.9122665,54.8918476],[-2.909273,54.8965664],[-2.9238579,54.898576],[-2.9277537,54.903739],[-2.9414314,54.9004126],[-2.9434047,54.9042548],[-2.9369553,54.90234],[-2.9366143,54.9067985]]],"type":"Polygon"},"id":"E02003992","properties":{"code":"E02003992","geography":"MSOA","name":"Carlisle 006"},"type":"Feature"},{"geometry":{"coordinates":[[[-2.7931619,54.9950534],[-2.8101815,54.9962027],[-2.8097645,54.990343],[-2.8190671,54.9852808],[-2.8183953,54.9804416],[-2.8356815,54.9761577],[-2.850259,54.9818001],[-2.8699354,54.9714258],[-2.913319,54.9585849],[-2.9198421,54.9507128],[-2.9007467,54.9480829],[-2.8973464,54.9424033],[-2.8840173,54.9431489],[-2.891067,54.930557],[-2.8815332,54.9267222],[-2.8656664,54.929535],[-2.8653768,54.9271199],[-2.8729743,54.9272497],[-2.8723682,54.9237951],[-2.88173,54.9216759],[-2.8705153,54.9024969],[-2.8621345,54.9018012],[-2.8710972,54.9108362],[-2.8600402,54.9082832],[-2.8536631,54.9126954],[-2.8395926,54.9089382],[-2.8375978,54.9033716],[-2.8517331,54.9064425],[-2.8646247,54.8986616],[-2.8755744,54.8975192],[-2.8548605,54.891144],[-2.8556938,54.887833],[-2.8703216,54.8887572],[-2.8717949,54.8867648],[-2.8619781,54.8838429],[-2.8630499,54.8799552],[-2.8753326,54.8860344],[-2.8801095,54.8779597],[-2.8668241,54.8609479],[-2.8513561,54.850015],[-2.848672,54.8331117],[-2.8382682,54.8341631],[-2.829503,54.8255736],[-2.8176208,54.8275664],[-2.7993731,54.8187111],[-2.7830469,54.8222785],[-2.7731938,54.8205163],[-2.7670042,54.8232982],[-2.7564231,54.8228508],[-2.7495725,54.8291204],[-2.7292017,54.8186492],[-2.7145348,54.8199339],[-2.7056574,54.8163554],[-2.689788,54.8191841],[-2.7012196,54.8335977],[-2.6863153,54.8379407],[-2.6801316,54.8353101],[-2.6689661,54.8450349],[-2.6577648,54.8494457],[-2.655325,54.8547615],[-2.6037631,54.8533366],[-2.5826654,54.8458599],[-2.5733466,54.8535391],[-2.5902412,54.8737767],[-2.6054251,54.8843753],[-2.6162333,54.893888],[-2.6327497,54.8925348],[-2.6416667,54.8975547],[-2.6553851,54.8991811],[-2.6536551,54.910114],[-2.6713347,54.9098019],[-2.6955442,54.9169625],[-2.718071,54.9118802],[-2.7470154,54.9242419],[-2.7628373,54.9271355],[-2.7855823,54.9268159],[-2.7932293,54.9220978],[-2.7974217,54.9292848],[-2.7876849,54.9313984],[-2.7934062,54.9351311],[-2.7733132,54.9410827],[-2.7703367,54.9512895],[-2.7648882,54.9542058],[-2.7683898,54.959728],[-2.7635356,54.9643874],[-2.7628058,54.9764907],[-2.765564,54.9849661],[-2.7834453,54.9941802],[-2.7931619,54.9950534]]],"type":"Polygon"},"id":"E02003993","properties":{"code":"E02003993","geography":"MSOA","name":"Carlisle 007"},"type":"Feature"},{"geometry":{"coordinates":[[[-2.9412378,54.8927456],[-2.9450654,54.8950484],[-2.9464759,54.8906781],[-2.9536445,54.8971686],[-2.9642017,54.8976334],[-2.9633082,54.8925686],[-2.9580417,54.8930055],[-2.9488433,54.8880072],[-2.952225,54.8845568],[-2.9534348,54.8877902],[-2.9598228,54.8834581],[-2.964849,54.8838336],[-2.9555825,54.8797283],[-2.9611274,54.8735393],[-2.9467605,54.8720294],[-2.951965,54.8814999],[-2.9416606,54.8827755],[-2.9459872,54.8852689],[-2.9412378,54.8927456]]],"type":"Polygon"},"id":"E02003994","properties":{"code":"E02003994","geography":"MSOA","name":"Carlisle 008"},"type":"Feature"},{"geometry":{"coordinates":[[[-2.9634083,54.8994336],[-2.9679456,54.8995054],[-2.9677666,54.8940852],[-2.977115,54.8933681],[-2.9736189,54.8881727],[-2.9801444,54.8867124],[-2.9771707,54.8847776],[-2.9687386,54.8880541],[-2.9656141,54.8856131],[-2.9736979,54.8775892],[-2.9611274,54.8735393],[-2.9555825,54.8797283],[-2.964849,54.8838336],[-2.9598228,54.8834581],[-2.9534348,54.8877902],[-2.952225,54.8845568],[-2.9488433,54.8880072],[-2.9580417,54.8930055],[-2.9633082,54.8925686],[-2.9642017,54.8976334],[-2.9634083,54.8994336]]],"type":"Polygon"},"id":"E02003995","properties":{"code":"E02003995","geography":"MSOA","name":"Carlisle 009"},"type":"Feature"},{"geometry":{"coordinates":[[[-2.9139203,54.8898803],[-2.9262416,54.888597],[-2.9412378,54.8927456],[-2.9459872,54.8852689],[-2.9416606,54.8827755],[-2.951965,54.8814999],[-2.9467605,54.8720294],[-2.9434356,54.8774837],[-2.9382554,54.8769774],[-2.9365303,54.88287],[-2.9290766,54.8778864],[-2.920656,54.8806387],[-2.9152148,54.8740052],[-2.911534,54.87484],[-2.9054316,54.8860653],[-2.915387,54.885897],[-2.9139203,54.8898803]]],"type":"Polygon"},"id":"E02003996","properties":{"code":"E02003996","geography":"MSOA","name":"Carlisle 010"},"type":"Feature"},{"geometry":{"coordinates":[[[-2.8891654,54.8796113],[-2.8850067,54.8856268],[-2.8962744,54.8869742],[-2.8889803,54.8917009],[-2.8929582,54.8954284],[-2.8968491,54.893059],[-2.8908716,54.8917319],[-2.8991055,54.8883192],[-2.9009673,54.8920096],[-2.9122665,54.8918476],[-2.9139203,54.8898803],[-2.915387,54.885897],[-2.9054316,54.8860653],[-2.911534,54.87484],[-2.9071436,54.8751734],[-2.910613,54.8729699],[-2.9067547,54.8701205],[-2.9019886,54.8729901],[-2.9056707,54.8754704],[-2.9021996,54.8735986],[-2.9042872,54.8762119],[-2.8963075,54.8751834],[-2.8891654,54.8796113]]],"type":"Polygon"},"id":"E02003997","properties":{"code":"E02003997","geography":"MSOA","name":"Carlisle 011"},"type":"Feature"},{"geometry":{"coordinates":[[[-2.911534,54.87484],[-2.9152148,54.8740052],[-2.920656,54.8806387],[-2.9290766,54.8778864],[-2.9365303,54.88287],[-2.9382554,54.8769774],[-2.9345572,54.8725077],[-2.9240001,54.870547],[-2.9242878,54.8678393],[-2.9067547,54.8701205],[-2.910613,54.8729699],[-2.9071436,54.8751734],[-2.911534,54.87484]]],"type":"Polygon"},"id":"E02003998","properties":{"code":"E02003998","geography":"MSOA","name":"Carlisle 012"},"type":"Feature"},{"geometry":{"coordinates":[[[-2.9611274,54.8735393],[-2.9736979,54.8775892],[-2.9656141,54.8856131],[-2.9687386,54.8880541],[-2.9771707,54.8847776],[-2.9801444,54.8867124],[-2.9895904,54.8812847],[-2.9984336,54.8839676],[-3.0051759,54.8770361],[-2.9983687,54.8701336],[-2.9891763,54.8678965],[-3.0232687,54.8525531],[-3.0209456,54.8472227],[-3.0290146,54.839755],[-3.047454,54.833488],[-3.0307298,54.8267723],[-3.0301287,54.8145496],[-3.0242208,54.8105753],[-3.0267666,54.801196],[-3.0210401,54.7988471],[-3.0119806,54.8033221],[-3.0017581,54.8002346],[-3.0093167,54.7910637],[-2.9879332,54.7937122],[-2.9830645,54.7859995],[-2.9912051,54.7814302],[-2.9844326,54.7761502],[-2.9693421,54.7771364],[-2.9675684,54.7798882],[-2.9620705,54.7786156],[-2.9447786,54.7840367],[-2.9311668,54.792151],[-2.9348303,54.7929502],[-2.9197104,54.8059782],[-2.9210764,54.8091999],[-2.9044092,54.8130123],[-2.9074043,54.8219516],[-2.8814664,54.8234908],[-2.8719864,54.8285862],[-2.8710221,54.8347654],[-2.8630556,54.837247],[-2.848672,54.8331117],[-2.8513561,54.850015],[-2.8668241,54.8609479],[-2.8801095,54.8779597],[-2.8891654,54.8796113],[-2.8963075,54.8751834],[-2.9042872,54.8762119],[-2.9021996,54.8735986],[-2.9056707,54.8754704],[-2.9019886,54.8729901],[-2.9067547,54.8701205],[-2.9242878,54.8678393],[-2.9240001,54.870547],[-2.9345572,54.8725077],[-2.9382554,54.8769774],[-2.9434356,54.8774837],[-2.9467605,54.8720294],[-2.9611274,54.8735393]]],"type":"Polygon"},"id":"E02003999","properties":{"code":"E02003999","geography":"MSOA","name":"Carlisle 013"},"type":"Feature"},{"geometry":{"coordinates":[[[-3.5019157,54.6002514],[-3.5127631,54.6050087],[-3.5369643,54.6028629],[-3.5443813,54.607345],[-3.5542266,54.5964349],[-3.5725842,54.6007808],[-3.5725938,54.6006896],[-3.5828104,54.5908576],[-3.5803906,54.5718959],[-3.5841179,54.5648414],[-3.5842805,54.5645336],[-3.5844187,54.564272],[-3.581795,54.5634658],[-3.5532026,54.5608389],[-3.5450415,54.5516858],[-3.5458969,54.5450328],[-3.5405238,54.5449685],[-3.5435586,54.5469403],[-3.5389183,54.5524101],[-3.5296063,54.55443],[-3.5139543,54.5770732],[-3.4853314,54.5840204],[-3.4891259,54.5974519],[-3.5019157,54.6002514]]],"type":"Polygon"},"id":"E02004000","properties":{"code":"E02004000","geography":"MSOA","name":"Copeland 001"},"type":"Feature"},{"geometry":{"coordinates":[[[-3.581795,54.5634658],[-3.5844187,54.564272],[-3.5844676,54.5641795],[-3.5915917,54.5521895],[-3.5941408,54.5525685],[-3.5943943,54.5525093],[-3.592217,54.5520482],[-3.5898488,54.5519033],[-3.5910532,54.5506756],[-3.5934863,54.5481955],[-3.5975666,54.5517683],[-3.598123,54.5516246],[-3.5995196,54.5500864],[-3.5999922,54.5479559],[-3.6000278,54.5478696],[-3.590881,54.5459298],[-3.5804253,54.5368057],[-3.5719273,54.5365157],[-3.5806249,54.5498132],[-3.5756416,54.5542065],[-3.5881242,54.5557833],[-3.5815726,54.5553427],[-3.5781555,54.5580858],[-3.581795,54.5634658]]],"type":"Polygon"},"id":"E02004001","properties":{"code":"E02004001","geography":"MSOA","name":"Copeland 002"},"type":"Feature"},{"geometry":{"coordinates":[[[-3.5458969,54.5450328],[-3.5450415,54.5516858],[-3.5532026,54.5608389],[-3.581795,54.5634658],[-3.5781555,54.5580858],[-3.5815726,54.5553427],[-3.5881242,54.5557833],[-3.5756416,54.5542065],[-3.5806249,54.5498132],[-3.5719273,54.5365157],[-3.5651011,54.5247121],[-3.5605846,54.5291799],[-3.5458969,54.5450328]]],"type":"Polygon"},"id":"E02004002","properties":{"code":"E02004002","geography":"MSOA","name":"Copeland 003"},"type":"Feature"},{"geometry":{"coordinates":[[[-3.4189485,54.5902763],[-3.4339913,54.5974662],[-3.4462169,54.5815419],[-3.4619981,54.5836997],[-3.481127,54.5811817],[-3.4853314,54.5840204],[-3.5139543,54.5770732],[-3.5296063,54.55443],[-3.5389183,54.5524101],[-3.5435586,54.5469403],[-3.5405238,54.5449685],[-3.5458969,54.5450328],[-3.5605846,54.5291799],[-3.5355455,54.5223264],[-3.5328781,54.5142155],[-3.5368292,54.5107508],[-3.5258848,54.5042392],[-3.5282519,54.4967746],[-3.5228894,54.4910203],[-3.5176498,54.4949856],[-3.4985443,54.4990573],[-3.480531,54.4983221],[-3.4780387,54.4959332],[-3.4584163,54.4989693],[-3.4510936,54.4949946],[-3.4595401,54.4774625],[-3.4446414,54.47671],[-3.4437867,54.4678644],[-3.4352033,54.4711891],[-3.4078844,54.4692634],[-3.4044442,54.4530929],[-3.3924372,54.4526065],[-3.3672238,54.460846],[-3.366897,54.4677504],[-3.3373854,54.487177],[-3.3214173,54.4845605],[-3.2881234,54.4931261],[-3.2813357,54.4973946],[-3.25219,54.493741],[-3.2440716,54.4833032],[-3.2240038,54.485646],[-3.2193174,54.4820158],[-3.2112339,54.4881735],[-3.2136218,54.4965837],[-3.2247128,54.5023281],[-3.2331532,54.5003665],[-3.2399092,54.5061748],[-3.2578372,54.5087464],[-3.3057806,54.5301258],[-3.3164554,54.5278072],[-3.3400368,54.5352262],[-3.3553444,54.5354718],[-3.3613521,54.5437502],[-3.366149,54.5446361],[-3.3643675,54.5507266],[-3.3769267,54.5646708],[-3.3782769,54.5759484],[-3.3860132,54.5765155],[-3.3933863,54.5859945],[-3.4081958,54.5863747],[-3.4189485,54.5902763]]],"type":"Polygon"},"id":"E02004003","properties":{"code":"E02004003","geography":"MSOA","name":"Copeland 004"},"type":"Feature"},{"geometry":{"coordinates":[[[-3.5719273,54.5365157],[-3.5804253,54.5368057],[-3.590881,54.5459298],[-3.6000278,54.5478696],[-3.6062566,54.5327594],[-3.6078985,54.531032],[-3.6080186,54.530721],[-3.6089095,54.5299683],[-3.6136063,54.5250255],[-3.6148233,54.5246017],[-3.6262611,54.5206181],[-3.6279468,54.5201852],[-3.6158207,54.5168553],[-3.6212528,54.508272],[-3.6176282,54.4986817],[-3.5924335,54.4974709],[-3.5913111,54.5136023],[-3.569688,54.5140325],[-3.5666188,54.5215479],[-3.5651011,54.5247121],[-3.5719273,54.5365157]]],"type":"Polygon"},"id":"E02004004","properties":{"code":"E02004004","geography":"MSOA","name":"Copeland 005"},"type":"Feature"},{"geometry":{"coordinates":[[[-3.5228894,54.4910203],[-3.5282519,54.4967746],[-3.5258848,54.5042392],[-3.5368292,54.5107508],[-3.5328781,54.5142155],[-3.5355455,54.5223264],[-3.5605846,54.5291799],[-3.5651011,54.5247121],[-3.5666188,54.5215479],[-3.553496,54.5128116],[-3.5580186,54.5123212],[-3.5549317,54.51023],[-3.5593732,54.5081055],[-3.5509893,54.5013716],[-3.5532252,54.4960787],[-3.5640835,54.4927643],[-3.5637994,54.4831864],[-3.5690463,54.4776206],[-3.5540509,54.4685612],[-3.5488685,54.4558407],[-3.5433707,54.468877],[-3.5385008,54.4682364],[-3.5343009,54.4773231],[-3.5200906,54.4762257],[-3.5256346,54.4864122],[-3.5228894,54.4910203]]],"type":"Polygon"},"id":"E02004005","properties":{"code":"E02004005","geography":"MSOA","name":"Copeland 006"},"type":"Feature"},{"geometry":{"coordinates":[[[-3.5228894,54.4910203],[-3.5256346,54.4864122],[-3.5200906,54.4762257],[-3.5343009,54.4773231],[-3.5385008,54.4682364],[-3.5433707,54.468877],[-3.5488685,54.4558407],[-3.5540509,54.4685612],[-3.5690463,54.4776206],[-3.5637994,54.4831864],[-3.5640835,54.4927643],[-3.5532252,54.4960787],[-3.5509893,54.5013716],[-3.5593732,54.5081055],[-3.5549317,54.51023],[-3.5580186,54.5123212],[-3.553496,54.5128116],[-3.5666188,54.5215479],[-3.569688,54.5140325],[-3.5913111,54.5136023],[-3.5924335,54.4974709],[-3.6176282,54.4986817],[-3.6212528,54.508272],[-3.6158207,54.5168553],[-3.6279468,54.5201852],[-3.6388949,54.5173726],[-3.6361648,54.507892],[-3.6349824,54.5066082],[-3.626989,54.5019715],[-3.6195736,54.4908962],[-3.6080052,54.4909464],[-3.5929864,54.482107],[-3.5778512,54.464786],[-3.5592881,54.4507438],[-3.5433417,54.438671],[-3.501451,54.4069117],[-3.5010254,54.4066389],[-3.4994741,54.4056446],[-3.4765584,54.3864437],[-3.476505,54.386399],[-3.4733749,54.3754831],[-3.4352853,54.343374],[-3.4268102,54.3430566],[-3.4173741,54.3489148],[-3.4175081,54.3532552],[-3.4298613,54.3557439],[-3.4226456,54.3596563],[-3.4120309,54.3577155],[-3.4154411,54.3634432],[-3.4045243,54.362011],[-3.4042247,54.3619717],[-3.404997,54.3616164],[-3.4050375,54.3615978],[-3.4042571,54.3615218],[-3.3915889,54.3708365],[-3.3764749,54.3745957],[-3.3671681,54.3840374],[-3.3466116,54.3834992],[-3.334516,54.3900701],[-3.3189625,54.3831562],[-3.317611,54.3771258],[-3.3263876,54.3729961],[-3.312291,54.3679794],[-3.3031914,54.3589986],[-3.2927149,54.3610229],[-3.2715975,54.3581571],[-3.243377,54.3630782],[-3.232559,54.3760237],[-3.2017712,54.3903514],[-3.1859212,54.4030693],[-3.1889638,54.4059505],[-3.1811669,54.4132441],[-3.1822302,54.4254577],[-3.1579413,54.4312978],[-3.1585883,54.4421693],[-3.161113,54.4470289],[-3.1662755,54.4477583],[-3.1671359,54.4541022],[-3.1748962,54.4545952],[-3.1843581,54.4624498],[-3.193116,54.4633351],[-3.200037,54.4736186],[-3.2193174,54.4820158],[-3.2240038,54.485646],[-3.2440716,54.4833032],[-3.25219,54.493741],[-3.2813357,54.4973946],[-3.2881234,54.4931261],[-3.3214173,54.4845605],[-3.3373854,54.487177],[-3.366897,54.4677504],[-3.3672238,54.460846],[-3.3924372,54.4526065],[-3.4044442,54.4530929],[-3.4078844,54.4692634],[-3.4352033,54.4711891],[-3.4437867,54.4678644],[-3.4446414,54.47671],[-3.4595401,54.4774625],[-3.4510936,54.4949946],[-3.4584163,54.4989693],[-3.4780387,54.4959332],[-3.480531,54.4983221],[-3.4985443,54.4990573],[-3.5176498,54.4949856],[-3.5228894,54.4910203]]],"type":"Polygon"},"id":"E02004006","properties":{"code":"E02004006","geography":"MSOA","name":"Copeland 007"},"type":"Feature"},{"geometry":{"coordinates":[[[[-3.2284857,54.2601406],[-3.2290394,54.2598964],[-3.2287446,54.2598527],[-3.2284857,54.2601406]]],[[[-3.2242817,54.2648154],[-3.2261978,54.2670602],[-3.2276895,54.261026],[-3.2242817,54.2648154]]],[[[-3.1359745,54.4218755],[-3.1579413,54.4312978],[-3.1822302,54.4254577],[-3.1811669,54.4132441],[-3.1889638,54.4059505],[-3.1859212,54.4030693],[-3.2017712,54.3903514],[-3.232559,54.3760237],[-3.243377,54.3630782],[-3.2715975,54.3581571],[-3.2927149,54.3610229],[-3.3031914,54.3589986],[-3.312291,54.3679794],[-3.3263876,54.3729961],[-3.317611,54.3771258],[-3.3189625,54.3831562],[-3.334516,54.3900701],[-3.3466116,54.3834992],[-3.3671681,54.3840374],[-3.3764749,54.3745957],[-3.3915889,54.3708365],[-3.4042571,54.3615218],[-3.4050375,54.3615978],[-3.4084188,54.3600425],[-3.4115003,54.3572741],[-3.404391,54.3379295],[-3.4118498,54.3380313],[-3.410038,54.3503453],[-3.4225338,54.3397654],[-3.4248844,54.3286985],[-3.4157419,54.3035794],[-3.4227303,54.2928472],[-3.4172397,54.2810602],[-3.3942155,54.2544308],[-3.3648961,54.2317434],[-3.3417707,54.2082575],[-3.3300391,54.196331],[-3.3143072,54.1885537],[-3.2905872,54.1907067],[-3.287755,54.1970233],[-3.2777421,54.1939445],[-3.2686951,54.1901169],[-3.2539817,54.19163],[-3.2392608,54.2031181],[-3.2493084,54.2092517],[-3.2497911,54.2095463],[-3.2514666,54.2158232],[-3.2563183,54.2147427],[-3.25501,54.2170608],[-3.2539541,54.2191403],[-3.2514823,54.2281527],[-3.2509935,54.2198538],[-3.2475407,54.2269632],[-3.2462932,54.2233836],[-3.2443831,54.226208],[-3.2432915,54.225276],[-3.2376286,54.2277503],[-3.2457618,54.2318189],[-3.2363681,54.2278675],[-3.2376518,54.2255471],[-3.2331228,54.2287636],[-3.24344,54.2340441],[-3.2354671,54.2313919],[-3.2383168,54.2336213],[-3.236739,54.2362189],[-3.2343882,54.2323045],[-3.2300333,54.2409406],[-3.2299863,54.2367284],[-3.2289402,54.2374701],[-3.2256373,54.2398116],[-3.2239196,54.2472009],[-3.2293066,54.2497858],[-3.2229061,54.251591],[-3.2295155,54.2568082],[-3.2337021,54.2601121],[-3.2328334,54.2617385],[-3.2321572,54.2600425],[-3.229684,54.2624739],[-3.2281015,54.2640296],[-3.2269113,54.267896],[-3.2273871,54.2684534],[-3.2252153,54.2734047],[-3.2245484,54.2755702],[-3.2278052,54.2776673],[-3.225539,54.2772493],[-3.2381651,54.294009],[-3.2309211,54.3146718],[-3.2395053,54.3172019],[-3.2418687,54.3235176],[-3.2184052,54.3360174],[-3.2185629,54.3449882],[-3.207083,54.3529499],[-3.1945972,54.3543434],[-3.189134,54.3682671],[-3.1809621,54.375354],[-3.1815257,54.3848441],[-3.1725955,54.3889821],[-3.1704218,54.39994],[-3.1593222,54.40716],[-3.1152578,54.4150127],[-3.1149303,54.4219826],[-3.1239926,54.4274987],[-3.128732,54.4215244],[-3.1359745,54.4218755]]]],"type":"MultiPolygon"},"id":"E02004007","properties":{"code":"E02004007","geography":"MSOA","name":"Copeland 008"},"type":"Feature"}],"type":"FeatureCollection"}
