{"features":[{"geometry":{"coordinates":[[[-3.5299368,50.5046002],[-3.5391162,50.504488],[-3.5436119,50.4974667],[-3.5383154,50.4918854],[-3.5423485,50.4852082],[-3.5349125,50.4833795],[-3.5231722,50.4954802],[-3.5299368,50.5046002]]],"type":"Polygon"},"id":"E02003154","properties":{"code":"E02003154","geography":"MSOA","name":"Torbay 001"},"type":"Feature"},{"geometry":{"coordinates":[[[-3.5091535,50.5166207],[-3.5208912,50.5176966],[-3.5199809,50.5110557],[-3.5299368,50.5046002],[-3.5231722,50.4954802],[-3.5349125,50.4833795],[-3.5355233,50.4795029],[-3.5316169,50.4791431],[-3.5213624,50.4780776],[-3.514576,50.4824681],[-3.5143542,50.4832687],[-3.5134329,50.4885702],[-3.5152099,50.496133],[-3.5091535,50.5166207]]],"type":"Polygon"},"id":"E02003155","properties":{"code":"E02003155","geography":"MSOA","name":"Torbay 002"},"type":"Feature"},{"geometry":{"coordinates":[[[-3.5423485,50.4852082],[-3.5383154,50.4918854],[-3.5436119,50.4974667],[-3.5610591,50.4944779],[-3.5647578,50.486981],[-3.5697662,50.4907169],[-3.5841576,50.4780198],[-3.5778643,50.4759122],[-3.5498687,50.477747],[-3.5502012,50.4827465],[-3.5423485,50.4852082]]],"type":"Polygon"},"id":"E02003156","properties":{"code":"E02003156","geography":"MSOA","name":"Torbay 003"},"type":"Feature"},{"geometry":{"coordinates":[[[-3.5349125,50.4833795],[-3.5423485,50.4852082],[-3.5502012,50.4827465],[-3.5498687,50.477747],[-3.5452129,50.4726068],[-3.5376167,50.4763914],[-3.5377059,50.4706555],[-3.5313334,50.4686689],[-3.5306515,50.4715371],[-3.5297306,50.4739994],[-3.5345174,50.4768792],[-3.5316169,50.4791431],[-3.5355233,50.4795029],[-3.5349125,50.4833795]]],"type":"Polygon"},"id":"E02003157","properties":{"code":"E02003157","geography":"MSOA","name":"Torbay 004"},"type":"Feature"},{"geometry":{"coordinates":[[[-3.5065827,50.4793096],[-3.5084669,50.4798594],[-3.5147878,50.4817037],[-3.514576,50.4824681],[-3.5213624,50.4780776],[-3.5316169,50.4791431],[-3.5345174,50.4768792],[-3.5297306,50.4739994],[-3.5215207,50.4765934],[-3.5151545,50.4753587],[-3.5131514,50.4712192],[-3.5010998,50.4770263],[-3.5014239,50.4771677],[-3.5022505,50.4775439],[-3.5065827,50.4793096]]],"type":"Polygon"},"id":"E02003158","properties":{"code":"E02003158","geography":"MSOA","name":"Torbay 005"},"type":"Feature"},{"geometry":{"coordinates":[[[-3.5131514,50.4712192],[-3.5151545,50.4753587],[-3.5215207,50.4765934],[-3.5297306,50.4739994],[-3.5306515,50.4715371],[-3.5273779,50.4691016],[-3.5240249,50.4704626],[-3.5243736,50.4683303],[-3.5152812,50.4687044],[-3.5131514,50.4712192]]],"type":"Polygon"},"id":"E02003159","properties":{"code":"E02003159","geography":"MSOA","name":"Torbay 006"},"type":"Feature"},{"geometry":{"coordinates":[[[[-3.5251568,50.4573469],[-3.5237929,50.4574006],[-3.5232353,50.4574225],[-3.523644,50.4612964],[-3.5271201,50.4585702],[-3.5288662,50.4572007],[-3.5251568,50.4573469]]],[[[-3.5377059,50.4706555],[-3.5376167,50.4763914],[-3.5452129,50.4726068],[-3.5401631,50.4605051],[-3.5401317,50.4605403],[-3.5340107,50.4631075],[-3.5306125,50.4610803],[-3.5306715,50.460783],[-3.5308443,50.4599131],[-3.5294265,50.4579619],[-3.5291213,50.4577669],[-3.530116,50.4604369],[-3.5303813,50.4611487],[-3.523652,50.4613734],[-3.5243736,50.4683303],[-3.5240249,50.4704626],[-3.5273779,50.4691016],[-3.5306515,50.4715371],[-3.5313334,50.4686689],[-3.5377059,50.4706555]]]],"type":"MultiPolygon"},"id":"E02003161","properties":{"code":"E02003161","geography":"MSOA","name":"Torbay 008"},"type":"Feature"},{"geometry":{"coordinates":[[[[-3.4961195,50.3815443],[-3.4961364,50.3817345],[-3.4964212,50.3818144],[-3.4962449,50.3819157],[-3.4976446,50.3834084],[-3.4983031,50.3840205],[-3.5005543,50.3843418],[-3.496256,50.3814936],[-3.4961195,50.3815443]]],[[[-3.5020226,50.3878929],[-3.5017752,50.3885629],[-3.5029291,50.3859152],[-3.5027875,50.3858213],[-3.5020226,50.3878929]]],[[[-3.4885698,50.3943752],[-3.4888595,50.3944624],[-3.4889255,50.3946546],[-3.4893637,50.3942909],[-3.4885698,50.3943752]]],[[[-3.5062249,50.3995475],[-3.5063295,50.3995051],[-3.5106561,50.3977491],[-3.5114371,50.3980105],[-3.5114762,50.3965495],[-3.5062249,50.3995475]]],[[[-3.4846427,50.3980015],[-3.4844833,50.3980907],[-3.4840272,50.3983147],[-3.4836277,50.398444],[-3.482913,50.3986642],[-3.4826162,50.3987674],[-3.4824187,50.3989838],[-3.4824377,50.3996745],[-3.482397,50.3998811],[-3.4824039,50.400048],[-3.4826023,50.3998896],[-3.48489,50.3979946],[-3.4846427,50.3980015]]],[[[-3.4836905,50.4004562],[-3.484124,50.4005046],[-3.4853336,50.4005787],[-3.4858731,50.4005825],[-3.4834666,50.4002763],[-3.4836905,50.4004562]]],[[[-3.4867062,50.4008515],[-3.4873558,50.4008537],[-3.4875106,50.4007908],[-3.485975,50.4005917],[-3.4861786,50.4008036],[-3.4864161,50.4007937],[-3.4867062,50.4008515]]],[[[-3.5195264,50.403171],[-3.5224132,50.4023709],[-3.5161977,50.4007604],[-3.5195264,50.403171]]],[[[-3.5107238,50.4041357],[-3.5117384,50.4048067],[-3.5059027,50.4005495],[-3.5052626,50.4000969],[-3.5107238,50.4041357]]],[[[-3.526866,50.4042548],[-3.5280727,50.4047157],[-3.5299118,50.4047554],[-3.5239307,50.4028427],[-3.526866,50.4042548]]],[[[-3.531823,50.4047967],[-3.5331184,50.4048246],[-3.5354901,50.4044929],[-3.5393355,50.4034958],[-3.531823,50.4047967]]],[[[-3.5469095,50.4048282],[-3.5508363,50.4057214],[-3.5450343,50.4025078],[-3.5469095,50.4048282]]],[[[-3.5552491,50.4281982],[-3.5552735,50.428517],[-3.556155,50.4281693],[-3.5560883,50.4281694],[-3.5552491,50.4281982]]],[[[-3.5555832,50.4325634],[-3.5556911,50.4325574],[-3.5555737,50.4324403],[-3.5555832,50.4325634]]],[[[-3.5308443,50.4599131],[-3.5310286,50.4589854],[-3.5294265,50.4579619],[-3.5308443,50.4599131]]],[[[-3.4919724,50.4704885],[-3.5010915,50.4718749],[-3.4972811,50.4758515],[-3.5010998,50.4770263],[-3.5131514,50.4712192],[-3.5152812,50.4687044],[-3.5243736,50.4683303],[-3.523652,50.4613734],[-3.5235411,50.4613771],[-3.523644,50.4612964],[-3.5232353,50.4574225],[-3.5159618,50.4538152],[-3.5041273,50.4596294],[-3.4912521,50.4582087],[-3.483418,50.4603846],[-3.4808103,50.4640432],[-3.488998,50.4638182],[-3.4919724,50.4704885]]],[[[-3.505321,50.4789414],[-3.5065827,50.4793096],[-3.5022505,50.4775439],[-3.505321,50.4789414]]],[[[-3.5142738,50.4835589],[-3.5137323,50.4853609],[-3.5135196,50.4854271],[-3.5132208,50.4855027],[-3.5129854,50.485629],[-3.5130062,50.485906],[-3.512829,50.4859994],[-3.5134329,50.4885702],[-3.5143542,50.4832687],[-3.5142738,50.4835589]]]],"type":"MultiPolygon"},"id":"E02003163","properties":{"code":"E02003163","geography":"MSOA","name":"Torbay 010"},"type":"Feature"},{"geometry":{"coordinates":[[[-3.5525911,50.4495561],[-3.5723976,50.457909],[-3.5872056,50.4569715],[-3.5886555,50.4505646],[-3.5856408,50.4489889],[-3.5748088,50.4471422],[-3.5672578,50.440584],[-3.5697327,50.4427728],[-3.5657466,50.4452987],[-3.5564417,50.4427319],[-3.5531535,50.4493171],[-3.5525911,50.4495561]]],"type":"Polygon"},"id":"E02003164","properties":{"code":"E02003164","geography":"MSOA","name":"Torbay 011"},"type":"Feature"},{"geometry":{"coordinates":[[[-3.5672578,50.440584],[-3.5748088,50.4471422],[-3.5856408,50.4489889],[-3.578759,50.4400349],[-3.5843615,50.4352534],[-3.5821946,50.4295361],[-3.5779821,50.4304631],[-3.5672578,50.440584]]],"type":"Polygon"},"id":"E02003165","properties":{"code":"E02003165","geography":"MSOA","name":"Torbay 012"},"type":"Feature"},{"geometry":{"coordinates":[[[-3.5856408,50.4489889],[-3.5886555,50.4505646],[-3.6127587,50.4469817],[-3.6250571,50.4413012],[-3.6280244,50.426004],[-3.6238237,50.4227014],[-3.6139014,50.42283],[-3.6132232,50.4145228],[-3.5990294,50.4092848],[-3.5798339,50.4102209],[-3.5764445,50.4105714],[-3.5790561,50.4145129],[-3.5877257,50.4223467],[-3.5880646,50.4287332],[-3.5821946,50.4295361],[-3.5843615,50.4352534],[-3.578759,50.4400349],[-3.5856408,50.4489889]]],"type":"Polygon"},"id":"E02003166","properties":{"code":"E02003166","geography":"MSOA","name":"Torbay 013"},"type":"Feature"},{"geometry":{"coordinates":[[[-3.5564417,50.4427319],[-3.5657466,50.4452987],[-3.5697327,50.4427728],[-3.5672578,50.440584],[-3.5779821,50.4304631],[-3.5713725,50.4281127],[-3.566194,50.4324327],[-3.5639626,50.4285105],[-3.5584581,50.427825],[-3.5570167,50.4281677],[-3.556155,50.4281693],[-3.5552735,50.428517],[-3.5552888,50.4287175],[-3.5553448,50.4294487],[-3.5554871,50.4313088],[-3.5555737,50.4324403],[-3.5556911,50.4325574],[-3.5560546,50.4325371],[-3.5576019,50.4328485],[-3.5590684,50.4331301],[-3.5577848,50.4400416],[-3.5564417,50.4427319]]],"type":"Polygon"},"id":"E02003167","properties":{"code":"E02003167","geography":"MSOA","name":"Torbay 014"},"type":"Feature"},{"geometry":{"coordinates":[[[-3.5584581,50.427825],[-3.5639626,50.4285105],[-3.566194,50.4324327],[-3.5713725,50.4281127],[-3.5779821,50.4304631],[-3.5821946,50.4295361],[-3.5880646,50.4287332],[-3.5877257,50.4223467],[-3.5790561,50.4145129],[-3.5568449,50.4161871],[-3.5568576,50.4162561],[-3.5590724,50.427679],[-3.5584581,50.427825]]],"type":"Polygon"},"id":"E02003168","properties":{"code":"E02003168","geography":"MSOA","name":"Torbay 015"},"type":"Feature"},{"geometry":{"coordinates":[[[-3.5508363,50.4057214],[-3.5551044,50.4066921],[-3.5567818,50.4158425],[-3.5568449,50.4161871],[-3.5790561,50.4145129],[-3.5764445,50.4105714],[-3.5798339,50.4102209],[-3.5788618,50.4041696],[-3.5736004,50.4021857],[-3.5747615,50.3941672],[-3.5646247,50.3921689],[-3.5561025,50.3786847],[-3.5442402,50.373499],[-3.5366626,50.3759465],[-3.5332944,50.3787956],[-3.5396907,50.382662],[-3.5234459,50.3877497],[-3.5291262,50.3888875],[-3.5348787,50.3930159],[-3.522844,50.4023291],[-3.5238689,50.4028198],[-3.5239307,50.4028427],[-3.5299118,50.4047554],[-3.531823,50.4047967],[-3.5393355,50.4034958],[-3.5393836,50.4034861],[-3.5446865,50.4021146],[-3.5450343,50.4025078],[-3.5508363,50.4057214]]],"type":"Polygon"},"id":"E02003169","properties":{"code":"E02003169","geography":"MSOA","name":"Torbay 016"},"type":"Feature"},{"geometry":{"coordinates":[[[-3.4875106,50.4007908],[-3.4876414,50.4007376],[-3.4896775,50.4007214],[-3.4903194,50.4009075],[-3.4932159,50.4012858],[-3.4934447,50.4012667],[-3.5044645,50.399996],[-3.5107238,50.4041357],[-3.5052626,50.4000969],[-3.50513,50.3999918],[-3.5062249,50.3995475],[-3.5114762,50.3965495],[-3.5114371,50.3980105],[-3.5132162,50.398606],[-3.5134961,50.3988037],[-3.5161977,50.4007604],[-3.5224132,50.4023709],[-3.5224536,50.4023597],[-3.522811,50.4023133],[-3.522844,50.4023291],[-3.5348787,50.3930159],[-3.5291262,50.3888875],[-3.522774,50.3921632],[-3.5202634,50.3898465],[-3.5013846,50.3896205],[-3.5013494,50.3897159],[-3.4948066,50.3916893],[-3.4948039,50.3915594],[-3.4938276,50.3915868],[-3.4927998,50.3919173],[-3.4926387,50.3920273],[-3.4926618,50.3921672],[-3.492882,50.3923139],[-3.492119,50.3926002],[-3.4923112,50.3937184],[-3.4921617,50.3935777],[-3.4915185,50.3935091],[-3.4901951,50.3941569],[-3.4900741,50.3942742],[-3.4898796,50.3942407],[-3.4893637,50.3942909],[-3.4889255,50.3946546],[-3.4892605,50.39563],[-3.4895136,50.3957141],[-3.4894744,50.3962595],[-3.489276,50.3966559],[-3.4880024,50.3979143],[-3.487748,50.3979237],[-3.48671,50.3979694],[-3.486072,50.3980479],[-3.48489,50.3979946],[-3.4826023,50.3998896],[-3.4830757,50.4001781],[-3.4834277,50.400245],[-3.4834666,50.4002763],[-3.4858731,50.4005825],[-3.485975,50.4005917],[-3.4875106,50.4007908]]],"type":"Polygon"},"id":"E02003170","properties":{"code":"E02003170","geography":"MSOA","name":"Torbay 017"},"type":"Feature"},{"geometry":{"coordinates":[[[-3.5013846,50.3896205],[-3.5202634,50.3898465],[-3.522774,50.3921632],[-3.5291262,50.3888875],[-3.5234459,50.3877497],[-3.5396907,50.382662],[-3.5332944,50.3787956],[-3.5366626,50.3759465],[-3.507858,50.3789692],[-3.5076157,50.3791715],[-3.4972688,50.3812059],[-3.4965265,50.3813931],[-3.496256,50.3814936],[-3.5005543,50.3843418],[-3.5031946,50.3847185],[-3.5027875,50.3858213],[-3.5029291,50.3859152],[-3.5017752,50.3885629],[-3.5015679,50.3891242],[-3.5013846,50.3896205]]],"type":"Polygon"},"id":"E02003171","properties":{"code":"E02003171","geography":"MSOA","name":"Torbay 018"},"type":"Feature"},{"geometry":{"coordinates":[[[-3.5498687,50.477747],[-3.5778643,50.4759122],[-3.5841576,50.4780198],[-3.5842337,50.4777374],[-3.5827855,50.469025],[-3.5914673,50.4596645],[-3.5872056,50.4569715],[-3.5723976,50.457909],[-3.5525911,50.4495561],[-3.5448159,50.4528697],[-3.5444996,50.4530459],[-3.5403827,50.4601425],[-3.540224,50.4603941],[-3.5401631,50.4605051],[-3.5452129,50.4726068],[-3.5498687,50.477747]]],"type":"Polygon"},"id":"E02006840","properties":{"code":"E02006840","geography":"MSOA","name":"Torbay 019"},"type":"Feature"}],"type":"FeatureCollection"}
