{"features":[{"geometry":{"coordinates":[[[-2.27485,51.3246381],[-2.2890932,51.3252757],[-2.3248206,51.3135635],[-2.3325235,51.3084475],[-2.3416067,51.309699],[-2.3686399,51.3011179],[-2.3815767,51.3000891],[-2.3871822,51.2946478],[-2.3918925,51.2953756],[-2.3998276,51.3048936],[-2.4202601,51.2966255],[-2.4173908,51.2921387],[-2.4113059,51.2751143],[-2.403431,51.2728145],[-2.4000617,51.2662251],[-2.4115444,51.2630032],[-2.4240663,51.2545771],[-2.4200454,51.2520658],[-2.4256017,51.2522118],[-2.4339969,51.2397485],[-2.4313328,51.2311914],[-2.4254395,51.2298035],[-2.4248123,51.2198738],[-2.4180609,51.2154174],[-2.3973394,51.2132398],[-2.3783534,51.2150957],[-2.3762297,51.2209851],[-2.3667204,51.2244393],[-2.355217,51.2147035],[-2.3446169,51.2150957],[-2.347865,51.2118623],[-2.3438703,51.2090062],[-2.3704416,51.2020207],[-2.385331,51.201934],[-2.380625,51.1985125],[-2.3830905,51.1958448],[-2.3668746,51.1914017],[-2.3664298,51.1856707],[-2.3580713,51.1775579],[-2.3446169,51.1781351],[-2.342834,51.181142],[-2.3359406,51.17124],[-2.3385394,51.1687005],[-2.3162801,51.1605837],[-2.3008629,51.1741331],[-2.2666681,51.2155388],[-2.269765,51.2189579],[-2.263768,51.2343779],[-2.2528649,51.2473561],[-2.2453449,51.2538809],[-2.2495869,51.2589708],[-2.244434,51.2631238],[-2.2452394,51.2725656],[-2.2535,51.289839],[-2.2652895,51.2928629],[-2.2652556,51.2962241],[-2.2800451,51.2923076],[-2.2814949,51.2986741],[-2.2767678,51.3040014],[-2.2850817,51.3093928],[-2.271957,51.3142579],[-2.27485,51.3246381]],[[-2.3218834,51.2425191],[-2.3124219,51.2453657],[-2.290913,51.2397788],[-2.3009387,51.2263753],[-2.3068082,51.2163935],[-2.3124935,51.2176946],[-2.3195567,51.2137543],[-2.3238934,51.2176629],[-2.3383459,51.2147131],[-2.3401416,51.2200266],[-2.3355445,51.2242273],[-2.341359,51.2265665],[-2.3392651,51.2355047],[-2.3321506,51.234767],[-2.3326291,51.2319646],[-2.3238009,51.2332278],[-2.3277534,51.2401367],[-2.3262459,51.2431829],[-2.3218834,51.2425191]]],"type":"Polygon"},"id":"E02006047","properties":{"code":"E02006047","geography":"MSOA","name":"Mendip 001"},"type":"Feature"},{"geometry":{"coordinates":[[[-2.4339969,51.2397485],[-2.4256017,51.2522118],[-2.4200454,51.2520658],[-2.4240663,51.2545771],[-2.4115444,51.2630032],[-2.4000617,51.2662251],[-2.403431,51.2728145],[-2.4113059,51.2751143],[-2.4173908,51.2921387],[-2.4300643,51.2846475],[-2.4390472,51.2851905],[-2.4460155,51.2808409],[-2.4443116,51.277416],[-2.4524049,51.277118],[-2.4517231,51.2742558],[-2.4558748,51.2737371],[-2.4737538,51.2779716],[-2.4780012,51.2731013],[-2.5063547,51.2789957],[-2.5148965,51.2745991],[-2.5155503,51.2684863],[-2.5196621,51.2694356],[-2.5223791,51.2641957],[-2.5324627,51.2602909],[-2.5299936,51.2546956],[-2.5341017,51.2470211],[-2.5140597,51.2448602],[-2.5060633,51.2357674],[-2.4963219,51.232322],[-2.4875501,51.2307799],[-2.4773051,51.2374997],[-2.458082,51.2324483],[-2.4339969,51.2397485]]],"type":"Polygon"},"id":"E02006048","properties":{"code":"E02006048","geography":"MSOA","name":"Mendip 002"},"type":"Feature"},{"geometry":{"coordinates":[[[-2.3009387,51.2263753],[-2.290913,51.2397788],[-2.3124219,51.2453657],[-2.3218834,51.2425191],[-2.3250055,51.2400025],[-2.3172922,51.2402597],[-2.3163832,51.2344514],[-2.3081552,51.2361467],[-2.3018671,51.2340407],[-2.3070281,51.2290035],[-2.3009387,51.2263753]]],"type":"Polygon"},"id":"E02006049","properties":{"code":"E02006049","geography":"MSOA","name":"Mendip 003"},"type":"Feature"},{"geometry":{"coordinates":[[[-2.3218834,51.2425191],[-2.3262459,51.2431829],[-2.3277534,51.2401367],[-2.3238009,51.2332278],[-2.3326291,51.2319646],[-2.3321506,51.234767],[-2.3392651,51.2355047],[-2.341359,51.2265665],[-2.3321256,51.2296898],[-2.3311923,51.2250037],[-2.3157994,51.2256773],[-2.3144761,51.2291403],[-2.3220744,51.230895],[-2.3163832,51.2344514],[-2.3172922,51.2402597],[-2.3250055,51.2400025],[-2.3218834,51.2425191]]],"type":"Polygon"},"id":"E02006050","properties":{"code":"E02006050","geography":"MSOA","name":"Mendip 004"},"type":"Feature"},{"geometry":{"coordinates":[[[-2.6948762,51.3180978],[-2.6968516,51.3161442],[-2.7168373,51.3168048],[-2.720922,51.321531],[-2.7280591,51.3172301],[-2.7539364,51.3197782],[-2.754802,51.3245518],[-2.764639,51.3225807],[-2.7656263,51.3090343],[-2.7362988,51.3065212],[-2.7327836,51.3041201],[-2.7372329,51.2905121],[-2.7329843,51.2822206],[-2.7226782,51.2800502],[-2.714965,51.2817476],[-2.7205865,51.2755923],[-2.7098893,51.2701122],[-2.7271957,51.2612221],[-2.738686,51.2664523],[-2.7598876,51.2577833],[-2.7660298,51.2509696],[-2.7780151,51.2469457],[-2.7796058,51.2358634],[-2.7790875,51.2294437],[-2.7609737,51.2292887],[-2.7588563,51.2247416],[-2.7515328,51.2241972],[-2.7514375,51.2125111],[-2.7473844,51.2116529],[-2.7459393,51.2062776],[-2.7391356,51.1988889],[-2.726756,51.1944596],[-2.7220623,51.1851567],[-2.7288557,51.1813388],[-2.7231884,51.1803129],[-2.7170626,51.1698571],[-2.6978666,51.1675739],[-2.6477406,51.1799495],[-2.6399544,51.1852264],[-2.6431662,51.1918064],[-2.6546058,51.1950167],[-2.6306915,51.2024351],[-2.6319792,51.2051297],[-2.6579172,51.197643],[-2.6688394,51.2020599],[-2.6635173,51.2133654],[-2.6521647,51.2150319],[-2.6469172,51.210508],[-2.6407494,51.2104188],[-2.6359481,51.2188115],[-2.6403467,51.2203085],[-2.6298247,51.2309057],[-2.6298598,51.2525694],[-2.6471206,51.2520599],[-2.6650283,51.2636526],[-2.674671,51.2630597],[-2.6817177,51.2679698],[-2.6764386,51.2707035],[-2.6538724,51.2702518],[-2.6129922,51.2841524],[-2.6184503,51.2862296],[-2.6246967,51.2853889],[-2.6249826,51.282484],[-2.6299785,51.2835614],[-2.6382927,51.288282],[-2.6386966,51.2948268],[-2.6599883,51.3025965],[-2.6667922,51.3024491],[-2.6624822,51.3065639],[-2.6677062,51.3099539],[-2.6948762,51.3180978]]],"type":"Polygon"},"id":"E02006051","properties":{"code":"E02006051","geography":"MSOA","name":"Mendip 005"},"type":"Feature"},{"geometry":{"coordinates":[[[-2.4966699,51.2905253],[-2.5280013,51.2931656],[-2.5500102,51.3005203],[-2.5541622,51.2986907],[-2.5528011,51.3013218],[-2.5578217,51.3026657],[-2.5822798,51.2919344],[-2.5954642,51.2961905],[-2.59654,51.2907709],[-2.6129922,51.2841524],[-2.6538724,51.2702518],[-2.6764386,51.2707035],[-2.6817177,51.2679698],[-2.674671,51.2630597],[-2.6650283,51.2636526],[-2.6471206,51.2520599],[-2.6298598,51.2525694],[-2.6298247,51.2309057],[-2.6403467,51.2203085],[-2.6359481,51.2188115],[-2.6286402,51.2180581],[-2.6335597,51.2143238],[-2.628941,51.2127435],[-2.6333713,51.2135393],[-2.634395,51.2108844],[-2.6233546,51.2087024],[-2.6319792,51.2051297],[-2.6306915,51.2024351],[-2.6546058,51.1950167],[-2.6431662,51.1918064],[-2.6399544,51.1852264],[-2.6286551,51.18154],[-2.6240372,51.1834268],[-2.61437,51.1790019],[-2.5990495,51.1820631],[-2.6011826,51.1974551],[-2.5780171,51.2082656],[-2.5645619,51.2216962],[-2.5528197,51.2280071],[-2.5464604,51.2261295],[-2.5604739,51.2060275],[-2.554721,51.2046144],[-2.5556066,51.1967457],[-2.5525931,51.1980746],[-2.553597,51.1961187],[-2.5451447,51.1936266],[-2.5465857,51.1846823],[-2.539653,51.1885964],[-2.5363201,51.183756],[-2.534822,51.1875146],[-2.526917,51.184744],[-2.5249909,51.1882052],[-2.5290691,51.1894009],[-2.5150898,51.2274285],[-2.5004392,51.228732],[-2.4963219,51.232322],[-2.5060633,51.2357674],[-2.5140597,51.2448602],[-2.5341017,51.2470211],[-2.5299936,51.2546956],[-2.5324627,51.2602909],[-2.5223791,51.2641957],[-2.5196621,51.2694356],[-2.5155503,51.2684863],[-2.5148965,51.2745991],[-2.5063547,51.2789957],[-2.4965363,51.2874541],[-2.4966699,51.2905253]]],"type":"Polygon"},"id":"E02006052","properties":{"code":"E02006052","geography":"MSOA","name":"Mendip 006"},"type":"Feature"},{"geometry":{"coordinates":[[[-2.3009387,51.2263753],[-2.3070281,51.2290035],[-2.3018671,51.2340407],[-2.3081552,51.2361467],[-2.3163832,51.2344514],[-2.3220744,51.230895],[-2.3144761,51.2291403],[-2.3157994,51.2256773],[-2.3311923,51.2250037],[-2.3321256,51.2296898],[-2.341359,51.2265665],[-2.3355445,51.2242273],[-2.3401416,51.2200266],[-2.3383459,51.2147131],[-2.3238934,51.2176629],[-2.3195567,51.2137543],[-2.3124935,51.2176946],[-2.3068082,51.2163935],[-2.3009387,51.2263753]]],"type":"Polygon"},"id":"E02006053","properties":{"code":"E02006053","geography":"MSOA","name":"Mendip 007"},"type":"Feature"},{"geometry":{"coordinates":[[[-2.6319792,51.2051297],[-2.6233546,51.2087024],[-2.634395,51.2108844],[-2.6333713,51.2135393],[-2.628941,51.2127435],[-2.6335597,51.2143238],[-2.6286402,51.2180581],[-2.6359481,51.2188115],[-2.6407494,51.2104188],[-2.6469172,51.210508],[-2.6521647,51.2150319],[-2.6635173,51.2133654],[-2.6688394,51.2020599],[-2.6579172,51.197643],[-2.6319792,51.2051297]]],"type":"Polygon"},"id":"E02006054","properties":{"code":"E02006054","geography":"MSOA","name":"Mendip 008"},"type":"Feature"},{"geometry":{"coordinates":[[[-2.5249909,51.1882052],[-2.526917,51.184744],[-2.534822,51.1875146],[-2.5363201,51.183756],[-2.539653,51.1885964],[-2.5465857,51.1846823],[-2.5451447,51.1936266],[-2.553597,51.1961187],[-2.5525931,51.1980746],[-2.5556066,51.1967457],[-2.5782871,51.1946458],[-2.5798579,51.1918487],[-2.5654515,51.190299],[-2.5571745,51.180675],[-2.539123,51.1764011],[-2.5372946,51.1693842],[-2.5200773,51.1736477],[-2.5249909,51.1882052]]],"type":"Polygon"},"id":"E02006055","properties":{"code":"E02006055","geography":"MSOA","name":"Mendip 009"},"type":"Feature"},{"geometry":{"coordinates":[[[-2.3162801,51.1605837],[-2.3385394,51.1687005],[-2.3359406,51.17124],[-2.342834,51.181142],[-2.3446169,51.1781351],[-2.3580713,51.1775579],[-2.3664298,51.1856707],[-2.3668746,51.1914017],[-2.3830905,51.1958448],[-2.380625,51.1985125],[-2.385331,51.201934],[-2.3704416,51.2020207],[-2.3438703,51.2090062],[-2.347865,51.2118623],[-2.3446169,51.2150957],[-2.355217,51.2147035],[-2.3667204,51.2244393],[-2.3762297,51.2209851],[-2.3783534,51.2150957],[-2.3973394,51.2132398],[-2.4180609,51.2154174],[-2.4248123,51.2198738],[-2.4254395,51.2298035],[-2.4313328,51.2311914],[-2.4339969,51.2397485],[-2.458082,51.2324483],[-2.4773051,51.2374997],[-2.4875501,51.2307799],[-2.4963219,51.232322],[-2.5004392,51.228732],[-2.5150898,51.2274285],[-2.5290691,51.1894009],[-2.5249909,51.1882052],[-2.5200773,51.1736477],[-2.5372946,51.1693842],[-2.5446368,51.1518264],[-2.5378026,51.1523273],[-2.5362965,51.1470944],[-2.5293732,51.1449905],[-2.5343177,51.1331999],[-2.5015457,51.1217922],[-2.4924983,51.1250049],[-2.4896343,51.1297045],[-2.466376,51.1242198],[-2.4544017,51.1225515],[-2.4435539,51.132238],[-2.4348164,51.1332079],[-2.4281554,51.1432936],[-2.4178111,51.1408601],[-2.4080331,51.1477177],[-2.401291,51.1403398],[-2.3904567,51.1441172],[-2.3709864,51.1433533],[-2.3463073,51.1305164],[-2.3458613,51.1333746],[-2.3322477,51.1379001],[-2.33229,51.1449634],[-2.3162801,51.1605837]]],"type":"Polygon"},"id":"E02006056","properties":{"code":"E02006056","geography":"MSOA","name":"Mendip 010"},"type":"Feature"},{"geometry":{"coordinates":[[[-2.6978666,51.1675739],[-2.7170626,51.1698571],[-2.7254921,51.1647576],[-2.7303265,51.1561849],[-2.7192222,51.1491181],[-2.72071,51.143946],[-2.7339387,51.1401571],[-2.7352921,51.1368926],[-2.713091,51.1348261],[-2.6983483,51.1325313],[-2.6847679,51.1268764],[-2.6824401,51.1228256],[-2.667513,51.1233316],[-2.6699716,51.1320957],[-2.664265,51.1359433],[-2.6684954,51.1373609],[-2.6637431,51.1400326],[-2.663489,51.1604121],[-2.6701349,51.1644691],[-2.6978666,51.1675739]]],"type":"Polygon"},"id":"E02006057","properties":{"code":"E02006057","geography":"MSOA","name":"Mendip 011"},"type":"Feature"},{"geometry":{"coordinates":[[[-2.7170626,51.1698571],[-2.7231884,51.1803129],[-2.7288557,51.1813388],[-2.7220623,51.1851567],[-2.726756,51.1944596],[-2.7391356,51.1988889],[-2.7459393,51.2062776],[-2.793831,51.2043474],[-2.807038,51.179759],[-2.8372111,51.19138],[-2.8426817,51.1729464],[-2.7860081,51.1529559],[-2.7860946,51.1399557],[-2.7898701,51.139646],[-2.7870941,51.1364924],[-2.796588,51.1315072],[-2.7931635,51.1297961],[-2.79678,51.1282132],[-2.7889822,51.1246171],[-2.7861073,51.1124358],[-2.8243073,51.1203717],[-2.8198683,51.1079386],[-2.7944153,51.1078026],[-2.7896896,51.0984097],[-2.7466965,51.095349],[-2.7376258,51.1070456],[-2.7284625,51.1041874],[-2.7256981,51.1143498],[-2.7163722,51.1181111],[-2.7313034,51.1250123],[-2.744221,51.117519],[-2.7463553,51.1218063],[-2.7522473,51.1212646],[-2.7584937,51.1270157],[-2.7583585,51.1340304],[-2.7514379,51.1408777],[-2.7446464,51.1426324],[-2.7352921,51.1368926],[-2.7339387,51.1401571],[-2.72071,51.143946],[-2.7192222,51.1491181],[-2.7303265,51.1561849],[-2.7254921,51.1647576],[-2.7170626,51.1698571]]],"type":"Polygon"},"id":"E02006058","properties":{"code":"E02006058","geography":"MSOA","name":"Mendip 012"},"type":"Feature"},{"geometry":{"coordinates":[[[-2.5556066,51.1967457],[-2.554721,51.2046144],[-2.5604739,51.2060275],[-2.5464604,51.2261295],[-2.5528197,51.2280071],[-2.5645619,51.2216962],[-2.5780171,51.2082656],[-2.6011826,51.1974551],[-2.5990495,51.1820631],[-2.61437,51.1790019],[-2.6240372,51.1834268],[-2.6286551,51.18154],[-2.6399544,51.1852264],[-2.6477406,51.1799495],[-2.6978666,51.1675739],[-2.6701349,51.1644691],[-2.663489,51.1604121],[-2.6637431,51.1400326],[-2.6684954,51.1373609],[-2.664265,51.1359433],[-2.6699716,51.1320957],[-2.667513,51.1233316],[-2.6824401,51.1228256],[-2.6847679,51.1268764],[-2.6983483,51.1325313],[-2.713091,51.1348261],[-2.711129,51.1198468],[-2.7163722,51.1181111],[-2.7256981,51.1143498],[-2.7284625,51.1041874],[-2.7202119,51.1018812],[-2.7074092,51.0916387],[-2.7154264,51.0881908],[-2.7154645,51.077726],[-2.7058484,51.0720403],[-2.7059924,51.0762507],[-2.7106237,51.0776047],[-2.7081499,51.080214],[-2.6973392,51.0762361],[-2.6745107,51.0834318],[-2.6639561,51.0992736],[-2.6483875,51.1021071],[-2.6456008,51.0932814],[-2.6392196,51.0879401],[-2.634395,51.0882406],[-2.6425228,51.0826467],[-2.6344619,51.0643353],[-2.6133435,51.0651414],[-2.6115027,51.0700276],[-2.5980083,51.0702871],[-2.6013003,51.0846547],[-2.5860876,51.0842539],[-2.5917011,51.0901695],[-2.6011569,51.0889855],[-2.5980959,51.0984125],[-2.5893807,51.0907162],[-2.5792373,51.088786],[-2.5009221,51.1071013],[-2.5017446,51.1127314],[-2.4820734,51.1192942],[-2.4707856,51.1191136],[-2.4648224,51.1218288],[-2.466376,51.1242198],[-2.4896343,51.1297045],[-2.4924983,51.1250049],[-2.5015457,51.1217922],[-2.5343177,51.1331999],[-2.5293732,51.1449905],[-2.5362965,51.1470944],[-2.5378026,51.1523273],[-2.5446368,51.1518264],[-2.5372946,51.1693842],[-2.539123,51.1764011],[-2.5571745,51.180675],[-2.5654515,51.190299],[-2.5798579,51.1918487],[-2.5782871,51.1946458],[-2.5556066,51.1967457]]],"type":"Polygon"},"id":"E02006059","properties":{"code":"E02006059","geography":"MSOA","name":"Mendip 013"},"type":"Feature"},{"geometry":{"coordinates":[[[-2.7352921,51.1368926],[-2.7446464,51.1426324],[-2.7514379,51.1408777],[-2.7583585,51.1340304],[-2.7584937,51.1270157],[-2.7522473,51.1212646],[-2.7463553,51.1218063],[-2.744221,51.117519],[-2.7313034,51.1250123],[-2.7163722,51.1181111],[-2.711129,51.1198468],[-2.713091,51.1348261],[-2.7352921,51.1368926]]],"type":"Polygon"},"id":"E02006060","properties":{"code":"E02006060","geography":"MSOA","name":"Mendip 014"},"type":"Feature"},{"geometry":{"coordinates":[[[-2.764639,51.3225807],[-2.7984615,51.3269715],[-2.8186675,51.3263686],[-2.8179253,51.3190628],[-2.8078035,51.3148852],[-2.8074346,51.3116174],[-2.8120616,51.3107138],[-2.8102307,51.3014282],[-2.8302889,51.3007137],[-2.8268775,51.2862457],[-2.8330047,51.2796076],[-2.8256423,51.2748004],[-2.8391568,51.2749639],[-2.8381585,51.2720948],[-2.831397,51.2716592],[-2.8326494,51.2683964],[-2.8272227,51.2675155],[-2.8239349,51.2607984],[-2.8185127,51.2620368],[-2.8177316,51.2655196],[-2.8129478,51.2617304],[-2.8161209,51.258901],[-2.8023646,51.2593918],[-2.7905634,51.2515843],[-2.7974335,51.247574],[-2.7923408,51.2409367],[-2.7796058,51.2358634],[-2.7780151,51.2469457],[-2.7660298,51.2509696],[-2.7598876,51.2577833],[-2.738686,51.2664523],[-2.7271957,51.2612221],[-2.7098893,51.2701122],[-2.7205865,51.2755923],[-2.714965,51.2817476],[-2.7226782,51.2800502],[-2.7329843,51.2822206],[-2.7372329,51.2905121],[-2.7327836,51.3041201],[-2.7362988,51.3065212],[-2.7656263,51.3090343],[-2.764639,51.3225807]]],"type":"Polygon"},"id":"E02006061","properties":{"code":"E02006061","geography":"MSOA","name":"Sedgemoor 001"},"type":"Feature"},{"geometry":{"coordinates":[[[-3.0048886,51.325354],[-3.0359225,51.3285482],[-3.0281331,51.3241802],[-3.0137902,51.3235398],[-3.0112292,51.3202954],[-3.0218888,51.2690306],[-3.0156042,51.2576339],[-3.0074413,51.250086],[-3.005202,51.2510839],[-3.0012754,51.2484199],[-2.990936,51.2515397],[-2.994006,51.2478161],[-2.9911561,51.2416943],[-2.9808954,51.2418602],[-2.9832764,51.2368469],[-2.9828382,51.2293563],[-2.9590463,51.2273085],[-2.9568132,51.2164606],[-2.9479934,51.218553],[-2.9244333,51.2124902],[-2.9349478,51.2221647],[-2.9338004,51.2324736],[-2.9279516,51.2335588],[-2.9260977,51.2400253],[-2.9288568,51.2450244],[-2.9139662,51.2496029],[-2.9094704,51.2468495],[-2.891836,51.2491213],[-2.8910863,51.2600932],[-2.8977909,51.2632747],[-2.8964519,51.2670076],[-2.901897,51.2678888],[-2.8982905,51.2708862],[-2.9020334,51.2732999],[-2.8882262,51.2873114],[-2.8970966,51.2906185],[-2.9175064,51.2944797],[-2.9368728,51.3030828],[-2.9620322,51.3047949],[-2.9633816,51.2985416],[-2.9724459,51.2957303],[-2.9880663,51.2985238],[-2.9940123,51.3047516],[-2.9933867,51.3018263],[-2.994479,51.3052405],[-2.9949731,51.3057578],[-2.9946999,51.3059414],[-2.9952088,51.3075794],[-2.9864156,51.312505],[-2.9866821,51.3127861],[-2.9975527,51.3191412],[-2.9952487,51.3203583],[-3.0048886,51.325354]]],"type":"Polygon"},"id":"E02006062","properties":{"code":"E02006062","geography":"MSOA","name":"Sedgemoor 002"},"type":"Feature"},{"geometry":{"coordinates":[[[-2.8302889,51.3007137],[-2.8531542,51.2994795],[-2.8679394,51.3022096],[-2.8771394,51.3000666],[-2.8849131,51.3066684],[-2.8970966,51.2906185],[-2.8882262,51.2873114],[-2.9020334,51.2732999],[-2.8982905,51.2708862],[-2.901897,51.2678888],[-2.8964519,51.2670076],[-2.8977909,51.2632747],[-2.8910863,51.2600932],[-2.891836,51.2491213],[-2.9094704,51.2468495],[-2.9139662,51.2496029],[-2.9288568,51.2450244],[-2.9260977,51.2400253],[-2.9279516,51.2335588],[-2.9338004,51.2324736],[-2.9349478,51.2221647],[-2.9244333,51.2124902],[-2.9004769,51.1959273],[-2.8625839,51.199468],[-2.8372111,51.19138],[-2.807038,51.179759],[-2.793831,51.2043474],[-2.7459393,51.2062776],[-2.7473844,51.2116529],[-2.7514375,51.2125111],[-2.7515328,51.2241972],[-2.7588563,51.2247416],[-2.7609737,51.2292887],[-2.7790875,51.2294437],[-2.7796058,51.2358634],[-2.7923408,51.2409367],[-2.7974335,51.247574],[-2.7905634,51.2515843],[-2.8023646,51.2593918],[-2.8161209,51.258901],[-2.8129478,51.2617304],[-2.8177316,51.2655196],[-2.8185127,51.2620368],[-2.8239349,51.2607984],[-2.8272227,51.2675155],[-2.8326494,51.2683964],[-2.831397,51.2716592],[-2.8381585,51.2720948],[-2.8391568,51.2749639],[-2.8256423,51.2748004],[-2.8330047,51.2796076],[-2.8268775,51.2862457],[-2.8302889,51.3007137]]],"type":"Polygon"},"id":"E02006063","properties":{"code":"E02006063","geography":"MSOA","name":"Sedgemoor 003"},"type":"Feature"},{"geometry":{"coordinates":[[[-2.9832764,51.2368469],[-2.9808954,51.2418602],[-2.9911561,51.2416943],[-2.994006,51.2478161],[-2.990936,51.2515397],[-3.0012754,51.2484199],[-3.005202,51.2510839],[-3.0074413,51.250086],[-3.0018146,51.2448814],[-2.999345,51.2369491],[-3.0017012,51.2304695],[-2.9917099,51.2314882],[-2.9905207,51.2348109],[-2.9832764,51.2368469]]],"type":"Polygon"},"id":"E02006064","properties":{"code":"E02006064","geography":"MSOA","name":"Sedgemoor 004"},"type":"Feature"},{"geometry":{"coordinates":[[[-2.9568132,51.2164606],[-2.9590463,51.2273085],[-2.9828382,51.2293563],[-2.9832764,51.2368469],[-2.9905207,51.2348109],[-2.9917099,51.2314882],[-3.0017012,51.2304695],[-3.001755,51.2303216],[-3.001852,51.2300575],[-3.0040678,51.2257569],[-3.0041839,51.2255315],[-3.0030778,51.2258189],[-3.0023227,51.2260151],[-3.0024543,51.225858],[-3.0053809,51.2223623],[-3.0041514,51.2216615],[-2.9996778,51.2264109],[-2.9984942,51.2224878],[-2.9847848,51.2203541],[-2.9856868,51.2169925],[-2.9748092,51.2154317],[-2.971322,51.2179866],[-2.9640343,51.2126903],[-2.9635288,51.2167014],[-2.9568132,51.2164606]]],"type":"Polygon"},"id":"E02006065","properties":{"code":"E02006065","geography":"MSOA","name":"Sedgemoor 005"},"type":"Feature"},{"geometry":{"coordinates":[[[-2.9568132,51.2164606],[-2.9635288,51.2167014],[-2.9640343,51.2126903],[-2.971322,51.2179866],[-2.9748092,51.2154317],[-2.9856868,51.2169925],[-2.9847848,51.2203541],[-2.9984942,51.2224878],[-2.9996778,51.2264109],[-3.0041514,51.2216615],[-3.0053809,51.2223623],[-3.015685,51.2100501],[-3.016201,51.2029284],[-3.0180059,51.2072082],[-3.0222357,51.2004421],[-3.024324,51.197101],[-3.0243975,51.196627],[-3.0247578,51.1964068],[-3.0251376,51.195799],[-3.0270752,51.1926982],[-3.0346211,51.1889251],[-3.0510316,51.1871197],[-3.0555425,51.1816361],[-3.055891,51.1770616],[-3.0417479,51.1639496],[-3.0331496,51.1637526],[-3.0302185,51.1748173],[-3.0199443,51.1770862],[-3.007094,51.1724443],[-3.0022954,51.1669229],[-3.0043586,51.1621498],[-2.9909578,51.1625386],[-2.9906029,51.1597123],[-2.9845639,51.1596135],[-2.9808361,51.1640689],[-2.9277313,51.1589308],[-2.9281262,51.161677],[-2.9191737,51.1629415],[-2.9145648,51.1677244],[-2.9154569,51.1845897],[-2.8962904,51.18307],[-2.9004769,51.1959273],[-2.9244333,51.2124902],[-2.9479934,51.218553],[-2.9568132,51.2164606]]],"type":"Polygon"},"id":"E02006066","properties":{"code":"E02006066","geography":"MSOA","name":"Sedgemoor 006"},"type":"Feature"},{"geometry":{"coordinates":[[[[-3.0243975,51.196627],[-3.024324,51.197101],[-3.0247578,51.1964068],[-3.0243975,51.196627]]],[[[-3.0191432,51.2182623],[-3.030819,51.2180872],[-3.0538598,51.2060332],[-3.0515889,51.2033118],[-3.067465,51.1944642],[-3.0854716,51.1960748],[-3.0883753,51.1912483],[-3.0981635,51.1884641],[-3.0968201,51.1845232],[-3.1072563,51.1829646],[-3.1060535,51.1776021],[-3.1162236,51.1760577],[-3.1137209,51.1699146],[-3.136504,51.1676736],[-3.1333048,51.1639489],[-3.1381307,51.1624543],[-3.1575296,51.163673],[-3.1632719,51.1541371],[-3.173641,51.1523141],[-3.1786688,51.146709],[-3.2054572,51.1428091],[-3.2163565,51.1299972],[-3.1977281,51.1180715],[-3.1935461,51.1123606],[-3.1750412,51.1075187],[-3.1686211,51.108395],[-3.1684154,51.1043109],[-3.1421565,51.1092834],[-3.1408491,51.0995195],[-3.1519413,51.0974927],[-3.1514115,51.0931257],[-3.1599416,51.0908643],[-3.1499188,51.0887041],[-3.1530382,51.0848573],[-3.1365281,51.0720677],[-3.1023065,51.0730505],[-3.1009392,51.0675222],[-3.0895562,51.0660723],[-3.0903499,51.070696],[-3.0779135,51.0699759],[-3.0753286,51.0823771],[-3.0490386,51.0819568],[-3.0568274,51.0874448],[-3.0473983,51.0972366],[-3.0381816,51.1003201],[-3.041212,51.1081965],[-3.0490375,51.1116201],[-3.0428899,51.1181613],[-3.0554334,51.1178058],[-3.0542253,51.121697],[-3.0730372,51.1198668],[-3.0722162,51.1250772],[-3.0503165,51.1289639],[-3.0419046,51.1439278],[-3.0433583,51.1516527],[-3.0309985,51.1580212],[-3.0331496,51.1637526],[-3.0417479,51.1639496],[-3.055891,51.1770616],[-3.0559217,51.1766594],[-3.0561476,51.173694],[-3.056173,51.1733602],[-3.0572296,51.1734051],[-3.0613736,51.1735811],[-3.0564114,51.1865398],[-3.045181,51.1946564],[-3.0327008,51.19443],[-3.0244697,51.2121982],[-3.0302864,51.208213],[-3.026362,51.2149485],[-3.0242392,51.212907],[-3.0191432,51.2182623]]],[[[-3.0157646,51.2284906],[-3.0186746,51.2284231],[-3.0148123,51.2230964],[-3.0157646,51.2284906]]]],"type":"MultiPolygon"},"id":"E02006067","properties":{"code":"E02006067","geography":"MSOA","name":"Sedgemoor 007"},"type":"Feature"},{"geometry":{"coordinates":[[[-2.9902698,51.1304903],[-2.9854166,51.1302517],[-2.9830932,51.1247061],[-2.9739597,51.1276034],[-2.9749045,51.1357628],[-2.9865029,51.1434903],[-2.986205,51.1502639],[-2.9931399,51.1448302],[-2.9978172,51.1400043],[-3.0031538,51.1331881],[-2.9902698,51.1304903]]],"type":"Polygon"},"id":"E02006068","properties":{"code":"E02006068","geography":"MSOA","name":"Sedgemoor 008"},"type":"Feature"},{"geometry":{"coordinates":[[[-2.9978172,51.1400043],[-3.0090005,51.1409035],[-3.0087365,51.1371956],[-3.016432,51.133158],[-3.0091566,51.127353],[-2.9997121,51.1272943],[-2.9955632,51.1188826],[-2.9862453,51.1162519],[-2.989388,51.1232546],[-2.9855833,51.1251482],[-2.9900717,51.1264933],[-2.9902698,51.1304903],[-3.0031538,51.1331881],[-2.9978172,51.1400043]]],"type":"Polygon"},"id":"E02006069","properties":{"code":"E02006069","geography":"MSOA","name":"Sedgemoor 009"},"type":"Feature"},{"geometry":{"coordinates":[[[-2.9666912,51.1033656],[-2.9627364,51.1040871],[-2.9631312,51.1111364],[-2.956992,51.1083237],[-2.951732,51.1115131],[-2.9630114,51.1154025],[-2.9588209,51.1349799],[-2.9628827,51.1371686],[-2.9588798,51.1402346],[-2.9631998,51.1453983],[-2.9683788,51.145932],[-2.9711398,51.1528971],[-2.9669193,51.159615],[-2.9808361,51.1640689],[-2.9845639,51.1596135],[-2.9906029,51.1597123],[-2.990812,51.1541294],[-2.9990795,51.1515493],[-2.9988801,51.1450823],[-2.9931399,51.1448302],[-2.986205,51.1502639],[-2.9865029,51.1434903],[-2.9749045,51.1357628],[-2.9739597,51.1276034],[-2.9830932,51.1247061],[-2.9854166,51.1302517],[-2.9902698,51.1304903],[-2.9900717,51.1264933],[-2.9855833,51.1251482],[-2.989388,51.1232546],[-2.9862453,51.1162519],[-2.9744868,51.1119479],[-2.9666912,51.1033656]]],"type":"Polygon"},"id":"E02006070","properties":{"code":"E02006070","geography":"MSOA","name":"Sedgemoor 010"},"type":"Feature"},{"geometry":{"coordinates":[[[-2.9906029,51.1597123],[-2.9909578,51.1625386],[-3.0043586,51.1621498],[-3.0022954,51.1669229],[-3.007094,51.1724443],[-3.0199443,51.1770862],[-3.0302185,51.1748173],[-3.0331496,51.1637526],[-3.0309985,51.1580212],[-3.0433583,51.1516527],[-3.0419046,51.1439278],[-3.0503165,51.1289639],[-3.0722162,51.1250772],[-3.0730372,51.1198668],[-3.0542253,51.121697],[-3.0554334,51.1178058],[-3.0428899,51.1181613],[-3.0490375,51.1116201],[-3.041212,51.1081965],[-3.0315894,51.1129237],[-3.0237011,51.1111128],[-3.0154375,51.1149841],[-3.0167262,51.1184989],[-3.0239239,51.1190718],[-3.0160085,51.1210831],[-3.0231082,51.123473],[-3.0226222,51.1262714],[-3.017269,51.1251331],[-3.0168879,51.1272677],[-3.0147704,51.1245793],[-3.0091566,51.127353],[-3.016432,51.133158],[-3.0087365,51.1371956],[-3.0090005,51.1409035],[-2.9978172,51.1400043],[-2.9931399,51.1448302],[-2.9988801,51.1450823],[-2.9990795,51.1515493],[-2.990812,51.1541294],[-2.9906029,51.1597123]]],"type":"Polygon"},"id":"E02006071","properties":{"code":"E02006071","geography":"MSOA","name":"Sedgemoor 011"},"type":"Feature"},{"geometry":{"coordinates":[[[-2.8372111,51.19138],[-2.8625839,51.199468],[-2.9004769,51.1959273],[-2.8962904,51.18307],[-2.9154569,51.1845897],[-2.9145648,51.1677244],[-2.9191737,51.1629415],[-2.9281262,51.161677],[-2.9277313,51.1589308],[-2.9808361,51.1640689],[-2.9669193,51.159615],[-2.9711398,51.1528971],[-2.9683788,51.145932],[-2.9631998,51.1453983],[-2.9588798,51.1402346],[-2.9628827,51.1371686],[-2.9588209,51.1349799],[-2.9630114,51.1154025],[-2.951732,51.1115131],[-2.956992,51.1083237],[-2.9631312,51.1111364],[-2.9627364,51.1040871],[-2.9666912,51.1033656],[-2.9580482,51.0944022],[-2.9451188,51.0913178],[-2.9346889,51.0832915],[-2.9252445,51.0851345],[-2.9215779,51.0818121],[-2.9121886,51.085167],[-2.9043858,51.0751329],[-2.8881879,51.0691052],[-2.8774285,51.0812878],[-2.857289,51.0779536],[-2.8499389,51.1031812],[-2.8451603,51.1020091],[-2.8198683,51.1079386],[-2.8243073,51.1203717],[-2.7861073,51.1124358],[-2.7889822,51.1246171],[-2.79678,51.1282132],[-2.7931635,51.1297961],[-2.796588,51.1315072],[-2.7870941,51.1364924],[-2.7898701,51.139646],[-2.7860946,51.1399557],[-2.7860081,51.1529559],[-2.8426817,51.1729464],[-2.8372111,51.19138]]],"type":"Polygon"},"id":"E02006072","properties":{"code":"E02006072","geography":"MSOA","name":"Sedgemoor 012"},"type":"Feature"},{"geometry":{"coordinates":[[[-2.9955632,51.1188826],[-2.9997121,51.1272943],[-3.0091566,51.127353],[-3.0147704,51.1245793],[-3.0168879,51.1272677],[-3.017269,51.1251331],[-3.0226222,51.1262714],[-3.0231082,51.123473],[-3.0160085,51.1210831],[-3.0239239,51.1190718],[-3.0167262,51.1184989],[-3.0154375,51.1149841],[-3.0069174,51.1132413],[-3.0061195,51.1171245],[-2.999705,51.1156079],[-2.9955632,51.1188826]]],"type":"Polygon"},"id":"E02006073","properties":{"code":"E02006073","geography":"MSOA","name":"Sedgemoor 013"},"type":"Feature"},{"geometry":{"coordinates":[[[-2.9862453,51.1162519],[-2.9955632,51.1188826],[-2.999705,51.1156079],[-3.0061195,51.1171245],[-3.0069174,51.1132413],[-3.0154375,51.1149841],[-3.0237011,51.1111128],[-3.0315894,51.1129237],[-3.041212,51.1081965],[-3.0381816,51.1003201],[-3.0473983,51.0972366],[-3.0568274,51.0874448],[-3.0490386,51.0819568],[-3.0753286,51.0823771],[-3.0779135,51.0699759],[-3.052715,51.0649963],[-3.0461586,51.0654797],[-3.0358653,51.059881],[-3.0246728,51.0598492],[-3.024445,51.0570196],[-3.0322029,51.0570916],[-3.0312045,51.04792],[-3.0178488,51.0545638],[-2.9974431,51.05379],[-2.9941044,51.046515],[-2.9879077,51.0462609],[-2.9806997,51.0408758],[-2.9672912,51.0470125],[-2.9577764,51.047438],[-2.947078,51.0569897],[-2.933143,51.0572619],[-2.9268203,51.0615341],[-2.9462685,51.0685911],[-2.9487034,51.0733301],[-2.9464792,51.0759019],[-2.9358388,51.0765388],[-2.9346889,51.0832915],[-2.9451188,51.0913178],[-2.9580482,51.0944022],[-2.9666912,51.1033656],[-2.9744868,51.1119479],[-2.9862453,51.1162519]]],"type":"Polygon"},"id":"E02006074","properties":{"code":"E02006074","geography":"MSOA","name":"Sedgemoor 014"},"type":"Feature"},{"geometry":{"coordinates":[[[-2.3463073,51.1305164],[-2.3709864,51.1433533],[-2.3904567,51.1441172],[-2.401291,51.1403398],[-2.4080331,51.1477177],[-2.4178111,51.1408601],[-2.4281554,51.1432936],[-2.4348164,51.1332079],[-2.4435539,51.132238],[-2.4544017,51.1225515],[-2.466376,51.1242198],[-2.4648224,51.1218288],[-2.4707856,51.1191136],[-2.4820734,51.1192942],[-2.5017446,51.1127314],[-2.5009221,51.1071013],[-2.4927034,51.1047959],[-2.4925117,51.098727],[-2.5084602,51.0865688],[-2.5079716,51.0784538],[-2.5123987,51.076043],[-2.5039766,51.0727349],[-2.504316,51.0695719],[-2.501322,51.0718444],[-2.4941841,51.0684856],[-2.4842323,51.0684635],[-2.485107,51.0645595],[-2.4633912,51.0597923],[-2.4625272,51.055684],[-2.453805,51.0486678],[-2.4501272,51.0503029],[-2.4390532,51.0464438],[-2.4348364,51.0472357],[-2.4421408,51.0534245],[-2.4342286,51.0554315],[-2.4351077,51.0579102],[-2.4377818,51.0560783],[-2.4486549,51.0607994],[-2.4460095,51.0645529],[-2.4297237,51.0658801],[-2.4197053,51.0601588],[-2.4017981,51.0640507],[-2.3944909,51.0565797],[-2.4000154,51.0469876],[-2.396856,51.043193],[-2.3901592,51.043221],[-2.383402,51.0374956],[-2.3719611,51.0396358],[-2.3607052,51.0319711],[-2.3522109,51.0324611],[-2.349773,51.0300845],[-2.3296344,51.0421978],[-2.3331823,51.0514928],[-2.3401125,51.056069],[-2.3444857,51.055487],[-2.3495502,51.0616757],[-2.349119,51.0707329],[-2.3258561,51.0796817],[-2.3291434,51.0852647],[-2.3470538,51.0882417],[-2.3625314,51.1016296],[-2.3645293,51.1188844],[-2.3445415,51.124684],[-2.3463073,51.1305164]]],"type":"Polygon"},"id":"E02006075","properties":{"code":"E02006075","geography":"MSOA","name":"South Somerset 001"},"type":"Feature"},{"geometry":{"coordinates":[[[-2.4625272,51.055684],[-2.4633912,51.0597923],[-2.485107,51.0645595],[-2.4842323,51.0684635],[-2.4941841,51.0684856],[-2.501322,51.0718444],[-2.504316,51.0695719],[-2.5039766,51.0727349],[-2.5123987,51.076043],[-2.5079716,51.0784538],[-2.5084602,51.0865688],[-2.4925117,51.098727],[-2.4927034,51.1047959],[-2.5009221,51.1071013],[-2.5792373,51.088786],[-2.5893807,51.0907162],[-2.5980959,51.0984125],[-2.6011569,51.0889855],[-2.5917011,51.0901695],[-2.5860876,51.0842539],[-2.6013003,51.0846547],[-2.5980083,51.0702871],[-2.6115027,51.0700276],[-2.6133435,51.0651414],[-2.6344619,51.0643353],[-2.6425228,51.0826467],[-2.634395,51.0882406],[-2.6392196,51.0879401],[-2.6456008,51.0932814],[-2.6483875,51.1021071],[-2.6639561,51.0992736],[-2.6745107,51.0834318],[-2.6973392,51.0762361],[-2.7081499,51.080214],[-2.7106237,51.0776047],[-2.7059924,51.0762507],[-2.7058484,51.0720403],[-2.6967206,51.0699242],[-2.6952851,51.0629974],[-2.7077622,51.0542781],[-2.694028,51.0506027],[-2.6995465,51.0456033],[-2.7078011,51.0453877],[-2.7026441,51.0381112],[-2.7043355,51.0320824],[-2.6989896,51.0282137],[-2.7049448,51.0251565],[-2.7167445,51.0190418],[-2.7143984,51.0110548],[-2.694507,51.0039332],[-2.6901302,51.0117357],[-2.6836629,51.0140516],[-2.6854697,51.0175525],[-2.6721117,51.022217],[-2.6734618,51.014361],[-2.6603214,51.0319115],[-2.6247783,51.0423885],[-2.6122955,51.0363871],[-2.6034654,51.0368501],[-2.6084714,51.0404856],[-2.5983941,51.0477397],[-2.5752854,51.0450899],[-2.5688081,51.0398692],[-2.5582786,51.0477935],[-2.5527485,51.0587544],[-2.5486277,51.0591164],[-2.5498672,51.0476356],[-2.543727,51.0397742],[-2.5477574,51.0371057],[-2.5417825,51.0350114],[-2.5404596,51.0227872],[-2.5627641,51.0159268],[-2.5544293,51.0099841],[-2.5115424,51.0218113],[-2.5158951,51.023231],[-2.5222681,51.038146],[-2.4998748,51.0393689],[-2.4840279,51.0461393],[-2.4820688,51.0510437],[-2.4759212,51.0502065],[-2.4625272,51.055684]]],"type":"Polygon"},"id":"E02006076","properties":{"code":"E02006076","geography":"MSOA","name":"South Somerset 002"},"type":"Feature"},{"geometry":{"coordinates":[[[-2.7284625,51.1041874],[-2.7376258,51.1070456],[-2.7466965,51.095349],[-2.7896896,51.0984097],[-2.7798521,51.0737435],[-2.7800613,51.0642524],[-2.7868414,51.0640524],[-2.7784517,51.0622575],[-2.7740433,51.0486906],[-2.7672697,51.0488991],[-2.7634964,51.0441355],[-2.7567744,51.0441079],[-2.7566234,51.0385978],[-2.7462513,51.036188],[-2.7381893,51.0258845],[-2.7205691,51.0304683],[-2.7142982,51.0248488],[-2.7049448,51.0251565],[-2.6989896,51.0282137],[-2.7043355,51.0320824],[-2.7026441,51.0381112],[-2.7078011,51.0453877],[-2.6995465,51.0456033],[-2.694028,51.0506027],[-2.7077622,51.0542781],[-2.6952851,51.0629974],[-2.6967206,51.0699242],[-2.7058484,51.0720403],[-2.7154645,51.077726],[-2.7154264,51.0881908],[-2.7074092,51.0916387],[-2.7202119,51.1018812],[-2.7284625,51.1041874]]],"type":"Polygon"},"id":"E02006077","properties":{"code":"E02006077","geography":"MSOA","name":"South Somerset 003"},"type":"Feature"},{"geometry":{"coordinates":[[[-2.7896896,51.0984097],[-2.7944153,51.1078026],[-2.8198683,51.1079386],[-2.8451603,51.1020091],[-2.8499389,51.1031812],[-2.857289,51.0779536],[-2.8774285,51.0812878],[-2.8881879,51.0691052],[-2.8931024,51.0550417],[-2.883839,51.0457942],[-2.8829434,51.0418389],[-2.8879763,51.0426065],[-2.8871124,51.0401779],[-2.8774002,51.0372928],[-2.8699761,51.03827],[-2.8741738,51.0438963],[-2.8692466,51.0455359],[-2.8526283,51.0469721],[-2.8406514,51.044309],[-2.8353166,51.0417908],[-2.8348258,51.0357145],[-2.8510362,51.0323459],[-2.8522384,51.0294721],[-2.8461639,51.0285361],[-2.843905,51.023282],[-2.8206131,51.0229651],[-2.8192046,51.0276645],[-2.8064869,51.0326944],[-2.7982978,51.0315978],[-2.8018166,51.0280873],[-2.7993878,51.0254835],[-2.7902041,51.0238977],[-2.7758616,51.0214608],[-2.7615015,51.0110998],[-2.7297635,51.0093619],[-2.7303628,51.0070201],[-2.7215437,51.0047837],[-2.7170715,51.0063723],[-2.7143984,51.0110548],[-2.7167445,51.0190418],[-2.7049448,51.0251565],[-2.7142982,51.0248488],[-2.7205691,51.0304683],[-2.7381893,51.0258845],[-2.7462513,51.036188],[-2.7566234,51.0385978],[-2.7567744,51.0441079],[-2.7634964,51.0441355],[-2.7672697,51.0488991],[-2.7740433,51.0486906],[-2.7784517,51.0622575],[-2.7868414,51.0640524],[-2.7800613,51.0642524],[-2.7798521,51.0737435],[-2.7896896,51.0984097]]],"type":"Polygon"},"id":"E02006078","properties":{"code":"E02006078","geography":"MSOA","name":"South Somerset 004"},"type":"Feature"},{"geometry":{"coordinates":[[[-2.349773,51.0300845],[-2.3522109,51.0324611],[-2.3607052,51.0319711],[-2.3719611,51.0396358],[-2.383402,51.0374956],[-2.3901592,51.043221],[-2.396856,51.043193],[-2.4000154,51.0469876],[-2.3944909,51.0565797],[-2.4017981,51.0640507],[-2.4197053,51.0601588],[-2.4297237,51.0658801],[-2.4460095,51.0645529],[-2.4486549,51.0607994],[-2.4377818,51.0560783],[-2.4351077,51.0579102],[-2.4342286,51.0554315],[-2.4421408,51.0534245],[-2.4348364,51.0472357],[-2.4390532,51.0464438],[-2.4501272,51.0503029],[-2.453805,51.0486678],[-2.4625272,51.055684],[-2.4759212,51.0502065],[-2.4820688,51.0510437],[-2.4840279,51.0461393],[-2.4998748,51.0393689],[-2.5222681,51.038146],[-2.5158951,51.023231],[-2.5115424,51.0218113],[-2.5544293,51.0099841],[-2.5384044,51.0076069],[-2.5351654,50.9993785],[-2.5355599,50.9940284],[-2.5265294,50.9919307],[-2.5108591,50.9944327],[-2.505385,50.9999954],[-2.4941558,50.9985359],[-2.4760751,51.0009193],[-2.4635615,50.9862439],[-2.4516804,50.9885115],[-2.4475833,50.9842461],[-2.4405767,50.989812],[-2.4556624,51.0075359],[-2.447738,51.0115037],[-2.4301849,51.0127865],[-2.422994,51.0189084],[-2.4260452,51.0222503],[-2.411035,51.025022],[-2.4064628,51.0206767],[-2.3980751,51.0215623],[-2.3873375,51.015201],[-2.380835,51.0166048],[-2.378051,51.0117206],[-2.3691502,51.0142826],[-2.3606776,51.0251809],[-2.349773,51.0300845]]],"type":"Polygon"},"id":"E02006079","properties":{"code":"E02006079","geography":"MSOA","name":"South Somerset 005"},"type":"Feature"},{"geometry":{"coordinates":[[[-2.5544293,51.0099841],[-2.5627641,51.0159268],[-2.5404596,51.0227872],[-2.5417825,51.0350114],[-2.5477574,51.0371057],[-2.543727,51.0397742],[-2.5498672,51.0476356],[-2.5486277,51.0591164],[-2.5527485,51.0587544],[-2.5582786,51.0477935],[-2.5688081,51.0398692],[-2.5752854,51.0450899],[-2.5983941,51.0477397],[-2.6084714,51.0404856],[-2.6034654,51.0368501],[-2.6122955,51.0363871],[-2.6247783,51.0423885],[-2.6603214,51.0319115],[-2.6734618,51.014361],[-2.6721117,51.022217],[-2.6854697,51.0175525],[-2.6836629,51.0140516],[-2.6901302,51.0117357],[-2.694507,51.0039332],[-2.7143984,51.0110548],[-2.7170715,51.0063723],[-2.7044976,51.0053319],[-2.7095189,50.9963872],[-2.6924379,50.9865371],[-2.6981556,50.9790754],[-2.6842027,50.9823557],[-2.6825715,50.9883578],[-2.6775914,50.989295],[-2.660467,50.9856235],[-2.6512145,50.9779112],[-2.6453117,50.9780853],[-2.6351589,50.9641005],[-2.6347887,50.9604739],[-2.6255862,50.9666214],[-2.6244166,50.9627734],[-2.6143905,50.9598637],[-2.5983777,50.9595135],[-2.5949095,50.9622351],[-2.5998816,50.9674082],[-2.5980562,50.9736195],[-2.6034163,50.9762897],[-2.6011379,50.9780182],[-2.5958434,50.9813463],[-2.5860225,50.9768757],[-2.5749371,50.9833242],[-2.5746285,50.9866997],[-2.5623704,50.977717],[-2.5562058,50.9795411],[-2.5454222,50.9850863],[-2.5447169,50.9916549],[-2.5519222,50.9937037],[-2.5514876,50.9963501],[-2.5472892,50.996424],[-2.5474328,50.9995474],[-2.5351654,50.9993785],[-2.5384044,51.0076069],[-2.5544293,51.0099841]]],"type":"Polygon"},"id":"E02006080","properties":{"code":"E02006080","geography":"MSOA","name":"South Somerset 006"},"type":"Feature"},{"geometry":{"coordinates":[[[-2.8206131,51.0229651],[-2.843905,51.023282],[-2.8461639,51.0285361],[-2.8522384,51.0294721],[-2.8510362,51.0323459],[-2.8348258,51.0357145],[-2.8353166,51.0417908],[-2.8406514,51.044309],[-2.8526283,51.0469721],[-2.8692466,51.0455359],[-2.8741738,51.0438963],[-2.8699761,51.03827],[-2.8774002,51.0372928],[-2.8871124,51.0401779],[-2.8879763,51.0426065],[-2.8829434,51.0418389],[-2.883839,51.0457942],[-2.9504712,51.0112752],[-2.9443048,51.0032829],[-2.9781138,50.9980708],[-2.9839145,50.9902661],[-2.9780397,50.984847],[-2.9750993,50.9731669],[-2.9827796,50.9721026],[-2.9804539,50.9649989],[-2.9847317,50.9632697],[-2.9760774,50.9623308],[-2.9596897,50.9673406],[-2.9339042,50.9478083],[-2.9290073,50.9395293],[-2.9080793,50.9447657],[-2.8948939,50.9532675],[-2.9057297,50.9625865],[-2.9167859,50.9664965],[-2.9151425,50.9702819],[-2.883589,50.9696607],[-2.8750142,50.9731342],[-2.8733188,50.9774647],[-2.8598569,50.978632],[-2.8526615,50.9846154],[-2.8348044,50.9890081],[-2.8354443,50.9924403],[-2.8258342,50.9966354],[-2.8312005,50.9994937],[-2.8328318,51.0097371],[-2.8280446,51.0156109],[-2.8229335,51.0156641],[-2.8206131,51.0229651]]],"type":"Polygon"},"id":"E02006081","properties":{"code":"E02006081","geography":"MSOA","name":"South Somerset 007"},"type":"Feature"},{"geometry":{"coordinates":[[[-2.378051,51.0117206],[-2.380835,51.0166048],[-2.3873375,51.015201],[-2.3980751,51.0215623],[-2.4064628,51.0206767],[-2.411035,51.025022],[-2.4260452,51.0222503],[-2.422994,51.0189084],[-2.4301849,51.0127865],[-2.447738,51.0115037],[-2.4556624,51.0075359],[-2.4405767,50.989812],[-2.4475833,50.9842461],[-2.4516804,50.9885115],[-2.4635615,50.9862439],[-2.4760751,51.0009193],[-2.4941558,50.9985359],[-2.505385,50.9999954],[-2.5108591,50.9944327],[-2.5022312,50.9937679],[-2.4883333,50.9757621],[-2.4903458,50.9727785],[-2.4745783,50.9625138],[-2.4747428,50.9579576],[-2.4668187,50.9598167],[-2.4586372,50.9542855],[-2.458664,50.9497536],[-2.4524871,50.9502806],[-2.4434791,50.95847],[-2.447179,50.9678564],[-2.427995,50.9713927],[-2.4149298,50.96059],[-2.3835448,50.9723659],[-2.3445604,50.978836],[-2.3439172,50.9847765],[-2.3549009,50.9908871],[-2.3777631,50.9914196],[-2.3817594,51.0019528],[-2.3756572,51.0092956],[-2.378051,51.0117206]]],"type":"Polygon"},"id":"E02006082","properties":{"code":"E02006082","geography":"MSOA","name":"South Somerset 008"},"type":"Feature"},{"geometry":{"coordinates":[[[-2.7303628,51.0070201],[-2.7297635,51.0093619],[-2.7615015,51.0110998],[-2.7758616,51.0214608],[-2.7902041,51.0238977],[-2.7960156,51.0171041],[-2.7893685,51.015942],[-2.7920045,51.0065068],[-2.7987579,51.0004531],[-2.8031206,50.9865289],[-2.7925116,50.9755308],[-2.7965113,50.9700371],[-2.7904703,50.9633625],[-2.7941953,50.9565039],[-2.7850559,50.9521954],[-2.7830403,50.9470559],[-2.7193662,50.9806615],[-2.7295936,50.9854513],[-2.7250223,50.9943346],[-2.7368704,50.9996405],[-2.7342627,51.0070469],[-2.7303628,51.0070201]]],"type":"Polygon"},"id":"E02006083","properties":{"code":"E02006083","geography":"MSOA","name":"South Somerset 009"},"type":"Feature"},{"geometry":{"coordinates":[[[-2.7902041,51.0238977],[-2.7993878,51.0254835],[-2.8018166,51.0280873],[-2.7982978,51.0315978],[-2.8064869,51.0326944],[-2.8192046,51.0276645],[-2.8206131,51.0229651],[-2.8229335,51.0156641],[-2.8280446,51.0156109],[-2.8328318,51.0097371],[-2.8312005,50.9994937],[-2.8258342,50.9966354],[-2.8354443,50.9924403],[-2.8348044,50.9890081],[-2.8526615,50.9846154],[-2.8598569,50.978632],[-2.8733188,50.9774647],[-2.8750142,50.9731342],[-2.883589,50.9696607],[-2.9151425,50.9702819],[-2.9167859,50.9664965],[-2.9057297,50.9625865],[-2.8948939,50.9532675],[-2.8823251,50.947],[-2.8628519,50.9434047],[-2.8645695,50.9361008],[-2.8611887,50.935963],[-2.8725129,50.9265465],[-2.8390266,50.9177473],[-2.8369338,50.9238314],[-2.81505,50.9215641],[-2.8143288,50.9191101],[-2.8117666,50.9239272],[-2.7948517,50.9243818],[-2.7787939,50.929878],[-2.7711753,50.9394448],[-2.7830403,50.9470559],[-2.7850559,50.9521954],[-2.7941953,50.9565039],[-2.7904703,50.9633625],[-2.7965113,50.9700371],[-2.7925116,50.9755308],[-2.8031206,50.9865289],[-2.7987579,51.0004531],[-2.7920045,51.0065068],[-2.7893685,51.015942],[-2.7960156,51.0171041],[-2.7902041,51.0238977]]],"type":"Polygon"},"id":"E02006084","properties":{"code":"E02006084","geography":"MSOA","name":"South Somerset 010"},"type":"Feature"},{"geometry":{"coordinates":[[[-2.5983777,50.9595135],[-2.6143905,50.9598637],[-2.6244166,50.9627734],[-2.6255862,50.9666214],[-2.6347887,50.9604739],[-2.6351589,50.9641005],[-2.643798,50.9564922],[-2.6333245,50.9555042],[-2.6099091,50.9551537],[-2.6148054,50.9515663],[-2.6105684,50.9509249],[-2.6113422,50.9477433],[-2.604767,50.9454538],[-2.5982,50.9485813],[-2.5983777,50.9595135]]],"type":"Polygon"},"id":"E02006085","properties":{"code":"E02006085","geography":"MSOA","name":"South Somerset 011"},"type":"Feature"},{"geometry":{"coordinates":[[[-2.6351589,50.9641005],[-2.6453117,50.9780853],[-2.6512145,50.9779112],[-2.6526728,50.9753108],[-2.6670339,50.9742944],[-2.6706345,50.970729],[-2.6688099,50.965567],[-2.6745302,50.9631041],[-2.6877187,50.9665892],[-2.6942078,50.9587966],[-2.6977945,50.9546029],[-2.6921016,50.9337454],[-2.6768781,50.9363625],[-2.6856062,50.9474499],[-2.6835826,50.9488],[-2.6779152,50.9447319],[-2.6758464,50.9464886],[-2.6702272,50.9502936],[-2.6681489,50.9485228],[-2.6608945,50.9510594],[-2.6652346,50.9553861],[-2.6575867,50.9569639],[-2.6491428,50.9548619],[-2.6539149,50.9529576],[-2.6492756,50.9529062],[-2.6481185,50.9476436],[-2.6368308,50.9434969],[-2.6349419,50.9438227],[-2.6333245,50.9555042],[-2.643798,50.9564922],[-2.6351589,50.9641005]]],"type":"Polygon"},"id":"E02006086","properties":{"code":"E02006086","geography":"MSOA","name":"South Somerset 012"},"type":"Feature"},{"geometry":{"coordinates":[[[-2.6481185,50.9476436],[-2.6492756,50.9529062],[-2.6539149,50.9529576],[-2.6491428,50.9548619],[-2.6575867,50.9569639],[-2.6652346,50.9553861],[-2.6608945,50.9510594],[-2.6681489,50.9485228],[-2.6702272,50.9502936],[-2.6758464,50.9464886],[-2.6709371,50.9444303],[-2.6575322,50.9497933],[-2.6548574,50.9471505],[-2.6513604,50.9493283],[-2.6481185,50.9476436]]],"type":"Polygon"},"id":"E02006087","properties":{"code":"E02006087","geography":"MSOA","name":"South Somerset 013"},"type":"Feature"},{"geometry":{"coordinates":[[[-2.6113422,50.9477433],[-2.6105684,50.9509249],[-2.6148054,50.9515663],[-2.6099091,50.9551537],[-2.6333245,50.9555042],[-2.6349419,50.9438227],[-2.6315259,50.9472052],[-2.622526,50.9480129],[-2.6221649,50.9508647],[-2.6137442,50.9462193],[-2.6113422,50.9477433]]],"type":"Polygon"},"id":"E02006088","properties":{"code":"E02006088","geography":"MSOA","name":"South Somerset 014"},"type":"Feature"},{"geometry":{"coordinates":[[[-2.6113422,50.9477433],[-2.6137442,50.9462193],[-2.6221649,50.9508647],[-2.622526,50.9480129],[-2.6315259,50.9472052],[-2.6349419,50.9438227],[-2.6368308,50.9434969],[-2.6379,50.9374786],[-2.6271178,50.9392122],[-2.6160342,50.9414546],[-2.6115877,50.9402007],[-2.604767,50.9454538],[-2.6113422,50.9477433]]],"type":"Polygon"},"id":"E02006089","properties":{"code":"E02006089","geography":"MSOA","name":"South Somerset 015"},"type":"Feature"},{"geometry":{"coordinates":[[[-2.6481185,50.9476436],[-2.6513604,50.9493283],[-2.6548574,50.9471505],[-2.6575322,50.9497933],[-2.6709371,50.9444303],[-2.6673609,50.938482],[-2.6578051,50.9367335],[-2.6482846,50.9415295],[-2.643572,50.9360176],[-2.6379,50.9374786],[-2.6368308,50.9434969],[-2.6481185,50.9476436]]],"type":"Polygon"},"id":"E02006090","properties":{"code":"E02006090","geography":"MSOA","name":"South Somerset 016"},"type":"Feature"},{"geometry":{"coordinates":[[[-2.7303628,51.0070201],[-2.7342627,51.0070469],[-2.7368704,50.9996405],[-2.7250223,50.9943346],[-2.7295936,50.9854513],[-2.7193662,50.9806615],[-2.7830403,50.9470559],[-2.7711753,50.9394448],[-2.7787939,50.929878],[-2.7948517,50.9243818],[-2.8117666,50.9239272],[-2.8143288,50.9191101],[-2.81505,50.9215641],[-2.8369338,50.9238314],[-2.8390266,50.9177473],[-2.8393898,50.9123095],[-2.8529641,50.9198674],[-2.8538648,50.9142756],[-2.8588641,50.9146993],[-2.8582034,50.9104858],[-2.8641576,50.9098753],[-2.8643296,50.9005891],[-2.8559936,50.9003709],[-2.8501268,50.8946927],[-2.8302193,50.8931139],[-2.8136668,50.9058226],[-2.8065505,50.9050916],[-2.8118929,50.8947384],[-2.8059191,50.8952159],[-2.791181,50.8990712],[-2.7836848,50.8890203],[-2.7768781,50.8910307],[-2.775229,50.8832045],[-2.7681966,50.8847772],[-2.7564815,50.8794367],[-2.7549877,50.8667862],[-2.7504524,50.8638141],[-2.7230907,50.8661989],[-2.7225676,50.8805299],[-2.7135999,50.8839117],[-2.7172295,50.8876276],[-2.724431,50.8856713],[-2.7215253,50.897891],[-2.7255762,50.9002246],[-2.7184217,50.9107635],[-2.7140163,50.9103876],[-2.7113812,50.9154791],[-2.7012015,50.9202783],[-2.7007249,50.924716],[-2.7026859,50.9319297],[-2.7093714,50.9344655],[-2.7234967,50.9287637],[-2.7227539,50.9332048],[-2.7286027,50.9373406],[-2.7187302,50.9387499],[-2.7198491,50.9428022],[-2.7131337,50.9422562],[-2.7111059,50.9523455],[-2.6942078,50.9587966],[-2.6877187,50.9665892],[-2.6745302,50.9631041],[-2.6688099,50.965567],[-2.6706345,50.970729],[-2.6670339,50.9742944],[-2.6526728,50.9753108],[-2.6512145,50.9779112],[-2.660467,50.9856235],[-2.6775914,50.989295],[-2.6825715,50.9883578],[-2.6842027,50.9823557],[-2.6981556,50.9790754],[-2.6924379,50.9865371],[-2.7095189,50.9963872],[-2.7044976,51.0053319],[-2.7170715,51.0063723],[-2.7215437,51.0047837],[-2.7303628,51.0070201]]],"type":"Polygon"},"id":"E02006091","properties":{"code":"E02006091","geography":"MSOA","name":"South Somerset 017"},"type":"Feature"},{"geometry":{"coordinates":[[[-2.6758464,50.9464886],[-2.6779152,50.9447319],[-2.6835826,50.9488],[-2.6856062,50.9474499],[-2.6768781,50.9363625],[-2.6686101,50.9361782],[-2.6615893,50.9275627],[-2.6462172,50.9235655],[-2.6286886,50.9336735],[-2.6271178,50.9392122],[-2.6379,50.9374786],[-2.643572,50.9360176],[-2.6482846,50.9415295],[-2.6578051,50.9367335],[-2.6673609,50.938482],[-2.6709371,50.9444303],[-2.6758464,50.9464886]]],"type":"Polygon"},"id":"E02006092","properties":{"code":"E02006092","geography":"MSOA","name":"South Somerset 018"},"type":"Feature"},{"geometry":{"coordinates":[[[-2.8948939,50.9532675],[-2.9080793,50.9447657],[-2.9290073,50.9395293],[-2.9339042,50.9478083],[-2.9596897,50.9673406],[-2.9760774,50.9623308],[-2.9847317,50.9632697],[-3.0076995,50.9570776],[-3.0109347,50.9473853],[-3.0180339,50.9445894],[-3.007142,50.9367672],[-3.0103515,50.9262152],[-2.9983432,50.9274877],[-2.9949121,50.9227905],[-2.9840766,50.9233464],[-2.9695742,50.9137711],[-2.9630617,50.9149274],[-2.9615221,50.9013756],[-2.9370199,50.9022529],[-2.9340774,50.9089275],[-2.9225766,50.9089992],[-2.9118243,50.9145772],[-2.9106347,50.9193607],[-2.9017327,50.9219136],[-2.8877947,50.9195915],[-2.8870011,50.9246468],[-2.8765794,50.922919],[-2.8725129,50.9265465],[-2.8611887,50.935963],[-2.8645695,50.9361008],[-2.8628519,50.9434047],[-2.8823251,50.947],[-2.8948939,50.9532675]]],"type":"Polygon"},"id":"E02006093","properties":{"code":"E02006093","geography":"MSOA","name":"South Somerset 019"},"type":"Feature"},{"geometry":{"coordinates":[[[-2.6768781,50.9363625],[-2.6921016,50.9337454],[-2.6977945,50.9546029],[-2.6942078,50.9587966],[-2.7111059,50.9523455],[-2.7131337,50.9422562],[-2.7198491,50.9428022],[-2.7187302,50.9387499],[-2.7286027,50.9373406],[-2.7227539,50.9332048],[-2.7234967,50.9287637],[-2.7093714,50.9344655],[-2.7026859,50.9319297],[-2.7007249,50.924716],[-2.7012015,50.9202783],[-2.7113812,50.9154791],[-2.7140163,50.9103876],[-2.7184217,50.9107635],[-2.7255762,50.9002246],[-2.7215253,50.897891],[-2.724431,50.8856713],[-2.7172295,50.8876276],[-2.7135999,50.8839117],[-2.7225676,50.8805299],[-2.7230907,50.8661989],[-2.7145549,50.8639031],[-2.7143886,50.8711517],[-2.7071436,50.8697746],[-2.695725,50.875999],[-2.6789645,50.8774881],[-2.6606101,50.8871129],[-2.6504178,50.8833161],[-2.647103,50.8883604],[-2.6279596,50.8863139],[-2.6241279,50.8792674],[-2.611239,50.8850265],[-2.6097492,50.8918996],[-2.6148512,50.8932976],[-2.6240643,50.9078746],[-2.6166142,50.9133706],[-2.6148045,50.923264],[-2.6040411,50.9267321],[-2.6040316,50.9309828],[-2.6160342,50.9414546],[-2.6271178,50.9392122],[-2.6286886,50.9336735],[-2.6462172,50.9235655],[-2.6615893,50.9275627],[-2.6686101,50.9361782],[-2.6768781,50.9363625]]],"type":"Polygon"},"id":"E02006094","properties":{"code":"E02006094","geography":"MSOA","name":"South Somerset 020"},"type":"Feature"},{"geometry":{"coordinates":[[[-2.7549877,50.8667862],[-2.7564815,50.8794367],[-2.7681966,50.8847772],[-2.775229,50.8832045],[-2.7768781,50.8910307],[-2.7836848,50.8890203],[-2.791181,50.8990712],[-2.8059191,50.8952159],[-2.8077247,50.8924085],[-2.8024306,50.8886799],[-2.8170083,50.8827668],[-2.802458,50.8740163],[-2.7916124,50.8714178],[-2.7858186,50.8637458],[-2.7920711,50.8606766],[-2.7999749,50.864778],[-2.8006108,50.860808],[-2.8051273,50.8616803],[-2.8003602,50.856173],[-2.7878039,50.8536571],[-2.7822852,50.8597049],[-2.761687,50.8608078],[-2.7599153,50.8659893],[-2.7549877,50.8667862]]],"type":"Polygon"},"id":"E02006095","properties":{"code":"E02006095","geography":"MSOA","name":"South Somerset 021"},"type":"Feature"},{"geometry":{"coordinates":[[[-2.9595178,50.8614032],[-2.9500223,50.8655702],[-2.9447251,50.8738109],[-2.9238765,50.8734454],[-2.9263201,50.8778379],[-2.9375276,50.8808832],[-2.9349591,50.886908],[-2.9485151,50.8903734],[-2.9488009,50.8926741],[-2.9509499,50.8889309],[-2.9584227,50.887779],[-2.9574544,50.8836711],[-2.9745768,50.8821641],[-2.9771804,50.8768346],[-2.9508593,50.8795317],[-2.9500675,50.8740822],[-2.9609293,50.8733626],[-2.9631696,50.8697042],[-2.9569629,50.8658058],[-2.9595178,50.8614032]]],"type":"Polygon"},"id":"E02006096","properties":{"code":"E02006096","geography":"MSOA","name":"South Somerset 022"},"type":"Feature"},{"geometry":{"coordinates":[[[-2.9595178,50.8614032],[-2.9569629,50.8658058],[-2.9631696,50.8697042],[-2.9609293,50.8733626],[-2.9500675,50.8740822],[-2.9508593,50.8795317],[-2.9771804,50.8768346],[-2.9784102,50.8722914],[-2.9716671,50.87123],[-2.9713235,50.8672221],[-2.9648812,50.8653323],[-2.9630386,50.8608048],[-2.9595178,50.8614032]]],"type":"Polygon"},"id":"E02006097","properties":{"code":"E02006097","geography":"MSOA","name":"South Somerset 023"},"type":"Feature"},{"geometry":{"coordinates":[[[-2.8725129,50.9265465],[-2.8765794,50.922919],[-2.8870011,50.9246468],[-2.8877947,50.9195915],[-2.9017327,50.9219136],[-2.9106347,50.9193607],[-2.9118243,50.9145772],[-2.9225766,50.9089992],[-2.9340774,50.9089275],[-2.9370199,50.9022529],[-2.9615221,50.9013756],[-2.9630617,50.9149274],[-2.9695742,50.9137711],[-2.9840766,50.9233464],[-2.9949121,50.9227905],[-2.9983432,50.9274877],[-3.0103515,50.9262152],[-3.007142,50.9367672],[-3.0180339,50.9445894],[-3.028768,50.9415498],[-3.0328121,50.9363154],[-3.0471581,50.9329071],[-3.0585778,50.9326287],[-3.0803472,50.9398492],[-3.0883687,50.938014],[-3.0923797,50.9296501],[-3.0845638,50.921653],[-3.0731786,50.9144777],[-3.0600799,50.9127727],[-3.0523785,50.9082157],[-3.0498049,50.9037677],[-3.0553143,50.8931813],[-3.0518089,50.8826888],[-3.0547586,50.8745553],[-3.0437256,50.8681131],[-3.0384353,50.8683239],[-3.0326247,50.8616481],[-3.0367993,50.8510742],[-3.0114347,50.857242],[-2.9984978,50.8509952],[-2.9941646,50.8552069],[-2.9735752,50.8557215],[-2.9746461,50.8523618],[-2.9680171,50.8513072],[-2.9724815,50.8460469],[-2.9691641,50.8382043],[-2.9698209,50.83419],[-2.9543157,50.8211821],[-2.947364,50.8237015],[-2.9417194,50.8358743],[-2.9343768,50.8364837],[-2.9300833,50.8409635],[-2.9252008,50.8394592],[-2.9102558,50.8447959],[-2.9030573,50.8438065],[-2.8862277,50.8506001],[-2.8793232,50.8464853],[-2.8783792,50.8489527],[-2.8725341,50.8489386],[-2.8451936,50.8516025],[-2.8428441,50.8473543],[-2.82858,50.8487534],[-2.8289437,50.8517129],[-2.8177286,50.8556229],[-2.8114237,50.8634176],[-2.8003602,50.856173],[-2.8051273,50.8616803],[-2.8006108,50.860808],[-2.7999749,50.864778],[-2.7920711,50.8606766],[-2.7858186,50.8637458],[-2.7916124,50.8714178],[-2.802458,50.8740163],[-2.8170083,50.8827668],[-2.8024306,50.8886799],[-2.8077247,50.8924085],[-2.8059191,50.8952159],[-2.8118929,50.8947384],[-2.8065505,50.9050916],[-2.8136668,50.9058226],[-2.8302193,50.8931139],[-2.8501268,50.8946927],[-2.8559936,50.9003709],[-2.8643296,50.9005891],[-2.8641576,50.9098753],[-2.8582034,50.9104858],[-2.8588641,50.9146993],[-2.8538648,50.9142756],[-2.8529641,50.9198674],[-2.8393898,50.9123095],[-2.8390266,50.9177473],[-2.8725129,50.9265465]],[[-2.9771804,50.8768346],[-2.9745768,50.8821641],[-2.9574544,50.8836711],[-2.9584227,50.887779],[-2.9509499,50.8889309],[-2.9488009,50.8926741],[-2.9485151,50.8903734],[-2.9349591,50.886908],[-2.9375276,50.8808832],[-2.9263201,50.8778379],[-2.9238765,50.8734454],[-2.9447251,50.8738109],[-2.9500223,50.8655702],[-2.9595178,50.8614032],[-2.9630386,50.8608048],[-2.9648812,50.8653323],[-2.9713235,50.8672221],[-2.9716671,50.87123],[-2.9784102,50.8722914],[-2.9771804,50.8768346]]],"type":"Polygon"},"id":"E02006098","properties":{"code":"E02006098","geography":"MSOA","name":"South Somerset 024"},"type":"Feature"},{"geometry":{"coordinates":[[[-3.1365281,51.0720677],[-3.1530382,51.0848573],[-3.1499188,51.0887041],[-3.1599416,51.0908643],[-3.1514115,51.0931257],[-3.1519413,51.0974927],[-3.1408491,51.0995195],[-3.1421565,51.1092834],[-3.1684154,51.1043109],[-3.1686211,51.108395],[-3.1750412,51.1075187],[-3.1935461,51.1123606],[-3.1977281,51.1180715],[-3.2243633,51.1041259],[-3.2313828,51.0959337],[-3.2418482,51.0940748],[-3.2511159,51.0980279],[-3.2620011,51.0852773],[-3.2676063,51.0848623],[-3.2834636,51.0926711],[-3.2949431,51.0846301],[-3.2682517,51.0614774],[-3.2604747,51.0544978],[-3.2433251,51.0532293],[-3.2467869,51.0413113],[-3.2220803,51.0335627],[-3.204654,51.0396193],[-3.1825745,51.0352245],[-3.1663788,51.0347488],[-3.1587849,51.0469338],[-3.1634078,51.0505459],[-3.1584072,51.0564868],[-3.1466438,51.0582682],[-3.1450587,51.0671252],[-3.1365281,51.0720677]]],"type":"Polygon"},"id":"E02006099","properties":{"code":"E02006099","geography":"MSOA","name":"Somerset West and Taunton 006"},"type":"Feature"},{"geometry":{"coordinates":[[[-3.0895562,51.0660723],[-3.1009392,51.0675222],[-3.1023065,51.0730505],[-3.1365281,51.0720677],[-3.1450587,51.0671252],[-3.1466438,51.0582682],[-3.1584072,51.0564868],[-3.1634078,51.0505459],[-3.1587849,51.0469338],[-3.1363486,51.0378146],[-3.135037,51.030994],[-3.1296892,51.0353486],[-3.1223793,51.0247585],[-3.1042109,51.0263957],[-3.1083773,51.0315672],[-3.1044851,51.0315453],[-3.1074215,51.0359989],[-3.1007297,51.0332474],[-3.0994349,51.039513],[-3.0876031,51.0388171],[-3.0836605,51.0289976],[-3.089855,51.0252026],[-3.0892441,51.0238706],[-3.0805883,51.0247172],[-3.0724824,51.0275086],[-3.0695736,51.0322195],[-3.0768029,51.0493971],[-3.081678,51.0522287],[-3.0803485,51.0587243],[-3.0895562,51.0660723]]],"type":"Polygon"},"id":"E02006100","properties":{"code":"E02006100","geography":"MSOA","name":"Somerset West and Taunton 007"},"type":"Feature"},{"geometry":{"coordinates":[[[-3.2682517,51.0614774],[-3.2877703,51.0615639],[-3.286495,51.066517],[-3.3054201,51.0728231],[-3.3583576,51.065264],[-3.3592334,51.0602998],[-3.3501091,51.0529138],[-3.3528591,51.0450592],[-3.378953,51.0423045],[-3.3923304,51.0485727],[-3.3970516,51.0409691],[-3.3945733,51.0390137],[-3.4031106,51.0372485],[-3.4156887,51.027841],[-3.41416,51.0197077],[-3.3881922,51.0196458],[-3.3791887,51.0167999],[-3.3834146,50.9945425],[-3.3786505,50.9775143],[-3.3337078,50.9828034],[-3.3231653,50.9775348],[-3.319859,50.970556],[-3.3053756,50.9649158],[-3.2997433,50.9656045],[-3.2971986,50.9774853],[-3.2933508,50.9791035],[-3.2981568,50.9817543],[-3.29328,50.9886672],[-3.3001768,50.9881833],[-3.3039314,50.9946881],[-3.2983215,50.9945015],[-3.2952689,51.0054849],[-3.2847405,51.0063349],[-3.2837021,51.0095558],[-3.2718574,51.009842],[-3.2691325,51.0128805],[-3.2618532,51.0089804],[-3.2574398,51.0126724],[-3.2446952,51.0069547],[-3.2378784,51.0097591],[-3.2191977,51.0085419],[-3.2175696,51.0168147],[-3.2286128,51.0250258],[-3.2207304,51.0287135],[-3.2220803,51.0335627],[-3.2467869,51.0413113],[-3.2433251,51.0532293],[-3.2604747,51.0544978],[-3.2682517,51.0614774]]],"type":"Polygon"},"id":"E02006101","properties":{"code":"E02006101","geography":"MSOA","name":"Somerset West and Taunton 013"},"type":"Feature"},{"geometry":{"coordinates":[[[-3.089855,51.0252026],[-3.0836605,51.0289976],[-3.0876031,51.0388171],[-3.0994349,51.039513],[-3.1007297,51.0332474],[-3.1074215,51.0359989],[-3.1044851,51.0315453],[-3.1083773,51.0315672],[-3.0988361,51.0309579],[-3.0997727,51.0256727],[-3.0960971,51.0281383],[-3.089855,51.0252026]]],"type":"Polygon"},"id":"E02006102","properties":{"code":"E02006102","geography":"MSOA","name":"Somerset West and Taunton 010"},"type":"Feature"},{"geometry":{"coordinates":[[[-2.8881879,51.0691052],[-2.9043858,51.0751329],[-2.9121886,51.085167],[-2.9215779,51.0818121],[-2.9252445,51.0851345],[-2.9346889,51.0832915],[-2.9358388,51.0765388],[-2.9464792,51.0759019],[-2.9487034,51.0733301],[-2.9462685,51.0685911],[-2.9268203,51.0615341],[-2.933143,51.0572619],[-2.947078,51.0569897],[-2.9577764,51.047438],[-2.9672912,51.0470125],[-2.9806997,51.0408758],[-2.9879077,51.0462609],[-2.9941044,51.046515],[-2.9974431,51.05379],[-3.0178488,51.0545638],[-3.0312045,51.04792],[-3.0322029,51.0570916],[-3.024445,51.0570196],[-3.0246728,51.0598492],[-3.0358653,51.059881],[-3.0461586,51.0654797],[-3.052715,51.0649963],[-3.0389713,51.0530358],[-3.0378635,51.0465625],[-3.0501444,51.042582],[-3.0494316,51.0224007],[-3.0614826,51.0171822],[-3.0555377,51.0132048],[-3.0588339,51.0002589],[-3.0492676,51.0016797],[-3.0403928,50.9985524],[-3.0316897,51.0027491],[-3.0268501,51.0006854],[-3.0318349,50.9917911],[-3.0274611,50.9896257],[-3.0250048,50.9939584],[-3.018083,50.9929173],[-3.0209686,50.9958786],[-3.0178184,50.9967486],[-3.0120315,50.9935382],[-3.009333,50.9994382],[-2.9915497,50.996221],[-2.9932074,50.9868538],[-2.9839145,50.9902661],[-2.9781138,50.9980708],[-2.9443048,51.0032829],[-2.9504712,51.0112752],[-2.883839,51.0457942],[-2.8931024,51.0550417],[-2.8881879,51.0691052]]],"type":"Polygon"},"id":"E02006103","properties":{"code":"E02006103","geography":"MSOA","name":"Somerset West and Taunton 009"},"type":"Feature"},{"geometry":{"coordinates":[[[-3.0779135,51.0699759],[-3.0903499,51.070696],[-3.0895562,51.0660723],[-3.0803485,51.0587243],[-3.081678,51.0522287],[-3.0768029,51.0493971],[-3.0695736,51.0322195],[-3.0724824,51.0275086],[-3.0805883,51.0247172],[-3.0766332,51.0249476],[-3.0738405,51.0203529],[-3.0837936,51.0197012],[-3.0819061,51.0154304],[-3.0763139,51.0145591],[-3.0771009,51.0099437],[-3.0700874,51.0085162],[-3.0614826,51.0171822],[-3.0494316,51.0224007],[-3.0501444,51.042582],[-3.0378635,51.0465625],[-3.0389713,51.0530358],[-3.052715,51.0649963],[-3.0779135,51.0699759]]],"type":"Polygon"},"id":"E02006104","properties":{"code":"E02006104","geography":"MSOA","name":"Somerset West and Taunton 008"},"type":"Feature"},{"geometry":{"coordinates":[[[-3.089855,51.0252026],[-3.0960971,51.0281383],[-3.0997727,51.0256727],[-3.0988361,51.0309579],[-3.1083773,51.0315672],[-3.1042109,51.0263957],[-3.1223793,51.0247585],[-3.1152762,51.0196816],[-3.1086835,51.0162722],[-3.101479,51.0196777],[-3.1029588,51.0150345],[-3.0959223,51.0174682],[-3.0928564,51.0137953],[-3.0897229,51.0191446],[-3.0892441,51.0238706],[-3.089855,51.0252026]]],"type":"Polygon"},"id":"E02006105","properties":{"code":"E02006105","geography":"MSOA","name":"Somerset West and Taunton 011"},"type":"Feature"},{"geometry":{"coordinates":[[[-3.1223793,51.0247585],[-3.1296892,51.0353486],[-3.135037,51.030994],[-3.1363486,51.0378146],[-3.1587849,51.0469338],[-3.1663788,51.0347488],[-3.1825745,51.0352245],[-3.1847976,51.0269243],[-3.1892669,51.0251228],[-3.167728,51.0225307],[-3.1652819,51.0171003],[-3.1586306,51.0178813],[-3.1512917,51.0099479],[-3.1497003,51.0127466],[-3.1463036,51.0114977],[-3.1452188,51.0089957],[-3.1506842,51.0065437],[-3.1565684,51.0091133],[-3.1662785,51.0039764],[-3.1648555,50.9979187],[-3.1595986,50.9998721],[-3.1586054,50.9954719],[-3.1500093,50.9955911],[-3.1506416,51.0002718],[-3.1442727,51.0025358],[-3.1407643,51.0085385],[-3.1246894,51.0100793],[-3.1215324,51.0174897],[-3.1167292,51.0170223],[-3.1152762,51.0196816],[-3.1223793,51.0247585]]],"type":"Polygon"},"id":"E02006106","properties":{"code":"E02006106","geography":"MSOA","name":"Somerset West and Taunton 012"},"type":"Feature"},{"geometry":{"coordinates":[[[-3.0700874,51.0085162],[-3.0771009,51.0099437],[-3.0763139,51.0145591],[-3.0819061,51.0154304],[-3.0837936,51.0197012],[-3.0738405,51.0203529],[-3.0766332,51.0249476],[-3.0805883,51.0247172],[-3.0892441,51.0238706],[-3.0897229,51.0191446],[-3.0897479,51.011337],[-3.0773949,51.0015525],[-3.0700874,51.0085162]]],"type":"Polygon"},"id":"E02006107","properties":{"code":"E02006107","geography":"MSOA","name":"Somerset West and Taunton 014"},"type":"Feature"},{"geometry":{"coordinates":[[[-3.0897229,51.0191446],[-3.0928564,51.0137953],[-3.0959223,51.0174682],[-3.1029588,51.0150345],[-3.101479,51.0196777],[-3.1086835,51.0162722],[-3.1133216,51.0077815],[-3.1218296,51.0081056],[-3.1242984,51.0053528],[-3.1224951,51.0017535],[-3.1125815,51.0002539],[-3.1150669,50.9957492],[-3.1035532,50.9997271],[-3.0897479,51.011337],[-3.0897229,51.0191446]]],"type":"Polygon"},"id":"E02006108","properties":{"code":"E02006108","geography":"MSOA","name":"Somerset West and Taunton 015"},"type":"Feature"},{"geometry":{"coordinates":[[[-3.1086835,51.0162722],[-3.1152762,51.0196816],[-3.1167292,51.0170223],[-3.1215324,51.0174897],[-3.1246894,51.0100793],[-3.1407643,51.0085385],[-3.1442727,51.0025358],[-3.1506416,51.0002718],[-3.1500093,50.9955911],[-3.1586054,50.9954719],[-3.1686546,50.9891289],[-3.1598122,50.985453],[-3.168781,50.9762882],[-3.1654825,50.9742043],[-3.1161339,50.981778],[-3.0908039,50.9954634],[-3.1035532,50.9997271],[-3.1150669,50.9957492],[-3.1125815,51.0002539],[-3.1224951,51.0017535],[-3.1242984,51.0053528],[-3.1218296,51.0081056],[-3.1133216,51.0077815],[-3.1086835,51.0162722]]],"type":"Polygon"},"id":"E02006109","properties":{"code":"E02006109","geography":"MSOA","name":"Somerset West and Taunton 016"},"type":"Feature"},{"geometry":{"coordinates":[[[-3.2038012,50.9818736],[-3.2191238,50.9881825],[-3.2394373,50.9892691],[-3.2387851,50.9913173],[-3.2551163,50.9869532],[-3.2552722,50.9841809],[-3.2499489,50.9783712],[-3.2415754,50.9804996],[-3.2450472,50.9767033],[-3.2345022,50.9698214],[-3.2303154,50.9695366],[-3.2246593,50.9791195],[-3.2040458,50.9784999],[-3.2038012,50.9818736]]],"type":"Polygon"},"id":"E02006110","properties":{"code":"E02006110","geography":"MSOA","name":"Somerset West and Taunton 018"},"type":"Feature"},{"geometry":{"coordinates":[[[-3.1825745,51.0352245],[-3.204654,51.0396193],[-3.2220803,51.0335627],[-3.2207304,51.0287135],[-3.2286128,51.0250258],[-3.2175696,51.0168147],[-3.2191977,51.0085419],[-3.2378784,51.0097591],[-3.2446952,51.0069547],[-3.2574398,51.0126724],[-3.2618532,51.0089804],[-3.2691325,51.0128805],[-3.2718574,51.009842],[-3.2837021,51.0095558],[-3.2847405,51.0063349],[-3.2952689,51.0054849],[-3.2983215,50.9945015],[-3.3039314,50.9946881],[-3.3001768,50.9881833],[-3.29328,50.9886672],[-3.2981568,50.9817543],[-3.2933508,50.9791035],[-3.2971986,50.9774853],[-3.2997433,50.9656045],[-3.3053756,50.9649158],[-3.2938356,50.955145],[-3.2548193,50.9418523],[-3.2183352,50.9432875],[-3.1884788,50.9485987],[-3.1639352,50.9459789],[-3.1585455,50.9547287],[-3.159672,50.9687532],[-3.1654825,50.9742043],[-3.168781,50.9762882],[-3.1598122,50.985453],[-3.1686546,50.9891289],[-3.1586054,50.9954719],[-3.1595986,50.9998721],[-3.1648555,50.9979187],[-3.1662785,51.0039764],[-3.1565684,51.0091133],[-3.1506842,51.0065437],[-3.1452188,51.0089957],[-3.1463036,51.0114977],[-3.1497003,51.0127466],[-3.1512917,51.0099479],[-3.1586306,51.0178813],[-3.1652819,51.0171003],[-3.167728,51.0225307],[-3.1892669,51.0251228],[-3.1847976,51.0269243],[-3.1825745,51.0352245]],[[-3.2038012,50.9818736],[-3.2040458,50.9784999],[-3.2246593,50.9791195],[-3.2303154,50.9695366],[-3.2345022,50.9698214],[-3.2450472,50.9767033],[-3.2415754,50.9804996],[-3.2499489,50.9783712],[-3.2552722,50.9841809],[-3.2551163,50.9869532],[-3.2387851,50.9913173],[-3.2394373,50.9892691],[-3.2191238,50.9881825],[-3.2038012,50.9818736]]],"type":"Polygon"},"id":"E02006111","properties":{"code":"E02006111","geography":"MSOA","name":"Somerset West and Taunton 017"},"type":"Feature"},{"geometry":{"coordinates":[[[-2.9839145,50.9902661],[-2.9932074,50.9868538],[-2.9915497,50.996221],[-3.009333,50.9994382],[-3.0120315,50.9935382],[-3.0178184,50.9967486],[-3.0209686,50.9958786],[-3.018083,50.9929173],[-3.0250048,50.9939584],[-3.0274611,50.9896257],[-3.0318349,50.9917911],[-3.0268501,51.0006854],[-3.0316897,51.0027491],[-3.0403928,50.9985524],[-3.0492676,51.0016797],[-3.0588339,51.0002589],[-3.0555377,51.0132048],[-3.0614826,51.0171822],[-3.0700874,51.0085162],[-3.0773949,51.0015525],[-3.0897479,51.011337],[-3.1035532,50.9997271],[-3.0908039,50.9954634],[-3.1161339,50.981778],[-3.1654825,50.9742043],[-3.159672,50.9687532],[-3.1585455,50.9547287],[-3.1639352,50.9459789],[-3.1724884,50.9357201],[-3.1724945,50.9255997],[-3.1802705,50.9228971],[-3.1878605,50.9104281],[-3.1704884,50.9075902],[-3.1704239,50.9003597],[-3.1560865,50.9000691],[-3.1528654,50.8938061],[-3.1441684,50.8914024],[-3.139177,50.8917122],[-3.1263321,50.9017253],[-3.122069,50.8981485],[-3.089643,50.9061273],[-3.0523785,50.9082157],[-3.0600799,50.9127727],[-3.0731786,50.9144777],[-3.0845638,50.921653],[-3.0923797,50.9296501],[-3.0883687,50.938014],[-3.0803472,50.9398492],[-3.0585778,50.9326287],[-3.0471581,50.9329071],[-3.0328121,50.9363154],[-3.028768,50.9415498],[-3.0180339,50.9445894],[-3.0109347,50.9473853],[-3.0076995,50.9570776],[-2.9847317,50.9632697],[-2.9804539,50.9649989],[-2.9827796,50.9721026],[-2.9750993,50.9731669],[-2.9780397,50.984847],[-2.9839145,50.9902661]]],"type":"Polygon"},"id":"E02006112","properties":{"code":"E02006112","geography":"MSOA","name":"Somerset West and Taunton 019"},"type":"Feature"},{"geometry":{"coordinates":[[[-3.4634055,51.2085778],[-3.4684045,51.2079809],[-3.469019,51.2079075],[-3.4724032,51.2136489],[-3.4862849,51.2198901],[-3.4863642,51.2199208],[-3.4954783,51.2143469],[-3.4892475,51.2041477],[-3.4806003,51.2041181],[-3.48532,51.1992567],[-3.4747197,51.1988873],[-3.4718225,51.1946165],[-3.4645689,51.1962552],[-3.4634055,51.2085778]]],"type":"Polygon"},"id":"E02006113","properties":{"code":"E02006113","geography":"MSOA","name":"Somerset West and Taunton 001"},"type":"Feature"},{"geometry":{"coordinates":[[[-3.4863642,51.2199208],[-3.4968838,51.2239881],[-3.5029641,51.22301],[-3.5544969,51.2330899],[-3.568735,51.2326054],[-3.5687027,51.2326266],[-3.5787823,51.2321452],[-3.5884718,51.2253069],[-3.5902274,51.2240317],[-3.5921611,51.2227024],[-3.6216996,51.2167761],[-3.6236593,51.2181039],[-3.6332953,51.2238726],[-3.6377952,51.2243486],[-3.6398222,51.2233707],[-3.6885297,51.2297029],[-3.7201533,51.2330285],[-3.7205333,51.2330684],[-3.7331855,51.222726],[-3.7287212,51.2188523],[-3.731557,51.2151323],[-3.7261956,51.1994249],[-3.7320717,51.190971],[-3.7244058,51.1839224],[-3.7252786,51.1793617],[-3.7193684,51.175795],[-3.6998636,51.1769228],[-3.6961254,51.1865994],[-3.6724501,51.1852118],[-3.6651354,51.168302],[-3.640413,51.1579887],[-3.594891,51.1625662],[-3.5774336,51.1652932],[-3.5508766,51.1833863],[-3.5451778,51.1825708],[-3.5432989,51.188274],[-3.5355181,51.1901879],[-3.4729728,51.1827739],[-3.4621432,51.1837246],[-3.4514817,51.2048413],[-3.4419996,51.2050983],[-3.442001,51.2065083],[-3.4552204,51.2095547],[-3.4634055,51.2085778],[-3.4645689,51.1962552],[-3.4718225,51.1946165],[-3.4747197,51.1988873],[-3.48532,51.1992567],[-3.4806003,51.2041181],[-3.4892475,51.2041477],[-3.4954783,51.2143469],[-3.4863642,51.2199208]]],"type":"Polygon"},"id":"E02006114","properties":{"code":"E02006114","geography":"MSOA","name":"Somerset West and Taunton 002"},"type":"Feature"},{"geometry":{"coordinates":[[[-3.2853415,51.180884],[-3.2939436,51.1826857],[-3.3132048,51.1795629],[-3.32813,51.1818637],[-3.3288454,51.1840515],[-3.3495357,51.1816009],[-3.350228,51.1815189],[-3.3736113,51.1846664],[-3.3931075,51.1825061],[-3.4116305,51.1838657],[-3.4239267,51.1906293],[-3.4283021,51.1875545],[-3.4387653,51.1852095],[-3.4493289,51.1733816],[-3.4673186,51.1692751],[-3.4683075,51.1636563],[-3.4617625,51.1535986],[-3.4652166,51.1498071],[-3.4568283,51.1504327],[-3.4541166,51.1436807],[-3.4471405,51.1428185],[-3.4419621,51.1464247],[-3.4314249,51.1429032],[-3.4332043,51.1352727],[-3.4266041,51.1297708],[-3.4194104,51.13054],[-3.4132574,51.1254671],[-3.3986958,51.1257638],[-3.3970325,51.1298861],[-3.4032456,51.1308988],[-3.4050286,51.140477],[-3.3884959,51.1507343],[-3.3965043,51.1536722],[-3.3842613,51.1552455],[-3.3824731,51.160671],[-3.3755481,51.1594834],[-3.3740606,51.1550284],[-3.3624639,51.1575289],[-3.3587951,51.1556541],[-3.3584337,51.1610332],[-3.3526107,51.1602762],[-3.3530579,51.1646576],[-3.3492446,51.1623924],[-3.3529973,51.1648611],[-3.3487433,51.1746581],[-3.3230878,51.1711613],[-3.3210335,51.175104],[-3.3158666,51.1702455],[-3.320294,51.1626103],[-3.3136222,51.1667631],[-3.3110855,51.164571],[-3.3148805,51.163315],[-3.3078241,51.1594401],[-3.3033032,51.1601932],[-3.3050402,51.1640208],[-3.2872801,51.1614138],[-3.2810561,51.1695655],[-3.2885709,51.1695019],[-3.2916577,51.1756883],[-3.2853415,51.180884]]],"type":"Polygon"},"id":"E02006115","properties":{"code":"E02006115","geography":"MSOA","name":"Somerset West and Taunton 003"},"type":"Feature"},{"geometry":{"coordinates":[[[-3.0538598,51.2060332],[-3.0545474,51.2056733],[-3.0763702,51.2013785],[-3.1007374,51.2084059],[-3.1144387,51.2069777],[-3.1314324,51.2108413],[-3.1466214,51.2093883],[-3.1548123,51.2086039],[-3.1642779,51.202648],[-3.1804203,51.1997643],[-3.1901135,51.2026686],[-3.2021731,51.2014635],[-3.216261,51.1943128],[-3.2289646,51.1918169],[-3.2568934,51.1877253],[-3.275837,51.1797786],[-3.28413,51.1806302],[-3.2853415,51.180884],[-3.2916577,51.1756883],[-3.2885709,51.1695019],[-3.2810561,51.1695655],[-3.2872801,51.1614138],[-3.3050402,51.1640208],[-3.3033032,51.1601932],[-3.3078241,51.1594401],[-3.3148805,51.163315],[-3.3110855,51.164571],[-3.3136222,51.1667631],[-3.320294,51.1626103],[-3.3158666,51.1702455],[-3.3210335,51.175104],[-3.3230878,51.1711613],[-3.3487433,51.1746581],[-3.3529973,51.1648611],[-3.3492446,51.1623924],[-3.3530579,51.1646576],[-3.3526107,51.1602762],[-3.3584337,51.1610332],[-3.3587951,51.1556541],[-3.3624639,51.1575289],[-3.3740606,51.1550284],[-3.3755481,51.1594834],[-3.3824731,51.160671],[-3.3842613,51.1552455],[-3.3965043,51.1536722],[-3.3884959,51.1507343],[-3.4050286,51.140477],[-3.4032456,51.1308988],[-3.3970325,51.1298861],[-3.3986958,51.1257638],[-3.4132574,51.1254671],[-3.4194104,51.13054],[-3.4266041,51.1297708],[-3.4332043,51.1352727],[-3.4314249,51.1429032],[-3.4419621,51.1464247],[-3.4471405,51.1428185],[-3.4541166,51.1436807],[-3.4568283,51.1504327],[-3.4652166,51.1498071],[-3.4758184,51.1524302],[-3.4860933,51.1498073],[-3.4808255,51.1425083],[-3.4886445,51.1390726],[-3.4983254,51.1184797],[-3.4666685,51.1090352],[-3.4405099,51.1089613],[-3.4083435,51.1009453],[-3.380915,51.0997104],[-3.4038594,51.0971543],[-3.4075064,51.0903855],[-3.4036582,51.0888218],[-3.4147703,51.0850035],[-3.4154777,51.0819267],[-3.4290362,51.0874396],[-3.43845,51.0709989],[-3.4515838,51.0669722],[-3.4525229,51.0627358],[-3.468034,51.0585725],[-3.4694567,51.0543028],[-3.4625575,51.0508445],[-3.4666286,51.0468384],[-3.4728545,51.0467987],[-3.4735509,51.0392567],[-3.478495,51.0396727],[-3.4761629,51.0446241],[-3.4822617,51.0441339],[-3.4841264,51.0338233],[-3.4636745,51.0252667],[-3.447225,51.0257284],[-3.4268015,51.0314099],[-3.4156887,51.027841],[-3.4031106,51.0372485],[-3.3945733,51.0390137],[-3.3970516,51.0409691],[-3.3923304,51.0485727],[-3.378953,51.0423045],[-3.3528591,51.0450592],[-3.3501091,51.0529138],[-3.3592334,51.0602998],[-3.3583576,51.065264],[-3.3054201,51.0728231],[-3.286495,51.066517],[-3.2877703,51.0615639],[-3.2682517,51.0614774],[-3.2949431,51.0846301],[-3.2834636,51.0926711],[-3.2676063,51.0848623],[-3.2620011,51.0852773],[-3.2511159,51.0980279],[-3.2418482,51.0940748],[-3.2313828,51.0959337],[-3.2243633,51.1041259],[-3.1977281,51.1180715],[-3.2163565,51.1299972],[-3.2054572,51.1428091],[-3.1786688,51.146709],[-3.173641,51.1523141],[-3.1632719,51.1541371],[-3.1575296,51.163673],[-3.1381307,51.1624543],[-3.1333048,51.1639489],[-3.136504,51.1676736],[-3.1137209,51.1699146],[-3.1162236,51.1760577],[-3.1060535,51.1776021],[-3.1072563,51.1829646],[-3.0968201,51.1845232],[-3.0981635,51.1884641],[-3.0883753,51.1912483],[-3.0854716,51.1960748],[-3.067465,51.1944642],[-3.0515889,51.2033118],[-3.0538598,51.2060332]]],"type":"Polygon"},"id":"E02006116","properties":{"code":"E02006116","geography":"MSOA","name":"Somerset West and Taunton 004"},"type":"Feature"},{"geometry":{"coordinates":[[[-3.4239267,51.1906293],[-3.4242643,51.1908149],[-3.432596,51.1981946],[-3.442001,51.2065083],[-3.4419996,51.2050983],[-3.4514817,51.2048413],[-3.4621432,51.1837246],[-3.4729728,51.1827739],[-3.5355181,51.1901879],[-3.5432989,51.188274],[-3.5451778,51.1825708],[-3.5508766,51.1833863],[-3.5774336,51.1652932],[-3.594891,51.1625662],[-3.640413,51.1579887],[-3.6651354,51.168302],[-3.6724501,51.1852118],[-3.6961254,51.1865994],[-3.6998636,51.1769228],[-3.7193684,51.175795],[-3.7252786,51.1793617],[-3.7458592,51.1755589],[-3.7572333,51.1773511],[-3.786287,51.1719287],[-3.8062507,51.1778748],[-3.8398034,51.1766741],[-3.8320511,51.1511873],[-3.8347195,51.1413846],[-3.8215057,51.1263819],[-3.8042712,51.1156877],[-3.7673779,51.1057864],[-3.7199375,51.080818],[-3.6923906,51.0805954],[-3.6824046,51.0733341],[-3.6502405,51.0640954],[-3.6523148,51.0596453],[-3.6353378,51.0563001],[-3.6242875,51.0612424],[-3.6130368,51.0561103],[-3.6103137,51.05795],[-3.5944555,51.0551981],[-3.6003142,51.0506461],[-3.5981525,51.0369756],[-3.6146376,51.015495],[-3.6097286,51.007988],[-3.6031911,51.0072381],[-3.5350338,51.0033523],[-3.5273253,51.0056863],[-3.5188865,51.0147978],[-3.520413,51.0258756],[-3.4841264,51.0338233],[-3.4822617,51.0441339],[-3.4761629,51.0446241],[-3.478495,51.0396727],[-3.4735509,51.0392567],[-3.4728545,51.0467987],[-3.4666286,51.0468384],[-3.4625575,51.0508445],[-3.4694567,51.0543028],[-3.468034,51.0585725],[-3.4525229,51.0627358],[-3.4515838,51.0669722],[-3.43845,51.0709989],[-3.4290362,51.0874396],[-3.4154777,51.0819267],[-3.4147703,51.0850035],[-3.4036582,51.0888218],[-3.4075064,51.0903855],[-3.4038594,51.0971543],[-3.380915,51.0997104],[-3.4083435,51.1009453],[-3.4405099,51.1089613],[-3.4666685,51.1090352],[-3.4983254,51.1184797],[-3.4886445,51.1390726],[-3.4808255,51.1425083],[-3.4860933,51.1498073],[-3.4758184,51.1524302],[-3.4652166,51.1498071],[-3.4617625,51.1535986],[-3.4683075,51.1636563],[-3.4673186,51.1692751],[-3.4493289,51.1733816],[-3.4387653,51.1852095],[-3.4283021,51.1875545],[-3.4239267,51.1906293]]],"type":"Polygon"},"id":"E02006117","properties":{"code":"E02006117","geography":"MSOA","name":"Somerset West and Taunton 005"},"type":"Feature"}],"type":"FeatureCollection"}
