{"features":[{"geometry":{"coordinates":[[[-0.144019,54.1409539],[-0.1443225,54.1410525],[-0.1642363,54.1483782],[-0.1705279,54.1506915],[-0.1870567,54.1536786],[-0.2125735,54.1575836],[-0.2216777,54.1379531],[-0.2290524,54.1357073],[-0.2297334,54.1324199],[-0.2372108,54.1372296],[-0.2654068,54.1405389],[-0.2690551,54.1383139],[-0.2905508,54.1397364],[-0.3040691,54.1362506],[-0.3158392,54.1167659],[-0.2907239,54.120341],[-0.2874593,54.0816082],[-0.2491796,54.089324],[-0.2388364,54.0930647],[-0.2281216,54.0912731],[-0.2248354,54.0989596],[-0.2195097,54.0998289],[-0.2128009,54.1004367],[-0.2133006,54.0940752],[-0.1986393,54.0973486],[-0.1806652,54.0982889],[-0.1835066,54.1012293],[-0.173771,54.103443],[-0.1668613,54.111552],[-0.1452055,54.113529],[-0.144019,54.1409539]]],"type":"Polygon"},"id":"E02002684","properties":{"code":"E02002684","geography":"MSOA","name":"East Riding of Yorkshire 001"},"type":"Feature"},{"geometry":{"coordinates":[[[-0.1747072,54.0921072],[-0.1664482,54.0983158],[-0.1647932,54.0995597],[-0.1403492,54.1043629],[-0.1051365,54.1039898],[-0.0770901,54.1142487],[-0.0780243,54.1160631],[-0.0937386,54.1283804],[-0.0950657,54.1287876],[-0.1043808,54.130564],[-0.1066398,54.1296069],[-0.1078146,54.1312186],[-0.1109445,54.1318151],[-0.113633,54.131084],[-0.1228821,54.1340896],[-0.1257414,54.1346341],[-0.1358297,54.1382951],[-0.144019,54.1409539],[-0.1452055,54.113529],[-0.1668613,54.111552],[-0.173771,54.103443],[-0.1835066,54.1012293],[-0.1806652,54.0982889],[-0.1986393,54.0973486],[-0.1961942,54.0939781],[-0.2026838,54.0925925],[-0.2015422,54.0906439],[-0.2049918,54.0932126],[-0.2071266,54.0892603],[-0.1791458,54.0940285],[-0.1747072,54.0921072]]],"type":"Polygon"},"id":"E02002685","properties":{"code":"E02002685","geography":"MSOA","name":"East Riding of Yorkshire 002"},"type":"Feature"},{"geometry":{"coordinates":[[[-0.1986393,54.0973486],[-0.2133006,54.0940752],[-0.2128009,54.1004367],[-0.2195097,54.0998289],[-0.2248354,54.0989596],[-0.2281216,54.0912731],[-0.2388364,54.0930647],[-0.2491796,54.089324],[-0.2325085,54.0690685],[-0.2259211,54.0700072],[-0.2222751,54.066709],[-0.2226381,54.0722789],[-0.2123922,54.0806477],[-0.2088409,54.0834269],[-0.2018331,54.0828549],[-0.2071266,54.0892603],[-0.2049918,54.0932126],[-0.2015422,54.0906439],[-0.2026838,54.0925925],[-0.1961942,54.0939781],[-0.1986393,54.0973486]]],"type":"Polygon"},"id":"E02002686","properties":{"code":"E02002686","geography":"MSOA","name":"East Riding of Yorkshire 003"},"type":"Feature"},{"geometry":{"coordinates":[[[-0.1747072,54.0921072],[-0.1791458,54.0940285],[-0.2071266,54.0892603],[-0.2018331,54.0828549],[-0.1969854,54.0842103],[-0.1932436,54.0817464],[-0.1897107,54.0875472],[-0.1844089,54.0848109],[-0.1838078,54.0852631],[-0.1747072,54.0921072]]],"type":"Polygon"},"id":"E02002687","properties":{"code":"E02002687","geography":"MSOA","name":"East Riding of Yorkshire 004"},"type":"Feature"},{"geometry":{"coordinates":[[[-0.1844089,54.0848109],[-0.1897107,54.0875472],[-0.1932436,54.0817464],[-0.1969854,54.0842103],[-0.2018331,54.0828549],[-0.2088409,54.0834269],[-0.2123922,54.0806477],[-0.2073843,54.0774557],[-0.2047542,54.0802863],[-0.2017912,54.0731831],[-0.1984108,54.0778984],[-0.192815,54.0789031],[-0.191863,54.079937],[-0.1876849,54.0799613],[-0.1911726,54.0811799],[-0.189142,54.081096],[-0.1872683,54.0811183],[-0.1864842,54.0799242],[-0.1863675,54.0796299],[-0.1847148,54.0845808],[-0.1844089,54.0848109]]],"type":"Polygon"},"id":"E02002688","properties":{"code":"E02002688","geography":"MSOA","name":"East Riding of Yorkshire 005"},"type":"Feature"},{"geometry":{"coordinates":[[[-0.3040691,54.1362506],[-0.3137518,54.1463835],[-0.3226387,54.1452574],[-0.3238275,54.1502778],[-0.3463833,54.1468543],[-0.3600234,54.1531015],[-0.3749131,54.1540938],[-0.3745116,54.1625455],[-0.3907688,54.1765126],[-0.418236,54.1740451],[-0.4180956,54.1712019],[-0.4245426,54.1695569],[-0.4229134,54.1662965],[-0.4331549,54.1640543],[-0.4270808,54.1374245],[-0.4585266,54.1259552],[-0.4543383,54.1167442],[-0.4683125,54.1112324],[-0.4659306,54.1076144],[-0.4968771,54.0972134],[-0.4901322,54.0937424],[-0.4940214,54.0869713],[-0.4609941,54.0531079],[-0.4285213,54.0591642],[-0.4005869,54.0591457],[-0.4005321,54.0546436],[-0.3927013,54.0528968],[-0.389881,54.0389924],[-0.373516,54.026677],[-0.3574973,54.0070497],[-0.3519569,53.9916291],[-0.3406919,53.9910688],[-0.3374822,53.9940096],[-0.3370586,54.0015417],[-0.3425842,54.006043],[-0.3341617,54.0165803],[-0.3391992,54.0189719],[-0.3395057,54.0298983],[-0.3205662,54.0370446],[-0.314722,54.0363679],[-0.3132555,54.0263841],[-0.3037888,54.0249483],[-0.3066908,54.0203358],[-0.3009867,54.0121617],[-0.2899886,54.007338],[-0.257121,54.0173639],[-0.2372384,54.00743],[-0.2145954,54.0102436],[-0.2113887,54.0078994],[-0.2150452,54.0158144],[-0.2152687,54.022739],[-0.2157703,54.0382779],[-0.2085176,54.0637965],[-0.2017912,54.0731831],[-0.2047542,54.0802863],[-0.2073843,54.0774557],[-0.2123922,54.0806477],[-0.2226381,54.0722789],[-0.2222751,54.066709],[-0.2259211,54.0700072],[-0.2325085,54.0690685],[-0.2491796,54.089324],[-0.2874593,54.0816082],[-0.2907239,54.120341],[-0.3158392,54.1167659],[-0.3040691,54.1362506]]],"type":"Polygon"},"id":"E02002689","properties":{"code":"E02002689","geography":"MSOA","name":"East Riding of Yorkshire 006"},"type":"Feature"},{"geometry":{"coordinates":[[[-0.4609941,54.0531079],[-0.4940214,54.0869713],[-0.4901322,54.0937424],[-0.4968771,54.0972134],[-0.5246057,54.0854559],[-0.5279159,54.0893207],[-0.5340189,54.0871616],[-0.5418051,54.0915102],[-0.5631255,54.0939815],[-0.5664716,54.0902849],[-0.5909941,54.087044],[-0.6155132,54.0704749],[-0.660305,54.0630813],[-0.6446432,54.0550947],[-0.658007,54.0436262],[-0.6594744,54.0371516],[-0.6768055,54.0376731],[-0.687029,54.0307489],[-0.6883636,54.0237121],[-0.6783398,54.0180026],[-0.6829812,54.0090795],[-0.7048932,54.0060537],[-0.726128,54.0002704],[-0.7048238,54.0025739],[-0.6947835,54.0007008],[-0.6852583,53.9935654],[-0.6998271,53.9895955],[-0.707196,53.981563],[-0.7066431,53.975132],[-0.6851449,53.9715786],[-0.627453,53.9801961],[-0.6289041,53.9607032],[-0.6249269,53.9521898],[-0.6324141,53.9423176],[-0.6293708,53.935083],[-0.5785393,53.9405838],[-0.5474641,53.9393129],[-0.5262597,53.9415119],[-0.5248933,53.9389196],[-0.5058329,53.938711],[-0.5004677,53.9347917],[-0.4991727,53.9384177],[-0.488636,53.9388051],[-0.4910176,53.9348272],[-0.4864877,53.9346421],[-0.4850523,53.9376302],[-0.4835138,53.9355923],[-0.4531301,53.934327],[-0.4357061,53.9272601],[-0.4279316,53.9288418],[-0.419531,53.9234994],[-0.4110555,53.9243788],[-0.3938668,53.9189125],[-0.3841407,53.9097103],[-0.3760775,53.9135246],[-0.3682838,53.9130422],[-0.3663173,53.9209895],[-0.3563367,53.9256382],[-0.3574911,53.9338617],[-0.3694507,53.9367491],[-0.3682551,53.9396032],[-0.4233221,53.9426577],[-0.4388664,53.9466351],[-0.4330353,53.9608757],[-0.4415647,53.9673378],[-0.4418123,53.9709927],[-0.4328064,53.9734586],[-0.4393593,53.9797594],[-0.4355833,53.9924568],[-0.4469998,53.9969044],[-0.4429392,53.9986934],[-0.4480398,54.0006026],[-0.4409921,54.0014878],[-0.4410591,54.0041273],[-0.4524594,54.006442],[-0.4426554,54.0102368],[-0.4460187,54.0143616],[-0.4568396,54.0022717],[-0.4675152,54.0069394],[-0.4609804,54.018374],[-0.4682592,54.0342538],[-0.4721657,54.0342161],[-0.4775084,54.0413509],[-0.4702735,54.052092],[-0.4609941,54.0531079]]],"type":"Polygon"},"id":"E02002691","properties":{"code":"E02002691","geography":"MSOA","name":"East Riding of Yorkshire 008"},"type":"Feature"},{"geometry":{"coordinates":[[[-0.8668618,53.9226123],[-0.8617269,53.9378066],[-0.8400805,53.9432662],[-0.8454425,53.9471853],[-0.8147954,53.9552832],[-0.8024523,53.9618399],[-0.7960991,53.9612613],[-0.7937078,53.9665801],[-0.7770975,53.9692794],[-0.7744595,53.9811253],[-0.7678128,53.9834476],[-0.7919946,53.9880853],[-0.8134427,53.9868698],[-0.8215298,53.9833394],[-0.8445378,53.9881309],[-0.8500326,53.9972681],[-0.8473749,54.0024097],[-0.8409096,54.0034784],[-0.8452698,54.0201415],[-0.8597208,54.0163609],[-0.8784353,54.017166],[-0.8776606,54.0135386],[-0.8885464,54.0094964],[-0.8938939,53.9995169],[-0.9074822,53.9975292],[-0.9128681,53.9921135],[-0.9252854,53.9914998],[-0.9203053,53.9900759],[-0.9278171,53.9840059],[-0.9340977,53.9684376],[-0.921204,53.9604025],[-0.9276491,53.9526472],[-0.9234123,53.9349879],[-0.9289116,53.9295981],[-0.921593,53.9213971],[-0.9316734,53.9173545],[-0.9320439,53.9087437],[-0.9383074,53.9078698],[-0.9402845,53.8986187],[-0.9495129,53.8938947],[-0.9229156,53.8907157],[-0.9054313,53.9012435],[-0.87386,53.902451],[-0.8714924,53.9091374],[-0.8682113,53.9088765],[-0.8710988,53.9210093],[-0.8668618,53.9226123]]],"type":"Polygon"},"id":"E02002692","properties":{"code":"E02002692","geography":"MSOA","name":"East Riding of Yorkshire 009"},"type":"Feature"},{"geometry":{"coordinates":[[[-0.2113887,54.0078994],[-0.2145954,54.0102436],[-0.2372384,54.00743],[-0.257121,54.0173639],[-0.2899886,54.007338],[-0.3009867,54.0121617],[-0.3066908,54.0203358],[-0.3037888,54.0249483],[-0.3132555,54.0263841],[-0.314722,54.0363679],[-0.3205662,54.0370446],[-0.3395057,54.0298983],[-0.3391992,54.0189719],[-0.3341617,54.0165803],[-0.3425842,54.006043],[-0.3370586,54.0015417],[-0.3374822,53.9940096],[-0.3406919,53.9910688],[-0.3519569,53.9916291],[-0.3477345,53.9843899],[-0.3555372,53.9803234],[-0.363114,53.9828369],[-0.3680592,53.9799673],[-0.3626857,53.9745434],[-0.3735799,53.9750661],[-0.3837854,53.9701707],[-0.3799505,53.9613886],[-0.3701839,53.9604995],[-0.3702003,53.9573825],[-0.3607752,53.9574942],[-0.3529422,53.9530168],[-0.3575416,53.9449159],[-0.3665942,53.9438455],[-0.3682551,53.9396032],[-0.3694507,53.9367491],[-0.3574911,53.9338617],[-0.3563367,53.9256382],[-0.3663173,53.9209895],[-0.3682838,53.9130422],[-0.3580403,53.9076107],[-0.3336758,53.9090784],[-0.3287858,53.9014569],[-0.3126012,53.8986865],[-0.2968255,53.9044261],[-0.2897498,53.8968087],[-0.283728,53.8958512],[-0.2743945,53.8989391],[-0.2720937,53.9032286],[-0.2589144,53.8981251],[-0.2533577,53.8802897],[-0.2323468,53.8789828],[-0.2259206,53.8909854],[-0.1995706,53.8881216],[-0.1831114,53.8899682],[-0.1733739,53.8918428],[-0.1762878,53.8986634],[-0.1797555,53.8981593],[-0.1767707,53.902295],[-0.1959715,53.9092235],[-0.1771086,53.9146338],[-0.179725,53.9171376],[-0.1704828,53.9195723],[-0.1705672,53.92544],[-0.1751958,53.9236318],[-0.1772691,53.9260393],[-0.173073,53.9322156],[-0.1736916,53.9332799],[-0.1890058,53.9596081],[-0.1892557,53.9600373],[-0.2105129,54.006023],[-0.210773,54.0065663],[-0.2113887,54.0078994]]],"type":"Polygon"},"id":"E02002693","properties":{"code":"E02002693","geography":"MSOA","name":"East Riding of Yorkshire 010"},"type":"Feature"},{"geometry":{"coordinates":[[[-0.7048932,54.0060537],[-0.7107365,54.0111528],[-0.7304799,54.0126825],[-0.7342479,54.0302402],[-0.7992382,54.0190334],[-0.7989786,54.0240724],[-0.8452698,54.0201415],[-0.8409096,54.0034784],[-0.8473749,54.0024097],[-0.8500326,53.9972681],[-0.8445378,53.9881309],[-0.8215298,53.9833394],[-0.8134427,53.9868698],[-0.7919946,53.9880853],[-0.7678128,53.9834476],[-0.7744595,53.9811253],[-0.7770975,53.9692794],[-0.7937078,53.9665801],[-0.7960991,53.9612613],[-0.8024523,53.9618399],[-0.8147954,53.9552832],[-0.8454425,53.9471853],[-0.8400805,53.9432662],[-0.8617269,53.9378066],[-0.8668618,53.9226123],[-0.8295249,53.9237561],[-0.8200814,53.9291208],[-0.7843542,53.9169546],[-0.7880693,53.9088558],[-0.7990701,53.9028892],[-0.7909707,53.8983129],[-0.7830899,53.9003735],[-0.77959,53.8981351],[-0.7635266,53.917115],[-0.7356931,53.9275979],[-0.7139521,53.9152192],[-0.705669,53.9135079],[-0.7015932,53.9179822],[-0.6881788,53.9105531],[-0.721929,53.8993817],[-0.7126005,53.8850408],[-0.6941284,53.88696],[-0.6766647,53.8806505],[-0.6306364,53.8961869],[-0.616873,53.9047309],[-0.6428023,53.9190951],[-0.6440184,53.922437],[-0.6259975,53.9276964],[-0.6293708,53.935083],[-0.6324141,53.9423176],[-0.6249269,53.9521898],[-0.6289041,53.9607032],[-0.627453,53.9801961],[-0.6851449,53.9715786],[-0.7066431,53.975132],[-0.707196,53.981563],[-0.6998271,53.9895955],[-0.6852583,53.9935654],[-0.6947835,54.0007008],[-0.7048238,54.0025739],[-0.726128,54.0002704],[-0.7048932,54.0060537]]],"type":"Polygon"},"id":"E02002694","properties":{"code":"E02002694","geography":"MSOA","name":"East Riding of Yorkshire 011"},"type":"Feature"},{"geometry":{"coordinates":[[[-0.1018279,53.8468342],[-0.1183476,53.8634772],[-0.1295632,53.873433],[-0.1384524,53.8837115],[-0.153956,53.8992995],[-0.173073,53.9322156],[-0.1772691,53.9260393],[-0.1751958,53.9236318],[-0.1705672,53.92544],[-0.1704828,53.9195723],[-0.179725,53.9171376],[-0.1771086,53.9146338],[-0.1959715,53.9092235],[-0.1767707,53.902295],[-0.1797555,53.8981593],[-0.1762878,53.8986634],[-0.1733739,53.8918428],[-0.1831114,53.8899682],[-0.1769114,53.8763116],[-0.1522553,53.8675332],[-0.1500031,53.8532575],[-0.1410727,53.8528678],[-0.1364466,53.8483398],[-0.1249541,53.8442878],[-0.1018279,53.8468342]]],"type":"Polygon"},"id":"E02002695","properties":{"code":"E02002695","geography":"MSOA","name":"East Riding of Yorkshire 012"},"type":"Feature"},{"geometry":{"coordinates":[[[-0.3841407,53.9097103],[-0.3938668,53.9189125],[-0.4110555,53.9243788],[-0.419531,53.9234994],[-0.4279316,53.9288418],[-0.4357061,53.9272601],[-0.4531301,53.934327],[-0.4835138,53.9355923],[-0.4850523,53.9376302],[-0.4864877,53.9346421],[-0.4910176,53.9348272],[-0.488636,53.9388051],[-0.4991727,53.9384177],[-0.5004677,53.9347917],[-0.5058329,53.938711],[-0.5248933,53.9389196],[-0.5262597,53.9415119],[-0.5474641,53.9393129],[-0.5785393,53.9405838],[-0.6293708,53.935083],[-0.6259975,53.9276964],[-0.6440184,53.922437],[-0.6428023,53.9190951],[-0.616873,53.9047309],[-0.6028424,53.9006144],[-0.5732942,53.8494369],[-0.5688418,53.8509379],[-0.5609208,53.8467868],[-0.5301729,53.8565416],[-0.5183458,53.8547099],[-0.4796116,53.8577967],[-0.4118503,53.8668428],[-0.3993196,53.8690271],[-0.3993667,53.8778753],[-0.4074417,53.8843559],[-0.3951069,53.8853944],[-0.3956537,53.8959844],[-0.3825321,53.9017194],[-0.3841407,53.9097103]]],"type":"Polygon"},"id":"E02002696","properties":{"code":"E02002696","geography":"MSOA","name":"East Riding of Yorkshire 013"},"type":"Feature"},{"geometry":{"coordinates":[[[-0.3682838,53.9130422],[-0.3760775,53.9135246],[-0.3841407,53.9097103],[-0.3825321,53.9017194],[-0.3956537,53.8959844],[-0.3951069,53.8853944],[-0.4074417,53.8843559],[-0.3993667,53.8778753],[-0.3993196,53.8690271],[-0.4118503,53.8668428],[-0.4155319,53.8599162],[-0.4124236,53.8557509],[-0.3958925,53.8593406],[-0.3932228,53.8559772],[-0.3998086,53.8438584],[-0.3943829,53.8398662],[-0.3843702,53.8386705],[-0.3815444,53.8272998],[-0.369171,53.8243808],[-0.3580285,53.8173553],[-0.353798,53.8084966],[-0.3485861,53.8088804],[-0.3239347,53.8121927],[-0.3161273,53.8132502],[-0.3036221,53.7982151],[-0.2925685,53.7919845],[-0.2889274,53.7895575],[-0.2850939,53.7868641],[-0.2782428,53.7820397],[-0.2740417,53.7834077],[-0.2830736,53.7900832],[-0.2567155,53.7955229],[-0.2531224,53.8139147],[-0.2610549,53.8210355],[-0.2729213,53.8215111],[-0.2796923,53.8329715],[-0.2762961,53.8393145],[-0.259076,53.8394237],[-0.2565825,53.8408107],[-0.261716,53.8414942],[-0.2471765,53.8483232],[-0.2444533,53.8459753],[-0.2279695,53.8450868],[-0.2247372,53.8574681],[-0.2122962,53.8606372],[-0.1901483,53.8604754],[-0.1881226,53.848403],[-0.1830878,53.8474545],[-0.1921079,53.8382358],[-0.157342,53.8397691],[-0.1450604,53.8355012],[-0.1476546,53.837892],[-0.1418306,53.8396419],[-0.1418428,53.8448578],[-0.1364466,53.8483398],[-0.1410727,53.8528678],[-0.1500031,53.8532575],[-0.1522553,53.8675332],[-0.1769114,53.8763116],[-0.1831114,53.8899682],[-0.1995706,53.8881216],[-0.2259206,53.8909854],[-0.2323468,53.8789828],[-0.2533577,53.8802897],[-0.2589144,53.8981251],[-0.2720937,53.9032286],[-0.2743945,53.8989391],[-0.283728,53.8958512],[-0.2897498,53.8968087],[-0.2968255,53.9044261],[-0.3126012,53.8986865],[-0.3287858,53.9014569],[-0.3336758,53.9090784],[-0.3580403,53.9076107],[-0.3682838,53.9130422]]],"type":"Polygon"},"id":"E02002697","properties":{"code":"E02002697","geography":"MSOA","name":"East Riding of Yorkshire 014"},"type":"Feature"},{"geometry":{"coordinates":[[[-0.5732942,53.8494369],[-0.6028424,53.9006144],[-0.616873,53.9047309],[-0.6306364,53.8961869],[-0.6766647,53.8806505],[-0.6941284,53.88696],[-0.7126005,53.8850408],[-0.7281256,53.8746556],[-0.7234976,53.8552324],[-0.7091542,53.8484124],[-0.7006869,53.8373921],[-0.706486,53.8270089],[-0.7215612,53.8258061],[-0.7202544,53.8155466],[-0.7101257,53.807052],[-0.7085021,53.797363],[-0.6478161,53.8078652],[-0.6502709,53.8156476],[-0.6424075,53.8296054],[-0.6376495,53.8312933],[-0.640795,53.8357205],[-0.6035668,53.8389469],[-0.5732942,53.8494369]]],"type":"Polygon"},"id":"E02002698","properties":{"code":"E02002698","geography":"MSOA","name":"East Riding of Yorkshire 015"},"type":"Feature"},{"geometry":{"coordinates":[[[-0.4124236,53.8557509],[-0.4155319,53.8599162],[-0.4118503,53.8668428],[-0.4796116,53.8577967],[-0.4774354,53.8539507],[-0.4572035,53.8463843],[-0.4640917,53.843268],[-0.4395432,53.8420848],[-0.4332471,53.8463395],[-0.4252303,53.8540365],[-0.4189905,53.8505266],[-0.4102568,53.8529876],[-0.4124236,53.8557509]]],"type":"Polygon"},"id":"E02002699","properties":{"code":"E02002699","geography":"MSOA","name":"East Riding of Yorkshire 016"},"type":"Feature"},{"geometry":{"coordinates":[[[-0.3932228,53.8559772],[-0.3958925,53.8593406],[-0.4124236,53.8557509],[-0.4102568,53.8529876],[-0.4189905,53.8505266],[-0.4252303,53.8540365],[-0.4332471,53.8463395],[-0.4284526,53.8418598],[-0.4242539,53.8468011],[-0.4230353,53.8425506],[-0.4139696,53.8427365],[-0.3932228,53.8559772]]],"type":"Polygon"},"id":"E02002700","properties":{"code":"E02002700","geography":"MSOA","name":"East Riding of Yorkshire 017"},"type":"Feature"},{"geometry":{"coordinates":[[[-0.7126005,53.8850408],[-0.721929,53.8993817],[-0.6881788,53.9105531],[-0.7015932,53.9179822],[-0.705669,53.9135079],[-0.7139521,53.9152192],[-0.7356931,53.9275979],[-0.7635266,53.917115],[-0.77959,53.8981351],[-0.7830899,53.9003735],[-0.7909707,53.8983129],[-0.7990701,53.9028892],[-0.7880693,53.9088558],[-0.7843542,53.9169546],[-0.8200814,53.9291208],[-0.8295249,53.9237561],[-0.8668618,53.9226123],[-0.8710988,53.9210093],[-0.8682113,53.9088765],[-0.8714924,53.9091374],[-0.87386,53.902451],[-0.9054313,53.9012435],[-0.9229156,53.8907157],[-0.9196723,53.8892832],[-0.9235895,53.8877069],[-0.9235119,53.8807466],[-0.9254054,53.8778207],[-0.9394768,53.8751018],[-0.9390458,53.867715],[-0.9482154,53.8616617],[-0.9419912,53.8548365],[-0.9470209,53.843635],[-0.9402978,53.8326824],[-0.940606,53.8234979],[-0.9201004,53.8160724],[-0.9344729,53.8018369],[-0.9280392,53.7970722],[-0.9341877,53.7861557],[-0.9366165,53.7793334],[-0.9282906,53.7698964],[-0.9320887,53.7621699],[-0.928669,53.7574879],[-0.9140154,53.7539379],[-0.9090957,53.7454502],[-0.8974319,53.7460148],[-0.8983658,53.7516333],[-0.8890837,53.7518342],[-0.8851281,53.7601998],[-0.8742267,53.7622118],[-0.8691553,53.7692449],[-0.8615057,53.7721525],[-0.7974974,53.7819983],[-0.7847359,53.7902711],[-0.7690302,53.7861425],[-0.7460587,53.7802928],[-0.7289678,53.7842307],[-0.7159766,53.7827576],[-0.719009,53.7961092],[-0.7085021,53.797363],[-0.7101257,53.807052],[-0.7202544,53.8155466],[-0.7215612,53.8258061],[-0.706486,53.8270089],[-0.7006869,53.8373921],[-0.7091542,53.8484124],[-0.7234976,53.8552324],[-0.7281256,53.8746556],[-0.7126005,53.8850408]]],"type":"Polygon"},"id":"E02002701","properties":{"code":"E02002701","geography":"MSOA","name":"East Riding of Yorkshire 018"},"type":"Feature"},{"geometry":{"coordinates":[[[-0.3815444,53.8272998],[-0.3843702,53.8386705],[-0.3943829,53.8398662],[-0.3998086,53.8438584],[-0.3932228,53.8559772],[-0.4139696,53.8427365],[-0.4230353,53.8425506],[-0.4242539,53.8468011],[-0.4284526,53.8418598],[-0.4332471,53.8463395],[-0.4395432,53.8420848],[-0.4640917,53.843268],[-0.4684659,53.8395791],[-0.4527343,53.8298302],[-0.4280351,53.8374692],[-0.421205,53.8347137],[-0.4101209,53.8365189],[-0.4023507,53.8324609],[-0.39629,53.8342326],[-0.3895607,53.8299994],[-0.3932888,53.827715],[-0.3815444,53.8272998]]],"type":"Polygon"},"id":"E02002702","properties":{"code":"E02002702","geography":"MSOA","name":"East Riding of Yorkshire 019"},"type":"Feature"},{"geometry":{"coordinates":[[[-0.4640917,53.843268],[-0.4572035,53.8463843],[-0.4774354,53.8539507],[-0.4796116,53.8577967],[-0.5183458,53.8547099],[-0.5301729,53.8565416],[-0.5609208,53.8467868],[-0.5492726,53.8261179],[-0.5176827,53.8261946],[-0.4883435,53.8336165],[-0.4893247,53.8210207],[-0.495718,53.8191338],[-0.4939504,53.8154711],[-0.4897338,53.8174136],[-0.485982,53.8098533],[-0.4640567,53.8174806],[-0.4532478,53.8174279],[-0.4451857,53.8209485],[-0.4323068,53.8201356],[-0.4365644,53.814672],[-0.4290902,53.8135555],[-0.4260014,53.8032659],[-0.410384,53.8051835],[-0.3809948,53.8018987],[-0.3698105,53.8089222],[-0.3647565,53.8036933],[-0.353798,53.8084966],[-0.3580285,53.8173553],[-0.369171,53.8243808],[-0.3815444,53.8272998],[-0.3932888,53.827715],[-0.3895607,53.8299994],[-0.39629,53.8342326],[-0.4023507,53.8324609],[-0.4101209,53.8365189],[-0.421205,53.8347137],[-0.4280351,53.8374692],[-0.4527343,53.8298302],[-0.4684659,53.8395791],[-0.4640917,53.843268]]],"type":"Polygon"},"id":"E02002703","properties":{"code":"E02002703","geography":"MSOA","name":"East Riding of Yorkshire 020"},"type":"Feature"},{"geometry":{"coordinates":[[[-0.1364466,53.8483398],[-0.1418428,53.8448578],[-0.1418306,53.8396419],[-0.1476546,53.837892],[-0.1450604,53.8355012],[-0.157342,53.8397691],[-0.1921079,53.8382358],[-0.1830878,53.8474545],[-0.1881226,53.848403],[-0.1901483,53.8604754],[-0.2122962,53.8606372],[-0.2247372,53.8574681],[-0.2279695,53.8450868],[-0.2444533,53.8459753],[-0.2471765,53.8483232],[-0.261716,53.8414942],[-0.2565825,53.8408107],[-0.259076,53.8394237],[-0.2762961,53.8393145],[-0.2796923,53.8329715],[-0.2729213,53.8215111],[-0.2610549,53.8210355],[-0.2531224,53.8139147],[-0.2567155,53.7955229],[-0.2830736,53.7900832],[-0.2740417,53.7834077],[-0.2683181,53.7850258],[-0.2637185,53.7828093],[-0.2523173,53.7813076],[-0.2543494,53.7689166],[-0.2340259,53.7700139],[-0.2333774,53.7753784],[-0.190385,53.7784253],[-0.1852762,53.7768768],[-0.1742321,53.7794966],[-0.1712367,53.7867458],[-0.1657326,53.7886699],[-0.1562188,53.7878614],[-0.1541162,53.7803968],[-0.1158869,53.7844848],[-0.1060877,53.7831662],[-0.1047773,53.7801232],[-0.0960392,53.7837788],[-0.0448095,53.7892208],[-0.0448922,53.7959239],[-0.0954599,53.8411156],[-0.1015222,53.846526],[-0.1018055,53.8468117],[-0.1018279,53.8468342],[-0.1249541,53.8442878],[-0.1364466,53.8483398]]],"type":"Polygon"},"id":"E02002704","properties":{"code":"E02002704","geography":"MSOA","name":"East Riding of Yorkshire 021"},"type":"Feature"},{"geometry":{"coordinates":[[[-0.418717,53.7850172],[-0.4208004,53.788266],[-0.4114652,53.7886308],[-0.410384,53.8051835],[-0.4260014,53.8032659],[-0.437527,53.8013362],[-0.4400668,53.8045583],[-0.4500535,53.8035707],[-0.450423,53.7993675],[-0.4612691,53.8000294],[-0.4855787,53.7926985],[-0.4972255,53.7921893],[-0.5020454,53.7873833],[-0.4976313,53.7783735],[-0.511634,53.7762421],[-0.5100881,53.7738982],[-0.5302951,53.7673376],[-0.5303119,53.7622929],[-0.5167825,53.7582726],[-0.4998999,53.7613165],[-0.4971906,53.7595071],[-0.4910467,53.7612253],[-0.4862051,53.7562366],[-0.4822138,53.7578514],[-0.4554362,53.764882],[-0.45112,53.7706512],[-0.4405195,53.7693123],[-0.4298,53.7704476],[-0.4270126,53.7752133],[-0.4207996,53.7765437],[-0.4181445,53.7798049],[-0.4247489,53.7841035],[-0.418717,53.7850172]]],"type":"Polygon"},"id":"E02002705","properties":{"code":"E02002705","geography":"MSOA","name":"East Riding of Yorkshire 022"},"type":"Feature"},{"geometry":{"coordinates":[[[-0.3647565,53.8036933],[-0.3698105,53.8089222],[-0.3809948,53.8018987],[-0.410384,53.8051835],[-0.4114652,53.7886308],[-0.4208004,53.788266],[-0.418717,53.7850172],[-0.4077446,53.7832669],[-0.4052182,53.778539],[-0.4073253,53.7757444],[-0.4129411,53.7767018],[-0.4136808,53.7686911],[-0.4057085,53.7699921],[-0.4034894,53.7649166],[-0.3905648,53.7683395],[-0.3880728,53.7763236],[-0.3911628,53.7856475],[-0.3922063,53.7911134],[-0.3704585,53.7919793],[-0.3593986,53.7933839],[-0.3590154,53.7939035],[-0.3637878,53.7959976],[-0.3647565,53.8036933]]],"type":"Polygon"},"id":"E02002706","properties":{"code":"E02002706","geography":"MSOA","name":"East Riding of Yorkshire 023"},"type":"Feature"},{"geometry":{"coordinates":[[[[-0.5853473,53.7271571],[-0.5828942,53.7256983],[-0.5825663,53.7258852],[-0.5853473,53.7271571]]],[[[-0.5853473,53.7271571],[-0.6126287,53.7396382],[-0.6102488,53.7435966],[-0.5774378,53.7530813],[-0.5794261,53.7558619],[-0.5723699,53.7558671],[-0.5697516,53.7640011],[-0.5544093,53.77212],[-0.5476414,53.7699808],[-0.5500952,53.7605482],[-0.5303119,53.7622929],[-0.5302951,53.7673376],[-0.5100881,53.7738982],[-0.511634,53.7762421],[-0.4976313,53.7783735],[-0.5020454,53.7873833],[-0.4972255,53.7921893],[-0.4855787,53.7926985],[-0.4612691,53.8000294],[-0.450423,53.7993675],[-0.4500535,53.8035707],[-0.4400668,53.8045583],[-0.437527,53.8013362],[-0.4260014,53.8032659],[-0.4290902,53.8135555],[-0.4365644,53.814672],[-0.4323068,53.8201356],[-0.4451857,53.8209485],[-0.4532478,53.8174279],[-0.4640567,53.8174806],[-0.485982,53.8098533],[-0.4897338,53.8174136],[-0.4939504,53.8154711],[-0.495718,53.8191338],[-0.4893247,53.8210207],[-0.4883435,53.8336165],[-0.5176827,53.8261946],[-0.5492726,53.8261179],[-0.5609208,53.8467868],[-0.5688418,53.8509379],[-0.5732942,53.8494369],[-0.6035668,53.8389469],[-0.640795,53.8357205],[-0.6376495,53.8312933],[-0.6424075,53.8296054],[-0.6502709,53.8156476],[-0.6279393,53.8093221],[-0.6326203,53.8021607],[-0.621491,53.8023126],[-0.6159783,53.7990249],[-0.6060116,53.77795],[-0.6562578,53.7615567],[-0.6519031,53.7572687],[-0.6583359,53.7555609],[-0.6529507,53.7516112],[-0.673043,53.7459875],[-0.6698211,53.7400914],[-0.6563762,53.7459698],[-0.6378325,53.7275614],[-0.6369836,53.727712],[-0.6207249,53.7302078],[-0.5853473,53.7271571]]]],"type":"MultiPolygon"},"id":"E02002707","properties":{"code":"E02002707","geography":"MSOA","name":"East Riding of Yorkshire 024"},"type":"Feature"},{"geometry":{"coordinates":[[[-0.4034894,53.7649166],[-0.4057085,53.7699921],[-0.4136808,53.7686911],[-0.4129411,53.7767018],[-0.4073253,53.7757444],[-0.4052182,53.778539],[-0.4077446,53.7832669],[-0.418717,53.7850172],[-0.4247489,53.7841035],[-0.4181445,53.7798049],[-0.4207996,53.7765437],[-0.4270126,53.7752133],[-0.4298,53.7704476],[-0.4405195,53.7693123],[-0.4420294,53.7630744],[-0.4357111,53.7603762],[-0.4406998,53.756163],[-0.4353415,53.7548723],[-0.4300003,53.7601359],[-0.4252757,53.7575863],[-0.4188733,53.7591201],[-0.410322,53.7605683],[-0.4034894,53.7649166]]],"type":"Polygon"},"id":"E02002708","properties":{"code":"E02002708","geography":"MSOA","name":"East Riding of Yorkshire 025"},"type":"Feature"},{"geometry":{"coordinates":[[[-0.6378325,53.7275614],[-0.6563762,53.7459698],[-0.6698211,53.7400914],[-0.673043,53.7459875],[-0.6529507,53.7516112],[-0.6583359,53.7555609],[-0.6519031,53.7572687],[-0.6562578,53.7615567],[-0.6060116,53.77795],[-0.6159783,53.7990249],[-0.621491,53.8023126],[-0.6326203,53.8021607],[-0.6279393,53.8093221],[-0.6502709,53.8156476],[-0.6478161,53.8078652],[-0.7085021,53.797363],[-0.719009,53.7961092],[-0.7159766,53.7827576],[-0.7289678,53.7842307],[-0.7460587,53.7802928],[-0.7690302,53.7861425],[-0.7655522,53.7663506],[-0.7494791,53.7643855],[-0.7587049,53.7594289],[-0.7542396,53.7569952],[-0.7705722,53.7512911],[-0.7687775,53.7477135],[-0.7799716,53.7462333],[-0.7768628,53.7349119],[-0.7674578,53.7383158],[-0.7647214,53.7013747],[-0.7645374,53.7012352],[-0.7425934,53.7069611],[-0.7296531,53.7059812],[-0.7268734,53.70621],[-0.7229798,53.7054753],[-0.7001178,53.7037393],[-0.6872735,53.7078608],[-0.6729903,53.7213197],[-0.6378325,53.7275614]]],"type":"Polygon"},"id":"E02002709","properties":{"code":"E02002709","geography":"MSOA","name":"East Riding of Yorkshire 026"},"type":"Feature"},{"geometry":{"coordinates":[[[-0.4188733,53.7591201],[-0.4252757,53.7575863],[-0.4300003,53.7601359],[-0.4353415,53.7548723],[-0.4406998,53.756163],[-0.4357111,53.7603762],[-0.4420294,53.7630744],[-0.4483629,53.757627],[-0.4560708,53.7570063],[-0.4466722,53.7560983],[-0.4480123,53.7485469],[-0.4442369,53.748753],[-0.4444575,53.7458076],[-0.4429019,53.7489079],[-0.4377049,53.7487553],[-0.4362,53.7441118],[-0.4323069,53.7439019],[-0.4342558,53.7471624],[-0.4274245,53.7472233],[-0.4223366,53.750541],[-0.4188733,53.7591201]]],"type":"Polygon"},"id":"E02002710","properties":{"code":"E02002710","geography":"MSOA","name":"East Riding of Yorkshire 027"},"type":"Feature"},{"geometry":{"coordinates":[[[-0.4405195,53.7693123],[-0.45112,53.7706512],[-0.4554362,53.764882],[-0.4822138,53.7578514],[-0.4726799,53.7358129],[-0.467286,53.7330695],[-0.45971,53.7358413],[-0.4587704,53.7328136],[-0.4401691,53.734105],[-0.4355183,53.7350088],[-0.4362,53.7441118],[-0.4377049,53.7487553],[-0.4429019,53.7489079],[-0.4444575,53.7458076],[-0.4442369,53.748753],[-0.4480123,53.7485469],[-0.4466722,53.7560983],[-0.4560708,53.7570063],[-0.4483629,53.757627],[-0.4420294,53.7630744],[-0.4405195,53.7693123]]],"type":"Polygon"},"id":"E02002711","properties":{"code":"E02002711","geography":"MSOA","name":"East Riding of Yorkshire 028"},"type":"Feature"},{"geometry":{"coordinates":[[[[-0.2452357,53.7364708],[-0.2443356,53.7374738],[-0.2502444,53.7332958],[-0.2452357,53.7364708]]],[[[-0.1709262,53.7430347],[-0.1687417,53.7526418],[-0.1746084,53.7639869],[-0.190385,53.7784253],[-0.2333774,53.7753784],[-0.2340259,53.7700139],[-0.2543494,53.7689166],[-0.253354,53.7645833],[-0.2414288,53.7550349],[-0.2452518,53.7499727],[-0.2472827,53.7409691],[-0.2433097,53.738617],[-0.2432781,53.7386522],[-0.2430411,53.7389066],[-0.2427632,53.7387871],[-0.2431877,53.729555],[-0.2353294,53.7283555],[-0.2363973,53.7272425],[-0.234562,53.7276428],[-0.2253534,53.7352612],[-0.2109938,53.7346232],[-0.2089049,53.7393235],[-0.2047469,53.7373821],[-0.2023127,53.7395157],[-0.1999906,53.7343184],[-0.195776,53.7392202],[-0.1810733,53.7376645],[-0.1709262,53.7430347]]]],"type":"MultiPolygon"},"id":"E02002712","properties":{"code":"E02002712","geography":"MSOA","name":"East Riding of Yorkshire 029"},"type":"Feature"},{"geometry":{"coordinates":[[[[0.0188958,53.6455432],[0.0187102,53.6456202],[0.018961,53.6454927],[0.0188958,53.6455432]]],[[[-0.0442629,53.7953608],[-0.0448922,53.7959239],[-0.0448095,53.7892208],[-0.0960392,53.7837788],[-0.1047773,53.7801232],[-0.1060877,53.7831662],[-0.1158869,53.7844848],[-0.1541162,53.7803968],[-0.1562188,53.7878614],[-0.1657326,53.7886699],[-0.1712367,53.7867458],[-0.1742321,53.7794966],[-0.1852762,53.7768768],[-0.190385,53.7784253],[-0.1746084,53.7639869],[-0.1687417,53.7526418],[-0.1709262,53.7430347],[-0.1810733,53.7376645],[-0.1761469,53.7318722],[-0.170826,53.7341792],[-0.158152,53.7309605],[-0.1437914,53.7315178],[-0.140283,53.7320464],[-0.1461468,53.7322046],[-0.1409638,53.7343171],[-0.1430667,53.7386546],[-0.1359965,53.7384099],[-0.1284409,53.7432903],[-0.1103823,53.7359286],[-0.1111014,53.723381],[-0.1495718,53.7055394],[-0.1484948,53.6999093],[-0.1572284,53.69353],[-0.1527669,53.6911926],[-0.1530446,53.6813556],[-0.1239624,53.6682136],[-0.127038,53.6657949],[-0.1093679,53.6656451],[-0.1110928,53.6619377],[-0.1307595,53.652074],[-0.1249213,53.6457895],[-0.1035412,53.6353187],[-0.0569878,53.6293602],[-0.0537954,53.629191],[-0.0496748,53.6320771],[0.0173347,53.6448916],[0.0100671,53.6492073],[-0.0431075,53.6712488],[-0.0696474,53.6723097],[-0.0767382,53.6749679],[-0.0484959,53.7079461],[-0.0340229,53.7184647],[0.0030163,53.7043341],[0.0179657,53.7198934],[0.0359881,53.7188],[0.0386607,53.7219456],[0.025822,53.7239656],[0.035147,53.727416],[0.031016,53.7313003],[0.0170708,53.734116],[0.0158046,53.7436287],[0.0179009,53.74417],[-0.0442629,53.7953608]]]],"type":"MultiPolygon"},"id":"E02002714","properties":{"code":"E02002714","geography":"MSOA","name":"East Riding of Yorkshire 031"},"type":"Feature"},{"geometry":{"coordinates":[[[-0.5303119,53.7622929],[-0.5500952,53.7605482],[-0.5476414,53.7699808],[-0.5544093,53.77212],[-0.5697516,53.7640011],[-0.5723699,53.7558671],[-0.5794261,53.7558619],[-0.5774378,53.7530813],[-0.6102488,53.7435966],[-0.6126287,53.7396382],[-0.5853473,53.7271571],[-0.5825663,53.7258852],[-0.5828942,53.7256983],[-0.5591968,53.7116297],[-0.5585678,53.7115057],[-0.5580968,53.7114089],[-0.5474938,53.7093733],[-0.5371162,53.7260765],[-0.5296967,53.7254414],[-0.5282581,53.7225081],[-0.5173912,53.724112],[-0.5228601,53.73403],[-0.500131,53.7506135],[-0.4971906,53.7595071],[-0.4998999,53.7613165],[-0.5167825,53.7582726],[-0.5303119,53.7622929]]],"type":"Polygon"},"id":"E02002715","properties":{"code":"E02002715","geography":"MSOA","name":"East Riding of Yorkshire 032"},"type":"Feature"},{"geometry":{"coordinates":[[[-0.1307595,53.652074],[-0.1110928,53.6619377],[-0.1093679,53.6656451],[-0.127038,53.6657949],[-0.1239624,53.6682136],[-0.1530446,53.6813556],[-0.1527669,53.6911926],[-0.1572284,53.69353],[-0.1484948,53.6999093],[-0.1495718,53.7055394],[-0.1111014,53.723381],[-0.1103823,53.7359286],[-0.1284409,53.7432903],[-0.1359965,53.7384099],[-0.1430667,53.7386546],[-0.1409638,53.7343171],[-0.1461468,53.7322046],[-0.140283,53.7320464],[-0.1437914,53.7315178],[-0.158152,53.7309605],[-0.170826,53.7341792],[-0.1761469,53.7318722],[-0.1810733,53.7376645],[-0.195776,53.7392202],[-0.1999906,53.7343184],[-0.2023127,53.7395157],[-0.2047469,53.7373821],[-0.2089049,53.7393235],[-0.2109938,53.7346232],[-0.2253534,53.7352612],[-0.234562,53.7276428],[-0.2363973,53.7272425],[-0.2369334,53.7266837],[-0.2272478,53.7084721],[-0.2101067,53.7020091],[-0.1843812,53.6866725],[-0.1736913,53.6802946],[-0.1694244,53.6739054],[-0.151315,53.6622006],[-0.1393615,53.6544695],[-0.1333698,53.6507579],[-0.1325037,53.6511989],[-0.1307843,53.6521008],[-0.1307595,53.652074]]],"type":"Polygon"},"id":"E02002716","properties":{"code":"E02002716","geography":"MSOA","name":"East Riding of Yorkshire 033"},"type":"Feature"},{"geometry":{"coordinates":[[[-0.4203562,53.7236484],[-0.428087,53.7245748],[-0.4237286,53.7269959],[-0.4294237,53.7284197],[-0.4313175,53.7332593],[-0.428737,53.7440709],[-0.4245964,53.7445878],[-0.4274245,53.7472233],[-0.4342558,53.7471624],[-0.4323069,53.7439019],[-0.4362,53.7441118],[-0.4355183,53.7350088],[-0.4401691,53.734105],[-0.4308483,53.7254466],[-0.4442501,53.7223205],[-0.4395278,53.7217527],[-0.4399843,53.7175864],[-0.4520776,53.7155108],[-0.462975,53.7180359],[-0.4629688,53.7166778],[-0.447455,53.7138455],[-0.4341715,53.7161761],[-0.4341177,53.7189701],[-0.431978,53.7168064],[-0.4192013,53.7195582],[-0.4191234,53.7195707],[-0.4203562,53.7236484]]],"type":"Polygon"},"id":"E02002717","properties":{"code":"E02002717","geography":"MSOA","name":"East Riding of Yorkshire 034"},"type":"Feature"},{"geometry":{"coordinates":[[[-0.4822138,53.7578514],[-0.4862051,53.7562366],[-0.4910467,53.7612253],[-0.4971906,53.7595071],[-0.500131,53.7506135],[-0.5228601,53.73403],[-0.5173912,53.724112],[-0.5282581,53.7225081],[-0.5296967,53.7254414],[-0.5371162,53.7260765],[-0.5474938,53.7093733],[-0.5425473,53.7084232],[-0.4867424,53.7164597],[-0.4861842,53.7164662],[-0.4644424,53.7167172],[-0.463259,53.7167308],[-0.4629688,53.7166778],[-0.462975,53.7180359],[-0.467286,53.7330695],[-0.4726799,53.7358129],[-0.4822138,53.7578514]]],"type":"Polygon"},"id":"E02002718","properties":{"code":"E02002718","geography":"MSOA","name":"East Riding of Yorkshire 035"},"type":"Feature"},{"geometry":{"coordinates":[[[-0.4401691,53.734105],[-0.4587704,53.7328136],[-0.45971,53.7358413],[-0.467286,53.7330695],[-0.462975,53.7180359],[-0.4520776,53.7155108],[-0.4399843,53.7175864],[-0.4395278,53.7217527],[-0.4442501,53.7223205],[-0.4308483,53.7254466],[-0.4401691,53.734105]]],"type":"Polygon"},"id":"E02002719","properties":{"code":"E02002719","geography":"MSOA","name":"East Riding of Yorkshire 036"},"type":"Feature"},{"geometry":{"coordinates":[[[-0.8974319,53.7460148],[-0.9090957,53.7454502],[-0.9140154,53.7539379],[-0.928669,53.7574879],[-0.9320887,53.7621699],[-0.9515747,53.7537489],[-0.9736018,53.749857],[-0.9631095,53.7464492],[-0.9609232,53.7360502],[-0.9365077,53.7319576],[-0.9119077,53.732932],[-0.9115536,53.7281921],[-0.9066752,53.727151],[-0.8870553,53.7273334],[-0.8767506,53.7239293],[-0.8780311,53.7138593],[-0.8619164,53.7103366],[-0.8420681,53.7132678],[-0.8470283,53.727839],[-0.8584074,53.7325394],[-0.8569799,53.7363776],[-0.8511568,53.7363726],[-0.8548926,53.7394134],[-0.8465018,53.7420202],[-0.8512133,53.7469784],[-0.8556429,53.7468352],[-0.8514164,53.7513227],[-0.8580969,53.7482765],[-0.8711099,53.7479458],[-0.865381,53.7471201],[-0.8686977,53.7399792],[-0.8729015,53.7414991],[-0.8706098,53.7454174],[-0.8829927,53.7429357],[-0.8847052,53.7460662],[-0.8974319,53.7460148]]],"type":"Polygon"},"id":"E02002720","properties":{"code":"E02002720","geography":"MSOA","name":"East Riding of Yorkshire 037"},"type":"Feature"},{"geometry":{"coordinates":[[[[-0.7268734,53.70621],[-0.7296531,53.7059812],[-0.7229798,53.7054753],[-0.7268734,53.70621]]],[[[-0.7705722,53.7512911],[-0.7542396,53.7569952],[-0.7587049,53.7594289],[-0.7494791,53.7643855],[-0.7655522,53.7663506],[-0.7690302,53.7861425],[-0.7847359,53.7902711],[-0.7974974,53.7819983],[-0.8615057,53.7721525],[-0.8691553,53.7692449],[-0.8742267,53.7622118],[-0.8851281,53.7601998],[-0.8890837,53.7518342],[-0.8983658,53.7516333],[-0.8974319,53.7460148],[-0.8847052,53.7460662],[-0.8829927,53.7429357],[-0.8706098,53.7454174],[-0.8729015,53.7414991],[-0.8686977,53.7399792],[-0.865381,53.7471201],[-0.8711099,53.7479458],[-0.8580969,53.7482765],[-0.8514164,53.7513227],[-0.8556429,53.7468352],[-0.8512133,53.7469784],[-0.8465018,53.7420202],[-0.8548926,53.7394134],[-0.8511568,53.7363726],[-0.8569799,53.7363776],[-0.8584074,53.7325394],[-0.8470283,53.727839],[-0.8420681,53.7132678],[-0.8619164,53.7103366],[-0.8560978,53.7035355],[-0.8636438,53.7023259],[-0.8659029,53.6985842],[-0.8593858,53.6892326],[-0.8533028,53.6840119],[-0.8420277,53.6839272],[-0.8412157,53.6798916],[-0.8338251,53.6832226],[-0.8282733,53.6792042],[-0.8179801,53.6848927],[-0.8115867,53.6831505],[-0.8232605,53.6717844],[-0.8482585,53.6330164],[-0.8291474,53.6432155],[-0.8058,53.6463352],[-0.8015361,53.6527061],[-0.7888995,53.6591343],[-0.7721302,53.6640549],[-0.7744938,53.6561889],[-0.7532375,53.6626785],[-0.7589725,53.6643462],[-0.7466017,53.6695918],[-0.7231852,53.6737086],[-0.7217621,53.6793398],[-0.7024518,53.6774709],[-0.7043057,53.6814887],[-0.6941324,53.6859715],[-0.6961966,53.6895669],[-0.6984877,53.6845907],[-0.6997196,53.6956729],[-0.6998916,53.6961368],[-0.6999702,53.6988459],[-0.7305819,53.7043077],[-0.7443671,53.7034234],[-0.7462518,53.7033023],[-0.7529966,53.7012836],[-0.7750377,53.6946824],[-0.7897729,53.6985409],[-0.8118805,53.7043253],[-0.802547,53.7047864],[-0.7940886,53.7052037],[-0.7896476,53.7029137],[-0.7790471,53.697446],[-0.7645374,53.7012352],[-0.7647214,53.7013747],[-0.7674578,53.7383158],[-0.7768628,53.7349119],[-0.7799716,53.7462333],[-0.7687775,53.7477135],[-0.7705722,53.7512911]]]],"type":"MultiPolygon"},"id":"E02002721","properties":{"code":"E02002721","geography":"MSOA","name":"East Riding of Yorkshire 038"},"type":"Feature"},{"geometry":{"coordinates":[[[0.018961,53.6454927],[0.019484,53.6452266],[0.0344912,53.6491878],[0.0892475,53.6378882],[0.1155214,53.6271073],[0.1245718,53.6233911],[0.1446957,53.6085375],[0.1452844,53.6058225],[0.1420541,53.5962364],[0.1372094,53.5926751],[0.1130824,53.5782941],[0.1077382,53.5751066],[0.1083536,53.5714467],[0.1129037,53.5747093],[0.1417694,53.5953915],[0.146633,53.5996016],[0.146257,53.603728],[0.1456783,53.6084189],[0.141784,53.6219614],[0.119796,53.6577073],[0.1172595,53.6618268],[0.1170079,53.6622353],[0.0179009,53.74417],[0.0158046,53.7436287],[0.0170708,53.734116],[0.031016,53.7313003],[0.035147,53.727416],[0.025822,53.7239656],[0.0386607,53.7219456],[0.0359881,53.7188],[0.0179657,53.7198934],[0.0030163,53.7043341],[-0.0340229,53.7184647],[-0.0484959,53.7079461],[-0.0767382,53.6749679],[-0.0696474,53.6723097],[-0.0431075,53.6712488],[0.0100671,53.6492073],[0.0005836,53.6548368],[0.0187102,53.6456202],[0.0188958,53.6455432],[0.018961,53.6454927]]],"type":"Polygon"},"id":"E02002722","properties":{"code":"E02002722","geography":"MSOA","name":"East Riding of Yorkshire 039"},"type":"Feature"},{"geometry":{"coordinates":[[[-0.8780311,53.7138593],[-0.8767506,53.7239293],[-0.8870553,53.7273334],[-0.9066752,53.727151],[-0.9052463,53.7170278],[-0.9233962,53.7186619],[-0.9440802,53.7125062],[-0.9573302,53.7149112],[-0.961269,53.7076765],[-0.9576699,53.7050335],[-0.961597,53.7040352],[-0.9577199,53.7041042],[-0.9685927,53.6987881],[-0.9669634,53.6951414],[-0.9617646,53.6949561],[-0.9636757,53.6977262],[-0.9542469,53.702415],[-0.9499756,53.7014465],[-0.945719,53.707146],[-0.9207751,53.6875329],[-0.9319369,53.6852179],[-0.9437089,53.687726],[-0.948491,53.6796173],[-0.9584177,53.6835659],[-0.9655948,53.6780841],[-0.9642804,53.6724051],[-0.9051506,53.6566401],[-0.911679,53.6498019],[-0.8653331,53.6376881],[-0.8482585,53.6330164],[-0.8232605,53.6717844],[-0.8115867,53.6831505],[-0.8179801,53.6848927],[-0.8282733,53.6792042],[-0.8338251,53.6832226],[-0.8412157,53.6798916],[-0.8420277,53.6839272],[-0.8533028,53.6840119],[-0.8593858,53.6892326],[-0.8646848,53.6857851],[-0.8834824,53.6926912],[-0.8834711,53.6964968],[-0.874757,53.6993],[-0.876061,53.7032312],[-0.870779,53.7064147],[-0.8731154,53.7102066],[-0.878201,53.7079603],[-0.8867578,53.7129129],[-0.8780311,53.7138593]]],"type":"Polygon"},"id":"E02002723","properties":{"code":"E02002723","geography":"MSOA","name":"East Riding of Yorkshire 040"},"type":"Feature"},{"geometry":{"coordinates":[[[-0.8619164,53.7103366],[-0.8780311,53.7138593],[-0.8867578,53.7129129],[-0.878201,53.7079603],[-0.8731154,53.7102066],[-0.870779,53.7064147],[-0.876061,53.7032312],[-0.874757,53.6993],[-0.8834711,53.6964968],[-0.8834824,53.6926912],[-0.8646848,53.6857851],[-0.8593858,53.6892326],[-0.8659029,53.6985842],[-0.8636438,53.7023259],[-0.8560978,53.7035355],[-0.8619164,53.7103366]]],"type":"Polygon"},"id":"E02002724","properties":{"code":"E02002724","geography":"MSOA","name":"East Riding of Yorkshire 041"},"type":"Feature"},{"geometry":{"coordinates":[[[-0.911679,53.6498019],[-0.9051506,53.6566401],[-0.9642804,53.6724051],[-0.9655948,53.6780841],[-0.9584177,53.6835659],[-0.948491,53.6796173],[-0.9437089,53.687726],[-0.9319369,53.6852179],[-0.9207751,53.6875329],[-0.945719,53.707146],[-0.9499756,53.7014465],[-0.9542469,53.702415],[-0.9636757,53.6977262],[-0.9617646,53.6949561],[-0.9669634,53.6951414],[-0.9685927,53.6987881],[-0.9577199,53.7041042],[-0.961597,53.7040352],[-0.9655822,53.7004502],[-0.9701577,53.7022904],[-0.9677132,53.7066609],[-0.981056,53.7048695],[-0.9803244,53.6969228],[-1.0002131,53.6988808],[-1.0068199,53.695281],[-1.0224009,53.6980164],[-1.0388196,53.6938603],[-1.0457547,53.6986032],[-1.0536196,53.696832],[-1.0586982,53.704362],[-1.0624721,53.7068599],[-1.0696032,53.7028696],[-1.0749309,53.7039768],[-1.0850148,53.6869394],[-1.0810427,53.6845956],[-1.101987,53.6743752],[-1.103568,53.6695375],[-1.0915152,53.6686633],[-1.0856368,53.6623735],[-1.0710571,53.6600022],[-1.0711868,53.6578856],[-1.060227,53.6592491],[-1.0486592,53.6560377],[-1.0293585,53.65495],[-0.9904557,53.6612035],[-0.9902302,53.6589636],[-0.9468404,53.6591217],[-0.911679,53.6498019]]],"type":"Polygon"},"id":"E02002725","properties":{"code":"E02002725","geography":"MSOA","name":"East Riding of Yorkshire 042"},"type":"Feature"},{"geometry":{"coordinates":[[[-0.4037027,53.7499925],[-0.4223366,53.750541],[-0.4274245,53.7472233],[-0.4245964,53.7445878],[-0.428737,53.7440709],[-0.4313175,53.7332593],[-0.4294237,53.7284197],[-0.4237286,53.7269959],[-0.428087,53.7245748],[-0.4203562,53.7236484],[-0.4222965,53.7314853],[-0.4134974,53.7403982],[-0.4109309,53.7463351],[-0.4020506,53.7480916],[-0.4037027,53.7499925]]],"type":"Polygon"},"id":"E02006814","properties":{"code":"E02006814","geography":"MSOA","name":"East Riding of Yorkshire 043"},"type":"Feature"},{"geometry":{"coordinates":[[[-0.3519569,53.9916291],[-0.3574973,54.0070497],[-0.373516,54.026677],[-0.389881,54.0389924],[-0.3927013,54.0528968],[-0.4005321,54.0546436],[-0.4005869,54.0591457],[-0.4285213,54.0591642],[-0.4609941,54.0531079],[-0.4702735,54.052092],[-0.4775084,54.0413509],[-0.4721657,54.0342161],[-0.4682592,54.0342538],[-0.4609804,54.018374],[-0.4675152,54.0069394],[-0.4568396,54.0022717],[-0.4460187,54.0143616],[-0.4359796,54.0152964],[-0.4288601,54.0122769],[-0.4375722,54.0101656],[-0.4293274,54.0085151],[-0.4348471,54.0075208],[-0.4301194,53.9924474],[-0.4355833,53.9924568],[-0.4393593,53.9797594],[-0.4328064,53.9734586],[-0.4418123,53.9709927],[-0.4415647,53.9673378],[-0.4330353,53.9608757],[-0.4388664,53.9466351],[-0.4233221,53.9426577],[-0.3682551,53.9396032],[-0.3665942,53.9438455],[-0.3575416,53.9449159],[-0.3529422,53.9530168],[-0.3607752,53.9574942],[-0.3702003,53.9573825],[-0.3701839,53.9604995],[-0.3799505,53.9613886],[-0.3837854,53.9701707],[-0.3735799,53.9750661],[-0.3626857,53.9745434],[-0.3680592,53.9799673],[-0.363114,53.9828369],[-0.3555372,53.9803234],[-0.3477345,53.9843899],[-0.3519569,53.9916291]]],"type":"Polygon"},"id":"E02006891","properties":{"code":"E02006891","geography":"MSOA","name":"East Riding of Yorkshire 044"},"type":"Feature"},{"geometry":{"coordinates":[[[-0.4355833,53.9924568],[-0.4301194,53.9924474],[-0.4348471,54.0075208],[-0.4293274,54.0085151],[-0.4375722,54.0101656],[-0.4288601,54.0122769],[-0.4359796,54.0152964],[-0.4460187,54.0143616],[-0.4426554,54.0102368],[-0.4524594,54.006442],[-0.4410591,54.0041273],[-0.4409921,54.0014878],[-0.4480398,54.0006026],[-0.4429392,53.9986934],[-0.4469998,53.9969044],[-0.4355833,53.9924568]]],"type":"Polygon"},"id":"E02006892","properties":{"code":"E02006892","geography":"MSOA","name":"East Riding of Yorkshire 045"},"type":"Feature"}],"type":"FeatureCollection"}
