{"features":[{"geometry":{"coordinates":[[[-2.615827,51.5023348],[-2.5957608,51.5153521],[-2.6472024,51.5121716],[-2.6395785,51.5018414],[-2.6376778,51.5001167],[-2.6244086,51.500288],[-2.6151544,51.5046014],[-2.615827,51.5023348]]],"type":"Polygon"},"id":"E02003012","properties":{"code":"E02003012","geography":"MSOA","name":"Bristol 001"},"type":"Feature"},{"geometry":{"coordinates":[[[-2.5877271,51.5035328],[-2.5912212,51.5096834],[-2.5829739,51.5130129],[-2.5809871,51.5174098],[-2.5957608,51.5153521],[-2.615827,51.5023348],[-2.6164836,51.4993048],[-2.6150939,51.4959375],[-2.6015844,51.4991951],[-2.5999855,51.4956326],[-2.5877271,51.5035328]]],"type":"Polygon"},"id":"E02003013","properties":{"code":"E02003013","geography":"MSOA","name":"Bristol 002"},"type":"Feature"},{"geometry":{"coordinates":[[[-2.6472024,51.5121716],[-2.6544833,51.5137254],[-2.6513995,51.5207057],[-2.6654202,51.5309673],[-2.6636838,51.5369978],[-2.6738153,51.5444336],[-2.6738398,51.5444003],[-2.6741265,51.544102],[-2.6743353,51.543883],[-2.6744772,51.5437348],[-2.6762054,51.5419084],[-2.6763733,51.5417243],[-2.6765615,51.5414827],[-2.6767792,51.5412758],[-2.6771076,51.540864],[-2.6772768,51.5407415],[-2.6774642,51.5405696],[-2.677547,51.5403924],[-2.6778238,51.5402018],[-2.6780446,51.5398817],[-2.6781851,51.5397625],[-2.6783238,51.5395324],[-2.6785824,51.5393371],[-2.6787056,51.5391831],[-2.6789457,51.5389371],[-2.6790913,51.5388428],[-2.6792092,51.5387288],[-2.6794475,51.5384931],[-2.6795383,51.5383995],[-2.6797693,51.5381688],[-2.6799261,51.5379922],[-2.6799771,51.5379351],[-2.6801379,51.5377315],[-2.6802544,51.5375547],[-2.6804861,51.5373309],[-2.6805836,51.5371922],[-2.6810329,51.5367459],[-2.6810723,51.5365654],[-2.6813217,51.5360647],[-2.6809018,51.535572],[-2.6805867,51.5352471],[-2.6805356,51.5350774],[-2.6808767,51.5353179],[-2.6810607,51.535488],[-2.6819322,51.5356341],[-2.6821476,51.535487],[-2.6825929,51.5351793],[-2.6758952,51.5313848],[-2.6891551,51.5216327],[-2.6837601,51.5107575],[-2.6946794,51.5058916],[-2.6836068,51.5024411],[-2.684722,51.4961045],[-2.6714831,51.4909916],[-2.6724874,51.4889371],[-2.6633042,51.4911807],[-2.6574363,51.5004808],[-2.6508615,51.4984893],[-2.6395785,51.5018414],[-2.6472024,51.5121716]]],"type":"Polygon"},"id":"E02003014","properties":{"code":"E02003014","geography":"MSOA","name":"Bristol 003"},"type":"Feature"},{"geometry":{"coordinates":[[[-2.5804688,51.5009785],[-2.5881485,51.5012361],[-2.5877271,51.5035328],[-2.5999855,51.4956326],[-2.6036226,51.492743],[-2.5905748,51.4879506],[-2.5848498,51.4888186],[-2.5884662,51.4905763],[-2.5823092,51.4942188],[-2.5782194,51.4963356],[-2.5804688,51.5009785]]],"type":"Polygon"},"id":"E02003015","properties":{"code":"E02003015","geography":"MSOA","name":"Bristol 004"},"type":"Feature"},{"geometry":{"coordinates":[[[-2.5673459,51.498749],[-2.5804688,51.5009785],[-2.5782194,51.4963356],[-2.5823092,51.4942188],[-2.5725783,51.489493],[-2.5678666,51.4893337],[-2.5647879,51.4955183],[-2.5673459,51.498749]]],"type":"Polygon"},"id":"E02003016","properties":{"code":"E02003016","geography":"MSOA","name":"Bristol 005"},"type":"Feature"},{"geometry":{"coordinates":[[[-2.5999855,51.4956326],[-2.6015844,51.4991951],[-2.6150939,51.4959375],[-2.6164836,51.4993048],[-2.6245795,51.4949747],[-2.6214171,51.4954591],[-2.6162691,51.4844442],[-2.6127939,51.4838082],[-2.6067324,51.4902837],[-2.6121997,51.4923695],[-2.6036226,51.492743],[-2.5999855,51.4956326]]],"type":"Polygon"},"id":"E02003017","properties":{"code":"E02003017","geography":"MSOA","name":"Bristol 006"},"type":"Feature"},{"geometry":{"coordinates":[[[[-2.6588669,51.4840699],[-2.6602371,51.4848022],[-2.6584183,51.4834664],[-2.6588669,51.4840699]]],[[[-2.6376778,51.5001167],[-2.6395785,51.5018414],[-2.6508615,51.4984893],[-2.6574363,51.5004808],[-2.6633042,51.4911807],[-2.6629282,51.4875208],[-2.6572679,51.4850866],[-2.6550805,51.4810147],[-2.6526204,51.4792074],[-2.6380248,51.4923605],[-2.6376778,51.5001167]]]],"type":"MultiPolygon"},"id":"E02003018","properties":{"code":"E02003018","geography":"MSOA","name":"Bristol 007"},"type":"Feature"},{"geometry":{"coordinates":[[[[-2.6683693,51.4813223],[-2.6682855,51.4814041],[-2.6687254,51.4813087],[-2.6683693,51.4813223]]],[[[-2.6631909,51.4863808],[-2.6636203,51.4866103],[-2.6673968,51.4822724],[-2.6631909,51.4863808]]],[[[-2.6899224,51.4855215],[-2.6939508,51.4878114],[-2.6859344,51.4816494],[-2.6899224,51.4855215]]],[[[-2.732297,51.4928849],[-2.7331839,51.4928883],[-2.7507801,51.4929517],[-2.7321909,51.4928362],[-2.732297,51.4928849]]],[[[-2.7354136,51.4943007],[-2.7352378,51.4941955],[-2.7349411,51.4940985],[-2.7354136,51.4943007]]],[[[-2.773331,51.4946664],[-2.7735466,51.4946181],[-2.7735527,51.4945832],[-2.773331,51.4946664]]],[[[-2.7587044,51.4951374],[-2.761504,51.4950611],[-2.7719453,51.4947227],[-2.7575325,51.4934927],[-2.7587044,51.4951374]]],[[[-2.7164783,51.5006102],[-2.7167815,51.500584],[-2.7183563,51.5004503],[-2.7104184,51.4971685],[-2.7164783,51.5006102]]],[[[-2.7287217,51.5024022],[-2.7288535,51.5026811],[-2.7281218,51.5002342],[-2.7276933,51.4988175],[-2.7287217,51.5024022]]],[[[-2.6837601,51.5107575],[-2.6891551,51.5216327],[-2.6758952,51.5313848],[-2.6825929,51.5351793],[-2.6826289,51.535035],[-2.6827485,51.5349283],[-2.682966,51.5348051],[-2.6829988,51.5347699],[-2.6830615,51.5346549],[-2.6833023,51.5343702],[-2.683429,51.5341937],[-2.6836142,51.5340159],[-2.6839828,51.5336456],[-2.6841548,51.5335374],[-2.6844943,51.533128],[-2.6847112,51.5329294],[-2.6849027,51.5326952],[-2.6853143,51.5322584],[-2.6856075,51.5320891],[-2.6857615,51.5319852],[-2.6858004,51.5319511],[-2.685841,51.531905],[-2.686111,51.5315073],[-2.6862336,51.5313688],[-2.686628,51.5306638],[-2.6868819,51.5302883],[-2.6870207,51.5300276],[-2.6870384,51.5297159],[-2.6870804,51.5295607],[-2.6870495,51.5294021],[-2.6875809,51.5293648],[-2.6910063,51.5264332],[-2.6927354,51.5246777],[-2.6928951,51.5245617],[-2.6939017,51.5237777],[-2.693971,51.5237137],[-2.6943893,51.5233014],[-2.6950035,51.5226711],[-2.695207,51.5224612],[-2.7027232,51.5168135],[-2.714577,51.5079041],[-2.7182133,51.5082416],[-2.7136959,51.5059295],[-2.7183131,51.5061612],[-2.7087218,51.4977333],[-2.6788672,51.4809834],[-2.6637264,51.487864],[-2.6629282,51.4875208],[-2.6633042,51.4911807],[-2.6724874,51.4889371],[-2.6714831,51.4909916],[-2.684722,51.4961045],[-2.6836068,51.5024411],[-2.6946794,51.5058916],[-2.6837601,51.5107575]]]],"type":"MultiPolygon"},"id":"E02003019","properties":{"code":"E02003019","geography":"MSOA","name":"Bristol 008"},"type":"Feature"},{"geometry":{"coordinates":[[[-2.615827,51.5023348],[-2.6151544,51.5046014],[-2.6244086,51.500288],[-2.6376778,51.5001167],[-2.6380248,51.4923605],[-2.6289674,51.4839114],[-2.6171271,51.4795129],[-2.6162691,51.4844442],[-2.6214171,51.4954591],[-2.6245795,51.4949747],[-2.6164836,51.4993048],[-2.615827,51.5023348]]],"type":"Polygon"},"id":"E02003020","properties":{"code":"E02003020","geography":"MSOA","name":"Bristol 009"},"type":"Feature"},{"geometry":{"coordinates":[[[-2.5725783,51.489493],[-2.5823092,51.4942188],[-2.5884662,51.4905763],[-2.5848498,51.4888186],[-2.5905748,51.4879506],[-2.5915151,51.4873016],[-2.5764979,51.4805523],[-2.5781545,51.4837943],[-2.5711483,51.4840815],[-2.5725783,51.489493]]],"type":"Polygon"},"id":"E02003021","properties":{"code":"E02003021","geography":"MSOA","name":"Bristol 010"},"type":"Feature"},{"geometry":{"coordinates":[[[-2.5905748,51.4879506],[-2.6036226,51.492743],[-2.6121997,51.4923695],[-2.6067324,51.4902837],[-2.6127939,51.4838082],[-2.6067542,51.4792198],[-2.6009216,51.4826243],[-2.5915151,51.4873016],[-2.5905748,51.4879506]]],"type":"Polygon"},"id":"E02003022","properties":{"code":"E02003022","geography":"MSOA","name":"Bristol 011"},"type":"Feature"},{"geometry":{"coordinates":[[[-2.5158649,51.4938682],[-2.527472,51.4926555],[-2.5343289,51.4967459],[-2.5573654,51.4851746],[-2.5603492,51.4786379],[-2.5551952,51.4815362],[-2.5527724,51.4789428],[-2.5504644,51.4826962],[-2.5446297,51.4811429],[-2.5460479,51.4774521],[-2.5396466,51.476907],[-2.538976,51.4803541],[-2.5342766,51.4791672],[-2.542207,51.4829219],[-2.541848,51.4872579],[-2.5316507,51.4875061],[-2.5258496,51.4821451],[-2.5250512,51.4894384],[-2.5150133,51.4921028],[-2.5158649,51.4938682]]],"type":"Polygon"},"id":"E02003023","properties":{"code":"E02003023","geography":"MSOA","name":"Bristol 012"},"type":"Feature"},{"geometry":{"coordinates":[[[-2.5151275,51.4817599],[-2.5167112,51.4851568],[-2.5109991,51.4899866],[-2.5150133,51.4921028],[-2.5250512,51.4894384],[-2.5258496,51.4821451],[-2.5316507,51.4875061],[-2.541848,51.4872579],[-2.542207,51.4829219],[-2.5342766,51.4791672],[-2.5360363,51.4767508],[-2.5257964,51.4783385],[-2.5215432,51.4816871],[-2.5152313,51.481448],[-2.5151275,51.4817599]]],"type":"Polygon"},"id":"E02003024","properties":{"code":"E02003024","geography":"MSOA","name":"Bristol 013"},"type":"Feature"},{"geometry":{"coordinates":[[[-2.5603492,51.4786379],[-2.5573654,51.4851746],[-2.5343289,51.4967459],[-2.5397964,51.4952456],[-2.5516008,51.4922342],[-2.5553469,51.4926876],[-2.5546612,51.4963496],[-2.5647879,51.4955183],[-2.5678666,51.4893337],[-2.5725783,51.489493],[-2.5711483,51.4840815],[-2.5781545,51.4837943],[-2.5764979,51.4805523],[-2.5761098,51.4756459],[-2.5745524,51.4734353],[-2.5678484,51.4689134],[-2.5607689,51.4747508],[-2.5603492,51.4786379]]],"type":"Polygon"},"id":"E02003025","properties":{"code":"E02003025","geography":"MSOA","name":"Bristol 014"},"type":"Feature"},{"geometry":{"coordinates":[[[-2.6171271,51.4795129],[-2.6289674,51.4839114],[-2.6380248,51.4923605],[-2.6526204,51.4792074],[-2.6510999,51.473638],[-2.6340371,51.4664916],[-2.6318111,51.4576177],[-2.6202232,51.4660987],[-2.6155198,51.4715123],[-2.6171271,51.4795129]]],"type":"Polygon"},"id":"E02003026","properties":{"code":"E02003026","geography":"MSOA","name":"Bristol 015"},"type":"Feature"},{"geometry":{"coordinates":[[[-2.5764979,51.4805523],[-2.5915151,51.4873016],[-2.6009216,51.4826243],[-2.5990335,51.4766567],[-2.5850317,51.4732878],[-2.5800551,51.476875],[-2.5761098,51.4756459],[-2.5764979,51.4805523]]],"type":"Polygon"},"id":"E02003027","properties":{"code":"E02003027","geography":"MSOA","name":"Bristol 016"},"type":"Feature"},{"geometry":{"coordinates":[[[-2.6127939,51.4838082],[-2.6162691,51.4844442],[-2.6171271,51.4795129],[-2.6155198,51.4715123],[-2.607697,51.4715523],[-2.603931,51.4742566],[-2.5974789,51.473644],[-2.5990335,51.4766567],[-2.6009216,51.4826243],[-2.6067542,51.4792198],[-2.6127939,51.4838082]]],"type":"Polygon"},"id":"E02003028","properties":{"code":"E02003028","geography":"MSOA","name":"Bristol 017"},"type":"Feature"},{"geometry":{"coordinates":[[[-2.5152313,51.481448],[-2.5215432,51.4816871],[-2.5257964,51.4783385],[-2.5200511,51.4691864],[-2.512926,51.4691524],[-2.514985,51.4809354],[-2.5152313,51.481448]]],"type":"Polygon"},"id":"E02003029","properties":{"code":"E02003029","geography":"MSOA","name":"Bristol 018"},"type":"Feature"},{"geometry":{"coordinates":[[[-2.5342766,51.4791672],[-2.538976,51.4803541],[-2.5396466,51.476907],[-2.5460479,51.4774521],[-2.5446297,51.4811429],[-2.5504644,51.4826962],[-2.5527724,51.4789428],[-2.5551952,51.4815362],[-2.5603492,51.4786379],[-2.5607689,51.4747508],[-2.5532428,51.4729782],[-2.5510246,51.4639632],[-2.5476832,51.4642846],[-2.5415581,51.4658262],[-2.5445274,51.471361],[-2.5360363,51.4767508],[-2.5342766,51.4791672]]],"type":"Polygon"},"id":"E02003030","properties":{"code":"E02003030","geography":"MSOA","name":"Bristol 019"},"type":"Feature"},{"geometry":{"coordinates":[[[-2.5761098,51.4756459],[-2.5800551,51.476875],[-2.5850317,51.4732878],[-2.5990335,51.4766567],[-2.5974789,51.473644],[-2.603931,51.4742566],[-2.607697,51.4715523],[-2.6044836,51.4701413],[-2.5937765,51.4703935],[-2.5912124,51.4670365],[-2.5867965,51.4685256],[-2.5745524,51.4734353],[-2.5761098,51.4756459]]],"type":"Polygon"},"id":"E02003031","properties":{"code":"E02003031","geography":"MSOA","name":"Bristol 020"},"type":"Feature"},{"geometry":{"coordinates":[[[-2.512926,51.4691524],[-2.5200511,51.4691864],[-2.5257964,51.4783385],[-2.5360363,51.4767508],[-2.5445274,51.471361],[-2.5415581,51.4658262],[-2.5289899,51.4668824],[-2.5128643,51.4671804],[-2.512926,51.4691524]]],"type":"Polygon"},"id":"E02003032","properties":{"code":"E02003032","geography":"MSOA","name":"Bristol 021"},"type":"Feature"},{"geometry":{"coordinates":[[[-2.607697,51.4715523],[-2.6155198,51.4715123],[-2.6086858,51.4620296],[-2.5999814,51.4626302],[-2.5953285,51.4644026],[-2.6021665,51.4655186],[-2.6004365,51.4681375],[-2.6044836,51.4701413],[-2.607697,51.4715523]]],"type":"Polygon"},"id":"E02003033","properties":{"code":"E02003033","geography":"MSOA","name":"Bristol 022"},"type":"Feature"},{"geometry":{"coordinates":[[[-2.5912124,51.4670365],[-2.5937765,51.4703935],[-2.6044836,51.4701413],[-2.6004365,51.4681375],[-2.6021665,51.4655186],[-2.5953285,51.4644026],[-2.5999814,51.4626302],[-2.6012708,51.4603343],[-2.5981067,51.4621061],[-2.5927221,51.4577353],[-2.5845837,51.4570592],[-2.5861622,51.4590556],[-2.5907419,51.4599138],[-2.5912124,51.4670365]]],"type":"Polygon"},"id":"E02003036","properties":{"code":"E02003036","geography":"MSOA","name":"Bristol 025"},"type":"Feature"},{"geometry":{"coordinates":[[[-2.6086858,51.4620296],[-2.6155198,51.4715123],[-2.6202232,51.4660987],[-2.6148027,51.4554563],[-2.6087208,51.45583],[-2.6086858,51.4620296]]],"type":"Polygon"},"id":"E02003037","properties":{"code":"E02003037","geography":"MSOA","name":"Bristol 026"},"type":"Feature"},{"geometry":{"coordinates":[[[-2.5121485,51.4630592],[-2.5128643,51.4671804],[-2.5289899,51.4668824],[-2.5257626,51.4587157],[-2.5258273,51.455244],[-2.5212682,51.4583084],[-2.5188529,51.4565378],[-2.5121485,51.4630592]]],"type":"Polygon"},"id":"E02003038","properties":{"code":"E02003038","geography":"MSOA","name":"Bristol 027"},"type":"Feature"},{"geometry":{"coordinates":[[[-2.5257626,51.4587157],[-2.5289899,51.4668824],[-2.5415581,51.4658262],[-2.5476832,51.4642846],[-2.5426739,51.4577403],[-2.5257626,51.4587157]]],"type":"Polygon"},"id":"E02003039","properties":{"code":"E02003039","geography":"MSOA","name":"Bristol 028"},"type":"Feature"},{"geometry":{"coordinates":[[[-2.5426739,51.4577403],[-2.5476832,51.4642846],[-2.5510246,51.4639632],[-2.556338,51.4633576],[-2.5630476,51.457661],[-2.5594421,51.4518788],[-2.5520516,51.452001],[-2.5468296,51.4546231],[-2.5426739,51.4577403]]],"type":"Polygon"},"id":"E02003040","properties":{"code":"E02003040","geography":"MSOA","name":"Bristol 029"},"type":"Feature"},{"geometry":{"coordinates":[[[-2.6148027,51.4554563],[-2.6202232,51.4660987],[-2.6318111,51.4576177],[-2.6285383,51.4546793],[-2.6218775,51.4518448],[-2.61338,51.4525072],[-2.6148027,51.4554563]]],"type":"Polygon"},"id":"E02003041","properties":{"code":"E02003041","geography":"MSOA","name":"Bristol 030"},"type":"Feature"},{"geometry":{"coordinates":[[[-2.5188529,51.4565378],[-2.5212682,51.4583084],[-2.5258273,51.455244],[-2.5257626,51.4587157],[-2.5426739,51.4577403],[-2.5468296,51.4546231],[-2.5388806,51.4548143],[-2.5356063,51.4473424],[-2.520632,51.451053],[-2.5188529,51.4565378]]],"type":"Polygon"},"id":"E02003044","properties":{"code":"E02003044","geography":"MSOA","name":"Bristol 033"},"type":"Feature"},{"geometry":{"coordinates":[[[-2.6078619,51.4511774],[-2.6087208,51.45583],[-2.6148027,51.4554563],[-2.61338,51.4525072],[-2.6218775,51.4518448],[-2.6285383,51.4546793],[-2.6266159,51.4505241],[-2.6252707,51.4501145],[-2.6155877,51.447882],[-2.6078619,51.4511774]]],"type":"Polygon"},"id":"E02003045","properties":{"code":"E02003045","geography":"MSOA","name":"Bristol 034"},"type":"Feature"},{"geometry":{"coordinates":[[[-2.5356063,51.4473424],[-2.5388806,51.4548143],[-2.5468296,51.4546231],[-2.5520516,51.452001],[-2.5639563,51.444804],[-2.5731989,51.4432755],[-2.5673297,51.4427952],[-2.5644473,51.4423644],[-2.5597181,51.4446616],[-2.5520237,51.437217],[-2.5467253,51.4474596],[-2.5386077,51.4466031],[-2.5356063,51.4473424]]],"type":"Polygon"},"id":"E02003046","properties":{"code":"E02003046","geography":"MSOA","name":"Bristol 035"},"type":"Feature"},{"geometry":{"coordinates":[[[-2.6252707,51.4501145],[-2.6266159,51.4505241],[-2.6270021,51.4466704],[-2.635114,51.4456512],[-2.6400818,51.4404543],[-2.6302905,51.4394838],[-2.6244217,51.440729],[-2.6204817,51.4366453],[-2.6070507,51.4403045],[-2.5987245,51.4458522],[-2.6200317,51.4457005],[-2.6252707,51.4501145]]],"type":"Polygon"},"id":"E02003047","properties":{"code":"E02003047","geography":"MSOA","name":"Bristol 036"},"type":"Feature"},{"geometry":{"coordinates":[[[-2.5731989,51.4432755],[-2.5801422,51.4481399],[-2.5874098,51.4429262],[-2.5902025,51.4394104],[-2.5819591,51.4364146],[-2.5770187,51.4374499],[-2.5673297,51.4427952],[-2.5731989,51.4432755]]],"type":"Polygon"},"id":"E02003048","properties":{"code":"E02003048","geography":"MSOA","name":"Bristol 037"},"type":"Feature"},{"geometry":{"coordinates":[[[-2.5386077,51.4466031],[-2.5467253,51.4474596],[-2.5520237,51.437217],[-2.5524484,51.4341444],[-2.5439523,51.4306225],[-2.5232104,51.4261393],[-2.5262903,51.4347788],[-2.5254656,51.4337919],[-2.5227931,51.4318103],[-2.5138488,51.4294452],[-2.5104618,51.4287843],[-2.5134359,51.4296337],[-2.5253543,51.434126],[-2.525419,51.434449],[-2.5274182,51.4444266],[-2.5386077,51.4466031]]],"type":"Polygon"},"id":"E02003049","properties":{"code":"E02003049","geography":"MSOA","name":"Bristol 038"},"type":"Feature"},{"geometry":{"coordinates":[[[-2.5874098,51.4429262],[-2.5801422,51.4481399],[-2.5911493,51.4456699],[-2.5987245,51.4458522],[-2.6070507,51.4403045],[-2.6059802,51.4367551],[-2.6163468,51.4305077],[-2.6095607,51.4317553],[-2.6045048,51.429304],[-2.6007023,51.4304072],[-2.5997726,51.4374087],[-2.5874098,51.4429262]]],"type":"Polygon"},"id":"E02003050","properties":{"code":"E02003050","geography":"MSOA","name":"Bristol 039"},"type":"Feature"},{"geometry":{"coordinates":[[[-2.5819591,51.4364146],[-2.5902025,51.4394104],[-2.5874098,51.4429262],[-2.5997726,51.4374087],[-2.6007023,51.4304072],[-2.5973341,51.4284483],[-2.5902154,51.4321626],[-2.5819591,51.4364146]]],"type":"Polygon"},"id":"E02003051","properties":{"code":"E02003051","geography":"MSOA","name":"Bristol 040"},"type":"Feature"},{"geometry":{"coordinates":[[[-2.6070507,51.4403045],[-2.6204817,51.4366453],[-2.6244217,51.440729],[-2.6302905,51.4394838],[-2.6339274,51.4275089],[-2.6163468,51.4305077],[-2.6059802,51.4367551],[-2.6070507,51.4403045]]],"type":"Polygon"},"id":"E02003052","properties":{"code":"E02003052","geography":"MSOA","name":"Bristol 041"},"type":"Feature"},{"geometry":{"coordinates":[[[-2.5644473,51.4423644],[-2.5673297,51.4427952],[-2.5770187,51.4374499],[-2.5789401,51.4342997],[-2.5751301,51.4355849],[-2.5753974,51.4288085],[-2.5683503,51.4279683],[-2.5700377,51.4263664],[-2.56385,51.4272189],[-2.5583299,51.4294642],[-2.5619314,51.4303921],[-2.5644473,51.4423644]]],"type":"Polygon"},"id":"E02003053","properties":{"code":"E02003053","geography":"MSOA","name":"Bristol 042"},"type":"Feature"},{"geometry":{"coordinates":[[[-2.5520237,51.437217],[-2.5597181,51.4446616],[-2.5644473,51.4423644],[-2.5619314,51.4303921],[-2.5583299,51.4294642],[-2.5582665,51.4262932],[-2.5479178,51.4275385],[-2.5337646,51.4182169],[-2.529254,51.421281],[-2.5313113,51.4233109],[-2.5232104,51.4261393],[-2.5439523,51.4306225],[-2.5524484,51.4341444],[-2.5520237,51.437217]]],"type":"Polygon"},"id":"E02003054","properties":{"code":"E02003054","geography":"MSOA","name":"Bristol 043"},"type":"Feature"},{"geometry":{"coordinates":[[[-2.5700377,51.4263664],[-2.5683503,51.4279683],[-2.5753974,51.4288085],[-2.5751301,51.4355849],[-2.5789401,51.4342997],[-2.5770187,51.4374499],[-2.5819591,51.4364146],[-2.5902154,51.4321626],[-2.5899774,51.4289166],[-2.5857839,51.4283852],[-2.5878589,51.4259265],[-2.5817599,51.4254772],[-2.5852376,51.4195091],[-2.5700377,51.4263664]]],"type":"Polygon"},"id":"E02003055","properties":{"code":"E02003055","geography":"MSOA","name":"Bristol 044"},"type":"Feature"},{"geometry":{"coordinates":[[[-2.5852376,51.4195091],[-2.5817599,51.4254772],[-2.5878589,51.4259265],[-2.5857839,51.4283852],[-2.5899774,51.4289166],[-2.5902154,51.4321626],[-2.5973341,51.4284483],[-2.6007023,51.4304072],[-2.6045048,51.429304],[-2.6043438,51.426123],[-2.6037634,51.4212759],[-2.5953724,51.4147554],[-2.5943253,51.4138421],[-2.5936086,51.4141614],[-2.5852376,51.4195091]]],"type":"Polygon"},"id":"E02003056","properties":{"code":"E02003056","geography":"MSOA","name":"Bristol 045"},"type":"Feature"},{"geometry":{"coordinates":[[[-2.6045048,51.429304],[-2.6095607,51.4317553],[-2.6163468,51.4305077],[-2.6339274,51.4275089],[-2.6370836,51.4232017],[-2.6324607,51.4203476],[-2.6290674,51.4160391],[-2.6245646,51.4187603],[-2.6193707,51.4140339],[-2.6146933,51.4208324],[-2.6043438,51.426123],[-2.6045048,51.429304]]],"type":"Polygon"},"id":"E02003057","properties":{"code":"E02003057","geography":"MSOA","name":"Bristol 046"},"type":"Feature"},{"geometry":{"coordinates":[[[-2.5588109,51.4112358],[-2.56385,51.4272189],[-2.5700377,51.4263664],[-2.5852376,51.4195091],[-2.5936086,51.4141614],[-2.5875711,51.4110621],[-2.5759839,51.4108006],[-2.5720639,51.4140081],[-2.561373,51.4106562],[-2.5588109,51.4112358]]],"type":"Polygon"},"id":"E02003058","properties":{"code":"E02003058","geography":"MSOA","name":"Bristol 047"},"type":"Feature"},{"geometry":{"coordinates":[[[-2.5953724,51.4147554],[-2.6037634,51.4212759],[-2.6043438,51.426123],[-2.6146933,51.4208324],[-2.6193707,51.4140339],[-2.6202538,51.4101955],[-2.6068149,51.4100847],[-2.5953724,51.4147554]]],"type":"Polygon"},"id":"E02003059","properties":{"code":"E02003059","geography":"MSOA","name":"Bristol 048"},"type":"Feature"},{"geometry":{"coordinates":[[[-2.5337646,51.4182169],[-2.5479178,51.4275385],[-2.5582665,51.4262932],[-2.5583299,51.4294642],[-2.56385,51.4272189],[-2.5588109,51.4112358],[-2.5433447,51.4074107],[-2.5345016,51.4138506],[-2.5337646,51.4182169]]],"type":"Polygon"},"id":"E02003060","properties":{"code":"E02003060","geography":"MSOA","name":"Bristol 049"},"type":"Feature"},{"geometry":{"coordinates":[[[-2.6193707,51.4140339],[-2.6245646,51.4187603],[-2.6290674,51.4160391],[-2.6354621,51.4069788],[-2.6304653,51.4021134],[-2.6229932,51.4038608],[-2.6202538,51.4101955],[-2.6193707,51.4140339]]],"type":"Polygon"},"id":"E02003061","properties":{"code":"E02003061","geography":"MSOA","name":"Bristol 050"},"type":"Feature"},{"geometry":{"coordinates":[[[-2.5943253,51.4138421],[-2.5953724,51.4147554],[-2.6068149,51.4100847],[-2.6202538,51.4101955],[-2.6229932,51.4038608],[-2.6103941,51.4012673],[-2.6025555,51.409857],[-2.5946759,51.41066],[-2.5943253,51.4138421]]],"type":"Polygon"},"id":"E02003062","properties":{"code":"E02003062","geography":"MSOA","name":"Bristol 051"},"type":"Feature"},{"geometry":{"coordinates":[[[-2.561373,51.4106562],[-2.5720639,51.4140081],[-2.5759839,51.4108006],[-2.5875711,51.4110621],[-2.581508,51.4088317],[-2.5844032,51.4004085],[-2.5707536,51.3993712],[-2.561373,51.4106562]]],"type":"Polygon"},"id":"E02003063","properties":{"code":"E02003063","geography":"MSOA","name":"Bristol 052"},"type":"Feature"},{"geometry":{"coordinates":[[[-2.5875711,51.4110621],[-2.5936086,51.4141614],[-2.5943253,51.4138421],[-2.5946759,51.41066],[-2.6025555,51.409857],[-2.6103941,51.4012673],[-2.5901319,51.397547],[-2.5844032,51.4004085],[-2.581508,51.4088317],[-2.5875711,51.4110621]]],"type":"Polygon"},"id":"E02003064","properties":{"code":"E02003064","geography":"MSOA","name":"Bristol 053"},"type":"Feature"},{"geometry":{"coordinates":[[[-2.5639563,51.444804],[-2.5688469,51.4451661],[-2.5708126,51.4497646],[-2.567323,51.4541071],[-2.5756147,51.4552182],[-2.5737906,51.4583122],[-2.5799185,51.4619026],[-2.5800645,51.4617812],[-2.5861622,51.4590556],[-2.5845837,51.4570592],[-2.5841416,51.4527743],[-2.588332,51.4548582],[-2.5918498,51.4531034],[-2.5911493,51.4456699],[-2.5801422,51.4481399],[-2.5731989,51.4432755],[-2.5639563,51.444804]]],"type":"Polygon"},"id":"E02006887","properties":{"code":"E02006887","geography":"MSOA","name":"Bristol 054"},"type":"Feature"},{"geometry":{"coordinates":[[[-2.556338,51.4633576],[-2.5589313,51.4656513],[-2.5638344,51.463487],[-2.5678484,51.4689134],[-2.5700225,51.468045],[-2.5724198,51.4594503],[-2.5630476,51.457661],[-2.556338,51.4633576]]],"type":"Polygon"},"id":"E02006888","properties":{"code":"E02006888","geography":"MSOA","name":"Bristol 055"},"type":"Feature"},{"geometry":{"coordinates":[[[-2.5630476,51.457661],[-2.5724198,51.4594503],[-2.5700225,51.468045],[-2.5799185,51.4619026],[-2.5737906,51.4583122],[-2.5756147,51.4552182],[-2.567323,51.4541071],[-2.5708126,51.4497646],[-2.5688469,51.4451661],[-2.5639563,51.444804],[-2.5520516,51.452001],[-2.5594421,51.4518788],[-2.5630476,51.457661]]],"type":"Polygon"},"id":"E02006889","properties":{"code":"E02006889","geography":"MSOA","name":"Bristol 056"},"type":"Feature"},{"geometry":{"coordinates":[[[-2.5510246,51.4639632],[-2.5532428,51.4729782],[-2.5607689,51.4747508],[-2.5678484,51.4689134],[-2.5638344,51.463487],[-2.5589313,51.4656513],[-2.556338,51.4633576],[-2.5510246,51.4639632]]],"type":"Polygon"},"id":"E02006890","properties":{"code":"E02006890","geography":"MSOA","name":"Bristol 057"},"type":"Feature"},{"geometry":{"coordinates":[[[-2.5678484,51.4689134],[-2.5745524,51.4734353],[-2.5867965,51.4685256],[-2.5806804,51.4660226],[-2.5800645,51.4617812],[-2.5799185,51.4619026],[-2.5700225,51.468045],[-2.5678484,51.4689134]]],"type":"Polygon"},"id":"E02006949","properties":{"code":"E02006949","geography":"MSOA","name":"Bristol 058"},"type":"Feature"},{"geometry":{"coordinates":[[[-2.5800645,51.4617812],[-2.5806804,51.4660226],[-2.5867965,51.4685256],[-2.5912124,51.4670365],[-2.5907419,51.4599138],[-2.5861622,51.4590556],[-2.5800645,51.4617812]]],"type":"Polygon"},"id":"E02006950","properties":{"code":"E02006950","geography":"MSOA","name":"Bristol 059"},"type":"Feature"},{"geometry":{"coordinates":[[[-2.5927221,51.4577353],[-2.5981067,51.4621061],[-2.6012708,51.4603343],[-2.5999814,51.4626302],[-2.6086858,51.4620296],[-2.6087208,51.45583],[-2.6078619,51.4511774],[-2.6007931,51.4493416],[-2.6014869,51.4543455],[-2.5927221,51.4577353]]],"type":"Polygon"},"id":"E02006951","properties":{"code":"E02006951","geography":"MSOA","name":"Bristol 060"},"type":"Feature"},{"geometry":{"coordinates":[[[-2.5845837,51.4570592],[-2.5927221,51.4577353],[-2.6014869,51.4543455],[-2.6007931,51.4493416],[-2.6078619,51.4511774],[-2.6155877,51.447882],[-2.6252707,51.4501145],[-2.6200317,51.4457005],[-2.5987245,51.4458522],[-2.5911493,51.4456699],[-2.5918498,51.4531034],[-2.588332,51.4548582],[-2.5841416,51.4527743],[-2.5845837,51.4570592]]],"type":"Polygon"},"id":"E02006952","properties":{"code":"E02006952","geography":"MSOA","name":"Bristol 061"},"type":"Feature"}],"type":"FeatureCollection"}
