{"features":[{"geometry":{"coordinates":[[[-0.1201176,50.8735678],[-0.1242375,50.877981],[-0.1303596,50.8786723],[-0.1499965,50.8673969],[-0.1457053,50.8569081],[-0.1420155,50.8598352],[-0.1361897,50.8571963],[-0.1329721,50.8605856],[-0.1410423,50.8606799],[-0.1337886,50.861823],[-0.1283644,50.8614747],[-0.1317272,50.8591404],[-0.1257965,50.8610466],[-0.1277851,50.8578806],[-0.1219865,50.8593444],[-0.1186246,50.8695099],[-0.1201176,50.8735678]]],"type":"Polygon"},"id":"E02003491","properties":{"code":"E02003491","geography":"MSOA","name":"Brighton and Hove 001"},"type":"Feature"},{"geometry":{"coordinates":[[[-0.0752903,50.8507051],[-0.0849551,50.8731252],[-0.0975465,50.8779509],[-0.1049426,50.8723491],[-0.1201176,50.8735678],[-0.1186246,50.8695099],[-0.1127246,50.8670006],[-0.1158327,50.8671048],[-0.1165803,50.8619547],[-0.1080833,50.8557682],[-0.1107976,50.8500619],[-0.1056731,50.8540235],[-0.0939595,50.8492978],[-0.0851403,50.8494243],[-0.0752903,50.8507051]]],"type":"Polygon"},"id":"E02003492","properties":{"code":"E02003492","geography":"MSOA","name":"Brighton and Hove 002"},"type":"Feature"},{"geometry":{"coordinates":[[[-0.1350374,50.8866403],[-0.1371685,50.8845851],[-0.1446393,50.8869858],[-0.1525536,50.88545],[-0.1530009,50.8798684],[-0.1681537,50.8807543],[-0.1658926,50.8923382],[-0.1693616,50.8899403],[-0.177841,50.8904787],[-0.1824506,50.8883307],[-0.1825106,50.8798464],[-0.1897753,50.8744222],[-0.1877625,50.8685766],[-0.1750444,50.8580217],[-0.1699946,50.8551722],[-0.1571174,50.8505011],[-0.1550451,50.8533242],[-0.1461603,50.8536268],[-0.1457053,50.8569081],[-0.1499965,50.8673969],[-0.1303596,50.8786723],[-0.1353113,50.8781108],[-0.1350374,50.8866403]]],"type":"Polygon"},"id":"E02003493","properties":{"code":"E02003493","geography":"MSOA","name":"Brighton and Hove 003"},"type":"Feature"},{"geometry":{"coordinates":[[[-0.1277851,50.8578806],[-0.1257965,50.8610466],[-0.1317272,50.8591404],[-0.1283644,50.8614747],[-0.1337886,50.861823],[-0.1410423,50.8606799],[-0.1329721,50.8605856],[-0.1361897,50.8571963],[-0.1420155,50.8598352],[-0.1457053,50.8569081],[-0.1461603,50.8536268],[-0.1550451,50.8533242],[-0.1571174,50.8505011],[-0.1417846,50.8455103],[-0.1353143,50.8488733],[-0.1345935,50.8536099],[-0.1277851,50.8578806]]],"type":"Polygon"},"id":"E02003494","properties":{"code":"E02003494","geography":"MSOA","name":"Brighton and Hove 004"},"type":"Feature"},{"geometry":{"coordinates":[[[-0.2139095,50.8704708],[-0.2141744,50.8751857],[-0.2267465,50.8781869],[-0.2392656,50.867892],[-0.2449983,50.8638153],[-0.2397804,50.8619587],[-0.2321696,50.849304],[-0.2263221,50.8483466],[-0.2269814,50.8506439],[-0.2175883,50.8445422],[-0.2098169,50.8466792],[-0.2083531,50.8470484],[-0.2139095,50.8704708]]],"type":"Polygon"},"id":"E02003495","properties":{"code":"E02003495","geography":"MSOA","name":"Brighton and Hove 005"},"type":"Feature"},{"geometry":{"coordinates":[[[-0.1877625,50.8685766],[-0.1990155,50.8701269],[-0.2026648,50.8758632],[-0.2054293,50.8700936],[-0.2139095,50.8704708],[-0.2083531,50.8470484],[-0.2069137,50.8449934],[-0.1995292,50.8478495],[-0.1991681,50.8509284],[-0.1956064,50.846354],[-0.2018361,50.8439817],[-0.1837229,50.8470803],[-0.1750444,50.8580217],[-0.1877625,50.8685766]]],"type":"Polygon"},"id":"E02003496","properties":{"code":"E02003496","geography":"MSOA","name":"Brighton and Hove 006"},"type":"Feature"},{"geometry":{"coordinates":[[[-0.1699946,50.8551722],[-0.1750444,50.8580217],[-0.1837229,50.8470803],[-0.1875264,50.8403846],[-0.1721594,50.838961],[-0.1683117,50.8380849],[-0.1651512,50.8408442],[-0.1689682,50.8446667],[-0.1643415,50.8421027],[-0.1596304,50.8440888],[-0.1699946,50.8551722]]],"type":"Polygon"},"id":"E02003497","properties":{"code":"E02003497","geography":"MSOA","name":"Brighton and Hove 007"},"type":"Feature"},{"geometry":{"coordinates":[[[-0.1107976,50.8500619],[-0.1080833,50.8557682],[-0.1165803,50.8619547],[-0.1158327,50.8671048],[-0.1127246,50.8670006],[-0.1186246,50.8695099],[-0.1219865,50.8593444],[-0.1277851,50.8578806],[-0.1345935,50.8536099],[-0.1353143,50.8488733],[-0.1280017,50.8470217],[-0.1291879,50.8422697],[-0.1341998,50.8415919],[-0.1335496,50.8371597],[-0.1242668,50.8378348],[-0.1197264,50.8431661],[-0.1196285,50.8398409],[-0.1157127,50.8421355],[-0.1119416,50.8398764],[-0.1143557,50.8466478],[-0.1107976,50.8500619]]],"type":"Polygon"},"id":"E02003498","properties":{"code":"E02003498","geography":"MSOA","name":"Brighton and Hove 008"},"type":"Feature"},{"geometry":{"coordinates":[[[-0.0851403,50.8494243],[-0.0939595,50.8492978],[-0.1056731,50.8540235],[-0.1107976,50.8500619],[-0.1143557,50.8466478],[-0.1119416,50.8398764],[-0.1159165,50.8374099],[-0.1108078,50.8365751],[-0.0942157,50.8350765],[-0.0876457,50.8440636],[-0.0821778,50.8451399],[-0.0851403,50.8494243]]],"type":"Polygon"},"id":"E02003499","properties":{"code":"E02003499","geography":"MSOA","name":"Brighton and Hove 009"},"type":"Feature"},{"geometry":{"coordinates":[[[-0.1341998,50.8415919],[-0.1291879,50.8422697],[-0.1280017,50.8470217],[-0.1353143,50.8488733],[-0.1417846,50.8455103],[-0.1461595,50.8440585],[-0.1390208,50.840289],[-0.1341998,50.8415919]]],"type":"Polygon"},"id":"E02003500","properties":{"code":"E02003500","geography":"MSOA","name":"Brighton and Hove 010"},"type":"Feature"},{"geometry":{"coordinates":[[[-0.1571174,50.8505011],[-0.1699946,50.8551722],[-0.1596304,50.8440888],[-0.1643415,50.8421027],[-0.1689682,50.8446667],[-0.1651512,50.8408442],[-0.1683117,50.8380849],[-0.1618498,50.8361087],[-0.1503561,50.8336708],[-0.1519049,50.8356301],[-0.1553772,50.8386912],[-0.1461595,50.8440585],[-0.1417846,50.8455103],[-0.1571174,50.8505011]]],"type":"Polygon"},"id":"E02003501","properties":{"code":"E02003501","geography":"MSOA","name":"Brighton and Hove 011"},"type":"Feature"},{"geometry":{"coordinates":[[[-0.2098169,50.8466792],[-0.2175883,50.8445422],[-0.2269814,50.8506439],[-0.2263221,50.8483466],[-0.2321696,50.849304],[-0.2197794,50.8355693],[-0.2194351,50.8351839],[-0.2095719,50.8373431],[-0.2161516,50.8416894],[-0.2088132,50.8437047],[-0.2098169,50.8466792]]],"type":"Polygon"},"id":"E02003502","properties":{"code":"E02003502","geography":"MSOA","name":"Brighton and Hove 012"},"type":"Feature"},{"geometry":{"coordinates":[[[-0.1837229,50.8470803],[-0.2018361,50.8439817],[-0.1956064,50.846354],[-0.1991681,50.8509284],[-0.1995292,50.8478495],[-0.2069137,50.8449934],[-0.2083531,50.8470484],[-0.2098169,50.8466792],[-0.2088132,50.8437047],[-0.2161516,50.8416894],[-0.2095719,50.8373431],[-0.197777,50.8362855],[-0.1911664,50.8364955],[-0.1875264,50.8403846],[-0.1837229,50.8470803]]],"type":"Polygon"},"id":"E02003503","properties":{"code":"E02003503","geography":"MSOA","name":"Brighton and Hove 013"},"type":"Feature"},{"geometry":{"coordinates":[[[-0.1341998,50.8415919],[-0.1390208,50.840289],[-0.1461595,50.8440585],[-0.1553772,50.8386912],[-0.1519049,50.8356301],[-0.1427152,50.8330839],[-0.1387939,50.8338149],[-0.1335496,50.8371597],[-0.1341998,50.8415919]]],"type":"Polygon"},"id":"E02003504","properties":{"code":"E02003504","geography":"MSOA","name":"Brighton and Hove 014"},"type":"Feature"},{"geometry":{"coordinates":[[[-0.1191254,50.8346902],[-0.1242668,50.8378348],[-0.1335496,50.8371597],[-0.1387939,50.8338149],[-0.1320483,50.8304839],[-0.1254392,50.8354849],[-0.1191254,50.8346902]]],"type":"Polygon"},"id":"E02003505","properties":{"code":"E02003505","geography":"MSOA","name":"Brighton and Hove 015"},"type":"Feature"},{"geometry":{"coordinates":[[[-0.1721594,50.838961],[-0.1875264,50.8403846],[-0.1911664,50.8364955],[-0.1906643,50.8336593],[-0.182223,50.8325937],[-0.1776707,50.8320988],[-0.1721594,50.838961]]],"type":"Polygon"},"id":"E02003506","properties":{"code":"E02003506","geography":"MSOA","name":"Brighton and Hove 016"},"type":"Feature"},{"geometry":{"coordinates":[[[-0.0421976,50.8248228],[-0.0368707,50.8412447],[-0.0456137,50.8449735],[-0.0734698,50.8412502],[-0.070807,50.8458244],[-0.0752903,50.8507051],[-0.0851403,50.8494243],[-0.0821778,50.8451399],[-0.0876457,50.8440636],[-0.0942157,50.8350765],[-0.082633,50.8190932],[-0.0745539,50.8189828],[-0.0709733,50.8233623],[-0.0678427,50.8220148],[-0.0498631,50.8269092],[-0.0482049,50.8239621],[-0.0459856,50.8283372],[-0.0421976,50.8248228]]],"type":"Polygon"},"id":"E02003507","properties":{"code":"E02003507","geography":"MSOA","name":"Brighton and Hove 017"},"type":"Feature"},{"geometry":{"coordinates":[[[-0.1119416,50.8398764],[-0.1157127,50.8421355],[-0.1196285,50.8398409],[-0.1197264,50.8431661],[-0.1242668,50.8378348],[-0.1191254,50.8346902],[-0.1196282,50.8314228],[-0.1252183,50.831279],[-0.1249089,50.827619],[-0.1231675,50.8259967],[-0.1195411,50.8246886],[-0.117975,50.827285],[-0.1224693,50.8288997],[-0.1108078,50.8365751],[-0.1159165,50.8374099],[-0.1119416,50.8398764]]],"type":"Polygon"},"id":"E02003508","properties":{"code":"E02003508","geography":"MSOA","name":"Brighton and Hove 018"},"type":"Feature"},{"geometry":{"coordinates":[[[-0.1683117,50.8380849],[-0.1721594,50.838961],[-0.1776707,50.8320988],[-0.1788514,50.8285448],[-0.1743898,50.8288793],[-0.1728536,50.8310217],[-0.1660212,50.8299124],[-0.1635944,50.8328734],[-0.1674783,50.8345438],[-0.1618498,50.8361087],[-0.1683117,50.8380849]]],"type":"Polygon"},"id":"E02003509","properties":{"code":"E02003509","geography":"MSOA","name":"Brighton and Hove 019"},"type":"Feature"},{"geometry":{"coordinates":[[[-0.1503561,50.8336708],[-0.1618498,50.8361087],[-0.1674783,50.8345438],[-0.1635944,50.8328734],[-0.1660212,50.8299124],[-0.1585435,50.8276996],[-0.1545116,50.8267886],[-0.147474,50.8308702],[-0.1503561,50.8336708]]],"type":"Polygon"},"id":"E02003510","properties":{"code":"E02003510","geography":"MSOA","name":"Brighton and Hove 020"},"type":"Feature"},{"geometry":{"coordinates":[[[-0.197777,50.8362855],[-0.2095719,50.8373431],[-0.2194351,50.8351839],[-0.2165285,50.8275971],[-0.2160655,50.8275786],[-0.2084001,50.8266855],[-0.1980697,50.8259919],[-0.1991876,50.8283641],[-0.1937424,50.8310322],[-0.197777,50.8362855]]],"type":"Polygon"},"id":"E02003511","properties":{"code":"E02003511","geography":"MSOA","name":"Brighton and Hove 021"},"type":"Feature"},{"geometry":{"coordinates":[[[-0.1191254,50.8346902],[-0.1254392,50.8354849],[-0.1320483,50.8304839],[-0.1344246,50.8285717],[-0.127275,50.8259311],[-0.1249089,50.827619],[-0.1252183,50.831279],[-0.1196282,50.8314228],[-0.1191254,50.8346902]]],"type":"Polygon"},"id":"E02003512","properties":{"code":"E02003512","geography":"MSOA","name":"Brighton and Hove 022"},"type":"Feature"},{"geometry":{"coordinates":[[[-0.182223,50.8325937],[-0.1906643,50.8336593],[-0.1911664,50.8364955],[-0.197777,50.8362855],[-0.1937424,50.8310322],[-0.1991876,50.8283641],[-0.1980697,50.8259919],[-0.1917029,50.825564],[-0.1916494,50.8255578],[-0.1905799,50.8285974],[-0.1858399,50.8265761],[-0.182223,50.8325937]]],"type":"Polygon"},"id":"E02003513","properties":{"code":"E02003513","geography":"MSOA","name":"Brighton and Hove 023"},"type":"Feature"},{"geometry":{"coordinates":[[[-0.1427152,50.8330839],[-0.1519049,50.8356301],[-0.1503561,50.8336708],[-0.147474,50.8308702],[-0.1545116,50.8267886],[-0.1540461,50.8250493],[-0.1493014,50.8283393],[-0.1446677,50.8265831],[-0.1427152,50.8330839]]],"type":"Polygon"},"id":"E02003514","properties":{"code":"E02003514","geography":"MSOA","name":"Brighton and Hove 024"},"type":"Feature"},{"geometry":{"coordinates":[[[-0.0942157,50.8350765],[-0.1108078,50.8365751],[-0.1224693,50.8288997],[-0.117975,50.827285],[-0.1195411,50.8246886],[-0.1184774,50.8228894],[-0.1081443,50.8199546],[-0.1012333,50.8220466],[-0.1040039,50.8169078],[-0.100292,50.8162877],[-0.0915767,50.8203053],[-0.0851018,50.8198554],[-0.082633,50.8190932],[-0.0942157,50.8350765]]],"type":"Polygon"},"id":"E02003515","properties":{"code":"E02003515","geography":"MSOA","name":"Brighton and Hove 025"},"type":"Feature"},{"geometry":{"coordinates":[[[-0.1660212,50.8299124],[-0.1728536,50.8310217],[-0.1743898,50.8288793],[-0.1666516,50.8241065],[-0.1585435,50.8276996],[-0.1660212,50.8299124]]],"type":"Polygon"},"id":"E02003516","properties":{"code":"E02003516","geography":"MSOA","name":"Brighton and Hove 026"},"type":"Feature"},{"geometry":{"coordinates":[[[-0.1320483,50.8304839],[-0.1387939,50.8338149],[-0.1427152,50.8330839],[-0.1446677,50.8265831],[-0.1493014,50.8283393],[-0.1540461,50.8250493],[-0.1502529,50.8258181],[-0.1478499,50.8212383],[-0.1545492,50.8213864],[-0.1370082,50.8185871],[-0.1369056,50.8194129],[-0.1344246,50.8285717],[-0.1320483,50.8304839]]],"type":"Polygon"},"id":"E02003517","properties":{"code":"E02003517","geography":"MSOA","name":"Brighton and Hove 027"},"type":"Feature"},{"geometry":{"coordinates":[[[-0.1776707,50.8320988],[-0.182223,50.8325937],[-0.1858399,50.8265761],[-0.1905799,50.8285974],[-0.1916494,50.8255578],[-0.1813114,50.824364],[-0.1669616,50.8230984],[-0.1666516,50.8241065],[-0.1743898,50.8288793],[-0.1788514,50.8285448],[-0.1776707,50.8320988]]],"type":"Polygon"},"id":"E02003518","properties":{"code":"E02003518","geography":"MSOA","name":"Brighton and Hove 028"},"type":"Feature"},{"geometry":{"coordinates":[[[-0.1545116,50.8267886],[-0.1585435,50.8276996],[-0.1666516,50.8241065],[-0.1669616,50.8230984],[-0.1569824,50.8217744],[-0.1545492,50.8213864],[-0.1478499,50.8212383],[-0.1502529,50.8258181],[-0.1540461,50.8250493],[-0.1545116,50.8267886]]],"type":"Polygon"},"id":"E02003519","properties":{"code":"E02003519","geography":"MSOA","name":"Brighton and Hove 029"},"type":"Feature"},{"geometry":{"coordinates":[[[-0.1249089,50.827619],[-0.127275,50.8259311],[-0.1344246,50.8285717],[-0.1369056,50.8194129],[-0.1282329,50.8186136],[-0.1231675,50.8259967],[-0.1249089,50.827619]]],"type":"Polygon"},"id":"E02003520","properties":{"code":"E02003520","geography":"MSOA","name":"Brighton and Hove 030"},"type":"Feature"},{"geometry":{"coordinates":[[[-0.1195411,50.8246886],[-0.1231675,50.8259967],[-0.1282329,50.8186136],[-0.1369056,50.8194129],[-0.1370082,50.8185871],[-0.136947,50.8185773],[-0.1239442,50.8163645],[-0.1136148,50.8144517],[-0.1184774,50.8228894],[-0.1195411,50.8246886]]],"type":"Polygon"},"id":"E02003521","properties":{"code":"E02003521","geography":"MSOA","name":"Brighton and Hove 031"},"type":"Feature"},{"geometry":{"coordinates":[[[-0.0851018,50.8198554],[-0.0915767,50.8203053],[-0.100292,50.8162877],[-0.1040039,50.8169078],[-0.1012333,50.8220466],[-0.1081443,50.8199546],[-0.1184774,50.8228894],[-0.1136148,50.8144517],[-0.1130642,50.8143497],[-0.1075407,50.8128138],[-0.1077719,50.8116232],[-0.1064141,50.8082717],[-0.1072362,50.8115859],[-0.0940899,50.8106723],[-0.095604,50.8092918],[-0.0967294,50.8085561],[-0.1061889,50.8095613],[-0.0970079,50.8083741],[-0.096444,50.8085258],[-0.0919062,50.8117086],[-0.0760173,50.8071321],[-0.0689003,50.8055533],[-0.0679965,50.8102175],[-0.0742153,50.8145661],[-0.0791084,50.8116711],[-0.0825523,50.8154506],[-0.0854666,50.8144969],[-0.0851018,50.8198554]]],"type":"Polygon"},"id":"E02003522","properties":{"code":"E02003522","geography":"MSOA","name":"Brighton and Hove 032"},"type":"Feature"},{"geometry":{"coordinates":[[[-0.0421976,50.8248228],[-0.0459856,50.8283372],[-0.0482049,50.8239621],[-0.0498631,50.8269092],[-0.0678427,50.8220148],[-0.0709733,50.8233623],[-0.0745539,50.8189828],[-0.082633,50.8190932],[-0.0851018,50.8198554],[-0.0854666,50.8144969],[-0.0825523,50.8154506],[-0.0791084,50.8116711],[-0.0742153,50.8145661],[-0.0679965,50.8102175],[-0.0689003,50.8055533],[-0.041817,50.7995405],[-0.038487,50.7992025],[-0.038257,50.7994923],[-0.0380215,50.7994646],[-0.0166141,50.8162803],[-0.0204572,50.8218362],[-0.0302578,50.817355],[-0.0459959,50.821831],[-0.0421976,50.8248228]]],"type":"Polygon"},"id":"E02003523","properties":{"code":"E02003523","geography":"MSOA","name":"Brighton and Hove 033"},"type":"Feature"}],"type":"FeatureCollection"}
