{"features":[{"geometry":{"coordinates":[[[[0.4562888,51.5064445],[0.4561729,51.5062159],[0.4563732,51.5060825],[0.4564036,51.5060385],[0.4565294,51.5059785],[0.4573859,51.5054079],[0.4562888,51.5064445]]],[[[0.5434602,51.5185358],[0.543148,51.5185918],[0.545094,51.5169706],[0.5475649,51.5149119],[0.5434602,51.5185358]]],[[[0.4615879,51.5536948],[0.4523234,51.5519318],[0.4459834,51.5511749],[0.4399067,51.5451116],[0.4309703,51.5497208],[0.4303341,51.5460062],[0.4339745,51.5460952],[0.4402516,51.5369494],[0.4306872,51.5301858],[0.4349475,51.5284131],[0.440563,51.5273021],[0.4391515,51.5314883],[0.4476965,51.5331102],[0.4616511,51.5248082],[0.4691858,51.5274401],[0.4771742,51.5183283],[0.466424,51.5184216],[0.4570005,51.5222437],[0.4531298,51.5217563],[0.4540149,51.5189274],[0.4657829,51.5150093],[0.4658928,51.5110748],[0.4585847,51.5109748],[0.4565022,51.5068657],[0.4608654,51.5069757],[0.4672553,51.5037468],[0.4942132,51.5071307],[0.5081364,51.5051951],[0.5186912,51.5104234],[0.5226627,51.5078819],[0.5312861,51.5084946],[0.5412432,51.5125583],[0.5221652,51.5159642],[0.5176527,51.5271069],[0.5068398,51.5312614],[0.5131916,51.5318673],[0.5167315,51.5299829],[0.5169715,51.5301002],[0.506031,51.5385334],[0.4933966,51.539484],[0.4851052,51.5477579],[0.4784551,51.5474469],[0.466734,51.5467237],[0.4615879,51.5536948]]]],"type":"MultiPolygon"},"id":"E02003296","properties":{"code":"E02003296","geography":"MSOA","name":"Thurrock 001"},"type":"Feature"},{"geometry":{"coordinates":[[[0.4540149,51.5189274],[0.4531298,51.5217563],[0.4570005,51.5222437],[0.466424,51.5184216],[0.4771742,51.5183283],[0.4691858,51.5274401],[0.4616511,51.5248082],[0.4476965,51.5331102],[0.4391515,51.5314883],[0.440563,51.5273021],[0.4475218,51.5229595],[0.4438415,51.5198747],[0.4485316,51.5200991],[0.4540149,51.5189274]]],"type":"Polygon"},"id":"E02003297","properties":{"code":"E02003297","geography":"MSOA","name":"Thurrock 002"},"type":"Feature"},{"geometry":{"coordinates":[[[0.440563,51.5273021],[0.4349475,51.5284131],[0.4354029,51.5249077],[0.4300344,51.5262952],[0.4341443,51.5228525],[0.4286952,51.5196672],[0.4402355,51.5077009],[0.4343931,51.5084022],[0.43652,51.5057345],[0.4469332,51.5068329],[0.4414501,51.5169387],[0.4485316,51.5200991],[0.4438415,51.5198747],[0.4475218,51.5229595],[0.440563,51.5273021]]],"type":"Polygon"},"id":"E02003298","properties":{"code":"E02003298","geography":"MSOA","name":"Thurrock 003"},"type":"Feature"},{"geometry":{"coordinates":[[[0.4303341,51.5460062],[0.4247962,51.5480879],[0.4248839,51.5526873],[0.4182173,51.5508155],[0.4210523,51.5529641],[0.4173667,51.5571308],[0.3935028,51.5576529],[0.3917799,51.5672102],[0.3825757,51.5658219],[0.3437552,51.5678192],[0.3129801,51.5659401],[0.3130071,51.5658163],[0.3152675,51.557834],[0.3277871,51.5509923],[0.3338729,51.542492],[0.3314015,51.5400443],[0.3224133,51.5405164],[0.3220595,51.5357156],[0.3317628,51.5375386],[0.3355379,51.5311413],[0.330028,51.516526],[0.3366177,51.5028022],[0.3433688,51.4971074],[0.355436,51.4990404],[0.3612421,51.5002314],[0.3630124,51.4919583],[0.3709957,51.4902997],[0.3724556,51.4940182],[0.3775114,51.4926625],[0.3819842,51.5029654],[0.3895187,51.5015876],[0.3966757,51.5017408],[0.4022506,51.4974869],[0.4059429,51.5037249],[0.4071448,51.5112868],[0.4139929,51.5128418],[0.4306872,51.5301858],[0.4402516,51.5369494],[0.4339745,51.5460952],[0.4303341,51.5460062]]],"type":"Polygon"},"id":"E02003299","properties":{"code":"E02003299","geography":"MSOA","name":"Thurrock 004"},"type":"Feature"},{"geometry":{"coordinates":[[[0.4349475,51.5284131],[0.4306872,51.5301858],[0.4139929,51.5128418],[0.4071448,51.5112868],[0.4059429,51.5037249],[0.4220627,51.503221],[0.4251277,51.4950981],[0.4440267,51.5013075],[0.4459161,51.5001535],[0.4459765,51.5001536],[0.4475946,51.5001568],[0.4575573,51.5052482],[0.4573859,51.5054079],[0.4565294,51.5059785],[0.4564036,51.5060385],[0.4563732,51.5060825],[0.4561729,51.5062159],[0.4562888,51.5064445],[0.4558593,51.5068495],[0.4565022,51.5068657],[0.4585847,51.5109748],[0.4658928,51.5110748],[0.4657829,51.5150093],[0.4540149,51.5189274],[0.4485316,51.5200991],[0.4414501,51.5169387],[0.4469332,51.5068329],[0.43652,51.5057345],[0.4343931,51.5084022],[0.4402355,51.5077009],[0.4286952,51.5196672],[0.4341443,51.5228525],[0.4300344,51.5262952],[0.4354029,51.5249077],[0.4349475,51.5284131]]],"type":"Polygon"},"id":"E02003300","properties":{"code":"E02003300","geography":"MSOA","name":"Thurrock 005"},"type":"Feature"},{"geometry":{"coordinates":[[[0.330028,51.516526],[0.3355379,51.5311413],[0.3317628,51.5375386],[0.3220595,51.5357156],[0.3224133,51.5405164],[0.3006945,51.5387547],[0.2977272,51.5353173],[0.2909592,51.5346971],[0.2653191,51.5321489],[0.2666096,51.5229552],[0.261977,51.5179293],[0.2684107,51.5140183],[0.2762729,51.5079092],[0.2814772,51.5085048],[0.2821989,51.5132477],[0.290562,51.5136443],[0.2907476,51.50756],[0.2933653,51.5102236],[0.3007784,51.5074866],[0.2941733,51.5047682],[0.2963704,51.500091],[0.3151945,51.5031553],[0.330028,51.516526]]],"type":"Polygon"},"id":"E02003301","properties":{"code":"E02003301","geography":"MSOA","name":"Thurrock 006"},"type":"Feature"},{"geometry":{"coordinates":[[[0.2963704,51.500091],[0.2941733,51.5047682],[0.3007784,51.5074866],[0.2933653,51.5102236],[0.2907476,51.50756],[0.290562,51.5136443],[0.2821989,51.5132477],[0.2814772,51.5085048],[0.2762729,51.5079092],[0.2684107,51.5140183],[0.268672,51.4975952],[0.2899431,51.4948369],[0.2963704,51.500091]]],"type":"Polygon"},"id":"E02003302","properties":{"code":"E02003302","geography":"MSOA","name":"Thurrock 007"},"type":"Feature"},{"geometry":{"coordinates":[[[0.261977,51.5179293],[0.2538066,51.5178855],[0.250824,51.5288173],[0.2458093,51.5235153],[0.2428281,51.5243909],[0.2406967,51.521207],[0.2448776,51.5187584],[0.237148,51.5193337],[0.2419913,51.5079657],[0.2265689,51.5065615],[0.2299367,51.4993651],[0.2141284,51.4960391],[0.2118412,51.4899584],[0.2284928,51.4863618],[0.2286962,51.4862122],[0.2314248,51.4886506],[0.2472289,51.4887704],[0.2575368,51.4927002],[0.2524091,51.4997644],[0.2610547,51.4951828],[0.268672,51.4975952],[0.2684107,51.5140183],[0.261977,51.5179293]]],"type":"Polygon"},"id":"E02003303","properties":{"code":"E02003303","geography":"MSOA","name":"Thurrock 008"},"type":"Feature"},{"geometry":{"coordinates":[[[0.3366177,51.5028022],[0.330028,51.516526],[0.3151945,51.5031553],[0.3188698,51.4863733],[0.3213336,51.4802181],[0.3260033,51.4860473],[0.3257651,51.4912068],[0.3337047,51.4891052],[0.3321082,51.4953284],[0.3382705,51.4958248],[0.3366177,51.5028022]]],"type":"Polygon"},"id":"E02003304","properties":{"code":"E02003304","geography":"MSOA","name":"Thurrock 009"},"type":"Feature"},{"geometry":{"coordinates":[[[0.355436,51.4990404],[0.3433688,51.4971074],[0.3366177,51.5028022],[0.3382705,51.4958248],[0.3321082,51.4953284],[0.3337047,51.4891052],[0.3421953,51.4891673],[0.3572455,51.4829611],[0.3593608,51.4901695],[0.355436,51.4990404]]],"type":"Polygon"},"id":"E02003305","properties":{"code":"E02003305","geography":"MSOA","name":"Thurrock 010"},"type":"Feature"},{"geometry":{"coordinates":[[[0.3895187,51.5015876],[0.3819842,51.5029654],[0.3775114,51.4926625],[0.3724556,51.4940182],[0.3709957,51.4902997],[0.3630124,51.4919583],[0.3612421,51.5002314],[0.355436,51.4990404],[0.3593608,51.4901695],[0.3572455,51.4829611],[0.3519319,51.4781187],[0.3710142,51.4751954],[0.3736667,51.4809541],[0.3858412,51.4839236],[0.3825169,51.4960332],[0.3864685,51.4952474],[0.3895187,51.5015876]]],"type":"Polygon"},"id":"E02003307","properties":{"code":"E02003307","geography":"MSOA","name":"Thurrock 012"},"type":"Feature"},{"geometry":{"coordinates":[[[0.4459161,51.5001535],[0.4440267,51.5013075],[0.4251277,51.4950981],[0.4220627,51.503221],[0.4059429,51.5037249],[0.4022506,51.4974869],[0.3966757,51.5017408],[0.3895187,51.5015876],[0.3864685,51.4952474],[0.3825169,51.4960332],[0.3858412,51.4839236],[0.3736667,51.4809541],[0.3710142,51.4751954],[0.3905185,51.4707342],[0.3997573,51.4717533],[0.4022694,51.4633982],[0.396993,51.4559511],[0.3980799,51.4536426],[0.3983718,51.4536609],[0.43395,51.4614981],[0.4402263,51.4915357],[0.4418097,51.4935034],[0.4455722,51.4981782],[0.444258,51.5001501],[0.4459161,51.5001535]]],"type":"Polygon"},"id":"E02003308","properties":{"code":"E02003308","geography":"MSOA","name":"Thurrock 013"},"type":"Feature"},{"geometry":{"coordinates":[[[0.3337047,51.4891052],[0.3257651,51.4912068],[0.3260033,51.4860473],[0.3360404,51.4831668],[0.3388689,51.4739229],[0.3519319,51.4781187],[0.3572455,51.4829611],[0.3421953,51.4891673],[0.3337047,51.4891052]]],"type":"Polygon"},"id":"E02003309","properties":{"code":"E02003309","geography":"MSOA","name":"Thurrock 014"},"type":"Feature"},{"geometry":{"coordinates":[[[0.3188698,51.4863733],[0.3165272,51.488928],[0.3030832,51.4861778],[0.3037186,51.4824905],[0.3063463,51.478845],[0.3120543,51.4768738],[0.3201343,51.4796792],[0.3268887,51.4756241],[0.3306211,51.4773201],[0.3383164,51.4707917],[0.3388689,51.4739229],[0.3360404,51.4831668],[0.3260033,51.4860473],[0.3213336,51.4802181],[0.3188698,51.4863733]]],"type":"Polygon"},"id":"E02003311","properties":{"code":"E02003311","geography":"MSOA","name":"Thurrock 016"},"type":"Feature"},{"geometry":{"coordinates":[[[0.3383164,51.4707917],[0.3306211,51.4773201],[0.3268887,51.4756241],[0.3201343,51.4796792],[0.3120543,51.4768738],[0.3063463,51.478845],[0.3056367,51.473702],[0.3187071,51.4741155],[0.3281515,51.4692891],[0.3324622,51.4715532],[0.3383164,51.4707917]]],"type":"Polygon"},"id":"E02003312","properties":{"code":"E02003312","geography":"MSOA","name":"Thurrock 017"},"type":"Feature"},{"geometry":{"coordinates":[[[0.3710142,51.4751954],[0.3519319,51.4781187],[0.3388689,51.4739229],[0.3383164,51.4707917],[0.3324622,51.4715532],[0.3281515,51.4692891],[0.3408155,51.4523272],[0.3787291,51.4521349],[0.3783014,51.4566168],[0.3816297,51.4526119],[0.3980799,51.4536426],[0.396993,51.4559511],[0.4022694,51.4633982],[0.3997573,51.4717533],[0.3905185,51.4707342],[0.3710142,51.4751954]]],"type":"Polygon"},"id":"E02003313","properties":{"code":"E02003313","geography":"MSOA","name":"Thurrock 018"},"type":"Feature"},{"geometry":{"coordinates":[[[0.3030832,51.4861778],[0.2999372,51.4922463],[0.2891343,51.4918492],[0.289294,51.4791697],[0.3037186,51.4824905],[0.3030832,51.4861778]]],"type":"Polygon"},"id":"E02006859","properties":{"code":"E02006859","geography":"MSOA","name":"Thurrock 019"},"type":"Feature"},{"geometry":{"coordinates":[[[0.3188698,51.4863733],[0.3151945,51.5031553],[0.2963704,51.500091],[0.2899431,51.4948369],[0.2891343,51.4918492],[0.2999372,51.4922463],[0.3030832,51.4861778],[0.3165272,51.488928],[0.3188698,51.4863733]]],"type":"Polygon"},"id":"E02006926","properties":{"code":"E02006926","geography":"MSOA","name":"Thurrock 020"},"type":"Feature"},{"geometry":{"coordinates":[[[0.2610547,51.4951828],[0.2524091,51.4997644],[0.2575368,51.4927002],[0.2472289,51.4887704],[0.2314248,51.4886506],[0.2286962,51.4862122],[0.2292836,51.4857802],[0.2379536,51.4794026],[0.2383501,51.479959],[0.2476846,51.4786139],[0.2510617,51.484508],[0.2621889,51.4838017],[0.2610547,51.4951828]]],"type":"Polygon"},"id":"E02007004","properties":{"code":"E02007004","geography":"MSOA","name":"Thurrock 021"},"type":"Feature"},{"geometry":{"coordinates":[[[0.2899431,51.4948369],[0.268672,51.4975952],[0.2610547,51.4951828],[0.2621889,51.4838017],[0.2510617,51.484508],[0.2476846,51.4786139],[0.2383501,51.479959],[0.2379536,51.4794026],[0.2470138,51.4727355],[0.2813741,51.4613988],[0.2914199,51.4695008],[0.3023631,51.4728403],[0.3046502,51.473538],[0.3051358,51.4736862],[0.3056367,51.473702],[0.3063463,51.478845],[0.3037186,51.4824905],[0.289294,51.4791697],[0.2891343,51.4918492],[0.2899431,51.4948369]]],"type":"Polygon"},"id":"E02007005","properties":{"code":"E02007005","geography":"MSOA","name":"Thurrock 022"},"type":"Feature"}],"type":"FeatureCollection"}
