{"features":[{"geometry":{"coordinates":[[[-0.4340487,53.642793],[-0.4107875,53.6601988],[-0.4054965,53.6812789],[-0.407958,53.6985643],[-0.4425414,53.6973767],[-0.4430035,53.6954456],[-0.4704869,53.6981998],[-0.4871111,53.6906393],[-0.4886307,53.689948],[-0.4895456,53.6893837],[-0.4648155,53.6501901],[-0.447447,53.638835],[-0.4340487,53.642793]]],"type":"Polygon"},"id":"E02002749","properties":{"code":"E02002749","geography":"MSOA","name":"North Lincolnshire 001"},"type":"Feature"},{"geometry":{"coordinates":[[[-0.2669439,53.6904472],[-0.2639174,53.6914772],[-0.2664111,53.695368],[-0.2893573,53.7131776],[-0.330926,53.7113853],[-0.3341384,53.7108843],[-0.361551,53.7038715],[-0.3876451,53.7021599],[-0.3933364,53.7003369],[-0.3935296,53.6968544],[-0.3951558,53.7000539],[-0.4065154,53.6986136],[-0.407958,53.6985643],[-0.4054965,53.6812789],[-0.4107875,53.6601988],[-0.4340487,53.642793],[-0.3597688,53.6655009],[-0.3600721,53.6598787],[-0.3410719,53.6584709],[-0.303377,53.6678615],[-0.291789,53.6793001],[-0.2902911,53.6863308],[-0.2669439,53.6904472]]],"type":"Polygon"},"id":"E02002750","properties":{"code":"E02002750","geography":"MSOA","name":"North Lincolnshire 002"},"type":"Feature"},{"geometry":{"coordinates":[[[[-0.5259399,53.6854463],[-0.5464032,53.6899142],[-0.5585945,53.6894673],[-0.5435679,53.6828575],[-0.5343153,53.683364],[-0.5358256,53.6812521],[-0.5263806,53.682958],[-0.5259399,53.6854463]]],[[[-0.5843209,53.6961617],[-0.6114175,53.7145824],[-0.6569382,53.7044441],[-0.6467912,53.6917554],[-0.6412339,53.663784],[-0.6706786,53.6639291],[-0.679479,53.6622944],[-0.6835893,53.6581669],[-0.6526104,53.6593369],[-0.6327124,53.6571116],[-0.627988,53.6562421],[-0.6276717,53.6479849],[-0.5281599,53.6506655],[-0.5366324,53.6564954],[-0.529513,53.6652632],[-0.527244,53.6780823],[-0.5487053,53.6796048],[-0.5834973,53.6953825],[-0.5862489,53.6933188],[-0.5843209,53.6961617]]]],"type":"MultiPolygon"},"id":"E02002751","properties":{"code":"E02002751","geography":"MSOA","name":"North Lincolnshire 003"},"type":"Feature"},{"geometry":{"coordinates":[[[-0.2047613,53.6381812],[-0.2334119,53.6634402],[-0.2339367,53.6639026],[-0.2372082,53.6637129],[-0.2378498,53.6635492],[-0.2375122,53.6636777],[-0.2378056,53.6636782],[-0.2627619,53.6901885],[-0.268166,53.6900312],[-0.2669439,53.6904472],[-0.2902911,53.6863308],[-0.291789,53.6793001],[-0.303377,53.6678615],[-0.3410719,53.6584709],[-0.3600721,53.6598787],[-0.3597688,53.6655009],[-0.4340487,53.642793],[-0.447447,53.638835],[-0.4318107,53.6271365],[-0.3885008,53.6065115],[-0.4010101,53.6018108],[-0.4130786,53.5846176],[-0.4222785,53.581986],[-0.4188733,53.5783499],[-0.4287704,53.5743946],[-0.4173445,53.5632433],[-0.3562811,53.5560331],[-0.3480267,53.5560612],[-0.3486554,53.5594915],[-0.3358247,53.5586639],[-0.3108634,53.5901323],[-0.3035133,53.5908091],[-0.3007386,53.5952616],[-0.3085503,53.6143068],[-0.3009254,53.6163661],[-0.2982323,53.6125397],[-0.2921102,53.6132454],[-0.2509529,53.6229709],[-0.2326114,53.623981],[-0.2047613,53.6381812]]],"type":"Polygon"},"id":"E02002752","properties":{"code":"E02002752","geography":"MSOA","name":"North Lincolnshire 004"},"type":"Feature"},{"geometry":{"coordinates":[[[-0.6276717,53.6479849],[-0.627988,53.6562421],[-0.6327124,53.6571116],[-0.6526104,53.6593369],[-0.6835893,53.6581669],[-0.679479,53.6622944],[-0.6706786,53.6639291],[-0.6412339,53.663784],[-0.6467912,53.6917554],[-0.6569382,53.7044441],[-0.6913904,53.6967561],[-0.6949362,53.692304],[-0.6961966,53.6895669],[-0.6941324,53.6859715],[-0.6869207,53.6738289],[-0.6964753,53.653274],[-0.7132834,53.6407082],[-0.7130016,53.6264539],[-0.700257,53.6166624],[-0.6995925,53.6119357],[-0.706999,53.6071403],[-0.7251624,53.6085138],[-0.7310466,53.6054002],[-0.7385195,53.5931737],[-0.7308445,53.5821241],[-0.7459852,53.5723827],[-0.748173,53.5632448],[-0.7435608,53.5534451],[-0.7098992,53.5563307],[-0.6860512,53.5576501],[-0.685634,53.5745436],[-0.6875809,53.5849802],[-0.6859079,53.5945226],[-0.6789698,53.6038564],[-0.67981,53.6113076],[-0.6688576,53.6128524],[-0.6686659,53.6211108],[-0.6611518,53.617832],[-0.641317,53.6170827],[-0.6383684,53.6188051],[-0.642277,53.6223675],[-0.6302598,53.621191],[-0.6268584,53.6257454],[-0.6276717,53.6479849]]],"type":"Polygon"},"id":"E02002753","properties":{"code":"E02002753","geography":"MSOA","name":"North Lincolnshire 005"},"type":"Feature"},{"geometry":{"coordinates":[[[-0.748173,53.5632448],[-0.7459852,53.5723827],[-0.7308445,53.5821241],[-0.7385195,53.5931737],[-0.7310466,53.6054002],[-0.7251624,53.6085138],[-0.706999,53.6071403],[-0.6995925,53.6119357],[-0.700257,53.6166624],[-0.7130016,53.6264539],[-0.7132834,53.6407082],[-0.6964753,53.653274],[-0.6869207,53.6738289],[-0.6941324,53.6859715],[-0.7043057,53.6814887],[-0.7024518,53.6774709],[-0.7217621,53.6793398],[-0.7231852,53.6737086],[-0.7466017,53.6695918],[-0.7589725,53.6643462],[-0.7532375,53.6626785],[-0.7744938,53.6561889],[-0.7721302,53.6640549],[-0.7888995,53.6591343],[-0.8015361,53.6527061],[-0.8058,53.6463352],[-0.8291474,53.6432155],[-0.8482585,53.6330164],[-0.8653331,53.6376881],[-0.8869912,53.6096668],[-0.8868926,53.6010061],[-0.8979223,53.5832565],[-0.8962339,53.5828958],[-0.8882062,53.5865321],[-0.8723955,53.578763],[-0.8259617,53.5869859],[-0.8106425,53.5828076],[-0.780198,53.5801575],[-0.7679946,53.5643174],[-0.7602166,53.5633578],[-0.748173,53.5632448]]],"type":"Polygon"},"id":"E02002754","properties":{"code":"E02002754","geography":"MSOA","name":"North Lincolnshire 006"},"type":"Feature"},{"geometry":{"coordinates":[[[-0.641317,53.6170827],[-0.6611518,53.617832],[-0.6686659,53.6211108],[-0.6688576,53.6128524],[-0.67981,53.6113076],[-0.6789698,53.6038564],[-0.6859079,53.5945226],[-0.6823861,53.5937337],[-0.678682,53.5984292],[-0.6706531,53.5969333],[-0.6677499,53.6011802],[-0.6630865,53.5970557],[-0.653005,53.5967209],[-0.6548318,53.5937579],[-0.6465447,53.5948719],[-0.6431505,53.5900853],[-0.6476155,53.5917269],[-0.6486886,53.5869106],[-0.6094072,53.599003],[-0.6312664,53.61524],[-0.6388635,53.6145465],[-0.641317,53.6170827]]],"type":"Polygon"},"id":"E02002755","properties":{"code":"E02002755","geography":"MSOA","name":"North Lincolnshire 007"},"type":"Feature"},{"geometry":{"coordinates":[[[-0.6486886,53.5869106],[-0.6476155,53.5917269],[-0.6431505,53.5900853],[-0.6465447,53.5948719],[-0.6548318,53.5937579],[-0.653005,53.5967209],[-0.6630865,53.5970557],[-0.6677499,53.6011802],[-0.6706531,53.5969333],[-0.6709484,53.5924738],[-0.6596732,53.590603],[-0.6593174,53.5848242],[-0.6539031,53.5854468],[-0.6486886,53.5869106]]],"type":"Polygon"},"id":"E02002756","properties":{"code":"E02002756","geography":"MSOA","name":"North Lincolnshire 008"},"type":"Feature"},{"geometry":{"coordinates":[[[-0.6706531,53.5969333],[-0.678682,53.5984292],[-0.6823861,53.5937337],[-0.6859079,53.5945226],[-0.6875809,53.5849802],[-0.6593174,53.5848242],[-0.6596732,53.590603],[-0.6709484,53.5924738],[-0.6706531,53.5969333]]],"type":"Polygon"},"id":"E02002757","properties":{"code":"E02002757","geography":"MSOA","name":"North Lincolnshire 009"},"type":"Feature"},{"geometry":{"coordinates":[[[-0.591791,53.5649051],[-0.5903842,53.5699249],[-0.5987395,53.5710318],[-0.5958429,53.5816022],[-0.5999501,53.5924248],[-0.5941147,53.5968094],[-0.6094072,53.599003],[-0.6486886,53.5869106],[-0.6539031,53.5854468],[-0.6546019,53.5791356],[-0.6406029,53.5733481],[-0.6368159,53.5770691],[-0.630804,53.5772513],[-0.6244148,53.5664805],[-0.6051579,53.5636872],[-0.5968107,53.5606285],[-0.591791,53.5649051]]],"type":"Polygon"},"id":"E02002758","properties":{"code":"E02002758","geography":"MSOA","name":"North Lincolnshire 010"},"type":"Feature"},{"geometry":{"coordinates":[[[[-0.5205996,53.6856575],[-0.5250987,53.6852625],[-0.5259399,53.6854463],[-0.5263806,53.682958],[-0.5252136,53.6831687],[-0.5205996,53.6856575]]],[[[-0.4895456,53.6893837],[-0.4899285,53.6891475],[-0.5033971,53.6808369],[-0.5255339,53.6779608],[-0.527244,53.6780823],[-0.529513,53.6652632],[-0.5366324,53.6564954],[-0.5281599,53.6506655],[-0.5297727,53.6448933],[-0.5408704,53.6424048],[-0.543918,53.6363527],[-0.5302328,53.6229372],[-0.530944,53.6143479],[-0.5253753,53.6064805],[-0.5279977,53.6021342],[-0.5205915,53.5945069],[-0.497475,53.5862202],[-0.4894413,53.579267],[-0.5017682,53.5614993],[-0.5021876,53.5502149],[-0.5010235,53.5421193],[-0.4914502,53.5476952],[-0.4909031,53.5458383],[-0.4764798,53.5458568],[-0.467015,53.54894],[-0.465625,53.5560001],[-0.4568492,53.5592798],[-0.4507034,53.5579775],[-0.4394039,53.5702721],[-0.4287704,53.5743946],[-0.4188733,53.5783499],[-0.4222785,53.581986],[-0.4130786,53.5846176],[-0.4010101,53.6018108],[-0.3885008,53.6065115],[-0.4318107,53.6271365],[-0.447447,53.638835],[-0.4648155,53.6501901],[-0.4895456,53.6893837]]]],"type":"MultiPolygon"},"id":"E02002759","properties":{"code":"E02002759","geography":"MSOA","name":"North Lincolnshire 011"},"type":"Feature"},{"geometry":{"coordinates":[[[-0.6546019,53.5791356],[-0.6539031,53.5854468],[-0.6593174,53.5848242],[-0.6875809,53.5849802],[-0.685634,53.5745436],[-0.6811221,53.5727158],[-0.678589,53.575062],[-0.6712879,53.571263],[-0.6647063,53.5690549],[-0.6574599,53.5725396],[-0.6540666,53.5689136],[-0.6546019,53.5791356]]],"type":"Polygon"},"id":"E02002760","properties":{"code":"E02002760","geography":"MSOA","name":"North Lincolnshire 012"},"type":"Feature"},{"geometry":{"coordinates":[[[-0.5021876,53.5502149],[-0.5017682,53.5614993],[-0.4894413,53.579267],[-0.497475,53.5862202],[-0.5205915,53.5945069],[-0.5279977,53.6021342],[-0.5253753,53.6064805],[-0.530944,53.6143479],[-0.5302328,53.6229372],[-0.543918,53.6363527],[-0.5408704,53.6424048],[-0.5297727,53.6448933],[-0.5281599,53.6506655],[-0.6276717,53.6479849],[-0.6268584,53.6257454],[-0.6302598,53.621191],[-0.642277,53.6223675],[-0.6383684,53.6188051],[-0.641317,53.6170827],[-0.6388635,53.6145465],[-0.6312664,53.61524],[-0.6094072,53.599003],[-0.5941147,53.5968094],[-0.5999501,53.5924248],[-0.5958429,53.5816022],[-0.5987395,53.5710318],[-0.5903842,53.5699249],[-0.591791,53.5649051],[-0.5763622,53.5617589],[-0.5697409,53.5531722],[-0.5602822,53.5493518],[-0.5624083,53.544696],[-0.5461081,53.5449153],[-0.5139043,53.551099],[-0.5100226,53.5487824],[-0.5021876,53.5502149]]],"type":"Polygon"},"id":"E02002761","properties":{"code":"E02002761","geography":"MSOA","name":"North Lincolnshire 013"},"type":"Feature"},{"geometry":{"coordinates":[[[-0.6406029,53.5733481],[-0.6546019,53.5791356],[-0.6540666,53.5689136],[-0.6574599,53.5725396],[-0.6647063,53.5690549],[-0.6712879,53.571263],[-0.6715821,53.5670807],[-0.6661988,53.5664089],[-0.6447367,53.5674021],[-0.6399451,53.5668348],[-0.6401823,53.5713107],[-0.6438948,53.5714271],[-0.6406029,53.5733481]]],"type":"Polygon"},"id":"E02002762","properties":{"code":"E02002762","geography":"MSOA","name":"North Lincolnshire 014"},"type":"Feature"},{"geometry":{"coordinates":[[[-0.6051579,53.5636872],[-0.6244148,53.5664805],[-0.630804,53.5772513],[-0.6368159,53.5770691],[-0.6406029,53.5733481],[-0.6438948,53.5714271],[-0.6401823,53.5713107],[-0.6399451,53.5668348],[-0.6447367,53.5674021],[-0.6432949,53.5633628],[-0.6333152,53.5639494],[-0.6353346,53.5616278],[-0.6314709,53.5645168],[-0.624841,53.5637954],[-0.6260831,53.5619624],[-0.6174494,53.5592966],[-0.6049111,53.5594861],[-0.6051579,53.5636872]]],"type":"Polygon"},"id":"E02002763","properties":{"code":"E02002763","geography":"MSOA","name":"North Lincolnshire 015"},"type":"Feature"},{"geometry":{"coordinates":[[[-0.6712879,53.571263],[-0.678589,53.575062],[-0.6811221,53.5727158],[-0.685634,53.5745436],[-0.6860512,53.5576501],[-0.6666681,53.5586212],[-0.6707719,53.5627884],[-0.6661988,53.5664089],[-0.6715821,53.5670807],[-0.6712879,53.571263]]],"type":"Polygon"},"id":"E02002764","properties":{"code":"E02002764","geography":"MSOA","name":"North Lincolnshire 016"},"type":"Feature"},{"geometry":{"coordinates":[[[-0.6432949,53.5633628],[-0.6447367,53.5674021],[-0.6661988,53.5664089],[-0.6707719,53.5627884],[-0.6666681,53.5586212],[-0.6528339,53.5597209],[-0.6423722,53.5611568],[-0.6432949,53.5633628]]],"type":"Polygon"},"id":"E02002765","properties":{"code":"E02002765","geography":"MSOA","name":"North Lincolnshire 017"},"type":"Feature"},{"geometry":{"coordinates":[[[-0.6174494,53.5592966],[-0.6260831,53.5619624],[-0.624841,53.5637954],[-0.6314709,53.5645168],[-0.6353346,53.5616278],[-0.6333152,53.5639494],[-0.6432949,53.5633628],[-0.6423722,53.5611568],[-0.6528339,53.5597209],[-0.6575071,53.552781],[-0.6521658,53.5503298],[-0.6497164,53.5534312],[-0.6420171,53.551548],[-0.6174494,53.5592966]]],"type":"Polygon"},"id":"E02002766","properties":{"code":"E02002766","geography":"MSOA","name":"North Lincolnshire 018"},"type":"Feature"},{"geometry":{"coordinates":[[[-0.6420171,53.551548],[-0.6497164,53.5534312],[-0.6521658,53.5503298],[-0.6575071,53.552781],[-0.6528339,53.5597209],[-0.6666681,53.5586212],[-0.6860512,53.5576501],[-0.7098992,53.5563307],[-0.70627,53.543181],[-0.6692239,53.5434358],[-0.6429932,53.547914],[-0.6420171,53.551548]]],"type":"Polygon"},"id":"E02002767","properties":{"code":"E02002767","geography":"MSOA","name":"North Lincolnshire 019"},"type":"Feature"},{"geometry":{"coordinates":[[[-0.7602166,53.5633578],[-0.7679946,53.5643174],[-0.780198,53.5801575],[-0.8106425,53.5828076],[-0.8259617,53.5869859],[-0.8723955,53.578763],[-0.8882062,53.5865321],[-0.8962339,53.5828958],[-0.9011136,53.5687035],[-0.8909912,53.5665382],[-0.9002992,53.5556378],[-0.8998297,53.5444568],[-0.892265,53.5375734],[-0.8980675,53.5327389],[-0.8904567,53.5313332],[-0.8917291,53.5277383],[-0.8872531,53.5295414],[-0.8884611,53.5165722],[-0.8778418,53.5148564],[-0.8552687,53.5133911],[-0.853853,53.5211495],[-0.8352732,53.5166383],[-0.813375,53.5164401],[-0.8121975,53.5201398],[-0.793998,53.5213234],[-0.7849883,53.5152759],[-0.7789704,53.5193135],[-0.7701714,53.5176276],[-0.7680435,53.5225145],[-0.7747907,53.5221425],[-0.780627,53.5430408],[-0.7711551,53.5447629],[-0.7587787,53.5417301],[-0.7602166,53.5633578]]],"type":"Polygon"},"id":"E02002768","properties":{"code":"E02002768","geography":"MSOA","name":"North Lincolnshire 020"},"type":"Feature"},{"geometry":{"coordinates":[[[-0.5100226,53.5487824],[-0.5139043,53.551099],[-0.5461081,53.5449153],[-0.5624083,53.544696],[-0.5602822,53.5493518],[-0.5697409,53.5531722],[-0.5763622,53.5617589],[-0.591791,53.5649051],[-0.5968107,53.5606285],[-0.6051579,53.5636872],[-0.6049111,53.5594861],[-0.6174494,53.5592966],[-0.6420171,53.551548],[-0.6429932,53.547914],[-0.6692239,53.5434358],[-0.70627,53.543181],[-0.7098992,53.5563307],[-0.7435608,53.5534451],[-0.7377819,53.5456936],[-0.7428804,53.5368241],[-0.7375467,53.5269822],[-0.7395889,53.5199151],[-0.7016273,53.5141487],[-0.687378,53.5164111],[-0.6757556,53.5124887],[-0.6244785,53.5127997],[-0.6288093,53.4888242],[-0.5835419,53.4950094],[-0.5800995,53.5194371],[-0.5554615,53.5200053],[-0.5559735,53.5267162],[-0.5388713,53.5318211],[-0.5335349,53.5288263],[-0.5340811,53.5365009],[-0.5214481,53.5399758],[-0.5212575,53.5432072],[-0.5092523,53.5433929],[-0.5100226,53.5487824]]],"type":"Polygon"},"id":"E02002769","properties":{"code":"E02002769","geography":"MSOA","name":"North Lincolnshire 021"},"type":"Feature"},{"geometry":{"coordinates":[[[-0.4909031,53.5458383],[-0.4914502,53.5476952],[-0.5010235,53.5421193],[-0.5021876,53.5502149],[-0.5100226,53.5487824],[-0.5092523,53.5433929],[-0.5212575,53.5432072],[-0.5214481,53.5399758],[-0.5340811,53.5365009],[-0.5335349,53.5288263],[-0.5388713,53.5318211],[-0.5559735,53.5267162],[-0.5554615,53.5200053],[-0.5800995,53.5194371],[-0.5835419,53.4950094],[-0.6288093,53.4888242],[-0.6339479,53.485412],[-0.6348803,53.4723643],[-0.626703,53.461844],[-0.6297501,53.4581971],[-0.5994774,53.45638],[-0.556964,53.4589872],[-0.4717469,53.4748508],[-0.4865742,53.4804575],[-0.4877688,53.4877576],[-0.4806837,53.4962235],[-0.4883853,53.5048057],[-0.475869,53.5089129],[-0.4440251,53.5093501],[-0.4050542,53.5175737],[-0.4081418,53.5320875],[-0.413492,53.5356827],[-0.4218677,53.5344125],[-0.4306969,53.5463031],[-0.5012262,53.5374401],[-0.4909031,53.5458383]]],"type":"Polygon"},"id":"E02002770","properties":{"code":"E02002770","geography":"MSOA","name":"North Lincolnshire 022"},"type":"Feature"},{"geometry":{"coordinates":[[[-0.7435608,53.5534451],[-0.748173,53.5632448],[-0.7602166,53.5633578],[-0.7587787,53.5417301],[-0.7711551,53.5447629],[-0.780627,53.5430408],[-0.7747907,53.5221425],[-0.7680435,53.5225145],[-0.7701714,53.5176276],[-0.7789704,53.5193135],[-0.7849883,53.5152759],[-0.793998,53.5213234],[-0.8121975,53.5201398],[-0.813375,53.5164401],[-0.8352732,53.5166383],[-0.853853,53.5211495],[-0.8552687,53.5133911],[-0.8778418,53.5148564],[-0.8884611,53.5165722],[-0.8872531,53.5295414],[-0.8917291,53.5277383],[-0.8904567,53.5313332],[-0.8980675,53.5327389],[-0.9437121,53.5306225],[-0.9484699,53.5203523],[-0.9500056,53.5136365],[-0.9320908,53.5106511],[-0.9355782,53.502478],[-0.9005309,53.4751348],[-0.9202443,53.4654863],[-0.9162626,53.4602824],[-0.8737293,53.4615049],[-0.8720432,53.4663397],[-0.7974804,53.4550434],[-0.7843617,53.4633589],[-0.7843859,53.4766483],[-0.7715654,53.4791808],[-0.775621,53.4890041],[-0.768107,53.498905],[-0.7521107,53.5005094],[-0.7395889,53.5199151],[-0.7375467,53.5269822],[-0.7428804,53.5368241],[-0.7377819,53.5456936],[-0.7435608,53.5534451]]],"type":"Polygon"},"id":"E02002771","properties":{"code":"E02002771","geography":"MSOA","name":"North Lincolnshire 023"},"type":"Feature"}],"type":"FeatureCollection"}
