{"features":[{"geometry":{"coordinates":[[[-1.9568285,50.9898364],[-1.9653656,50.9920433],[-1.9852172,50.9847619],[-1.9940437,50.9757342],[-2.0348413,50.9723743],[-2.058334,50.9636496],[-2.0672897,50.951827],[-2.0581995,50.9436419],[-2.0567585,50.9266239],[-2.0512985,50.917828],[-2.0134618,50.928918],[-2.0136223,50.9317119],[-1.9813419,50.9458397],[-1.9856726,50.933153],[-1.9819168,50.9305623],[-1.9867252,50.9269806],[-1.9770528,50.9198676],[-1.9836519,50.907469],[-1.9669935,50.8957596],[-1.9810858,50.8912969],[-1.9797052,50.8820783],[-1.9634923,50.8788526],[-1.9610582,50.8735093],[-1.9426601,50.8673932],[-1.9139973,50.8628615],[-1.9095546,50.8681525],[-1.9051246,50.8769806],[-1.895454,50.8786686],[-1.895276,50.8840059],[-1.8894013,50.8849408],[-1.889506,50.8875366],[-1.8947464,50.8879925],[-1.8867933,50.8888239],[-1.8792171,50.8914013],[-1.8795061,50.8978525],[-1.8773056,50.8950069],[-1.8644171,50.8950461],[-1.8485629,50.8898956],[-1.8398771,50.8978981],[-1.8249605,50.8957787],[-1.8165488,50.9039557],[-1.8204143,50.9121137],[-1.81138,50.92773],[-1.8262282,50.9268763],[-1.8418419,50.931668],[-1.8541921,50.9275188],[-1.862732,50.9197953],[-1.8737158,50.9172605],[-1.8788113,50.924333],[-1.9091912,50.9453334],[-1.9208488,50.9614138],[-1.9298965,50.9678023],[-1.9392277,50.9696635],[-1.9448374,50.9757549],[-1.955473,50.9782727],[-1.9568285,50.9898364]]],"type":"Polygon"},"id":"E02004243","properties":{"code":"E02004243","geography":"MSOA","name":"Dorset 007"},"type":"Feature"},{"geometry":{"coordinates":[[[-1.8485629,50.8898956],[-1.8644171,50.8950461],[-1.8773056,50.8950069],[-1.8795061,50.8978525],[-1.8792171,50.8914013],[-1.8867933,50.8888239],[-1.8759149,50.8810585],[-1.874804,50.87772],[-1.8793935,50.877408],[-1.8758237,50.872522],[-1.8632175,50.870096],[-1.8525997,50.8621998],[-1.8452797,50.8780058],[-1.8479846,50.8823475],[-1.844059,50.8869177],[-1.8485629,50.8898956]]],"type":"Polygon"},"id":"E02004244","properties":{"code":"E02004244","geography":"MSOA","name":"Dorset 010"},"type":"Feature"},{"geometry":{"coordinates":[[[-1.8525997,50.8621998],[-1.8632175,50.870096],[-1.8758237,50.872522],[-1.8793935,50.877408],[-1.874804,50.87772],[-1.8759149,50.8810585],[-1.8867933,50.8888239],[-1.8947464,50.8879925],[-1.889506,50.8875366],[-1.8894013,50.8849408],[-1.895276,50.8840059],[-1.895454,50.8786686],[-1.9051246,50.8769806],[-1.9095546,50.8681525],[-1.8989592,50.8697495],[-1.8908467,50.8587989],[-1.886273,50.857767],[-1.8872929,50.8488671],[-1.8953984,50.8413198],[-1.8741163,50.8458836],[-1.865665,50.844049],[-1.8634709,50.835394],[-1.8515669,50.8488366],[-1.8541779,50.853827],[-1.8509512,50.8587335],[-1.8525997,50.8621998]]],"type":"Polygon"},"id":"E02004245","properties":{"code":"E02004245","geography":"MSOA","name":"Dorset 012"},"type":"Feature"},{"geometry":{"coordinates":[[[-1.803369,50.8444972],[-1.8000424,50.8483477],[-1.8055419,50.8519369],[-1.8080347,50.8644684],[-1.8127971,50.8645814],[-1.8148394,50.8587098],[-1.8295256,50.8553272],[-1.8509512,50.8587335],[-1.8541779,50.853827],[-1.8515669,50.8488366],[-1.8634709,50.835394],[-1.8575537,50.8329325],[-1.8573815,50.8269511],[-1.8660497,50.8103749],[-1.8646061,50.8066296],[-1.8566254,50.8048956],[-1.8452405,50.8096152],[-1.8338571,50.8000515],[-1.8042994,50.7960382],[-1.801538,50.7997825],[-1.8097436,50.804967],[-1.812019,50.8088359],[-1.8029633,50.813503],[-1.8073636,50.8162521],[-1.8018306,50.8209016],[-1.8037401,50.830003],[-1.7960968,50.8303433],[-1.7907198,50.8363255],[-1.803369,50.8444972]]],"type":"Polygon"},"id":"E02004246","properties":{"code":"E02004246","geography":"MSOA","name":"Dorset 015"},"type":"Feature"},{"geometry":{"coordinates":[[[-1.9095546,50.8681525],[-1.9139973,50.8628615],[-1.9426601,50.8673932],[-1.9610582,50.8735093],[-1.9634923,50.8788526],[-1.9797052,50.8820783],[-1.9810858,50.8912969],[-1.9669935,50.8957596],[-1.9836519,50.907469],[-1.9770528,50.9198676],[-1.9867252,50.9269806],[-1.9819168,50.9305623],[-1.9856726,50.933153],[-1.9813419,50.9458397],[-2.0136223,50.9317119],[-2.0134618,50.928918],[-2.0512985,50.917828],[-2.0632655,50.9095086],[-2.0593771,50.8950785],[-2.0659652,50.8911672],[-2.0399174,50.8653612],[-2.0604529,50.8551698],[-2.0547086,50.8547904],[-2.054003,50.8500758],[-2.0797107,50.8337751],[-2.0979161,50.8297586],[-2.1094675,50.8192096],[-2.1154793,50.8201235],[-2.115589,50.8174877],[-2.1091521,50.8171518],[-2.1105542,50.815038],[-2.1273709,50.8060498],[-2.1638881,50.8001038],[-2.1586672,50.7920861],[-2.1368373,50.7834973],[-2.134822,50.7740812],[-2.1298079,50.7837052],[-2.1201056,50.7868351],[-2.1190285,50.7907386],[-2.1076769,50.7929992],[-2.1005503,50.7858265],[-2.0692939,50.7865048],[-2.0741937,50.7811551],[-2.0897682,50.7776209],[-2.0875154,50.773884],[-2.0787625,50.7754886],[-2.0728895,50.7708559],[-2.07055,50.7775434],[-2.0641627,50.7791225],[-2.0584153,50.7668142],[-2.0638526,50.7630685],[-2.0549799,50.7564805],[-2.0483686,50.7621576],[-2.0512585,50.7768741],[-2.0481216,50.7873689],[-2.0384295,50.7874291],[-2.0233116,50.7944705],[-2.005826,50.7910032],[-1.9911024,50.7914149],[-2.0005592,50.8011601],[-1.9993491,50.8056701],[-1.9924415,50.8070205],[-2.0030396,50.8160573],[-1.9919919,50.8225427],[-1.9822021,50.820901],[-1.971204,50.8130041],[-1.9649437,50.8183116],[-1.9538435,50.8206],[-1.9291021,50.8209617],[-1.9182863,50.8250625],[-1.9046389,50.8233689],[-1.9002838,50.840115],[-1.8953984,50.8413198],[-1.8872929,50.8488671],[-1.886273,50.857767],[-1.8908467,50.8587989],[-1.8989592,50.8697495],[-1.9095546,50.8681525]]],"type":"Polygon"},"id":"E02004247","properties":{"code":"E02004247","geography":"MSOA","name":"Dorset 013"},"type":"Feature"},{"geometry":{"coordinates":[[[-1.8634709,50.835394],[-1.865665,50.844049],[-1.8741163,50.8458836],[-1.8953984,50.8413198],[-1.9002838,50.840115],[-1.9046389,50.8233689],[-1.9017093,50.8211001],[-1.8660497,50.8103749],[-1.8573815,50.8269511],[-1.8575537,50.8329325],[-1.8634709,50.835394]]],"type":"Polygon"},"id":"E02004248","properties":{"code":"E02004248","geography":"MSOA","name":"Dorset 016"},"type":"Feature"},{"geometry":{"coordinates":[[[-1.9538435,50.8206],[-1.9649437,50.8183116],[-1.971204,50.8130041],[-1.9822021,50.820901],[-1.9919919,50.8225427],[-2.0030396,50.8160573],[-1.9924415,50.8070205],[-1.9818856,50.8074756],[-1.978018,50.80427],[-1.9803355,50.8023052],[-1.9733182,50.7991826],[-1.9567172,50.7986703],[-1.9547788,50.8051797],[-1.9484164,50.8035351],[-1.9488654,50.8078972],[-1.9418322,50.8066066],[-1.9393479,50.8165465],[-1.9538435,50.8206]]],"type":"Polygon"},"id":"E02004249","properties":{"code":"E02004249","geography":"MSOA","name":"Dorset 017"},"type":"Feature"},{"geometry":{"coordinates":[[[-1.8660497,50.8103749],[-1.9017093,50.8211001],[-1.8959181,50.8019174],[-1.8937081,50.7989038],[-1.8881936,50.8026576],[-1.8788524,50.801858],[-1.8776118,50.8048832],[-1.8760545,50.8023754],[-1.8655187,50.8018377],[-1.8646061,50.8066296],[-1.8660497,50.8103749]]],"type":"Polygon"},"id":"E02004250","properties":{"code":"E02004250","geography":"MSOA","name":"Dorset 018"},"type":"Feature"},{"geometry":{"coordinates":[[[-1.9046389,50.8233689],[-1.9182863,50.8250625],[-1.9291021,50.8209617],[-1.9538435,50.8206],[-1.9393479,50.8165465],[-1.9418322,50.8066066],[-1.9488654,50.8078972],[-1.9484164,50.8035351],[-1.9547788,50.8051797],[-1.9567172,50.7986703],[-1.9523178,50.7905155],[-1.940518,50.7988841],[-1.9361287,50.7971629],[-1.9356195,50.792103],[-1.9305139,50.7920221],[-1.9270276,50.7984324],[-1.9194241,50.7962417],[-1.9154915,50.798964],[-1.9082873,50.7951617],[-1.8987706,50.7978819],[-1.8959181,50.8019174],[-1.9017093,50.8211001],[-1.9046389,50.8233689]]],"type":"Polygon"},"id":"E02004251","properties":{"code":"E02004251","geography":"MSOA","name":"Dorset 020"},"type":"Feature"},{"geometry":{"coordinates":[[[-1.9567172,50.7986703],[-1.9733182,50.7991826],[-1.9803355,50.8023052],[-1.978018,50.80427],[-1.9818856,50.8074756],[-1.9924415,50.8070205],[-1.9993491,50.8056701],[-2.0005592,50.8011601],[-1.9911024,50.7914149],[-1.9523178,50.7905155],[-1.9567172,50.7986703]]],"type":"Polygon"},"id":"E02004252","properties":{"code":"E02004252","geography":"MSOA","name":"Dorset 021"},"type":"Feature"},{"geometry":{"coordinates":[[[-1.8655187,50.8018377],[-1.8760545,50.8023754],[-1.8776118,50.8048832],[-1.8788524,50.801858],[-1.8881936,50.8026576],[-1.8937081,50.7989038],[-1.8959181,50.8019174],[-1.8987706,50.7978819],[-1.9082873,50.7951617],[-1.9154915,50.798964],[-1.9194241,50.7962417],[-1.9270276,50.7984324],[-1.9305139,50.7920221],[-1.9356195,50.792103],[-1.9371327,50.7827971],[-1.9325963,50.7800005],[-1.9195133,50.7840119],[-1.9192314,50.7746953],[-1.9101616,50.775291],[-1.8954494,50.7803581],[-1.8835194,50.7720942],[-1.8733909,50.7633906],[-1.8653328,50.773932],[-1.8655187,50.8018377]]],"type":"Polygon"},"id":"E02004253","properties":{"code":"E02004253","geography":"MSOA","name":"Dorset 024"},"type":"Feature"},{"geometry":{"coordinates":[[[-2.005826,50.7910032],[-2.0233116,50.7944705],[-2.0384295,50.7874291],[-2.0481216,50.7873689],[-2.0512585,50.7768741],[-2.0483686,50.7621576],[-2.0340931,50.7555234],[-2.0245076,50.7428633],[-2.0127433,50.7483099],[-2.0127069,50.7485387],[-2.010268,50.773764],[-2.0093267,50.7825985],[-1.9991395,50.7881374],[-2.005826,50.7910032]]],"type":"Polygon"},"id":"E02004254","properties":{"code":"E02004254","geography":"MSOA","name":"Dorset 025"},"type":"Feature"},{"geometry":{"coordinates":[[[-2.2563439,51.0452234],[-2.2662149,51.0479149],[-2.2934474,51.0405384],[-2.3042244,51.042193],[-2.2995116,51.0365428],[-2.3148261,51.0221173],[-2.2790526,51.0320202],[-2.2776526,51.0268883],[-2.2691431,51.0274485],[-2.2563439,51.0452234]]],"type":"Polygon"},"id":"E02004255","properties":{"code":"E02004255","geography":"MSOA","name":"Dorset 001"},"type":"Feature"},{"geometry":{"coordinates":[[[-2.1888423,51.0252762],[-2.1951763,51.0396641],[-2.2053281,51.0428002],[-2.2179982,51.0551847],[-2.2258126,51.0575894],[-2.244701,51.0723171],[-2.2686247,51.0687472],[-2.2912739,51.0770817],[-2.3258561,51.0796817],[-2.349119,51.0707329],[-2.3495502,51.0616757],[-2.3444857,51.055487],[-2.3401125,51.056069],[-2.3331823,51.0514928],[-2.3296344,51.0421978],[-2.349773,51.0300845],[-2.3606776,51.0251809],[-2.3691502,51.0142826],[-2.378051,51.0117206],[-2.3756572,51.0092956],[-2.3817594,51.0019528],[-2.3777631,50.9914196],[-2.3549009,50.9908871],[-2.3439172,50.9847765],[-2.3445604,50.978836],[-2.3483257,50.9751504],[-2.3432353,50.9746513],[-2.3362845,50.9816027],[-2.3248899,50.9812369],[-2.3188734,50.9869933],[-2.3118432,50.9808951],[-2.3093277,50.9838637],[-2.2937712,50.9840441],[-2.2915241,50.9733792],[-2.2797188,50.9770113],[-2.2730693,50.9734455],[-2.2702127,50.9758932],[-2.2645912,50.9668014],[-2.2671472,50.962877],[-2.2556829,50.9573854],[-2.2609262,50.9516712],[-2.2442385,50.9355352],[-2.2277455,50.939553],[-2.2283716,50.9476841],[-2.224285,50.9511357],[-2.227857,50.9553322],[-2.2203458,50.9617765],[-2.2493826,50.9637098],[-2.2522373,50.9661116],[-2.2462524,50.9766273],[-2.2280246,50.9808892],[-2.2330924,50.9882941],[-2.2417836,50.9819997],[-2.2398857,50.9915149],[-2.2342368,50.9944396],[-2.2333398,50.999379],[-2.2397254,51.0040334],[-2.2270345,51.0040426],[-2.2226133,51.0067633],[-2.2054322,51.0095452],[-2.2024426,51.0133559],[-2.1937406,51.012531],[-2.1942026,51.0170993],[-2.18861,51.018539],[-2.1888423,51.0252762]],[[-2.2563439,51.0452234],[-2.2691431,51.0274485],[-2.2776526,51.0268883],[-2.2790526,51.0320202],[-2.3148261,51.0221173],[-2.2995116,51.0365428],[-2.3042244,51.042193],[-2.2934474,51.0405384],[-2.2662149,51.0479149],[-2.2563439,51.0452234]]],"type":"Polygon"},"id":"E02004256","properties":{"code":"E02004256","geography":"MSOA","name":"Dorset 002"},"type":"Feature"},{"geometry":{"coordinates":[[[-2.1718278,51.0010094],[-2.178107,51.0082672],[-2.1763938,51.0128244],[-2.18861,51.018539],[-2.1942026,51.0170993],[-2.1937406,51.012531],[-2.2024426,51.0133559],[-2.2054322,51.0095452],[-2.2226133,51.0067633],[-2.2104644,51.0015461],[-2.2014096,51.0012402],[-2.1982544,50.9957239],[-2.1718278,51.0010094]]],"type":"Polygon"},"id":"E02004257","properties":{"code":"E02004257","geography":"MSOA","name":"Dorset 003"},"type":"Feature"},{"geometry":{"coordinates":[[[-2.2442385,50.9355352],[-2.2609262,50.9516712],[-2.2556829,50.9573854],[-2.2671472,50.962877],[-2.2645912,50.9668014],[-2.2702127,50.9758932],[-2.2730693,50.9734455],[-2.2797188,50.9770113],[-2.2915241,50.9733792],[-2.2937712,50.9840441],[-2.3093277,50.9838637],[-2.3118432,50.9808951],[-2.3188734,50.9869933],[-2.3248899,50.9812369],[-2.3362845,50.9816027],[-2.3432353,50.9746513],[-2.3483257,50.9751504],[-2.3445604,50.978836],[-2.3835448,50.9723659],[-2.4149298,50.96059],[-2.4240309,50.9585251],[-2.4302269,50.939492],[-2.4433303,50.9374022],[-2.446691,50.9297391],[-2.4423274,50.9245639],[-2.429427,50.9246841],[-2.4115116,50.9183047],[-2.4089975,50.9218174],[-2.3995408,50.9061935],[-2.4028089,50.8933659],[-2.3932458,50.8918572],[-2.3652712,50.8949596],[-2.367103,50.8977539],[-2.3578932,50.9049552],[-2.3356836,50.8996871],[-2.3039835,50.9053121],[-2.2941326,50.9112634],[-2.2787855,50.9118745],[-2.2793775,50.9199414],[-2.2863431,50.9250099],[-2.2824248,50.9291434],[-2.2668341,50.9134714],[-2.2541028,50.9183383],[-2.2495515,50.9264013],[-2.2528494,50.9285554],[-2.2442385,50.9355352]]],"type":"Polygon"},"id":"E02004258","properties":{"code":"E02004258","geography":"MSOA","name":"Dorset 005"},"type":"Feature"},{"geometry":{"coordinates":[[[-2.2417836,50.9819997],[-2.2330924,50.9882941],[-2.2280246,50.9808892],[-2.2462524,50.9766273],[-2.2522373,50.9661116],[-2.2493826,50.9637098],[-2.2203458,50.9617765],[-2.227857,50.9553322],[-2.224285,50.9511357],[-2.2283716,50.9476841],[-2.2277455,50.939553],[-2.2442385,50.9355352],[-2.2528494,50.9285554],[-2.2495515,50.9264013],[-2.2541028,50.9183383],[-2.2668341,50.9134714],[-2.2693809,50.9115696],[-2.2547964,50.9006671],[-2.2649323,50.883162],[-2.247407,50.8718626],[-2.2383935,50.8579972],[-2.2275353,50.8563446],[-2.2192346,50.8600779],[-2.1938352,50.8680219],[-2.1836227,50.8772709],[-2.1591526,50.8887098],[-2.156911,50.8952321],[-2.1425209,50.9038794],[-2.1468156,50.9187835],[-2.1558904,50.9267228],[-2.1368093,50.9332349],[-2.1428936,50.9371382],[-2.1420923,50.9405431],[-2.1516482,50.9453124],[-2.1488939,50.9536555],[-2.1606438,50.964934],[-2.1263022,50.9742844],[-2.1219742,50.978174],[-2.14875,50.9865507],[-2.1718278,51.0010094],[-2.1982544,50.9957239],[-2.2014096,51.0012402],[-2.2104644,51.0015461],[-2.2226133,51.0067633],[-2.2270345,51.0040426],[-2.2397254,51.0040334],[-2.2333398,50.999379],[-2.2342368,50.9944396],[-2.2398857,50.9915149],[-2.2417836,50.9819997]]],"type":"Polygon"},"id":"E02004259","properties":{"code":"E02004259","geography":"MSOA","name":"Dorset 006"},"type":"Feature"},{"geometry":{"coordinates":[[[-2.0672897,50.951827],[-2.0892256,50.9501621],[-2.1017987,50.9449921],[-2.1206153,50.961435],[-2.1219742,50.978174],[-2.1263022,50.9742844],[-2.1606438,50.964934],[-2.1488939,50.9536555],[-2.1516482,50.9453124],[-2.1420923,50.9405431],[-2.1428936,50.9371382],[-2.1368093,50.9332349],[-2.1558904,50.9267228],[-2.1468156,50.9187835],[-2.1425209,50.9038794],[-2.156911,50.8952321],[-2.1591526,50.8887098],[-2.1836227,50.8772709],[-2.1938352,50.8680219],[-2.2192346,50.8600779],[-2.2159657,50.8574402],[-2.2206076,50.853889],[-2.211651,50.8454566],[-2.2064698,50.8284989],[-2.2075064,50.8176224],[-2.192161,50.8063065],[-2.1638881,50.8001038],[-2.1273709,50.8060498],[-2.1105542,50.815038],[-2.1091521,50.8171518],[-2.115589,50.8174877],[-2.1154793,50.8201235],[-2.1094675,50.8192096],[-2.0979161,50.8297586],[-2.0797107,50.8337751],[-2.054003,50.8500758],[-2.0547086,50.8547904],[-2.0604529,50.8551698],[-2.0399174,50.8653612],[-2.0659652,50.8911672],[-2.0593771,50.8950785],[-2.0632655,50.9095086],[-2.0512985,50.917828],[-2.0567585,50.9266239],[-2.0581995,50.9436419],[-2.0672897,50.951827]],[[-2.1473975,50.8579146],[-2.1551205,50.8541399],[-2.1728577,50.8542207],[-2.1749729,50.8637426],[-2.1610437,50.8708892],[-2.1577041,50.8735436],[-2.1399418,50.8658087],[-2.1499045,50.8611832],[-2.1473975,50.8579146]]],"type":"Polygon"},"id":"E02004260","properties":{"code":"E02004260","geography":"MSOA","name":"Dorset 009"},"type":"Feature"},{"geometry":{"coordinates":[[[-2.1473975,50.8579146],[-2.1499045,50.8611832],[-2.1399418,50.8658087],[-2.1577041,50.8735436],[-2.1610437,50.8708892],[-2.1749729,50.8637426],[-2.1728577,50.8542207],[-2.1551205,50.8541399],[-2.1473975,50.8579146]]],"type":"Polygon"},"id":"E02004261","properties":{"code":"E02004261","geography":"MSOA","name":"Dorset 011"},"type":"Feature"},{"geometry":{"coordinates":[[[-2.2668341,50.9134714],[-2.2824248,50.9291434],[-2.2863431,50.9250099],[-2.2793775,50.9199414],[-2.2787855,50.9118745],[-2.2941326,50.9112634],[-2.3039835,50.9053121],[-2.3356836,50.8996871],[-2.3578932,50.9049552],[-2.367103,50.8977539],[-2.3652712,50.8949596],[-2.3932458,50.8918572],[-2.4028089,50.8933659],[-2.4272,50.8849044],[-2.4485029,50.88673],[-2.4589479,50.8941449],[-2.4649149,50.8824708],[-2.4751697,50.8814204],[-2.4801945,50.8764018],[-2.4682347,50.8736623],[-2.4564647,50.8617119],[-2.4443929,50.8620801],[-2.4416114,50.8673135],[-2.428264,50.8693124],[-2.4237496,50.8668927],[-2.4226715,50.8574309],[-2.4079613,50.8620658],[-2.3956413,50.8624302],[-2.4038319,50.8424237],[-2.3993334,50.8370785],[-2.3795116,50.8473998],[-2.3688037,50.8445656],[-2.3679024,50.8472454],[-2.3614521,50.846694],[-2.351934,50.838197],[-2.3536979,50.8276704],[-2.3238775,50.8202355],[-2.3220204,50.8151385],[-2.3330403,50.8118557],[-2.3200683,50.8097069],[-2.3107111,50.8135666],[-2.3063521,50.808939],[-2.3037212,50.8040516],[-2.3170864,50.799432],[-2.2994202,50.7886725],[-2.3071489,50.779915],[-2.2962518,50.7785971],[-2.2943661,50.7735408],[-2.3071396,50.7688877],[-2.3056663,50.7633366],[-2.280065,50.7644953],[-2.2661102,50.7587262],[-2.2648926,50.7591281],[-2.2678805,50.7653989],[-2.25947,50.7701442],[-2.2577555,50.7776401],[-2.2417183,50.7762447],[-2.2324253,50.781232],[-2.2198185,50.7734214],[-2.2122093,50.7725954],[-2.2093709,50.7686716],[-2.1984679,50.769682],[-2.1968742,50.7660375],[-2.1612743,50.7741284],[-2.1595193,50.7675988],[-2.1506123,50.7671311],[-2.134822,50.7740812],[-2.1368373,50.7834973],[-2.1586672,50.7920861],[-2.1638881,50.8001038],[-2.192161,50.8063065],[-2.2075064,50.8176224],[-2.2064698,50.8284989],[-2.211651,50.8454566],[-2.2206076,50.853889],[-2.2159657,50.8574402],[-2.2192346,50.8600779],[-2.2275353,50.8563446],[-2.2383935,50.8579972],[-2.247407,50.8718626],[-2.2649323,50.883162],[-2.2547964,50.9006671],[-2.2693809,50.9115696],[-2.2668341,50.9134714]]],"type":"Polygon"},"id":"E02004262","properties":{"code":"E02004262","geography":"MSOA","name":"Dorset 014"},"type":"Feature"},{"geometry":{"coordinates":[[[-2.0549799,50.7564805],[-2.0638526,50.7630685],[-2.0584153,50.7668142],[-2.0641627,50.7791225],[-2.07055,50.7775434],[-2.0728895,50.7708559],[-2.0787625,50.7754886],[-2.0875154,50.773884],[-2.0897682,50.7776209],[-2.0741937,50.7811551],[-2.0692939,50.7865048],[-2.1005503,50.7858265],[-2.1076769,50.7929992],[-2.1190285,50.7907386],[-2.1201056,50.7868351],[-2.1298079,50.7837052],[-2.134822,50.7740812],[-2.1506123,50.7671311],[-2.1595193,50.7675988],[-2.1612743,50.7741284],[-2.1968742,50.7660375],[-2.1984679,50.769682],[-2.2093709,50.7686716],[-2.2122093,50.7725954],[-2.2198185,50.7734214],[-2.2324253,50.781232],[-2.2417183,50.7762447],[-2.2577555,50.7776401],[-2.25947,50.7701442],[-2.2678805,50.7653989],[-2.2648926,50.7591281],[-2.2564253,50.7611056],[-2.2504557,50.7564244],[-2.2542905,50.7546382],[-2.2497527,50.7551139],[-2.2491058,50.7524255],[-2.2423935,50.7556349],[-2.2274337,50.7426207],[-2.2298538,50.7343657],[-2.2252504,50.7329969],[-2.2374232,50.7178354],[-2.2140397,50.7113862],[-2.1929481,50.6999547],[-2.1890686,50.7014466],[-2.1784198,50.6982388],[-2.1752924,50.7030373],[-2.1590966,50.7237209],[-2.1490074,50.723259],[-2.151656,50.7418008],[-2.1331751,50.7380693],[-2.1277898,50.7327823],[-2.1156562,50.733581],[-2.1166904,50.7406841],[-2.1090096,50.7486591],[-2.0745797,50.7479793],[-2.0753454,50.7345205],[-2.0662906,50.7366141],[-2.0621539,50.7510945],[-2.0580008,50.7537945],[-2.0484737,50.7499258],[-2.0549799,50.7564805]]],"type":"Polygon"},"id":"E02004263","properties":{"code":"E02004263","geography":"MSOA","name":"Dorset 027"},"type":"Feature"},{"geometry":{"coordinates":[[[[-2.0467978,50.7233796],[-2.0494706,50.7257007],[-2.047436,50.7233161],[-2.0467978,50.7233796]]],[[[-2.0467978,50.7233796],[-2.0424268,50.7238122],[-2.0421457,50.7244827],[-2.045937,50.7261376],[-2.0467978,50.7233796]]],[[[-2.0340931,50.7555234],[-2.0483686,50.7621576],[-2.0549799,50.7564805],[-2.0484737,50.7499258],[-2.0580008,50.7537945],[-2.0621539,50.7510945],[-2.0662906,50.7366141],[-2.0753454,50.7345205],[-2.0745797,50.7479793],[-2.1090096,50.7486591],[-2.1166904,50.7406841],[-2.1156562,50.733581],[-2.106343,50.7347832],[-2.0868615,50.7284568],[-2.0617253,50.7314782],[-2.0515083,50.7280885],[-2.0499689,50.7262846],[-2.0425761,50.7319104],[-2.034793,50.7301406],[-2.0351938,50.7278895],[-2.026875,50.729336],[-2.036772,50.7260492],[-2.0363642,50.7252855],[-2.0246847,50.7294102],[-2.0225275,50.7365751],[-2.0166209,50.7363441],[-2.0127433,50.7483099],[-2.0245076,50.7428633],[-2.0340931,50.7555234]]]],"type":"MultiPolygon"},"id":"E02004264","properties":{"code":"E02004264","geography":"MSOA","name":"Dorset 028"},"type":"Feature"},{"geometry":{"coordinates":[[[-2.1156562,50.733581],[-2.1277898,50.7327823],[-2.1331751,50.7380693],[-2.151656,50.7418008],[-2.1490074,50.723259],[-2.1590966,50.7237209],[-2.1752924,50.7030373],[-2.1637698,50.6943913],[-2.1548553,50.6951826],[-2.1490728,50.6923331],[-2.1390839,50.6882751],[-2.1411322,50.6845157],[-2.1254547,50.6857027],[-2.1211467,50.6795724],[-2.1101385,50.6839494],[-2.0986168,50.679877],[-2.0952642,50.6848968],[-2.0877093,50.6848893],[-2.0906528,50.6888717],[-2.0842313,50.69058],[-2.0835099,50.6907592],[-2.082435,50.6900099],[-2.0784214,50.6887277],[-2.0793951,50.6943898],[-2.0832229,50.6933115],[-2.07106,50.6979284],[-2.0721684,50.7050545],[-2.0576382,50.70563],[-2.0713509,50.7076574],[-2.0708643,50.7099239],[-2.0629082,50.7165507],[-2.0556092,50.7178125],[-2.041632,50.7140414],[-2.0469484,50.7175213],[-2.0416192,50.7196566],[-2.0415032,50.7199379],[-2.0441529,50.7196951],[-2.0424268,50.7238122],[-2.0467978,50.7233796],[-2.047436,50.7233161],[-2.0494706,50.7257007],[-2.0500002,50.7262608],[-2.0499689,50.7262846],[-2.0515083,50.7280885],[-2.0617253,50.7314782],[-2.0868615,50.7284568],[-2.106343,50.7347832],[-2.1156562,50.733581]]],"type":"Polygon"},"id":"E02004265","properties":{"code":"E02004265","geography":"MSOA","name":"Dorset 033"},"type":"Feature"},{"geometry":{"coordinates":[[[-2.1752924,50.7030373],[-2.1784198,50.6982388],[-2.1890686,50.7014466],[-2.1929481,50.6999547],[-2.2140397,50.7113862],[-2.2374232,50.7178354],[-2.2252504,50.7329969],[-2.2298538,50.7343657],[-2.2274337,50.7426207],[-2.2423935,50.7556349],[-2.2491058,50.7524255],[-2.2497527,50.7551139],[-2.2542905,50.7546382],[-2.2504557,50.7564244],[-2.2564253,50.7611056],[-2.2648926,50.7591281],[-2.2661102,50.7587262],[-2.2614795,50.7551754],[-2.2844974,50.7490442],[-2.293219,50.7422816],[-2.2999519,50.7296273],[-2.3037525,50.7302912],[-2.3114371,50.7193193],[-2.3080616,50.7189434],[-2.3089973,50.705419],[-2.3224466,50.6966538],[-2.3013468,50.6945843],[-2.2971299,50.6827788],[-2.3061248,50.6569291],[-2.3255106,50.6557653],[-2.3237053,50.6493492],[-2.328385,50.6496898],[-2.3222527,50.64288],[-2.3242244,50.6252617],[-2.284091,50.6228382],[-2.2730744,50.6221722],[-2.2606568,50.6194146],[-2.2589489,50.6190352],[-2.2495358,50.617036],[-2.2475289,50.6183703],[-2.2463959,50.6193904],[-2.246365,50.6191441],[-2.2460467,50.6193557],[-2.245956,50.6166589],[-2.2380734,50.6160762],[-2.2242217,50.6167154],[-2.2211488,50.6194963],[-2.2207888,50.6198221],[-2.2207691,50.6199517],[-2.220693,50.6199647],[-2.2204087,50.6201661],[-2.20721,50.6223585],[-2.1930935,50.621732],[-2.1861169,50.625556],[-2.1889072,50.6401955],[-2.1798626,50.6513788],[-2.181767,50.6588263],[-2.1756678,50.6633428],[-2.1707942,50.6587729],[-2.1552101,50.6611011],[-2.1341393,50.6546519],[-2.1221976,50.6623418],[-2.1260849,50.6763991],[-2.1357447,50.6735726],[-2.1511222,50.6790589],[-2.1490728,50.6923331],[-2.1548553,50.6951826],[-2.1637698,50.6943913],[-2.1752924,50.7030373]]],"type":"Polygon"},"id":"E02004266","properties":{"code":"E02004266","geography":"MSOA","name":"Dorset 035"},"type":"Feature"},{"geometry":{"coordinates":[[[[-1.9871147,50.6792807],[-1.9953518,50.6806383],[-1.993864,50.6828846],[-1.9967107,50.6799809],[-1.9906365,50.6770688],[-1.9871147,50.6792807]]],[[[-2.001363,50.681984],[-1.9997778,50.6838407],[-2.0013631,50.6838711],[-2.0029556,50.6839017],[-2.00276,50.6803478],[-2.001363,50.681984]]],[[[-1.9800532,50.6835332],[-1.9861663,50.684669],[-1.9911475,50.6841605],[-1.9889966,50.6816837],[-1.9800532,50.6835332]]],[[[-2.0842313,50.69058],[-2.082435,50.6900099],[-2.0835099,50.6907592],[-2.0842313,50.69058]]],[[[-2.0122407,50.6879757],[-2.0178526,50.6892924],[-2.0146142,50.6909044],[-2.0186828,50.6940791],[-2.0220113,50.6939589],[-2.0173865,50.6844364],[-2.0122407,50.6879757]]],[[[-1.9567715,50.6882302],[-1.9581628,50.6949411],[-1.9741758,50.6972379],[-1.9880951,50.6924632],[-1.9835524,50.687085],[-1.9666541,50.6859259],[-1.9567715,50.6882302]]],[[[-2.0842313,50.69058],[-2.0906528,50.6888717],[-2.0877093,50.6848893],[-2.0952642,50.6848968],[-2.0986168,50.679877],[-2.1101385,50.6839494],[-2.1211467,50.6795724],[-2.1254547,50.6857027],[-2.1411322,50.6845157],[-2.1390839,50.6882751],[-2.1490728,50.6923331],[-2.1511222,50.6790589],[-2.1357447,50.6735726],[-2.1260849,50.6763991],[-2.1221976,50.6623418],[-2.1341393,50.6546519],[-2.1552101,50.6611011],[-2.1707942,50.6587729],[-2.1756678,50.6633428],[-2.181767,50.6588263],[-2.1798626,50.6513788],[-2.1889072,50.6401955],[-2.1861169,50.625556],[-2.1930935,50.621732],[-2.1879682,50.6195549],[-2.1877673,50.6194696],[-2.1851389,50.6184394],[-2.1851636,50.6184066],[-2.1848301,50.6182217],[-2.1874495,50.6149278],[-2.1803334,50.6149944],[-2.1577774,50.6154216],[-2.1495098,50.6105501],[-2.1473623,50.610536],[-2.147443,50.6093321],[-2.1460401,50.6085053],[-2.1344211,50.6126272],[-2.1339868,50.6121217],[-2.1334619,50.6122929],[-2.1325637,50.6104649],[-2.1272513,50.6042791],[-2.1030493,50.5972005],[-2.1022174,50.5971446],[-2.0983907,50.5981369],[-2.0928942,50.5965175],[-2.0770367,50.5954491],[-2.0767223,50.5952754],[-2.0766551,50.5952898],[-2.075988,50.5946505],[-2.072912,50.5923079],[-2.0682906,50.592738],[-2.0643642,50.5936615],[-2.0642577,50.5931131],[-2.0633702,50.5931957],[-2.0618825,50.5813295],[-2.0553591,50.5765709],[-2.0452114,50.5788746],[-2.0396432,50.5801863],[-2.0266051,50.5888967],[-2.026352,50.5890139],[-2.0013599,50.5902634],[-1.9881317,50.5909225],[-1.9881809,50.6112194],[-1.982971,50.6197062],[-1.986602,50.6199112],[-1.9866119,50.6302727],[-1.9931268,50.6308127],[-1.9922974,50.6362301],[-1.9837341,50.6358416],[-1.9757545,50.6307853],[-1.9449113,50.6318828],[-1.9436585,50.6292034],[-1.9364413,50.6303351],[-1.9331677,50.6309219],[-1.9309696,50.6333716],[-1.9237661,50.6420454],[-1.9408346,50.640701],[-1.9494004,50.6458561],[-1.95019,50.6487312],[-1.9518499,50.6500819],[-1.9513235,50.652858],[-1.9523047,50.6564301],[-1.9417797,50.6730017],[-1.942019,50.6733057],[-1.9498351,50.6801285],[-1.958061,50.6723468],[-1.9613477,50.6749091],[-1.963491,50.6704862],[-1.9711089,50.6694236],[-1.9681263,50.6605074],[-1.9727745,50.6642639],[-1.9782129,50.6592741],[-1.9747153,50.6651565],[-1.980783,50.6638672],[-1.9852564,50.6699118],[-1.9783732,50.6769557],[-1.9919237,50.6727155],[-1.9957393,50.6671654],[-2.0013626,50.6704362],[-2.001899,50.6707481],[-2.0013627,50.6709802],[-1.9957912,50.673391],[-1.9985804,50.6766429],[-2.0013628,50.6762456],[-2.0071723,50.675416],[-2.0095829,50.6709196],[-2.0094252,50.6747144],[-2.012973,50.6742105],[-2.0040024,50.6778101],[-2.0114552,50.6827807],[-2.0220722,50.6821057],[-2.0210362,50.6762416],[-2.0232136,50.6776099],[-2.0260086,50.6747263],[-2.0228006,50.6724482],[-2.0272656,50.6679742],[-2.0248837,50.6726159],[-2.0288232,50.674356],[-2.0301613,50.6740378],[-2.0327046,50.6734329],[-2.0266045,50.6780698],[-2.0269126,50.6815156],[-2.0298135,50.6806246],[-2.0251957,50.6842493],[-2.0247275,50.6846168],[-2.0251648,50.6843845],[-2.0351088,50.6791024],[-2.0465254,50.6780903],[-2.0473195,50.6740594],[-2.0511234,50.677886],[-2.0464724,50.6790067],[-2.0526775,50.6779897],[-2.0463941,50.6814474],[-2.0369046,50.6805128],[-2.0244628,50.6876464],[-2.0278695,50.6888822],[-2.024003,50.6906834],[-2.0260628,50.6982269],[-2.0302885,50.6970658],[-2.0291853,50.701192],[-2.0332088,50.7021243],[-2.0180897,50.7015845],[-2.0262549,50.7074453],[-2.0398812,50.707168],[-2.0430242,50.7030339],[-2.0545259,50.6998132],[-2.065729,50.6867311],[-2.0812032,50.6862915],[-2.0842313,50.69058]]]],"type":"MultiPolygon"},"id":"E02004267","properties":{"code":"E02004267","geography":"MSOA","name":"Dorset 039"},"type":"Feature"},{"geometry":{"coordinates":[[[-1.9436585,50.6292034],[-1.9449113,50.6318828],[-1.9757545,50.6307853],[-1.9837341,50.6358416],[-1.9922974,50.6362301],[-1.9931268,50.6308127],[-1.9866119,50.6302727],[-1.986602,50.6199112],[-1.982971,50.6197062],[-1.9881809,50.6112194],[-1.9881317,50.5909225],[-1.9609606,50.5910067],[-1.9513297,50.5944983],[-1.9525978,50.6010228],[-1.9509262,50.6022907],[-1.9508969,50.6037076],[-1.9459175,50.606089],[-1.9440967,50.6074696],[-1.9530166,50.6075751],[-1.9532827,50.6081763],[-1.9555724,50.6083074],[-1.9571977,50.6159987],[-1.956881,50.6163049],[-1.9569994,50.6165722],[-1.9537313,50.6196976],[-1.9438011,50.6291811],[-1.9436585,50.6292034]]],"type":"Polygon"},"id":"E02004268","properties":{"code":"E02004268","geography":"MSOA","name":"Dorset 042"},"type":"Feature"},{"geometry":{"coordinates":[[[-2.5099652,50.9650872],[-2.5157184,50.9648662],[-2.5282679,50.9637622],[-2.5288796,50.956338],[-2.535789,50.9579787],[-2.542187,50.9523472],[-2.5385734,50.9508215],[-2.5441855,50.9463759],[-2.5394538,50.9388359],[-2.5490766,50.9367269],[-2.5415474,50.9326105],[-2.5185335,50.9388891],[-2.5035403,50.9483082],[-2.4991089,50.9564274],[-2.5035157,50.9553735],[-2.5099652,50.9650872]]],"type":"Polygon"},"id":"E02004269","properties":{"code":"E02004269","geography":"MSOA","name":"Dorset 004"},"type":"Feature"},{"geometry":{"coordinates":[[[-2.5351654,50.9993785],[-2.5474328,50.9995474],[-2.5472892,50.996424],[-2.5514876,50.9963501],[-2.5519222,50.9937037],[-2.5447169,50.9916549],[-2.5454222,50.9850863],[-2.5562058,50.9795411],[-2.5623704,50.977717],[-2.5746285,50.9866997],[-2.5749371,50.9833242],[-2.5860225,50.9768757],[-2.5958434,50.9813463],[-2.6011379,50.9780182],[-2.6034163,50.9762897],[-2.5980562,50.9736195],[-2.5998816,50.9674082],[-2.5949095,50.9622351],[-2.5983777,50.9595135],[-2.5982,50.9485813],[-2.604767,50.9454538],[-2.6115877,50.9402007],[-2.6160342,50.9414546],[-2.6040316,50.9309828],[-2.6040411,50.9267321],[-2.6148045,50.923264],[-2.6166142,50.9133706],[-2.6240643,50.9078746],[-2.6148512,50.8932976],[-2.6097492,50.8918996],[-2.611239,50.8850265],[-2.6121378,50.8801097],[-2.5981064,50.8802768],[-2.5896151,50.8741087],[-2.5962231,50.8698172],[-2.5919012,50.8556558],[-2.5828112,50.8567739],[-2.5813126,50.8634008],[-2.5629107,50.8638004],[-2.5568894,50.858237],[-2.5587816,50.8522175],[-2.546528,50.8452856],[-2.5333257,50.8502911],[-2.5303114,50.8659554],[-2.520759,50.8672561],[-2.5266872,50.8755443],[-2.5241478,50.8771912],[-2.5134354,50.8692343],[-2.507225,50.8705251],[-2.4978724,50.8790118],[-2.4912541,50.8763107],[-2.4801945,50.8764018],[-2.4751697,50.8814204],[-2.4649149,50.8824708],[-2.4589479,50.8941449],[-2.4485029,50.88673],[-2.4272,50.8849044],[-2.4028089,50.8933659],[-2.3995408,50.9061935],[-2.4089975,50.9218174],[-2.4115116,50.9183047],[-2.429427,50.9246841],[-2.4423274,50.9245639],[-2.446691,50.9297391],[-2.4433303,50.9374022],[-2.4302269,50.939492],[-2.4240309,50.9585251],[-2.4149298,50.96059],[-2.427995,50.9713927],[-2.447179,50.9678564],[-2.4434791,50.95847],[-2.4524871,50.9502806],[-2.458664,50.9497536],[-2.4586372,50.9542855],[-2.4668187,50.9598167],[-2.4747428,50.9579576],[-2.4745783,50.9625138],[-2.4903458,50.9727785],[-2.4883333,50.9757621],[-2.5022312,50.9937679],[-2.5108591,50.9944327],[-2.5265294,50.9919307],[-2.5355599,50.9940284],[-2.5351654,50.9993785]],[[-2.5099652,50.9650872],[-2.5035157,50.9553735],[-2.4991089,50.9564274],[-2.5035403,50.9483082],[-2.5185335,50.9388891],[-2.5415474,50.9326105],[-2.5490766,50.9367269],[-2.5394538,50.9388359],[-2.5441855,50.9463759],[-2.5385734,50.9508215],[-2.542187,50.9523472],[-2.535789,50.9579787],[-2.5288796,50.956338],[-2.5282679,50.9637622],[-2.5157184,50.9648662],[-2.5099652,50.9650872]]],"type":"Polygon"},"id":"E02004270","properties":{"code":"E02004270","geography":"MSOA","name":"Dorset 008"},"type":"Feature"},{"geometry":{"coordinates":[[[-2.611239,50.8850265],[-2.6241279,50.8792674],[-2.6279596,50.8863139],[-2.647103,50.8883604],[-2.6504178,50.8833161],[-2.6606101,50.8871129],[-2.6789645,50.8774881],[-2.695725,50.875999],[-2.7071436,50.8697746],[-2.7143886,50.8711517],[-2.7145549,50.8639031],[-2.7230907,50.8661989],[-2.7504524,50.8638141],[-2.7549877,50.8667862],[-2.7599153,50.8659893],[-2.761687,50.8608078],[-2.7822852,50.8597049],[-2.7878039,50.8536571],[-2.8003602,50.856173],[-2.8114237,50.8634176],[-2.8177286,50.8556229],[-2.8289437,50.8517129],[-2.82858,50.8487534],[-2.8428441,50.8473543],[-2.8451936,50.8516025],[-2.8725341,50.8489386],[-2.8687296,50.8398282],[-2.8739124,50.8354744],[-2.8742101,50.8193666],[-2.8652031,50.8103404],[-2.8671593,50.804554],[-2.858312,50.8027514],[-2.8420682,50.8052219],[-2.8416159,50.7966381],[-2.8357038,50.7965043],[-2.8369242,50.7900851],[-2.8178962,50.7968157],[-2.8205373,50.7863738],[-2.8040088,50.7828813],[-2.7983319,50.7840621],[-2.8011751,50.7888057],[-2.7969687,50.7934683],[-2.7763656,50.7982462],[-2.7604632,50.7954974],[-2.7463353,50.7987872],[-2.7295265,50.7960988],[-2.7263225,50.7906985],[-2.7228545,50.7916695],[-2.7081287,50.7822497],[-2.6914466,50.790361],[-2.6816518,50.7871395],[-2.6658415,50.7875256],[-2.6568707,50.7919033],[-2.6472893,50.7802978],[-2.6544194,50.7750212],[-2.6532611,50.7679131],[-2.6460601,50.7636347],[-2.6423337,50.7465497],[-2.6350814,50.7418623],[-2.600097,50.7408079],[-2.5742137,50.72624],[-2.5610712,50.7258942],[-2.5626038,50.7450889],[-2.53243,50.7661649],[-2.5387144,50.7719986],[-2.5447746,50.7890621],[-2.556996,50.7924259],[-2.5922928,50.7820417],[-2.6103717,50.784032],[-2.6187968,50.7875573],[-2.6225273,50.7936969],[-2.6032099,50.7979383],[-2.5938333,50.7958051],[-2.5872172,50.7987586],[-2.6201375,50.8173688],[-2.609514,50.8261539],[-2.6078567,50.8330402],[-2.5964777,50.8267443],[-2.5901607,50.8299038],[-2.5853748,50.8286629],[-2.5802901,50.8366575],[-2.5716267,50.8369962],[-2.549472,50.8270687],[-2.5161358,50.8341723],[-2.5033419,50.8478349],[-2.5066514,50.85617],[-2.4997109,50.8577588],[-2.4943688,50.8547714],[-2.4871957,50.8592314],[-2.4912541,50.8763107],[-2.4978724,50.8790118],[-2.507225,50.8705251],[-2.5134354,50.8692343],[-2.5241478,50.8771912],[-2.5266872,50.8755443],[-2.520759,50.8672561],[-2.5303114,50.8659554],[-2.5333257,50.8502911],[-2.546528,50.8452856],[-2.5587816,50.8522175],[-2.5568894,50.858237],[-2.5629107,50.8638004],[-2.5813126,50.8634008],[-2.5828112,50.8567739],[-2.5919012,50.8556558],[-2.5962231,50.8698172],[-2.5896151,50.8741087],[-2.5981064,50.8802768],[-2.6121378,50.8801097],[-2.611239,50.8850265]]],"type":"Polygon"},"id":"E02004271","properties":{"code":"E02004271","geography":"MSOA","name":"Dorset 019"},"type":"Feature"},{"geometry":{"coordinates":[[[-2.2661102,50.7587262],[-2.280065,50.7644953],[-2.3056663,50.7633366],[-2.3071396,50.7688877],[-2.2943661,50.7735408],[-2.2962518,50.7785971],[-2.3071489,50.779915],[-2.2994202,50.7886725],[-2.3170864,50.799432],[-2.3037212,50.8040516],[-2.3063521,50.808939],[-2.3107111,50.8135666],[-2.3200683,50.8097069],[-2.3330403,50.8118557],[-2.3220204,50.8151385],[-2.3238775,50.8202355],[-2.3536979,50.8276704],[-2.351934,50.838197],[-2.3614521,50.846694],[-2.3679024,50.8472454],[-2.3688037,50.8445656],[-2.3795116,50.8473998],[-2.3993334,50.8370785],[-2.4038319,50.8424237],[-2.3956413,50.8624302],[-2.4079613,50.8620658],[-2.4226715,50.8574309],[-2.4237496,50.8668927],[-2.428264,50.8693124],[-2.4416114,50.8673135],[-2.4443929,50.8620801],[-2.4564647,50.8617119],[-2.4682347,50.8736623],[-2.4801945,50.8764018],[-2.4912541,50.8763107],[-2.4871957,50.8592314],[-2.4943688,50.8547714],[-2.4997109,50.8577588],[-2.5066514,50.85617],[-2.5033419,50.8478349],[-2.5161358,50.8341723],[-2.549472,50.8270687],[-2.5716267,50.8369962],[-2.5802901,50.8366575],[-2.5853748,50.8286629],[-2.5901607,50.8299038],[-2.5964777,50.8267443],[-2.6078567,50.8330402],[-2.609514,50.8261539],[-2.6201375,50.8173688],[-2.5872172,50.7987586],[-2.5938333,50.7958051],[-2.6032099,50.7979383],[-2.6225273,50.7936969],[-2.6187968,50.7875573],[-2.6103717,50.784032],[-2.5922928,50.7820417],[-2.556996,50.7924259],[-2.5447746,50.7890621],[-2.5387144,50.7719986],[-2.53243,50.7661649],[-2.5626038,50.7450889],[-2.5610712,50.7258942],[-2.5504675,50.7249374],[-2.5140062,50.7128833],[-2.4727509,50.712201],[-2.47256,50.7172084],[-2.4627181,50.7213086],[-2.4566752,50.7235659],[-2.431245,50.7189588],[-2.4227251,50.7129331],[-2.4068528,50.7112101],[-2.3972136,50.7134838],[-2.3858795,50.7092734],[-2.374949,50.7129832],[-2.3614391,50.7105545],[-2.3538225,50.7154882],[-2.3451394,50.7141165],[-2.3324286,50.7188665],[-2.3271705,50.7178843],[-2.3275565,50.7207696],[-2.3404769,50.718219],[-2.3403792,50.7217883],[-2.3350155,50.7349965],[-2.3296049,50.7314939],[-2.3260594,50.7392367],[-2.3037525,50.7302912],[-2.2999519,50.7296273],[-2.293219,50.7422816],[-2.2844974,50.7490442],[-2.2614795,50.7551754],[-2.2661102,50.7587262]]],"type":"Polygon"},"id":"E02004272","properties":{"code":"E02004272","geography":"MSOA","name":"Dorset 022"},"type":"Feature"},{"geometry":{"coordinates":[[[-2.8725341,50.8489386],[-2.8783792,50.8489527],[-2.8793232,50.8464853],[-2.8862277,50.8506001],[-2.9030573,50.8438065],[-2.9102558,50.8447959],[-2.9252008,50.8394592],[-2.9300833,50.8409635],[-2.9343768,50.8364837],[-2.9417194,50.8358743],[-2.947364,50.8237015],[-2.9543157,50.8211821],[-2.9612973,50.8155647],[-2.9479554,50.8154354],[-2.9383966,50.8098446],[-2.9185514,50.8056403],[-2.8927668,50.8047676],[-2.8866405,50.794817],[-2.8977819,50.7860408],[-2.9366329,50.7797576],[-2.9543713,50.7677159],[-2.9525851,50.761392],[-2.935058,50.7542768],[-2.9405447,50.7498736],[-2.9377774,50.744063],[-2.9530081,50.7283867],[-2.9473906,50.7182993],[-2.9342003,50.7191232],[-2.9382578,50.7192707],[-2.9370974,50.7225984],[-2.9274935,50.7280737],[-2.9274144,50.7286894],[-2.9248641,50.7295724],[-2.9208946,50.7318346],[-2.894782,50.7327538],[-2.8946535,50.7327583],[-2.8938469,50.7380416],[-2.8766625,50.7359238],[-2.8544394,50.7390027],[-2.8507412,50.7432403],[-2.8375954,50.7406266],[-2.8406422,50.7467828],[-2.8296558,50.7472508],[-2.8297782,50.7598847],[-2.8232377,50.7610716],[-2.8197683,50.7692767],[-2.815928,50.7682949],[-2.8131456,50.7709706],[-2.8160891,50.7720654],[-2.8097337,50.7723115],[-2.8058241,50.7686806],[-2.7944683,50.7742918],[-2.7962024,50.7790309],[-2.8040088,50.7828813],[-2.8205373,50.7863738],[-2.8178962,50.7968157],[-2.8369242,50.7900851],[-2.8357038,50.7965043],[-2.8416159,50.7966381],[-2.8420682,50.8052219],[-2.858312,50.8027514],[-2.8671593,50.804554],[-2.8652031,50.8103404],[-2.8742101,50.8193666],[-2.8739124,50.8354744],[-2.8687296,50.8398282],[-2.8725341,50.8489386]]],"type":"Polygon"},"id":"E02004273","properties":{"code":"E02004273","geography":"MSOA","name":"Dorset 023"},"type":"Feature"},{"geometry":{"coordinates":[[[-2.7468763,50.7335208],[-2.7393136,50.7361676],[-2.7284628,50.7350899],[-2.7286512,50.7441708],[-2.7335953,50.7462884],[-2.7265156,50.7549076],[-2.7451138,50.7570441],[-2.7536979,50.7437565],[-2.7569871,50.7411957],[-2.7652112,50.7423613],[-2.7687353,50.7363572],[-2.7468763,50.7335208]]],"type":"Polygon"},"id":"E02004274","properties":{"code":"E02004274","geography":"MSOA","name":"Dorset 026"},"type":"Feature"},{"geometry":{"coordinates":[[[-2.6350814,50.7418623],[-2.6423337,50.7465497],[-2.6460601,50.7636347],[-2.6532611,50.7679131],[-2.6544194,50.7750212],[-2.6472893,50.7802978],[-2.6568707,50.7919033],[-2.6658415,50.7875256],[-2.6816518,50.7871395],[-2.6914466,50.790361],[-2.7081287,50.7822497],[-2.7228545,50.7916695],[-2.7263225,50.7906985],[-2.7295265,50.7960988],[-2.7463353,50.7987872],[-2.7604632,50.7954974],[-2.7763656,50.7982462],[-2.7969687,50.7934683],[-2.8011751,50.7888057],[-2.7983319,50.7840621],[-2.8040088,50.7828813],[-2.7962024,50.7790309],[-2.7944683,50.7742918],[-2.8058241,50.7686806],[-2.8097337,50.7723115],[-2.8160891,50.7720654],[-2.8131456,50.7709706],[-2.815928,50.7682949],[-2.8197683,50.7692767],[-2.8232377,50.7610716],[-2.8297782,50.7598847],[-2.8296558,50.7472508],[-2.8406422,50.7467828],[-2.8375954,50.7406266],[-2.8507412,50.7432403],[-2.8544394,50.7390027],[-2.8766625,50.7359238],[-2.8938469,50.7380416],[-2.8946535,50.7327583],[-2.894452,50.7327654],[-2.8514195,50.7259504],[-2.8349565,50.7233384],[-2.8338488,50.7234944],[-2.8311891,50.7227403],[-2.8308945,50.7226935],[-2.828852,50.7227909],[-2.8263467,50.7219713],[-2.8000459,50.7177909],[-2.7936365,50.7179754],[-2.7835612,50.7152363],[-2.7797012,50.7146785],[-2.7791768,50.7144691],[-2.7768013,50.7140907],[-2.7675176,50.711165],[-2.7645059,50.7158927],[-2.7596787,50.7144578],[-2.7623865,50.7200372],[-2.7593329,50.7265264],[-2.7675422,50.7270653],[-2.7687353,50.7363572],[-2.7652112,50.7423613],[-2.7569871,50.7411957],[-2.7536979,50.7437565],[-2.7451138,50.7570441],[-2.7265156,50.7549076],[-2.7335953,50.7462884],[-2.7286512,50.7441708],[-2.7284628,50.7350899],[-2.7393136,50.7361676],[-2.7468763,50.7335208],[-2.7459023,50.7276485],[-2.7346296,50.7262578],[-2.731061,50.7190277],[-2.7408174,50.7201574],[-2.7482056,50.7108144],[-2.7547876,50.7133038],[-2.7602574,50.7088761],[-2.652551,50.670036],[-2.6517206,50.6696708],[-2.6474078,50.6686486],[-2.6358423,50.6808333],[-2.6279006,50.6802586],[-2.6303289,50.7032479],[-2.6317777,50.7065324],[-2.6449111,50.7031874],[-2.6549014,50.706404],[-2.6652949,50.7059591],[-2.663638,50.7271026],[-2.6478584,50.7246682],[-2.6386216,50.7306756],[-2.6413018,50.7431552],[-2.6350814,50.7418623]]],"type":"Polygon"},"id":"E02004275","properties":{"code":"E02004275","geography":"MSOA","name":"Dorset 029"},"type":"Feature"},{"geometry":{"coordinates":[[[-2.7468763,50.7335208],[-2.7687353,50.7363572],[-2.7675422,50.7270653],[-2.7593329,50.7265264],[-2.7623865,50.7200372],[-2.7596787,50.7144578],[-2.7645059,50.7158927],[-2.7675176,50.711165],[-2.7632805,50.7098294],[-2.7617139,50.7112775],[-2.7628899,50.7097062],[-2.7602574,50.7088761],[-2.7547876,50.7133038],[-2.7482056,50.7108144],[-2.7408174,50.7201574],[-2.731061,50.7190277],[-2.7346296,50.7262578],[-2.7459023,50.7276485],[-2.7468763,50.7335208]]],"type":"Polygon"},"id":"E02004276","properties":{"code":"E02004276","geography":"MSOA","name":"Dorset 030"},"type":"Feature"},{"geometry":{"coordinates":[[[-2.4068528,50.7112101],[-2.4227251,50.7129331],[-2.431245,50.7189588],[-2.4319804,50.7093688],[-2.4414511,50.7078329],[-2.458036,50.703284],[-2.4392294,50.7000168],[-2.4228481,50.7063283],[-2.4156369,50.7056994],[-2.4139801,50.7101629],[-2.406606,50.7092432],[-2.4068528,50.7112101]]],"type":"Polygon"},"id":"E02004278","properties":{"code":"E02004278","geography":"MSOA","name":"Dorset 034"},"type":"Feature"},{"geometry":{"coordinates":[[[-2.3037525,50.7302912],[-2.3260594,50.7392367],[-2.3296049,50.7314939],[-2.3350155,50.7349965],[-2.3403792,50.7217883],[-2.3404769,50.718219],[-2.3275565,50.7207696],[-2.3271705,50.7178843],[-2.3324286,50.7188665],[-2.3451394,50.7141165],[-2.3538225,50.7154882],[-2.3614391,50.7105545],[-2.374949,50.7129832],[-2.3858795,50.7092734],[-2.3972136,50.7134838],[-2.4068528,50.7112101],[-2.406606,50.7092432],[-2.4139801,50.7101629],[-2.4156369,50.7056994],[-2.4228481,50.7063283],[-2.4392294,50.7000168],[-2.458036,50.703284],[-2.4727509,50.712201],[-2.5140062,50.7128833],[-2.5504675,50.7249374],[-2.5610712,50.7258942],[-2.5742137,50.72624],[-2.5847501,50.713968],[-2.5655222,50.7025208],[-2.5687436,50.7011929],[-2.5656819,50.692112],[-2.5564288,50.6866642],[-2.5437282,50.6876423],[-2.5224541,50.6780202],[-2.4945731,50.678641],[-2.4782409,50.6779319],[-2.4637229,50.6715998],[-2.4670484,50.6523999],[-2.442914,50.6467066],[-2.4326794,50.6461922],[-2.4333735,50.6520178],[-2.4243115,50.6594997],[-2.4148289,50.6626884],[-2.4055335,50.6596343],[-2.4112583,50.6341378],[-2.4111681,50.6341246],[-2.398527,50.6359642],[-2.3947395,50.6366129],[-2.3944812,50.6365606],[-2.3936188,50.6366878],[-2.3656495,50.6309876],[-2.3387446,50.6319952],[-2.3242244,50.6252617],[-2.3222527,50.64288],[-2.328385,50.6496898],[-2.3237053,50.6493492],[-2.3255106,50.6557653],[-2.3061248,50.6569291],[-2.2971299,50.6827788],[-2.3013468,50.6945843],[-2.3224466,50.6966538],[-2.3089973,50.705419],[-2.3080616,50.7189434],[-2.3114371,50.7193193],[-2.3037525,50.7302912]]],"type":"Polygon"},"id":"E02004279","properties":{"code":"E02004279","geography":"MSOA","name":"Dorset 036"},"type":"Feature"},{"geometry":{"coordinates":[[[-2.6350814,50.7418623],[-2.6413018,50.7431552],[-2.6386216,50.7306756],[-2.6478584,50.7246682],[-2.663638,50.7271026],[-2.6652949,50.7059591],[-2.6549014,50.706404],[-2.6449111,50.7031874],[-2.6317777,50.7065324],[-2.6303289,50.7032479],[-2.6279006,50.6802586],[-2.6358423,50.6808333],[-2.6474078,50.6686486],[-2.6517206,50.6696708],[-2.6333443,50.6615873],[-2.6254948,50.6586693],[-2.6170265,50.6544045],[-2.5908734,50.6428829],[-2.5669091,50.6301209],[-2.5449772,50.6184307],[-2.5318915,50.6114509],[-2.5174956,50.6041737],[-2.508545,50.5989894],[-2.5040653,50.596597],[-2.5026162,50.5976082],[-2.5167675,50.6049613],[-2.5427298,50.6184412],[-2.5669196,50.6309885],[-2.6114531,50.6540574],[-2.5982218,50.6540092],[-2.598447,50.6491339],[-2.5702598,50.6375728],[-2.5670052,50.6381011],[-2.5604974,50.6391571],[-2.558057,50.630845],[-2.5452859,50.6308983],[-2.546767,50.6276792],[-2.5518681,50.6274401],[-2.5488497,50.6248959],[-2.5455703,50.625905],[-2.5333486,50.6184847],[-2.5316882,50.6174763],[-2.5174939,50.6178685],[-2.5136392,50.6102083],[-2.5115368,50.6106184],[-2.5083844,50.6112332],[-2.5067946,50.6061277],[-2.501393,50.6068687],[-2.4957011,50.6028669],[-2.4988569,50.5974343],[-2.4878051,50.591116],[-2.4836718,50.5938875],[-2.4866682,50.5987243],[-2.4829549,50.6024026],[-2.4884569,50.6089525],[-2.4820293,50.6116562],[-2.4832646,50.6155489],[-2.4798003,50.6234821],[-2.488996,50.6399922],[-2.4876832,50.6481853],[-2.4923825,50.6570591],[-2.4900884,50.6653631],[-2.4979094,50.6666939],[-2.4945731,50.678641],[-2.5224541,50.6780202],[-2.5437282,50.6876423],[-2.5564288,50.6866642],[-2.5656819,50.692112],[-2.5687436,50.7011929],[-2.5655222,50.7025208],[-2.5847501,50.713968],[-2.5742137,50.72624],[-2.600097,50.7408079],[-2.6350814,50.7418623]]],"type":"Polygon"},"id":"E02004280","properties":{"code":"E02004280","geography":"MSOA","name":"Dorset 037"},"type":"Feature"},{"geometry":{"coordinates":[[[-2.442914,50.6467066],[-2.4670484,50.6523999],[-2.4637229,50.6715998],[-2.4782409,50.6779319],[-2.4945731,50.678641],[-2.4979094,50.6666939],[-2.4900884,50.6653631],[-2.4923825,50.6570591],[-2.4876832,50.6481853],[-2.4652625,50.6448748],[-2.4661495,50.6487604],[-2.4634256,50.6482403],[-2.4552834,50.643763],[-2.4583621,50.6388574],[-2.450677,50.6389776],[-2.443094,50.6399005],[-2.442914,50.6467066]]],"type":"Polygon"},"id":"E02004281","properties":{"code":"E02004281","geography":"MSOA","name":"Dorset 038"},"type":"Feature"},{"geometry":{"coordinates":[[[-2.4112583,50.6341378],[-2.4055335,50.6596343],[-2.4148289,50.6626884],[-2.4243115,50.6594997],[-2.4333735,50.6520178],[-2.4326794,50.6461922],[-2.442914,50.6467066],[-2.443094,50.6399005],[-2.450677,50.6389776],[-2.4531652,50.6329373],[-2.4618912,50.6300665],[-2.4616651,50.6267848],[-2.4651449,50.6278277],[-2.4603873,50.6213637],[-2.4570317,50.6241632],[-2.4439827,50.6240639],[-2.4438717,50.6242075],[-2.4409396,50.6266629],[-2.4276927,50.6336331],[-2.424824,50.6353812],[-2.4244536,50.6353369],[-2.4233694,50.6359072],[-2.4112583,50.6341378]]],"type":"Polygon"},"id":"E02004282","properties":{"code":"E02004282","geography":"MSOA","name":"Dorset 040"},"type":"Feature"},{"geometry":{"coordinates":[[[-2.450677,50.6389776],[-2.4583621,50.6388574],[-2.4552834,50.643763],[-2.4634256,50.6482403],[-2.4661495,50.6487604],[-2.4652625,50.6448748],[-2.4876832,50.6481853],[-2.488996,50.6399922],[-2.4798003,50.6234821],[-2.4832646,50.6155489],[-2.4736237,50.6103684],[-2.4678582,50.6140452],[-2.4581391,50.6138864],[-2.4603873,50.6213637],[-2.4651449,50.6278277],[-2.4616651,50.6267848],[-2.4618912,50.6300665],[-2.4531652,50.6329373],[-2.450677,50.6389776]]],"type":"Polygon"},"id":"E02004283","properties":{"code":"E02004283","geography":"MSOA","name":"Dorset 041"},"type":"Feature"},{"geometry":{"coordinates":[[[-2.4439827,50.6240639],[-2.4570317,50.6241632],[-2.4603873,50.6213637],[-2.4581391,50.6138864],[-2.4555251,50.6069722],[-2.4628802,50.6062472],[-2.4603195,50.599481],[-2.4637717,50.5937775],[-2.4522055,50.5999999],[-2.4501839,50.6011101],[-2.4498729,50.6012544],[-2.4428697,50.5992236],[-2.4336449,50.5966062],[-2.4399136,50.5987266],[-2.4494781,50.6019173],[-2.4495845,50.6021045],[-2.4503835,50.6035919],[-2.4509353,50.6038169],[-2.4506103,50.6040142],[-2.4507349,50.604246],[-2.4507501,50.6044741],[-2.4437854,50.6090378],[-2.4504663,50.6086417],[-2.4525738,50.6129491],[-2.4480173,50.6188448],[-2.4440542,50.6239715],[-2.4439827,50.6240639]]],"type":"Polygon"},"id":"E02004284","properties":{"code":"E02004284","geography":"MSOA","name":"Dorset 044"},"type":"Feature"},{"geometry":{"coordinates":[[[-2.4581391,50.6138864],[-2.4678582,50.6140452],[-2.4736237,50.6103684],[-2.4832646,50.6155489],[-2.4820293,50.6116562],[-2.4884569,50.6089525],[-2.4829549,50.6024026],[-2.4782931,50.6043775],[-2.4741789,50.6021215],[-2.4713765,50.606741],[-2.4628802,50.6062472],[-2.4555251,50.6069722],[-2.4581391,50.6138864]]],"type":"Polygon"},"id":"E02004285","properties":{"code":"E02004285","geography":"MSOA","name":"Dorset 043"},"type":"Feature"},{"geometry":{"coordinates":[[[-2.4628802,50.6062472],[-2.4713765,50.606741],[-2.4741789,50.6021215],[-2.4729459,50.5902559],[-2.4662949,50.5917366],[-2.4662299,50.5918275],[-2.4648027,50.5932227],[-2.4637717,50.5937775],[-2.4603195,50.599481],[-2.4628802,50.6062472]]],"type":"Polygon"},"id":"E02004286","properties":{"code":"E02004286","geography":"MSOA","name":"Dorset 045"},"type":"Feature"},{"geometry":{"coordinates":[[[-2.4741789,50.6021215],[-2.4782931,50.6043775],[-2.4829549,50.6024026],[-2.4866682,50.5987243],[-2.4836718,50.5938875],[-2.4878051,50.591116],[-2.4724055,50.5845355],[-2.4713473,50.584663],[-2.4662949,50.5917366],[-2.4729459,50.5902559],[-2.4741789,50.6021215]]],"type":"Polygon"},"id":"E02004287","properties":{"code":"E02004287","geography":"MSOA","name":"Dorset 046"},"type":"Feature"},{"geometry":{"coordinates":[[[-2.4200413,50.5416589],[-2.4190493,50.5422471],[-2.415682,50.5492018],[-2.4198559,50.5558074],[-2.4283809,50.5660706],[-2.4283019,50.5661115],[-2.4284192,50.5662539],[-2.4280415,50.566437],[-2.4286397,50.5670508],[-2.4224377,50.5692305],[-2.433343,50.5676674],[-2.4356883,50.5684176],[-2.4374082,50.5683083],[-2.4366417,50.5687226],[-2.4387034,50.569382],[-2.4326981,50.5712041],[-2.439199,50.5693784],[-2.438947,50.5698503],[-2.4410286,50.569392],[-2.4418984,50.5685444],[-2.4437441,50.5687941],[-2.4459484,50.5683086],[-2.4605341,50.5710583],[-2.4605997,50.5710727],[-2.4616072,50.5724757],[-2.4695299,50.5824392],[-2.4699476,50.5781443],[-2.5025844,50.5975917],[-2.5026162,50.5976082],[-2.5040653,50.596597],[-2.5040043,50.5965644],[-2.4515022,50.5622844],[-2.4510185,50.5605565],[-2.4485687,50.5589],[-2.4498215,50.5562805],[-2.4496656,50.5557234],[-2.4410331,50.5570622],[-2.4432609,50.5513821],[-2.4387427,50.5449975],[-2.4360795,50.548709],[-2.425388,50.5447941],[-2.4295023,50.5409545],[-2.4200413,50.5416589]]],"type":"Polygon"},"id":"E02004288","properties":{"code":"E02004288","geography":"MSOA","name":"Dorset 047"},"type":"Feature"},{"geometry":{"coordinates":[[[-2.4200413,50.5416589],[-2.4295023,50.5409545],[-2.425388,50.5447941],[-2.4360795,50.548709],[-2.4387427,50.5449975],[-2.4432609,50.5513821],[-2.4410331,50.5570622],[-2.4496656,50.5557234],[-2.4496547,50.5556844],[-2.4564145,50.542469],[-2.4536676,50.5388735],[-2.4589503,50.5163964],[-2.4579501,50.5136796],[-2.4573582,50.5134317],[-2.4437007,50.5199745],[-2.4427719,50.520469],[-2.4424131,50.5208916],[-2.4371446,50.5301947],[-2.4312036,50.5340868],[-2.4295716,50.5360072],[-2.4200413,50.5416589]]],"type":"Polygon"},"id":"E02004289","properties":{"code":"E02004289","geography":"MSOA","name":"Dorset 048"},"type":"Feature"},{"geometry":{"coordinates":[[[-2.431245,50.7189588],[-2.4566752,50.7235659],[-2.4627181,50.7213086],[-2.4657057,50.7149342],[-2.4602002,50.71233],[-2.4505296,50.714258],[-2.4414511,50.7078329],[-2.4319804,50.7093688],[-2.431245,50.7189588]]],"type":"Polygon"},"id":"E02007006","properties":{"code":"E02007006","geography":"MSOA","name":"Dorset 031"},"type":"Feature"},{"geometry":{"coordinates":[[[-2.4414511,50.7078329],[-2.4505296,50.714258],[-2.4602002,50.71233],[-2.4657057,50.7149342],[-2.4627181,50.7213086],[-2.47256,50.7172084],[-2.4727509,50.712201],[-2.458036,50.703284],[-2.4414511,50.7078329]]],"type":"Polygon"},"id":"E02007007","properties":{"code":"E02007007","geography":"MSOA","name":"Dorset 032"},"type":"Feature"}],"type":"FeatureCollection"}
