{"features":[{"geometry":{"coordinates":[[[[-1.2317269,54.7177493],[-1.2428249,54.7222534],[-1.2434947,54.7225092],[-1.2436231,54.7225582],[-1.2518511,54.7196127],[-1.2639871,54.7172453],[-1.2622866,54.7143687],[-1.2574436,54.7148371],[-1.253034,54.7058223],[-1.2389091,54.7017543],[-1.2321895,54.7029213],[-1.2378976,54.7079074],[-1.2285938,54.7090262],[-1.2388729,54.7147168],[-1.2317269,54.7177493]]],[[[-1.2419205,54.7227133],[-1.2422297,54.7229477],[-1.2423276,54.7230219],[-1.2433268,54.7226643],[-1.2431763,54.7226196],[-1.2425051,54.7224204],[-1.2419205,54.7227133]]]],"type":"MultiPolygon"},"id":"E02002483","properties":{"code":"E02002483","geography":"MSOA","name":"Hartlepool 001"},"type":"Feature"},{"geometry":{"coordinates":[[[-1.191115,54.6932339],[-1.1874948,54.6938985],[-1.1963146,54.6985541],[-1.1927603,54.7004806],[-1.1850057,54.6933991],[-1.1833659,54.6935407],[-1.1770028,54.6946366],[-1.1745385,54.6923451],[-1.1740113,54.6919822],[-1.1743219,54.6931512],[-1.1756824,54.6967357],[-1.2100143,54.7089315],[-1.2315792,54.7176894],[-1.2317269,54.7177493],[-1.2388729,54.7147168],[-1.2285938,54.7090262],[-1.2378976,54.7079074],[-1.2321895,54.7029213],[-1.2284345,54.6998386],[-1.2122841,54.69792],[-1.211843,54.6917747],[-1.1954723,54.6944923],[-1.191115,54.6932339]]],"type":"Polygon"},"id":"E02002484","properties":{"code":"E02002484","geography":"MSOA","name":"Hartlepool 002"},"type":"Feature"},{"geometry":{"coordinates":[[[-1.211843,54.6917747],[-1.2122841,54.69792],[-1.2284345,54.6998386],[-1.2321895,54.7029213],[-1.2389091,54.7017543],[-1.2457417,54.6964689],[-1.2411813,54.6915766],[-1.2277708,54.6953489],[-1.2265691,54.690145],[-1.211843,54.6917747]]],"type":"Polygon"},"id":"E02002485","properties":{"code":"E02002485","geography":"MSOA","name":"Hartlepool 003"},"type":"Feature"},{"geometry":{"coordinates":[[[-1.1980495,54.6858391],[-1.2289704,54.6862607],[-1.2239156,54.6832549],[-1.2260107,54.6791311],[-1.2341843,54.6799128],[-1.2356546,54.6777849],[-1.2232208,54.6767556],[-1.2128358,54.6768903],[-1.2119367,54.6800813],[-1.2000007,54.675706],[-1.1956811,54.6762839],[-1.1973006,54.6781565],[-1.1984779,54.6795729],[-1.1988396,54.6853727],[-1.1980495,54.6858391]]],"type":"Polygon"},"id":"E02002489","properties":{"code":"E02002489","geography":"MSOA","name":"Hartlepool 007"},"type":"Feature"},{"geometry":{"coordinates":[[[-1.1956811,54.6762839],[-1.2000007,54.675706],[-1.2119367,54.6800813],[-1.2128358,54.6768903],[-1.2232208,54.6767556],[-1.2294056,54.671075],[-1.2187935,54.6698702],[-1.2140153,54.67203],[-1.2121807,54.6685993],[-1.2049517,54.6710642],[-1.2052836,54.6687825],[-1.1891114,54.6686851],[-1.1956811,54.6762839]]],"type":"Polygon"},"id":"E02002490","properties":{"code":"E02002490","geography":"MSOA","name":"Hartlepool 008"},"type":"Feature"},{"geometry":{"coordinates":[[[-1.2187935,54.6698702],[-1.2294056,54.671075],[-1.2232208,54.6767556],[-1.2356546,54.6777849],[-1.2418302,54.6764625],[-1.2545976,54.6737236],[-1.25272,54.6667393],[-1.2469408,54.6671843],[-1.2355407,54.6649319],[-1.2257731,54.6648614],[-1.2187935,54.6698702]]],"type":"Polygon"},"id":"E02002491","properties":{"code":"E02002491","geography":"MSOA","name":"Hartlepool 009"},"type":"Feature"},{"geometry":{"coordinates":[[[-1.2121807,54.6685993],[-1.2140153,54.67203],[-1.2187935,54.6698702],[-1.2257731,54.6648614],[-1.2355407,54.6649319],[-1.232708,54.6563439],[-1.2228164,54.6567067],[-1.2340948,54.6473443],[-1.2243416,54.6369046],[-1.2045303,54.6506425],[-1.2121807,54.6685993]]],"type":"Polygon"},"id":"E02002492","properties":{"code":"E02002492","geography":"MSOA","name":"Hartlepool 010"},"type":"Feature"},{"geometry":{"coordinates":[[[-1.1891114,54.6686851],[-1.2052836,54.6687825],[-1.2049517,54.6710642],[-1.2121807,54.6685993],[-1.2045303,54.6506425],[-1.2243416,54.6369046],[-1.2341508,54.6288843],[-1.2320444,54.625625],[-1.2233296,54.6264081],[-1.2239163,54.6236618],[-1.2203393,54.6251644],[-1.2117195,54.6223135],[-1.2052274,54.6227225],[-1.2043086,54.622782],[-1.1998768,54.6236991],[-1.1887484,54.6326395],[-1.1655768,54.6318645],[-1.1604103,54.6351809],[-1.1659104,54.6338826],[-1.1663744,54.6372523],[-1.1617844,54.6354115],[-1.1687844,54.6442778],[-1.1579657,54.6483023],[-1.1582941,54.6483126],[-1.1647464,54.6475941],[-1.1760925,54.6536176],[-1.1891114,54.6686851]]],"type":"Polygon"},"id":"E02002493","properties":{"code":"E02002493","geography":"MSOA","name":"Hartlepool 011"},"type":"Feature"},{"geometry":{"coordinates":[[[-1.2355407,54.6649319],[-1.2469408,54.6671843],[-1.25272,54.6667393],[-1.248341,54.6666903],[-1.2485989,54.6663059],[-1.2529776,54.6597788],[-1.2485597,54.652292],[-1.2392249,54.6542657],[-1.2326624,54.6524793],[-1.232708,54.6563439],[-1.2355407,54.6649319]]],"type":"Polygon"},"id":"E02002494","properties":{"code":"E02002494","geography":"MSOA","name":"Hartlepool 012"},"type":"Feature"},{"geometry":{"coordinates":[[[-1.2639871,54.7172453],[-1.2518511,54.7196127],[-1.2585476,54.726045],[-1.2722865,54.7255973],[-1.2902875,54.7183878],[-1.3055064,54.7175109],[-1.3013125,54.7080905],[-1.3138353,54.7012174],[-1.3126507,54.6959378],[-1.3193594,54.6913171],[-1.3446442,54.690809],[-1.3344266,54.6890361],[-1.3309316,54.6821228],[-1.3330243,54.672642],[-1.3435165,54.6686097],[-1.347837,54.6624102],[-1.3412084,54.650232],[-1.3837517,54.6462247],[-1.3808853,54.6439058],[-1.3680013,54.6435396],[-1.3568129,54.6383655],[-1.3396521,54.6361944],[-1.335042,54.6313017],[-1.3286401,54.6441732],[-1.3163498,54.6452234],[-1.3070017,54.6369652],[-1.2981698,54.6354983],[-1.2985793,54.6311455],[-1.2990176,54.6279958],[-1.2801182,54.6282764],[-1.2719073,54.6253145],[-1.2406553,54.6246868],[-1.2341508,54.6288843],[-1.2243416,54.6369046],[-1.2340948,54.6473443],[-1.2228164,54.6567067],[-1.232708,54.6563439],[-1.2326624,54.6524793],[-1.2392249,54.6542657],[-1.2485597,54.652292],[-1.2529776,54.6597788],[-1.2485989,54.6663059],[-1.248341,54.6666903],[-1.25272,54.6667393],[-1.2545976,54.6737236],[-1.2418302,54.6764625],[-1.2426317,54.6832551],[-1.2388811,54.6837946],[-1.2480938,54.6854086],[-1.2411813,54.6915766],[-1.2457417,54.6964689],[-1.2389091,54.7017543],[-1.253034,54.7058223],[-1.2574436,54.7148371],[-1.2622866,54.7143687],[-1.2639871,54.7172453]]],"type":"Polygon"},"id":"E02006909","properties":{"code":"E02006909","geography":"MSOA","name":"Hartlepool 014"},"type":"Feature"},{"geometry":{"coordinates":[[[-1.211843,54.6917747],[-1.2265691,54.690145],[-1.2277708,54.6953489],[-1.2411813,54.6915766],[-1.2480938,54.6854086],[-1.2388811,54.6837946],[-1.2426317,54.6832551],[-1.2418302,54.6764625],[-1.2356546,54.6777849],[-1.2341843,54.6799128],[-1.2260107,54.6791311],[-1.2239156,54.6832549],[-1.2289704,54.6862607],[-1.1980495,54.6858391],[-1.1975844,54.6861136],[-1.1967914,54.6870384],[-1.1986641,54.6862468],[-1.1978677,54.6917946],[-1.1945045,54.6897049],[-1.1940722,54.690209],[-1.1959252,54.6923506],[-1.191115,54.6932339],[-1.1954723,54.6944923],[-1.211843,54.6917747]]],"type":"Polygon"},"id":"E02007059","properties":{"code":"E02007059","geography":"MSOA","name":"Hartlepool 015"},"type":"Feature"}],"type":"FeatureCollection"}
