{"features":[{"geometry":{"coordinates":[[[-0.5399845,52.7383817],[-0.5600447,52.7454526],[-0.5661212,52.744968],[-0.5726469,52.7530894],[-0.5895763,52.7537548],[-0.6054542,52.7504732],[-0.6086038,52.7596937],[-0.6641109,52.7566907],[-0.6844383,52.7564602],[-0.6843606,52.75309],[-0.6969762,52.7492005],[-0.6962529,52.7464733],[-0.7182063,52.7447777],[-0.7202195,52.7409427],[-0.7533283,52.7365549],[-0.7536357,52.7341505],[-0.7448863,52.7343793],[-0.7423657,52.7313381],[-0.7466109,52.7249496],[-0.7435087,52.7242264],[-0.7541993,52.7176893],[-0.7504497,52.7123841],[-0.7552853,52.7075713],[-0.7342834,52.7066109],[-0.7160416,52.7008822],[-0.7138787,52.698187],[-0.725136,52.6861402],[-0.7213014,52.68328],[-0.7125578,52.6801598],[-0.7055908,52.6679884],[-0.7188495,52.6650255],[-0.7307845,52.6500997],[-0.7229813,52.6467378],[-0.7047943,52.6455624],[-0.7058926,52.6427461],[-0.6829185,52.6421334],[-0.6784825,52.634204],[-0.6694603,52.6362273],[-0.662567,52.6475109],[-0.6435282,52.6443735],[-0.6303506,52.6470053],[-0.6241093,52.6429489],[-0.6312456,52.6397724],[-0.6258222,52.6331924],[-0.5942168,52.6277183],[-0.5845464,52.6326766],[-0.5757668,52.6311014],[-0.5713387,52.6394913],[-0.578292,52.6415868],[-0.5617853,52.6522992],[-0.5571048,52.6594906],[-0.558132,52.6623261],[-0.5683372,52.6598569],[-0.5705847,52.6642876],[-0.5648325,52.6707918],[-0.5690239,52.6817953],[-0.5629501,52.6917462],[-0.5558122,52.6947917],[-0.5590674,52.6988447],[-0.551929,52.6998141],[-0.534913,52.6949562],[-0.5240016,52.6998518],[-0.5179483,52.6981158],[-0.5057589,52.7005782],[-0.5103393,52.7119601],[-0.5057329,52.713585],[-0.5126519,52.7196605],[-0.5424445,52.7232616],[-0.5399845,52.7383817]]],"type":"Polygon"},"id":"E02002863","properties":{"code":"E02002863","geography":"MSOA","name":"Rutland 001"},"type":"Feature"},{"geometry":{"coordinates":[[[-0.7533283,52.7365549],[-0.7579873,52.7397161],[-0.7647348,52.7391744],[-0.7676624,52.7436619],[-0.7764931,52.7439143],[-0.7806814,52.7405555],[-0.8011998,52.7367228],[-0.817355,52.7253369],[-0.8217616,52.7156555],[-0.8002437,52.7077785],[-0.8033776,52.7046296],[-0.7966167,52.7039708],[-0.7957536,52.6968307],[-0.7857313,52.6940466],[-0.7820483,52.6694645],[-0.7901464,52.6671665],[-0.7929238,52.6596665],[-0.7773877,52.6639142],[-0.7653552,52.6621508],[-0.7597183,52.6576839],[-0.7500909,52.6642698],[-0.7335701,52.6688031],[-0.7304814,52.6811817],[-0.722389,52.6801221],[-0.7213014,52.68328],[-0.725136,52.6861402],[-0.7138787,52.698187],[-0.7160416,52.7008822],[-0.7342834,52.7066109],[-0.7552853,52.7075713],[-0.7504497,52.7123841],[-0.7541993,52.7176893],[-0.7435087,52.7242264],[-0.7466109,52.7249496],[-0.7423657,52.7313381],[-0.7448863,52.7343793],[-0.7536357,52.7341505],[-0.7533283,52.7365549]]],"type":"Polygon"},"id":"E02002864","properties":{"code":"E02002864","geography":"MSOA","name":"Rutland 002"},"type":"Feature"},{"geometry":{"coordinates":[[[-0.7307845,52.6500997],[-0.7188495,52.6650255],[-0.7055908,52.6679884],[-0.7125578,52.6801598],[-0.7213014,52.68328],[-0.722389,52.6801221],[-0.7304814,52.6811817],[-0.7335701,52.6688031],[-0.7500909,52.6642698],[-0.7597183,52.6576839],[-0.7527795,52.6610688],[-0.7307845,52.6500997]]],"type":"Polygon"},"id":"E02002865","properties":{"code":"E02002865","geography":"MSOA","name":"Rutland 003"},"type":"Feature"},{"geometry":{"coordinates":[[[-0.4616399,52.6690425],[-0.4340659,52.6836858],[-0.4304541,52.7054021],[-0.4447328,52.7061531],[-0.4511027,52.7095603],[-0.4945414,52.7096335],[-0.5057329,52.713585],[-0.5103393,52.7119601],[-0.5057589,52.7005782],[-0.5179483,52.6981158],[-0.5240016,52.6998518],[-0.534913,52.6949562],[-0.551929,52.6998141],[-0.5590674,52.6988447],[-0.5558122,52.6947917],[-0.5629501,52.6917462],[-0.5690239,52.6817953],[-0.5648325,52.6707918],[-0.5705847,52.6642876],[-0.5683372,52.6598569],[-0.558132,52.6623261],[-0.5571048,52.6594906],[-0.5617853,52.6522992],[-0.578292,52.6415868],[-0.5713387,52.6394913],[-0.5757668,52.6311014],[-0.5845464,52.6326766],[-0.5942168,52.6277183],[-0.6258222,52.6331924],[-0.6312456,52.6397724],[-0.6241093,52.6429489],[-0.6303506,52.6470053],[-0.6435282,52.6443735],[-0.662567,52.6475109],[-0.6694603,52.6362273],[-0.6448161,52.6356982],[-0.6355503,52.6285423],[-0.643783,52.6130935],[-0.6290948,52.610478],[-0.6288688,52.598858],[-0.6328344,52.5958255],[-0.6254864,52.5919501],[-0.6471263,52.5842129],[-0.6406474,52.5770812],[-0.6422465,52.5729848],[-0.6380433,52.5717767],[-0.6030318,52.588573],[-0.5869854,52.5874108],[-0.5814851,52.5958653],[-0.5779687,52.58788],[-0.5719163,52.5857854],[-0.5622989,52.5864431],[-0.55813,52.5944659],[-0.5441855,52.5928703],[-0.5429413,52.5956654],[-0.5529506,52.6013308],[-0.5475707,52.606938],[-0.5501427,52.6122326],[-0.5390684,52.6178575],[-0.5402722,52.6259478],[-0.5234312,52.6350737],[-0.5174083,52.6423609],[-0.4950377,52.6402176],[-0.5235967,52.6652147],[-0.5190281,52.6665071],[-0.5066857,52.659507],[-0.4938769,52.6606979],[-0.4947224,52.6646133],[-0.4616399,52.6690425]]],"type":"Polygon"},"id":"E02002866","properties":{"code":"E02002866","geography":"MSOA","name":"Rutland 004"},"type":"Feature"},{"geometry":{"coordinates":[[[-0.7597183,52.6576839],[-0.7653552,52.6621508],[-0.7773877,52.6639142],[-0.7929238,52.6596665],[-0.8087029,52.6461075],[-0.8099104,52.6402841],[-0.8017616,52.6388211],[-0.8109682,52.6259662],[-0.8058349,52.6206697],[-0.818837,52.6106393],[-0.8209611,52.5964368],[-0.8167056,52.5935517],[-0.7924468,52.5975961],[-0.7773684,52.5896165],[-0.7739193,52.5843572],[-0.765276,52.5824525],[-0.7599062,52.5648885],[-0.7523065,52.5629819],[-0.7388777,52.5488657],[-0.7422195,52.5394684],[-0.7285536,52.5358038],[-0.7299657,52.5329625],[-0.7225678,52.5267624],[-0.7136719,52.5249469],[-0.696444,52.5385293],[-0.6978468,52.5456848],[-0.6884627,52.5461199],[-0.6748776,52.5586207],[-0.6713006,52.5640883],[-0.660902,52.5689041],[-0.6422465,52.5729848],[-0.6406474,52.5770812],[-0.6471263,52.5842129],[-0.6254864,52.5919501],[-0.6328344,52.5958255],[-0.6288688,52.598858],[-0.6290948,52.610478],[-0.643783,52.6130935],[-0.6355503,52.6285423],[-0.6448161,52.6356982],[-0.6694603,52.6362273],[-0.6784825,52.634204],[-0.6829185,52.6421334],[-0.7058926,52.6427461],[-0.7047943,52.6455624],[-0.7229813,52.6467378],[-0.7307845,52.6500997],[-0.7527795,52.6610688],[-0.7597183,52.6576839]]],"type":"Polygon"},"id":"E02002867","properties":{"code":"E02002867","geography":"MSOA","name":"Rutland 005"},"type":"Feature"}],"type":"FeatureCollection"}
