{"features":[{"geometry":{"coordinates":[[[-0.8713437,52.0402403],[-0.8774869,52.0299603],[-0.8830368,52.0282301],[-0.8901365,52.0315493],[-0.9060484,52.0212101],[-0.9302255,52.0431156],[-0.937898,52.0611903],[-0.9337627,52.0626246],[-0.939334,52.0621484],[-0.9392972,52.0673419],[-0.9444084,52.0700203],[-0.940074,52.0758303],[-0.951891,52.0815218],[-0.9607807,52.0786326],[-0.9678234,52.0708993],[-1.0075586,52.0720839],[-1.0263351,52.0756704],[-1.0422549,52.0738643],[-1.0295689,52.0700951],[-1.0264229,52.0644057],[-1.0088587,52.062123],[-1.0135692,52.0530286],[-1.0236883,52.0520574],[-1.0349123,52.0464819],[-1.0364327,52.0367248],[-1.0500619,52.0397703],[-1.0519695,52.0339349],[-1.0438309,52.0191837],[-1.0288347,52.0119408],[-1.0244531,52.0170893],[-1.0142395,52.0179573],[-1.0073432,52.0223668],[-1.0033239,52.0184845],[-0.9953042,52.0200609],[-0.9972914,52.01469],[-0.9775624,52.0109847],[-0.9655463,52.0000312],[-0.9720725,51.9942537],[-0.9809235,52.0021256],[-0.9909353,51.9944733],[-0.9913085,51.9995778],[-1.0061487,51.9999866],[-1.0050508,51.9973959],[-1.0140195,51.9958889],[-1.0073963,51.9905648],[-0.9873853,51.9880876],[-0.9846056,51.9835618],[-0.96425,51.9800034],[-0.9570808,51.9890006],[-0.9505066,51.9892647],[-0.9400386,51.9830546],[-0.9362582,51.9871771],[-0.94479,52.0054578],[-0.9413017,52.0116152],[-0.9255255,52.0129495],[-0.9178603,52.0067041],[-0.9073064,52.0039736],[-0.887716,52.006123],[-0.8758593,52.0040541],[-0.8699906,52.0106154],[-0.8526071,52.0127338],[-0.8518673,52.0174785],[-0.8473419,52.0172879],[-0.8435113,52.0223624],[-0.8669696,52.0400871],[-0.8713437,52.0402403]]],"type":"Polygon"},"id":"E02003652","properties":{"code":"E02003652","geography":"MSOA","name":"Buckinghamshire 001"},"type":"Feature"},{"geometry":{"coordinates":[[[-1.0061487,51.9999866],[-0.9913085,51.9995778],[-0.9909353,51.9944733],[-0.9809235,52.0021256],[-0.9720725,51.9942537],[-0.9655463,52.0000312],[-0.9775624,52.0109847],[-0.9972914,52.01469],[-1.0061487,51.9999866]]],"type":"Polygon"},"id":"E02003653","properties":{"code":"E02003653","geography":"MSOA","name":"Buckinghamshire 002"},"type":"Feature"},{"geometry":{"coordinates":[[[-0.8122632,52.006006],[-0.8180169,52.0060617],[-0.8198366,52.0122759],[-0.8435113,52.0223624],[-0.8473419,52.0172879],[-0.8518673,52.0174785],[-0.8526071,52.0127338],[-0.8699906,52.0106154],[-0.8758593,52.0040541],[-0.887716,52.006123],[-0.9073064,52.0039736],[-0.9178603,52.0067041],[-0.9255255,52.0129495],[-0.9413017,52.0116152],[-0.94479,52.0054578],[-0.9362582,51.9871771],[-0.9400386,51.9830546],[-0.9313447,51.9778066],[-0.9069166,51.9850039],[-0.9011522,51.9822195],[-0.9084993,51.9745743],[-0.9020838,51.9702845],[-0.9095433,51.9616646],[-0.8772925,51.9515682],[-0.8604056,51.9541212],[-0.8330897,51.9559192],[-0.8334441,51.9469415],[-0.8205888,51.9415922],[-0.8117519,51.9313856],[-0.7958601,51.9303479],[-0.8039427,51.9424691],[-0.7966078,51.9449122],[-0.7982124,51.9493456],[-0.7937313,51.9530072],[-0.7764432,51.9623764],[-0.7537905,51.9627877],[-0.7478903,51.9683101],[-0.7404013,51.9698531],[-0.7475764,51.9735477],[-0.7436692,51.9752373],[-0.7618018,51.9853301],[-0.7712271,51.9829032],[-0.7736488,51.9856231],[-0.776299,51.9886158],[-0.789285,51.9879358],[-0.8036803,51.9855133],[-0.8061795,51.993815],[-0.8122632,52.006006]]],"type":"Polygon"},"id":"E02003654","properties":{"code":"E02003654","geography":"MSOA","name":"Buckinghamshire 003"},"type":"Feature"},{"geometry":{"coordinates":[[[-1.0264229,52.0644057],[-1.0309641,52.0628858],[-1.0400663,52.0659127],[-1.0529764,52.0596491],[-1.0620821,52.0627239],[-1.0716736,52.0581236],[-1.0766689,52.0588398],[-1.0832919,52.0523502],[-1.117241,52.047334],[-1.1312744,52.0328585],[-1.1327064,52.0290135],[-1.1361756,52.0200233],[-1.1181037,52.0154156],[-1.111997,52.0165818],[-1.1028953,52.0120794],[-1.0959368,52.0149593],[-1.0880798,52.0057717],[-1.0771728,52.0088131],[-1.0739463,52.0063118],[-1.0608649,52.0086007],[-1.0531392,52.0024428],[-1.0782047,51.9810479],[-1.0952388,51.9572665],[-1.0819302,51.9509902],[-1.0789709,51.943358],[-1.0592858,51.9492923],[-1.0546362,51.94795],[-1.062132,51.9351287],[-1.0775696,51.9316353],[-1.0755552,51.9299303],[-1.0866938,51.9226381],[-1.0793769,51.9172143],[-1.0862996,51.9053122],[-1.0842747,51.8995375],[-1.0935391,51.8939295],[-1.0689955,51.8872551],[-1.0776253,51.8767235],[-1.0691866,51.8746371],[-1.0443133,51.8793159],[-1.0450829,51.8852932],[-1.0369834,51.8907003],[-1.0365835,51.8990604],[-1.0234293,51.9047424],[-1.0044411,51.9030929],[-0.9844223,51.8955415],[-0.9793707,51.895278],[-0.9763584,51.9015931],[-0.9603579,51.8963271],[-0.9550765,51.89928],[-0.942436,51.8968266],[-0.9332441,51.9007921],[-0.9315563,51.9052117],[-0.918272,51.9066568],[-0.9085788,51.9177507],[-0.9015539,51.9267937],[-0.908733,51.9292203],[-0.9104649,51.9382783],[-0.9206875,51.9447606],[-0.9493752,51.9506072],[-0.9566693,51.9551846],[-0.9790407,51.9555561],[-0.9784005,51.9598364],[-0.9667979,51.9653681],[-0.96425,51.9800034],[-0.9846056,51.9835618],[-0.9873853,51.9880876],[-1.0073963,51.9905648],[-1.0140195,51.9958889],[-1.0050508,51.9973959],[-1.0061487,51.9999866],[-0.9972914,52.01469],[-0.9953042,52.0200609],[-1.0033239,52.0184845],[-1.0073432,52.0223668],[-1.0142395,52.0179573],[-1.0244531,52.0170893],[-1.0288347,52.0119408],[-1.0438309,52.0191837],[-1.0519695,52.0339349],[-1.0500619,52.0397703],[-1.0364327,52.0367248],[-1.0349123,52.0464819],[-1.0236883,52.0520574],[-1.0135692,52.0530286],[-1.0088587,52.062123],[-1.0264229,52.0644057]]],"type":"Polygon"},"id":"E02003655","properties":{"code":"E02003655","geography":"MSOA","name":"Buckinghamshire 004"},"type":"Feature"},{"geometry":{"coordinates":[[[-0.9400386,51.9830546],[-0.9505066,51.9892647],[-0.9570808,51.9890006],[-0.96425,51.9800034],[-0.9667979,51.9653681],[-0.9784005,51.9598364],[-0.9790407,51.9555561],[-0.9566693,51.9551846],[-0.9493752,51.9506072],[-0.9206875,51.9447606],[-0.9104649,51.9382783],[-0.908733,51.9292203],[-0.9015539,51.9267937],[-0.8900242,51.9317843],[-0.8821443,51.9309573],[-0.8713571,51.9346046],[-0.8614798,51.9314958],[-0.8542463,51.9328636],[-0.8607988,51.9400346],[-0.855883,51.9425735],[-0.8604056,51.9541212],[-0.8772925,51.9515682],[-0.9095433,51.9616646],[-0.9020838,51.9702845],[-0.9084993,51.9745743],[-0.9011522,51.9822195],[-0.9069166,51.9850039],[-0.9313447,51.9778066],[-0.9400386,51.9830546]]],"type":"Polygon"},"id":"E02003656","properties":{"code":"E02003656","geography":"MSOA","name":"Buckinghamshire 005"},"type":"Feature"},{"geometry":{"coordinates":[[[-0.701583,51.9869505],[-0.713543,51.9896137],[-0.7178929,51.9823554],[-0.7139637,51.9778612],[-0.7404013,51.9698531],[-0.7478903,51.9683101],[-0.7537905,51.9627877],[-0.7764432,51.9623764],[-0.7937313,51.9530072],[-0.7982124,51.9493456],[-0.7966078,51.9449122],[-0.8039427,51.9424691],[-0.7958601,51.9303479],[-0.8117519,51.9313856],[-0.8205888,51.9415922],[-0.8334441,51.9469415],[-0.8330897,51.9559192],[-0.8604056,51.9541212],[-0.855883,51.9425735],[-0.8607988,51.9400346],[-0.8542463,51.9328636],[-0.8614798,51.9314958],[-0.8713571,51.9346046],[-0.8821443,51.9309573],[-0.8900242,51.9317843],[-0.9015539,51.9267937],[-0.9085788,51.9177507],[-0.9003791,51.9076749],[-0.8580435,51.91454],[-0.8525626,51.9054159],[-0.8427095,51.9032194],[-0.83844,51.8972512],[-0.8341076,51.898447],[-0.829971,51.8954345],[-0.802704,51.8976525],[-0.8010587,51.8906806],[-0.7926035,51.9024842],[-0.7751536,51.906132],[-0.7645878,51.9035354],[-0.7327444,51.9231716],[-0.7021811,51.9091098],[-0.6913998,51.9229608],[-0.6914879,51.9270449],[-0.6815657,51.9351405],[-0.6803428,51.935492],[-0.6823696,51.9427272],[-0.6703701,51.9438102],[-0.6719543,51.9559798],[-0.6621263,51.9555631],[-0.6512561,51.9682717],[-0.6530011,51.9692203],[-0.6690856,51.9784782],[-0.6773486,51.9767122],[-0.6961721,51.9821969],[-0.701583,51.9869505]]],"type":"Polygon"},"id":"E02003657","properties":{"code":"E02003657","geography":"MSOA","name":"Buckinghamshire 006"},"type":"Feature"},{"geometry":{"coordinates":[[[-0.7021811,51.9091098],[-0.7327444,51.9231716],[-0.7645878,51.9035354],[-0.7751536,51.906132],[-0.7926035,51.9024842],[-0.8010587,51.8906806],[-0.8025156,51.8880312],[-0.7963257,51.8865466],[-0.7968629,51.876881],[-0.806907,51.8648523],[-0.7976363,51.8621467],[-0.7906885,51.851915],[-0.8015533,51.8494362],[-0.8054343,51.8430019],[-0.800821,51.8412751],[-0.8067611,51.8386833],[-0.7954982,51.8259771],[-0.7886015,51.8231564],[-0.7920923,51.8217035],[-0.7898198,51.819581],[-0.7761489,51.8151637],[-0.7582264,51.8169977],[-0.7410117,51.8261011],[-0.743979,51.8294824],[-0.7391351,51.8347454],[-0.7457013,51.8420859],[-0.7363593,51.8423989],[-0.7312117,51.8489627],[-0.7225924,51.8500374],[-0.7174711,51.8571038],[-0.710481,51.8577895],[-0.7071152,51.8544087],[-0.6963985,51.8581276],[-0.6867928,51.8492323],[-0.6711201,51.8690013],[-0.6642369,51.8683227],[-0.6750576,51.8956001],[-0.6893778,51.893037],[-0.6922445,51.9001531],[-0.6963752,51.9041133],[-0.7021811,51.9091098]]],"type":"Polygon"},"id":"E02003658","properties":{"code":"E02003658","geography":"MSOA","name":"Buckinghamshire 007"},"type":"Feature"},{"geometry":{"coordinates":[[[-0.8010587,51.8906806],[-0.802704,51.8976525],[-0.829971,51.8954345],[-0.8341076,51.898447],[-0.83844,51.8972512],[-0.8427095,51.9032194],[-0.8525626,51.9054159],[-0.8580435,51.91454],[-0.9003791,51.9076749],[-0.9085788,51.9177507],[-0.918272,51.9066568],[-0.9315563,51.9052117],[-0.9332441,51.9007921],[-0.942436,51.8968266],[-0.9550765,51.89928],[-0.9603579,51.8963271],[-0.9664069,51.8921877],[-0.9737353,51.8930295],[-0.98304,51.886865],[-0.9865508,51.8761848],[-0.9809912,51.8716756],[-0.9705717,51.8722213],[-0.9743511,51.8673014],[-0.9565339,51.859999],[-0.9539571,51.8621736],[-0.9407777,51.8614067],[-0.9446513,51.8548915],[-0.9356311,51.8508052],[-0.9411052,51.8516318],[-0.9499013,51.8478077],[-0.9437266,51.8407029],[-0.9333191,51.8378664],[-0.9513822,51.8273606],[-0.9691515,51.8394842],[-0.9926797,51.8329932],[-0.9818745,51.8207844],[-0.9959446,51.8245041],[-1.0004981,51.8175138],[-0.9913062,51.8054051],[-0.9824099,51.8006125],[-0.9713206,51.805357],[-0.9637538,51.8036677],[-0.9599567,51.8015194],[-0.9616234,51.7974627],[-0.9482824,51.7894941],[-0.9477574,51.7958661],[-0.9383226,51.8016102],[-0.9237224,51.8012899],[-0.9190551,51.8055985],[-0.9109396,51.8046982],[-0.9042436,51.8077399],[-0.8970231,51.808755],[-0.8915786,51.8140109],[-0.8798158,51.8126072],[-0.8731217,51.814804],[-0.8665483,51.8175838],[-0.8630012,51.8241562],[-0.8625226,51.8337781],[-0.870228,51.8410551],[-0.8668996,51.8444987],[-0.8745719,51.8539455],[-0.8805392,51.8558923],[-0.8796528,51.8587899],[-0.8690264,51.8581299],[-0.867564,51.8618437],[-0.8568037,51.8587117],[-0.8490487,51.8483086],[-0.8403927,51.8516733],[-0.8376332,51.8565868],[-0.832445,51.8547231],[-0.8271102,51.8319533],[-0.8147174,51.8299698],[-0.8170918,51.8385301],[-0.8054343,51.8430019],[-0.8015533,51.8494362],[-0.7906885,51.851915],[-0.7976363,51.8621467],[-0.806907,51.8648523],[-0.7968629,51.876881],[-0.7963257,51.8865466],[-0.8025156,51.8880312],[-0.8010587,51.8906806]]],"type":"Polygon"},"id":"E02003659","properties":{"code":"E02003659","geography":"MSOA","name":"Buckinghamshire 009"},"type":"Feature"},{"geometry":{"coordinates":[[[-0.6602691,51.894548],[-0.673262,51.901809],[-0.6922445,51.9001531],[-0.6893778,51.893037],[-0.6750576,51.8956001],[-0.6642369,51.8683227],[-0.6711201,51.8690013],[-0.6867928,51.8492323],[-0.6954696,51.8410959],[-0.6870787,51.8391075],[-0.6672257,51.815799],[-0.6590574,51.8154278],[-0.6478093,51.8135997],[-0.6360096,51.8180103],[-0.6330684,51.8199706],[-0.6118942,51.8120366],[-0.594857,51.8140148],[-0.591665,51.8081235],[-0.58185,51.8068973],[-0.5751824,51.8188107],[-0.5671695,51.8197969],[-0.5608005,51.8263714],[-0.5583735,51.8247795],[-0.5606816,51.8300742],[-0.5571757,51.8309602],[-0.5536537,51.826704],[-0.5490176,51.8279776],[-0.5436757,51.8245094],[-0.5376538,51.8314023],[-0.5644924,51.847419],[-0.5668357,51.8508047],[-0.5637062,51.8512302],[-0.5687449,51.8513926],[-0.5714596,51.8550174],[-0.5692743,51.8580618],[-0.5835892,51.8703152],[-0.6089964,51.8755552],[-0.6201367,51.8854761],[-0.6282725,51.8821235],[-0.6373698,51.8825942],[-0.6548525,51.887881],[-0.6602691,51.894548]]],"type":"Polygon"},"id":"E02003660","properties":{"code":"E02003660","geography":"MSOA","name":"Buckinghamshire 008"},"type":"Feature"},{"geometry":{"coordinates":[[[-0.9603579,51.8963271],[-0.9763584,51.9015931],[-0.9793707,51.895278],[-0.9844223,51.8955415],[-1.0044411,51.9030929],[-1.0234293,51.9047424],[-1.0365835,51.8990604],[-1.0369834,51.8907003],[-1.0450829,51.8852932],[-1.0443133,51.8793159],[-1.0691866,51.8746371],[-1.064663,51.86869],[-1.066052,51.85281],[-1.0620268,51.8441572],[-1.0471646,51.8397466],[-1.0619278,51.8323779],[-1.0686095,51.8346293],[-1.0784705,51.8292483],[-1.1216191,51.8453357],[-1.1406965,51.8346835],[-1.1101172,51.817299],[-1.1249104,51.8075053],[-1.1174263,51.7991613],[-1.1235615,51.7941756],[-1.1200122,51.7922869],[-1.1131443,51.7952517],[-1.094234,51.786628],[-1.0863813,51.7894627],[-1.0677283,51.7863254],[-1.0676799,51.7832668],[-1.0442449,51.7823439],[-1.0360227,51.785426],[-1.0014888,51.7863194],[-0.9867825,51.7901893],[-0.9794876,51.7924051],[-0.9824099,51.8006125],[-0.9913062,51.8054051],[-1.0004981,51.8175138],[-0.9959446,51.8245041],[-0.9818745,51.8207844],[-0.9926797,51.8329932],[-0.9691515,51.8394842],[-0.9513822,51.8273606],[-0.9333191,51.8378664],[-0.9437266,51.8407029],[-0.9499013,51.8478077],[-0.9411052,51.8516318],[-0.9356311,51.8508052],[-0.9446513,51.8548915],[-0.9407777,51.8614067],[-0.9539571,51.8621736],[-0.9565339,51.859999],[-0.9743511,51.8673014],[-0.9705717,51.8722213],[-0.9809912,51.8716756],[-0.9865508,51.8761848],[-0.98304,51.886865],[-0.9737353,51.8930295],[-0.9664069,51.8921877],[-0.9603579,51.8963271]]],"type":"Polygon"},"id":"E02003661","properties":{"code":"E02003661","geography":"MSOA","name":"Buckinghamshire 010"},"type":"Feature"},{"geometry":{"coordinates":[[[-0.7954982,51.8259771],[-0.8067611,51.8386833],[-0.800821,51.8412751],[-0.8054343,51.8430019],[-0.8170918,51.8385301],[-0.8147174,51.8299698],[-0.8147194,51.8270739],[-0.8014411,51.8229087],[-0.7954982,51.8259771]]],"type":"Polygon"},"id":"E02003662","properties":{"code":"E02003662","geography":"MSOA","name":"Buckinghamshire 012"},"type":"Feature"},{"geometry":{"coordinates":[[[-0.8271102,51.8319533],[-0.832445,51.8547231],[-0.8376332,51.8565868],[-0.8403927,51.8516733],[-0.8490487,51.8483086],[-0.8568037,51.8587117],[-0.867564,51.8618437],[-0.8690264,51.8581299],[-0.8796528,51.8587899],[-0.8805392,51.8558923],[-0.8745719,51.8539455],[-0.8668996,51.8444987],[-0.870228,51.8410551],[-0.8625226,51.8337781],[-0.8630012,51.8241562],[-0.8604394,51.825698],[-0.8497025,51.8208717],[-0.8331982,51.8191502],[-0.8288271,51.8235908],[-0.833226,51.8307539],[-0.8271102,51.8319533]]],"type":"Polygon"},"id":"E02003663","properties":{"code":"E02003663","geography":"MSOA","name":"Buckinghamshire 011"},"type":"Feature"},{"geometry":{"coordinates":[[[-0.8147174,51.8299698],[-0.8271102,51.8319533],[-0.833226,51.8307539],[-0.8288271,51.8235908],[-0.8331982,51.8191502],[-0.8227016,51.8153837],[-0.8154397,51.8202123],[-0.8147194,51.8270739],[-0.8147174,51.8299698]]],"type":"Polygon"},"id":"E02003664","properties":{"code":"E02003664","geography":"MSOA","name":"Buckinghamshire 013"},"type":"Feature"},{"geometry":{"coordinates":[[[-0.7761489,51.8151637],[-0.7898198,51.819581],[-0.7920923,51.8217035],[-0.7886015,51.8231564],[-0.7954982,51.8259771],[-0.8014411,51.8229087],[-0.8063317,51.8203715],[-0.8010179,51.8151392],[-0.7738728,51.8112111],[-0.7761489,51.8151637]]],"type":"Polygon"},"id":"E02003665","properties":{"code":"E02003665","geography":"MSOA","name":"Buckinghamshire 014"},"type":"Feature"},{"geometry":{"coordinates":[[[-0.8014411,51.8229087],[-0.8147194,51.8270739],[-0.8154397,51.8202123],[-0.8227016,51.8153837],[-0.8126726,51.8129303],[-0.8051252,51.8104741],[-0.8010179,51.8151392],[-0.8063317,51.8203715],[-0.8014411,51.8229087]]],"type":"Polygon"},"id":"E02003666","properties":{"code":"E02003666","geography":"MSOA","name":"Buckinghamshire 015"},"type":"Feature"},{"geometry":{"coordinates":[[[-0.8331982,51.8191502],[-0.8497025,51.8208717],[-0.8515131,51.817364],[-0.839514,51.8128634],[-0.8388637,51.8069869],[-0.8334219,51.8090314],[-0.8266794,51.8023724],[-0.8242837,51.8074316],[-0.8290473,51.8109322],[-0.8227016,51.8153837],[-0.8331982,51.8191502]]],"type":"Polygon"},"id":"E02003667","properties":{"code":"E02003667","geography":"MSOA","name":"Buckinghamshire 016"},"type":"Feature"},{"geometry":{"coordinates":[[[-0.7738728,51.8112111],[-0.8010179,51.8151392],[-0.8051252,51.8104741],[-0.786695,51.7982994],[-0.772674,51.804081],[-0.7738728,51.8112111]]],"type":"Polygon"},"id":"E02003668","properties":{"code":"E02003668","geography":"MSOA","name":"Buckinghamshire 018"},"type":"Feature"},{"geometry":{"coordinates":[[[-0.8126726,51.8129303],[-0.8227016,51.8153837],[-0.8290473,51.8109322],[-0.8242837,51.8074316],[-0.8204931,51.8020344],[-0.8101154,51.7986429],[-0.8126726,51.8129303]]],"type":"Polygon"},"id":"E02003669","properties":{"code":"E02003669","geography":"MSOA","name":"Buckinghamshire 017"},"type":"Feature"},{"geometry":{"coordinates":[[[-0.8051252,51.8104741],[-0.8126726,51.8129303],[-0.8101154,51.7986429],[-0.8101071,51.7931026],[-0.7959868,51.7980182],[-0.7916536,51.7939042],[-0.7831882,51.7973435],[-0.786695,51.7982994],[-0.8051252,51.8104741]]],"type":"Polygon"},"id":"E02003670","properties":{"code":"E02003670","geography":"MSOA","name":"Buckinghamshire 019"},"type":"Feature"},{"geometry":{"coordinates":[[[-0.8101154,51.7986429],[-0.8204931,51.8020344],[-0.8242837,51.8074316],[-0.8266794,51.8023724],[-0.8185871,51.7924536],[-0.8101071,51.7931026],[-0.8101154,51.7986429]]],"type":"Polygon"},"id":"E02003671","properties":{"code":"E02003671","geography":"MSOA","name":"Buckinghamshire 020"},"type":"Feature"},{"geometry":{"coordinates":[[[-0.6762112,51.7784574],[-0.6815251,51.7880517],[-0.6902115,51.7923225],[-0.6822155,51.7945764],[-0.6826745,51.7971919],[-0.7011724,51.8148546],[-0.7093072,51.8205259],[-0.7192413,51.8161299],[-0.7234263,51.817617],[-0.7391351,51.8347454],[-0.743979,51.8294824],[-0.7410117,51.8261011],[-0.7582264,51.8169977],[-0.7761489,51.8151637],[-0.7738728,51.8112111],[-0.772674,51.804081],[-0.786695,51.7982994],[-0.7831882,51.7973435],[-0.7916536,51.7939042],[-0.7959868,51.7980182],[-0.8101071,51.7931026],[-0.8185871,51.7924536],[-0.8195848,51.788046],[-0.8089585,51.7824458],[-0.8060041,51.7800232],[-0.7986016,51.7813703],[-0.7853331,51.7697554],[-0.7794597,51.7719957],[-0.7821873,51.7747892],[-0.7745444,51.7760551],[-0.7696221,51.7808708],[-0.7558285,51.7750045],[-0.7480313,51.7764184],[-0.7426474,51.7823019],[-0.7445445,51.7893271],[-0.750333,51.7926945],[-0.7418152,51.7982951],[-0.7162095,51.7806585],[-0.6928035,51.7587086],[-0.6734947,51.7684648],[-0.6762112,51.7784574]]],"type":"Polygon"},"id":"E02003672","properties":{"code":"E02003672","geography":"MSOA","name":"Buckinghamshire 021"},"type":"Feature"},{"geometry":{"coordinates":[[[-0.8497025,51.8208717],[-0.8604394,51.825698],[-0.8630012,51.8241562],[-0.8665483,51.8175838],[-0.8731217,51.814804],[-0.8798158,51.8126072],[-0.8915786,51.8140109],[-0.8970231,51.808755],[-0.9042436,51.8077399],[-0.9004856,51.7934083],[-0.9033419,51.7903875],[-0.9263343,51.7898342],[-0.9335596,51.7856335],[-0.9528119,51.7818934],[-0.9519068,51.7787285],[-0.9630356,51.776362],[-0.9840006,51.7611775],[-0.9814421,51.7600169],[-0.9536959,51.7578495],[-0.9449503,51.7536261],[-0.9332925,51.7523852],[-0.9284014,51.7459138],[-0.9240959,51.7477024],[-0.9183213,51.7372498],[-0.9128049,51.7370237],[-0.9041633,51.7467155],[-0.9045755,51.7517768],[-0.8906559,51.7518741],[-0.8769845,51.7480578],[-0.8564177,51.7608195],[-0.8624431,51.7672008],[-0.8530633,51.7697395],[-0.835091,51.769024],[-0.8393923,51.7779351],[-0.8268995,51.7808251],[-0.8123481,51.7799561],[-0.8089585,51.7824458],[-0.8195848,51.788046],[-0.8185871,51.7924536],[-0.8266794,51.8023724],[-0.8334219,51.8090314],[-0.8388637,51.8069869],[-0.839514,51.8128634],[-0.8515131,51.817364],[-0.8497025,51.8208717]]],"type":"Polygon"},"id":"E02003673","properties":{"code":"E02003673","geography":"MSOA","name":"Buckinghamshire 022"},"type":"Feature"},{"geometry":{"coordinates":[[[-0.9814421,51.7600169],[-0.9840006,51.7611775],[-0.9630356,51.776362],[-0.9519068,51.7787285],[-0.9528119,51.7818934],[-0.9335596,51.7856335],[-0.9263343,51.7898342],[-0.9033419,51.7903875],[-0.9004856,51.7934083],[-0.9042436,51.8077399],[-0.9109396,51.8046982],[-0.9190551,51.8055985],[-0.9237224,51.8012899],[-0.9383226,51.8016102],[-0.9477574,51.7958661],[-0.9482824,51.7894941],[-0.9616234,51.7974627],[-0.9599567,51.8015194],[-0.9637538,51.8036677],[-0.9713206,51.805357],[-0.9824099,51.8006125],[-0.9794876,51.7924051],[-0.9867825,51.7901893],[-1.0014888,51.7863194],[-1.0360227,51.785426],[-1.0442449,51.7823439],[-1.0676799,51.7832668],[-1.0677283,51.7863254],[-1.0863813,51.7894627],[-1.094234,51.786628],[-1.1131443,51.7952517],[-1.1200122,51.7922869],[-1.1219639,51.787075],[-1.1154027,51.7868937],[-1.1063813,51.7816254],[-1.0833763,51.7805808],[-1.0788691,51.7712607],[-1.0828214,51.7641088],[-1.0808724,51.7565488],[-1.0729126,51.7583175],[-1.0664049,51.7536193],[-1.0549934,51.7521758],[-1.0454919,51.7445936],[-1.030456,51.7449232],[-1.0298486,51.7578756],[-1.0015406,51.7548011],[-0.9821904,51.7529537],[-0.9814421,51.7600169]]],"type":"Polygon"},"id":"E02003674","properties":{"code":"E02003674","geography":"MSOA","name":"Buckinghamshire 023"},"type":"Feature"},{"geometry":{"coordinates":[[[-0.6928035,51.7587086],[-0.7162095,51.7806585],[-0.7418152,51.7982951],[-0.750333,51.7926945],[-0.7445445,51.7893271],[-0.7426474,51.7823019],[-0.7480313,51.7764184],[-0.7558285,51.7750045],[-0.7696221,51.7808708],[-0.7745444,51.7760551],[-0.7612295,51.7583703],[-0.7648103,51.7500523],[-0.7547242,51.7428573],[-0.7366616,51.7191557],[-0.7285825,51.7185725],[-0.7132722,51.7234732],[-0.7203146,51.7401223],[-0.7173677,51.7421479],[-0.7242113,51.7491053],[-0.7135725,51.7514189],[-0.6948493,51.7493593],[-0.6892549,51.7536104],[-0.6928035,51.7587086]]],"type":"Polygon"},"id":"E02003675","properties":{"code":"E02003675","geography":"MSOA","name":"Buckinghamshire 024"},"type":"Feature"},{"geometry":{"coordinates":[[[-0.6137906,51.750907],[-0.6232638,51.7543632],[-0.6434822,51.754019],[-0.6734947,51.7684648],[-0.6928035,51.7587086],[-0.6892549,51.7536104],[-0.6948493,51.7493593],[-0.7135725,51.7514189],[-0.7242113,51.7491053],[-0.7173677,51.7421479],[-0.7203146,51.7401223],[-0.7132722,51.7234732],[-0.7050787,51.7132084],[-0.6993166,51.7115767],[-0.6980995,51.7049096],[-0.6946426,51.7055655],[-0.6939035,51.7028528],[-0.6841731,51.7042532],[-0.6740036,51.6925943],[-0.6773629,51.68701],[-0.6923145,51.6879751],[-0.686612,51.6800226],[-0.6686967,51.6770238],[-0.6689396,51.6750845],[-0.6515548,51.6743144],[-0.6458274,51.681487],[-0.6418381,51.6889723],[-0.6336353,51.6908951],[-0.625181,51.6879467],[-0.6182333,51.6961918],[-0.6260373,51.6991313],[-0.6335944,51.6981384],[-0.6408541,51.7065053],[-0.6392234,51.7097409],[-0.6432499,51.7105067],[-0.6385695,51.716097],[-0.6332233,51.717974],[-0.6324874,51.7223215],[-0.6174224,51.7268912],[-0.6176817,51.7296339],[-0.6038023,51.7278964],[-0.5911615,51.7221093],[-0.582246,51.7218914],[-0.5858866,51.7176728],[-0.5781623,51.7086277],[-0.5827466,51.7054743],[-0.5781919,51.69992],[-0.5845565,51.6870964],[-0.5757027,51.6839819],[-0.5626148,51.6781348],[-0.5658773,51.6748151],[-0.5463234,51.6734866],[-0.5476971,51.6646196],[-0.5388966,51.6604122],[-0.5424592,51.6579854],[-0.5384803,51.6536327],[-0.5463561,51.6443227],[-0.5508654,51.6409465],[-0.5374133,51.6429036],[-0.5309507,51.6491307],[-0.5366871,51.6523656],[-0.5369136,51.6606206],[-0.5326478,51.6630032],[-0.5244626,51.6578473],[-0.5210163,51.6680411],[-0.51474,51.665449],[-0.5051296,51.6730725],[-0.510919,51.6798127],[-0.5249559,51.6787169],[-0.5242948,51.682108],[-0.5389112,51.6798297],[-0.5487182,51.6826667],[-0.5440397,51.6968118],[-0.5476903,51.7031761],[-0.5632323,51.711874],[-0.5615443,51.7180888],[-0.5504367,51.7230368],[-0.5536187,51.7284044],[-0.5501055,51.7305688],[-0.5537428,51.7340585],[-0.5606724,51.7340788],[-0.5592597,51.7373183],[-0.5654099,51.7364153],[-0.5637228,51.7396109],[-0.5727858,51.7358579],[-0.5825219,51.7453196],[-0.5864033,51.7521093],[-0.6129598,51.7474208],[-0.6137906,51.750907]]],"type":"Polygon"},"id":"E02003676","properties":{"code":"E02003676","geography":"MSOA","name":"Buckinghamshire 029"},"type":"Feature"},{"geometry":{"coordinates":[[[-0.6038023,51.7278964],[-0.6176817,51.7296339],[-0.6174224,51.7268912],[-0.6324874,51.7223215],[-0.6332233,51.717974],[-0.6385695,51.716097],[-0.6198892,51.7066976],[-0.6140832,51.7066917],[-0.6134932,51.7122771],[-0.6097017,51.7115411],[-0.6043746,51.7178925],[-0.6038023,51.7278964]]],"type":"Polygon"},"id":"E02003677","properties":{"code":"E02003677","geography":"MSOA","name":"Buckinghamshire 027"},"type":"Feature"},{"geometry":{"coordinates":[[[-0.5827466,51.7054743],[-0.5781623,51.7086277],[-0.5858866,51.7176728],[-0.582246,51.7218914],[-0.5911615,51.7221093],[-0.6038023,51.7278964],[-0.6043746,51.7178925],[-0.6097017,51.7115411],[-0.6039899,51.7117253],[-0.6086539,51.7080895],[-0.5997994,51.7025334],[-0.5827466,51.7054743]]],"type":"Polygon"},"id":"E02003678","properties":{"code":"E02003678","geography":"MSOA","name":"Buckinghamshire 028"},"type":"Feature"},{"geometry":{"coordinates":[[[-0.6097017,51.7115411],[-0.6134932,51.7122771],[-0.6140832,51.7066917],[-0.6198892,51.7066976],[-0.6385695,51.716097],[-0.6432499,51.7105067],[-0.6392234,51.7097409],[-0.6408541,51.7065053],[-0.6335944,51.6981384],[-0.6260373,51.6991313],[-0.6182333,51.6961918],[-0.6140267,51.6973917],[-0.5955825,51.6901709],[-0.5836546,51.682245],[-0.5757027,51.6839819],[-0.5845565,51.6870964],[-0.5781919,51.69992],[-0.5827466,51.7054743],[-0.5997994,51.7025334],[-0.6086539,51.7080895],[-0.6039899,51.7117253],[-0.6097017,51.7115411]]],"type":"Polygon"},"id":"E02003679","properties":{"code":"E02003679","geography":"MSOA","name":"Buckinghamshire 030"},"type":"Feature"},{"geometry":{"coordinates":[[[-0.686612,51.6800226],[-0.6923145,51.6879751],[-0.6773629,51.68701],[-0.6740036,51.6925943],[-0.6841731,51.7042532],[-0.6939035,51.7028528],[-0.6946426,51.7055655],[-0.6980995,51.7049096],[-0.6993166,51.7115767],[-0.7050787,51.7132084],[-0.7132722,51.7234732],[-0.7285825,51.7185725],[-0.7366616,51.7191557],[-0.7464844,51.7043159],[-0.7502283,51.7030919],[-0.7543891,51.7075304],[-0.7621295,51.70236],[-0.7579772,51.6939779],[-0.74776,51.6848892],[-0.7361102,51.6833656],[-0.7310388,51.6755413],[-0.7192954,51.6739464],[-0.716214,51.6765695],[-0.6975013,51.6747861],[-0.686612,51.6800226]]],"type":"Polygon"},"id":"E02003680","properties":{"code":"E02003680","geography":"MSOA","name":"Buckinghamshire 031"},"type":"Feature"},{"geometry":{"coordinates":[[[-0.5836546,51.682245],[-0.5955825,51.6901709],[-0.6140267,51.6973917],[-0.6182333,51.6961918],[-0.625181,51.6879467],[-0.6336353,51.6908951],[-0.6418381,51.6889723],[-0.6458274,51.681487],[-0.6293044,51.6808995],[-0.6129399,51.6749153],[-0.5918503,51.6729245],[-0.5850265,51.6746788],[-0.5836546,51.682245]]],"type":"Polygon"},"id":"E02003681","properties":{"code":"E02003681","geography":"MSOA","name":"Buckinghamshire 032"},"type":"Feature"},{"geometry":{"coordinates":[[[-0.5658773,51.6748151],[-0.5626148,51.6781348],[-0.5757027,51.6839819],[-0.5836546,51.682245],[-0.5850265,51.6746788],[-0.5918503,51.6729245],[-0.6129399,51.6749153],[-0.6293044,51.6808995],[-0.6458274,51.681487],[-0.6515548,51.6743144],[-0.6640567,51.6673134],[-0.6639978,51.660577],[-0.6385102,51.6507742],[-0.6360797,51.6563071],[-0.6245551,51.6597099],[-0.6171038,51.6516317],[-0.6054327,51.6489434],[-0.5971775,51.6429563],[-0.5809482,51.64775],[-0.5831406,51.655417],[-0.5731959,51.6592037],[-0.5775275,51.6650411],[-0.5843179,51.6668278],[-0.5791637,51.674054],[-0.5715084,51.6724991],[-0.5658773,51.6748151]]],"type":"Polygon"},"id":"E02003682","properties":{"code":"E02003682","geography":"MSOA","name":"Buckinghamshire 034"},"type":"Feature"},{"geometry":{"coordinates":[[[-0.5463561,51.6443227],[-0.5384803,51.6536327],[-0.5424592,51.6579854],[-0.5388966,51.6604122],[-0.5476971,51.6646196],[-0.5463234,51.6734866],[-0.5658773,51.6748151],[-0.5715084,51.6724991],[-0.5791637,51.674054],[-0.5843179,51.6668278],[-0.5775275,51.6650411],[-0.5731959,51.6592037],[-0.5831406,51.655417],[-0.5809482,51.64775],[-0.5751036,51.6372],[-0.5686207,51.6360998],[-0.5659658,51.639796],[-0.55606,51.640294],[-0.5536612,51.6449385],[-0.5463561,51.6443227]]],"type":"Polygon"},"id":"E02003683","properties":{"code":"E02003683","geography":"MSOA","name":"Buckinghamshire 035"},"type":"Feature"},{"geometry":{"coordinates":[[[-0.5463561,51.6443227],[-0.5536612,51.6449385],[-0.55606,51.640294],[-0.5659658,51.639796],[-0.5686207,51.6360998],[-0.5751036,51.6372],[-0.5809482,51.64775],[-0.5971775,51.6429563],[-0.6089313,51.6286278],[-0.6167156,51.6158406],[-0.6101727,51.6117296],[-0.612797,51.6073736],[-0.6057117,51.609306],[-0.596973,51.6043988],[-0.5881468,51.6055088],[-0.5867131,51.6096664],[-0.5606976,51.615856],[-0.5620287,51.6263421],[-0.5569383,51.6277907],[-0.5595603,51.6298503],[-0.5508654,51.6409465],[-0.5463561,51.6443227]]],"type":"Polygon"},"id":"E02003685","properties":{"code":"E02003685","geography":"MSOA","name":"Buckinghamshire 047"},"type":"Feature"},{"geometry":{"coordinates":[[[-0.5341517,51.6371474],[-0.5392819,51.6380367],[-0.5374133,51.6429036],[-0.5508654,51.6409465],[-0.5595603,51.6298503],[-0.5569383,51.6277907],[-0.5620287,51.6263421],[-0.5606976,51.615856],[-0.5560271,51.6099279],[-0.5612829,51.6090482],[-0.5598643,51.6068728],[-0.5634787,51.6089618],[-0.5631291,51.6062997],[-0.566896,51.6069133],[-0.5456985,51.5978324],[-0.5428948,51.5919834],[-0.5298587,51.6021047],[-0.5225223,51.605059],[-0.53008,51.6171484],[-0.5341517,51.6371474]]],"type":"Polygon"},"id":"E02003686","properties":{"code":"E02003686","geography":"MSOA","name":"Buckinghamshire 050"},"type":"Feature"},{"geometry":{"coordinates":[[[-0.5428948,51.5919834],[-0.5456985,51.5978324],[-0.566896,51.6069133],[-0.5631291,51.6062997],[-0.5634787,51.6089618],[-0.5598643,51.6068728],[-0.5612829,51.6090482],[-0.5560271,51.6099279],[-0.5606976,51.615856],[-0.5867131,51.6096664],[-0.5881468,51.6055088],[-0.596973,51.6043988],[-0.6057117,51.609306],[-0.612797,51.6073736],[-0.6086721,51.5982033],[-0.5962014,51.5952818],[-0.5755956,51.5893868],[-0.5489408,51.5947889],[-0.5428948,51.5919834]]],"type":"Polygon"},"id":"E02003687","properties":{"code":"E02003687","geography":"MSOA","name":"Buckinghamshire 054"},"type":"Feature"},{"geometry":{"coordinates":[[[-0.6089313,51.6286278],[-0.6181131,51.6339934],[-0.622246,51.6288625],[-0.6402657,51.6347036],[-0.6427164,51.6190844],[-0.6539177,51.6182197],[-0.66103,51.6109],[-0.6754004,51.6078532],[-0.6801898,51.6048379],[-0.6694846,51.5927182],[-0.6726791,51.5812274],[-0.6586449,51.5821115],[-0.6552993,51.5788829],[-0.6334488,51.5816788],[-0.6265563,51.5790722],[-0.6274379,51.5927446],[-0.6065806,51.5879426],[-0.5962014,51.5952818],[-0.6086721,51.5982033],[-0.612797,51.6073736],[-0.6101727,51.6117296],[-0.6167156,51.6158406],[-0.6089313,51.6286278]]],"type":"Polygon"},"id":"E02003688","properties":{"code":"E02003688","geography":"MSOA","name":"Buckinghamshire 053"},"type":"Feature"},{"geometry":{"coordinates":[[[-0.5312794,51.5607128],[-0.5074727,51.5629419],[-0.5082727,51.570417],[-0.5170676,51.5712089],[-0.5138471,51.5742856],[-0.5289126,51.5781468],[-0.5254903,51.5876688],[-0.531763,51.5963087],[-0.5298587,51.6021047],[-0.5428948,51.5919834],[-0.5489408,51.5947889],[-0.5755956,51.5893868],[-0.5962014,51.5952818],[-0.6065806,51.5879426],[-0.5862622,51.5816196],[-0.5797896,51.5750474],[-0.5778121,51.5774472],[-0.5710748,51.5756495],[-0.5708446,51.571325],[-0.5591942,51.5679011],[-0.5409547,51.5673989],[-0.5353798,51.5720465],[-0.5312794,51.5607128]]],"type":"Polygon"},"id":"E02003689","properties":{"code":"E02003689","geography":"MSOA","name":"Buckinghamshire 058"},"type":"Feature"},{"geometry":{"coordinates":[[[-0.5006171,51.5996877],[-0.5178568,51.6002473],[-0.5225223,51.605059],[-0.5298587,51.6021047],[-0.531763,51.5963087],[-0.5254903,51.5876688],[-0.5289126,51.5781468],[-0.5138471,51.5742856],[-0.5170676,51.5712089],[-0.5082727,51.570417],[-0.5074727,51.5629419],[-0.5312794,51.5607128],[-0.5301007,51.558595],[-0.5084182,51.5534041],[-0.4974417,51.5445432],[-0.4910956,51.5445295],[-0.4853681,51.5507336],[-0.4779424,51.5548486],[-0.4767013,51.5593397],[-0.4847831,51.5668688],[-0.4840472,51.575125],[-0.4892317,51.5777591],[-0.5006171,51.5996877]]],"type":"Polygon"},"id":"E02003690","properties":{"code":"E02003690","geography":"MSOA","name":"Buckinghamshire 059"},"type":"Feature"},{"geometry":{"coordinates":[[[-0.6065806,51.5879426],[-0.6274379,51.5927446],[-0.6265563,51.5790722],[-0.6188666,51.5629313],[-0.6247392,51.537986],[-0.6197334,51.5379246],[-0.6083522,51.5389372],[-0.6059723,51.5418639],[-0.606669,51.5616476],[-0.6029349,51.5676459],[-0.5656651,51.5596258],[-0.5637572,51.5527168],[-0.5516369,51.548462],[-0.5495833,51.5517696],[-0.5388155,51.5545615],[-0.5301007,51.558595],[-0.5312794,51.5607128],[-0.5353798,51.5720465],[-0.5409547,51.5673989],[-0.5591942,51.5679011],[-0.5708446,51.571325],[-0.5710748,51.5756495],[-0.5778121,51.5774472],[-0.5797896,51.5750474],[-0.5862622,51.5816196],[-0.6065806,51.5879426]]],"type":"Polygon"},"id":"E02003691","properties":{"code":"E02003691","geography":"MSOA","name":"Buckinghamshire 063"},"type":"Feature"},{"geometry":{"coordinates":[[[-0.5388155,51.5545615],[-0.5495833,51.5517696],[-0.5516369,51.548462],[-0.5637572,51.5527168],[-0.5656651,51.5596258],[-0.6029349,51.5676459],[-0.606669,51.5616476],[-0.6059723,51.5418639],[-0.6083522,51.5389372],[-0.6197334,51.5379246],[-0.6177572,51.534625],[-0.6105545,51.5315001],[-0.5962397,51.5279278],[-0.5950398,51.5242733],[-0.5898441,51.5226725],[-0.5810114,51.5230731],[-0.5761706,51.5338993],[-0.5672201,51.5329875],[-0.5679197,51.5302624],[-0.5751135,51.5292979],[-0.5650377,51.5206759],[-0.5687055,51.511379],[-0.5688054,51.51125],[-0.5280951,51.5097093],[-0.5160456,51.5115078],[-0.5253403,51.514438],[-0.5245664,51.5337981],[-0.5350495,51.5366357],[-0.5388155,51.5545615]]],"type":"Polygon"},"id":"E02003692","properties":{"code":"E02003692","geography":"MSOA","name":"Buckinghamshire 064"},"type":"Feature"},{"geometry":{"coordinates":[[[-0.6265563,51.5790722],[-0.6334488,51.5816788],[-0.6552993,51.5788829],[-0.6586449,51.5821115],[-0.6726791,51.5812274],[-0.6765907,51.5769807],[-0.6721562,51.5726823],[-0.6781524,51.5637059],[-0.694196,51.5621724],[-0.6926969,51.5440224],[-0.6980425,51.537255],[-0.7031828,51.5111045],[-0.6884845,51.5084704],[-0.6785163,51.4945623],[-0.6623016,51.4879243],[-0.6517467,51.4854817],[-0.641464,51.4901978],[-0.6338474,51.4927001],[-0.6444523,51.4964763],[-0.6422297,51.5006251],[-0.6430231,51.5026711],[-0.6535473,51.500447],[-0.6539427,51.504233],[-0.6593378,51.5049063],[-0.6539513,51.5122334],[-0.6550239,51.5188061],[-0.6601562,51.5204205],[-0.6597295,51.5223864],[-0.6756045,51.5218659],[-0.676558,51.531787],[-0.6708968,51.5324186],[-0.6681058,51.536914],[-0.664312,51.5345654],[-0.6632632,51.5399528],[-0.6479243,51.5325668],[-0.6432324,51.5368071],[-0.6247392,51.537986],[-0.6188666,51.5629313],[-0.6265563,51.5790722]]],"type":"Polygon"},"id":"E02003693","properties":{"code":"E02003693","geography":"MSOA","name":"Buckinghamshire 065"},"type":"Feature"},{"geometry":{"coordinates":[[[-0.6479243,51.5325668],[-0.6632632,51.5399528],[-0.664312,51.5345654],[-0.6681058,51.536914],[-0.6708968,51.5324186],[-0.676558,51.531787],[-0.6756045,51.5218659],[-0.6597295,51.5223864],[-0.6599013,51.5283357],[-0.6522357,51.5301651],[-0.6479243,51.5325668]]],"type":"Polygon"},"id":"E02003694","properties":{"code":"E02003694","geography":"MSOA","name":"Buckinghamshire 066"},"type":"Feature"},{"geometry":{"coordinates":[[[-0.4910956,51.5445295],[-0.4974417,51.5445432],[-0.5084182,51.5534041],[-0.5301007,51.558595],[-0.5388155,51.5545615],[-0.5350495,51.5366357],[-0.5245664,51.5337981],[-0.5253403,51.514438],[-0.5160456,51.5115078],[-0.5280951,51.5097093],[-0.5289262,51.5015097],[-0.5322958,51.4933547],[-0.4900504,51.4947338],[-0.4832752,51.5066019],[-0.4855565,51.5100268],[-0.4923505,51.5170756],[-0.4889961,51.5290982],[-0.4955104,51.5384275],[-0.4910956,51.5445295]]],"type":"Polygon"},"id":"E02003695","properties":{"code":"E02003695","geography":"MSOA","name":"Buckinghamshire 067"},"type":"Feature"},{"geometry":{"coordinates":[[[-0.8375132,51.708762],[-0.8204096,51.7138249],[-0.8228065,51.7195229],[-0.8112555,51.7235421],[-0.8102097,51.7267345],[-0.8003935,51.7254774],[-0.8022829,51.7239916],[-0.7911782,51.7195324],[-0.7852662,51.7199783],[-0.7786081,51.7247675],[-0.779398,51.7307414],[-0.8042783,51.7331937],[-0.8158209,51.7387926],[-0.8217137,51.7462693],[-0.8603035,51.7265696],[-0.844777,51.7148489],[-0.8375132,51.708762]]],"type":"Polygon"},"id":"E02003696","properties":{"code":"E02003696","geography":"MSOA","name":"Buckinghamshire 026"},"type":"Feature"},{"geometry":{"coordinates":[[[-0.7745444,51.7760551],[-0.7821873,51.7747892],[-0.7794597,51.7719957],[-0.7853331,51.7697554],[-0.7986016,51.7813703],[-0.8060041,51.7800232],[-0.8089585,51.7824458],[-0.8123481,51.7799561],[-0.8268995,51.7808251],[-0.8393923,51.7779351],[-0.835091,51.769024],[-0.8530633,51.7697395],[-0.8624431,51.7672008],[-0.8564177,51.7608195],[-0.8769845,51.7480578],[-0.8906559,51.7518741],[-0.9045755,51.7517768],[-0.9041633,51.7467155],[-0.9128049,51.7370237],[-0.9040502,51.7319917],[-0.8908107,51.7403931],[-0.8743557,51.7337233],[-0.8522488,51.7154365],[-0.844777,51.7148489],[-0.8603035,51.7265696],[-0.8217137,51.7462693],[-0.8158209,51.7387926],[-0.8042783,51.7331937],[-0.779398,51.7307414],[-0.7786081,51.7247675],[-0.7852662,51.7199783],[-0.7911782,51.7195324],[-0.8022829,51.7239916],[-0.8003935,51.7254774],[-0.8102097,51.7267345],[-0.8112555,51.7235421],[-0.8228065,51.7195229],[-0.8204096,51.7138249],[-0.8375132,51.708762],[-0.8328788,51.6965576],[-0.821618,51.6905225],[-0.8224386,51.6881147],[-0.8115501,51.6833411],[-0.8025059,51.6861134],[-0.7941277,51.6784434],[-0.7743906,51.6954037],[-0.7579772,51.6939779],[-0.7621295,51.70236],[-0.7543891,51.7075304],[-0.7502283,51.7030919],[-0.7464844,51.7043159],[-0.7366616,51.7191557],[-0.7547242,51.7428573],[-0.7648103,51.7500523],[-0.7612295,51.7583703],[-0.7745444,51.7760551]]],"type":"Polygon"},"id":"E02003697","properties":{"code":"E02003697","geography":"MSOA","name":"Buckinghamshire 025"},"type":"Feature"},{"geometry":{"coordinates":[[[-0.7579772,51.6939779],[-0.7743906,51.6954037],[-0.7941277,51.6784434],[-0.7897964,51.6705765],[-0.7944999,51.6648518],[-0.7846218,51.663952],[-0.7739008,51.6567749],[-0.7648458,51.6569491],[-0.7577678,51.6462769],[-0.7507866,51.6469125],[-0.745141,51.645451],[-0.7274258,51.6506034],[-0.7263723,51.6582164],[-0.706886,51.6624557],[-0.7055868,51.6646951],[-0.7192954,51.6739464],[-0.7310388,51.6755413],[-0.7361102,51.6833656],[-0.74776,51.6848892],[-0.7579772,51.6939779]]],"type":"Polygon"},"id":"E02003698","properties":{"code":"E02003698","geography":"MSOA","name":"Buckinghamshire 033"},"type":"Feature"},{"geometry":{"coordinates":[[[-0.8799178,51.6808613],[-0.8867854,51.6813869],[-0.8979182,51.6763969],[-0.8841565,51.6737712],[-0.8777281,51.6683813],[-0.8947676,51.6682508],[-0.9104029,51.6738459],[-0.9177507,51.6723969],[-0.9249106,51.6654241],[-0.9322341,51.6648647],[-0.9231199,51.6569936],[-0.9272722,51.6514403],[-0.9294519,51.6557456],[-0.9331904,51.6525984],[-0.9463387,51.6537807],[-0.9450048,51.6497873],[-0.9507471,51.6507382],[-0.9375588,51.6416458],[-0.9354202,51.6356542],[-0.9202388,51.6234926],[-0.9160007,51.6325727],[-0.9183671,51.6420092],[-0.9137087,51.6376111],[-0.899317,51.6428487],[-0.8931392,51.6353937],[-0.8833539,51.6364663],[-0.8711827,51.6313847],[-0.8512559,51.6336815],[-0.845658,51.6404502],[-0.8519032,51.645223],[-0.8506319,51.6488101],[-0.8462423,51.6513764],[-0.8363568,51.6497844],[-0.8314935,51.6561759],[-0.8632265,51.6758689],[-0.8799178,51.6808613]]],"type":"Polygon"},"id":"E02003699","properties":{"code":"E02003699","geography":"MSOA","name":"Buckinghamshire 037"},"type":"Feature"},{"geometry":{"coordinates":[[[-0.7507866,51.6469125],[-0.7577678,51.6462769],[-0.7648458,51.6569491],[-0.7739008,51.6567749],[-0.7846218,51.663952],[-0.7944999,51.6648518],[-0.7988498,51.6579164],[-0.7810357,51.6490568],[-0.7906687,51.6449832],[-0.7827159,51.6407137],[-0.7711006,51.6379138],[-0.7611252,51.6343535],[-0.7524762,51.6324501],[-0.7507866,51.6469125]]],"type":"Polygon"},"id":"E02003701","properties":{"code":"E02003701","geography":"MSOA","name":"Buckinghamshire 038"},"type":"Feature"},{"geometry":{"coordinates":[[[-0.7827159,51.6407137],[-0.7906687,51.6449832],[-0.7810357,51.6490568],[-0.7988498,51.6579164],[-0.7944999,51.6648518],[-0.7897964,51.6705765],[-0.7941277,51.6784434],[-0.8025059,51.6861134],[-0.8115501,51.6833411],[-0.8224386,51.6881147],[-0.821618,51.6905225],[-0.8328788,51.6965576],[-0.8375132,51.708762],[-0.844777,51.7148489],[-0.8522488,51.7154365],[-0.8743557,51.7337233],[-0.8908107,51.7403931],[-0.9040502,51.7319917],[-0.8971877,51.7228442],[-0.8877051,51.7183392],[-0.8865882,51.7050863],[-0.8947952,51.6925189],[-0.8799178,51.6808613],[-0.8632265,51.6758689],[-0.8314935,51.6561759],[-0.8363568,51.6497844],[-0.8462423,51.6513764],[-0.8506319,51.6488101],[-0.8519032,51.645223],[-0.845658,51.6404502],[-0.8512559,51.6336815],[-0.8711827,51.6313847],[-0.8833539,51.6364663],[-0.8931392,51.6353937],[-0.899317,51.6428487],[-0.9137087,51.6376111],[-0.9183671,51.6420092],[-0.9160007,51.6325727],[-0.9202388,51.6234926],[-0.9354202,51.6356542],[-0.9500502,51.6289037],[-0.949814,51.6206746],[-0.9385863,51.6179396],[-0.9431755,51.6050303],[-0.9335242,51.6016232],[-0.9292726,51.6043209],[-0.9200919,51.6035866],[-0.9168883,51.5993095],[-0.9248996,51.5908853],[-0.9415498,51.5854578],[-0.9393596,51.5740111],[-0.9241553,51.5634114],[-0.9214144,51.5646441],[-0.9017211,51.5560827],[-0.9031523,51.5458619],[-0.8969016,51.5448602],[-0.8873898,51.5594683],[-0.8797425,51.5621245],[-0.8727672,51.560308],[-0.8625441,51.5490173],[-0.8427625,51.5447559],[-0.8376161,51.5469846],[-0.8289046,51.5456274],[-0.8249098,51.5501643],[-0.8304162,51.5522997],[-0.8234274,51.5604894],[-0.8170915,51.5610045],[-0.8120519,51.5802904],[-0.8175539,51.5831168],[-0.8227427,51.5937405],[-0.8433255,51.604204],[-0.8506449,51.6125611],[-0.8394863,51.6224605],[-0.8434713,51.6260322],[-0.833707,51.6253117],[-0.8279039,51.6307325],[-0.8220607,51.6275548],[-0.8142228,51.6299712],[-0.8126698,51.6304499],[-0.8090874,51.6265184],[-0.8110453,51.6299815],[-0.817037,51.6318631],[-0.8169902,51.6375516],[-0.7965553,51.6339943],[-0.7851408,51.6362591],[-0.7827159,51.6407137]]],"type":"Polygon"},"id":"E02003702","properties":{"code":"E02003702","geography":"MSOA","name":"Buckinghamshire 040"},"type":"Feature"},{"geometry":{"coordinates":[[[-0.7257577,51.6435292],[-0.7274258,51.6506034],[-0.745141,51.645451],[-0.7507866,51.6469125],[-0.7524762,51.6324501],[-0.7467571,51.630188],[-0.7446917,51.63256],[-0.7378766,51.6307992],[-0.7357875,51.6401905],[-0.7269726,51.6398367],[-0.7222098,51.6388789],[-0.7180875,51.6427944],[-0.7257577,51.6435292]]],"type":"Polygon"},"id":"E02003703","properties":{"code":"E02003703","geography":"MSOA","name":"Buckinghamshire 041"},"type":"Feature"},{"geometry":{"coordinates":[[[-0.6889883,51.6182532],[-0.6887216,51.6293094],[-0.6973282,51.6459834],[-0.7067839,51.6407839],[-0.7138311,51.6442883],[-0.7257577,51.6435292],[-0.7180875,51.6427944],[-0.7222098,51.6388789],[-0.7234835,51.6357479],[-0.719339,51.635262],[-0.7062995,51.6337297],[-0.7013109,51.6302971],[-0.7041272,51.6211452],[-0.711134,51.6184598],[-0.7091442,51.6147649],[-0.7042576,51.6124936],[-0.7034708,51.6157401],[-0.699706,51.6125551],[-0.6889883,51.6182532]]],"type":"Polygon"},"id":"E02003704","properties":{"code":"E02003704","geography":"MSOA","name":"Buckinghamshire 045"},"type":"Feature"},{"geometry":{"coordinates":[[[-0.7269726,51.6398367],[-0.7357875,51.6401905],[-0.7378766,51.6307992],[-0.7446917,51.63256],[-0.7467571,51.630188],[-0.7422253,51.6285417],[-0.7325403,51.6261656],[-0.7291269,51.6318808],[-0.7320697,51.635696],[-0.7269726,51.6398367]]],"type":"Polygon"},"id":"E02003705","properties":{"code":"E02003705","geography":"MSOA","name":"Buckinghamshire 042"},"type":"Feature"},{"geometry":{"coordinates":[[[-0.7222098,51.6388789],[-0.7269726,51.6398367],[-0.7320697,51.635696],[-0.7291269,51.6318808],[-0.7325403,51.6261656],[-0.7212323,51.6232307],[-0.719339,51.635262],[-0.7234835,51.6357479],[-0.7222098,51.6388789]]],"type":"Polygon"},"id":"E02003706","properties":{"code":"E02003706","geography":"MSOA","name":"Buckinghamshire 043"},"type":"Feature"},{"geometry":{"coordinates":[[[-0.7711006,51.6379138],[-0.7827159,51.6407137],[-0.7851408,51.6362591],[-0.7965553,51.6339943],[-0.8169902,51.6375516],[-0.817037,51.6318631],[-0.8110453,51.6299815],[-0.8090874,51.6265184],[-0.8066325,51.6216985],[-0.7981566,51.6261122],[-0.784412,51.620866],[-0.7824446,51.629846],[-0.7728548,51.632536],[-0.7711006,51.6379138]]],"type":"Polygon"},"id":"E02003707","properties":{"code":"E02003707","geography":"MSOA","name":"Buckinghamshire 044"},"type":"Feature"},{"geometry":{"coordinates":[[[-0.7611252,51.6343535],[-0.7711006,51.6379138],[-0.7728548,51.632536],[-0.7824446,51.629846],[-0.784412,51.620866],[-0.783703,51.620741],[-0.7696559,51.6316959],[-0.7634126,51.6299987],[-0.7611252,51.6343535]]],"type":"Polygon"},"id":"E02003708","properties":{"code":"E02003708","geography":"MSOA","name":"Buckinghamshire 046"},"type":"Feature"},{"geometry":{"coordinates":[[[-0.711134,51.6184598],[-0.7041272,51.6211452],[-0.7013109,51.6302971],[-0.7062995,51.6337297],[-0.719339,51.635262],[-0.7212323,51.6232307],[-0.711134,51.6184598]]],"type":"Polygon"},"id":"E02003709","properties":{"code":"E02003709","geography":"MSOA","name":"Buckinghamshire 048"},"type":"Feature"},{"geometry":{"coordinates":[[[-0.7524762,51.6324501],[-0.7611252,51.6343535],[-0.7634126,51.6299987],[-0.7696559,51.6316959],[-0.783703,51.620741],[-0.7825082,51.6157976],[-0.7701156,51.6149799],[-0.7684936,51.6122722],[-0.7464183,51.6141244],[-0.7392631,51.617776],[-0.7477422,51.6211065],[-0.7470307,51.6267169],[-0.7422253,51.6285417],[-0.7467571,51.630188],[-0.7524762,51.6324501]]],"type":"Polygon"},"id":"E02003710","properties":{"code":"E02003710","geography":"MSOA","name":"Buckinghamshire 049"},"type":"Feature"},{"geometry":{"coordinates":[[[-0.7325403,51.6261656],[-0.7422253,51.6285417],[-0.7470307,51.6267169],[-0.7477422,51.6211065],[-0.7392631,51.617776],[-0.7464183,51.6141244],[-0.7331312,51.6105322],[-0.7147265,51.6102602],[-0.7025588,51.6048569],[-0.699706,51.6125551],[-0.7034708,51.6157401],[-0.7042576,51.6124936],[-0.7091442,51.6147649],[-0.711134,51.6184598],[-0.7212323,51.6232307],[-0.7325403,51.6261656]]],"type":"Polygon"},"id":"E02003711","properties":{"code":"E02003711","geography":"MSOA","name":"Buckinghamshire 051"},"type":"Feature"},{"geometry":{"coordinates":[[[-0.8126698,51.6304499],[-0.8142228,51.6299712],[-0.8220607,51.6275548],[-0.8279039,51.6307325],[-0.833707,51.6253117],[-0.8434713,51.6260322],[-0.8394863,51.6224605],[-0.8506449,51.6125611],[-0.8433255,51.604204],[-0.8342172,51.610564],[-0.8192034,51.6096289],[-0.8138567,51.6180552],[-0.8169882,51.6210165],[-0.7911361,51.6105867],[-0.7684936,51.6122722],[-0.7701156,51.6149799],[-0.7825082,51.6157976],[-0.783703,51.620741],[-0.784412,51.620866],[-0.7981566,51.6261122],[-0.8066325,51.6216985],[-0.8090874,51.6265184],[-0.8126698,51.6304499]]],"type":"Polygon"},"id":"E02003712","properties":{"code":"E02003712","geography":"MSOA","name":"Buckinghamshire 052"},"type":"Feature"},{"geometry":{"coordinates":[[[-0.7025588,51.6048569],[-0.7147265,51.6102602],[-0.7331312,51.6105322],[-0.7315314,51.6062615],[-0.7235309,51.604729],[-0.7200392,51.5916788],[-0.7091297,51.5898549],[-0.6975358,51.5887891],[-0.6923454,51.5936026],[-0.6864582,51.5941236],[-0.7025588,51.6048569]]],"type":"Polygon"},"id":"E02003713","properties":{"code":"E02003713","geography":"MSOA","name":"Buckinghamshire 055"},"type":"Feature"},{"geometry":{"coordinates":[[[-0.6754004,51.6078532],[-0.6791002,51.6206018],[-0.6889883,51.6182532],[-0.699706,51.6125551],[-0.7025588,51.6048569],[-0.6864582,51.5941236],[-0.6923454,51.5936026],[-0.6975358,51.5887891],[-0.7020341,51.5797681],[-0.6890542,51.5747788],[-0.6765907,51.5769807],[-0.6726791,51.5812274],[-0.6694846,51.5927182],[-0.6801898,51.6048379],[-0.6754004,51.6078532]]],"type":"Polygon"},"id":"E02003714","properties":{"code":"E02003714","geography":"MSOA","name":"Buckinghamshire 056"},"type":"Feature"},{"geometry":{"coordinates":[[[-0.7684936,51.6122722],[-0.7911361,51.6105867],[-0.8169882,51.6210165],[-0.8138567,51.6180552],[-0.8192034,51.6096289],[-0.8342172,51.610564],[-0.8433255,51.604204],[-0.8227427,51.5937405],[-0.8175539,51.5831168],[-0.8120519,51.5802904],[-0.8170915,51.5610045],[-0.8234274,51.5604894],[-0.8304162,51.5522997],[-0.8249098,51.5501643],[-0.7910997,51.5528057],[-0.8039427,51.5629024],[-0.8006953,51.5702566],[-0.7945672,51.5749552],[-0.787726,51.5741172],[-0.7824277,51.5797088],[-0.7846024,51.5833263],[-0.780941,51.5841842],[-0.7789222,51.5813516],[-0.763196,51.5851264],[-0.7585217,51.5808569],[-0.7488242,51.5684255],[-0.7278828,51.5772396],[-0.7168641,51.5771861],[-0.7091297,51.5898549],[-0.7200392,51.5916788],[-0.7235309,51.604729],[-0.7315314,51.6062615],[-0.7331312,51.6105322],[-0.7464183,51.6141244],[-0.7684936,51.6122722]]],"type":"Polygon"},"id":"E02003715","properties":{"code":"E02003715","geography":"MSOA","name":"Buckinghamshire 057"},"type":"Feature"},{"geometry":{"coordinates":[[[-0.6975358,51.5887891],[-0.7091297,51.5898549],[-0.7168641,51.5771861],[-0.7112209,51.564321],[-0.7054869,51.5622427],[-0.6988318,51.5655877],[-0.694196,51.5621724],[-0.6781524,51.5637059],[-0.6721562,51.5726823],[-0.6765907,51.5769807],[-0.6890542,51.5747788],[-0.7020341,51.5797681],[-0.6975358,51.5887891]]],"type":"Polygon"},"id":"E02003716","properties":{"code":"E02003716","geography":"MSOA","name":"Buckinghamshire 060"},"type":"Feature"},{"geometry":{"coordinates":[[[-0.7585217,51.5808569],[-0.763196,51.5851264],[-0.7789222,51.5813516],[-0.780941,51.5841842],[-0.7846024,51.5833263],[-0.7824277,51.5797088],[-0.787726,51.5741172],[-0.7945672,51.5749552],[-0.8006953,51.5702566],[-0.8039427,51.5629024],[-0.7910997,51.5528057],[-0.7825357,51.556166],[-0.7732462,51.5673073],[-0.776161,51.5731096],[-0.7585217,51.5808569]]],"type":"Polygon"},"id":"E02003717","properties":{"code":"E02003717","geography":"MSOA","name":"Buckinghamshire 062"},"type":"Feature"},{"geometry":{"coordinates":[[[-0.7488242,51.5684255],[-0.7585217,51.5808569],[-0.776161,51.5731096],[-0.7732462,51.5673073],[-0.7574798,51.5648143],[-0.7488242,51.5684255]]],"type":"Polygon"},"id":"E02003718","properties":{"code":"E02003718","geography":"MSOA","name":"Buckinghamshire 061"},"type":"Feature"},{"geometry":{"coordinates":[[[-0.6515548,51.6743144],[-0.6689396,51.6750845],[-0.6686967,51.6770238],[-0.686612,51.6800226],[-0.6975013,51.6747861],[-0.716214,51.6765695],[-0.7192954,51.6739464],[-0.7055868,51.6646951],[-0.706886,51.6624557],[-0.691908,51.6548744],[-0.6973282,51.6459834],[-0.6887216,51.6293094],[-0.6889883,51.6182532],[-0.6791002,51.6206018],[-0.6754004,51.6078532],[-0.66103,51.6109],[-0.6539177,51.6182197],[-0.6427164,51.6190844],[-0.6402657,51.6347036],[-0.622246,51.6288625],[-0.6181131,51.6339934],[-0.6089313,51.6286278],[-0.5971775,51.6429563],[-0.6054327,51.6489434],[-0.6171038,51.6516317],[-0.6245551,51.6597099],[-0.6360797,51.6563071],[-0.6385102,51.6507742],[-0.6639978,51.660577],[-0.6640567,51.6673134],[-0.6515548,51.6743144]]],"type":"Polygon"},"id":"E02006823","properties":{"code":"E02006823","geography":"MSOA","name":"Buckinghamshire 039"},"type":"Feature"},{"geometry":{"coordinates":[[[-0.6973282,51.6459834],[-0.691908,51.6548744],[-0.706886,51.6624557],[-0.7263723,51.6582164],[-0.7274258,51.6506034],[-0.7257577,51.6435292],[-0.7138311,51.6442883],[-0.7067839,51.6407839],[-0.6973282,51.6459834]]],"type":"Polygon"},"id":"E02006824","properties":{"code":"E02006824","geography":"MSOA","name":"Buckinghamshire 036"},"type":"Feature"}],"type":"FeatureCollection"}
