{"features":[{"geometry":{"coordinates":[[[-0.8427625,51.5447559],[-0.8625441,51.5490173],[-0.8727672,51.560308],[-0.8797425,51.5621245],[-0.8873898,51.5594683],[-0.8969016,51.5448602],[-0.9001538,51.5366586],[-0.8839263,51.5271559],[-0.8782375,51.5230157],[-0.8802559,51.5117566],[-0.8700751,51.5041201],[-0.889758,51.4987788],[-0.8868965,51.4925871],[-0.881107,51.49131],[-0.8825673,51.4870707],[-0.8631539,51.4900879],[-0.8591626,51.4780828],[-0.8551194,51.4776136],[-0.8510614,51.4706444],[-0.8251966,51.4656697],[-0.8220081,51.4741171],[-0.8293748,51.4871958],[-0.8209583,51.4971752],[-0.8204605,51.4949879],[-0.8170853,51.4964304],[-0.8174093,51.5072356],[-0.8240755,51.5124774],[-0.8362052,51.5127484],[-0.8539258,51.5260706],[-0.8463049,51.5336617],[-0.8427625,51.5447559]]],"type":"Polygon"},"id":"E02003439","properties":{"code":"E02003439","geography":"MSOA","name":"Wokingham 001"},"type":"Feature"},{"geometry":{"coordinates":[[[-0.8510614,51.4706444],[-0.8551194,51.4776136],[-0.8591626,51.4780828],[-0.8631539,51.4900879],[-0.8825673,51.4870707],[-0.881107,51.49131],[-0.8868965,51.4925871],[-0.889758,51.4987788],[-0.8976709,51.4870437],[-0.8908172,51.4784665],[-0.8922687,51.4746677],[-0.883372,51.4691009],[-0.888812,51.4635506],[-0.8816922,51.4650817],[-0.8803495,51.4620053],[-0.8739611,51.4619631],[-0.8743311,51.471604],[-0.8658124,51.4743167],[-0.8622344,51.4685243],[-0.8555418,51.4697599],[-0.8538834,51.4675486],[-0.8510614,51.4706444]]],"type":"Polygon"},"id":"E02003440","properties":{"code":"E02003440","geography":"MSOA","name":"Wokingham 002"},"type":"Feature"},{"geometry":{"coordinates":[[[-0.883372,51.4691009],[-0.8922687,51.4746677],[-0.8908172,51.4784665],[-0.8976709,51.4870437],[-0.9082054,51.4839591],[-0.9106273,51.4768296],[-0.9268864,51.4672835],[-0.9282489,51.4612993],[-0.9210293,51.4588286],[-0.9059153,51.4536792],[-0.8902154,51.4545817],[-0.8896675,51.4595229],[-0.8991237,51.4646847],[-0.883372,51.4691009]]],"type":"Polygon"},"id":"E02003441","properties":{"code":"E02003441","geography":"MSOA","name":"Wokingham 003"},"type":"Feature"},{"geometry":{"coordinates":[[[-0.8510614,51.4706444],[-0.8538834,51.4675486],[-0.8555418,51.4697599],[-0.8622344,51.4685243],[-0.8658124,51.4743167],[-0.8743311,51.471604],[-0.8739611,51.4619631],[-0.8803495,51.4620053],[-0.8816922,51.4650817],[-0.888812,51.4635506],[-0.883372,51.4691009],[-0.8991237,51.4646847],[-0.8896675,51.4595229],[-0.8902154,51.4545817],[-0.8929622,51.4499627],[-0.8874236,51.4468666],[-0.8855233,51.4484956],[-0.8892588,51.4450918],[-0.8848761,51.4431923],[-0.871833,51.457014],[-0.8639079,51.4524855],[-0.8583469,51.4533013],[-0.8575798,51.4504839],[-0.8538831,51.4591385],[-0.8427086,51.4587483],[-0.8377577,51.4653375],[-0.8510614,51.4706444]]],"type":"Polygon"},"id":"E02003442","properties":{"code":"E02003442","geography":"MSOA","name":"Wokingham 004"},"type":"Feature"},{"geometry":{"coordinates":[[[-0.8902154,51.4545817],[-0.9059153,51.4536792],[-0.9210293,51.4588286],[-0.925474,51.4507974],[-0.9060102,51.4514081],[-0.9025388,51.4474397],[-0.9063127,51.4413766],[-0.8960897,51.4431594],[-0.8990282,51.446305],[-0.8929622,51.4499627],[-0.8902154,51.4545817]]],"type":"Polygon"},"id":"E02003443","properties":{"code":"E02003443","geography":"MSOA","name":"Wokingham 005"},"type":"Feature"},{"geometry":{"coordinates":[[[-0.9210293,51.4588286],[-0.9282489,51.4612993],[-0.9268864,51.4672835],[-0.9491883,51.4595123],[-0.9496451,51.458561],[-0.9372619,51.4536564],[-0.9310726,51.4471754],[-0.9284945,51.445161],[-0.9243162,51.4430347],[-0.9290224,51.441775],[-0.9292948,51.4333009],[-0.9204985,51.43268],[-0.9169949,51.43564],[-0.9103249,51.4339735],[-0.9078393,51.4382976],[-0.9002687,51.4376644],[-0.8981524,51.4390162],[-0.9203981,51.4415224],[-0.925474,51.4507974],[-0.9210293,51.4588286]]],"type":"Polygon"},"id":"E02003444","properties":{"code":"E02003444","geography":"MSOA","name":"Wokingham 006"},"type":"Feature"},{"geometry":{"coordinates":[[[-0.8929622,51.4499627],[-0.8990282,51.446305],[-0.8960897,51.4431594],[-0.9063127,51.4413766],[-0.9025388,51.4474397],[-0.9060102,51.4514081],[-0.925474,51.4507974],[-0.9203981,51.4415224],[-0.8981524,51.4390162],[-0.8900703,51.4398662],[-0.8848761,51.4431923],[-0.8892588,51.4450918],[-0.8855233,51.4484956],[-0.8874236,51.4468666],[-0.8929622,51.4499627]]],"type":"Polygon"},"id":"E02003445","properties":{"code":"E02003445","geography":"MSOA","name":"Wokingham 007"},"type":"Feature"},{"geometry":{"coordinates":[[[-0.9284945,51.445161],[-0.9324086,51.4409589],[-0.9448222,51.4455547],[-0.9481541,51.4392866],[-0.943537,51.4361106],[-0.933575,51.4284118],[-0.9328675,51.422892],[-0.9252454,51.4281361],[-0.9052484,51.4315539],[-0.9002687,51.4376644],[-0.9078393,51.4382976],[-0.9103249,51.4339735],[-0.9169949,51.43564],[-0.9204985,51.43268],[-0.9292948,51.4333009],[-0.9290224,51.441775],[-0.9243162,51.4430347],[-0.9284945,51.445161]]],"type":"Polygon"},"id":"E02003446","properties":{"code":"E02003446","geography":"MSOA","name":"Wokingham 008"},"type":"Feature"},{"geometry":{"coordinates":[[[-0.882525,51.4180513],[-0.8687829,51.4239112],[-0.8796494,51.4267684],[-0.8771929,51.4303117],[-0.8726783,51.4283922],[-0.8637529,51.4314854],[-0.8596515,51.4293672],[-0.8575845,51.4321243],[-0.8757673,51.4386977],[-0.8900703,51.4398662],[-0.8981524,51.4390162],[-0.9002687,51.4376644],[-0.9052484,51.4315539],[-0.904067,51.4287939],[-0.9142746,51.4260447],[-0.9043764,51.4214428],[-0.8938181,51.4168812],[-0.8882063,51.4213558],[-0.882525,51.4180513]]],"type":"Polygon"},"id":"E02003447","properties":{"code":"E02003447","geography":"MSOA","name":"Wokingham 009"},"type":"Feature"},{"geometry":{"coordinates":[[[-0.8251966,51.4656697],[-0.8510614,51.4706444],[-0.8377577,51.4653375],[-0.8427086,51.4587483],[-0.8538831,51.4591385],[-0.8575798,51.4504839],[-0.8583469,51.4533013],[-0.8639079,51.4524855],[-0.871833,51.457014],[-0.8848761,51.4431923],[-0.8900703,51.4398662],[-0.8757673,51.4386977],[-0.8575845,51.4321243],[-0.8596515,51.4293672],[-0.8637529,51.4314854],[-0.8726783,51.4283922],[-0.8771929,51.4303117],[-0.8796494,51.4267684],[-0.8687829,51.4239112],[-0.882525,51.4180513],[-0.8765863,51.4129754],[-0.8620262,51.4220019],[-0.8548064,51.4180079],[-0.8464086,51.4158858],[-0.8427801,51.4143486],[-0.8390566,51.4173236],[-0.8395935,51.427589],[-0.8240151,51.425435],[-0.7990909,51.4132652],[-0.7966928,51.414458],[-0.800037,51.4411806],[-0.8181028,51.4431895],[-0.8283091,51.4620418],[-0.8337721,51.4640971],[-0.8251966,51.4656697]]],"type":"Polygon"},"id":"E02003448","properties":{"code":"E02003448","geography":"MSOA","name":"Wokingham 010"},"type":"Feature"},{"geometry":{"coordinates":[[[-0.9043764,51.4214428],[-0.9142746,51.4260447],[-0.904067,51.4287939],[-0.9052484,51.4315539],[-0.9252454,51.4281361],[-0.9328675,51.422892],[-0.9316512,51.4202272],[-0.9108141,51.4201759],[-0.9043764,51.4214428]]],"type":"Polygon"},"id":"E02003449","properties":{"code":"E02003449","geography":"MSOA","name":"Wokingham 011"},"type":"Feature"},{"geometry":{"coordinates":[[[-0.9328675,51.422892],[-0.933575,51.4284118],[-0.943537,51.4361106],[-0.947163,51.4258006],[-0.9646064,51.4117883],[-0.9500935,51.4119866],[-0.9503708,51.4097944],[-0.9619604,51.409154],[-0.9495285,51.400247],[-0.955243,51.3945968],[-0.9499507,51.389618],[-0.9415427,51.3945364],[-0.9398447,51.4000816],[-0.9108141,51.4201759],[-0.9316512,51.4202272],[-0.9328675,51.422892]]],"type":"Polygon"},"id":"E02003450","properties":{"code":"E02003450","geography":"MSOA","name":"Wokingham 012"},"type":"Feature"},{"geometry":{"coordinates":[[[-0.8240151,51.425435],[-0.8395935,51.427589],[-0.8390566,51.4173236],[-0.8427801,51.4143486],[-0.8464086,51.4158858],[-0.8434694,51.4126481],[-0.8475741,51.4124263],[-0.8462947,51.4068084],[-0.8376828,51.4089727],[-0.8338996,51.4065462],[-0.8304529,51.4089972],[-0.8213619,51.4092684],[-0.8186374,51.4137839],[-0.8246108,51.4174587],[-0.8240151,51.425435]]],"type":"Polygon"},"id":"E02003451","properties":{"code":"E02003451","geography":"MSOA","name":"Wokingham 013"},"type":"Feature"},{"geometry":{"coordinates":[[[-0.7966928,51.414458],[-0.7990909,51.4132652],[-0.8240151,51.425435],[-0.8246108,51.4174587],[-0.8186374,51.4137839],[-0.8213619,51.4092684],[-0.8304529,51.4089972],[-0.8275616,51.4072376],[-0.8310058,51.4039937],[-0.8018234,51.4075921],[-0.7925224,51.4088491],[-0.7966928,51.414458]]],"type":"Polygon"},"id":"E02003452","properties":{"code":"E02003452","geography":"MSOA","name":"Wokingham 014"},"type":"Feature"},{"geometry":{"coordinates":[[[-0.8548064,51.4180079],[-0.8620262,51.4220019],[-0.8765863,51.4129754],[-0.8824537,51.4044087],[-0.8913967,51.4009376],[-0.8907614,51.3947773],[-0.8864059,51.3836856],[-0.8713307,51.3802119],[-0.8647418,51.3845972],[-0.8678782,51.3856131],[-0.8643015,51.3924695],[-0.867787,51.3977559],[-0.8610733,51.4028673],[-0.8629746,51.4096189],[-0.8548064,51.4180079]]],"type":"Polygon"},"id":"E02003453","properties":{"code":"E02003453","geography":"MSOA","name":"Wokingham 015"},"type":"Feature"},{"geometry":{"coordinates":[[[-0.8464086,51.4158858],[-0.8548064,51.4180079],[-0.8629746,51.4096189],[-0.8610733,51.4028673],[-0.867787,51.3977559],[-0.8643015,51.3924695],[-0.8548507,51.3941848],[-0.8461362,51.4008558],[-0.8423189,51.3994821],[-0.8468043,51.3875773],[-0.832679,51.3904391],[-0.8366498,51.3990076],[-0.8290016,51.3999322],[-0.8310058,51.4039937],[-0.8275616,51.4072376],[-0.8304529,51.4089972],[-0.8338996,51.4065462],[-0.8376828,51.4089727],[-0.8462947,51.4068084],[-0.8475741,51.4124263],[-0.8434694,51.4126481],[-0.8464086,51.4158858]]],"type":"Polygon"},"id":"E02003454","properties":{"code":"E02003454","geography":"MSOA","name":"Wokingham 016"},"type":"Feature"},{"geometry":{"coordinates":[[[-0.9815119,51.4206581],[-0.9962906,51.4195929],[-1.001169,51.4263811],[-0.9997911,51.412746],[-1.0119052,51.3928657],[-0.9817456,51.3757477],[-0.9918112,51.3666647],[-0.9861437,51.3628473],[-0.98676,51.3598547],[-0.9391731,51.3631706],[-0.936009,51.3663162],[-0.9177672,51.3645557],[-0.9040102,51.3801513],[-0.9292094,51.3865609],[-0.9415427,51.3945364],[-0.9499507,51.389618],[-0.955243,51.3945968],[-0.9495285,51.400247],[-0.9619604,51.409154],[-0.9503708,51.4097944],[-0.9500935,51.4119866],[-0.9646064,51.4117883],[-0.9737217,51.4097796],[-0.9736598,51.4125478],[-0.9793599,51.4125238],[-0.9815119,51.4206581]]],"type":"Polygon"},"id":"E02003455","properties":{"code":"E02003455","geography":"MSOA","name":"Wokingham 017"},"type":"Feature"},{"geometry":{"coordinates":[[[-0.882525,51.4180513],[-0.8882063,51.4213558],[-0.8938181,51.4168812],[-0.9043764,51.4214428],[-0.9108141,51.4201759],[-0.9398447,51.4000816],[-0.9415427,51.3945364],[-0.9292094,51.3865609],[-0.9040102,51.3801513],[-0.9177672,51.3645557],[-0.9159028,51.3610838],[-0.9070832,51.359716],[-0.8778743,51.3525906],[-0.8700928,51.3537041],[-0.8827123,51.3618627],[-0.8768194,51.3645181],[-0.8774759,51.3597046],[-0.8658647,51.3618807],[-0.8708245,51.3673713],[-0.8586635,51.3720726],[-0.8536578,51.3795932],[-0.8602123,51.3815898],[-0.8601507,51.3784939],[-0.8661149,51.3789675],[-0.8601533,51.3766712],[-0.8683595,51.3759042],[-0.8713307,51.3802119],[-0.8864059,51.3836856],[-0.8907614,51.3947773],[-0.8913967,51.4009376],[-0.8824537,51.4044087],[-0.8765863,51.4129754],[-0.882525,51.4180513]]],"type":"Polygon"},"id":"E02003456","properties":{"code":"E02003456","geography":"MSOA","name":"Wokingham 018"},"type":"Feature"},{"geometry":{"coordinates":[[[-0.832679,51.3904391],[-0.8468043,51.3875773],[-0.8423189,51.3994821],[-0.8461362,51.4008558],[-0.8548507,51.3941848],[-0.8643015,51.3924695],[-0.8678782,51.3856131],[-0.8647418,51.3845972],[-0.8713307,51.3802119],[-0.8683595,51.3759042],[-0.8601533,51.3766712],[-0.8661149,51.3789675],[-0.8601507,51.3784939],[-0.8602123,51.3815898],[-0.8536578,51.3795932],[-0.8586635,51.3720726],[-0.8708245,51.3673713],[-0.8658647,51.3618807],[-0.8774759,51.3597046],[-0.8768194,51.3645181],[-0.8827123,51.3618627],[-0.8700928,51.3537041],[-0.8477188,51.3525299],[-0.8373662,51.352871],[-0.8221033,51.3661756],[-0.832679,51.3904391]]],"type":"Polygon"},"id":"E02003457","properties":{"code":"E02003457","geography":"MSOA","name":"Wokingham 019"},"type":"Feature"},{"geometry":{"coordinates":[[[-0.8007711,51.4038461],[-0.8018234,51.4075921],[-0.8310058,51.4039937],[-0.8290016,51.3999322],[-0.8366498,51.3990076],[-0.832679,51.3904391],[-0.8221033,51.3661756],[-0.8135881,51.3703183],[-0.7890278,51.3717435],[-0.7931416,51.3846075],[-0.8007711,51.4038461]]],"type":"Polygon"},"id":"E02003458","properties":{"code":"E02003458","geography":"MSOA","name":"Wokingham 020"},"type":"Feature"}],"type":"FeatureCollection"}
