{"features":[{"geometry":{"coordinates":[[[-0.6681536,52.1950212],[-0.6846716,52.1963231],[-0.7054726,52.1915581],[-0.7497527,52.1668651],[-0.7568281,52.167438],[-0.7620649,52.1634346],[-0.7653492,52.1710871],[-0.7779928,52.1687201],[-0.792109,52.151317],[-0.7557327,52.1260717],[-0.7437944,52.1320229],[-0.7324917,52.1319265],[-0.7235001,52.1439716],[-0.7110346,52.1455396],[-0.7048198,52.149988],[-0.6969667,52.148351],[-0.6953601,52.1430497],[-0.685597,52.1381742],[-0.6631873,52.1391731],[-0.6519733,52.1329809],[-0.6419575,52.1359954],[-0.6271593,52.1352725],[-0.6346424,52.1379612],[-0.6408103,52.1523995],[-0.6306553,52.1549893],[-0.6349253,52.1681218],[-0.6282735,52.1725243],[-0.6274648,52.1815336],[-0.6395286,52.1834228],[-0.6431785,52.1888322],[-0.6574656,52.1897628],[-0.6681536,52.1950212]]],"type":"Polygon"},"id":"E02003459","properties":{"code":"E02003459","geography":"MSOA","name":"Milton Keynes 001"},"type":"Feature"},{"geometry":{"coordinates":[[[-0.792109,52.151317],[-0.8019737,52.158666],[-0.8076051,52.1569662],[-0.8092963,52.15],[-0.8140585,52.1424597],[-0.8319834,52.1436706],[-0.8282219,52.1325979],[-0.8320718,52.1312461],[-0.8690179,52.1306067],[-0.8807198,52.1263253],[-0.8806995,52.1201778],[-0.8873195,52.1145176],[-0.8714671,52.1117407],[-0.865299,52.1029846],[-0.8678621,52.0994245],[-0.8579601,52.0975061],[-0.8547961,52.092342],[-0.8467299,52.0914965],[-0.8314368,52.0719353],[-0.822958,52.0745357],[-0.8078477,52.072973],[-0.803336,52.0729732],[-0.7980954,52.0674108],[-0.789215,52.0677757],[-0.7837001,52.0740517],[-0.7804529,52.0674825],[-0.7677869,52.0729698],[-0.7442241,52.0807642],[-0.7605009,52.0953692],[-0.7580594,52.0963892],[-0.7319961,52.1025613],[-0.7209563,52.0893395],[-0.7146535,52.0878498],[-0.7079293,52.0913923],[-0.700862,52.0854635],[-0.6956099,52.0856743],[-0.6963608,52.0829278],[-0.7033898,52.0778222],[-0.7290988,52.0724574],[-0.7109662,52.0634367],[-0.6871078,52.0542768],[-0.6693983,52.0485688],[-0.6689973,52.048706],[-0.6510292,52.0641325],[-0.6416044,52.0677102],[-0.6313784,52.080964],[-0.6058112,52.0921079],[-0.6039793,52.0991133],[-0.5967714,52.1016731],[-0.6018917,52.1050165],[-0.5918297,52.1106804],[-0.6070844,52.1337311],[-0.6271593,52.1352725],[-0.6419575,52.1359954],[-0.6519733,52.1329809],[-0.6631873,52.1391731],[-0.685597,52.1381742],[-0.6953601,52.1430497],[-0.6969667,52.148351],[-0.7048198,52.149988],[-0.7110346,52.1455396],[-0.7235001,52.1439716],[-0.7324917,52.1319265],[-0.7437944,52.1320229],[-0.7557327,52.1260717],[-0.792109,52.151317]]],"type":"Polygon"},"id":"E02003460","properties":{"code":"E02003460","geography":"MSOA","name":"Milton Keynes 002"},"type":"Feature"},{"geometry":{"coordinates":[[[-0.7209563,52.0893395],[-0.7319961,52.1025613],[-0.7580594,52.0963892],[-0.7605009,52.0953692],[-0.7442241,52.0807642],[-0.7409383,52.0788674],[-0.727947,52.0826802],[-0.7290025,52.0879546],[-0.7209563,52.0893395]]],"type":"Polygon"},"id":"E02003461","properties":{"code":"E02003461","geography":"MSOA","name":"Milton Keynes 003"},"type":"Feature"},{"geometry":{"coordinates":[[[-0.7290988,52.0724574],[-0.7033898,52.0778222],[-0.6963608,52.0829278],[-0.6956099,52.0856743],[-0.700862,52.0854635],[-0.7079293,52.0913923],[-0.7146535,52.0878498],[-0.7209563,52.0893395],[-0.7290025,52.0879546],[-0.727947,52.0826802],[-0.7409383,52.0788674],[-0.7291648,52.0724923],[-0.7290988,52.0724574]]],"type":"Polygon"},"id":"E02003462","properties":{"code":"E02003462","geography":"MSOA","name":"Milton Keynes 004"},"type":"Feature"},{"geometry":{"coordinates":[[[-0.7409383,52.0788674],[-0.7442241,52.0807642],[-0.7677869,52.0729698],[-0.7709655,52.0685943],[-0.7615037,52.0666275],[-0.7549187,52.0733468],[-0.7494162,52.0634312],[-0.7574969,52.0605823],[-0.7513877,52.0566789],[-0.7476672,52.0599061],[-0.7447842,52.0586948],[-0.738738,52.0611471],[-0.745128,52.0641789],[-0.738775,52.0665692],[-0.7463474,52.0691406],[-0.7441281,52.0733607],[-0.7333947,52.0695595],[-0.7291648,52.0724923],[-0.7409383,52.0788674]]],"type":"Polygon"},"id":"E02003463","properties":{"code":"E02003463","geography":"MSOA","name":"Milton Keynes 005"},"type":"Feature"},{"geometry":{"coordinates":[[[-0.7677869,52.0729698],[-0.7804529,52.0674825],[-0.7837001,52.0740517],[-0.789215,52.0677757],[-0.7925721,52.0616839],[-0.7870637,52.0627782],[-0.785116,52.056482],[-0.7806983,52.0551755],[-0.773311,52.0575101],[-0.7767777,52.0591114],[-0.7750233,52.0635258],[-0.7618279,52.0643922],[-0.7615037,52.0666275],[-0.7709655,52.0685943],[-0.7677869,52.0729698]]],"type":"Polygon"},"id":"E02003464","properties":{"code":"E02003464","geography":"MSOA","name":"Milton Keynes 006"},"type":"Feature"},{"geometry":{"coordinates":[[[-0.7291648,52.0724923],[-0.7333947,52.0695595],[-0.7441281,52.0733607],[-0.7463474,52.0691406],[-0.738775,52.0665692],[-0.745128,52.0641789],[-0.738738,52.0611471],[-0.7447842,52.0586948],[-0.7401766,52.054011],[-0.7451164,52.0547596],[-0.7461228,52.0511109],[-0.7148916,52.0545297],[-0.7109662,52.0634367],[-0.7290988,52.0724574],[-0.7291648,52.0724923]]],"type":"Polygon"},"id":"E02003465","properties":{"code":"E02003465","geography":"MSOA","name":"Milton Keynes 007"},"type":"Feature"},{"geometry":{"coordinates":[[[-0.789215,52.0677757],[-0.7980954,52.0674108],[-0.803336,52.0729732],[-0.8078477,52.072973],[-0.8058017,52.0679506],[-0.8102557,52.0668615],[-0.8054855,52.0641983],[-0.8177207,52.0624333],[-0.8209254,52.0568105],[-0.8165891,52.057126],[-0.8116537,52.0527688],[-0.8007925,52.0556684],[-0.8027101,52.0614032],[-0.7925721,52.0616839],[-0.789215,52.0677757]]],"type":"Polygon"},"id":"E02003466","properties":{"code":"E02003466","geography":"MSOA","name":"Milton Keynes 008"},"type":"Feature"},{"geometry":{"coordinates":[[[-0.7447842,52.0586948],[-0.7476672,52.0599061],[-0.7513877,52.0566789],[-0.7574969,52.0605823],[-0.7494162,52.0634312],[-0.7549187,52.0733468],[-0.7615037,52.0666275],[-0.7618279,52.0643922],[-0.7750233,52.0635258],[-0.7767777,52.0591114],[-0.773311,52.0575101],[-0.7636403,52.0443593],[-0.7628786,52.0495527],[-0.7533948,52.051792],[-0.7533546,52.054838],[-0.7451164,52.0547596],[-0.7401766,52.054011],[-0.7447842,52.0586948]]],"type":"Polygon"},"id":"E02003467","properties":{"code":"E02003467","geography":"MSOA","name":"Milton Keynes 009"},"type":"Feature"},{"geometry":{"coordinates":[[[-0.8078477,52.072973],[-0.822958,52.0745357],[-0.8314368,52.0719353],[-0.8395186,52.0638158],[-0.8592564,52.0636104],[-0.8630338,52.0602601],[-0.8558068,52.0531803],[-0.8541486,52.0555505],[-0.8479672,52.0542323],[-0.8429912,52.048667],[-0.8361318,52.0480757],[-0.8366577,52.0525693],[-0.8272683,52.0511305],[-0.8247651,52.0554843],[-0.8205319,52.0528747],[-0.8209254,52.0568105],[-0.8177207,52.0624333],[-0.8054855,52.0641983],[-0.8102557,52.0668615],[-0.8058017,52.0679506],[-0.8078477,52.072973]]],"type":"Polygon"},"id":"E02003468","properties":{"code":"E02003468","geography":"MSOA","name":"Milton Keynes 010"},"type":"Feature"},{"geometry":{"coordinates":[[[-0.7806983,52.0551755],[-0.785116,52.056482],[-0.7870637,52.0627782],[-0.7925721,52.0616839],[-0.8027101,52.0614032],[-0.8007925,52.0556684],[-0.7959423,52.0502743],[-0.7855544,52.0422888],[-0.7737529,52.0497203],[-0.7844294,52.0492609],[-0.7862943,52.0518904],[-0.7806983,52.0551755]]],"type":"Polygon"},"id":"E02003469","properties":{"code":"E02003469","geography":"MSOA","name":"Milton Keynes 011"},"type":"Feature"},{"geometry":{"coordinates":[[[-0.8007925,52.0556684],[-0.8116537,52.0527688],[-0.8165891,52.057126],[-0.8209254,52.0568105],[-0.8205319,52.0528747],[-0.8247651,52.0554843],[-0.8272683,52.0511305],[-0.8366577,52.0525693],[-0.8361318,52.0480757],[-0.8325324,52.046318],[-0.8284837,52.0486221],[-0.8119063,52.0463414],[-0.8111604,52.0485481],[-0.7959423,52.0502743],[-0.8007925,52.0556684]]],"type":"Polygon"},"id":"E02003470","properties":{"code":"E02003470","geography":"MSOA","name":"Milton Keynes 012"},"type":"Feature"},{"geometry":{"coordinates":[[[-0.7636403,52.0443593],[-0.773311,52.0575101],[-0.7806983,52.0551755],[-0.7862943,52.0518904],[-0.7844294,52.0492609],[-0.7737529,52.0497203],[-0.7855544,52.0422888],[-0.7875581,52.0411822],[-0.781947,52.0373756],[-0.7636403,52.0443593]]],"type":"Polygon"},"id":"E02003471","properties":{"code":"E02003471","geography":"MSOA","name":"Milton Keynes 013"},"type":"Feature"},{"geometry":{"coordinates":[[[-0.7135243,52.0471625],[-0.7148916,52.0545297],[-0.7461228,52.0511109],[-0.7451164,52.0547596],[-0.7533546,52.054838],[-0.7533948,52.051792],[-0.7628786,52.0495527],[-0.7636403,52.0443593],[-0.781947,52.0373756],[-0.7684113,52.0285194],[-0.7708048,52.0304018],[-0.7565299,52.0363678],[-0.7543477,52.0332977],[-0.7488549,52.0335168],[-0.7433489,52.0411441],[-0.7288647,52.0469934],[-0.7135243,52.0471625]]],"type":"Polygon"},"id":"E02003472","properties":{"code":"E02003472","geography":"MSOA","name":"Milton Keynes 014"},"type":"Feature"},{"geometry":{"coordinates":[[[-0.7855544,52.0422888],[-0.7959423,52.0502743],[-0.8111604,52.0485481],[-0.8119063,52.0463414],[-0.8284837,52.0486221],[-0.8325324,52.046318],[-0.8109751,52.037122],[-0.8042345,52.0341753],[-0.7973003,52.0373844],[-0.7906242,52.0319393],[-0.7861388,52.0357023],[-0.7895321,52.0371265],[-0.7875581,52.0411822],[-0.7855544,52.0422888]]],"type":"Polygon"},"id":"E02003473","properties":{"code":"E02003473","geography":"MSOA","name":"Milton Keynes 015"},"type":"Feature"},{"geometry":{"coordinates":[[[-0.7015443,52.0383417],[-0.7209156,52.0365837],[-0.7241751,52.0427858],[-0.7135243,52.0471625],[-0.7288647,52.0469934],[-0.7433489,52.0411441],[-0.7356522,52.0402456],[-0.7331092,52.0277595],[-0.7267634,52.0232634],[-0.7181265,52.0186758],[-0.7105847,52.0206331],[-0.7156804,52.026215],[-0.6998005,52.0333971],[-0.7015443,52.0383417]]],"type":"Polygon"},"id":"E02003474","properties":{"code":"E02003474","geography":"MSOA","name":"Milton Keynes 016"},"type":"Feature"},{"geometry":{"coordinates":[[[-0.7267634,52.0232634],[-0.7331092,52.0277595],[-0.7356522,52.0402456],[-0.7433489,52.0411441],[-0.7488549,52.0335168],[-0.7450559,52.0317451],[-0.7489954,52.0281421],[-0.7448545,52.0229832],[-0.7372541,52.0163936],[-0.7351874,52.0213019],[-0.7301229,52.0226709],[-0.7255584,52.0204012],[-0.7267634,52.0232634]]],"type":"Polygon"},"id":"E02003476","properties":{"code":"E02003476","geography":"MSOA","name":"Milton Keynes 018"},"type":"Feature"},{"geometry":{"coordinates":[[[-0.781947,52.0373756],[-0.7875581,52.0411822],[-0.7895321,52.0371265],[-0.7861388,52.0357023],[-0.7906242,52.0319393],[-0.7973003,52.0373844],[-0.8042345,52.0341753],[-0.8075084,52.0274],[-0.8032923,52.0295594],[-0.7886385,52.0235068],[-0.787068,52.0264651],[-0.7786611,52.0211713],[-0.7713962,52.0205694],[-0.7510327,52.012529],[-0.7502376,52.013072],[-0.7615589,52.0232486],[-0.7684113,52.0285194],[-0.781947,52.0373756]]],"type":"Polygon"},"id":"E02003478","properties":{"code":"E02003478","geography":"MSOA","name":"Milton Keynes 020"},"type":"Feature"},{"geometry":{"coordinates":[[[-0.7488549,52.0335168],[-0.7543477,52.0332977],[-0.7565299,52.0363678],[-0.7708048,52.0304018],[-0.7684113,52.0285194],[-0.7615589,52.0232486],[-0.7579097,52.0256999],[-0.7490414,52.0191783],[-0.7448545,52.0229832],[-0.7489954,52.0281421],[-0.7450559,52.0317451],[-0.7488549,52.0335168]]],"type":"Polygon"},"id":"E02003479","properties":{"code":"E02003479","geography":"MSOA","name":"Milton Keynes 021"},"type":"Feature"},{"geometry":{"coordinates":[[[-0.7101798,52.000678],[-0.6797948,52.0123958],[-0.683662,52.0146096],[-0.676303,52.0212792],[-0.6803976,52.0275337],[-0.6780808,52.0332227],[-0.6897301,52.0262467],[-0.6875925,52.021319],[-0.6955034,52.021468],[-0.6981705,52.0170268],[-0.711542,52.0163187],[-0.7101798,52.000678]]],"type":"Polygon"},"id":"E02003480","properties":{"code":"E02003480","geography":"MSOA","name":"Milton Keynes 022"},"type":"Feature"},{"geometry":{"coordinates":[[[-0.7448545,52.0229832],[-0.7490414,52.0191783],[-0.7579097,52.0256999],[-0.7615589,52.0232486],[-0.7502376,52.013072],[-0.7393495,52.003492],[-0.7358329,51.9938396],[-0.7339192,51.9978252],[-0.7291241,51.9977304],[-0.7263138,52.0025259],[-0.7224512,52.0010634],[-0.7166334,52.00635],[-0.7156408,52.0003061],[-0.7199111,52.0000403],[-0.7143541,51.9938633],[-0.7203004,51.9906614],[-0.713543,51.9896137],[-0.701583,51.9869505],[-0.7003365,51.9920292],[-0.7109559,51.9965362],[-0.7101798,52.000678],[-0.711542,52.0163187],[-0.7105847,52.0206331],[-0.7181265,52.0186758],[-0.7267634,52.0232634],[-0.7255584,52.0204012],[-0.7301229,52.0226709],[-0.7351874,52.0213019],[-0.7372541,52.0163936],[-0.7448545,52.0229832]]],"type":"Polygon"},"id":"E02003481","properties":{"code":"E02003481","geography":"MSOA","name":"Milton Keynes 023"},"type":"Feature"},{"geometry":{"coordinates":[[[-0.6452757,52.0103337],[-0.6510462,52.0184758],[-0.6403515,52.0236499],[-0.6448367,52.031207],[-0.6430748,52.037242],[-0.6689973,52.048706],[-0.6693983,52.0485688],[-0.6788417,52.0416103],[-0.6780808,52.0332227],[-0.6803976,52.0275337],[-0.676303,52.0212792],[-0.683662,52.0146096],[-0.6797948,52.0123958],[-0.7101798,52.000678],[-0.7109559,51.9965362],[-0.7003365,51.9920292],[-0.701583,51.9869505],[-0.6961721,51.9821969],[-0.6773486,51.9767122],[-0.6690856,51.9784782],[-0.6530011,51.9692203],[-0.6457044,51.9722185],[-0.6561951,51.9820161],[-0.6617119,51.9997264],[-0.6506793,52.0096598],[-0.6452757,52.0103337]]],"type":"Polygon"},"id":"E02003482","properties":{"code":"E02003482","geography":"MSOA","name":"Milton Keynes 024"},"type":"Feature"},{"geometry":{"coordinates":[[[-0.7713962,52.0205694],[-0.7786611,52.0211713],[-0.7956121,52.0117693],[-0.803446,52.0051338],[-0.808653,52.0082379],[-0.8122632,52.006006],[-0.8061795,51.993815],[-0.7989696,52.0037581],[-0.7954429,52.001248],[-0.7860793,52.0032828],[-0.7778482,52.0081068],[-0.7783293,52.0125557],[-0.7810169,52.0147386],[-0.7713109,52.0179351],[-0.7713962,52.0205694]]],"type":"Polygon"},"id":"E02003483","properties":{"code":"E02003483","geography":"MSOA","name":"Milton Keynes 025"},"type":"Feature"},{"geometry":{"coordinates":[[[-0.7510327,52.012529],[-0.7713962,52.0205694],[-0.7713109,52.0179351],[-0.7810169,52.0147386],[-0.7783293,52.0125557],[-0.7639256,52.002968],[-0.7510327,52.012529]]],"type":"Polygon"},"id":"E02003484","properties":{"code":"E02003484","geography":"MSOA","name":"Milton Keynes 026"},"type":"Feature"},{"geometry":{"coordinates":[[[-0.7393495,52.003492],[-0.7502376,52.013072],[-0.7510327,52.012529],[-0.7639256,52.002968],[-0.7540894,51.9975999],[-0.7493571,51.9971409],[-0.7393495,52.003492]]],"type":"Polygon"},"id":"E02003485","properties":{"code":"E02003485","geography":"MSOA","name":"Milton Keynes 027"},"type":"Feature"},{"geometry":{"coordinates":[[[-0.7639256,52.002968],[-0.7783293,52.0125557],[-0.7778482,52.0081068],[-0.7860793,52.0032828],[-0.7954429,52.001248],[-0.7989696,52.0037581],[-0.8061795,51.993815],[-0.8036803,51.9855133],[-0.789285,51.9879358],[-0.7639256,52.002968]]],"type":"Polygon"},"id":"E02003486","properties":{"code":"E02003486","geography":"MSOA","name":"Milton Keynes 028"},"type":"Feature"},{"geometry":{"coordinates":[[[-0.7540894,51.9975999],[-0.7639256,52.002968],[-0.789285,51.9879358],[-0.776299,51.9886158],[-0.7736488,51.9856231],[-0.768699,51.9893233],[-0.7540533,51.9912704],[-0.7540894,51.9975999]]],"type":"Polygon"},"id":"E02003487","properties":{"code":"E02003487","geography":"MSOA","name":"Milton Keynes 029"},"type":"Feature"},{"geometry":{"coordinates":[[[-0.7203004,51.9906614],[-0.7143541,51.9938633],[-0.7199111,52.0000403],[-0.7156408,52.0003061],[-0.7166334,52.00635],[-0.7224512,52.0010634],[-0.7263138,52.0025259],[-0.7291241,51.9977304],[-0.7339192,51.9978252],[-0.7358329,51.9938396],[-0.7352627,51.9902682],[-0.7288923,51.9830202],[-0.7244779,51.9878662],[-0.7275411,51.9899785],[-0.7203004,51.9906614]]],"type":"Polygon"},"id":"E02003488","properties":{"code":"E02003488","geography":"MSOA","name":"Milton Keynes 030"},"type":"Feature"},{"geometry":{"coordinates":[[[-0.7358329,51.9938396],[-0.7393495,52.003492],[-0.7493571,51.9971409],[-0.7540894,51.9975999],[-0.7540533,51.9912704],[-0.768699,51.9893233],[-0.7736488,51.9856231],[-0.7712271,51.9829032],[-0.7618018,51.9853301],[-0.7352627,51.9902682],[-0.7358329,51.9938396]]],"type":"Polygon"},"id":"E02003489","properties":{"code":"E02003489","geography":"MSOA","name":"Milton Keynes 031"},"type":"Feature"},{"geometry":{"coordinates":[[[-0.713543,51.9896137],[-0.7203004,51.9906614],[-0.7275411,51.9899785],[-0.7244779,51.9878662],[-0.7288923,51.9830202],[-0.7352627,51.9902682],[-0.7618018,51.9853301],[-0.7436692,51.9752373],[-0.7475764,51.9735477],[-0.7404013,51.9698531],[-0.7139637,51.9778612],[-0.7178929,51.9823554],[-0.713543,51.9896137]]],"type":"Polygon"},"id":"E02003490","properties":{"code":"E02003490","geography":"MSOA","name":"Milton Keynes 032"},"type":"Feature"},{"geometry":{"coordinates":[[[-0.6871078,52.0542768],[-0.7109662,52.0634367],[-0.7148916,52.0545297],[-0.7135243,52.0471625],[-0.7241751,52.0427858],[-0.7209156,52.0365837],[-0.7015443,52.0383417],[-0.6934325,52.0404859],[-0.6961029,52.0490802],[-0.6871078,52.0542768]]],"type":"Polygon"},"id":"E02007012","properties":{"code":"E02007012","geography":"MSOA","name":"Milton Keynes 033"},"type":"Feature"},{"geometry":{"coordinates":[[[-0.6693983,52.0485688],[-0.6871078,52.0542768],[-0.6961029,52.0490802],[-0.6934325,52.0404859],[-0.6788417,52.0416103],[-0.6693983,52.0485688]]],"type":"Polygon"},"id":"E02007013","properties":{"code":"E02007013","geography":"MSOA","name":"Milton Keynes 034"},"type":"Feature"},{"geometry":{"coordinates":[[[-0.6780808,52.0332227],[-0.6788417,52.0416103],[-0.6934325,52.0404859],[-0.7015443,52.0383417],[-0.6998005,52.0333971],[-0.7156804,52.026215],[-0.7105847,52.0206331],[-0.711542,52.0163187],[-0.6981705,52.0170268],[-0.6955034,52.021468],[-0.6875925,52.021319],[-0.6897301,52.0262467],[-0.6780808,52.0332227]]],"type":"Polygon"},"id":"E02007014","properties":{"code":"E02007014","geography":"MSOA","name":"Milton Keynes 035"},"type":"Feature"},{"geometry":{"coordinates":[[[-0.8361318,52.0480757],[-0.8429912,52.048667],[-0.8479672,52.0542323],[-0.8541486,52.0555505],[-0.8558068,52.0531803],[-0.8524558,52.0507466],[-0.8556046,52.0473389],[-0.8594849,52.0445867],[-0.8676765,52.0462445],[-0.8713437,52.0402403],[-0.8669696,52.0400871],[-0.8435113,52.0223624],[-0.8198366,52.0122759],[-0.8180169,52.0060617],[-0.8122632,52.006006],[-0.808653,52.0082379],[-0.803446,52.0051338],[-0.7956121,52.0117693],[-0.8140689,52.0118251],[-0.8076436,52.0179266],[-0.7990156,52.0154315],[-0.7944104,52.0190058],[-0.8058657,52.0239668],[-0.80431,52.0269892],[-0.8105819,52.0255655],[-0.8094116,52.0222472],[-0.8148152,52.0202029],[-0.8130604,52.0239569],[-0.821216,52.0289313],[-0.8109751,52.037122],[-0.8325324,52.046318],[-0.8361318,52.0480757]]],"type":"Polygon"},"id":"E02007015","properties":{"code":"E02007015","geography":"MSOA","name":"Milton Keynes 036"},"type":"Feature"},{"geometry":{"coordinates":[[[-0.8042345,52.0341753],[-0.8109751,52.037122],[-0.821216,52.0289313],[-0.8130604,52.0239569],[-0.8148152,52.0202029],[-0.8094116,52.0222472],[-0.8105819,52.0255655],[-0.80431,52.0269892],[-0.8058657,52.0239668],[-0.7944104,52.0190058],[-0.7990156,52.0154315],[-0.8076436,52.0179266],[-0.8140689,52.0118251],[-0.7956121,52.0117693],[-0.7786611,52.0211713],[-0.787068,52.0264651],[-0.7886385,52.0235068],[-0.8032923,52.0295594],[-0.8075084,52.0274],[-0.8042345,52.0341753]]],"type":"Polygon"},"id":"E02007016","properties":{"code":"E02007016","geography":"MSOA","name":"Milton Keynes 037"},"type":"Feature"}],"type":"FeatureCollection"}
