{"features":[{"geometry":{"coordinates":[[[[0.5644068,51.4079548],[0.5614913,51.4022338],[0.5825435,51.4031341],[0.5794358,51.4068828],[0.5745825,51.4050137],[0.5644068,51.4079548]]],[[[0.638885,51.4212652],[0.6338221,51.4238255],[0.6298548,51.4210501],[0.6369298,51.4196616],[0.638463,51.4164874],[0.638885,51.4212652]]],[[[0.6382876,51.4275977],[0.6365931,51.4294274],[0.6331231,51.4269548],[0.6382876,51.4275977]]],[[[0.6581158,51.4396229],[0.6529267,51.4402469],[0.6572586,51.4416137],[0.6540576,51.4423257],[0.650251,51.4390447],[0.6581158,51.4396229]]],[[[0.6585338,51.4479326],[0.6555002,51.4454372],[0.6611827,51.4437353],[0.6585338,51.4479326]]],[[[0.6104723,51.4794097],[0.5909712,51.4833773],[0.5857532,51.4844382],[0.5824618,51.4796461],[0.5813016,51.4803206],[0.5812669,51.4796301],[0.5721332,51.4780089],[0.5680894,51.4823435],[0.5660125,51.4783985],[0.5815281,51.4487109],[0.5879261,51.4458052],[0.5777162,51.4352757],[0.5653885,51.4406644],[0.5511071,51.4363174],[0.5549454,51.4277089],[0.5628393,51.4340452],[0.5724659,51.4256051],[0.5705557,51.4205647],[0.5656317,51.4214343],[0.5594723,51.416298],[0.5470058,51.4160699],[0.5469952,51.4120691],[0.5635048,51.4095412],[0.5766312,51.4157465],[0.5871723,51.4162581],[0.6108376,51.4174031],[0.6251508,51.4235794],[0.6182685,51.4286817],[0.6135631,51.4228942],[0.6051824,51.4204951],[0.6101091,51.4226158],[0.6124202,51.4296415],[0.6179992,51.4310917],[0.619516,51.4368813],[0.6288734,51.4376807],[0.6286672,51.4423576],[0.6331077,51.4449461],[0.629536,51.4416987],[0.6334059,51.4412519],[0.6357861,51.4462205],[0.6450837,51.4433822],[0.6559819,51.4492216],[0.6621926,51.447711],[0.663486,51.4436227],[0.6720661,51.4479296],[0.6689694,51.4437237],[0.676625,51.438786],[0.6754727,51.4335492],[0.7102562,51.4348137],[0.7232165,51.4434936],[0.722679,51.4537608],[0.7203567,51.4597336],[0.7031458,51.4712679],[0.6860105,51.4750921],[0.6712075,51.4721945],[0.6747252,51.4680474],[0.6712998,51.4690922],[0.6696648,51.4749997],[0.6599553,51.4776739],[0.642273,51.479065],[0.6152094,51.4750807],[0.6104723,51.4794097]]]],"type":"MultiPolygon"},"id":"E02003314","properties":{"code":"E02003314","geography":"MSOA","name":"Medway 001"},"type":"Feature"},{"geometry":{"coordinates":[[[0.530405,51.4851479],[0.481462,51.4871618],[0.4687139,51.4827706],[0.4578452,51.4669467],[0.467589,51.4642014],[0.4583203,51.4660086],[0.4542812,51.4634528],[0.4559007,51.4608855],[0.4571574,51.4605202],[0.4578345,51.4578196],[0.459272,51.4555402],[0.4584807,51.455242],[0.4585363,51.4550212],[0.4669392,51.4546354],[0.475736,51.4467664],[0.4879313,51.443284],[0.4909444,51.438677],[0.486329,51.4360253],[0.4911675,51.4247751],[0.4892073,51.4153262],[0.4751125,51.4129473],[0.4775875,51.4071862],[0.4855793,51.4084775],[0.4851936,51.4108565],[0.4954423,51.4110557],[0.4973106,51.415698],[0.5030207,51.4130596],[0.5080335,51.4146091],[0.5070646,51.4175904],[0.5173885,51.4266866],[0.5165991,51.4340968],[0.5219332,51.4356711],[0.5153448,51.4457352],[0.526978,51.4711524],[0.5227576,51.4709034],[0.5230401,51.475011],[0.5319229,51.4764879],[0.530405,51.4851479]]],"type":"Polygon"},"id":"E02003315","properties":{"code":"E02003315","geography":"MSOA","name":"Medway 002"},"type":"Feature"},{"geometry":{"coordinates":[[[[0.5284648,51.4073726],[0.5266228,51.4059386],[0.5273272,51.4058289],[0.5284648,51.4073726]]],[[[0.5536074,51.4849405],[0.5469776,51.4870445],[0.530555,51.4851417],[0.530405,51.4851479],[0.5319229,51.4764879],[0.5230401,51.475011],[0.5227576,51.4709034],[0.526978,51.4711524],[0.5153448,51.4457352],[0.5219332,51.4356711],[0.5165991,51.4340968],[0.5173885,51.4266866],[0.5247389,51.4181048],[0.5188616,51.4155406],[0.5255835,51.4104997],[0.5196946,51.4082792],[0.5289444,51.4080235],[0.5323567,51.4126531],[0.5469437,51.412077],[0.5469952,51.4120691],[0.5470058,51.4160699],[0.5594723,51.416298],[0.5656317,51.4214343],[0.5705557,51.4205647],[0.5724659,51.4256051],[0.5628393,51.4340452],[0.5549454,51.4277089],[0.5511071,51.4363174],[0.5653885,51.4406644],[0.5777162,51.4352757],[0.5879261,51.4458052],[0.5815281,51.4487109],[0.5660125,51.4783985],[0.5680894,51.4823435],[0.5721332,51.4780089],[0.5812669,51.4796301],[0.5813016,51.4803206],[0.574518,51.4842637],[0.5599259,51.4846939],[0.5545342,51.4813698],[0.5536074,51.4849405]]]],"type":"MultiPolygon"},"id":"E02003316","properties":{"code":"E02003316","geography":"MSOA","name":"Medway 003"},"type":"Feature"},{"geometry":{"coordinates":[[[[0.508769,51.3937875],[0.508615,51.3943387],[0.5082357,51.394191],[0.5079745,51.3940892],[0.5089641,51.3930894],[0.508769,51.3937875]]],[[[0.5188616,51.4155406],[0.5247389,51.4181048],[0.5173885,51.4266866],[0.5070646,51.4175904],[0.5080335,51.4146091],[0.5030207,51.4130596],[0.4973106,51.415698],[0.4954423,51.4110557],[0.4851936,51.4108565],[0.4855793,51.4084775],[0.4952655,51.406221],[0.5060111,51.40255],[0.5066344,51.3966171],[0.507088,51.3968563],[0.518428,51.3873938],[0.5192929,51.3879723],[0.5229572,51.3980094],[0.5162913,51.4010334],[0.5228831,51.3997972],[0.5273272,51.4058289],[0.5266228,51.4059386],[0.5284648,51.4073726],[0.5289444,51.4080235],[0.5196946,51.4082792],[0.5255835,51.4104997],[0.5188616,51.4155406]]]],"type":"MultiPolygon"},"id":"E02003317","properties":{"code":"E02003317","geography":"MSOA","name":"Medway 004"},"type":"Feature"},{"geometry":{"coordinates":[[[0.4952655,51.406221],[0.4855793,51.4084775],[0.4775875,51.4071862],[0.4681824,51.4031713],[0.4676868,51.3985374],[0.4853225,51.3965913],[0.489604,51.4015104],[0.4819996,51.4024964],[0.4875479,51.4045026],[0.4937491,51.4020259],[0.4952655,51.406221]]],"type":"Polygon"},"id":"E02003318","properties":{"code":"E02003318","geography":"MSOA","name":"Medway 005"},"type":"Feature"},{"geometry":{"coordinates":[[[0.5066344,51.3966171],[0.5060111,51.40255],[0.4952655,51.406221],[0.4937491,51.4020259],[0.4875479,51.4045026],[0.4819996,51.4024964],[0.489604,51.4015104],[0.4853225,51.3965913],[0.4876592,51.3963985],[0.4989678,51.3928282],[0.4996006,51.39293],[0.5066344,51.3966171]]],"type":"Polygon"},"id":"E02003319","properties":{"code":"E02003319","geography":"MSOA","name":"Medway 006"},"type":"Feature"},{"geometry":{"coordinates":[[[0.5552016,51.3990901],[0.5481904,51.4075981],[0.5371453,51.4103057],[0.5241584,51.387907],[0.5248044,51.3872232],[0.5355712,51.3887983],[0.5375027,51.382925],[0.5465824,51.3908464],[0.5459316,51.3964974],[0.5517622,51.3952737],[0.5552016,51.3990901]]],"type":"Polygon"},"id":"E02003320","properties":{"code":"E02003320","geography":"MSOA","name":"Medway 007"},"type":"Feature"},{"geometry":{"coordinates":[[[0.4853225,51.3965913],[0.4676868,51.3985374],[0.4518244,51.398321],[0.4566416,51.3942501],[0.4610661,51.3915287],[0.467461,51.3912586],[0.4702029,51.3952139],[0.4798799,51.3918402],[0.4876592,51.3963985],[0.4853225,51.3965913]]],"type":"Polygon"},"id":"E02003321","properties":{"code":"E02003321","geography":"MSOA","name":"Medway 008"},"type":"Feature"},{"geometry":{"coordinates":[[[0.5594642,51.3966722],[0.5586575,51.3962619],[0.5552016,51.3990901],[0.5517622,51.3952737],[0.5459316,51.3964974],[0.5465824,51.3908464],[0.5476267,51.3878833],[0.5515573,51.3906282],[0.5520567,51.3870081],[0.5569698,51.3871176],[0.5553488,51.3915933],[0.5635807,51.3911364],[0.5576238,51.3945497],[0.5594642,51.3966722]]],"type":"Polygon"},"id":"E02003322","properties":{"code":"E02003322","geography":"MSOA","name":"Medway 009"},"type":"Feature"},{"geometry":{"coordinates":[[[0.5820967,51.3903527],[0.5819647,51.3903806],[0.5609402,51.3948145],[0.5619026,51.3979124],[0.5594642,51.3966722],[0.5576238,51.3945497],[0.5635807,51.3911364],[0.5553488,51.3915933],[0.5569698,51.3871176],[0.56831,51.3845212],[0.5767817,51.3823735],[0.5819437,51.3883818],[0.5820967,51.3903527]]],"type":"Polygon"},"id":"E02003323","properties":{"code":"E02003323","geography":"MSOA","name":"Medway 010"},"type":"Feature"},{"geometry":{"coordinates":[[[0.4989678,51.3928282],[0.4876592,51.3963985],[0.4798799,51.3918402],[0.4702029,51.3952139],[0.467461,51.3912586],[0.4610661,51.3915287],[0.4756514,51.3764516],[0.4802783,51.379265],[0.4912702,51.3815972],[0.500076,51.3916474],[0.4919246,51.3916956],[0.4989678,51.3928282]]],"type":"Polygon"},"id":"E02003324","properties":{"code":"E02003324","geography":"MSOA","name":"Medway 011"},"type":"Feature"},{"geometry":{"coordinates":[[[0.5520567,51.3870081],[0.5515573,51.3906282],[0.5476267,51.3878833],[0.5465824,51.3908464],[0.5375027,51.382925],[0.5363922,51.3797517],[0.5545513,51.383322],[0.5494592,51.3859967],[0.5520567,51.3870081]]],"type":"Polygon"},"id":"E02003325","properties":{"code":"E02003325","geography":"MSOA","name":"Medway 012"},"type":"Feature"},{"geometry":{"coordinates":[[[0.56831,51.3845212],[0.5569698,51.3871176],[0.5520567,51.3870081],[0.5494592,51.3859967],[0.5545513,51.383322],[0.552968,51.3800924],[0.5584383,51.3743594],[0.5588664,51.3788941],[0.5665044,51.3777319],[0.56831,51.3845212]]],"type":"Polygon"},"id":"E02003326","properties":{"code":"E02003326","geography":"MSOA","name":"Medway 013"},"type":"Feature"},{"geometry":{"coordinates":[[[0.5086573,51.3830685],[0.5070453,51.3893535],[0.5018973,51.3917217],[0.5016821,51.3916378],[0.5013371,51.3916399],[0.500076,51.3916474],[0.4912702,51.3815972],[0.4802783,51.379265],[0.4853749,51.3739161],[0.4914619,51.3776033],[0.4997557,51.3755005],[0.5019549,51.3817778],[0.5086573,51.3830685]]],"type":"Polygon"},"id":"E02003327","properties":{"code":"E02003327","geography":"MSOA","name":"Medway 014"},"type":"Feature"},{"geometry":{"coordinates":[[[[0.5192929,51.3879723],[0.518428,51.3873938],[0.5189291,51.3869756],[0.5192929,51.3879723]]],[[[0.5109914,51.385833],[0.5089641,51.3930894],[0.5079745,51.3940892],[0.5019535,51.3917436],[0.5018973,51.3917217],[0.5070453,51.3893535],[0.5086573,51.3830685],[0.5107171,51.3791158],[0.5250228,51.3754416],[0.5345615,51.3757257],[0.5362087,51.3783802],[0.5363922,51.3797517],[0.5375027,51.382925],[0.5355712,51.3887983],[0.5248044,51.3872232],[0.5241584,51.387907],[0.5225156,51.3850718],[0.5109914,51.385833]]]],"type":"MultiPolygon"},"id":"E02003328","properties":{"code":"E02003328","geography":"MSOA","name":"Medway 015"},"type":"Feature"},{"geometry":{"coordinates":[[[0.552968,51.3800924],[0.5545513,51.383322],[0.5363922,51.3797517],[0.5362087,51.3783802],[0.552433,51.3735252],[0.552968,51.3800924]]],"type":"Polygon"},"id":"E02003329","properties":{"code":"E02003329","geography":"MSOA","name":"Medway 016"},"type":"Feature"},{"geometry":{"coordinates":[[[0.5107171,51.3791158],[0.5086573,51.3830685],[0.5019549,51.3817778],[0.4997557,51.3755005],[0.5012648,51.3680451],[0.5066312,51.3715079],[0.5100832,51.369005],[0.5106444,51.3756482],[0.5107171,51.3791158]]],"type":"Polygon"},"id":"E02003330","properties":{"code":"E02003330","geography":"MSOA","name":"Medway 017"},"type":"Feature"},{"geometry":{"coordinates":[[[0.5853602,51.3679399],[0.5960559,51.3747024],[0.5768211,51.3823633],[0.5793104,51.3781631],[0.5731342,51.3784348],[0.5695344,51.370762],[0.5853602,51.3679399]]],"type":"Polygon"},"id":"E02003331","properties":{"code":"E02003331","geography":"MSOA","name":"Medway 018"},"type":"Feature"},{"geometry":{"coordinates":[[[0.5767817,51.3823735],[0.56831,51.3845212],[0.5665044,51.3777319],[0.5588664,51.3788941],[0.5584383,51.3743594],[0.552968,51.3800924],[0.552433,51.3735252],[0.5551494,51.3652951],[0.5588344,51.3668899],[0.5695344,51.370762],[0.5731342,51.3784348],[0.5793104,51.3781631],[0.5768211,51.3823633],[0.5767817,51.3823735]]],"type":"Polygon"},"id":"E02003332","properties":{"code":"E02003332","geography":"MSOA","name":"Medway 019"},"type":"Feature"},{"geometry":{"coordinates":[[[0.552433,51.3735252],[0.5362087,51.3783802],[0.5345615,51.3757257],[0.5412084,51.3701661],[0.5457282,51.3707631],[0.5435605,51.369403],[0.5469888,51.3677149],[0.5547181,51.3639352],[0.5551494,51.3652951],[0.552433,51.3735252]]],"type":"Polygon"},"id":"E02003333","properties":{"code":"E02003333","geography":"MSOA","name":"Medway 020"},"type":"Feature"},{"geometry":{"coordinates":[[[0.5250228,51.3754416],[0.5107171,51.3791158],[0.5106444,51.3756482],[0.5157797,51.3727109],[0.5174017,51.3647302],[0.5187215,51.3648107],[0.5208134,51.372146],[0.5257951,51.3711694],[0.5250228,51.3754416]]],"type":"Polygon"},"id":"E02003334","properties":{"code":"E02003334","geography":"MSOA","name":"Medway 021"},"type":"Feature"},{"geometry":{"coordinates":[[[0.5435605,51.369403],[0.5457282,51.3707631],[0.5412084,51.3701661],[0.5345615,51.3757257],[0.5250228,51.3754416],[0.5257951,51.3711694],[0.532459,51.3661593],[0.5435605,51.369403]]],"type":"Polygon"},"id":"E02003335","properties":{"code":"E02003335","geography":"MSOA","name":"Medway 022"},"type":"Feature"},{"geometry":{"coordinates":[[[[0.6247818,51.3810636],[0.6347631,51.3856152],[0.6346105,51.3890884],[0.6192025,51.388487],[0.6219068,51.382764],[0.6177492,51.3791971],[0.6193211,51.3800223],[0.6237415,51.3787667],[0.6247818,51.3810636]]],[[[0.5971403,51.3878603],[0.6021153,51.3906342],[0.596966,51.3881943],[0.594609,51.3864487],[0.5926411,51.3903101],[0.5857076,51.3903028],[0.5823509,51.3902991],[0.5820967,51.3903527],[0.5819437,51.3883818],[0.5767817,51.3823735],[0.5768211,51.3823633],[0.5960559,51.3747024],[0.5853602,51.3679399],[0.5966214,51.3661152],[0.6053855,51.3642817],[0.6049903,51.3668377],[0.6178412,51.3680808],[0.6130007,51.3705391],[0.6173939,51.3746952],[0.6096185,51.3718355],[0.6084059,51.3742909],[0.6157287,51.3781363],[0.5987787,51.3847221],[0.5971403,51.3878603]]],[[[0.6146148,51.4004458],[0.6080849,51.4015429],[0.5950993,51.4002161],[0.5969857,51.3960795],[0.6033593,51.3938325],[0.6115319,51.3997358],[0.6152951,51.3953834],[0.6146148,51.4004458]]]],"type":"MultiPolygon"},"id":"E02003336","properties":{"code":"E02003336","geography":"MSOA","name":"Medway 023"},"type":"Feature"},{"geometry":{"coordinates":[[[0.4997557,51.3755005],[0.4914619,51.3776033],[0.4853749,51.3739161],[0.4802783,51.379265],[0.4756514,51.3764516],[0.4561905,51.3687586],[0.4796294,51.3574431],[0.4940406,51.3526546],[0.4988671,51.3536823],[0.4969658,51.3603557],[0.501045,51.3611697],[0.5025483,51.3666911],[0.5082593,51.3659896],[0.5100832,51.369005],[0.5066312,51.3715079],[0.5012648,51.3680451],[0.4997557,51.3755005]]],"type":"Polygon"},"id":"E02003337","properties":{"code":"E02003337","geography":"MSOA","name":"Medway 024"},"type":"Feature"},{"geometry":{"coordinates":[[[0.6237415,51.3787667],[0.6193211,51.3800223],[0.6177492,51.3791971],[0.6162684,51.3779265],[0.6157287,51.3781363],[0.6084059,51.3742909],[0.6096185,51.3718355],[0.6173939,51.3746952],[0.6130007,51.3705391],[0.6178412,51.3680808],[0.6049903,51.3668377],[0.6053855,51.3642817],[0.6149598,51.3619595],[0.6129023,51.3605138],[0.6305948,51.3609107],[0.6348793,51.3663696],[0.6232637,51.3692223],[0.6252761,51.3752099],[0.6250497,51.3752768],[0.622502,51.3760297],[0.6237415,51.3787667]]],"type":"Polygon"},"id":"E02003338","properties":{"code":"E02003338","geography":"MSOA","name":"Medway 025"},"type":"Feature"},{"geometry":{"coordinates":[[[0.5174017,51.3647302],[0.5157797,51.3727109],[0.5106444,51.3756482],[0.5100832,51.369005],[0.5082593,51.3659896],[0.5025483,51.3666911],[0.501045,51.3611697],[0.4969658,51.3603557],[0.4988671,51.3536823],[0.5003454,51.3540581],[0.5089617,51.3561758],[0.5174017,51.3647302]]],"type":"Polygon"},"id":"E02003339","properties":{"code":"E02003339","geography":"MSOA","name":"Medway 026"},"type":"Feature"},{"geometry":{"coordinates":[[[0.5257951,51.3711694],[0.5208134,51.372146],[0.5187215,51.3648107],[0.5234121,51.3506982],[0.5361652,51.3606147],[0.5469888,51.3677149],[0.5435605,51.369403],[0.532459,51.3661593],[0.5257951,51.3711694]]],"type":"Polygon"},"id":"E02003340","properties":{"code":"E02003340","geography":"MSOA","name":"Medway 027"},"type":"Feature"},{"geometry":{"coordinates":[[[0.4610661,51.3915287],[0.4566416,51.3942501],[0.4471155,51.3889583],[0.4310816,51.3880334],[0.4260318,51.3780304],[0.4196483,51.3755917],[0.4012027,51.3528658],[0.3998907,51.344458],[0.4066854,51.3477626],[0.4185657,51.3479127],[0.4540532,51.3408651],[0.4485835,51.3479984],[0.4566472,51.3521491],[0.4492694,51.3641544],[0.4561905,51.3687586],[0.4756514,51.3764516],[0.4610661,51.3915287]]],"type":"Polygon"},"id":"E02003341","properties":{"code":"E02003341","geography":"MSOA","name":"Medway 028"},"type":"Feature"},{"geometry":{"coordinates":[[[0.6053855,51.3642817],[0.5966214,51.3661152],[0.5879946,51.3586937],[0.594516,51.3573744],[0.597977,51.3535346],[0.6017329,51.3551769],[0.6129023,51.3605138],[0.6149598,51.3619595],[0.6053855,51.3642817]]],"type":"Polygon"},"id":"E02003342","properties":{"code":"E02003342","geography":"MSOA","name":"Medway 029"},"type":"Feature"},{"geometry":{"coordinates":[[[0.5853602,51.3679399],[0.5695344,51.370762],[0.5588344,51.3668899],[0.5784207,51.3608963],[0.5781432,51.3502262],[0.588784,51.3485316],[0.594516,51.3573744],[0.5879946,51.3586937],[0.5966214,51.3661152],[0.5853602,51.3679399]]],"type":"Polygon"},"id":"E02003343","properties":{"code":"E02003343","geography":"MSOA","name":"Medway 030"},"type":"Feature"},{"geometry":{"coordinates":[[[0.5547181,51.3639352],[0.5469888,51.3677149],[0.5361652,51.3606147],[0.5336608,51.3581392],[0.5400455,51.3549016],[0.5373417,51.3446212],[0.5570978,51.3365736],[0.5634283,51.3387432],[0.5678577,51.3477024],[0.5547181,51.3639352]]],"type":"Polygon"},"id":"E02003344","properties":{"code":"E02003344","geography":"MSOA","name":"Medway 031"},"type":"Feature"},{"geometry":{"coordinates":[[[0.6013751,51.3333016],[0.6038496,51.3362574],[0.6109198,51.3364744],[0.6305948,51.3609107],[0.6129023,51.3605138],[0.6017329,51.3551769],[0.5989005,51.3517637],[0.6021702,51.348305],[0.5957546,51.3429266],[0.5991817,51.3394717],[0.5910358,51.3340005],[0.6013751,51.3333016]]],"type":"Polygon"},"id":"E02003345","properties":{"code":"E02003345","geography":"MSOA","name":"Medway 032"},"type":"Feature"},{"geometry":{"coordinates":[[[0.5234121,51.3506982],[0.5187215,51.3648107],[0.5174017,51.3647302],[0.5089617,51.3561758],[0.5003454,51.3540581],[0.5030625,51.3546674],[0.5058123,51.3429434],[0.5118338,51.3409463],[0.5163742,51.3483367],[0.523443,51.346025],[0.5209362,51.3435168],[0.5287702,51.3476507],[0.5234121,51.3506982]]],"type":"Polygon"},"id":"E02003346","properties":{"code":"E02003346","geography":"MSOA","name":"Medway 033"},"type":"Feature"},{"geometry":{"coordinates":[[[0.5373417,51.3446212],[0.5400455,51.3549016],[0.5336608,51.3581392],[0.5361652,51.3606147],[0.5234121,51.3506982],[0.5287702,51.3476507],[0.5308458,51.3414718],[0.5373417,51.3446212]]],"type":"Polygon"},"id":"E02003347","properties":{"code":"E02003347","geography":"MSOA","name":"Medway 034"},"type":"Feature"},{"geometry":{"coordinates":[[[0.588784,51.3485316],[0.5781432,51.3502262],[0.5784207,51.3608963],[0.5588344,51.3668899],[0.5551494,51.3652951],[0.5547181,51.3639352],[0.5678577,51.3477024],[0.5634283,51.3387432],[0.5846352,51.3347302],[0.588784,51.3485316]]],"type":"Polygon"},"id":"E02003348","properties":{"code":"E02003348","geography":"MSOA","name":"Medway 035"},"type":"Feature"},{"geometry":{"coordinates":[[[0.6017329,51.3551769],[0.597977,51.3535346],[0.594516,51.3573744],[0.588784,51.3485316],[0.5846352,51.3347302],[0.5910358,51.3340005],[0.5991817,51.3394717],[0.5957546,51.3429266],[0.6021702,51.348305],[0.5989005,51.3517637],[0.6017329,51.3551769]]],"type":"Polygon"},"id":"E02003349","properties":{"code":"E02003349","geography":"MSOA","name":"Medway 036"},"type":"Feature"},{"geometry":{"coordinates":[[[0.5287702,51.3476507],[0.5209362,51.3435168],[0.523443,51.346025],[0.5163742,51.3483367],[0.5118338,51.3409463],[0.519302,51.3399356],[0.5256112,51.3347175],[0.5324241,51.3370439],[0.5308458,51.3414718],[0.5287702,51.3476507]]],"type":"Polygon"},"id":"E02003350","properties":{"code":"E02003350","geography":"MSOA","name":"Medway 037"},"type":"Feature"},{"geometry":{"coordinates":[[[0.5570978,51.3365736],[0.5373417,51.3446212],[0.5308458,51.3414718],[0.5324241,51.3370439],[0.5439768,51.3278972],[0.5546277,51.3320275],[0.5570978,51.3365736]]],"type":"Polygon"},"id":"E02003351","properties":{"code":"E02003351","geography":"MSOA","name":"Medway 038"},"type":"Feature"}],"type":"FeatureCollection"}
