{"features":[{"geometry":{"coordinates":[[[-1.6827024,51.6900486],[-1.6968441,51.6920381],[-1.7096736,51.6816533],[-1.7110688,51.67179],[-1.7193274,51.6698389],[-1.7224503,51.663049],[-1.7300557,51.662253],[-1.7368205,51.6573032],[-1.7337039,51.6485299],[-1.7245682,51.6412088],[-1.7371042,51.6311556],[-1.7323779,51.6272472],[-1.7402302,51.6228689],[-1.7389859,51.618875],[-1.7268867,51.6119323],[-1.7350837,51.6053999],[-1.7202939,51.6060275],[-1.7136459,51.604402],[-1.7142476,51.5978272],[-1.6977671,51.5970162],[-1.6904426,51.584386],[-1.6847725,51.5903699],[-1.6906299,51.6054485],[-1.6813332,51.6135603],[-1.6749686,51.6117498],[-1.667023,51.6162626],[-1.6737496,51.622848],[-1.6599681,51.6349883],[-1.6633212,51.6399279],[-1.6756829,51.6414232],[-1.6862871,51.652379],[-1.6919516,51.652162],[-1.6885086,51.6567853],[-1.6906366,51.6637806],[-1.7002027,51.6707386],[-1.6965315,51.682113],[-1.6827024,51.6900486]]],"type":"Polygon"},"id":"E02003212","properties":{"code":"E02003212","geography":"MSOA","name":"Swindon 001"},"type":"Feature"},{"geometry":{"coordinates":[[[-1.7787461,51.5967717],[-1.7900769,51.5969712],[-1.7969738,51.5906272],[-1.7906864,51.5889465],[-1.7844602,51.5839874],[-1.7752152,51.5852594],[-1.7738896,51.5909034],[-1.778576,51.5967357],[-1.7787461,51.5967717]]],"type":"Polygon"},"id":"E02003214","properties":{"code":"E02003214","geography":"MSOA","name":"Swindon 003"},"type":"Feature"},{"geometry":{"coordinates":[[[-1.7969738,51.5906272],[-1.8028198,51.5972001],[-1.814962,51.5940654],[-1.8197134,51.5924625],[-1.8154138,51.5892093],[-1.793988,51.5839171],[-1.7884285,51.5840548],[-1.7906864,51.5889465],[-1.7969738,51.5906272]]],"type":"Polygon"},"id":"E02003215","properties":{"code":"E02003215","geography":"MSOA","name":"Swindon 004"},"type":"Feature"},{"geometry":{"coordinates":[[[-1.7495393,51.6013834],[-1.7609354,51.60307],[-1.7634776,51.5968042],[-1.77143,51.5984297],[-1.7662081,51.5950359],[-1.778576,51.5967357],[-1.7738896,51.5909034],[-1.7752152,51.5852594],[-1.7757877,51.5812413],[-1.7612914,51.5792149],[-1.7500703,51.5929233],[-1.7495393,51.6013834]]],"type":"Polygon"},"id":"E02003216","properties":{"code":"E02003216","geography":"MSOA","name":"Swindon 005"},"type":"Feature"},{"geometry":{"coordinates":[[[-1.793988,51.5839171],[-1.8154138,51.5892093],[-1.8188604,51.5868498],[-1.8224055,51.5882532],[-1.8236356,51.5844627],[-1.8229463,51.5835607],[-1.8198112,51.5852058],[-1.8097432,51.579565],[-1.798596,51.5789138],[-1.7938003,51.5814422],[-1.7995126,51.5836402],[-1.793988,51.5839171]]],"type":"Polygon"},"id":"E02003217","properties":{"code":"E02003217","geography":"MSOA","name":"Swindon 006"},"type":"Feature"},{"geometry":{"coordinates":[[[-1.7752152,51.5852594],[-1.7844602,51.5839874],[-1.7906864,51.5889465],[-1.7884285,51.5840548],[-1.793988,51.5839171],[-1.7995126,51.5836402],[-1.7938003,51.5814422],[-1.798596,51.5789138],[-1.7987707,51.5754579],[-1.7923048,51.5771186],[-1.7939779,51.5722563],[-1.7873159,51.574941],[-1.7831191,51.5800502],[-1.7767602,51.578817],[-1.7757877,51.5812413],[-1.7752152,51.5852594]]],"type":"Polygon"},"id":"E02003218","properties":{"code":"E02003218","geography":"MSOA","name":"Swindon 007"},"type":"Feature"},{"geometry":{"coordinates":[[[-1.6904426,51.584386],[-1.6977671,51.5970162],[-1.7142476,51.5978272],[-1.7136459,51.604402],[-1.7202939,51.6060275],[-1.7350837,51.6053999],[-1.7268867,51.6119323],[-1.7389859,51.618875],[-1.7402302,51.6228689],[-1.7323779,51.6272472],[-1.7371042,51.6311556],[-1.7245682,51.6412088],[-1.7337039,51.6485299],[-1.7368205,51.6573032],[-1.7300557,51.662253],[-1.7224503,51.663049],[-1.7193274,51.6698389],[-1.7392251,51.6674229],[-1.7538052,51.6622127],[-1.7663321,51.6626813],[-1.7702799,51.6679618],[-1.7770006,51.6693879],[-1.7886285,51.6669988],[-1.7917378,51.6631035],[-1.799092,51.6625019],[-1.7885968,51.6327113],[-1.8063875,51.632717],[-1.8143284,51.6245043],[-1.8202004,51.627747],[-1.8390214,51.6166907],[-1.8423902,51.6121153],[-1.8398609,51.6071916],[-1.8363703,51.604313],[-1.8145185,51.6064836],[-1.8068375,51.6072677],[-1.7884753,51.6094472],[-1.7805608,51.6033654],[-1.7787461,51.5967717],[-1.778576,51.5967357],[-1.7662081,51.5950359],[-1.77143,51.5984297],[-1.7634776,51.5968042],[-1.7609354,51.60307],[-1.7495393,51.6013834],[-1.7410696,51.6007531],[-1.7441903,51.5944282],[-1.7297218,51.587495],[-1.7296901,51.5716862],[-1.7194728,51.560451],[-1.7233221,51.5410432],[-1.7319746,51.5433291],[-1.723754,51.5335595],[-1.719093,51.5007056],[-1.6677535,51.5052783],[-1.6343053,51.5129405],[-1.6284781,51.517364],[-1.623587,51.5141996],[-1.6028253,51.5182946],[-1.6137632,51.5365095],[-1.6340836,51.5532558],[-1.6477043,51.5719509],[-1.6550579,51.5765053],[-1.6765529,51.5694383],[-1.6840652,51.5729204],[-1.6904426,51.584386]]],"type":"Polygon"},"id":"E02003219","properties":{"code":"E02003219","geography":"MSOA","name":"Swindon 008"},"type":"Feature"},{"geometry":{"coordinates":[[[-1.7296901,51.5716862],[-1.7297218,51.587495],[-1.7441903,51.5944282],[-1.7410696,51.6007531],[-1.7495393,51.6013834],[-1.7500703,51.5929233],[-1.7612914,51.5792149],[-1.761502,51.5720662],[-1.756683,51.5669958],[-1.7484896,51.5639882],[-1.7457789,51.5712439],[-1.7339627,51.574112],[-1.7296901,51.5716862]]],"type":"Polygon"},"id":"E02003220","properties":{"code":"E02003220","geography":"MSOA","name":"Swindon 009"},"type":"Feature"},{"geometry":{"coordinates":[[[-1.7612914,51.5792149],[-1.7757877,51.5812413],[-1.7767602,51.578817],[-1.7831191,51.5800502],[-1.7873159,51.574941],[-1.78244,51.5666212],[-1.7758445,51.568621],[-1.761502,51.5720662],[-1.7612914,51.5792149]]],"type":"Polygon"},"id":"E02003221","properties":{"code":"E02003221","geography":"MSOA","name":"Swindon 010"},"type":"Feature"},{"geometry":{"coordinates":[[[-1.8263464,51.5794352],[-1.8308477,51.5817489],[-1.843156,51.5786576],[-1.8443592,51.5702118],[-1.850087,51.5680963],[-1.8469549,51.5658983],[-1.8385133,51.5629368],[-1.8351356,51.5665668],[-1.8403603,51.5700986],[-1.8328585,51.5777308],[-1.8313114,51.5746266],[-1.8171982,51.5731394],[-1.8263464,51.5794352]]],"type":"Polygon"},"id":"E02003222","properties":{"code":"E02003222","geography":"MSOA","name":"Swindon 011"},"type":"Feature"},{"geometry":{"coordinates":[[[-1.798596,51.5789138],[-1.8097432,51.579565],[-1.8198112,51.5852058],[-1.8229463,51.5835607],[-1.8263464,51.5794352],[-1.8171982,51.5731394],[-1.8188966,51.5675838],[-1.811595,51.5560366],[-1.8081444,51.5551023],[-1.7980915,51.560449],[-1.78244,51.5666212],[-1.7873159,51.574941],[-1.7939779,51.5722563],[-1.7923048,51.5771186],[-1.7987707,51.5754579],[-1.798596,51.5789138]]],"type":"Polygon"},"id":"E02003223","properties":{"code":"E02003223","geography":"MSOA","name":"Swindon 012"},"type":"Feature"},{"geometry":{"coordinates":[[[-1.7296901,51.5716862],[-1.7339627,51.574112],[-1.7457789,51.5712439],[-1.7484896,51.5639882],[-1.7394603,51.5609448],[-1.7280123,51.5614799],[-1.7272148,51.5582447],[-1.7235689,51.5627085],[-1.7194728,51.560451],[-1.7296901,51.5716862]]],"type":"Polygon"},"id":"E02003224","properties":{"code":"E02003224","geography":"MSOA","name":"Swindon 013"},"type":"Feature"},{"geometry":{"coordinates":[[[-1.8171982,51.5731394],[-1.8313114,51.5746266],[-1.8328585,51.5777308],[-1.8403603,51.5700986],[-1.8351356,51.5665668],[-1.8385133,51.5629368],[-1.8330462,51.558708],[-1.8278293,51.5605231],[-1.8264027,51.556331],[-1.8176819,51.5553505],[-1.8176712,51.5501252],[-1.8118689,51.5532524],[-1.811595,51.5560366],[-1.8188966,51.5675838],[-1.8171982,51.5731394]]],"type":"Polygon"},"id":"E02003225","properties":{"code":"E02003225","geography":"MSOA","name":"Swindon 014"},"type":"Feature"},{"geometry":{"coordinates":[[[-1.778777,51.5626567],[-1.7710975,51.562827],[-1.7758445,51.568621],[-1.78244,51.5666212],[-1.7980915,51.560449],[-1.7984906,51.5549286],[-1.7946058,51.555585],[-1.7836903,51.5627699],[-1.778777,51.5626567]]],"type":"Polygon"},"id":"E02003226","properties":{"code":"E02003226","geography":"MSOA","name":"Swindon 015"},"type":"Feature"},{"geometry":{"coordinates":[[[-1.7484896,51.5639882],[-1.756683,51.5669958],[-1.7660994,51.5613245],[-1.7587714,51.554769],[-1.7550663,51.5549964],[-1.7549739,51.5604477],[-1.7526053,51.5562052],[-1.7486963,51.5567437],[-1.7491318,51.560913],[-1.7431284,51.5592733],[-1.7450057,51.561964],[-1.7400595,51.5588237],[-1.7394603,51.5609448],[-1.7484896,51.5639882]]],"type":"Polygon"},"id":"E02003227","properties":{"code":"E02003227","geography":"MSOA","name":"Swindon 016"},"type":"Feature"},{"geometry":{"coordinates":[[[-1.756683,51.5669958],[-1.761502,51.5720662],[-1.7758445,51.568621],[-1.7710975,51.562827],[-1.778777,51.5626567],[-1.7805783,51.5592215],[-1.7754467,51.5591011],[-1.7755007,51.5548061],[-1.7590871,51.5530672],[-1.7587714,51.554769],[-1.7660994,51.5613245],[-1.756683,51.5669958]]],"type":"Polygon"},"id":"E02003228","properties":{"code":"E02003228","geography":"MSOA","name":"Swindon 017"},"type":"Feature"},{"geometry":{"coordinates":[[[-1.8385133,51.5629368],[-1.8469549,51.5658983],[-1.8469413,51.5657061],[-1.8451992,51.561717],[-1.8601137,51.5652423],[-1.8651229,51.5596018],[-1.8492967,51.553318],[-1.8395095,51.5505211],[-1.8370015,51.5547869],[-1.841335,51.5553271],[-1.8330462,51.558708],[-1.8385133,51.5629368]]],"type":"Polygon"},"id":"E02003229","properties":{"code":"E02003229","geography":"MSOA","name":"Swindon 018"},"type":"Feature"},{"geometry":{"coordinates":[[[-1.778777,51.5626567],[-1.7836903,51.5627699],[-1.7946058,51.555585],[-1.7875313,51.5523923],[-1.7769547,51.5524847],[-1.7755007,51.5548061],[-1.7754467,51.5591011],[-1.7805783,51.5592215],[-1.778777,51.5626567]]],"type":"Polygon"},"id":"E02003230","properties":{"code":"E02003230","geography":"MSOA","name":"Swindon 019"},"type":"Feature"},{"geometry":{"coordinates":[[[-1.7400595,51.5588237],[-1.7450057,51.561964],[-1.7431284,51.5592733],[-1.7491318,51.560913],[-1.7486963,51.5567437],[-1.7526053,51.5562052],[-1.7549739,51.5604477],[-1.7550663,51.5549964],[-1.7587714,51.554769],[-1.7590871,51.5530672],[-1.754775,51.5479637],[-1.7447443,51.5455035],[-1.7400595,51.5588237]]],"type":"Polygon"},"id":"E02003231","properties":{"code":"E02003231","geography":"MSOA","name":"Swindon 020"},"type":"Feature"},{"geometry":{"coordinates":[[[-1.7946058,51.555585],[-1.7984906,51.5549286],[-1.7980915,51.560449],[-1.8081444,51.5551023],[-1.811595,51.5560366],[-1.8118689,51.5532524],[-1.7972649,51.5438564],[-1.7801131,51.5452041],[-1.7769547,51.5524847],[-1.7875313,51.5523923],[-1.7946058,51.555585]]],"type":"Polygon"},"id":"E02003232","properties":{"code":"E02003232","geography":"MSOA","name":"Swindon 021"},"type":"Feature"},{"geometry":{"coordinates":[[[-1.8176712,51.5501252],[-1.8176819,51.5553505],[-1.8264027,51.556331],[-1.8278293,51.5605231],[-1.8330462,51.558708],[-1.841335,51.5553271],[-1.8370015,51.5547869],[-1.8395095,51.5505211],[-1.8492967,51.553318],[-1.8538331,51.5463006],[-1.8443746,51.543441],[-1.8379524,51.5424595],[-1.8176712,51.5501252]]],"type":"Polygon"},"id":"E02003233","properties":{"code":"E02003233","geography":"MSOA","name":"Swindon 022"},"type":"Feature"},{"geometry":{"coordinates":[[[-1.7194728,51.560451],[-1.7235689,51.5627085],[-1.7272148,51.5582447],[-1.7280123,51.5614799],[-1.7394603,51.5609448],[-1.7400595,51.5588237],[-1.7447443,51.5455035],[-1.7431192,51.5449697],[-1.7319746,51.5433291],[-1.7233221,51.5410432],[-1.7194728,51.560451]]],"type":"Polygon"},"id":"E02003234","properties":{"code":"E02003234","geography":"MSOA","name":"Swindon 023"},"type":"Feature"},{"geometry":{"coordinates":[[[-1.7590871,51.5530672],[-1.7755007,51.5548061],[-1.7769547,51.5524847],[-1.7801131,51.5452041],[-1.7972649,51.5438564],[-1.794771,51.5402852],[-1.7692074,51.5303355],[-1.7480577,51.5343363],[-1.7431192,51.5449697],[-1.7447443,51.5455035],[-1.754775,51.5479637],[-1.7590871,51.5530672]]],"type":"Polygon"},"id":"E02003235","properties":{"code":"E02003235","geography":"MSOA","name":"Swindon 024"},"type":"Feature"},{"geometry":{"coordinates":[[[-1.7972649,51.5438564],[-1.8118689,51.5532524],[-1.8176712,51.5501252],[-1.8379524,51.5424595],[-1.8443746,51.543441],[-1.8298646,51.5136834],[-1.8308049,51.5111429],[-1.8369834,51.5109025],[-1.8438345,51.5216549],[-1.8421854,51.5262643],[-1.8469142,51.5242818],[-1.8415153,51.5157037],[-1.8441525,51.5138354],[-1.8375937,51.5008375],[-1.8134593,51.5070416],[-1.8130555,51.4965355],[-1.7978068,51.4844463],[-1.793204,51.4861674],[-1.7743411,51.4824551],[-1.7747282,51.4845392],[-1.7668011,51.4860521],[-1.715749,51.4883836],[-1.719093,51.5007056],[-1.723754,51.5335595],[-1.7319746,51.5433291],[-1.7431192,51.5449697],[-1.7480577,51.5343363],[-1.7692074,51.5303355],[-1.794771,51.5402852],[-1.7972649,51.5438564]]],"type":"Polygon"},"id":"E02003236","properties":{"code":"E02003236","geography":"MSOA","name":"Swindon 025"},"type":"Feature"},{"geometry":{"coordinates":[[[-1.8145185,51.6064836],[-1.8363703,51.604313],[-1.8398609,51.6071916],[-1.8398566,51.5999109],[-1.8318676,51.5967272],[-1.8375723,51.5872403],[-1.8236356,51.5844627],[-1.8224055,51.5882532],[-1.8188604,51.5868498],[-1.8154138,51.5892093],[-1.8197134,51.5924625],[-1.814962,51.5940654],[-1.8146887,51.5953465],[-1.8274594,51.5948432],[-1.8145185,51.6064836]]],"type":"Polygon"},"id":"E02006847","properties":{"code":"E02006847","geography":"MSOA","name":"Swindon 026"},"type":"Feature"},{"geometry":{"coordinates":[[[-1.8146887,51.5953465],[-1.8030108,51.602405],[-1.8107368,51.602883],[-1.8068375,51.6072677],[-1.8145185,51.6064836],[-1.8274594,51.5948432],[-1.8146887,51.5953465]]],"type":"Polygon"},"id":"E02006848","properties":{"code":"E02006848","geography":"MSOA","name":"Swindon 027"},"type":"Feature"},{"geometry":{"coordinates":[[[-1.7787461,51.5967717],[-1.7805608,51.6033654],[-1.7884753,51.6094472],[-1.8068375,51.6072677],[-1.8107368,51.602883],[-1.8030108,51.602405],[-1.8146887,51.5953465],[-1.814962,51.5940654],[-1.8028198,51.5972001],[-1.7969738,51.5906272],[-1.7900769,51.5969712],[-1.7787461,51.5967717]]],"type":"Polygon"},"id":"E02006849","properties":{"code":"E02006849","geography":"MSOA","name":"Swindon 028"},"type":"Feature"}],"type":"FeatureCollection"}
