{"features":[{"geometry":{"coordinates":[[[-2.7388243,53.4011433],[-2.745204,53.401914],[-2.743396,53.3952694],[-2.7506472,53.3937721],[-2.7471061,53.3923767],[-2.7494598,53.3881612],[-2.7377651,53.3892063],[-2.7351216,53.3835747],[-2.7323015,53.3819867],[-2.726888,53.3842989],[-2.7171593,53.3811055],[-2.7175651,53.3780444],[-2.7065771,53.3763026],[-2.7050315,53.3829974],[-2.6906481,53.3852351],[-2.6906324,53.3853721],[-2.7049148,53.3867192],[-2.712732,53.3905845],[-2.7153235,53.3990128],[-2.7388243,53.4011433]]],"type":"Polygon"},"id":"E02002574","properties":{"code":"E02002574","geography":"MSOA","name":"Halton 001"},"type":"Feature"},{"geometry":{"coordinates":[[[-2.7351216,53.3835747],[-2.7377651,53.3892063],[-2.7494598,53.3881612],[-2.7602701,53.3843196],[-2.7576537,53.3807221],[-2.7676654,53.3837697],[-2.7726048,53.3819969],[-2.7649136,53.3787205],[-2.7653653,53.3740182],[-2.7614091,53.3745959],[-2.7489763,53.3764277],[-2.7330397,53.3787675],[-2.7351216,53.3835747]]],"type":"Polygon"},"id":"E02002575","properties":{"code":"E02002575","geography":"MSOA","name":"Halton 002"},"type":"Feature"},{"geometry":{"coordinates":[[[-2.6923018,53.3615124],[-2.6977244,53.3792971],[-2.6906481,53.3852351],[-2.7050315,53.3829974],[-2.7065771,53.3763026],[-2.7175651,53.3780444],[-2.7171593,53.3811055],[-2.7229769,53.3802428],[-2.7283395,53.3742453],[-2.7252003,53.3726764],[-2.7182489,53.3720425],[-2.713585,53.3575645],[-2.713147,53.3576547],[-2.7124133,53.3578057],[-2.7056506,53.3614568],[-2.6933781,53.3618002],[-2.693181,53.3617475],[-2.6923018,53.3615124]]],"type":"Polygon"},"id":"E02002576","properties":{"code":"E02002576","geography":"MSOA","name":"Halton 003"},"type":"Feature"},{"geometry":{"coordinates":[[[-2.7614091,53.3745959],[-2.7653653,53.3740182],[-2.7649136,53.3787205],[-2.7726048,53.3819969],[-2.7812267,53.3716479],[-2.775267,53.3717968],[-2.7792204,53.3662814],[-2.7750609,53.3649093],[-2.7596246,53.3706267],[-2.7638705,53.3716712],[-2.7614091,53.3745959]]],"type":"Polygon"},"id":"E02002577","properties":{"code":"E02002577","geography":"MSOA","name":"Halton 004"},"type":"Feature"},{"geometry":{"coordinates":[[[-2.7171593,53.3811055],[-2.726888,53.3842989],[-2.7323015,53.3819867],[-2.7351216,53.3835747],[-2.7330397,53.3787675],[-2.7489763,53.3764277],[-2.7505176,53.3679607],[-2.7538219,53.3677207],[-2.7477808,53.3649759],[-2.7430224,53.3673303],[-2.7296257,53.3659528],[-2.732615,53.3718514],[-2.7252003,53.3726764],[-2.7283395,53.3742453],[-2.7229769,53.3802428],[-2.7171593,53.3811055]]],"type":"Polygon"},"id":"E02002578","properties":{"code":"E02002578","geography":"MSOA","name":"Halton 005"},"type":"Feature"},{"geometry":{"coordinates":[[[-2.7538219,53.3677207],[-2.7505176,53.3679607],[-2.7489763,53.3764277],[-2.7614091,53.3745959],[-2.7638705,53.3716712],[-2.7596246,53.3706267],[-2.7750609,53.3649093],[-2.7756692,53.361752],[-2.7692434,53.3613701],[-2.7674776,53.3639105],[-2.7660863,53.3613346],[-2.7626905,53.3645234],[-2.7537279,53.3638285],[-2.7538219,53.3677207]]],"type":"Polygon"},"id":"E02002579","properties":{"code":"E02002579","geography":"MSOA","name":"Halton 006"},"type":"Feature"},{"geometry":{"coordinates":[[[-2.713585,53.3575645],[-2.7182489,53.3720425],[-2.7252003,53.3726764],[-2.732615,53.3718514],[-2.7296257,53.3659528],[-2.7430224,53.3673303],[-2.7477808,53.3649759],[-2.7415643,53.3619444],[-2.7427044,53.3559213],[-2.752755,53.3533144],[-2.7556146,53.3494771],[-2.7330723,53.3479655],[-2.7284833,53.3544952],[-2.7138228,53.3575155],[-2.713585,53.3575645]]],"type":"Polygon"},"id":"E02002580","properties":{"code":"E02002580","geography":"MSOA","name":"Halton 007"},"type":"Feature"},{"geometry":{"coordinates":[[[-2.7750609,53.3649093],[-2.7792204,53.3662814],[-2.775267,53.3717968],[-2.7812267,53.3716479],[-2.7871982,53.3563175],[-2.8114936,53.3533451],[-2.8184391,53.347992],[-2.8187797,53.3397561],[-2.8322681,53.337265],[-2.8256792,53.3318117],[-2.8190551,53.3329627],[-2.7898062,53.322341],[-2.7777079,53.3292188],[-2.7842875,53.3364154],[-2.7782785,53.3325976],[-2.7772483,53.3355385],[-2.7689789,53.3455425],[-2.7603858,53.349076],[-2.759531,53.3494275],[-2.7591325,53.3495913],[-2.7597307,53.3503406],[-2.7620505,53.3532465],[-2.7598506,53.3508888],[-2.7587278,53.3496855],[-2.7556146,53.3494771],[-2.752755,53.3533144],[-2.7427044,53.3559213],[-2.7415643,53.3619444],[-2.7477808,53.3649759],[-2.7538219,53.3677207],[-2.7537279,53.3638285],[-2.7626905,53.3645234],[-2.7660863,53.3613346],[-2.7674776,53.3639105],[-2.7692434,53.3613701],[-2.7756692,53.361752],[-2.7750609,53.3649093]]],"type":"Polygon"},"id":"E02002581","properties":{"code":"E02002581","geography":"MSOA","name":"Halton 008"},"type":"Feature"},{"geometry":{"coordinates":[[[-2.5952247,53.3224391],[-2.6198264,53.3319415],[-2.6066068,53.3429805],[-2.6141378,53.3476456],[-2.6313933,53.3460474],[-2.6268359,53.354625],[-2.6306228,53.3640344],[-2.6746403,53.3536488],[-2.6895603,53.3499096],[-2.6908172,53.3459141],[-2.6866766,53.3436093],[-2.6698667,53.3439406],[-2.6700757,53.3313282],[-2.6784411,53.3364412],[-2.6836359,53.3348933],[-2.6863129,53.3286622],[-2.6757595,53.3235976],[-2.6711405,53.3261867],[-2.6673365,53.3242691],[-2.6632327,53.3298259],[-2.6536298,53.3299576],[-2.6521738,53.3231604],[-2.6703185,53.312417],[-2.6415636,53.3050251],[-2.6450622,53.3101203],[-2.6325104,53.3075062],[-2.6241241,53.3093831],[-2.6178022,53.31612],[-2.6199357,53.3203056],[-2.6100716,53.3180152],[-2.6091022,53.3120551],[-2.5952247,53.3224391]]],"type":"Polygon"},"id":"E02002582","properties":{"code":"E02002582","geography":"MSOA","name":"Halton 009"},"type":"Feature"},{"geometry":{"coordinates":[[[-2.6779783,53.3546951],[-2.699515,53.3566669],[-2.7209418,53.3450494],[-2.7200354,53.3409261],[-2.7059413,53.3414385],[-2.7033605,53.3385456],[-2.6936427,53.3368567],[-2.6962357,53.3294593],[-2.6863129,53.3286622],[-2.6836359,53.3348933],[-2.6784411,53.3364412],[-2.6700757,53.3313282],[-2.6698667,53.3439406],[-2.6866766,53.3436093],[-2.6908172,53.3459141],[-2.6895603,53.3499096],[-2.6746403,53.3536488],[-2.6779783,53.3546951]]],"type":"Polygon"},"id":"E02002583","properties":{"code":"E02002583","geography":"MSOA","name":"Halton 010"},"type":"Feature"},{"geometry":{"coordinates":[[[-2.7033605,53.3385456],[-2.7059413,53.3414385],[-2.7200354,53.3409261],[-2.7257631,53.3358888],[-2.7361002,53.3354606],[-2.7320323,53.3327198],[-2.7231265,53.3273728],[-2.7255219,53.333714],[-2.7101775,53.3306935],[-2.7111539,53.3365078],[-2.7033605,53.3385456]]],"type":"Polygon"},"id":"E02002584","properties":{"code":"E02002584","geography":"MSOA","name":"Halton 011"},"type":"Feature"},{"geometry":{"coordinates":[[[-2.7209418,53.3450494],[-2.7219772,53.3444915],[-2.7360875,53.3450427],[-2.7433509,53.3453257],[-2.753772,53.3434311],[-2.7584944,53.3386751],[-2.7587551,53.3384125],[-2.7595303,53.3359733],[-2.7578403,53.3354634],[-2.7633773,53.3275343],[-2.7524798,53.3147189],[-2.7392922,53.3068551],[-2.7281575,53.3123951],[-2.7279111,53.3158007],[-2.7342673,53.3187236],[-2.7305317,53.3282102],[-2.7370842,53.3280008],[-2.7320323,53.3327198],[-2.7361002,53.3354606],[-2.7257631,53.3358888],[-2.7200354,53.3409261],[-2.7209418,53.3450494]]],"type":"Polygon"},"id":"E02002585","properties":{"code":"E02002585","geography":"MSOA","name":"Halton 012"},"type":"Feature"},{"geometry":{"coordinates":[[[-2.6962357,53.3294593],[-2.6936427,53.3368567],[-2.7033605,53.3385456],[-2.7111539,53.3365078],[-2.7101775,53.3306935],[-2.7255219,53.333714],[-2.7231265,53.3273728],[-2.7121523,53.3211058],[-2.7068102,53.3222075],[-2.7007387,53.3192022],[-2.697725,53.3221431],[-2.7018791,53.3242665],[-2.6962357,53.3294593]]],"type":"Polygon"},"id":"E02002586","properties":{"code":"E02002586","geography":"MSOA","name":"Halton 013"},"type":"Feature"},{"geometry":{"coordinates":[[[-2.6703185,53.312417],[-2.6521738,53.3231604],[-2.6536298,53.3299576],[-2.6632327,53.3298259],[-2.6673365,53.3242691],[-2.6711405,53.3261867],[-2.6757595,53.3235976],[-2.6736423,53.3205157],[-2.680918,53.3145713],[-2.6703185,53.312417]]],"type":"Polygon"},"id":"E02002587","properties":{"code":"E02002587","geography":"MSOA","name":"Halton 014"},"type":"Feature"},{"geometry":{"coordinates":[[[-2.6863129,53.3286622],[-2.6962357,53.3294593],[-2.7018791,53.3242665],[-2.697725,53.3221431],[-2.7007387,53.3192022],[-2.6853527,53.315315],[-2.680918,53.3145713],[-2.6736423,53.3205157],[-2.6757595,53.3235976],[-2.6863129,53.3286622]]],"type":"Polygon"},"id":"E02002588","properties":{"code":"E02002588","geography":"MSOA","name":"Halton 015"},"type":"Feature"},{"geometry":{"coordinates":[[[-2.7231265,53.3273728],[-2.7320323,53.3327198],[-2.7370842,53.3280008],[-2.7305317,53.3282102],[-2.7342673,53.3187236],[-2.7279111,53.3158007],[-2.7281575,53.3123951],[-2.7241484,53.3124456],[-2.7008007,53.3057922],[-2.6853527,53.315315],[-2.7007387,53.3192022],[-2.7068102,53.3222075],[-2.7121523,53.3211058],[-2.7231265,53.3273728]]],"type":"Polygon"},"id":"E02002589","properties":{"code":"E02002589","geography":"MSOA","name":"Halton 016"},"type":"Feature"}],"type":"FeatureCollection"}
