{"features":[{"geometry":{"coordinates":[[[-2.3155783,52.7329325],[-2.3300724,52.7294472],[-2.335857,52.730258],[-2.336386,52.7330309],[-2.3579305,52.7311977],[-2.3672972,52.7331484],[-2.3718759,52.7385128],[-2.3688231,52.7404489],[-2.3750738,52.7407942],[-2.3818822,52.7229451],[-2.4025029,52.7038908],[-2.4015267,52.694935],[-2.405243,52.6948437],[-2.4012124,52.6845204],[-2.4077705,52.6796371],[-2.4099406,52.6716327],[-2.4190303,52.6628773],[-2.4175752,52.6503093],[-2.4164668,52.6448924],[-2.4010288,52.643039],[-2.3856363,52.6475789],[-2.3737995,52.6304604],[-2.3590831,52.6269252],[-2.3568311,52.6227223],[-2.3490427,52.6323747],[-2.3277743,52.636832],[-2.3240616,52.6441312],[-2.3281004,52.6454778],[-2.3320907,52.660254],[-2.329637,52.6667163],[-2.3136755,52.6783808],[-2.3253918,52.6953661],[-2.3199103,52.695383],[-2.324836,52.7053209],[-2.3086058,52.7207315],[-2.3146811,52.7245403],[-2.3155783,52.7329325]]],"type":"Polygon"},"id":"E02006008","properties":{"code":"E02006008","geography":"MSOA","name":"Shropshire 025"},"type":"Feature"},{"geometry":{"coordinates":[[[-2.2328986,52.6476791],[-2.2374736,52.6510752],[-2.2347129,52.6558391],[-2.2476915,52.6566448],[-2.238719,52.6636861],[-2.2477325,52.6830598],[-2.2736802,52.6797616],[-2.3030434,52.6829379],[-2.307998,52.6933172],[-2.3199103,52.695383],[-2.3253918,52.6953661],[-2.3136755,52.6783808],[-2.329637,52.6667163],[-2.3320907,52.660254],[-2.3281004,52.6454778],[-2.3240616,52.6441312],[-2.3277743,52.636832],[-2.3232222,52.6275752],[-2.3186308,52.627895],[-2.3169491,52.6243365],[-2.3209745,52.6145929],[-2.3134648,52.614041],[-2.3096047,52.6073864],[-2.2793096,52.6057983],[-2.2680049,52.6102174],[-2.2558085,52.6099682],[-2.2477971,52.6254403],[-2.2368913,52.636052],[-2.2328986,52.6476791]]],"type":"Polygon"},"id":"E02006009","properties":{"code":"E02006009","geography":"MSOA","name":"Shropshire 027"},"type":"Feature"},{"geometry":{"coordinates":[[[-2.4381089,52.6145464],[-2.4510193,52.6169638],[-2.4645646,52.6237808],[-2.4720297,52.621919],[-2.4719977,52.6240092],[-2.4863723,52.6238315],[-2.4920635,52.6280946],[-2.5012871,52.6294068],[-2.513169,52.6251837],[-2.5332807,52.6253889],[-2.5346328,52.6222794],[-2.5477155,52.6206388],[-2.549946,52.6125353],[-2.559861,52.6127996],[-2.5710038,52.6172452],[-2.5748116,52.6139635],[-2.5879848,52.6136839],[-2.5845721,52.6121144],[-2.5895069,52.6079157],[-2.574088,52.6013478],[-2.5959489,52.5852281],[-2.6367873,52.5634386],[-2.6547575,52.5660366],[-2.6600728,52.5569975],[-2.6392217,52.5458232],[-2.6494915,52.5421724],[-2.6679717,52.5231416],[-2.6677275,52.5113869],[-2.6586571,52.5094579],[-2.652076,52.5157766],[-2.6458559,52.5118495],[-2.6384687,52.5119194],[-2.6376687,52.5087702],[-2.614127,52.5035634],[-2.5920065,52.5158928],[-2.594265,52.5232757],[-2.5872797,52.526326],[-2.5826625,52.5232489],[-2.5799592,52.5285862],[-2.5838388,52.5303219],[-2.5548373,52.5213953],[-2.5474105,52.5323876],[-2.538455,52.5213286],[-2.5302267,52.5206898],[-2.5132815,52.5122839],[-2.5085991,52.5122911],[-2.5087815,52.5171214],[-2.4932276,52.5221517],[-2.4844945,52.5163567],[-2.4809253,52.5193317],[-2.4762022,52.5152982],[-2.464748,52.5162454],[-2.4585982,52.5129285],[-2.4517719,52.5167606],[-2.4561242,52.5236533],[-2.4408808,52.5279501],[-2.4361,52.5432929],[-2.4290651,52.5439569],[-2.4103966,52.5422173],[-2.4095193,52.5463754],[-2.4071256,52.5715814],[-2.4340034,52.5812481],[-2.4360667,52.5951742],[-2.4274132,52.6080365],[-2.4381089,52.6145464]]],"type":"Polygon"},"id":"E02006010","properties":{"code":"E02006010","geography":"MSOA","name":"Shropshire 029"},"type":"Feature"},{"geometry":{"coordinates":[[[-2.4151076,52.5235346],[-2.4161739,52.5341778],[-2.4277483,52.5361386],[-2.4290651,52.5439569],[-2.4361,52.5432929],[-2.4408808,52.5279501],[-2.4561242,52.5236533],[-2.4517719,52.5167606],[-2.4465794,52.5164725],[-2.4418263,52.5108092],[-2.4151076,52.5235346]]],"type":"Polygon"},"id":"E02006011","properties":{"code":"E02006011","geography":"MSOA","name":"Shropshire 031"},"type":"Feature"},{"geometry":{"coordinates":[[[-2.3897569,52.5090957],[-2.3838367,52.5058506],[-2.3691689,52.5152825],[-2.3933393,52.5234003],[-2.39057,52.5256561],[-2.4009186,52.5315813],[-2.4039775,52.5426698],[-2.4087064,52.5440397],[-2.4067975,52.5488921],[-2.4095193,52.5463754],[-2.4103966,52.5422173],[-2.4290651,52.5439569],[-2.4277483,52.5361386],[-2.4161739,52.5341778],[-2.4151076,52.5235346],[-2.4076724,52.5196414],[-2.3958807,52.5191879],[-2.3897569,52.5090957]]],"type":"Polygon"},"id":"E02006012","properties":{"code":"E02006012","geography":"MSOA","name":"Shropshire 033"},"type":"Feature"},{"geometry":{"coordinates":[[[-2.3277743,52.636832],[-2.3490427,52.6323747],[-2.3568311,52.6227223],[-2.3590831,52.6269252],[-2.3737995,52.6304604],[-2.3856363,52.6475789],[-2.4010288,52.643039],[-2.4164668,52.6448924],[-2.4182966,52.6337601],[-2.4366365,52.6270793],[-2.4340447,52.6182105],[-2.4381089,52.6145464],[-2.4274132,52.6080365],[-2.4360667,52.5951742],[-2.4340034,52.5812481],[-2.4071256,52.5715814],[-2.4095193,52.5463754],[-2.4067975,52.5488921],[-2.4087064,52.5440397],[-2.4039775,52.5426698],[-2.4009186,52.5315813],[-2.39057,52.5256561],[-2.3933393,52.5234003],[-2.3691689,52.5152825],[-2.3838367,52.5058506],[-2.3897569,52.5090957],[-2.3946795,52.5024332],[-2.393141,52.4941858],[-2.3775037,52.4873313],[-2.3739286,52.4753261],[-2.3774851,52.460231],[-2.3656961,52.4504634],[-2.3690881,52.44389],[-2.3635311,52.4394117],[-2.3451125,52.4393185],[-2.3331228,52.4353408],[-2.3259591,52.438287],[-2.3215547,52.4362053],[-2.3117541,52.4375171],[-2.3061887,52.4459317],[-2.2873862,52.4553027],[-2.2910016,52.4567314],[-2.2883893,52.461034],[-2.2956342,52.4738774],[-2.3127524,52.4891946],[-2.3064462,52.4998423],[-2.2913939,52.5116655],[-2.2609478,52.5240882],[-2.2692188,52.5306742],[-2.2564093,52.541782],[-2.2657336,52.5492984],[-2.2824797,52.5533822],[-2.2608404,52.5631427],[-2.2628065,52.5702954],[-2.2786589,52.583404],[-2.2950599,52.5846128],[-2.3010198,52.5932282],[-2.3085495,52.591079],[-2.3220277,52.5936215],[-2.3254779,52.6000842],[-2.3209745,52.6145929],[-2.3169491,52.6243365],[-2.3186308,52.627895],[-2.3232222,52.6275752],[-2.3277743,52.636832]]],"type":"Polygon"},"id":"E02006013","properties":{"code":"E02006013","geography":"MSOA","name":"Shropshire 034"},"type":"Feature"},{"geometry":{"coordinates":[[[-2.4517719,52.5167606],[-2.4585982,52.5129285],[-2.464748,52.5162454],[-2.4762022,52.5152982],[-2.4809253,52.5193317],[-2.4844945,52.5163567],[-2.4932276,52.5221517],[-2.5087815,52.5171214],[-2.5085991,52.5122911],[-2.5132815,52.5122839],[-2.5302267,52.5206898],[-2.538455,52.5213286],[-2.5474105,52.5323876],[-2.5548373,52.5213953],[-2.5838388,52.5303219],[-2.5799592,52.5285862],[-2.5826625,52.5232489],[-2.5872797,52.526326],[-2.594265,52.5232757],[-2.5920065,52.5158928],[-2.614127,52.5035634],[-2.6203476,52.4968667],[-2.6082107,52.4943378],[-2.6069786,52.4847737],[-2.5969302,52.4744031],[-2.5946578,52.4632732],[-2.5987755,52.4553223],[-2.5761721,52.4506072],[-2.5617185,52.4518572],[-2.5516339,52.4442404],[-2.5554947,52.4414821],[-2.546132,52.4350145],[-2.5493305,52.429758],[-2.5633627,52.429423],[-2.568246,52.4249552],[-2.5623177,52.4215968],[-2.5553745,52.4233711],[-2.5468211,52.4154356],[-2.5455475,52.4136544],[-2.5571028,52.4094075],[-2.5514087,52.4034994],[-2.5426714,52.4074029],[-2.5335532,52.4070559],[-2.5209595,52.4112661],[-2.5073844,52.4102489],[-2.5029193,52.4128198],[-2.4971518,52.40394],[-2.5088336,52.3973864],[-2.5075463,52.393395],[-2.5115185,52.3937756],[-2.505884,52.3874116],[-2.4989369,52.3901938],[-2.4917804,52.384753],[-2.4711737,52.383799],[-2.4646868,52.3882882],[-2.4489598,52.3835059],[-2.4338679,52.3879666],[-2.4258234,52.384742],[-2.4109903,52.386415],[-2.4044465,52.3828154],[-2.3935974,52.384357],[-2.3906759,52.3815143],[-2.3874452,52.3844743],[-2.3778736,52.3831441],[-2.367355,52.3880494],[-2.3526363,52.3889231],[-2.3501492,52.3857111],[-2.3355362,52.3853336],[-2.3340401,52.3887684],[-2.3421851,52.393164],[-2.3729488,52.4019503],[-2.3657973,52.4084473],[-2.3635311,52.4394117],[-2.3690881,52.44389],[-2.3656961,52.4504634],[-2.3774851,52.460231],[-2.3739286,52.4753261],[-2.3775037,52.4873313],[-2.393141,52.4941858],[-2.3946795,52.5024332],[-2.3897569,52.5090957],[-2.3958807,52.5191879],[-2.4076724,52.5196414],[-2.4151076,52.5235346],[-2.4418263,52.5108092],[-2.4465794,52.5164725],[-2.4517719,52.5167606]]],"type":"Polygon"},"id":"E02006014","properties":{"code":"E02006014","geography":"MSOA","name":"Shropshire 035"},"type":"Feature"},{"geometry":{"coordinates":[[[-2.6221363,52.986828],[-2.6326509,52.9966565],[-2.6426993,52.993505],[-2.6523573,52.9949804],[-2.6746626,52.9856492],[-2.687079,52.9868167],[-2.6992928,52.9954246],[-2.7118799,52.9860703],[-2.7268416,52.9832582],[-2.7353204,52.9700013],[-2.7266392,52.9649209],[-2.7241456,52.9567509],[-2.7281091,52.9470122],[-2.7179507,52.9479011],[-2.7133444,52.9523072],[-2.6968766,52.9563154],[-2.6824449,52.9502844],[-2.666044,52.9541502],[-2.6654496,52.9595775],[-2.6546182,52.9616802],[-2.6499956,52.97067],[-2.6359377,52.9743221],[-2.6272204,52.9858874],[-2.6221363,52.986828]]],"type":"Polygon"},"id":"E02006015","properties":{"code":"E02006015","geography":"MSOA","name":"Shropshire 001"},"type":"Feature"},{"geometry":{"coordinates":[[[-2.3707368,52.9774503],[-2.3702694,52.9821459],[-2.3798064,52.9910491],[-2.3766086,52.9976276],[-2.3807937,52.9983947],[-2.3897344,52.9953759],[-2.4069862,52.9959007],[-2.4044745,52.9916374],[-2.4108663,52.9879082],[-2.4381684,52.9855515],[-2.4346136,52.9695056],[-2.4429575,52.9707232],[-2.4502572,52.9660357],[-2.4750838,52.9624736],[-2.4811532,52.9588021],[-2.4917006,52.9676687],[-2.4990232,52.9684188],[-2.5068829,52.964903],[-2.5214276,52.9742496],[-2.5232806,52.95434],[-2.5295161,52.9471498],[-2.5463555,52.9568222],[-2.5536976,52.9574509],[-2.5612631,52.9649367],[-2.5734924,52.9627012],[-2.5702765,52.9597567],[-2.5768034,52.9560904],[-2.5864138,52.9553641],[-2.5976936,52.9629909],[-2.5984467,52.9717027],[-2.5927566,52.9741546],[-2.5996299,52.9754177],[-2.5948887,52.979592],[-2.6056828,52.9793833],[-2.607734,52.9883472],[-2.6221363,52.986828],[-2.6272204,52.9858874],[-2.6359377,52.9743221],[-2.6499956,52.97067],[-2.6546182,52.9616802],[-2.6654496,52.9595775],[-2.666044,52.9541502],[-2.6824449,52.9502844],[-2.6968766,52.9563154],[-2.7133444,52.9523072],[-2.7179507,52.9479011],[-2.7281091,52.9470122],[-2.7285334,52.9251621],[-2.7047444,52.9205456],[-2.6979313,52.9238003],[-2.6803014,52.9219648],[-2.678281,52.909973],[-2.6848481,52.9069735],[-2.6866215,52.8912153],[-2.6796137,52.8872567],[-2.6777479,52.8753382],[-2.6581859,52.8730565],[-2.6585908,52.8656725],[-2.6230188,52.8825243],[-2.5977536,52.8844532],[-2.5953659,52.8813917],[-2.5857542,52.8845833],[-2.5684279,52.8839972],[-2.5713762,52.8890705],[-2.5665977,52.8924038],[-2.554212,52.8886841],[-2.5508525,52.8910151],[-2.5382605,52.8833223],[-2.5279156,52.8893886],[-2.5173352,52.887939],[-2.5213236,52.8908251],[-2.5188074,52.8946221],[-2.5210341,52.8971212],[-2.5078061,52.9022994],[-2.4973777,52.9117352],[-2.4605208,52.910329],[-2.4557135,52.9154857],[-2.4558764,52.9256334],[-2.450648,52.9250727],[-2.4468822,52.9286129],[-2.4371229,52.9435837],[-2.4252695,52.9499829],[-2.4135417,52.9465865],[-2.4054411,52.9474478],[-2.4071749,52.9578623],[-2.4134523,52.9613947],[-2.399153,52.9606155],[-2.3937665,52.9505635],[-2.3871091,52.952717],[-2.3847506,52.9598062],[-2.3771415,52.9649194],[-2.3828319,52.970642],[-2.379764,52.9759805],[-2.3707368,52.9774503]]],"type":"Polygon"},"id":"E02006016","properties":{"code":"E02006016","geography":"MSOA","name":"Shropshire 002"},"type":"Feature"},{"geometry":{"coordinates":[[[-2.9684875,52.96416],[-2.9751121,52.9689594],[-2.9820241,52.9591839],[-3.0035443,52.9579371],[-3.0103628,52.9542464],[-2.9967088,52.9405492],[-2.9951265,52.9273623],[-2.9840156,52.9248082],[-2.9750954,52.9162158],[-2.9833955,52.9103709],[-2.9920259,52.9100929],[-2.9984476,52.9048845],[-2.9970034,52.901964],[-2.9892382,52.8902673],[-2.9354513,52.8801991],[-2.9450435,52.8632129],[-2.9387691,52.8596205],[-2.9299389,52.8581567],[-2.921698,52.8602936],[-2.9130143,52.8568056],[-2.9114549,52.8422158],[-2.8933248,52.8231462],[-2.8782709,52.8215452],[-2.8726745,52.8249984],[-2.8768373,52.8403805],[-2.8863849,52.8429551],[-2.8787133,52.853736],[-2.8808944,52.8631267],[-2.8886816,52.8710099],[-2.8819034,52.8734407],[-2.8838285,52.8780151],[-2.8670293,52.8794941],[-2.8476127,52.8741533],[-2.8389947,52.8766433],[-2.8132939,52.8766272],[-2.8066074,52.8727407],[-2.7991704,52.8767773],[-2.8042844,52.8894366],[-2.8005392,52.8954484],[-2.8127103,52.9092493],[-2.8127441,52.9146267],[-2.8397631,52.9337093],[-2.8410517,52.9425461],[-2.8835399,52.9466238],[-2.8874701,52.9525006],[-2.8983355,52.9502396],[-2.9083178,52.9420703],[-2.9204071,52.943399],[-2.9288815,52.9386533],[-2.9598128,52.9511733],[-2.9618423,52.9556399],[-2.9727748,52.9603811],[-2.9684875,52.96416]]],"type":"Polygon"},"id":"E02006017","properties":{"code":"E02006017","geography":"MSOA","name":"Shropshire 004"},"type":"Feature"},{"geometry":{"coordinates":[[[-2.4605208,52.910329],[-2.4973777,52.9117352],[-2.5078061,52.9022994],[-2.5210341,52.8971212],[-2.5188074,52.8946221],[-2.4982885,52.8926756],[-2.4895331,52.8976831],[-2.4813506,52.8971753],[-2.4817672,52.9014348],[-2.4710314,52.9012939],[-2.470841,52.905845],[-2.4605208,52.910329]]],"type":"Polygon"},"id":"E02006018","properties":{"code":"E02006018","geography":"MSOA","name":"Shropshire 005"},"type":"Feature"},{"geometry":{"coordinates":[[[-2.7067965,52.8531234],[-2.706394,52.8569393],[-2.7136512,52.8644238],[-2.7221726,52.867064],[-2.72993,52.8669405],[-2.7420087,52.8576713],[-2.7413897,52.8537967],[-2.7299065,52.8468467],[-2.7247802,52.8484918],[-2.7189087,52.8453921],[-2.7067965,52.8531234]]],"type":"Polygon"},"id":"E02006019","properties":{"code":"E02006019","geography":"MSOA","name":"Shropshire 008"},"type":"Feature"},{"geometry":{"coordinates":[[[-2.378939,52.8917043],[-2.3855549,52.8879739],[-2.4118585,52.8878753],[-2.4258514,52.8819873],[-2.440412,52.8812128],[-2.4461424,52.8739937],[-2.4575949,52.8790895],[-2.456347,52.8852189],[-2.4652445,52.8921471],[-2.470841,52.905845],[-2.4710314,52.9012939],[-2.4817672,52.9014348],[-2.4813506,52.8971753],[-2.4895331,52.8976831],[-2.4982885,52.8926756],[-2.5188074,52.8946221],[-2.5213236,52.8908251],[-2.5173352,52.887939],[-2.5279156,52.8893886],[-2.5382605,52.8833223],[-2.5508525,52.8910151],[-2.554212,52.8886841],[-2.5515852,52.8815211],[-2.5564304,52.8786893],[-2.5574539,52.864721],[-2.5512974,52.8592808],[-2.5619916,52.8572171],[-2.5677902,52.8605601],[-2.5768246,52.8539961],[-2.5870495,52.8547545],[-2.5942775,52.8532979],[-2.5934421,52.8504278],[-2.6030634,52.8503102],[-2.6028862,52.8425326],[-2.5954387,52.8378744],[-2.605153,52.8364302],[-2.6035751,52.8308386],[-2.5947321,52.8266223],[-2.5722849,52.8318556],[-2.5682923,52.8226641],[-2.5614685,52.8211361],[-2.5490736,52.8084522],[-2.5483752,52.8003325],[-2.5436739,52.7963583],[-2.5338124,52.7941046],[-2.53889,52.7860675],[-2.5324106,52.7856876],[-2.5219914,52.7989368],[-2.5161432,52.7955419],[-2.5117236,52.7984964],[-2.5030297,52.7965899],[-2.4865085,52.8052312],[-2.4883756,52.8004105],[-2.4784797,52.8015134],[-2.4771227,52.799364],[-2.4899578,52.7839072],[-2.4882143,52.780597],[-2.4726338,52.7804401],[-2.4709527,52.7842744],[-2.4576063,52.783392],[-2.4582051,52.7900307],[-2.4634717,52.7927316],[-2.4577476,52.7985153],[-2.4729478,52.8207382],[-2.4691027,52.8230295],[-2.4404744,52.820757],[-2.4302101,52.8281391],[-2.4263244,52.822512],[-2.4265094,52.8259144],[-2.4260385,52.8231976],[-2.4163476,52.8269913],[-2.4076565,52.8345906],[-2.3970915,52.833839],[-2.3937568,52.8366057],[-2.3884963,52.8622191],[-2.3811566,52.8670483],[-2.382513,52.8765952],[-2.3753796,52.891458],[-2.378939,52.8917043]]],"type":"Polygon"},"id":"E02006020","properties":{"code":"E02006020","geography":"MSOA","name":"Shropshire 009"},"type":"Feature"},{"geometry":{"coordinates":[[[-2.6585908,52.8656725],[-2.6581859,52.8730565],[-2.6777479,52.8753382],[-2.6796137,52.8872567],[-2.6866215,52.8912153],[-2.6848481,52.9069735],[-2.678281,52.909973],[-2.6803014,52.9219648],[-2.6979313,52.9238003],[-2.7047444,52.9205456],[-2.7285334,52.9251621],[-2.7553282,52.9246136],[-2.8005392,52.8954484],[-2.8042844,52.8894366],[-2.7991704,52.8767773],[-2.8066074,52.8727407],[-2.8132939,52.8766272],[-2.8389947,52.8766433],[-2.8476127,52.8741533],[-2.8670293,52.8794941],[-2.8838285,52.8780151],[-2.8819034,52.8734407],[-2.8886816,52.8710099],[-2.8808944,52.8631267],[-2.8787133,52.853736],[-2.8863849,52.8429551],[-2.8768373,52.8403805],[-2.8726745,52.8249984],[-2.8782709,52.8215452],[-2.8933248,52.8231462],[-2.900259,52.8109081],[-2.8919728,52.801744],[-2.8975537,52.7996039],[-2.8972039,52.7955336],[-2.886401,52.7948057],[-2.8822976,52.7851473],[-2.8749449,52.7824113],[-2.8603167,52.7844542],[-2.8587216,52.7714247],[-2.8357858,52.7666849],[-2.8097363,52.7786287],[-2.8098869,52.7830275],[-2.8018095,52.7832642],[-2.8025462,52.7883988],[-2.7973791,52.7903799],[-2.7740423,52.7948693],[-2.768393,52.7881224],[-2.7575259,52.791655],[-2.7559616,52.7869654],[-2.7444036,52.7871446],[-2.7415313,52.7959526],[-2.7302642,52.7933652],[-2.7262083,52.795315],[-2.7344211,52.8072352],[-2.7211346,52.8120521],[-2.7263696,52.8133858],[-2.7257198,52.8170837],[-2.7203928,52.8142185],[-2.7069589,52.8224677],[-2.7059253,52.8161731],[-2.7016393,52.8162053],[-2.7063505,52.821166],[-2.702379,52.8246853],[-2.7129248,52.828641],[-2.6951656,52.8442466],[-2.683442,52.8416271],[-2.6796056,52.8483413],[-2.6674773,52.853412],[-2.6676618,52.8594471],[-2.6585908,52.8656725]],[[-2.7067965,52.8531234],[-2.7189087,52.8453921],[-2.7247802,52.8484918],[-2.7299065,52.8468467],[-2.7413897,52.8537967],[-2.7420087,52.8576713],[-2.72993,52.8669405],[-2.7221726,52.867064],[-2.7136512,52.8644238],[-2.706394,52.8569393],[-2.7067965,52.8531234]]],"type":"Polygon"},"id":"E02006021","properties":{"code":"E02006021","geography":"MSOA","name":"Shropshire 010"},"type":"Feature"},{"geometry":{"coordinates":[[[-2.554212,52.8886841],[-2.5665977,52.8924038],[-2.5713762,52.8890705],[-2.5684279,52.8839972],[-2.5857542,52.8845833],[-2.5953659,52.8813917],[-2.5977536,52.8844532],[-2.6230188,52.8825243],[-2.6585908,52.8656725],[-2.6676618,52.8594471],[-2.6674773,52.853412],[-2.6796056,52.8483413],[-2.683442,52.8416271],[-2.6951656,52.8442466],[-2.7129248,52.828641],[-2.702379,52.8246853],[-2.7063505,52.821166],[-2.7016393,52.8162053],[-2.7059253,52.8161731],[-2.7069589,52.8224677],[-2.7203928,52.8142185],[-2.7257198,52.8170837],[-2.7263696,52.8133858],[-2.7211346,52.8120521],[-2.7344211,52.8072352],[-2.7262083,52.795315],[-2.7302642,52.7933652],[-2.7415313,52.7959526],[-2.7444036,52.7871446],[-2.7465323,52.7820816],[-2.7383825,52.7699288],[-2.7243081,52.7644136],[-2.7164281,52.7644279],[-2.7101462,52.7708198],[-2.7034411,52.7702825],[-2.6913667,52.7753119],[-2.6785115,52.7673218],[-2.6801962,52.7651369],[-2.6634183,52.7604259],[-2.6431312,52.7670697],[-2.6323339,52.7595754],[-2.6210058,52.7765074],[-2.5922472,52.7768349],[-2.5925679,52.793547],[-2.59801,52.7979541],[-2.5918413,52.7985044],[-2.5827885,52.8056108],[-2.569791,52.8051809],[-2.5643945,52.7994385],[-2.5530667,52.8029194],[-2.5483752,52.8003325],[-2.5490736,52.8084522],[-2.5614685,52.8211361],[-2.5682923,52.8226641],[-2.5722849,52.8318556],[-2.5947321,52.8266223],[-2.6035751,52.8308386],[-2.605153,52.8364302],[-2.5954387,52.8378744],[-2.6028862,52.8425326],[-2.6030634,52.8503102],[-2.5934421,52.8504278],[-2.5942775,52.8532979],[-2.5870495,52.8547545],[-2.5768246,52.8539961],[-2.5677902,52.8605601],[-2.5619916,52.8572171],[-2.5512974,52.8592808],[-2.5574539,52.864721],[-2.5564304,52.8786893],[-2.5515852,52.8815211],[-2.554212,52.8886841]]],"type":"Polygon"},"id":"E02006022","properties":{"code":"E02006022","geography":"MSOA","name":"Shropshire 013"},"type":"Feature"},{"geometry":{"coordinates":[[[-2.9970034,52.901964],[-2.9984476,52.9048845],[-2.9920259,52.9100929],[-2.9833955,52.9103709],[-2.9750954,52.9162158],[-2.9840156,52.9248082],[-2.9951265,52.9273623],[-2.9967088,52.9405492],[-3.0103628,52.9542464],[-3.0167815,52.9486755],[-3.0239111,52.9422827],[-3.0241338,52.9362599],[-3.0282556,52.9368421],[-3.0371252,52.9286793],[-3.0606782,52.9293147],[-3.0640126,52.9263048],[-3.0763661,52.925469],[-3.0959812,52.9303173],[-3.1097037,52.9183292],[-3.1168643,52.8999328],[-3.1141277,52.893966],[-3.1376052,52.8948876],[-3.1474955,52.8901268],[-3.1355856,52.8851227],[-3.1470063,52.8846757],[-3.1483891,52.8812831],[-3.145609,52.8786076],[-3.1213261,52.8767313],[-3.11102,52.8679547],[-3.1053719,52.8712036],[-3.0877823,52.8684615],[-3.0646426,52.8646632],[-3.0639548,52.8684847],[-3.0558417,52.8669364],[-3.0405735,52.8731065],[-3.0391934,52.8824381],[-3.0161468,52.8901656],[-3.0120715,52.9005495],[-2.9970034,52.901964]]],"type":"Polygon"},"id":"E02006023","properties":{"code":"E02006023","geography":"MSOA","name":"Shropshire 003"},"type":"Feature"},{"geometry":{"coordinates":[[[-3.0163781,52.8606593],[-3.0405735,52.8731065],[-3.0558417,52.8669364],[-3.056382,52.8642682],[-3.0482506,52.8630194],[-3.0459562,52.8492773],[-3.0369781,52.8427006],[-3.0313314,52.8411917],[-3.0294123,52.8454613],[-3.0312318,52.8503203],[-3.0361072,52.8514712],[-3.034015,52.8574376],[-3.0163781,52.8606593]]],"type":"Polygon"},"id":"E02006024","properties":{"code":"E02006024","geography":"MSOA","name":"Shropshire 006"},"type":"Feature"},{"geometry":{"coordinates":[[[-3.0877823,52.8684615],[-3.0943183,52.8686734],[-3.1003152,52.862572],[-3.0636191,52.8526157],[-3.070828,52.8478792],[-3.0723266,52.8392153],[-3.0483886,52.8365297],[-3.0369781,52.8427006],[-3.0459562,52.8492773],[-3.0482506,52.8630194],[-3.056382,52.8642682],[-3.0558417,52.8669364],[-3.0639548,52.8684847],[-3.0646426,52.8646632],[-3.0877823,52.8684615]]],"type":"Polygon"},"id":"E02006025","properties":{"code":"E02006025","geography":"MSOA","name":"Shropshire 007"},"type":"Feature"},{"geometry":{"coordinates":[[[-2.8933248,52.8231462],[-2.9114549,52.8422158],[-2.9130143,52.8568056],[-2.921698,52.8602936],[-2.9299389,52.8581567],[-2.9387691,52.8596205],[-2.9450435,52.8632129],[-2.9354513,52.8801991],[-2.9892382,52.8902673],[-2.9970034,52.901964],[-3.0120715,52.9005495],[-3.0161468,52.8901656],[-3.0391934,52.8824381],[-3.0405735,52.8731065],[-3.0163781,52.8606593],[-3.0061591,52.8601376],[-2.9981188,52.8473091],[-2.9866679,52.8463356],[-2.9833284,52.8492881],[-2.965656,52.8520992],[-2.9648055,52.8447391],[-2.9834219,52.835565],[-3.0079395,52.8158037],[-3.010276,52.8131088],[-3.0017773,52.8125243],[-3.0032982,52.8075123],[-3.0151181,52.8098892],[-3.0199537,52.8010494],[-3.035622,52.7908918],[-3.0470689,52.7938429],[-3.0547677,52.791598],[-3.0575639,52.7828815],[-3.05032,52.7830872],[-3.0484348,52.7778608],[-3.0526436,52.7731561],[-3.0475376,52.7721874],[-3.0525495,52.7685718],[-3.0465357,52.7670169],[-3.0389859,52.7703584],[-3.0326126,52.7671401],[-3.035085,52.7640178],[-3.0263528,52.7670391],[-3.0226752,52.7641713],[-3.0170982,52.7676722],[-3.010795,52.7585213],[-3.0144676,52.7528802],[-3.0217806,52.7519148],[-3.0158696,52.7480642],[-3.0097569,52.7502982],[-2.9922537,52.7438446],[-2.992506,52.7385311],[-2.9972922,52.7383547],[-2.9911114,52.7336755],[-2.9735782,52.7356711],[-2.9702134,52.7482131],[-2.962683,52.7496269],[-2.9605339,52.7468314],[-2.9496554,52.7458546],[-2.9398869,52.7531619],[-2.9334612,52.7523093],[-2.9653895,52.7705094],[-2.9628992,52.7735978],[-2.9506054,52.7733736],[-2.9423918,52.7781009],[-2.9452804,52.7802469],[-2.9389655,52.7834592],[-2.9424074,52.7888984],[-2.9383573,52.7857332],[-2.9322711,52.7885102],[-2.9199475,52.7832755],[-2.9107823,52.7868505],[-2.8989684,52.7801452],[-2.8954387,52.784782],[-2.8897622,52.7806714],[-2.8822976,52.7851473],[-2.886401,52.7948057],[-2.8972039,52.7955336],[-2.8975537,52.7996039],[-2.8919728,52.801744],[-2.900259,52.8109081],[-2.8933248,52.8231462]]],"type":"Polygon"},"id":"E02006026","properties":{"code":"E02006026","geography":"MSOA","name":"Shropshire 011"},"type":"Feature"},{"geometry":{"coordinates":[[[-3.0877823,52.8684615],[-3.1053719,52.8712036],[-3.11102,52.8679547],[-3.1213261,52.8767313],[-3.145609,52.8786076],[-3.1483891,52.8812831],[-3.1517555,52.8781406],[-3.1277485,52.8671258],[-3.1630707,52.847472],[-3.1513249,52.8425664],[-3.1565969,52.837028],[-3.1540814,52.8321378],[-3.1678448,52.8192608],[-3.1683999,52.8079786],[-3.1621955,52.8036299],[-3.1563284,52.8079869],[-3.1531857,52.8063271],[-3.1540587,52.8024944],[-3.1618157,52.7993457],[-3.1584722,52.7934797],[-3.147982,52.7920406],[-3.1446575,52.7885001],[-3.1424946,52.7903403],[-3.1188989,52.7871824],[-3.1190657,52.78476],[-3.1098991,52.7865857],[-3.1061745,52.7929061],[-3.097715,52.7913685],[-3.0899446,52.7962972],[-3.0855289,52.7928308],[-3.0917089,52.7866312],[-3.0888602,52.7775424],[-3.0807258,52.7774328],[-3.079525,52.7715497],[-3.072195,52.7697373],[-3.0685876,52.7741805],[-3.0621063,52.7691173],[-3.0585417,52.7735143],[-3.0526436,52.7731561],[-3.0484348,52.7778608],[-3.05032,52.7830872],[-3.0575639,52.7828815],[-3.0547677,52.791598],[-3.0470689,52.7938429],[-3.035622,52.7908918],[-3.0199537,52.8010494],[-3.0151181,52.8098892],[-3.0032982,52.8075123],[-3.0017773,52.8125243],[-3.010276,52.8131088],[-3.0079395,52.8158037],[-2.9834219,52.835565],[-2.9648055,52.8447391],[-2.965656,52.8520992],[-2.9833284,52.8492881],[-2.9866679,52.8463356],[-2.9981188,52.8473091],[-3.0061591,52.8601376],[-3.0163781,52.8606593],[-3.034015,52.8574376],[-3.0361072,52.8514712],[-3.0312318,52.8503203],[-3.0294123,52.8454613],[-3.0313314,52.8411917],[-3.0369781,52.8427006],[-3.0483886,52.8365297],[-3.0723266,52.8392153],[-3.070828,52.8478792],[-3.0636191,52.8526157],[-3.1003152,52.862572],[-3.0943183,52.8686734],[-3.0877823,52.8684615]]],"type":"Polygon"},"id":"E02006027","properties":{"code":"E02006027","geography":"MSOA","name":"Shropshire 012"},"type":"Feature"},{"geometry":{"coordinates":[[[-2.7444036,52.7871446],[-2.7559616,52.7869654],[-2.7575259,52.791655],[-2.768393,52.7881224],[-2.7740423,52.7948693],[-2.7973791,52.7903799],[-2.8025462,52.7883988],[-2.8018095,52.7832642],[-2.8098869,52.7830275],[-2.8097363,52.7786287],[-2.8357858,52.7666849],[-2.8587216,52.7714247],[-2.8603167,52.7844542],[-2.8749449,52.7824113],[-2.8822976,52.7851473],[-2.8897622,52.7806714],[-2.8954387,52.784782],[-2.8989684,52.7801452],[-2.9107823,52.7868505],[-2.9199475,52.7832755],[-2.9322711,52.7885102],[-2.9383573,52.7857332],[-2.9424074,52.7888984],[-2.9389655,52.7834592],[-2.9452804,52.7802469],[-2.9423918,52.7781009],[-2.9506054,52.7733736],[-2.9628992,52.7735978],[-2.9653895,52.7705094],[-2.9334612,52.7523093],[-2.9398869,52.7531619],[-2.9496554,52.7458546],[-2.9605339,52.7468314],[-2.962683,52.7496269],[-2.9702134,52.7482131],[-2.9735782,52.7356711],[-2.9650407,52.7322133],[-2.9666559,52.7256205],[-2.9618377,52.7256764],[-2.9610653,52.7163659],[-2.965501,52.714377],[-2.9781219,52.7152889],[-2.9775218,52.7264526],[-3.0005486,52.7202159],[-3.0183655,52.7212267],[-3.0190476,52.7252952],[-3.0215289,52.7241877],[-3.0254364,52.7161645],[-3.0225207,52.7066423],[-3.0320373,52.6999207],[-3.0342265,52.693426],[-3.0469605,52.6912135],[-3.0420843,52.6814822],[-3.0456409,52.6754275],[-3.0385154,52.6753168],[-3.0446524,52.6655356],[-3.0383925,52.6651608],[-3.028381,52.6545463],[-3.0185981,52.6523948],[-3.0075685,52.6523389],[-2.9858602,52.6599644],[-2.9731941,52.6567684],[-2.9672083,52.6615313],[-2.9555577,52.6612134],[-2.9538121,52.6575546],[-2.9612268,52.6508037],[-2.9539913,52.6420158],[-2.9492081,52.6432698],[-2.949163,52.6473522],[-2.9436467,52.6471474],[-2.9322658,52.6545895],[-2.9336916,52.6607688],[-2.9401559,52.6637133],[-2.9361035,52.6672549],[-2.9195386,52.6676405],[-2.9309953,52.6746832],[-2.926326,52.6822964],[-2.9315665,52.6866289],[-2.9386451,52.6871498],[-2.9378382,52.6902501],[-2.8920296,52.6931096],[-2.8856118,52.6972972],[-2.8621078,52.6947671],[-2.8519972,52.6994756],[-2.8422468,52.6999254],[-2.813958,52.6923538],[-2.8049241,52.6996349],[-2.8048985,52.7073153],[-2.8136249,52.7105696],[-2.8136608,52.715827],[-2.8097222,52.7179896],[-2.8040149,52.7153551],[-2.7901316,52.719718],[-2.7861918,52.7163823],[-2.7799179,52.7151205],[-2.7749804,52.7191933],[-2.7673376,52.7148502],[-2.7649738,52.7176101],[-2.7580785,52.7167392],[-2.7649127,52.7216276],[-2.7577697,52.72312],[-2.7563911,52.7207473],[-2.7559889,52.7268382],[-2.7522736,52.7246045],[-2.7510142,52.7280016],[-2.7453489,52.7227655],[-2.7422894,52.7290763],[-2.7467356,52.7345239],[-2.7451472,52.7522638],[-2.7360676,52.7549705],[-2.7185993,52.7522111],[-2.7164281,52.7644279],[-2.7243081,52.7644136],[-2.7383825,52.7699288],[-2.7465323,52.7820816],[-2.7444036,52.7871446]]],"type":"Polygon"},"id":"E02006028","properties":{"code":"E02006028","geography":"MSOA","name":"Shropshire 014"},"type":"Feature"},{"geometry":{"coordinates":[[[-2.7185993,52.7522111],[-2.7360676,52.7549705],[-2.7451472,52.7522638],[-2.7467356,52.7345239],[-2.7422894,52.7290763],[-2.7453489,52.7227655],[-2.7423155,52.7197715],[-2.7344804,52.7240921],[-2.7195701,52.7498215],[-2.7185993,52.7522111]]],"type":"Polygon"},"id":"E02006029","properties":{"code":"E02006029","geography":"MSOA","name":"Shropshire 015"},"type":"Feature"},{"geometry":{"coordinates":[[[-2.7097454,52.7225398],[-2.7126185,52.7285799],[-2.705211,52.7269201],[-2.7030755,52.7309459],[-2.7074165,52.7461585],[-2.7195701,52.7498215],[-2.7344804,52.7240921],[-2.7325315,52.7224104],[-2.7265673,52.7261821],[-2.7196142,52.7212268],[-2.7097454,52.7225398]]],"type":"Polygon"},"id":"E02006030","properties":{"code":"E02006030","geography":"MSOA","name":"Shropshire 016"},"type":"Feature"},{"geometry":{"coordinates":[[[-2.7453489,52.7227655],[-2.7510142,52.7280016],[-2.7522736,52.7246045],[-2.7559889,52.7268382],[-2.7563911,52.7207473],[-2.7577697,52.72312],[-2.7649127,52.7216276],[-2.7580785,52.7167392],[-2.7649738,52.7176101],[-2.7673376,52.7148502],[-2.7378909,52.7133571],[-2.7325315,52.7224104],[-2.7344804,52.7240921],[-2.7423155,52.7197715],[-2.7453489,52.7227655]]],"type":"Polygon"},"id":"E02006031","properties":{"code":"E02006031","geography":"MSOA","name":"Shropshire 017"},"type":"Feature"},{"geometry":{"coordinates":[[[-2.7097454,52.7225398],[-2.7196142,52.7212268],[-2.7265673,52.7261821],[-2.7325315,52.7224104],[-2.7378909,52.7133571],[-2.7393556,52.7101983],[-2.733482,52.707217],[-2.7316273,52.7092499],[-2.7126503,52.7082443],[-2.7123987,52.7139237],[-2.7012012,52.7194352],[-2.7097454,52.7225398]]],"type":"Polygon"},"id":"E02006032","properties":{"code":"E02006032","geography":"MSOA","name":"Shropshire 018"},"type":"Feature"},{"geometry":{"coordinates":[[[-2.7673376,52.7148502],[-2.7749804,52.7191933],[-2.7799179,52.7151205],[-2.7861918,52.7163823],[-2.7893305,52.7136336],[-2.7745644,52.7059518],[-2.7732288,52.7096049],[-2.761471,52.7110693],[-2.7635683,52.7058247],[-2.7524208,52.7032826],[-2.7456053,52.7071519],[-2.7366736,52.7035245],[-2.733482,52.707217],[-2.7393556,52.7101983],[-2.7378909,52.7133571],[-2.7673376,52.7148502]]],"type":"Polygon"},"id":"E02006033","properties":{"code":"E02006033","geography":"MSOA","name":"Shropshire 019"},"type":"Feature"},{"geometry":{"coordinates":[[[-2.7861918,52.7163823],[-2.7901316,52.719718],[-2.8040149,52.7153551],[-2.8097222,52.7179896],[-2.8136608,52.715827],[-2.8136249,52.7105696],[-2.8048985,52.7073153],[-2.8049241,52.6996349],[-2.7974539,52.6907939],[-2.7845219,52.6918997],[-2.7780591,52.6959798],[-2.7824803,52.6946975],[-2.7835264,52.6988674],[-2.7709439,52.701839],[-2.7745644,52.7059518],[-2.7893305,52.7136336],[-2.7861918,52.7163823]]],"type":"Polygon"},"id":"E02006034","properties":{"code":"E02006034","geography":"MSOA","name":"Shropshire 020"},"type":"Feature"},{"geometry":{"coordinates":[[[-2.7126503,52.7082443],[-2.7316273,52.7092499],[-2.733482,52.707217],[-2.7366736,52.7035245],[-2.7427236,52.6962816],[-2.7243611,52.6888624],[-2.7080105,52.6932417],[-2.7128581,52.6999682],[-2.7078177,52.7049546],[-2.7126503,52.7082443]]],"type":"Polygon"},"id":"E02006035","properties":{"code":"E02006035","geography":"MSOA","name":"Shropshire 021"},"type":"Feature"},{"geometry":{"coordinates":[[[-2.7366736,52.7035245],[-2.7456053,52.7071519],[-2.7524208,52.7032826],[-2.7516436,52.6950995],[-2.7590795,52.6936698],[-2.7496028,52.6904411],[-2.7534973,52.6841286],[-2.743568,52.680196],[-2.7243611,52.6888624],[-2.7427236,52.6962816],[-2.7366736,52.7035245]]],"type":"Polygon"},"id":"E02006036","properties":{"code":"E02006036","geography":"MSOA","name":"Shropshire 022"},"type":"Feature"},{"geometry":{"coordinates":[[[-2.7524208,52.7032826],[-2.7635683,52.7058247],[-2.761471,52.7110693],[-2.7732288,52.7096049],[-2.7745644,52.7059518],[-2.7709439,52.701839],[-2.7835264,52.6988674],[-2.7824803,52.6946975],[-2.7780591,52.6959798],[-2.7845219,52.6918997],[-2.7801717,52.6857895],[-2.775246,52.6859249],[-2.7534973,52.6841286],[-2.7496028,52.6904411],[-2.7590795,52.6936698],[-2.7516436,52.6950995],[-2.7524208,52.7032826]]],"type":"Polygon"},"id":"E02006037","properties":{"code":"E02006037","geography":"MSOA","name":"Shropshire 023"},"type":"Feature"},{"geometry":{"coordinates":[[[-2.6634183,52.7604259],[-2.6801962,52.7651369],[-2.6785115,52.7673218],[-2.6913667,52.7753119],[-2.7034411,52.7702825],[-2.7101462,52.7708198],[-2.7164281,52.7644279],[-2.7185993,52.7522111],[-2.7195701,52.7498215],[-2.7074165,52.7461585],[-2.7030755,52.7309459],[-2.705211,52.7269201],[-2.7126185,52.7285799],[-2.7097454,52.7225398],[-2.7012012,52.7194352],[-2.7123987,52.7139237],[-2.7126503,52.7082443],[-2.7078177,52.7049546],[-2.7128581,52.6999682],[-2.7080105,52.6932417],[-2.7243611,52.6888624],[-2.743568,52.680196],[-2.7534973,52.6841286],[-2.775246,52.6859249],[-2.7873117,52.6811524],[-2.7830006,52.6692269],[-2.792245,52.6631944],[-2.7843784,52.6595399],[-2.7865955,52.6572344],[-2.7802924,52.6573222],[-2.7818532,52.6556469],[-2.7688946,52.6539059],[-2.7632907,52.6624831],[-2.7562122,52.6606017],[-2.7496605,52.662719],[-2.7505412,52.6652559],[-2.738235,52.665304],[-2.7339903,52.6627702],[-2.7285421,52.6654561],[-2.7172582,52.6613216],[-2.7151758,52.6518429],[-2.7297079,52.6365543],[-2.725639,52.6277526],[-2.7175221,52.6365035],[-2.7017619,52.6389715],[-2.6933784,52.6488446],[-2.6881519,52.644722],[-2.6752182,52.6426175],[-2.6619729,52.6600039],[-2.6516303,52.6531245],[-2.6468587,52.6546222],[-2.649157,52.6731399],[-2.6633143,52.6789523],[-2.6657814,52.6920962],[-2.6493027,52.6986282],[-2.6352717,52.6986374],[-2.6341536,52.7023371],[-2.6243254,52.7034019],[-2.6054249,52.7067651],[-2.5974218,52.7182358],[-2.6151238,52.718939],[-2.6189201,52.7218627],[-2.6242861,52.7194883],[-2.6313305,52.7266705],[-2.6602509,52.731619],[-2.6644322,52.7379847],[-2.6593929,52.7435179],[-2.6673646,52.7501827],[-2.6619124,52.7505573],[-2.6634183,52.7604259]]],"type":"Polygon"},"id":"E02006038","properties":{"code":"E02006038","geography":"MSOA","name":"Shropshire 024"},"type":"Feature"},{"geometry":{"coordinates":[[[-2.8049241,52.6996349],[-2.813958,52.6923538],[-2.8422468,52.6999254],[-2.8519972,52.6994756],[-2.8621078,52.6947671],[-2.8856118,52.6972972],[-2.8920296,52.6931096],[-2.9378382,52.6902501],[-2.9386451,52.6871498],[-2.9315665,52.6866289],[-2.926326,52.6822964],[-2.9309953,52.6746832],[-2.9195386,52.6676405],[-2.9361035,52.6672549],[-2.9401559,52.6637133],[-2.9336916,52.6607688],[-2.9322658,52.6545895],[-2.9436467,52.6471474],[-2.949163,52.6473522],[-2.9492081,52.6432698],[-2.9539913,52.6420158],[-2.9662714,52.6366713],[-2.9580843,52.6326527],[-2.9563357,52.6239339],[-2.9508331,52.6240329],[-2.9554662,52.6142209],[-2.9389175,52.6123796],[-2.9289663,52.6142803],[-2.9320877,52.6227356],[-2.9182468,52.6224678],[-2.9142415,52.6289843],[-2.9017712,52.6285108],[-2.9012446,52.6133798],[-2.8945992,52.6102471],[-2.8971033,52.6041509],[-2.8936622,52.601131],[-2.8905724,52.6040752],[-2.8779693,52.6011163],[-2.8727957,52.6060429],[-2.8897484,52.6123685],[-2.882311,52.6193525],[-2.8816703,52.6280435],[-2.8658134,52.628077],[-2.8483893,52.6354302],[-2.8302939,52.6330264],[-2.8061528,52.6359045],[-2.7863721,52.6503553],[-2.7891623,52.6542745],[-2.7818532,52.6556469],[-2.7802924,52.6573222],[-2.7865955,52.6572344],[-2.7843784,52.6595399],[-2.792245,52.6631944],[-2.7830006,52.6692269],[-2.7873117,52.6811524],[-2.775246,52.6859249],[-2.7801717,52.6857895],[-2.7845219,52.6918997],[-2.7974539,52.6907939],[-2.8049241,52.6996349]]],"type":"Polygon"},"id":"E02006039","properties":{"code":"E02006039","geography":"MSOA","name":"Shropshire 026"},"type":"Feature"},{"geometry":{"coordinates":[[[-2.5012871,52.6294068],[-2.5127386,52.6406469],[-2.5484601,52.6546975],[-2.5454935,52.6583888],[-2.5542113,52.6600079],[-2.5494155,52.6662727],[-2.5556501,52.6710827],[-2.588565,52.6837337],[-2.5966738,52.690552],[-2.6033343,52.6893426],[-2.6127189,52.696784],[-2.6225524,52.6990168],[-2.6243254,52.7034019],[-2.6341536,52.7023371],[-2.6352717,52.6986374],[-2.6493027,52.6986282],[-2.6657814,52.6920962],[-2.6633143,52.6789523],[-2.649157,52.6731399],[-2.6468587,52.6546222],[-2.6516303,52.6531245],[-2.6619729,52.6600039],[-2.6752182,52.6426175],[-2.6881519,52.644722],[-2.6933784,52.6488446],[-2.7017619,52.6389715],[-2.7175221,52.6365035],[-2.725639,52.6277526],[-2.7297079,52.6365543],[-2.7151758,52.6518429],[-2.7172582,52.6613216],[-2.7285421,52.6654561],[-2.7339903,52.6627702],[-2.738235,52.665304],[-2.7505412,52.6652559],[-2.7496605,52.662719],[-2.7562122,52.6606017],[-2.7632907,52.6624831],[-2.7688946,52.6539059],[-2.7818532,52.6556469],[-2.7891623,52.6542745],[-2.7863721,52.6503553],[-2.8061528,52.6359045],[-2.8302939,52.6330264],[-2.8483893,52.6354302],[-2.8658134,52.628077],[-2.8816703,52.6280435],[-2.882311,52.6193525],[-2.8897484,52.6123685],[-2.8727957,52.6060429],[-2.8779693,52.6011163],[-2.8905724,52.6040752],[-2.8936622,52.601131],[-2.8775953,52.5979178],[-2.8803712,52.5876942],[-2.8649525,52.584183],[-2.8629967,52.5788425],[-2.8462504,52.5753472],[-2.8422763,52.562697],[-2.8145393,52.5585793],[-2.7826897,52.5657147],[-2.7711606,52.5623886],[-2.7670041,52.5579431],[-2.7716464,52.5457635],[-2.7570508,52.5398273],[-2.7497241,52.5315708],[-2.7401588,52.5330624],[-2.7431462,52.5356695],[-2.7354078,52.5431598],[-2.7065493,52.5425203],[-2.7015144,52.5516282],[-2.6920972,52.5512241],[-2.6715189,52.5588324],[-2.6666101,52.5559168],[-2.6600728,52.5569975],[-2.6547575,52.5660366],[-2.6367873,52.5634386],[-2.5959489,52.5852281],[-2.574088,52.6013478],[-2.5895069,52.6079157],[-2.5845721,52.6121144],[-2.5879848,52.6136839],[-2.5748116,52.6139635],[-2.5710038,52.6172452],[-2.559861,52.6127996],[-2.549946,52.6125353],[-2.5477155,52.6206388],[-2.5346328,52.6222794],[-2.5332807,52.6253889],[-2.513169,52.6251837],[-2.5012871,52.6294068]]],"type":"Polygon"},"id":"E02006040","properties":{"code":"E02006040","geography":"MSOA","name":"Shropshire 028"},"type":"Feature"},{"geometry":{"coordinates":[[[-2.9539913,52.6420158],[-2.9612268,52.6508037],[-2.9538121,52.6575546],[-2.9555577,52.6612134],[-2.9672083,52.6615313],[-2.9731941,52.6567684],[-2.9858602,52.6599644],[-3.0075685,52.6523389],[-3.0185981,52.6523948],[-3.028381,52.6545463],[-3.0383925,52.6651608],[-3.0446524,52.6655356],[-3.0490757,52.6622443],[-3.044908,52.6559283],[-3.0508594,52.653309],[-3.0510903,52.6473061],[-3.0698869,52.6457814],[-3.0835244,52.641272],[-3.0694015,52.6373936],[-3.0597907,52.6306769],[-3.0731038,52.6289445],[-3.0827023,52.6155182],[-3.0936437,52.6092909],[-3.0893592,52.5995721],[-3.1003324,52.5975703],[-3.1174472,52.585746],[-3.1221743,52.5876264],[-3.1395913,52.5857086],[-3.134942,52.5836119],[-3.1385704,52.5828404],[-3.1377731,52.5738373],[-3.1274278,52.5660094],[-3.1165635,52.5498977],[-3.1114867,52.5413984],[-3.1371087,52.534004],[-3.1315404,52.5270118],[-3.0853791,52.5345207],[-3.0808067,52.5391276],[-3.0939445,52.5448874],[-3.0861564,52.5486336],[-3.0872829,52.5512725],[-3.0649974,52.5567941],[-3.059818,52.5555457],[-3.0364535,52.5717892],[-3.0145209,52.5754848],[-3.006267,52.5736733],[-2.9976488,52.5638185],[-2.9997224,52.5546546],[-2.9941805,52.5529318],[-3.0051022,52.5294364],[-3.0009029,52.5239268],[-3.0063425,52.5196722],[-3.032417,52.5236918],[-3.0364309,52.511491],[-3.029204,52.5012531],[-3.0187206,52.4957187],[-3.008812,52.479622],[-2.9969226,52.4793361],[-2.9963725,52.4757526],[-2.9825509,52.4744821],[-2.9695489,52.4800141],[-2.9712288,52.4831029],[-2.9634334,52.4814152],[-2.9536817,52.4882514],[-2.9472608,52.4963738],[-2.9482779,52.506244],[-2.9180217,52.5011689],[-2.9123479,52.4883725],[-2.9044728,52.4860803],[-2.8854495,52.4918224],[-2.8801432,52.4882961],[-2.8719867,52.4938446],[-2.879488,52.5019162],[-2.8677704,52.5010144],[-2.8673705,52.5045299],[-2.8614344,52.5063997],[-2.8549924,52.5048736],[-2.8573257,52.5128884],[-2.870182,52.5210664],[-2.8788858,52.521633],[-2.8422763,52.562697],[-2.8462504,52.5753472],[-2.8629967,52.5788425],[-2.8649525,52.584183],[-2.8803712,52.5876942],[-2.8775953,52.5979178],[-2.8936622,52.601131],[-2.8971033,52.6041509],[-2.8945992,52.6102471],[-2.9012446,52.6133798],[-2.9017712,52.6285108],[-2.9142415,52.6289843],[-2.9182468,52.6224678],[-2.9320877,52.6227356],[-2.9289663,52.6142803],[-2.9389175,52.6123796],[-2.9554662,52.6142209],[-2.9508331,52.6240329],[-2.9563357,52.6239339],[-2.9580843,52.6326527],[-2.9662714,52.6366713],[-2.9539913,52.6420158]]],"type":"Polygon"},"id":"E02006041","properties":{"code":"E02006041","geography":"MSOA","name":"Shropshire 030"},"type":"Feature"},{"geometry":{"coordinates":[[[-2.6600728,52.5569975],[-2.6666101,52.5559168],[-2.6715189,52.5588324],[-2.6920972,52.5512241],[-2.7015144,52.5516282],[-2.7065493,52.5425203],[-2.7354078,52.5431598],[-2.7431462,52.5356695],[-2.7401588,52.5330624],[-2.7497241,52.5315708],[-2.7570508,52.5398273],[-2.7716464,52.5457635],[-2.7670041,52.5579431],[-2.7711606,52.5623886],[-2.7826897,52.5657147],[-2.8145393,52.5585793],[-2.8422763,52.562697],[-2.8788858,52.521633],[-2.870182,52.5210664],[-2.8573257,52.5128884],[-2.8549924,52.5048736],[-2.8633795,52.4987849],[-2.8530607,52.4955792],[-2.8218642,52.5035333],[-2.8126527,52.4917434],[-2.813042,52.4816439],[-2.7983007,52.4718191],[-2.7760259,52.4826177],[-2.7650729,52.4843087],[-2.7170257,52.512458],[-2.7104041,52.5051241],[-2.7052028,52.5102886],[-2.6986731,52.5095924],[-2.6834427,52.515586],[-2.6677275,52.5113869],[-2.6679717,52.5231416],[-2.6494915,52.5421724],[-2.6392217,52.5458232],[-2.6600728,52.5569975]]],"type":"Polygon"},"id":"E02006042","properties":{"code":"E02006042","geography":"MSOA","name":"Shropshire 032"},"type":"Feature"},{"geometry":{"coordinates":[[[-2.614127,52.5035634],[-2.6376687,52.5087702],[-2.6384687,52.5119194],[-2.6458559,52.5118495],[-2.652076,52.5157766],[-2.6586571,52.5094579],[-2.6677275,52.5113869],[-2.6834427,52.515586],[-2.6986731,52.5095924],[-2.7052028,52.5102886],[-2.7104041,52.5051241],[-2.7170257,52.512458],[-2.7650729,52.4843087],[-2.7760259,52.4826177],[-2.7983007,52.4718191],[-2.8145964,52.4607369],[-2.8157873,52.4553196],[-2.8334136,52.4520799],[-2.8371142,52.4471162],[-2.8422149,52.4477031],[-2.8513882,52.437228],[-2.8719981,52.4243695],[-2.8724258,52.4178886],[-2.8549332,52.4139146],[-2.8554423,52.3952851],[-2.8054337,52.3882387],[-2.8073899,52.3759548],[-2.7986514,52.3726468],[-2.7921131,52.3745204],[-2.7956251,52.3604257],[-2.792421,52.3568506],[-2.7614555,52.3594535],[-2.7387184,52.3645423],[-2.7390479,52.3699361],[-2.7335202,52.3716741],[-2.7359683,52.3745651],[-2.7292934,52.3811675],[-2.7150499,52.3797978],[-2.69046,52.3848935],[-2.6862715,52.3821329],[-2.6763766,52.3833938],[-2.6860014,52.3656552],[-2.6801196,52.3604313],[-2.6296647,52.3694951],[-2.6343869,52.3703214],[-2.6310711,52.3736537],[-2.62155,52.3750584],[-2.6057984,52.3835098],[-2.5973373,52.388535],[-2.5984924,52.3918689],[-2.5835442,52.3951226],[-2.5571028,52.4094075],[-2.5455475,52.4136544],[-2.5468211,52.4154356],[-2.5553745,52.4233711],[-2.5623177,52.4215968],[-2.568246,52.4249552],[-2.5633627,52.429423],[-2.5493305,52.429758],[-2.546132,52.4350145],[-2.5554947,52.4414821],[-2.5516339,52.4442404],[-2.5617185,52.4518572],[-2.5761721,52.4506072],[-2.5987755,52.4553223],[-2.5946578,52.4632732],[-2.5969302,52.4744031],[-2.6069786,52.4847737],[-2.6082107,52.4943378],[-2.6203476,52.4968667],[-2.614127,52.5035634]]],"type":"Polygon"},"id":"E02006043","properties":{"code":"E02006043","geography":"MSOA","name":"Shropshire 036"},"type":"Feature"},{"geometry":{"coordinates":[[[-2.8549924,52.5048736],[-2.8614344,52.5063997],[-2.8673705,52.5045299],[-2.8677704,52.5010144],[-2.879488,52.5019162],[-2.8719867,52.4938446],[-2.8801432,52.4882961],[-2.8854495,52.4918224],[-2.9044728,52.4860803],[-2.9123479,52.4883725],[-2.9180217,52.5011689],[-2.9482779,52.506244],[-2.9472608,52.4963738],[-2.9536817,52.4882514],[-2.9634334,52.4814152],[-2.9712288,52.4831029],[-2.9695489,52.4800141],[-2.9825509,52.4744821],[-2.9963725,52.4757526],[-2.9969226,52.4793361],[-3.008812,52.479622],[-3.0187206,52.4957187],[-3.029204,52.5012531],[-3.1115381,52.4988306],[-3.1265398,52.4923081],[-3.1416768,52.4912173],[-3.1805649,52.4738554],[-3.1973074,52.476003],[-3.2309103,52.453232],[-3.2355598,52.4425117],[-3.2283743,52.4395248],[-3.2306844,52.4304694],[-3.2223252,52.4267254],[-3.2197423,52.4213081],[-3.1790695,52.4094649],[-3.1606539,52.3999185],[-3.1615471,52.3921293],[-3.1546147,52.3877766],[-3.1295921,52.3844661],[-3.1202394,52.3774304],[-3.1106035,52.3771466],[-3.0919319,52.3625643],[-3.0705446,52.3559637],[-3.063297,52.3491986],[-3.0405766,52.3443219],[-2.9983257,52.3518809],[-2.9860705,52.3508822],[-2.9742995,52.354723],[-2.9705841,52.3513947],[-2.9547277,52.3492365],[-2.9331507,52.3500391],[-2.9361725,52.3529219],[-2.9306571,52.3549802],[-2.9388902,52.3610448],[-2.9261449,52.3669822],[-2.9008068,52.3672567],[-2.9223125,52.3751333],[-2.9140089,52.3821198],[-2.9195578,52.3845279],[-2.9176866,52.3862751],[-2.9054268,52.3857695],[-2.8930623,52.3796434],[-2.8931358,52.374075],[-2.8865077,52.3784977],[-2.8884577,52.3851406],[-2.8637861,52.3887005],[-2.8554423,52.3952851],[-2.8549332,52.4139146],[-2.8724258,52.4178886],[-2.8719981,52.4243695],[-2.8513882,52.437228],[-2.8422149,52.4477031],[-2.8371142,52.4471162],[-2.8334136,52.4520799],[-2.8157873,52.4553196],[-2.8145964,52.4607369],[-2.7983007,52.4718191],[-2.813042,52.4816439],[-2.8126527,52.4917434],[-2.8218642,52.5035333],[-2.8530607,52.4955792],[-2.8633795,52.4987849],[-2.8549924,52.5048736]]],"type":"Polygon"},"id":"E02006044","properties":{"code":"E02006044","geography":"MSOA","name":"Shropshire 037"},"type":"Feature"},{"geometry":{"coordinates":[[[-2.6801196,52.3604313],[-2.6860014,52.3656552],[-2.6763766,52.3833938],[-2.6862715,52.3821329],[-2.69046,52.3848935],[-2.7150499,52.3797978],[-2.7292934,52.3811675],[-2.7359683,52.3745651],[-2.7335202,52.3716741],[-2.7390479,52.3699361],[-2.7387184,52.3645423],[-2.7614555,52.3594535],[-2.742966,52.3593875],[-2.7416801,52.3567831],[-2.7327122,52.3555312],[-2.7121941,52.3509955],[-2.7148029,52.342753],[-2.6799241,52.3570869],[-2.6801196,52.3604313]]],"type":"Polygon"},"id":"E02006045","properties":{"code":"E02006045","geography":"MSOA","name":"Shropshire 038"},"type":"Feature"},{"geometry":{"coordinates":[[[-2.4109903,52.386415],[-2.4258234,52.384742],[-2.4338679,52.3879666],[-2.4489598,52.3835059],[-2.4646868,52.3882882],[-2.4711737,52.383799],[-2.4917804,52.384753],[-2.4989369,52.3901938],[-2.505884,52.3874116],[-2.5115185,52.3937756],[-2.5075463,52.393395],[-2.5088336,52.3973864],[-2.4971518,52.40394],[-2.5029193,52.4128198],[-2.5073844,52.4102489],[-2.5209595,52.4112661],[-2.5335532,52.4070559],[-2.5426714,52.4074029],[-2.5514087,52.4034994],[-2.5571028,52.4094075],[-2.5835442,52.3951226],[-2.5984924,52.3918689],[-2.5973373,52.388535],[-2.6057984,52.3835098],[-2.62155,52.3750584],[-2.6310711,52.3736537],[-2.6343869,52.3703214],[-2.6296647,52.3694951],[-2.6801196,52.3604313],[-2.6799241,52.3570869],[-2.7148029,52.342753],[-2.7121941,52.3509955],[-2.7327122,52.3555312],[-2.7411809,52.3497085],[-2.73793,52.3427147],[-2.7483817,52.3348894],[-2.7669886,52.3361001],[-2.7371735,52.3194633],[-2.7246697,52.3198354],[-2.7142507,52.3088649],[-2.6798128,52.31201],[-2.6799467,52.3151862],[-2.6891298,52.3165925],[-2.6660684,52.3422877],[-2.6559971,52.3378886],[-2.6593408,52.3342657],[-2.6491711,52.331705],[-2.6433089,52.333793],[-2.6410172,52.3286299],[-2.6362277,52.3283139],[-2.6368942,52.324464],[-2.629403,52.3207008],[-2.6239847,52.3214153],[-2.6280763,52.313422],[-2.6180377,52.3069435],[-2.6100043,52.3062677],[-2.5950918,52.3138724],[-2.5845032,52.3131586],[-2.5748555,52.3175626],[-2.5626474,52.3111231],[-2.5622214,52.3330949],[-2.5391523,52.3441256],[-2.52191,52.3418342],[-2.5121322,52.3370967],[-2.5084129,52.3332436],[-2.5132075,52.3292006],[-2.4817986,52.3310644],[-2.4782243,52.3384087],[-2.4843572,52.344546],[-2.481795,52.3511062],[-2.48833,52.3553839],[-2.4838927,52.360478],[-2.474183,52.3605992],[-2.474773,52.3671319],[-2.4677519,52.3645384],[-2.4576558,52.3678107],[-2.4263398,52.3658189],[-2.4149265,52.3682411],[-2.4099241,52.370605],[-2.4151621,52.37897],[-2.4109903,52.386415]]],"type":"Polygon"},"id":"E02006046","properties":{"code":"E02006046","geography":"MSOA","name":"Shropshire 039"},"type":"Feature"}],"type":"FeatureCollection"}
