{"features":[{"geometry":{"coordinates":[[[-2.3094219,53.2462833],[-2.3292414,53.2531931],[-2.3490128,53.2486576],[-2.3463548,53.2409203],[-2.3591099,53.2333044],[-2.3638583,53.2235719],[-2.3963192,53.2343109],[-2.3988722,53.2282508],[-2.4028232,53.2292795],[-2.3978881,53.2251674],[-2.4011214,53.2217014],[-2.4129013,53.2211434],[-2.4101208,53.205673],[-2.4008909,53.203267],[-2.3947184,53.2057459],[-2.3747021,53.2070878],[-2.3733098,53.2043031],[-2.3644201,53.2045239],[-2.3629666,53.207028],[-2.344025,53.2079093],[-2.3309677,53.2038132],[-2.3283408,53.206494],[-2.3254297,53.2028542],[-2.3206025,53.2043558],[-2.3178882,53.201147],[-2.3127411,53.2016989],[-2.3092156,53.1963069],[-2.2998656,53.1970679],[-2.3006053,53.1936825],[-2.2947166,53.193815],[-2.2901271,53.1859813],[-2.2939916,53.1828287],[-2.2843636,53.1779882],[-2.2792885,53.1706265],[-2.257493,53.1637435],[-2.2642082,53.1636667],[-2.267959,53.1549508],[-2.2801039,53.1589462],[-2.2898191,53.1569679],[-2.307488,53.1617258],[-2.3166608,53.1516452],[-2.3151397,53.1403863],[-2.3074285,53.1364819],[-2.3047588,53.1381812],[-2.2913658,53.124601],[-2.2889613,53.1301028],[-2.2709522,53.1330081],[-2.2691595,53.1367356],[-2.2563993,53.1317946],[-2.2456464,53.1329912],[-2.2286771,53.1241941],[-2.2208894,53.1225411],[-2.2206933,53.1245058],[-2.2114242,53.1157458],[-2.2113152,53.1158075],[-2.1865342,53.1359599],[-2.1987923,53.1413783],[-2.1953437,53.1476339],[-2.2129017,53.1513856],[-2.2161891,53.1554093],[-2.2203278,53.1548485],[-2.237568,53.1552581],[-2.2507587,53.1657093],[-2.2423953,53.1756333],[-2.2238271,53.1693838],[-2.2203662,53.1712302],[-2.2162266,53.169076],[-2.210367,53.1787908],[-2.2188675,53.1827416],[-2.2160588,53.1899207],[-2.22791,53.1999311],[-2.2408874,53.1988262],[-2.2424685,53.2018369],[-2.260363,53.2048415],[-2.2799119,53.211922],[-2.2912737,53.2217572],[-2.3017929,53.2252836],[-2.3094219,53.2462833]]],"type":"Polygon"},"id":"E02003811","properties":{"code":"E02003811","geography":"MSOA","name":"Cheshire East 022"},"type":"Feature"},{"geometry":{"coordinates":[[[-2.3309677,53.2038132],[-2.344025,53.2079093],[-2.3629666,53.207028],[-2.3644201,53.2045239],[-2.3733098,53.2043031],[-2.3747021,53.2070878],[-2.3947184,53.2057459],[-2.3898634,53.1960693],[-2.3725615,53.1955344],[-2.3500576,53.1950637],[-2.3346395,53.1893356],[-2.3309677,53.2038132]]],"type":"Polygon"},"id":"E02003812","properties":{"code":"E02003812","geography":"MSOA","name":"Cheshire East 023"},"type":"Feature"},{"geometry":{"coordinates":[[[-2.4484901,53.1998966],[-2.4565526,53.2025712],[-2.4602565,53.1990654],[-2.457303,53.176621],[-2.4527878,53.1740706],[-2.4420666,53.1890225],[-2.4484901,53.1998966]]],"type":"Polygon"},"id":"E02003813","properties":{"code":"E02003813","geography":"MSOA","name":"Cheshire East 024"},"type":"Feature"},{"geometry":{"coordinates":[[[-2.4065802,53.1741205],[-2.4163383,53.1879146],[-2.4306477,53.1979926],[-2.4344727,53.1966994],[-2.4431249,53.2013472],[-2.4484901,53.1998966],[-2.4420666,53.1890225],[-2.4527878,53.1740706],[-2.4419856,53.1687906],[-2.4304641,53.1766866],[-2.4245608,53.1720543],[-2.4065802,53.1741205]]],"type":"Polygon"},"id":"E02003814","properties":{"code":"E02003814","geography":"MSOA","name":"Cheshire East 025"},"type":"Feature"},{"geometry":{"coordinates":[[[-2.2054136,53.1623884],[-2.1930148,53.1575015],[-2.1900733,53.1588446],[-2.1689481,53.1719607],[-2.1562726,53.1888204],[-2.1800424,53.1884418],[-2.1905782,53.1772163],[-2.1993804,53.1763129],[-2.1993976,53.1716583],[-2.2090664,53.1665239],[-2.2054136,53.1623884]]],"type":"Polygon"},"id":"E02003815","properties":{"code":"E02003815","geography":"MSOA","name":"Cheshire East 026"},"type":"Feature"},{"geometry":{"coordinates":[[[-2.1993804,53.1763129],[-2.210367,53.1787908],[-2.2162266,53.169076],[-2.2203662,53.1712302],[-2.2238271,53.1693838],[-2.21964,53.1664168],[-2.2265498,53.1627107],[-2.2198909,53.1599356],[-2.2203278,53.1548485],[-2.2161891,53.1554093],[-2.2012472,53.1564189],[-2.2054136,53.1623884],[-2.2090664,53.1665239],[-2.1993976,53.1716583],[-2.1993804,53.1763129]]],"type":"Polygon"},"id":"E02003816","properties":{"code":"E02003816","geography":"MSOA","name":"Cheshire East 027"},"type":"Feature"},{"geometry":{"coordinates":[[[-2.2238271,53.1693838],[-2.2423953,53.1756333],[-2.2507587,53.1657093],[-2.237568,53.1552581],[-2.2203278,53.1548485],[-2.2198909,53.1599356],[-2.2265498,53.1627107],[-2.21964,53.1664168],[-2.2238271,53.1693838]]],"type":"Polygon"},"id":"E02003817","properties":{"code":"E02003817","geography":"MSOA","name":"Cheshire East 028"},"type":"Feature"},{"geometry":{"coordinates":[[[-2.1407325,53.183561],[-2.1430432,53.1875607],[-2.1473704,53.1846666],[-2.1562726,53.1888204],[-2.1689481,53.1719607],[-2.1900733,53.1588446],[-2.1930148,53.1575015],[-2.2054136,53.1623884],[-2.2012472,53.1564189],[-2.2161891,53.1554093],[-2.2129017,53.1513856],[-2.1953437,53.1476339],[-2.1987923,53.1413783],[-2.1865342,53.1359599],[-2.1735589,53.1473175],[-2.1596052,53.1528427],[-2.155646,53.1596011],[-2.1414129,53.1566346],[-2.1448673,53.1737498],[-2.1407325,53.183561]]],"type":"Polygon"},"id":"E02003818","properties":{"code":"E02003818","geography":"MSOA","name":"Cheshire East 029"},"type":"Feature"},{"geometry":{"coordinates":[[[-2.3362238,53.1522336],[-2.323957,53.1598417],[-2.3304198,53.162626],[-2.3561961,53.1539697],[-2.3628782,53.1581339],[-2.3875951,53.1586443],[-2.3913428,53.1539015],[-2.3869203,53.1526656],[-2.3884132,53.1478957],[-2.3652095,53.1443466],[-2.3362238,53.1522336]]],"type":"Polygon"},"id":"E02003819","properties":{"code":"E02003819","geography":"MSOA","name":"Cheshire East 030"},"type":"Feature"},{"geometry":{"coordinates":[[[-2.3875951,53.1586443],[-2.3914304,53.1598842],[-2.4012175,53.1520601],[-2.3998758,53.143152],[-2.4062496,53.1316677],[-2.3909983,53.1266903],[-2.3780901,53.1167407],[-2.3693545,53.1184974],[-2.3619093,53.1154759],[-2.3582941,53.1255663],[-2.3631232,53.129754],[-2.3768101,53.1335604],[-2.373579,53.1382269],[-2.3770584,53.1413944],[-2.3702189,53.1408246],[-2.3652095,53.1443466],[-2.3884132,53.1478957],[-2.3869203,53.1526656],[-2.3913428,53.1539015],[-2.3875951,53.1586443]]],"type":"Polygon"},"id":"E02003820","properties":{"code":"E02003820","geography":"MSOA","name":"Cheshire East 031"},"type":"Feature"},{"geometry":{"coordinates":[[[-2.3631232,53.129754],[-2.3315506,53.1439951],[-2.3362238,53.1522336],[-2.3652095,53.1443466],[-2.3702189,53.1408246],[-2.3770584,53.1413944],[-2.373579,53.1382269],[-2.3768101,53.1335604],[-2.3631232,53.129754]]],"type":"Polygon"},"id":"E02003821","properties":{"code":"E02003821","geography":"MSOA","name":"Cheshire East 032"},"type":"Feature"},{"geometry":{"coordinates":[[[-2.2114242,53.1157458],[-2.2206933,53.1245058],[-2.2208894,53.1225411],[-2.2286771,53.1241941],[-2.2456464,53.1329912],[-2.2563993,53.1317946],[-2.2691595,53.1367356],[-2.2709522,53.1330081],[-2.2889613,53.1301028],[-2.2913658,53.124601],[-2.3047588,53.1381812],[-2.3074285,53.1364819],[-2.3151397,53.1403863],[-2.3166608,53.1516452],[-2.307488,53.1617258],[-2.2898191,53.1569679],[-2.2801039,53.1589462],[-2.267959,53.1549508],[-2.2642082,53.1636667],[-2.257493,53.1637435],[-2.2792885,53.1706265],[-2.2843636,53.1779882],[-2.2939916,53.1828287],[-2.2901271,53.1859813],[-2.2947166,53.193815],[-2.3006053,53.1936825],[-2.2998656,53.1970679],[-2.3092156,53.1963069],[-2.3127411,53.2016989],[-2.3178882,53.201147],[-2.3206025,53.2043558],[-2.3254297,53.2028542],[-2.3283408,53.206494],[-2.3309677,53.2038132],[-2.3346395,53.1893356],[-2.3500576,53.1950637],[-2.3725615,53.1955344],[-2.3711537,53.1904236],[-2.3768641,53.1872568],[-2.3687103,53.1829929],[-2.3782026,53.1720648],[-2.3922108,53.1798497],[-2.3979722,53.1772114],[-2.397943,53.172282],[-2.4065802,53.1741205],[-2.4245608,53.1720543],[-2.4304641,53.1766866],[-2.4419856,53.1687906],[-2.4437171,53.1599948],[-2.4416401,53.1577222],[-2.4255974,53.1570983],[-2.4241459,53.1494134],[-2.4278581,53.1479995],[-2.4198622,53.142834],[-2.4232453,53.1370547],[-2.4164994,53.131491],[-2.42468,53.1212347],[-2.4168316,53.1182849],[-2.4074072,53.1252768],[-2.3909983,53.1266903],[-2.4062496,53.1316677],[-2.3998758,53.143152],[-2.4012175,53.1520601],[-2.3914304,53.1598842],[-2.3875951,53.1586443],[-2.3628782,53.1581339],[-2.3561961,53.1539697],[-2.3304198,53.162626],[-2.323957,53.1598417],[-2.3362238,53.1522336],[-2.3315506,53.1439951],[-2.3631232,53.129754],[-2.3582941,53.1255663],[-2.3619093,53.1154759],[-2.3643228,53.1097515],[-2.3545676,53.1099705],[-2.3496023,53.1059513],[-2.3343763,53.1024467],[-2.3323656,53.1037927],[-2.3282835,53.1067579],[-2.3298737,53.1173649],[-2.3141787,53.1061345],[-2.2945711,53.1016612],[-2.2811218,53.0938797],[-2.2771057,53.0858889],[-2.2571258,53.0899997],[-2.2532487,53.0939603],[-2.2465653,53.0901743],[-2.2379515,53.1010299],[-2.223074,53.1037781],[-2.2114242,53.1157458]]],"type":"Polygon"},"id":"E02003822","properties":{"code":"E02003822","geography":"MSOA","name":"Cheshire East 033"},"type":"Feature"},{"geometry":{"coordinates":[[[-2.2771057,53.0858889],[-2.2811218,53.0938797],[-2.2945711,53.1016612],[-2.3141787,53.1061345],[-2.3298737,53.1173649],[-2.3282835,53.1067579],[-2.3323656,53.1037927],[-2.3278005,53.1003302],[-2.3241512,53.1033978],[-2.3149242,53.1010128],[-2.3147252,53.1028227],[-2.3049916,53.0988522],[-2.3033964,53.0829447],[-2.2948104,53.0783107],[-2.2816901,53.0802995],[-2.2752885,53.0821725],[-2.2771057,53.0858889]]],"type":"Polygon"},"id":"E02003823","properties":{"code":"E02003823","geography":"MSOA","name":"Cheshire East 040"},"type":"Feature"},{"geometry":{"coordinates":[[[-2.3033964,53.0829447],[-2.3049916,53.0988522],[-2.3147252,53.1028227],[-2.3149242,53.1010128],[-2.3241512,53.1033978],[-2.3278005,53.1003302],[-2.3323656,53.1037927],[-2.3343763,53.1024467],[-2.331809,53.0929643],[-2.3352905,53.0873212],[-2.3265543,53.0867098],[-2.3167277,53.0810984],[-2.3033964,53.0829447]]],"type":"Polygon"},"id":"E02003824","properties":{"code":"E02003824","geography":"MSOA","name":"Cheshire East 042"},"type":"Feature"},{"geometry":{"coordinates":[[[-2.44608,53.1125437],[-2.4534628,53.1249998],[-2.461135,53.1240674],[-2.4603887,53.1178584],[-2.4685433,53.1176719],[-2.4681812,53.1132329],[-2.4677977,53.1110733],[-2.462031,53.1126523],[-2.44608,53.1125437]]],"type":"Polygon"},"id":"E02003825","properties":{"code":"E02003825","geography":"MSOA","name":"Cheshire East 034"},"type":"Feature"},{"geometry":{"coordinates":[[[-2.42468,53.1212347],[-2.4320621,53.1242937],[-2.4534628,53.1249998],[-2.44608,53.1125437],[-2.4440546,53.1060777],[-2.4426212,53.1005286],[-2.4272919,53.1033356],[-2.4172124,53.1115884],[-2.4206559,53.1130003],[-2.4168316,53.1182849],[-2.42468,53.1212347]]],"type":"Polygon"},"id":"E02003826","properties":{"code":"E02003826","geography":"MSOA","name":"Cheshire East 035"},"type":"Feature"},{"geometry":{"coordinates":[[[-2.44608,53.1125437],[-2.462031,53.1126523],[-2.4587362,53.1102681],[-2.4610799,53.1018678],[-2.4681906,53.1006248],[-2.4486851,53.0965668],[-2.450375,53.1032813],[-2.4440546,53.1060777],[-2.44608,53.1125437]]],"type":"Polygon"},"id":"E02003827","properties":{"code":"E02003827","geography":"MSOA","name":"Cheshire East 036"},"type":"Feature"},{"geometry":{"coordinates":[[[-2.462031,53.1126523],[-2.4677977,53.1110733],[-2.4681812,53.1132329],[-2.4780058,53.108991],[-2.4988065,53.1084877],[-2.5034335,53.1001336],[-2.4876771,53.0927518],[-2.4721368,53.0966998],[-2.4681906,53.1006248],[-2.4610799,53.1018678],[-2.4587362,53.1102681],[-2.462031,53.1126523]]],"type":"Polygon"},"id":"E02003828","properties":{"code":"E02003828","geography":"MSOA","name":"Cheshire East 037"},"type":"Feature"},{"geometry":{"coordinates":[[[-2.4270817,53.0795526],[-2.4127295,53.0802962],[-2.4070108,53.0893615],[-2.4174912,53.0986067],[-2.4127624,53.1085345],[-2.4172124,53.1115884],[-2.4272919,53.1033356],[-2.4340225,53.0916195],[-2.4330826,53.0898071],[-2.4270817,53.0795526]]],"type":"Polygon"},"id":"E02003829","properties":{"code":"E02003829","geography":"MSOA","name":"Cheshire East 038"},"type":"Feature"},{"geometry":{"coordinates":[[[-2.4272919,53.1033356],[-2.4426212,53.1005286],[-2.4440546,53.1060777],[-2.450375,53.1032813],[-2.4486851,53.0965668],[-2.4681906,53.1006248],[-2.4721368,53.0966998],[-2.4609372,53.0916297],[-2.4645129,53.0893577],[-2.4607923,53.0887267],[-2.457048,53.0927881],[-2.4461457,53.0943907],[-2.4340225,53.0916195],[-2.4272919,53.1033356]]],"type":"Polygon"},"id":"E02003830","properties":{"code":"E02003830","geography":"MSOA","name":"Cheshire East 039"},"type":"Feature"},{"geometry":{"coordinates":[[[-2.3619093,53.1154759],[-2.3693545,53.1184974],[-2.3780901,53.1167407],[-2.3909983,53.1266903],[-2.4074072,53.1252768],[-2.4168316,53.1182849],[-2.4206559,53.1130003],[-2.4172124,53.1115884],[-2.4127624,53.1085345],[-2.4174912,53.0986067],[-2.4070108,53.0893615],[-2.4127295,53.0802962],[-2.4270817,53.0795526],[-2.4305653,53.0785603],[-2.4336898,53.0632133],[-2.4288737,53.0587407],[-2.4035664,53.0571544],[-2.3977994,53.0474101],[-2.382886,53.0488018],[-2.3810209,53.0526472],[-2.3575788,53.0547025],[-2.3544709,53.0587277],[-2.3486085,53.0558103],[-2.3305147,53.0708441],[-2.329009,53.0765633],[-2.3167277,53.0810984],[-2.3265543,53.0867098],[-2.3352905,53.0873212],[-2.331809,53.0929643],[-2.3343763,53.1024467],[-2.3496023,53.1059513],[-2.3545676,53.1099705],[-2.3643228,53.1097515],[-2.3619093,53.1154759]]],"type":"Polygon"},"id":"E02003831","properties":{"code":"E02003831","geography":"MSOA","name":"Cheshire East 041"},"type":"Feature"},{"geometry":{"coordinates":[[[-2.4340225,53.0916195],[-2.4461457,53.0943907],[-2.457048,53.0927881],[-2.4607923,53.0887267],[-2.4517106,53.0858861],[-2.4330826,53.0898071],[-2.4340225,53.0916195]]],"type":"Polygon"},"id":"E02003832","properties":{"code":"E02003832","geography":"MSOA","name":"Cheshire East 043"},"type":"Feature"},{"geometry":{"coordinates":[[[-2.4721368,53.0966998],[-2.4876771,53.0927518],[-2.5034335,53.1001336],[-2.5065523,53.0987557],[-2.503332,53.0905537],[-2.5094615,53.0855035],[-2.501242,53.0803758],[-2.4802891,53.0798817],[-2.4795954,53.0847866],[-2.4746852,53.0862106],[-2.4558999,53.0835559],[-2.4517106,53.0858861],[-2.4607923,53.0887267],[-2.4645129,53.0893577],[-2.4609372,53.0916297],[-2.4721368,53.0966998]]],"type":"Polygon"},"id":"E02003833","properties":{"code":"E02003833","geography":"MSOA","name":"Cheshire East 044"},"type":"Feature"},{"geometry":{"coordinates":[[[-2.4270817,53.0795526],[-2.4330826,53.0898071],[-2.4517106,53.0858861],[-2.4558999,53.0835559],[-2.4497764,53.0812569],[-2.4482852,53.0758039],[-2.4381057,53.0794187],[-2.4305653,53.0785603],[-2.4270817,53.0795526]]],"type":"Polygon"},"id":"E02003834","properties":{"code":"E02003834","geography":"MSOA","name":"Cheshire East 045"},"type":"Feature"},{"geometry":{"coordinates":[[[-2.4558999,53.0835559],[-2.4746852,53.0862106],[-2.4795954,53.0847866],[-2.4802891,53.0798817],[-2.501242,53.0803758],[-2.5059293,53.0773573],[-2.4882061,53.0683552],[-2.4858926,53.0712571],[-2.4709336,53.07211],[-2.4743418,53.0661027],[-2.4723853,53.0621176],[-2.4662251,53.061552],[-2.4600598,53.066727],[-2.4493958,53.0666634],[-2.454902,53.0715631],[-2.4482852,53.0758039],[-2.4497764,53.0812569],[-2.4558999,53.0835559]]],"type":"Polygon"},"id":"E02003835","properties":{"code":"E02003835","geography":"MSOA","name":"Cheshire East 046"},"type":"Feature"},{"geometry":{"coordinates":[[[-2.501242,53.0803758],[-2.5094615,53.0855035],[-2.520042,53.0828103],[-2.5241637,53.0712641],[-2.5132784,53.0635805],[-2.4979227,53.0645888],[-2.5059293,53.0773573],[-2.501242,53.0803758]]],"type":"Polygon"},"id":"E02003836","properties":{"code":"E02003836","geography":"MSOA","name":"Cheshire East 047"},"type":"Feature"},{"geometry":{"coordinates":[[[-2.4305653,53.0785603],[-2.4381057,53.0794187],[-2.4482852,53.0758039],[-2.454902,53.0715631],[-2.4493958,53.0666634],[-2.4600598,53.066727],[-2.4662251,53.061552],[-2.4723853,53.0621176],[-2.4743418,53.0661027],[-2.4709336,53.07211],[-2.4858926,53.0712571],[-2.4882061,53.0683552],[-2.5059293,53.0773573],[-2.4979227,53.0645888],[-2.461331,53.0569515],[-2.4476431,53.0582462],[-2.4340838,53.0553077],[-2.4288737,53.0587407],[-2.4336898,53.0632133],[-2.4305653,53.0785603]]],"type":"Polygon"},"id":"E02003838","properties":{"code":"E02003838","geography":"MSOA","name":"Cheshire East 048"},"type":"Feature"},{"geometry":{"coordinates":[[[-2.5132784,53.0635805],[-2.5241637,53.0712641],[-2.5361861,53.0710284],[-2.5404254,53.0603849],[-2.5256184,53.0617818],[-2.5202329,53.0522591],[-2.5095176,53.0534353],[-2.5132784,53.0635805]]],"type":"Polygon"},"id":"E02003839","properties":{"code":"E02003839","geography":"MSOA","name":"Cheshire East 050"},"type":"Feature"},{"geometry":{"coordinates":[[[-2.5887985,53.1465681],[-2.6044754,53.1451339],[-2.6104478,53.1502766],[-2.6269656,53.1500385],[-2.6403427,53.1406344],[-2.6412959,53.1284507],[-2.6597305,53.1307006],[-2.6626348,53.121086],[-2.6744372,53.115129],[-2.6952432,53.1198442],[-2.705919,53.1184584],[-2.7113628,53.0936267],[-2.7317382,53.0917933],[-2.7349291,53.0865374],[-2.7454655,53.082141],[-2.7529287,53.0692103],[-2.7410595,53.0645544],[-2.7324235,53.0576679],[-2.7346432,53.0550138],[-2.7183598,53.0442525],[-2.7024108,53.0543051],[-2.6688173,53.0386379],[-2.6786818,53.0326753],[-2.6793213,53.0259244],[-2.6850183,53.0216982],[-2.678321,53.0149963],[-2.6887561,53.0122558],[-2.6992928,52.9954246],[-2.687079,52.9868167],[-2.6746626,52.9856492],[-2.6523573,52.9949804],[-2.6426993,52.993505],[-2.6326509,52.9966565],[-2.6221363,52.986828],[-2.607734,52.9883472],[-2.6056828,52.9793833],[-2.5948887,52.979592],[-2.5996299,52.9754177],[-2.5927566,52.9741546],[-2.5984467,52.9717027],[-2.5976936,52.9629909],[-2.5864138,52.9553641],[-2.5768034,52.9560904],[-2.5702765,52.9597567],[-2.5734924,52.9627012],[-2.5612631,52.9649367],[-2.5536976,52.9574509],[-2.5463555,52.9568222],[-2.5295161,52.9471498],[-2.5232806,52.95434],[-2.5214276,52.9742496],[-2.5068829,52.964903],[-2.4990232,52.9684188],[-2.4917006,52.9676687],[-2.4811532,52.9588021],[-2.4750838,52.9624736],[-2.4502572,52.9660357],[-2.4429575,52.9707232],[-2.4346136,52.9695056],[-2.4381684,52.9855515],[-2.4455928,52.9929904],[-2.4662086,52.9993469],[-2.4681868,53.006322],[-2.4839516,53.0074589],[-2.4849601,53.0123396],[-2.496906,53.0179866],[-2.4983651,53.0218774],[-2.5046713,53.0200855],[-2.502675,53.0128811],[-2.524138,53.0058637],[-2.5334954,53.0094204],[-2.539355,53.0075109],[-2.5650847,53.0091956],[-2.5680739,53.0204924],[-2.5828296,53.0235538],[-2.5785853,53.0320035],[-2.5822113,53.0409159],[-2.5678457,53.0511806],[-2.5706914,53.0605466],[-2.579347,53.0569838],[-2.5797463,53.0638018],[-2.5739742,53.0643745],[-2.5744901,53.0676064],[-2.5926657,53.0643845],[-2.5975645,53.0649218],[-2.5975183,53.0680556],[-2.6043534,53.064117],[-2.6120589,53.0656473],[-2.6109811,53.0711065],[-2.6018155,53.0713339],[-2.6051809,53.076641],[-2.5996679,53.0865822],[-2.5823645,53.0782653],[-2.5778699,53.0797965],[-2.5802842,53.0860474],[-2.5953379,53.0926267],[-2.5970523,53.1008379],[-2.5717552,53.1099692],[-2.5686181,53.113367],[-2.574767,53.1220945],[-2.5611435,53.1298812],[-2.5620326,53.1354861],[-2.5674067,53.1357413],[-2.5746284,53.1436268],[-2.5786129,53.1386391],[-2.5887059,53.139821],[-2.584739,53.1452451],[-2.5887985,53.1465681]]],"type":"Polygon"},"id":"E02003840","properties":{"code":"E02003840","geography":"MSOA","name":"Cheshire East 051"},"type":"Feature"},{"geometry":{"coordinates":[[[-2.0339312,53.3720307],[-2.0405645,53.3740716],[-2.0520282,53.3673763],[-2.0596772,53.3588936],[-2.0680781,53.3573773],[-2.0837579,53.3595372],[-2.095034,53.3660427],[-2.1040889,53.3659588],[-2.096318,53.3649981],[-2.1000387,53.3502674],[-2.0944591,53.3480352],[-2.0973338,53.3420668],[-2.1013284,53.3418032],[-2.1012616,53.3457173],[-2.1073583,53.343254],[-2.1038144,53.3392334],[-2.0920533,53.3396976],[-2.0851312,53.3399815],[-2.0813046,53.332998],[-2.0601309,53.3207565],[-2.0642382,53.3177251],[-2.0609983,53.3132154],[-2.0392454,53.3079084],[-2.0269894,53.3113044],[-2.024451,53.318467],[-2.0115543,53.3259377],[-2.0092895,53.3313641],[-2.0136504,53.332404],[-2.0143198,53.3400426],[-2.0046607,53.3459939],[-2.0106729,53.3556857],[-2.008999,53.3619948],[-2.0218176,53.366741],[-2.0271295,53.3637515],[-2.0340878,53.3677367],[-2.0310596,53.3702461],[-2.0339312,53.3720307]]],"type":"Polygon"},"id":"E02003853","properties":{"code":"E02003853","geography":"MSOA","name":"Cheshire East 001"},"type":"Feature"},{"geometry":{"coordinates":[[[-2.1322096,53.3649458],[-2.1390268,53.3672937],[-2.138197,53.3568742],[-2.1425334,53.3541725],[-2.1511901,53.3481153],[-2.1440995,53.3428539],[-2.1468111,53.3400816],[-2.1408295,53.3423367],[-2.1303697,53.3392034],[-2.1218547,53.3401816],[-2.1186449,53.3448415],[-2.1239659,53.3457331],[-2.1144072,53.3646235],[-2.1231964,53.3619299],[-2.1322096,53.3649458]]],"type":"Polygon"},"id":"E02003854","properties":{"code":"E02003854","geography":"MSOA","name":"Cheshire East 002"},"type":"Feature"},{"geometry":{"coordinates":[[[-2.1038144,53.3392334],[-2.1073583,53.343254],[-2.1012616,53.3457173],[-2.1013284,53.3418032],[-2.0973338,53.3420668],[-2.0944591,53.3480352],[-2.1000387,53.3502674],[-2.096318,53.3649981],[-2.1040889,53.3659588],[-2.1144072,53.3646235],[-2.1239659,53.3457331],[-2.1186449,53.3448415],[-2.1218547,53.3401816],[-2.1038144,53.3392334]]],"type":"Polygon"},"id":"E02003855","properties":{"code":"E02003855","geography":"MSOA","name":"Cheshire East 003"},"type":"Feature"},{"geometry":{"coordinates":[[[-2.2082926,53.3549801],[-2.2161429,53.3588501],[-2.232982,53.3587787],[-2.2229555,53.34968],[-2.2272876,53.3458509],[-2.2157539,53.3431342],[-2.219758,53.3375447],[-2.208418,53.3322135],[-2.2113853,53.3283098],[-2.208347,53.3261534],[-2.192821,53.321968],[-2.1848771,53.3326744],[-2.1941636,53.3386337],[-2.1809777,53.3440271],[-2.1880158,53.3487199],[-2.1854155,53.3525614],[-2.1906334,53.3532389],[-2.2082926,53.3549801]]],"type":"Polygon"},"id":"E02003856","properties":{"code":"E02003856","geography":"MSOA","name":"Cheshire East 004"},"type":"Feature"},{"geometry":{"coordinates":[[[-2.208347,53.3261534],[-2.2113853,53.3283098],[-2.208418,53.3322135],[-2.219758,53.3375447],[-2.2157539,53.3431342],[-2.2272876,53.3458509],[-2.2376961,53.3374304],[-2.2434108,53.3372579],[-2.2234846,53.3330335],[-2.2219076,53.3277031],[-2.208347,53.3261534]]],"type":"Polygon"},"id":"E02003857","properties":{"code":"E02003857","geography":"MSOA","name":"Cheshire East 005"},"type":"Feature"},{"geometry":{"coordinates":[[[-2.208347,53.3261534],[-2.2219076,53.3277031],[-2.2234846,53.3330335],[-2.2434108,53.3372579],[-2.2517072,53.3311222],[-2.2420521,53.3273285],[-2.2436549,53.3227149],[-2.2373852,53.3205363],[-2.2373543,53.3135754],[-2.2331895,53.3140805],[-2.2247335,53.3079249],[-2.2085054,53.3056292],[-2.192821,53.321968],[-2.208347,53.3261534]]],"type":"Polygon"},"id":"E02003858","properties":{"code":"E02003858","geography":"MSOA","name":"Cheshire East 006"},"type":"Feature"},{"geometry":{"coordinates":[[[-2.3861898,53.370247],[-2.4006989,53.3752041],[-2.4105974,53.383849],[-2.4265903,53.3874447],[-2.42749,53.375895],[-2.4397403,53.3704608],[-2.4398808,53.366647],[-2.4587134,53.368223],[-2.4653126,53.363545],[-2.4868802,53.367888],[-2.5058245,53.3554694],[-2.5210505,53.3478845],[-2.5183947,53.3423748],[-2.4939692,53.3432824],[-2.5122748,53.3213237],[-2.5029485,53.3133491],[-2.5055345,53.3106648],[-2.5016949,53.2986066],[-2.4975921,53.2993249],[-2.4980075,53.2898931],[-2.4782196,53.2894841],[-2.4699913,53.2856705],[-2.4644645,53.2872329],[-2.4520769,53.2840687],[-2.4468922,53.2800981],[-2.4504848,53.2781548],[-2.4465088,53.2722418],[-2.4337354,53.268623],[-2.4274249,53.2611492],[-2.4230235,53.2599369],[-2.4145487,53.26825],[-2.3999834,53.2652885],[-2.3940797,53.2667751],[-2.3879344,53.2646514],[-2.388236,53.2612293],[-2.3868641,53.2640258],[-2.3789931,53.2633599],[-2.3810725,53.2572732],[-2.3703601,53.2544072],[-2.3641541,53.2484848],[-2.3490128,53.2486576],[-2.3292414,53.2531931],[-2.3094219,53.2462833],[-2.2943682,53.247785],[-2.2915062,53.2532969],[-2.3011186,53.2546409],[-2.3046871,53.2670634],[-2.2849888,53.2774652],[-2.2669201,53.2799469],[-2.2804234,53.2823392],[-2.2759738,53.2856619],[-2.2828383,53.2876071],[-2.2857382,53.2923392],[-2.2980417,53.2924105],[-2.313155,53.2994891],[-2.30332,53.3081373],[-2.2884053,53.3034679],[-2.2686658,53.3145312],[-2.2681911,53.3250265],[-2.2653437,53.3260733],[-2.2634883,53.3222392],[-2.2537599,53.3275324],[-2.2621357,53.3322893],[-2.2517072,53.3311222],[-2.2434108,53.3372579],[-2.2376961,53.3374304],[-2.2272876,53.3458509],[-2.2229555,53.34968],[-2.232982,53.3587787],[-2.2407805,53.3595553],[-2.2549739,53.3608228],[-2.2588605,53.3585133],[-2.2670701,53.3505655],[-2.3013444,53.3401054],[-2.2969314,53.3485674],[-2.3139952,53.3574157],[-2.3234251,53.3582504],[-2.3329064,53.3654756],[-2.3432461,53.3666677],[-2.3463917,53.3675053],[-2.3490077,53.3658815],[-2.356892,53.3685037],[-2.3650288,53.3630895],[-2.3861898,53.370247]],[[-2.388044,53.3063424],[-2.3979504,53.3112632],[-2.3946818,53.3189361],[-2.378185,53.3190039],[-2.3740266,53.314564],[-2.3643622,53.3136203],[-2.3497097,53.3192983],[-2.3468173,53.3084851],[-2.3406766,53.3042882],[-2.3325625,53.2976977],[-2.3368119,53.2913266],[-2.3555537,53.2868137],[-2.3760529,53.2920154],[-2.3805663,53.2907213],[-2.39194,53.3033473],[-2.388044,53.3063424]]],"type":"Polygon"},"id":"E02003859","properties":{"code":"E02003859","geography":"MSOA","name":"Cheshire East 007"},"type":"Feature"},{"geometry":{"coordinates":[[[-2.2517072,53.3311222],[-2.2621357,53.3322893],[-2.2537599,53.3275324],[-2.2634883,53.3222392],[-2.2653437,53.3260733],[-2.2681911,53.3250265],[-2.2686658,53.3145312],[-2.2485868,53.3092879],[-2.2373543,53.3135754],[-2.2373852,53.3205363],[-2.2436549,53.3227149],[-2.2420521,53.3273285],[-2.2517072,53.3311222]]],"type":"Polygon"},"id":"E02003860","properties":{"code":"E02003860","geography":"MSOA","name":"Cheshire East 008"},"type":"Feature"},{"geometry":{"coordinates":[[[-2.3406766,53.3042882],[-2.3468173,53.3084851],[-2.3497097,53.3192983],[-2.3643622,53.3136203],[-2.3740266,53.314564],[-2.378185,53.3190039],[-2.3946818,53.3189361],[-2.3979504,53.3112632],[-2.388044,53.3063424],[-2.3821774,53.3089826],[-2.3750942,53.3054909],[-2.3670038,53.3058656],[-2.3706551,53.3023624],[-2.3653926,53.300209],[-2.3560265,53.3004323],[-2.3501351,53.3058618],[-2.3406766,53.3042882]]],"type":"Polygon"},"id":"E02003861","properties":{"code":"E02003861","geography":"MSOA","name":"Cheshire East 009"},"type":"Feature"},{"geometry":{"coordinates":[[[-2.1218547,53.3401816],[-2.1303697,53.3392034],[-2.1408295,53.3423367],[-2.1468111,53.3400816],[-2.1538905,53.3277999],[-2.1848771,53.3326744],[-2.192821,53.321968],[-2.2085054,53.3056292],[-2.2081948,53.3044523],[-2.1938147,53.3011424],[-2.1822627,53.286847],[-2.1845351,53.2830211],[-2.1662772,53.2810133],[-2.1716517,53.2763532],[-2.1691811,53.272512],[-2.1608941,53.2706101],[-2.1446819,53.283323],[-2.1287016,53.2855847],[-2.1260068,53.2883293],[-2.1319218,53.2914167],[-2.1253124,53.2987135],[-2.1137983,53.296961],[-2.0989496,53.3022756],[-2.0960856,53.3125818],[-2.1019848,53.3203198],[-2.0883306,53.3279405],[-2.0920533,53.3396976],[-2.1038144,53.3392334],[-2.1218547,53.3401816]]],"type":"Polygon"},"id":"E02003862","properties":{"code":"E02003862","geography":"MSOA","name":"Cheshire East 011"},"type":"Feature"},{"geometry":{"coordinates":[[[-2.3406766,53.3042882],[-2.3501351,53.3058618],[-2.3560265,53.3004323],[-2.3653926,53.300209],[-2.3706551,53.3023624],[-2.3670038,53.3058656],[-2.3750942,53.3054909],[-2.3821774,53.3089826],[-2.388044,53.3063424],[-2.39194,53.3033473],[-2.3805663,53.2907213],[-2.3760529,53.2920154],[-2.3555537,53.2868137],[-2.3368119,53.2913266],[-2.3325625,53.2976977],[-2.3406766,53.3042882]]],"type":"Polygon"},"id":"E02003863","properties":{"code":"E02003863","geography":"MSOA","name":"Cheshire East 010"},"type":"Feature"},{"geometry":{"coordinates":[[[-2.2373543,53.3135754],[-2.2485868,53.3092879],[-2.2686658,53.3145312],[-2.2884053,53.3034679],[-2.30332,53.3081373],[-2.313155,53.2994891],[-2.2980417,53.2924105],[-2.2857382,53.2923392],[-2.2828383,53.2876071],[-2.2759738,53.2856619],[-2.2804234,53.2823392],[-2.2669201,53.2799469],[-2.2849888,53.2774652],[-2.3046871,53.2670634],[-2.3011186,53.2546409],[-2.2915062,53.2532969],[-2.2904521,53.2552417],[-2.2822096,53.2537946],[-2.2748907,53.2604293],[-2.2540792,53.2553654],[-2.2440766,53.2563956],[-2.242772,53.2610051],[-2.221354,53.2635538],[-2.2203866,53.2696384],[-2.229559,53.2725675],[-2.2224589,53.2765453],[-2.2152427,53.2881681],[-2.2070767,53.2889098],[-2.2115536,53.2981308],[-2.2081948,53.3044523],[-2.2085054,53.3056292],[-2.2247335,53.3079249],[-2.2331895,53.3140805],[-2.2373543,53.3135754]]],"type":"Polygon"},"id":"E02003864","properties":{"code":"E02003864","geography":"MSOA","name":"Cheshire East 012"},"type":"Feature"},{"geometry":{"coordinates":[[[-2.1111562,53.2781871],[-2.1025398,53.2826872],[-2.0909843,53.2803641],[-2.0891763,53.2836056],[-2.0924489,53.291045],[-2.0853121,53.3016075],[-2.0960856,53.3125818],[-2.0989496,53.3022756],[-2.1137983,53.296961],[-2.1253124,53.2987135],[-2.1319218,53.2914167],[-2.1260068,53.2883293],[-2.1287016,53.2855847],[-2.1158388,53.2809289],[-2.1111562,53.2781871]]],"type":"Polygon"},"id":"E02003865","properties":{"code":"E02003865","geography":"MSOA","name":"Cheshire East 013"},"type":"Feature"},{"geometry":{"coordinates":[[[-2.1158388,53.2809289],[-2.1287016,53.2855847],[-2.1446819,53.283323],[-2.1384024,53.2732017],[-2.1241876,53.2666849],[-2.1158388,53.2809289]]],"type":"Polygon"},"id":"E02003866","properties":{"code":"E02003866","geography":"MSOA","name":"Cheshire East 014"},"type":"Feature"},{"geometry":{"coordinates":[[[-2.1384024,53.2732017],[-2.1446819,53.283323],[-2.1608941,53.2706101],[-2.1691811,53.272512],[-2.1716517,53.2763532],[-2.1823994,53.2664684],[-2.1689989,53.2619165],[-2.171782,53.2591988],[-2.1491957,53.259952],[-2.1463461,53.2621863],[-2.1499729,53.2658972],[-2.1384024,53.2732017]]],"type":"Polygon"},"id":"E02003867","properties":{"code":"E02003867","geography":"MSOA","name":"Cheshire East 015"},"type":"Feature"},{"geometry":{"coordinates":[[[-2.1111562,53.2781871],[-2.1158388,53.2809289],[-2.1241876,53.2666849],[-2.1229935,53.2633151],[-2.1198532,53.2538739],[-2.1137778,53.2552579],[-2.1088997,53.2522803],[-2.0747595,53.2501164],[-2.0697206,53.2518642],[-2.0741657,53.2585005],[-2.0876616,53.258074],[-2.0921324,53.2549042],[-2.0947576,53.2586429],[-2.0912732,53.2611305],[-2.1063712,53.261385],[-2.1111562,53.2781871]]],"type":"Polygon"},"id":"E02003868","properties":{"code":"E02003868","geography":"MSOA","name":"Cheshire East 016"},"type":"Feature"},{"geometry":{"coordinates":[[[-2.1241876,53.2666849],[-2.1384024,53.2732017],[-2.1499729,53.2658972],[-2.1463461,53.2621863],[-2.1491957,53.259952],[-2.1528565,53.2501751],[-2.1494861,53.2488064],[-2.1468924,53.2516046],[-2.1459575,53.2487062],[-2.1412434,53.2517342],[-2.1355902,53.2622722],[-2.1229935,53.2633151],[-2.1241876,53.2666849]]],"type":"Polygon"},"id":"E02003869","properties":{"code":"E02003869","geography":"MSOA","name":"Cheshire East 017"},"type":"Feature"},{"geometry":{"coordinates":[[[-2.1088997,53.2522803],[-2.1137778,53.2552579],[-2.1198532,53.2538739],[-2.1229935,53.2633151],[-2.1355902,53.2622722],[-2.1412434,53.2517342],[-2.1442664,53.2473786],[-2.1308968,53.2454693],[-2.126368,53.2517851],[-2.1162182,53.2510625],[-2.1088997,53.2522803]]],"type":"Polygon"},"id":"E02003870","properties":{"code":"E02003870","geography":"MSOA","name":"Cheshire East 018"},"type":"Feature"},{"geometry":{"coordinates":[[[-2.1412434,53.2517342],[-2.1459575,53.2487062],[-2.1468924,53.2516046],[-2.1494861,53.2488064],[-2.1528565,53.2501751],[-2.1491957,53.259952],[-2.171782,53.2591988],[-2.1636505,53.2535097],[-2.1664292,53.2512495],[-2.1569555,53.2498504],[-2.1569176,53.246668],[-2.1451781,53.2465538],[-2.1442664,53.2473786],[-2.1412434,53.2517342]]],"type":"Polygon"},"id":"E02003871","properties":{"code":"E02003871","geography":"MSOA","name":"Cheshire East 019"},"type":"Feature"},{"geometry":{"coordinates":[[[-2.0115543,53.3259377],[-2.024451,53.318467],[-2.0269894,53.3113044],[-2.0392454,53.3079084],[-2.0609983,53.3132154],[-2.0642382,53.3177251],[-2.0601309,53.3207565],[-2.0813046,53.332998],[-2.0851312,53.3399815],[-2.0920533,53.3396976],[-2.0883306,53.3279405],[-2.1019848,53.3203198],[-2.0960856,53.3125818],[-2.0853121,53.3016075],[-2.0924489,53.291045],[-2.0891763,53.2836056],[-2.0909843,53.2803641],[-2.1025398,53.2826872],[-2.1111562,53.2781871],[-2.1063712,53.261385],[-2.0912732,53.2611305],[-2.0947576,53.2586429],[-2.0921324,53.2549042],[-2.0876616,53.258074],[-2.0741657,53.2585005],[-2.0697206,53.2518642],[-2.0747595,53.2501164],[-2.1088997,53.2522803],[-2.1162182,53.2510625],[-2.1134922,53.2433245],[-2.1215279,53.2342084],[-2.1198989,53.2285575],[-2.1284381,53.2263204],[-2.1379571,53.2393076],[-2.1501705,53.2391344],[-2.1451781,53.2465538],[-2.1569176,53.246668],[-2.1569555,53.2498504],[-2.1664292,53.2512495],[-2.1636505,53.2535097],[-2.171782,53.2591988],[-2.1689989,53.2619165],[-2.1823994,53.2664684],[-2.1716517,53.2763532],[-2.1662772,53.2810133],[-2.1845351,53.2830211],[-2.1822627,53.286847],[-2.1938147,53.3011424],[-2.2081948,53.3044523],[-2.2115536,53.2981308],[-2.2070767,53.2889098],[-2.2152427,53.2881681],[-2.2224589,53.2765453],[-2.229559,53.2725675],[-2.2203866,53.2696384],[-2.221354,53.2635538],[-2.242772,53.2610051],[-2.2440766,53.2563956],[-2.2540792,53.2553654],[-2.2748907,53.2604293],[-2.2822096,53.2537946],[-2.2904521,53.2552417],[-2.2915062,53.2532969],[-2.2943682,53.247785],[-2.3094219,53.2462833],[-2.3017929,53.2252836],[-2.2912737,53.2217572],[-2.2799119,53.211922],[-2.260363,53.2048415],[-2.2424685,53.2018369],[-2.2408874,53.1988262],[-2.22791,53.1999311],[-2.2160588,53.1899207],[-2.2188675,53.1827416],[-2.210367,53.1787908],[-2.1993804,53.1763129],[-2.1905782,53.1772163],[-2.1800424,53.1884418],[-2.1562726,53.1888204],[-2.1473704,53.1846666],[-2.1430432,53.1875607],[-2.1407325,53.183561],[-2.1334656,53.182797],[-2.1278719,53.1746106],[-2.1144151,53.1725229],[-2.1153658,53.1694986],[-2.1003821,53.169549],[-2.0928748,53.1728976],[-2.0872384,53.1698358],[-2.0702347,53.1716679],[-2.0681465,53.1746815],[-2.0582447,53.1763031],[-2.0592174,53.1808825],[-2.0522919,53.1839408],[-2.0549919,53.1864645],[-2.0464209,53.1926636],[-2.0285584,53.193335],[-2.0181826,53.1890345],[-2.0016693,53.1930365],[-1.9874111,53.2135673],[-1.990268,53.2229808],[-1.9760681,53.227512],[-1.9748616,53.2310435],[-1.9818858,53.238562],[-1.9997339,53.2450316],[-2.0003349,53.255422],[-2.009484,53.2606357],[-2.0051991,53.2690236],[-2.0093298,53.3022977],[-2.0015518,53.3189051],[-2.0115543,53.3259377]]],"type":"Polygon"},"id":"E02003872","properties":{"code":"E02003872","geography":"MSOA","name":"Cheshire East 020"},"type":"Feature"},{"geometry":{"coordinates":[[[-2.1162182,53.2510625],[-2.126368,53.2517851],[-2.1308968,53.2454693],[-2.1442664,53.2473786],[-2.1451781,53.2465538],[-2.1501705,53.2391344],[-2.1379571,53.2393076],[-2.1284381,53.2263204],[-2.1198989,53.2285575],[-2.1215279,53.2342084],[-2.1134922,53.2433245],[-2.1162182,53.2510625]]],"type":"Polygon"},"id":"E02003873","properties":{"code":"E02003873","geography":"MSOA","name":"Cheshire East 021"},"type":"Feature"},{"geometry":{"coordinates":[[[-2.4437171,53.1599948],[-2.4548084,53.1608502],[-2.4564663,53.1568516],[-2.4688678,53.1527207],[-2.4861813,53.1601404],[-2.485026,53.162722],[-2.4961955,53.1642671],[-2.5061214,53.1589558],[-2.5206394,53.1603853],[-2.5264452,53.1530194],[-2.5426892,53.1497087],[-2.5602419,53.1621292],[-2.5725514,53.1634757],[-2.583588,53.1555278],[-2.5965059,53.1588559],[-2.5974956,53.1551874],[-2.5887985,53.1465681],[-2.584739,53.1452451],[-2.5887059,53.139821],[-2.5786129,53.1386391],[-2.5746284,53.1436268],[-2.5674067,53.1357413],[-2.5620326,53.1354861],[-2.5611435,53.1298812],[-2.574767,53.1220945],[-2.5686181,53.113367],[-2.5717552,53.1099692],[-2.5970523,53.1008379],[-2.5953379,53.0926267],[-2.5802842,53.0860474],[-2.5778699,53.0797965],[-2.5823645,53.0782653],[-2.5996679,53.0865822],[-2.6051809,53.076641],[-2.6018155,53.0713339],[-2.6109811,53.0711065],[-2.6120589,53.0656473],[-2.6043534,53.064117],[-2.5975183,53.0680556],[-2.5975645,53.0649218],[-2.5926657,53.0643845],[-2.5744901,53.0676064],[-2.5739742,53.0643745],[-2.5797463,53.0638018],[-2.579347,53.0569838],[-2.5706914,53.0605466],[-2.5678457,53.0511806],[-2.5822113,53.0409159],[-2.5785853,53.0320035],[-2.5828296,53.0235538],[-2.5680739,53.0204924],[-2.5650847,53.0091956],[-2.539355,53.0075109],[-2.5334954,53.0094204],[-2.524138,53.0058637],[-2.502675,53.0128811],[-2.5046713,53.0200855],[-2.4983651,53.0218774],[-2.4904284,53.0281958],[-2.4937951,53.0357606],[-2.5046719,53.0428414],[-2.5114345,53.0436173],[-2.5202329,53.0522591],[-2.5256184,53.0617818],[-2.5404254,53.0603849],[-2.5361861,53.0710284],[-2.5241637,53.0712641],[-2.520042,53.0828103],[-2.5094615,53.0855035],[-2.503332,53.0905537],[-2.5065523,53.0987557],[-2.5034335,53.1001336],[-2.4988065,53.1084877],[-2.4780058,53.108991],[-2.4681812,53.1132329],[-2.4685433,53.1176719],[-2.4603887,53.1178584],[-2.461135,53.1240674],[-2.4534628,53.1249998],[-2.4320621,53.1242937],[-2.42468,53.1212347],[-2.4164994,53.131491],[-2.4232453,53.1370547],[-2.4198622,53.142834],[-2.4278581,53.1479995],[-2.4241459,53.1494134],[-2.4255974,53.1570983],[-2.4416401,53.1577222],[-2.4437171,53.1599948]]],"type":"Polygon"},"id":"E02007030","properties":{"code":"E02007030","geography":"MSOA","name":"Cheshire East 052"},"type":"Feature"},{"geometry":{"coordinates":[[[-2.4288737,53.0587407],[-2.4340838,53.0553077],[-2.4476431,53.0582462],[-2.461331,53.0569515],[-2.4979227,53.0645888],[-2.5132784,53.0635805],[-2.5095176,53.0534353],[-2.5202329,53.0522591],[-2.5114345,53.0436173],[-2.5046719,53.0428414],[-2.4937951,53.0357606],[-2.4904284,53.0281958],[-2.4983651,53.0218774],[-2.496906,53.0179866],[-2.4849601,53.0123396],[-2.4839516,53.0074589],[-2.4681868,53.006322],[-2.4662086,52.9993469],[-2.4455928,52.9929904],[-2.4381684,52.9855515],[-2.4108663,52.9879082],[-2.4044745,52.9916374],[-2.4069862,52.9959007],[-2.3897344,52.9953759],[-2.3807937,52.9983947],[-2.3830447,53.0077705],[-2.3704674,53.0145593],[-2.384227,53.0261513],[-2.379785,53.0275751],[-2.3861705,53.0335479],[-2.382886,53.0488018],[-2.3977994,53.0474101],[-2.4035664,53.0571544],[-2.4288737,53.0587407]]],"type":"Polygon"},"id":"E02007031","properties":{"code":"E02007031","geography":"MSOA","name":"Cheshire East 053"},"type":"Feature"}],"type":"FeatureCollection"}
