{"features":[{"geometry":{"coordinates":[[[-0.4223917,51.9205109],[-0.421709,51.9256722],[-0.4260657,51.9266801],[-0.4378429,51.9277389],[-0.4518694,51.9247477],[-0.4521251,51.91857],[-0.449552,51.9155959],[-0.4463128,51.916767],[-0.4466413,51.9135612],[-0.4377007,51.9143723],[-0.4286332,51.9217046],[-0.4223917,51.9205109]]],"type":"Polygon"},"id":"E02003258","properties":{"code":"E02003258","geography":"MSOA","name":"Luton 001"},"type":"Feature"},{"geometry":{"coordinates":[[[-0.4543955,51.9096576],[-0.462256,51.9134556],[-0.4624113,51.9235886],[-0.4792486,51.922939],[-0.486598,51.9221392],[-0.4785228,51.9173227],[-0.4595266,51.9060107],[-0.4543955,51.9096576]]],"type":"Polygon"},"id":"E02003259","properties":{"code":"E02003259","geography":"MSOA","name":"Luton 002"},"type":"Feature"},{"geometry":{"coordinates":[[[-0.4466413,51.9135612],[-0.4463128,51.916767],[-0.449552,51.9155959],[-0.4521251,51.91857],[-0.4518694,51.9247477],[-0.4624113,51.9235886],[-0.462256,51.9134556],[-0.4543955,51.9096576],[-0.4466413,51.9135612]]],"type":"Polygon"},"id":"E02003260","properties":{"code":"E02003260","geography":"MSOA","name":"Luton 003"},"type":"Feature"},{"geometry":{"coordinates":[[[-0.4223917,51.9205109],[-0.4286332,51.9217046],[-0.4377007,51.9143723],[-0.435589,51.9062456],[-0.4190447,51.912294],[-0.4223917,51.9205109]]],"type":"Polygon"},"id":"E02003261","properties":{"code":"E02003261","geography":"MSOA","name":"Luton 004"},"type":"Feature"},{"geometry":{"coordinates":[[[-0.4595266,51.9060107],[-0.4785228,51.9173227],[-0.4820975,51.9090492],[-0.4744176,51.9012248],[-0.4719917,51.8990872],[-0.454993,51.9032233],[-0.4595266,51.9060107]]],"type":"Polygon"},"id":"E02003262","properties":{"code":"E02003262","geography":"MSOA","name":"Luton 005"},"type":"Feature"},{"geometry":{"coordinates":[[[-0.435589,51.9062456],[-0.4377007,51.9143723],[-0.4466413,51.9135612],[-0.4543955,51.9096576],[-0.4595266,51.9060107],[-0.454993,51.9032233],[-0.4474645,51.8986317],[-0.4433205,51.8985817],[-0.4375146,51.898509],[-0.4356036,51.9048724],[-0.435589,51.9062456]]],"type":"Polygon"},"id":"E02003263","properties":{"code":"E02003263","geography":"MSOA","name":"Luton 006"},"type":"Feature"},{"geometry":{"coordinates":[[[-0.4076023,51.9106962],[-0.4190447,51.912294],[-0.435589,51.9062456],[-0.4356036,51.9048724],[-0.4291465,51.9032237],[-0.4270023,51.8964516],[-0.4209339,51.8966207],[-0.4118537,51.896466],[-0.4078086,51.9019853],[-0.4076023,51.9106962]]],"type":"Polygon"},"id":"E02003264","properties":{"code":"E02003264","geography":"MSOA","name":"Luton 007"},"type":"Feature"},{"geometry":{"coordinates":[[[-0.3776027,51.8985908],[-0.385641,51.9156726],[-0.4012459,51.9130451],[-0.4024625,51.9096954],[-0.4076023,51.9106962],[-0.4078086,51.9019853],[-0.3980862,51.9063283],[-0.3893135,51.8972702],[-0.3864008,51.893955],[-0.3792384,51.8939025],[-0.3776027,51.8985908]]],"type":"Polygon"},"id":"E02003265","properties":{"code":"E02003265","geography":"MSOA","name":"Luton 008"},"type":"Feature"},{"geometry":{"coordinates":[[[-0.4744176,51.9012248],[-0.4820975,51.9090492],[-0.4915336,51.9063175],[-0.4940957,51.9060641],[-0.5059482,51.9006042],[-0.4998331,51.8978232],[-0.4920451,51.8944423],[-0.4885295,51.89872],[-0.4826848,51.8972285],[-0.4744176,51.9012248]]],"type":"Polygon"},"id":"E02003266","properties":{"code":"E02003266","geography":"MSOA","name":"Luton 009"},"type":"Feature"},{"geometry":{"coordinates":[[[-0.4209339,51.8966207],[-0.4270023,51.8964516],[-0.4291465,51.9032237],[-0.4356036,51.9048724],[-0.4375146,51.898509],[-0.4433205,51.8985817],[-0.4333197,51.8886033],[-0.4286142,51.8907761],[-0.4307123,51.8954655],[-0.4212315,51.8901628],[-0.421182,51.8918861],[-0.4209339,51.8966207]]],"type":"Polygon"},"id":"E02003267","properties":{"code":"E02003267","geography":"MSOA","name":"Luton 010"},"type":"Feature"},{"geometry":{"coordinates":[[[-0.4474645,51.8986317],[-0.454993,51.9032233],[-0.4719917,51.8990872],[-0.4690359,51.8933539],[-0.46349,51.8923375],[-0.4670003,51.888255],[-0.4666797,51.8881862],[-0.4570236,51.8880764],[-0.4474645,51.8986317]]],"type":"Polygon"},"id":"E02003268","properties":{"code":"E02003268","geography":"MSOA","name":"Luton 011"},"type":"Feature"},{"geometry":{"coordinates":[[[-0.3893135,51.8972702],[-0.3980862,51.9063283],[-0.4078086,51.9019853],[-0.4118537,51.896466],[-0.4209339,51.8966207],[-0.421182,51.8918861],[-0.4166511,51.8935882],[-0.4162822,51.8872934],[-0.4103541,51.8902245],[-0.4030734,51.8892036],[-0.3962954,51.8936847],[-0.3908954,51.8915556],[-0.3893135,51.8972702]]],"type":"Polygon"},"id":"E02003269","properties":{"code":"E02003269","geography":"MSOA","name":"Luton 012"},"type":"Feature"},{"geometry":{"coordinates":[[[-0.4719917,51.8990872],[-0.4744176,51.9012248],[-0.4826848,51.8972285],[-0.4885295,51.89872],[-0.4920451,51.8944423],[-0.4839657,51.8882916],[-0.4670003,51.888255],[-0.46349,51.8923375],[-0.4690359,51.8933539],[-0.4719917,51.8990872]]],"type":"Polygon"},"id":"E02003270","properties":{"code":"E02003270","geography":"MSOA","name":"Luton 013"},"type":"Feature"},{"geometry":{"coordinates":[[[-0.3548583,51.8740067],[-0.3499236,51.8787006],[-0.3551566,51.8851031],[-0.3651583,51.8943699],[-0.3734421,51.8950639],[-0.3776027,51.8985908],[-0.3792384,51.8939025],[-0.3901196,51.8878081],[-0.3892646,51.871575],[-0.36978,51.8681073],[-0.3658086,51.8707542],[-0.3683228,51.8730522],[-0.3548583,51.8740067]]],"type":"Polygon"},"id":"E02003271","properties":{"code":"E02003271","geography":"MSOA","name":"Luton 014"},"type":"Feature"},{"geometry":{"coordinates":[[[-0.4333197,51.8886033],[-0.4433205,51.8985817],[-0.4474645,51.8986317],[-0.4570236,51.8880764],[-0.4437082,51.8877976],[-0.4352949,51.8844242],[-0.4333197,51.8886033]]],"type":"Polygon"},"id":"E02003272","properties":{"code":"E02003272","geography":"MSOA","name":"Luton 015"},"type":"Feature"},{"geometry":{"coordinates":[[[-0.3792384,51.8939025],[-0.3864008,51.893955],[-0.3893135,51.8972702],[-0.3908954,51.8915556],[-0.3962954,51.8936847],[-0.4030734,51.8892036],[-0.4059753,51.8835793],[-0.4006163,51.8811375],[-0.4044498,51.8789325],[-0.399756,51.8754568],[-0.3915123,51.8701149],[-0.3892646,51.871575],[-0.3901196,51.8878081],[-0.3792384,51.8939025]]],"type":"Polygon"},"id":"E02003273","properties":{"code":"E02003273","geography":"MSOA","name":"Luton 016"},"type":"Feature"},{"geometry":{"coordinates":[[[-0.4212315,51.8901628],[-0.4307123,51.8954655],[-0.4286142,51.8907761],[-0.4333197,51.8886033],[-0.4352949,51.8844242],[-0.4299843,51.8813638],[-0.422881,51.8823633],[-0.4205705,51.8837181],[-0.4212315,51.8901628]]],"type":"Polygon"},"id":"E02003274","properties":{"code":"E02003274","geography":"MSOA","name":"Luton 017"},"type":"Feature"},{"geometry":{"coordinates":[[[-0.4352949,51.8844242],[-0.4437082,51.8877976],[-0.4570236,51.8880764],[-0.4666797,51.8881862],[-0.4494608,51.8783453],[-0.4311919,51.8792944],[-0.4256997,51.879105],[-0.422881,51.8823633],[-0.4299843,51.8813638],[-0.4352949,51.8844242]]],"type":"Polygon"},"id":"E02003276","properties":{"code":"E02003276","geography":"MSOA","name":"Luton 019"},"type":"Feature"},{"geometry":{"coordinates":[[[-0.4193215,51.8563307],[-0.4247372,51.8713961],[-0.420572,51.8764231],[-0.4311919,51.8792944],[-0.4494608,51.8783453],[-0.4233864,51.8547756],[-0.4193215,51.8563307]]],"type":"Polygon"},"id":"E02003277","properties":{"code":"E02003277","geography":"MSOA","name":"Luton 020"},"type":"Feature"},{"geometry":{"coordinates":[[[-0.4256997,51.879105],[-0.4311919,51.8792944],[-0.420572,51.8764231],[-0.4247372,51.8713961],[-0.4193215,51.8563307],[-0.4144422,51.8590272],[-0.4160799,51.8619747],[-0.4091461,51.8614869],[-0.4009181,51.8686432],[-0.3915123,51.8701149],[-0.399756,51.8754568],[-0.408963,51.8720497],[-0.4160965,51.8789283],[-0.4256997,51.879105]]],"type":"Polygon"},"id":"E02003278","properties":{"code":"E02003278","geography":"MSOA","name":"Luton 021"},"type":"Feature"},{"geometry":{"coordinates":[[[-0.4030734,51.8892036],[-0.4103541,51.8902245],[-0.4162822,51.8872934],[-0.4166511,51.8935882],[-0.421182,51.8918861],[-0.4212315,51.8901628],[-0.4205705,51.8837181],[-0.4044498,51.8789325],[-0.4006163,51.8811375],[-0.4059753,51.8835793],[-0.4030734,51.8892036]]],"type":"Polygon"},"id":"E02006937","properties":{"code":"E02006937","geography":"MSOA","name":"Luton 022"},"type":"Feature"},{"geometry":{"coordinates":[[[-0.4044498,51.8789325],[-0.4205705,51.8837181],[-0.422881,51.8823633],[-0.4256997,51.879105],[-0.4160965,51.8789283],[-0.408963,51.8720497],[-0.399756,51.8754568],[-0.4044498,51.8789325]]],"type":"Polygon"},"id":"E02006938","properties":{"code":"E02006938","geography":"MSOA","name":"Luton 023"},"type":"Feature"}],"type":"FeatureCollection"}
