{"features":[{"geometry":{"coordinates":[[[-1.2299606,51.5346123],[-1.2401835,51.5376569],[-1.2606743,51.5377887],[-1.2702182,51.5446191],[-1.2855395,51.5483298],[-1.2875696,51.5528491],[-1.3263151,51.5595809],[-1.3287187,51.5636899],[-1.3379691,51.545776],[-1.3440053,51.5433767],[-1.3503782,51.5468829],[-1.3587982,51.5466047],[-1.367338,51.552466],[-1.3779682,51.549686],[-1.3769773,51.5457781],[-1.3837954,51.5404255],[-1.395867,51.5403445],[-1.4049165,51.5472111],[-1.4227845,51.5357647],[-1.4265861,51.5455737],[-1.4478478,51.5364268],[-1.4567718,51.5354584],[-1.464438,51.5385166],[-1.4630032,51.5301912],[-1.4451372,51.5259351],[-1.4548055,51.5215827],[-1.4572015,51.5061311],[-1.4399254,51.5019048],[-1.4274323,51.5056911],[-1.4362244,51.4890839],[-1.4214385,51.4822233],[-1.4001016,51.4722973],[-1.3947556,51.4790595],[-1.3810829,51.470661],[-1.3746301,51.4744625],[-1.3601677,51.4763745],[-1.3547526,51.4717311],[-1.3343463,51.4699178],[-1.3346368,51.4594334],[-1.3393758,51.4560172],[-1.3314154,51.448902],[-1.334323,51.4353852],[-1.3333577,51.4317128],[-1.3242224,51.4321758],[-1.3127191,51.4361767],[-1.3053037,51.4350864],[-1.3007391,51.4385882],[-1.3033621,51.4428777],[-1.3124883,51.4436362],[-1.3129909,51.4481778],[-1.3036088,51.4488083],[-1.3009591,51.4539124],[-1.2887629,51.4489715],[-1.2829692,51.4531456],[-1.291629,51.4570064],[-1.2787729,51.4636089],[-1.2660922,51.465302],[-1.2628035,51.4698362],[-1.2772615,51.4771024],[-1.2920021,51.4728943],[-1.2897327,51.4767145],[-1.3015961,51.4810533],[-1.2930396,51.4979935],[-1.2760943,51.4975124],[-1.2754887,51.5004724],[-1.2504044,51.496042],[-1.2337681,51.4994845],[-1.2179775,51.4981924],[-1.2170147,51.5101818],[-1.2316883,51.5245431],[-1.2299606,51.5346123]]],"type":"Polygon"},"id":"E02003367","properties":{"code":"E02003367","geography":"MSOA","name":"West Berkshire 001"},"type":"Feature"},{"geometry":{"coordinates":[[[-1.4630032,51.5301912],[-1.47076,51.528607],[-1.4858719,51.5340789],[-1.4893524,51.5426891],[-1.5129538,51.5507594],[-1.5213214,51.5508955],[-1.5309736,51.5460694],[-1.5414681,51.5520584],[-1.5550225,51.5533703],[-1.5661179,51.5455621],[-1.5698821,51.5475142],[-1.5693736,51.5432823],[-1.5812006,51.536994],[-1.5847221,51.5249112],[-1.5880782,51.513503],[-1.5823051,51.4941115],[-1.5704641,51.486273],[-1.5668449,51.47693],[-1.561608,51.476386],[-1.5595405,51.4697386],[-1.5484047,51.460656],[-1.5290435,51.4555123],[-1.4892185,51.4550048],[-1.4728358,51.4505103],[-1.452564,51.4474564],[-1.4507379,51.4519069],[-1.4388666,51.4579382],[-1.444677,51.4616937],[-1.4214385,51.4822233],[-1.4362244,51.4890839],[-1.4274323,51.5056911],[-1.4399254,51.5019048],[-1.4572015,51.5061311],[-1.4548055,51.5215827],[-1.4451372,51.5259351],[-1.4630032,51.5301912]]],"type":"Polygon"},"id":"E02003368","properties":{"code":"E02003368","geography":"MSOA","name":"West Berkshire 002"},"type":"Feature"},{"geometry":{"coordinates":[[[-1.1437433,51.5229098],[-1.1344665,51.5337205],[-1.1404052,51.5429046],[-1.1608177,51.5345881],[-1.2046698,51.5283932],[-1.2046635,51.5376024],[-1.226811,51.5351572],[-1.2299606,51.5346123],[-1.2316883,51.5245431],[-1.2170147,51.5101818],[-1.2179775,51.4981924],[-1.2126925,51.5010075],[-1.2059789,51.4971219],[-1.1960953,51.4984304],[-1.1900517,51.4959313],[-1.1894598,51.5039496],[-1.1600445,51.4967787],[-1.1683408,51.4869479],[-1.1645779,51.4812464],[-1.1597664,51.4808748],[-1.156292,51.471476],[-1.127107,51.4742505],[-1.1268352,51.4609559],[-1.1138385,51.4601851],[-1.1112387,51.4668336],[-1.103279,51.4665366],[-1.1058589,51.4706019],[-1.0775099,51.4766989],[-1.0711686,51.4897389],[-1.0881194,51.4857492],[-1.101643,51.4893657],[-1.1128874,51.5093616],[-1.1193064,51.5118396],[-1.1339564,51.5112822],[-1.1420734,51.5161938],[-1.1437433,51.5229098]]],"type":"Polygon"},"id":"E02003369","properties":{"code":"E02003369","geography":"MSOA","name":"West Berkshire 003"},"type":"Feature"},{"geometry":{"coordinates":[[[-1.0461666,51.4901722],[-1.0554431,51.4920358],[-1.0711686,51.4897389],[-1.0775099,51.4766989],[-1.1058589,51.4706019],[-1.103279,51.4665366],[-1.1112387,51.4668336],[-1.1138385,51.4601851],[-1.098469,51.4591786],[-1.0801394,51.4531188],[-1.0682513,51.440698],[-1.0657802,51.4475533],[-1.0652026,51.4704221],[-1.061799,51.4662769],[-1.0518803,51.4676365],[-1.0506096,51.4725035],[-1.0442615,51.4750089],[-1.0385617,51.4720979],[-1.0365778,51.4752251],[-1.0376009,51.4840176],[-1.0461666,51.4901722]]],"type":"Polygon"},"id":"E02003370","properties":{"code":"E02003370","geography":"MSOA","name":"West Berkshire 004"},"type":"Feature"},{"geometry":{"coordinates":[[[-1.0385617,51.4720979],[-1.0442615,51.4750089],[-1.0506096,51.4725035],[-1.0518803,51.4676365],[-1.061799,51.4662769],[-1.0652026,51.4704221],[-1.0657802,51.4475533],[-1.0582795,51.449844],[-1.057864,51.4460101],[-1.0540779,51.4466632],[-1.053206,51.4527734],[-1.0574909,51.4492943],[-1.0599733,51.4515084],[-1.0513844,51.454221],[-1.0511068,51.4567073],[-1.0587832,51.4561062],[-1.0528506,51.4604376],[-1.0385617,51.4720979]]],"type":"Polygon"},"id":"E02003371","properties":{"code":"E02003371","geography":"MSOA","name":"West Berkshire 005"},"type":"Feature"},{"geometry":{"coordinates":[[[-1.0480071,51.4537762],[-1.0528506,51.4604376],[-1.0587832,51.4561062],[-1.0511068,51.4567073],[-1.0513844,51.454221],[-1.0599733,51.4515084],[-1.0574909,51.4492943],[-1.053206,51.4527734],[-1.0540779,51.4466632],[-1.057864,51.4460101],[-1.0582795,51.449844],[-1.0657802,51.4475533],[-1.0682513,51.440698],[-1.0676662,51.4403049],[-1.0448902,51.4424296],[-1.0416991,51.4403222],[-1.0327515,51.4431166],[-1.0328278,51.4391529],[-1.0283384,51.4382135],[-1.0265682,51.4440117],[-1.0302481,51.4492028],[-1.034121,51.452737],[-1.0468108,51.4501704],[-1.0480071,51.4537762]]],"type":"Polygon"},"id":"E02003372","properties":{"code":"E02003372","geography":"MSOA","name":"West Berkshire 006"},"type":"Feature"},{"geometry":{"coordinates":[[[-1.156292,51.471476],[-1.1597664,51.4808748],[-1.1645779,51.4812464],[-1.1683408,51.4869479],[-1.1600445,51.4967787],[-1.1894598,51.5039496],[-1.1900517,51.4959313],[-1.1960953,51.4984304],[-1.2059789,51.4971219],[-1.2126925,51.5010075],[-1.2179775,51.4981924],[-1.2337681,51.4994845],[-1.2504044,51.496042],[-1.2754887,51.5004724],[-1.2760943,51.4975124],[-1.2930396,51.4979935],[-1.3015961,51.4810533],[-1.2897327,51.4767145],[-1.2920021,51.4728943],[-1.2772615,51.4771024],[-1.2628035,51.4698362],[-1.2660922,51.465302],[-1.2787729,51.4636089],[-1.291629,51.4570064],[-1.2829692,51.4531456],[-1.2887629,51.4489715],[-1.3009591,51.4539124],[-1.3036088,51.4488083],[-1.3129909,51.4481778],[-1.3124883,51.4436362],[-1.3033621,51.4428777],[-1.3007391,51.4385882],[-1.2872036,51.4329385],[-1.2923411,51.4274559],[-1.2886242,51.4243627],[-1.2927035,51.4197666],[-1.3042565,51.4195561],[-1.3102895,51.4145563],[-1.2923029,51.4128413],[-1.2737822,51.4136957],[-1.2673492,51.4107114],[-1.2578905,51.4135835],[-1.2496075,51.4224057],[-1.2609756,51.4329919],[-1.2528719,51.441471],[-1.2471051,51.4421841],[-1.2448338,51.4497441],[-1.236668,51.4512342],[-1.2352951,51.4477239],[-1.2224252,51.4469199],[-1.2120693,51.4491564],[-1.1955848,51.4565409],[-1.1967816,51.4585406],[-1.1714865,51.4605345],[-1.1720928,51.4661756],[-1.1551665,51.46849],[-1.156292,51.471476]]],"type":"Polygon"},"id":"E02003373","properties":{"code":"E02003373","geography":"MSOA","name":"West Berkshire 007"},"type":"Feature"},{"geometry":{"coordinates":[[[-1.0218291,51.4367017],[-1.0234709,51.4443162],[-1.0265682,51.4440117],[-1.0283384,51.4382135],[-1.0328278,51.4391529],[-1.0327515,51.4431166],[-1.0416991,51.4403222],[-1.0448902,51.4424296],[-1.0676662,51.4403049],[-1.0568343,51.4353367],[-1.0218291,51.4367017]]],"type":"Polygon"},"id":"E02003374","properties":{"code":"E02003374","geography":"MSOA","name":"West Berkshire 008"},"type":"Feature"},{"geometry":{"coordinates":[[[-1.0682513,51.440698],[-1.0801394,51.4531188],[-1.098469,51.4591786],[-1.1316649,51.431408],[-1.1688578,51.4191761],[-1.1706524,51.4149456],[-1.1669995,51.4127689],[-1.1710256,51.4080013],[-1.1513506,51.3997301],[-1.1532804,51.3974213],[-1.1364385,51.400318],[-1.1394678,51.4024353],[-1.1093025,51.4208907],[-1.0877749,51.4086544],[-1.0777335,51.3871304],[-1.0674672,51.3926267],[-1.0711619,51.401103],[-1.0608822,51.4046745],[-1.0576751,51.4099774],[-1.0666284,51.4143597],[-1.0689973,51.4241014],[-1.0783448,51.4235872],[-1.0694445,51.4306978],[-1.0556874,51.432352],[-1.0568343,51.4353367],[-1.0676662,51.4403049],[-1.0682513,51.440698]]],"type":"Polygon"},"id":"E02003375","properties":{"code":"E02003375","geography":"MSOA","name":"West Berkshire 009"},"type":"Feature"},{"geometry":{"coordinates":[[[-1.4728358,51.4505103],[-1.4892185,51.4550048],[-1.5290435,51.4555123],[-1.5240006,51.4413391],[-1.5320771,51.4295569],[-1.5253036,51.4250191],[-1.5396393,51.426113],[-1.5531274,51.4212773],[-1.5651332,51.4220446],[-1.5711793,51.4164658],[-1.5635056,51.4132302],[-1.5622893,51.4082389],[-1.5530267,51.4100745],[-1.5554997,51.3990833],[-1.5556171,51.395586],[-1.537732,51.3883243],[-1.5383461,51.3855393],[-1.5278806,51.3789355],[-1.5154506,51.3775828],[-1.5086736,51.3833255],[-1.5096362,51.3858219],[-1.5184763,51.3866733],[-1.5144606,51.389008],[-1.5152073,51.3920764],[-1.5223476,51.393298],[-1.5183206,51.3977819],[-1.5139684,51.397621],[-1.5120042,51.400938],[-1.4926824,51.3971872],[-1.4843668,51.4018042],[-1.4825839,51.4073335],[-1.4894834,51.4088852],[-1.4863531,51.4119781],[-1.5006458,51.4144558],[-1.4831608,51.4434088],[-1.4728358,51.4505103]]],"type":"Polygon"},"id":"E02003376","properties":{"code":"E02003376","geography":"MSOA","name":"West Berkshire 010"},"type":"Feature"},{"geometry":{"coordinates":[[[-1.1138385,51.4601851],[-1.1268352,51.4609559],[-1.127107,51.4742505],[-1.156292,51.471476],[-1.1551665,51.46849],[-1.1720928,51.4661756],[-1.1714865,51.4605345],[-1.1967816,51.4585406],[-1.1955848,51.4565409],[-1.2120693,51.4491564],[-1.2224252,51.4469199],[-1.2352951,51.4477239],[-1.236668,51.4512342],[-1.2448338,51.4497441],[-1.2471051,51.4421841],[-1.2528719,51.441471],[-1.2609756,51.4329919],[-1.2496075,51.4224057],[-1.2353227,51.4179524],[-1.23243,51.4120682],[-1.2160644,51.4112963],[-1.2188067,51.4030925],[-1.2229446,51.3978032],[-1.2365314,51.401847],[-1.2467888,51.3952594],[-1.2567521,51.3951072],[-1.246431,51.3893248],[-1.2538483,51.3818708],[-1.2590184,51.3826625],[-1.2702235,51.39321],[-1.2605297,51.3926782],[-1.2614651,51.3947339],[-1.2839328,51.3965996],[-1.2696119,51.3901356],[-1.2749193,51.3844155],[-1.2706965,51.3688272],[-1.2487567,51.371878],[-1.2415983,51.3662219],[-1.2224742,51.3697537],[-1.2183282,51.3658632],[-1.2021025,51.3661899],[-1.1769136,51.3573242],[-1.169641,51.3607257],[-1.162034,51.3602949],[-1.144001,51.3572531],[-1.1247881,51.3581002],[-1.1237638,51.3612567],[-1.1158104,51.360466],[-1.1137727,51.3748252],[-1.1234328,51.3908582],[-1.1383753,51.3984795],[-1.1364385,51.400318],[-1.1532804,51.3974213],[-1.1513506,51.3997301],[-1.1710256,51.4080013],[-1.1669995,51.4127689],[-1.1706524,51.4149456],[-1.1688578,51.4191761],[-1.1316649,51.431408],[-1.098469,51.4591786],[-1.1138385,51.4601851]]],"type":"Polygon"},"id":"E02003377","properties":{"code":"E02003377","geography":"MSOA","name":"West Berkshire 011"},"type":"Feature"},{"geometry":{"coordinates":[[[-1.3102895,51.4145563],[-1.3042565,51.4195561],[-1.2927035,51.4197666],[-1.2886242,51.4243627],[-1.2923411,51.4274559],[-1.2872036,51.4329385],[-1.3007391,51.4385882],[-1.3053037,51.4350864],[-1.3127191,51.4361767],[-1.3242224,51.4321758],[-1.3333577,51.4317128],[-1.334323,51.4353852],[-1.3383007,51.4320951],[-1.3510235,51.4304273],[-1.3461304,51.4195697],[-1.3520106,51.4130085],[-1.3487908,51.4086617],[-1.3552682,51.4072208],[-1.3547944,51.401167],[-1.3426617,51.4066693],[-1.3415905,51.4002586],[-1.3266469,51.3986208],[-1.3327614,51.4026169],[-1.3267073,51.4020383],[-1.3281748,51.4059126],[-1.3143323,51.4095173],[-1.3102895,51.4145563]]],"type":"Polygon"},"id":"E02003378","properties":{"code":"E02003378","geography":"MSOA","name":"West Berkshire 012"},"type":"Feature"},{"geometry":{"coordinates":[[[-1.2923029,51.4128413],[-1.3102895,51.4145563],[-1.3143323,51.4095173],[-1.3141581,51.405659],[-1.2959778,51.401711],[-1.2958752,51.4043791],[-1.2882858,51.4049194],[-1.2935024,51.4078735],[-1.2923029,51.4128413]]],"type":"Polygon"},"id":"E02003379","properties":{"code":"E02003379","geography":"MSOA","name":"West Berkshire 013"},"type":"Feature"},{"geometry":{"coordinates":[[[-1.2673492,51.4107114],[-1.2737822,51.4136957],[-1.2923029,51.4128413],[-1.2935024,51.4078735],[-1.2882858,51.4049194],[-1.2958752,51.4043791],[-1.2959778,51.401711],[-1.2839328,51.3965996],[-1.2614651,51.3947339],[-1.2599528,51.3945197],[-1.2592121,51.3985307],[-1.2668355,51.4007412],[-1.2679688,51.4089838],[-1.2673492,51.4107114]]],"type":"Polygon"},"id":"E02003380","properties":{"code":"E02003380","geography":"MSOA","name":"West Berkshire 014"},"type":"Feature"},{"geometry":{"coordinates":[[[-1.0007436,51.4297926],[-1.0037386,51.433894],[-1.0218291,51.4367017],[-1.0568343,51.4353367],[-1.0556874,51.432352],[-1.0694445,51.4306978],[-1.0783448,51.4235872],[-1.0689973,51.4241014],[-1.0666284,51.4143597],[-1.0576751,51.4099774],[-1.0608822,51.4046745],[-1.0711619,51.401103],[-1.0674672,51.3926267],[-1.0425814,51.3953476],[-1.0316483,51.3994562],[-1.028949,51.4050798],[-1.0222861,51.4061853],[-1.0251386,51.4120546],[-1.0120501,51.4100981],[-0.9997911,51.412746],[-1.001169,51.4263811],[-1.0007436,51.4297926]]],"type":"Polygon"},"id":"E02003381","properties":{"code":"E02003381","geography":"MSOA","name":"West Berkshire 015"},"type":"Feature"},{"geometry":{"coordinates":[[[-1.2599528,51.3945197],[-1.2533383,51.3978654],[-1.2549291,51.4037233],[-1.2504732,51.4037226],[-1.248018,51.4079547],[-1.2528672,51.4112553],[-1.2596576,51.4068211],[-1.2595452,51.4092025],[-1.2679688,51.4089838],[-1.2668355,51.4007412],[-1.2592121,51.3985307],[-1.2599528,51.3945197]]],"type":"Polygon"},"id":"E02003382","properties":{"code":"E02003382","geography":"MSOA","name":"West Berkshire 016"},"type":"Feature"},{"geometry":{"coordinates":[[[-1.2614651,51.3947339],[-1.2605297,51.3926782],[-1.2702235,51.39321],[-1.2590184,51.3826625],[-1.2538483,51.3818708],[-1.246431,51.3893248],[-1.2567521,51.3951072],[-1.2467888,51.3952594],[-1.2365314,51.401847],[-1.2229446,51.3978032],[-1.2188067,51.4030925],[-1.2160644,51.4112963],[-1.23243,51.4120682],[-1.2353227,51.4179524],[-1.2496075,51.4224057],[-1.2578905,51.4135835],[-1.2673492,51.4107114],[-1.2679688,51.4089838],[-1.2595452,51.4092025],[-1.2596576,51.4068211],[-1.2528672,51.4112553],[-1.248018,51.4079547],[-1.2504732,51.4037226],[-1.2549291,51.4037233],[-1.2533383,51.3978654],[-1.2599528,51.3945197],[-1.2614651,51.3947339]]],"type":"Polygon"},"id":"E02003383","properties":{"code":"E02003383","geography":"MSOA","name":"West Berkshire 017"},"type":"Feature"},{"geometry":{"coordinates":[[[-1.334323,51.4353852],[-1.3314154,51.448902],[-1.3393758,51.4560172],[-1.3346368,51.4594334],[-1.3343463,51.4699178],[-1.3547526,51.4717311],[-1.3601677,51.4763745],[-1.3746301,51.4744625],[-1.3810829,51.470661],[-1.3947556,51.4790595],[-1.4001016,51.4722973],[-1.4214385,51.4822233],[-1.444677,51.4616937],[-1.4388666,51.4579382],[-1.4507379,51.4519069],[-1.452564,51.4474564],[-1.4728358,51.4505103],[-1.4831608,51.4434088],[-1.5006458,51.4144558],[-1.4863531,51.4119781],[-1.4894834,51.4088852],[-1.4825839,51.4073335],[-1.4843668,51.4018042],[-1.4926824,51.3971872],[-1.5120042,51.400938],[-1.5139684,51.397621],[-1.5183206,51.3977819],[-1.5223476,51.393298],[-1.5152073,51.3920764],[-1.5144606,51.389008],[-1.5184763,51.3866733],[-1.5096362,51.3858219],[-1.5086736,51.3833255],[-1.5154506,51.3775828],[-1.5134201,51.3720472],[-1.4954644,51.3696667],[-1.5006236,51.3562703],[-1.4857357,51.3477528],[-1.4983133,51.3293787],[-1.429709,51.3365322],[-1.4449518,51.3481206],[-1.4441255,51.3549308],[-1.4284548,51.3566924],[-1.4156465,51.3718856],[-1.3528976,51.3672642],[-1.3511793,51.382449],[-1.3421346,51.3878755],[-1.3430346,51.396687],[-1.3415905,51.4002586],[-1.3426617,51.4066693],[-1.3547944,51.401167],[-1.3552682,51.4072208],[-1.3487908,51.4086617],[-1.3520106,51.4130085],[-1.3461304,51.4195697],[-1.3510235,51.4304273],[-1.3383007,51.4320951],[-1.334323,51.4353852]]],"type":"Polygon"},"id":"E02003384","properties":{"code":"E02003384","geography":"MSOA","name":"West Berkshire 018"},"type":"Feature"},{"geometry":{"coordinates":[[[-1.2959778,51.401711],[-1.3141581,51.405659],[-1.3143323,51.4095173],[-1.3281748,51.4059126],[-1.3267073,51.4020383],[-1.3327614,51.4026169],[-1.3266469,51.3986208],[-1.3260697,51.3949859],[-1.3133494,51.3951293],[-1.3073692,51.3914445],[-1.3106214,51.391435],[-1.3086034,51.3863967],[-1.3121703,51.3836797],[-1.3208802,51.3845308],[-1.3389413,51.3815948],[-1.3342188,51.3694392],[-1.312364,51.3730625],[-1.2734293,51.3675213],[-1.2706965,51.3688272],[-1.2749193,51.3844155],[-1.2696119,51.3901356],[-1.2839328,51.3965996],[-1.2959778,51.401711]]],"type":"Polygon"},"id":"E02003385","properties":{"code":"E02003385","geography":"MSOA","name":"West Berkshire 019"},"type":"Feature"},{"geometry":{"coordinates":[[[-1.3266469,51.3986208],[-1.3415905,51.4002586],[-1.3430346,51.396687],[-1.3392889,51.3967803],[-1.3382579,51.3924319],[-1.3331411,51.3939547],[-1.326592,51.392685],[-1.3234752,51.3881035],[-1.320742,51.3897053],[-1.3208802,51.3845308],[-1.3121703,51.3836797],[-1.3086034,51.3863967],[-1.3106214,51.391435],[-1.3073692,51.3914445],[-1.3133494,51.3951293],[-1.3260697,51.3949859],[-1.3266469,51.3986208]]],"type":"Polygon"},"id":"E02003386","properties":{"code":"E02003386","geography":"MSOA","name":"West Berkshire 020"},"type":"Feature"},{"geometry":{"coordinates":[[[-1.3208802,51.3845308],[-1.320742,51.3897053],[-1.3234752,51.3881035],[-1.326592,51.392685],[-1.3331411,51.3939547],[-1.3382579,51.3924319],[-1.3392889,51.3967803],[-1.3430346,51.396687],[-1.3421346,51.3878755],[-1.3511793,51.382449],[-1.3528976,51.3672642],[-1.3342188,51.3694392],[-1.3389413,51.3815948],[-1.3208802,51.3845308]]],"type":"Polygon"},"id":"E02003387","properties":{"code":"E02003387","geography":"MSOA","name":"West Berkshire 021"},"type":"Feature"},{"geometry":{"coordinates":[[[-1.0674672,51.3926267],[-1.0777335,51.3871304],[-1.0877749,51.4086544],[-1.1093025,51.4208907],[-1.1394678,51.4024353],[-1.1364385,51.400318],[-1.1383753,51.3984795],[-1.1234328,51.3908582],[-1.1137727,51.3748252],[-1.0866388,51.3839153],[-1.0753665,51.3794955],[-1.0800104,51.3746354],[-1.0725397,51.3752829],[-1.0657866,51.3723267],[-1.0500353,51.3581475],[-1.0111423,51.3591691],[-1.0002428,51.3626672],[-0.9861437,51.3628473],[-0.9918112,51.3666647],[-0.9817456,51.3757477],[-1.0119052,51.3928657],[-0.9997911,51.412746],[-1.0120501,51.4100981],[-1.0251386,51.4120546],[-1.0222861,51.4061853],[-1.028949,51.4050798],[-1.0316483,51.3994562],[-1.0425814,51.3953476],[-1.0674672,51.3926267]]],"type":"Polygon"},"id":"E02003388","properties":{"code":"E02003388","geography":"MSOA","name":"West Berkshire 022"},"type":"Feature"}],"type":"FeatureCollection"}
