{"features":[{"geometry":{"coordinates":[[[-1.0527555,54.6145186],[-1.0584913,54.6174813],[-1.0595814,54.6180443],[-1.0723045,54.6211189],[-1.0731566,54.6213248],[-1.0846057,54.6203856],[-1.0846544,54.6203976],[-1.0848464,54.6178756],[-1.0925989,54.6171571],[-1.0849517,54.6154052],[-1.06818,54.6159904],[-1.0678679,54.6140575],[-1.0540588,54.6107333],[-1.0527555,54.6145186]]],"type":"Polygon"},"id":"E02002515","properties":{"code":"E02002515","geography":"MSOA","name":"Redcar and Cleveland 001"},"type":"Feature"},{"geometry":{"coordinates":[[[-1.0678679,54.6140575],[-1.06818,54.6159904],[-1.0849517,54.6154052],[-1.0763787,54.6030643],[-1.066003,54.6039345],[-1.0678679,54.6140575]]],"type":"Polygon"},"id":"E02002516","properties":{"code":"E02002516","geography":"MSOA","name":"Redcar and Cleveland 002"},"type":"Feature"},{"geometry":{"coordinates":[[[-1.0846544,54.6203976],[-1.1187978,54.6288497],[-1.1387316,54.6406816],[-1.1374609,54.6475719],[-1.1418945,54.638158],[-1.1354439,54.6296059],[-1.1411195,54.6285982],[-1.1460852,54.6277175],[-1.1527254,54.631334],[-1.1532846,54.6301938],[-1.1546098,54.6274917],[-1.1491147,54.6143196],[-1.1575777,54.6054375],[-1.146756,54.5990826],[-1.160239,54.6045277],[-1.1634765,54.6020921],[-1.1513802,54.5961511],[-1.163786,54.6020988],[-1.1970521,54.5817813],[-1.1943144,54.579882],[-1.1628985,54.5858031],[-1.1475759,54.5897241],[-1.1483809,54.5833144],[-1.1398499,54.5804717],[-1.1431707,54.5777893],[-1.1354534,54.5679527],[-1.1211841,54.5679767],[-1.1171173,54.5729422],[-1.1092448,54.5714902],[-1.0952089,54.576454],[-1.0890012,54.5824451],[-1.0835656,54.5724641],[-1.0696693,54.5772394],[-1.0653671,54.5683567],[-1.0582544,54.5714946],[-1.0567536,54.58229],[-1.0631128,54.5922595],[-1.0588947,54.5935535],[-1.0728714,54.591143],[-1.0755154,54.5952181],[-1.0829655,54.5933659],[-1.0841676,54.6024474],[-1.0763787,54.6030643],[-1.0849517,54.6154052],[-1.0925989,54.6171571],[-1.0848464,54.6178756],[-1.0846544,54.6203976]]],"type":"Polygon"},"id":"E02002517","properties":{"code":"E02002517","geography":"MSOA","name":"Redcar and Cleveland 003"},"type":"Feature"},{"geometry":{"coordinates":[[[-1.035725,54.6058011],[-1.0357996,54.6058302],[-1.0363846,54.6060589],[-1.0527555,54.6145186],[-1.0540588,54.6107333],[-1.0678679,54.6140575],[-1.066003,54.6039345],[-1.0588947,54.5935535],[-1.0401579,54.5943002],[-1.0459244,54.6022873],[-1.0381517,54.6033357],[-1.035725,54.6058011]]],"type":"Polygon"},"id":"E02002518","properties":{"code":"E02002518","geography":"MSOA","name":"Redcar and Cleveland 004"},"type":"Feature"},{"geometry":{"coordinates":[[[-1.0588947,54.5935535],[-1.066003,54.6039345],[-1.0763787,54.6030643],[-1.0841676,54.6024474],[-1.0829655,54.5933659],[-1.0755154,54.5952181],[-1.0728714,54.591143],[-1.0588947,54.5935535]]],"type":"Polygon"},"id":"E02002519","properties":{"code":"E02002519","geography":"MSOA","name":"Redcar and Cleveland 005"},"type":"Feature"},{"geometry":{"coordinates":[[[-0.9846908,54.5893759],[-1.0163789,54.5982356],[-1.0176774,54.5987436],[-1.035725,54.6058011],[-1.0381517,54.6033357],[-1.0459244,54.6022873],[-1.0401579,54.5943002],[-1.0588947,54.5935535],[-1.0631128,54.5922595],[-1.0567536,54.58229],[-1.0582544,54.5714946],[-1.0653671,54.5683567],[-1.0643079,54.5653055],[-1.0557456,54.5645006],[-1.0478208,54.5665177],[-1.049791,54.5705865],[-1.0423267,54.5735122],[-1.0416509,54.5715333],[-1.0340308,54.5744907],[-1.0184232,54.5747587],[-1.0110494,54.5721652],[-0.994513,54.5758288],[-0.9962889,54.5842008],[-0.991231,54.5844382],[-0.9926859,54.5866767],[-0.9848331,54.5883897],[-0.9846908,54.5893759]]],"type":"Polygon"},"id":"E02002520","properties":{"code":"E02002520","geography":"MSOA","name":"Redcar and Cleveland 006"},"type":"Feature"},{"geometry":{"coordinates":[[[-0.9433492,54.5878918],[-0.9602724,54.5850175],[-0.9844163,54.5892991],[-0.9846908,54.5893759],[-0.9848331,54.5883897],[-0.9926859,54.5866767],[-0.991231,54.5844382],[-0.9962889,54.5842008],[-0.994513,54.5758288],[-0.9897728,54.5695738],[-0.9732661,54.5734989],[-0.9707396,54.5811211],[-0.9644136,54.5818566],[-0.9556809,54.5817954],[-0.9433492,54.5878918]]],"type":"Polygon"},"id":"E02002521","properties":{"code":"E02002521","geography":"MSOA","name":"Redcar and Cleveland 007"},"type":"Feature"},{"geometry":{"coordinates":[[[-1.1354534,54.5679527],[-1.1431707,54.5777893],[-1.1398499,54.5804717],[-1.1483809,54.5833144],[-1.1475759,54.5897241],[-1.1628985,54.5858031],[-1.1588873,54.5847996],[-1.1520576,54.5660149],[-1.1466002,54.5640752],[-1.1354534,54.5679527]]],"type":"Polygon"},"id":"E02002523","properties":{"code":"E02002523","geography":"MSOA","name":"Redcar and Cleveland 009"},"type":"Feature"},{"geometry":{"coordinates":[[[-0.9105564,54.578711],[-0.9199664,54.5846566],[-0.9383249,54.5887446],[-0.9432604,54.5879069],[-0.9433492,54.5878918],[-0.9556809,54.5817954],[-0.9644136,54.5818566],[-0.9475852,54.5601425],[-0.9328465,54.56315],[-0.928166,54.561223],[-0.9200257,54.5614607],[-0.9174325,54.5660031],[-0.9077084,54.564106],[-0.9038202,54.5734508],[-0.9151648,54.5756838],[-0.9105564,54.578711]]],"type":"Polygon"},"id":"E02002524","properties":{"code":"E02002524","geography":"MSOA","name":"Redcar and Cleveland 010"},"type":"Feature"},{"geometry":{"coordinates":[[[-1.0835656,54.5724641],[-1.0890012,54.5824451],[-1.0952089,54.576454],[-1.1092448,54.5714902],[-1.1171173,54.5729422],[-1.1211841,54.5679767],[-1.1354534,54.5679527],[-1.1466002,54.5640752],[-1.1520576,54.5660149],[-1.1517924,54.5602123],[-1.1422605,54.5604776],[-1.1506398,54.5591962],[-1.1465619,54.5552124],[-1.1396465,54.5548337],[-1.1291724,54.5601161],[-1.0835656,54.5724641]]],"type":"Polygon"},"id":"E02002525","properties":{"code":"E02002525","geography":"MSOA","name":"Redcar and Cleveland 011"},"type":"Feature"},{"geometry":{"coordinates":[[[-0.9475852,54.5601425],[-0.9644136,54.5818566],[-0.9707396,54.5811211],[-0.9732661,54.5734989],[-0.9897728,54.5695738],[-1.0128098,54.5639688],[-1.0210958,54.5535435],[-1.0271315,54.5519291],[-1.0208993,54.5419745],[-1.0246006,54.536639],[-1.0204837,54.5343423],[-1.015012,54.5340693],[-0.9931277,54.5438965],[-0.9877395,54.5418482],[-0.9807901,54.5491306],[-0.9743868,54.5468358],[-0.9426514,54.5540205],[-0.9475852,54.5601425]]],"type":"Polygon"},"id":"E02002526","properties":{"code":"E02002526","geography":"MSOA","name":"Redcar and Cleveland 012"},"type":"Feature"},{"geometry":{"coordinates":[[[-0.8973608,54.5718738],[-0.8975541,54.5718905],[-0.898165,54.5719435],[-0.898697,54.5740389],[-0.9008698,54.5751959],[-0.9040082,54.5745723],[-0.9105564,54.578711],[-0.9151648,54.5756838],[-0.9038202,54.5734508],[-0.9077084,54.564106],[-0.9174325,54.5660031],[-0.9200257,54.5614607],[-0.928166,54.561223],[-0.9186937,54.5552692],[-0.9078832,54.5566182],[-0.9055664,54.5617723],[-0.9045795,54.5558604],[-0.9114871,54.5507893],[-0.9060089,54.5480364],[-0.8986945,54.5479419],[-0.8994836,54.5521024],[-0.8740833,54.5537379],[-0.8760859,54.5598739],[-0.8856152,54.5560456],[-0.8900766,54.5625172],[-0.8995499,54.5641288],[-0.8973608,54.5718738]]],"type":"Polygon"},"id":"E02002527","properties":{"code":"E02002527","geography":"MSOA","name":"Redcar and Cleveland 013"},"type":"Feature"},{"geometry":{"coordinates":[[[-1.1619105,54.5388569],[-1.1478462,54.5393461],[-1.1291724,54.5601161],[-1.1396465,54.5548337],[-1.1465619,54.5552124],[-1.1506398,54.5591962],[-1.1605058,54.5557333],[-1.1544914,54.5541245],[-1.1593804,54.5508484],[-1.1666197,54.5540545],[-1.1668255,54.5466801],[-1.170445,54.5459605],[-1.1639904,54.5442629],[-1.1619105,54.5388569]]],"type":"Polygon"},"id":"E02002529","properties":{"code":"E02002529","geography":"MSOA","name":"Redcar and Cleveland 015"},"type":"Feature"},{"geometry":{"coordinates":[[[-0.7933309,54.5582952],[-0.7942357,54.5583388],[-0.7896901,54.5602472],[-0.7898515,54.560625],[-0.8087947,54.5585604],[-0.8462268,54.5697157],[-0.8529939,54.5717305],[-0.8695089,54.5699357],[-0.87196,54.5696691],[-0.8756892,54.5699932],[-0.8973608,54.5718738],[-0.8995499,54.5641288],[-0.8900766,54.5625172],[-0.8856152,54.5560456],[-0.8760859,54.5598739],[-0.8740833,54.5537379],[-0.8994836,54.5521024],[-0.8986945,54.5479419],[-0.9060089,54.5480364],[-0.9114871,54.5507893],[-0.9045795,54.5558604],[-0.9055664,54.5617723],[-0.9078832,54.5566182],[-0.9186937,54.5552692],[-0.928166,54.561223],[-0.9328465,54.56315],[-0.9475852,54.5601425],[-0.9426514,54.5540205],[-0.9743868,54.5468358],[-0.9807901,54.5491306],[-0.9877395,54.5418482],[-0.9931277,54.5438965],[-1.015012,54.5340693],[-1.0204837,54.5343423],[-1.0029414,54.5333267],[-1.0081282,54.5210138],[-1.0033848,54.5029991],[-0.9678129,54.4972555],[-0.9529349,54.4880225],[-0.8808086,54.4970331],[-0.8757649,54.4911509],[-0.8485151,54.4879587],[-0.8439263,54.4912108],[-0.8533048,54.5026996],[-0.8486312,54.5299903],[-0.8269689,54.5485615],[-0.8156609,54.5524932],[-0.800404,54.550997],[-0.7987723,54.5556043],[-0.7933309,54.5582952]]],"type":"Polygon"},"id":"E02002530","properties":{"code":"E02002530","geography":"MSOA","name":"Redcar and Cleveland 016"},"type":"Feature"},{"geometry":{"coordinates":[[[-1.0653671,54.5683567],[-1.0696693,54.5772394],[-1.0835656,54.5724641],[-1.1291724,54.5601161],[-1.1478462,54.5393461],[-1.1619105,54.5388569],[-1.1650019,54.53567],[-1.1604722,54.5330568],[-1.1061778,54.5326918],[-1.0869147,54.5350078],[-1.0636857,54.5346554],[-1.0591825,54.5280205],[-1.0475709,54.5317436],[-1.0535058,54.5335343],[-1.0466944,54.5383533],[-1.0525229,54.5419793],[-1.0400291,54.5406443],[-1.0448355,54.5428219],[-1.041923,54.5457377],[-1.0517801,54.5455445],[-1.0544172,54.5481317],[-1.0604274,54.5456253],[-1.0731037,54.5515843],[-1.071876,54.5552255],[-1.0603383,54.556832],[-1.0624392,54.5606015],[-1.0557456,54.5645006],[-1.0643079,54.5653055],[-1.0653671,54.5683567]]],"type":"Polygon"},"id":"E02002532","properties":{"code":"E02002532","geography":"MSOA","name":"Redcar and Cleveland 018"},"type":"Feature"},{"geometry":{"coordinates":[[[-1.0591825,54.5280205],[-1.0636857,54.5346554],[-1.0869147,54.5350078],[-1.0924291,54.5294319],[-1.0846902,54.5316217],[-1.0854117,54.529156],[-1.077886,54.5292658],[-1.0751653,54.5272553],[-1.0822672,54.5227353],[-1.0783799,54.5214042],[-1.069789,54.5204599],[-1.0692907,54.5257839],[-1.0646757,54.5225326],[-1.0579515,54.5235165],[-1.0591825,54.5280205]]],"type":"Polygon"},"id":"E02002533","properties":{"code":"E02002533","geography":"MSOA","name":"Redcar and Cleveland 019"},"type":"Feature"},{"geometry":{"coordinates":[[[-0.9897728,54.5695738],[-0.994513,54.5758288],[-1.0110494,54.5721652],[-1.0184232,54.5747587],[-1.0340308,54.5744907],[-1.0416509,54.5715333],[-1.0423267,54.5735122],[-1.049791,54.5705865],[-1.0478208,54.5665177],[-1.0557456,54.5645006],[-1.0624392,54.5606015],[-1.0603383,54.556832],[-1.071876,54.5552255],[-1.0731037,54.5515843],[-1.0604274,54.5456253],[-1.0544172,54.5481317],[-1.0517801,54.5455445],[-1.041923,54.5457377],[-1.0448355,54.5428219],[-1.0400291,54.5406443],[-1.0525229,54.5419793],[-1.0466944,54.5383533],[-1.0535058,54.5335343],[-1.0475709,54.5317436],[-1.0591825,54.5280205],[-1.0579515,54.5235165],[-1.0646757,54.5225326],[-1.0692907,54.5257839],[-1.069789,54.5204599],[-1.0783799,54.5214042],[-1.0822672,54.5227353],[-1.0751653,54.5272553],[-1.077886,54.5292658],[-1.0854117,54.529156],[-1.0846902,54.5316217],[-1.0924291,54.5294319],[-1.0869147,54.5350078],[-1.1061778,54.5326918],[-1.1604722,54.5330568],[-1.1613685,54.5248828],[-1.1649644,54.5219085],[-1.1597266,54.5158162],[-1.1373142,54.5148958],[-1.1461835,54.502809],[-1.1266672,54.4987195],[-1.1143927,54.4989305],[-1.1117687,54.5043614],[-1.0945095,54.5067474],[-1.036836,54.4940314],[-1.0237849,54.5020322],[-1.0033848,54.5029991],[-1.0081282,54.5210138],[-1.0029414,54.5333267],[-1.0204837,54.5343423],[-1.0246006,54.536639],[-1.0208993,54.5419745],[-1.0271315,54.5519291],[-1.0210958,54.5535435],[-1.0128098,54.5639688],[-0.9897728,54.5695738]]],"type":"Polygon"},"id":"E02002534","properties":{"code":"E02002534","geography":"MSOA","name":"Redcar and Cleveland 020"},"type":"Feature"},{"geometry":{"coordinates":[[[-1.1619105,54.5388569],[-1.1639904,54.5442629],[-1.170445,54.5459605],[-1.1668255,54.5466801],[-1.1666197,54.5540545],[-1.1895942,54.5482089],[-1.1987314,54.5445383],[-1.1613685,54.5248828],[-1.1604722,54.5330568],[-1.1650019,54.53567],[-1.1619105,54.5388569]]],"type":"Polygon"},"id":"E02006812","properties":{"code":"E02006812","geography":"MSOA","name":"Redcar and Cleveland 021"},"type":"Feature"},{"geometry":{"coordinates":[[[-1.1520576,54.5660149],[-1.1588873,54.5847996],[-1.1628985,54.5858031],[-1.1943144,54.579882],[-1.2009409,54.5775925],[-1.1941987,54.5741801],[-1.1794482,54.5686662],[-1.1666197,54.5540545],[-1.1593804,54.5508484],[-1.1544914,54.5541245],[-1.1605058,54.5557333],[-1.1506398,54.5591962],[-1.1422605,54.5604776],[-1.1517924,54.5602123],[-1.1520576,54.5660149]]],"type":"Polygon"},"id":"E02006910","properties":{"code":"E02006910","geography":"MSOA","name":"Redcar and Cleveland 022"},"type":"Feature"}],"type":"FeatureCollection"}
