{"features":[{"geometry":{"coordinates":[[[-2.7575325,51.4934927],[-2.7719453,51.4947227],[-2.7732721,51.4946796],[-2.773331,51.4946664],[-2.7735527,51.4945832],[-2.7740925,51.491469],[-2.780039,51.4889863],[-2.7753773,51.486927],[-2.7898055,51.4826564],[-2.7857791,51.4738158],[-2.7765786,51.4777801],[-2.7781146,51.4801202],[-2.763557,51.4821086],[-2.7536029,51.4910218],[-2.751234,51.4929533],[-2.7528209,51.4928558],[-2.7569004,51.4926054],[-2.7575325,51.4934927]]],"type":"Polygon"},"id":"E02003065","properties":{"code":"E02003065","geography":"MSOA","name":"North Somerset 001"},"type":"Feature"},{"geometry":{"coordinates":[[[-2.7857791,51.4738158],[-2.7898055,51.4826564],[-2.7753773,51.486927],[-2.780039,51.4889863],[-2.783153,51.4876859],[-2.7838361,51.4875894],[-2.7994203,51.4853871],[-2.8172326,51.4733071],[-2.8177714,51.4729975],[-2.8178106,51.472975],[-2.8114791,51.4710102],[-2.8066221,51.4734427],[-2.8010013,51.4710741],[-2.7888708,51.4722785],[-2.7857791,51.4738158]]],"type":"Polygon"},"id":"E02003066","properties":{"code":"E02003066","geography":"MSOA","name":"North Somerset 002"},"type":"Feature"},{"geometry":{"coordinates":[[[-2.7888708,51.4722785],[-2.7798246,51.4636602],[-2.7539717,51.4732113],[-2.758334,51.4767484],[-2.7521875,51.4782273],[-2.7536029,51.4910218],[-2.763557,51.4821086],[-2.7781146,51.4801202],[-2.7765786,51.4777801],[-2.7857791,51.4738158],[-2.7888708,51.4722785]]],"type":"Polygon"},"id":"E02003067","properties":{"code":"E02003067","geography":"MSOA","name":"North Somerset 003"},"type":"Feature"},{"geometry":{"coordinates":[[[-2.727753,51.5003526],[-2.7287217,51.5024022],[-2.7276933,51.4988175],[-2.7275014,51.4981591],[-2.7354136,51.4943007],[-2.7349411,51.4940985],[-2.7312179,51.4928808],[-2.732297,51.4928849],[-2.7321909,51.4928362],[-2.7210185,51.4905954],[-2.7222123,51.4874122],[-2.7080023,51.4779911],[-2.7070062,51.4653422],[-2.6947982,51.4648263],[-2.6896378,51.4681001],[-2.6847849,51.4613713],[-2.6869847,51.4560568],[-2.6715116,51.4508622],[-2.6701559,51.4440515],[-2.645358,51.4550463],[-2.6374983,51.4516375],[-2.6428392,51.4486801],[-2.635114,51.4456512],[-2.6270021,51.4466704],[-2.6266159,51.4505241],[-2.6285383,51.4546793],[-2.6318111,51.4576177],[-2.6340371,51.4664916],[-2.6510999,51.473638],[-2.6526204,51.4792074],[-2.6550805,51.4810147],[-2.6511305,51.4736595],[-2.6584183,51.4834664],[-2.6602371,51.4848022],[-2.6631909,51.4863808],[-2.6673968,51.4822724],[-2.6681217,51.4814396],[-2.6682855,51.4814041],[-2.6683693,51.4813223],[-2.6687254,51.4813087],[-2.676242,51.4796784],[-2.6848044,51.4805522],[-2.6854303,51.48116],[-2.6859344,51.4816494],[-2.6939508,51.4878114],[-2.7104184,51.4971685],[-2.7183563,51.5004503],[-2.7274374,51.4996768],[-2.727753,51.5003526]]],"type":"Polygon"},"id":"E02003068","properties":{"code":"E02003068","geography":"MSOA","name":"North Somerset 004"},"type":"Feature"},{"geometry":{"coordinates":[[[-2.8166407,51.4302409],[-2.8190541,51.444939],[-2.808215,51.4471316],[-2.8106888,51.4506619],[-2.836901,51.447988],[-2.8409397,51.4505773],[-2.8383476,51.4540109],[-2.8414353,51.4529476],[-2.8458473,51.4568569],[-2.8614991,51.4419406],[-2.8576561,51.4420369],[-2.8519092,51.4375301],[-2.8463554,51.4391081],[-2.835374,51.4352025],[-2.8430168,51.4328191],[-2.8386592,51.4320716],[-2.8434008,51.4262998],[-2.8161885,51.4238346],[-2.8166407,51.4302409]]],"type":"Polygon"},"id":"E02003069","properties":{"code":"E02003069","geography":"MSOA","name":"North Somerset 005"},"type":"Feature"},{"geometry":{"coordinates":[[[-2.7507801,51.4929517],[-2.751234,51.4929533],[-2.7536029,51.4910218],[-2.7521875,51.4782273],[-2.758334,51.4767484],[-2.7539717,51.4732113],[-2.7798246,51.4636602],[-2.7888708,51.4722785],[-2.8010013,51.4710741],[-2.8066221,51.4734427],[-2.8114791,51.4710102],[-2.8178106,51.472975],[-2.8458473,51.4568569],[-2.8414353,51.4529476],[-2.8383476,51.4540109],[-2.8409397,51.4505773],[-2.836901,51.447988],[-2.8106888,51.4506619],[-2.808215,51.4471316],[-2.8190541,51.444939],[-2.8166407,51.4302409],[-2.763427,51.4408906],[-2.7620052,51.4382766],[-2.7503251,51.4399007],[-2.7475774,51.4379679],[-2.7384715,51.4299214],[-2.7303006,51.4320542],[-2.7099784,51.4267886],[-2.7067969,51.4311237],[-2.700506,51.4245015],[-2.6898737,51.4238963],[-2.6891871,51.417682],[-2.6592524,51.4207062],[-2.6539466,51.4148436],[-2.6594068,51.4073633],[-2.65323,51.4085517],[-2.6519137,51.41274],[-2.6454526,51.4108571],[-2.6324607,51.4203476],[-2.6370836,51.4232017],[-2.6339274,51.4275089],[-2.6302905,51.4394838],[-2.6400818,51.4404543],[-2.635114,51.4456512],[-2.6428392,51.4486801],[-2.6374983,51.4516375],[-2.645358,51.4550463],[-2.6701559,51.4440515],[-2.6715116,51.4508622],[-2.6869847,51.4560568],[-2.6847849,51.4613713],[-2.6896378,51.4681001],[-2.6947982,51.4648263],[-2.7070062,51.4653422],[-2.7080023,51.4779911],[-2.7222123,51.4874122],[-2.7210185,51.4905954],[-2.7321909,51.4928362],[-2.7507801,51.4929517]]],"type":"Polygon"},"id":"E02003070","properties":{"code":"E02003070","geography":"MSOA","name":"North Somerset 006"},"type":"Feature"},{"geometry":{"coordinates":[[[-2.8430168,51.4328191],[-2.835374,51.4352025],[-2.8463554,51.4391081],[-2.8519092,51.4375301],[-2.8576561,51.4420369],[-2.8614991,51.4419406],[-2.8633084,51.4402156],[-2.8636023,51.4399354],[-2.8646222,51.4394077],[-2.8791245,51.4319027],[-2.8760181,51.4305602],[-2.8758276,51.4304778],[-2.8757765,51.4304142],[-2.8639291,51.429098],[-2.8430168,51.4328191]]],"type":"Polygon"},"id":"E02003071","properties":{"code":"E02003071","geography":"MSOA","name":"North Somerset 007"},"type":"Feature"},{"geometry":{"coordinates":[[[-2.7475774,51.4379679],[-2.7503251,51.4399007],[-2.7620052,51.4382766],[-2.763427,51.4408906],[-2.8166407,51.4302409],[-2.8161885,51.4238346],[-2.8071606,51.4200009],[-2.806182,51.4130903],[-2.7873578,51.407121],[-2.7756102,51.4102537],[-2.7727455,51.4154592],[-2.7617967,51.4148422],[-2.768961,51.4216395],[-2.7692669,51.4279528],[-2.7616645,51.4272757],[-2.7583142,51.4333368],[-2.7475774,51.4379679]]],"type":"Polygon"},"id":"E02003072","properties":{"code":"E02003072","geography":"MSOA","name":"North Somerset 008"},"type":"Feature"},{"geometry":{"coordinates":[[[-2.7384715,51.4299214],[-2.7475774,51.4379679],[-2.7583142,51.4333368],[-2.7616645,51.4272757],[-2.7692669,51.4279528],[-2.768961,51.4216395],[-2.7617967,51.4148422],[-2.7561847,51.4213275],[-2.7480429,51.4227942],[-2.7384715,51.4299214]]],"type":"Polygon"},"id":"E02003073","properties":{"code":"E02003073","geography":"MSOA","name":"North Somerset 009"},"type":"Feature"},{"geometry":{"coordinates":[[[-2.8434008,51.4262998],[-2.8386592,51.4320716],[-2.8430168,51.4328191],[-2.8639291,51.429098],[-2.8757765,51.4304142],[-2.8744016,51.4287009],[-2.8829061,51.4255503],[-2.8879387,51.4152855],[-2.887602,51.4122412],[-2.8760523,51.4154509],[-2.8701422,51.4112027],[-2.8623075,51.4161535],[-2.8584915,51.4152194],[-2.8562622,51.4243606],[-2.8434008,51.4262998]]],"type":"Polygon"},"id":"E02003074","properties":{"code":"E02003074","geography":"MSOA","name":"North Somerset 010"},"type":"Feature"},{"geometry":{"coordinates":[[[-2.6594068,51.4073633],[-2.6539466,51.4148436],[-2.6592524,51.4207062],[-2.6891871,51.417682],[-2.6898737,51.4238963],[-2.700506,51.4245015],[-2.7067969,51.4311237],[-2.7099784,51.4267886],[-2.7303006,51.4320542],[-2.7384715,51.4299214],[-2.7480429,51.4227942],[-2.7561847,51.4213275],[-2.7617967,51.4148422],[-2.7727455,51.4154592],[-2.7756102,51.4102537],[-2.7873578,51.407121],[-2.7587504,51.3913615],[-2.7320603,51.3959035],[-2.70959,51.3886623],[-2.7000103,51.3885867],[-2.6963219,51.3933085],[-2.692061,51.3914053],[-2.6825294,51.3939294],[-2.6666457,51.3928421],[-2.6618754,51.3957078],[-2.6594068,51.4073633]]],"type":"Polygon"},"id":"E02003075","properties":{"code":"E02003075","geography":"MSOA","name":"North Somerset 011"},"type":"Feature"},{"geometry":{"coordinates":[[[-2.8161885,51.4238346],[-2.8434008,51.4262998],[-2.8562622,51.4243606],[-2.8584915,51.4152194],[-2.8623075,51.4161535],[-2.8701422,51.4112027],[-2.8760523,51.4154509],[-2.887602,51.4122412],[-2.8879387,51.4152855],[-2.8880605,51.4150368],[-2.8889232,51.4132768],[-2.9130088,51.3959895],[-2.9056514,51.3930177],[-2.9055791,51.3929886],[-2.9031017,51.3922914],[-2.895825,51.392667],[-2.8993045,51.392296],[-2.8983929,51.3909607],[-2.8788432,51.3854484],[-2.8776584,51.3788016],[-2.8716715,51.3826867],[-2.8565296,51.3808175],[-2.8501498,51.3835336],[-2.839686,51.3790085],[-2.7947154,51.382378],[-2.7599556,51.3786334],[-2.7587504,51.3913615],[-2.7873578,51.407121],[-2.806182,51.4130903],[-2.8071606,51.4200009],[-2.8161885,51.4238346]]],"type":"Polygon"},"id":"E02003076","properties":{"code":"E02003076","geography":"MSOA","name":"North Somerset 012"},"type":"Feature"},{"geometry":{"coordinates":[[[-2.6290674,51.4160391],[-2.6324607,51.4203476],[-2.6454526,51.4108571],[-2.6519137,51.41274],[-2.65323,51.4085517],[-2.6594068,51.4073633],[-2.6618754,51.3957078],[-2.6666457,51.3928421],[-2.6825294,51.3939294],[-2.692061,51.3914053],[-2.6963219,51.3933085],[-2.7000103,51.3885867],[-2.70959,51.3886623],[-2.7320603,51.3959035],[-2.7587504,51.3913615],[-2.7599556,51.3786334],[-2.7601848,51.3759705],[-2.7777448,51.375668],[-2.7826344,51.361817],[-2.7728686,51.3568264],[-2.7712382,51.3436308],[-2.7564244,51.3432157],[-2.7555455,51.3374156],[-2.7541268,51.3420418],[-2.7521838,51.3389486],[-2.7478899,51.3418615],[-2.7447536,51.3378998],[-2.7437652,51.3474457],[-2.7400985,51.3444442],[-2.7423625,51.3489993],[-2.7398354,51.3471882],[-2.7321556,51.3504674],[-2.7192442,51.3436114],[-2.7207762,51.3383479],[-2.7078886,51.3378067],[-2.7040512,51.3435271],[-2.6948698,51.3443813],[-2.6905014,51.3495246],[-2.6908735,51.3568505],[-2.6966897,51.3624403],[-2.6941902,51.3798595],[-2.689555,51.3801533],[-2.6797,51.3601278],[-2.6687483,51.3607869],[-2.6731106,51.3538419],[-2.6779757,51.3535494],[-2.6765422,51.3475926],[-2.6709909,51.3465844],[-2.6741565,51.3434773],[-2.6769593,51.3456919],[-2.6765223,51.3419657],[-2.6593992,51.3414491],[-2.651175,51.345047],[-2.6498778,51.3689508],[-2.6444025,51.3751365],[-2.6396057,51.3756729],[-2.638624,51.373248],[-2.6300209,51.3752159],[-2.6347544,51.3779059],[-2.6273252,51.3805255],[-2.6317888,51.3832531],[-2.6269512,51.3871366],[-2.6189044,51.3814786],[-2.612459,51.3817678],[-2.6227023,51.3894118],[-2.6149817,51.3913181],[-2.6145041,51.3887311],[-2.6077769,51.3907935],[-2.6031147,51.3888263],[-2.6033604,51.3939558],[-2.5872718,51.3951487],[-2.5901319,51.397547],[-2.6103941,51.4012673],[-2.6229932,51.4038608],[-2.6304653,51.4021134],[-2.6354621,51.4069788],[-2.6290674,51.4160391]]],"type":"Polygon"},"id":"E02003077","properties":{"code":"E02003077","geography":"MSOA","name":"North Somerset 013"},"type":"Feature"},{"geometry":{"coordinates":[[[[-2.9031017,51.3922914],[-2.9055791,51.3929886],[-2.903765,51.3922572],[-2.9031017,51.3922914]]],[[[-2.9367187,51.3964736],[-2.9393554,51.3977498],[-2.9440738,51.3967637],[-2.9568228,51.3920939],[-2.9807926,51.3884185],[-2.9728686,51.3881708],[-2.9624953,51.3823497],[-2.9632931,51.3698417],[-2.9677167,51.3641001],[-2.9655223,51.3636542],[-2.9442811,51.3658472],[-2.9332883,51.3667114],[-2.9332725,51.3720674],[-2.9189634,51.3720153],[-2.9119643,51.3749697],[-2.9064148,51.3711269],[-2.8995734,51.3724551],[-2.8970282,51.3693041],[-2.8908957,51.369476],[-2.8785317,51.3606942],[-2.8726982,51.3635771],[-2.8698833,51.3608956],[-2.8641014,51.3624715],[-2.8603275,51.358452],[-2.8426152,51.355408],[-2.8154248,51.3408148],[-2.807646,51.3416283],[-2.7921366,51.3493009],[-2.7857199,51.3625794],[-2.7826344,51.361817],[-2.7777448,51.375668],[-2.7601848,51.3759705],[-2.7599556,51.3786334],[-2.7947154,51.382378],[-2.839686,51.3790085],[-2.8501498,51.3835336],[-2.8565296,51.3808175],[-2.8716715,51.3826867],[-2.8776584,51.3788016],[-2.8788432,51.3854484],[-2.8983929,51.3909607],[-2.8979675,51.3903374],[-2.9173365,51.3958896],[-2.9357796,51.394975],[-2.9307279,51.389763],[-2.9360379,51.3933355],[-2.9367439,51.3928646],[-2.9393871,51.3911012],[-2.9367187,51.3964736]]]],"type":"MultiPolygon"},"id":"E02003078","properties":{"code":"E02003078","geography":"MSOA","name":"North Somerset 014"},"type":"Feature"},{"geometry":{"coordinates":[[[-2.9064148,51.3711269],[-2.9119643,51.3749697],[-2.9189634,51.3720153],[-2.9332725,51.3720674],[-2.9332883,51.3667114],[-2.9272983,51.3627372],[-2.9235343,51.3656543],[-2.9119451,51.3633022],[-2.9072667,51.3601463],[-2.9064148,51.3711269]]],"type":"Polygon"},"id":"E02003079","properties":{"code":"E02003079","geography":"MSOA","name":"North Somerset 015"},"type":"Feature"},{"geometry":{"coordinates":[[[-2.9119451,51.3633022],[-2.9235343,51.3656543],[-2.9272983,51.3627372],[-2.9332883,51.3667114],[-2.9442811,51.3658472],[-2.9414381,51.3619603],[-2.9334772,51.3636994],[-2.9376154,51.359823],[-2.9320651,51.3585325],[-2.9378247,51.3531471],[-2.9355096,51.3499554],[-2.9247282,51.3521571],[-2.9218512,51.3562664],[-2.9126047,51.3565744],[-2.9179858,51.3590303],[-2.9119451,51.3633022]]],"type":"Polygon"},"id":"E02003080","properties":{"code":"E02003080","geography":"MSOA","name":"North Somerset 016"},"type":"Feature"},{"geometry":{"coordinates":[[[-2.9355096,51.3499554],[-2.9378247,51.3531471],[-2.9320651,51.3585325],[-2.9376154,51.359823],[-2.9334772,51.3636994],[-2.9414381,51.3619603],[-2.9442811,51.3658472],[-2.9655223,51.3636542],[-2.9693512,51.358876],[-2.9563562,51.3598572],[-2.9504935,51.3526393],[-2.9556011,51.3516021],[-2.9483856,51.3472213],[-2.9355096,51.3499554]]],"type":"Polygon"},"id":"E02003081","properties":{"code":"E02003081","geography":"MSOA","name":"North Somerset 017"},"type":"Feature"},{"geometry":{"coordinates":[[[[-3.1051422,51.3401902],[-3.1060136,51.341429],[-3.1148198,51.3396648],[-3.1051422,51.3401902]]],[[[-2.9655223,51.3636542],[-2.9677167,51.3641001],[-2.9677495,51.3640575],[-2.9683199,51.363317],[-2.9941259,51.3571562],[-2.9900118,51.3510558],[-2.9833983,51.3506799],[-2.9834576,51.3503172],[-2.9835275,51.3498897],[-2.9689486,51.349413],[-2.9556011,51.3516021],[-2.9504935,51.3526393],[-2.9563562,51.3598572],[-2.9693512,51.358876],[-2.9655223,51.3636542]]]],"type":"MultiPolygon"},"id":"E02003082","properties":{"code":"E02003082","geography":"MSOA","name":"North Somerset 018"},"type":"Feature"},{"geometry":{"coordinates":[[[-2.9483856,51.3472213],[-2.9556011,51.3516021],[-2.9689486,51.349413],[-2.9835275,51.3498897],[-2.9853011,51.3390468],[-2.9719972,51.3386908],[-2.9721163,51.3443269],[-2.9589953,51.3450502],[-2.9606436,51.3402513],[-2.9515442,51.3373927],[-2.9586097,51.3451272],[-2.9483856,51.3472213]]],"type":"Polygon"},"id":"E02003084","properties":{"code":"E02003084","geography":"MSOA","name":"North Somerset 020"},"type":"Feature"},{"geometry":{"coordinates":[[[-2.9515442,51.3373927],[-2.9606436,51.3402513],[-2.9589953,51.3450502],[-2.9721163,51.3443269],[-2.9719972,51.3386908],[-2.9668834,51.3297501],[-2.9710724,51.3287012],[-2.9688476,51.3255852],[-2.9633398,51.3281203],[-2.9546178,51.3265102],[-2.9515442,51.3373927]]],"type":"Polygon"},"id":"E02003085","properties":{"code":"E02003085","geography":"MSOA","name":"North Somerset 021"},"type":"Feature"},{"geometry":{"coordinates":[[[[-2.9941448,51.3209413],[-3.0029647,51.3251556],[-3.0048886,51.325354],[-2.9952487,51.3203583],[-2.9941448,51.3209413]]],[[[-2.9710724,51.3287012],[-2.9668834,51.3297501],[-2.9719972,51.3386908],[-2.9853011,51.3390468],[-2.9858409,51.3357453],[-2.9859731,51.3349365],[-2.9860385,51.3345369],[-2.9924305,51.320503],[-2.9920114,51.3201239],[-2.9885888,51.3280027],[-2.9838616,51.3228311],[-2.9717691,51.3258117],[-2.9710724,51.3287012]]]],"type":"MultiPolygon"},"id":"E02003086","properties":{"code":"E02003086","geography":"MSOA","name":"North Somerset 022"},"type":"Feature"},{"geometry":{"coordinates":[[[[-2.9945884,51.3055823],[-2.9946999,51.3059414],[-2.9949731,51.3057578],[-2.994479,51.3052405],[-2.9945884,51.3055823]]],[[[-2.8879803,51.3502508],[-2.8951952,51.352619],[-2.8953996,51.3484484],[-2.9043796,51.3514092],[-2.9145348,51.3474042],[-2.9153394,51.3492195],[-2.933575,51.3444301],[-2.9273746,51.3392891],[-2.9312066,51.3379132],[-2.929423,51.3353335],[-2.951724,51.3280476],[-2.9486992,51.3246368],[-2.9546065,51.3241329],[-2.9521504,51.31416],[-2.9615787,51.3140443],[-2.9663997,51.3168559],[-2.9843906,51.3122636],[-2.9843573,51.311875],[-2.9891008,51.3083415],[-2.985929,51.307684],[-2.9943044,51.3062088],[-2.9940123,51.3047516],[-2.9880663,51.2985238],[-2.9724459,51.2957303],[-2.9633816,51.2985416],[-2.9620322,51.3047949],[-2.9368728,51.3030828],[-2.9175064,51.2944797],[-2.8970966,51.2906185],[-2.8849131,51.3066684],[-2.8767607,51.3138478],[-2.8541798,51.3198929],[-2.861554,51.3253951],[-2.8568443,51.3262077],[-2.856666,51.3330143],[-2.8619681,51.3295621],[-2.8693724,51.3304038],[-2.8693526,51.3374822],[-2.8756513,51.3375675],[-2.8788303,51.3418747],[-2.8871189,51.3403222],[-2.8879803,51.3502508]]]],"type":"MultiPolygon"},"id":"E02003087","properties":{"code":"E02003087","geography":"MSOA","name":"North Somerset 023"},"type":"Feature"},{"geometry":{"coordinates":[[[-2.7826344,51.361817],[-2.7857199,51.3625794],[-2.7921366,51.3493009],[-2.807646,51.3416283],[-2.8154248,51.3408148],[-2.8426152,51.355408],[-2.8564985,51.3431147],[-2.8536665,51.335725],[-2.8438524,51.333318],[-2.8372841,51.3225416],[-2.8541798,51.3198929],[-2.8767607,51.3138478],[-2.8849131,51.3066684],[-2.8771394,51.3000666],[-2.8679394,51.3022096],[-2.8531542,51.2994795],[-2.8302889,51.3007137],[-2.8102307,51.3014282],[-2.8120616,51.3107138],[-2.8074346,51.3116174],[-2.8078035,51.3148852],[-2.8179253,51.3190628],[-2.8186675,51.3263686],[-2.7984615,51.3269715],[-2.764639,51.3225807],[-2.754802,51.3245518],[-2.7539364,51.3197782],[-2.7280591,51.3172301],[-2.720922,51.321531],[-2.7168373,51.3168048],[-2.6968516,51.3161442],[-2.6948762,51.3180978],[-2.6871787,51.3303613],[-2.7078886,51.3378067],[-2.7207762,51.3383479],[-2.7192442,51.3436114],[-2.7321556,51.3504674],[-2.7398354,51.3471882],[-2.7423625,51.3489993],[-2.7400985,51.3444442],[-2.7437652,51.3474457],[-2.7447536,51.3378998],[-2.7478899,51.3418615],[-2.7521838,51.3389486],[-2.7541268,51.3420418],[-2.7555455,51.3374156],[-2.7564244,51.3432157],[-2.7712382,51.3436308],[-2.7728686,51.3568264],[-2.7826344,51.361817]]],"type":"Polygon"},"id":"E02003088","properties":{"code":"E02003088","geography":"MSOA","name":"North Somerset 024"},"type":"Feature"},{"geometry":{"coordinates":[[[[-2.9863712,51.3125299],[-2.986625,51.3127527],[-2.9866821,51.3127861],[-2.9864156,51.312505],[-2.9863712,51.3125299]]],[[[-2.9710724,51.3287012],[-2.9717691,51.3258117],[-2.9838616,51.3228311],[-2.9885888,51.3280027],[-2.9920114,51.3201239],[-2.9865108,51.315147],[-2.985173,51.3214149],[-2.9843906,51.3122636],[-2.9663997,51.3168559],[-2.9615787,51.3140443],[-2.9521504,51.31416],[-2.9546065,51.3241329],[-2.9546178,51.3265102],[-2.9633398,51.3281203],[-2.9688476,51.3255852],[-2.9710724,51.3287012]]]],"type":"MultiPolygon"},"id":"E02003089","properties":{"code":"E02003089","geography":"MSOA","name":"North Somerset 025"},"type":"Feature"},{"geometry":{"coordinates":[[[-2.8426152,51.355408],[-2.8603275,51.358452],[-2.8641014,51.3624715],[-2.8698833,51.3608956],[-2.8726982,51.3635771],[-2.8785317,51.3606942],[-2.8908957,51.369476],[-2.8970282,51.3693041],[-2.8995734,51.3724551],[-2.9064148,51.3711269],[-2.9072667,51.3601463],[-2.9119451,51.3633022],[-2.9179858,51.3590303],[-2.9126047,51.3565744],[-2.9218512,51.3562664],[-2.9247282,51.3521571],[-2.9206972,51.353149],[-2.9153394,51.3492195],[-2.9145348,51.3474042],[-2.9043796,51.3514092],[-2.8953996,51.3484484],[-2.8951952,51.352619],[-2.8879803,51.3502508],[-2.8871189,51.3403222],[-2.8788303,51.3418747],[-2.8756513,51.3375675],[-2.8693526,51.3374822],[-2.8693724,51.3304038],[-2.8619681,51.3295621],[-2.856666,51.3330143],[-2.8568443,51.3262077],[-2.861554,51.3253951],[-2.8541798,51.3198929],[-2.8372841,51.3225416],[-2.8438524,51.333318],[-2.8536665,51.335725],[-2.8564985,51.3431147],[-2.8426152,51.355408]]],"type":"Polygon"},"id":"E02006845","properties":{"code":"E02006845","geography":"MSOA","name":"North Somerset 026"},"type":"Feature"},{"geometry":{"coordinates":[[[-2.9153394,51.3492195],[-2.9206972,51.353149],[-2.9247282,51.3521571],[-2.9355096,51.3499554],[-2.9483856,51.3472213],[-2.9586097,51.3451272],[-2.9515442,51.3373927],[-2.9546178,51.3265102],[-2.9546065,51.3241329],[-2.9486992,51.3246368],[-2.951724,51.3280476],[-2.929423,51.3353335],[-2.9312066,51.3379132],[-2.9273746,51.3392891],[-2.933575,51.3444301],[-2.9153394,51.3492195]]],"type":"Polygon"},"id":"E02006846","properties":{"code":"E02006846","geography":"MSOA","name":"North Somerset 027"},"type":"Feature"}],"type":"FeatureCollection"}
