{"features":[{"geometry":{"coordinates":[[[-0.1616677,53.6193148],[-0.186805,53.6302338],[-0.1875116,53.6305405],[-0.1880514,53.6305158],[-0.1887921,53.6310965],[-0.2044173,53.6378776],[-0.2046299,53.6380652],[-0.2047613,53.6381812],[-0.2326114,53.623981],[-0.2509529,53.6229709],[-0.2921102,53.6132454],[-0.2904135,53.61061],[-0.2869566,53.6118097],[-0.2829982,53.6044762],[-0.2697004,53.5984874],[-0.2593447,53.5969426],[-0.2544892,53.5924174],[-0.2484897,53.5936112],[-0.2513915,53.584631],[-0.2385263,53.587861],[-0.1993181,53.6032918],[-0.1871492,53.6051264],[-0.1652437,53.6198987],[-0.1616677,53.6193148]]],"type":"Polygon"},"id":"E02002726","properties":{"code":"E02002726","geography":"MSOA","name":"North East Lincolnshire 001"},"type":"Feature"},{"geometry":{"coordinates":[[[-0.0510655,53.5760964],[-0.0518627,53.5765954],[-0.060223,53.5815536],[-0.068559,53.5830567],[-0.0697986,53.5831571],[-0.0698739,53.5831083],[-0.0795946,53.5659404],[-0.0704765,53.5648587],[-0.0676054,53.5613036],[-0.0690609,53.5680472],[-0.0620367,53.5718843],[-0.0570701,53.5710448],[-0.0510655,53.5760964]]],"type":"Polygon"},"id":"E02002727","properties":{"code":"E02002727","geography":"MSOA","name":"North East Lincolnshire 002"},"type":"Feature"},{"geometry":{"coordinates":[[[-0.0795946,53.5659404],[-0.0698739,53.5831083],[-0.0794528,53.5769058],[-0.0922733,53.5816472],[-0.0928161,53.5813008],[-0.0932097,53.5810482],[-0.0942977,53.5815812],[-0.1162245,53.5714701],[-0.1114725,53.5698892],[-0.0923152,53.5635945],[-0.0826898,53.5641575],[-0.0795946,53.5659404]]],"type":"Polygon"},"id":"E02002728","properties":{"code":"E02002728","geography":"MSOA","name":"North East Lincolnshire 003"},"type":"Feature"},{"geometry":{"coordinates":[[[-0.0942977,53.5815812],[-0.0946244,53.5817412],[-0.1115276,53.5900216],[-0.1184027,53.5862096],[-0.1193519,53.5824626],[-0.1240645,53.583278],[-0.13059,53.575774],[-0.14676,53.5719355],[-0.1501914,53.5675231],[-0.1429535,53.5623635],[-0.1350998,53.5659773],[-0.1378102,53.5699169],[-0.1299928,53.5661946],[-0.1261388,53.571616],[-0.1162245,53.5714701],[-0.0942977,53.5815812]]],"type":"Polygon"},"id":"E02002729","properties":{"code":"E02002729","geography":"MSOA","name":"North East Lincolnshire 004"},"type":"Feature"},{"geometry":{"coordinates":[[[-0.0404517,53.5694512],[-0.0509763,53.5760406],[-0.0510655,53.5760964],[-0.0570701,53.5710448],[-0.0582578,53.568142],[-0.0479994,53.5641739],[-0.0404517,53.5694512]]],"type":"Polygon"},"id":"E02002730","properties":{"code":"E02002730","geography":"MSOA","name":"North East Lincolnshire 005"},"type":"Feature"},{"geometry":{"coordinates":[[[-0.0570701,53.5710448],[-0.0620367,53.5718843],[-0.0690609,53.5680472],[-0.0676054,53.5613036],[-0.0672102,53.5606999],[-0.0570499,53.5639997],[-0.0582578,53.568142],[-0.0570701,53.5710448]]],"type":"Polygon"},"id":"E02002731","properties":{"code":"E02002731","geography":"MSOA","name":"North East Lincolnshire 006"},"type":"Feature"},{"geometry":{"coordinates":[[[-0.1616677,53.6193148],[-0.1652437,53.6198987],[-0.1871492,53.6051264],[-0.1993181,53.6032918],[-0.2385263,53.587861],[-0.2226463,53.568012],[-0.1951806,53.571596],[-0.187489,53.563551],[-0.2198148,53.532592],[-0.2105852,53.531683],[-0.2084091,53.5352937],[-0.2023284,53.5329658],[-0.1960355,53.536002],[-0.1741528,53.527885],[-0.156865,53.5251197],[-0.1510546,53.5206663],[-0.1430626,53.5238417],[-0.1360266,53.5486039],[-0.1411665,53.554367],[-0.1357323,53.5575324],[-0.1429535,53.5623635],[-0.1501914,53.5675231],[-0.14676,53.5719355],[-0.13059,53.575774],[-0.1240645,53.583278],[-0.1193519,53.5824626],[-0.1184027,53.5862096],[-0.1115276,53.5900216],[-0.1293313,53.6006281],[-0.1304456,53.6013323],[-0.152833,53.6154746],[-0.1616677,53.6193148]]],"type":"Polygon"},"id":"E02002732","properties":{"code":"E02002732","geography":"MSOA","name":"North East Lincolnshire 007"},"type":"Feature"},{"geometry":{"coordinates":[[[-0.0826898,53.5641575],[-0.0923152,53.5635945],[-0.1114725,53.5698892],[-0.1071036,53.5648742],[-0.1121964,53.5598675],[-0.1066237,53.5617093],[-0.1029094,53.5600363],[-0.078956,53.5609261],[-0.0826898,53.5641575]]],"type":"Polygon"},"id":"E02002733","properties":{"code":"E02002733","geography":"MSOA","name":"North East Lincolnshire 008"},"type":"Feature"},{"geometry":{"coordinates":[[[-0.1114725,53.5698892],[-0.1162245,53.5714701],[-0.1261388,53.571616],[-0.1299928,53.5661946],[-0.120865,53.557374],[-0.1082895,53.5578364],[-0.1066237,53.5617093],[-0.1121964,53.5598675],[-0.1071036,53.5648742],[-0.1114725,53.5698892]]],"type":"Polygon"},"id":"E02002734","properties":{"code":"E02002734","geography":"MSOA","name":"North East Lincolnshire 009"},"type":"Feature"},{"geometry":{"coordinates":[[[-0.0676054,53.5613036],[-0.0704765,53.5648587],[-0.0795946,53.5659404],[-0.0826898,53.5641575],[-0.078956,53.5609261],[-0.0762077,53.5543185],[-0.0700618,53.5556376],[-0.0672102,53.5606999],[-0.0676054,53.5613036]]],"type":"Polygon"},"id":"E02002736","properties":{"code":"E02002736","geography":"MSOA","name":"North East Lincolnshire 011"},"type":"Feature"},{"geometry":{"coordinates":[[[-0.0479994,53.5641739],[-0.0582578,53.568142],[-0.0570499,53.5639997],[-0.0672102,53.5606999],[-0.0700618,53.5556376],[-0.0762077,53.5543185],[-0.0718236,53.5437291],[-0.0655205,53.546767],[-0.0640336,53.5414774],[-0.0561542,53.5439108],[-0.0576616,53.5478479],[-0.0521844,53.5506921],[-0.0551997,53.5536181],[-0.0409947,53.5587456],[-0.0479994,53.5641739]]],"type":"Polygon"},"id":"E02002737","properties":{"code":"E02002737","geography":"MSOA","name":"North East Lincolnshire 012"},"type":"Feature"},{"geometry":{"coordinates":[[[-0.1299928,53.5661946],[-0.1378102,53.5699169],[-0.1350998,53.5659773],[-0.1429535,53.5623635],[-0.1357323,53.5575324],[-0.1411665,53.554367],[-0.1360266,53.5486039],[-0.1244397,53.5491624],[-0.120865,53.557374],[-0.1299928,53.5661946]]],"type":"Polygon"},"id":"E02002738","properties":{"code":"E02002738","geography":"MSOA","name":"North East Lincolnshire 013"},"type":"Feature"},{"geometry":{"coordinates":[[[-0.0342295,53.5484865],[-0.0209136,53.554225],[-0.0303105,53.5577424],[-0.0355003,53.5561789],[-0.0458857,53.5513466],[-0.0352957,53.5478562],[-0.0342295,53.5484865]]],"type":"Polygon"},"id":"E02002739","properties":{"code":"E02002739","geography":"MSOA","name":"North East Lincolnshire 014"},"type":"Feature"},{"geometry":{"coordinates":[[[-0.1029094,53.5600363],[-0.1066237,53.5617093],[-0.1082895,53.5578364],[-0.120865,53.557374],[-0.1244397,53.5491624],[-0.1245132,53.5454322],[-0.1167712,53.5487574],[-0.1113241,53.5471826],[-0.1123119,53.5516438],[-0.1088841,53.5500181],[-0.0982652,53.5560693],[-0.1032884,53.556947],[-0.1029094,53.5600363]]],"type":"Polygon"},"id":"E02002740","properties":{"code":"E02002740","geography":"MSOA","name":"North East Lincolnshire 015"},"type":"Feature"},{"geometry":{"coordinates":[[[-0.0762077,53.5543185],[-0.078956,53.5609261],[-0.1029094,53.5600363],[-0.1032884,53.556947],[-0.0982652,53.5560693],[-0.0917949,53.5489242],[-0.0992998,53.5491141],[-0.100442,53.5444467],[-0.0917406,53.5399183],[-0.0784164,53.540273],[-0.0718236,53.5437291],[-0.0762077,53.5543185]]],"type":"Polygon"},"id":"E02002741","properties":{"code":"E02002741","geography":"MSOA","name":"North East Lincolnshire 016"},"type":"Feature"},{"geometry":{"coordinates":[[[-0.0355003,53.5561789],[-0.0409947,53.5587456],[-0.0551997,53.5536181],[-0.0521844,53.5506921],[-0.0496092,53.5442223],[-0.0389943,53.5372916],[-0.0333716,53.5387045],[-0.0352957,53.5478562],[-0.0458857,53.5513466],[-0.0355003,53.5561789]]],"type":"Polygon"},"id":"E02002743","properties":{"code":"E02002743","geography":"MSOA","name":"North East Lincolnshire 018"},"type":"Feature"},{"geometry":{"coordinates":[[[-0.1167712,53.5487574],[-0.1245132,53.5454322],[-0.1242663,53.5434123],[-0.1139624,53.5435213],[-0.100442,53.5444467],[-0.0992998,53.5491141],[-0.0917949,53.5489242],[-0.0982652,53.5560693],[-0.1088841,53.5500181],[-0.1123119,53.5516438],[-0.1113241,53.5471826],[-0.1167712,53.5487574]]],"type":"Polygon"},"id":"E02002744","properties":{"code":"E02002744","geography":"MSOA","name":"North East Lincolnshire 019"},"type":"Feature"},{"geometry":{"coordinates":[[[0.0017272,53.5398481],[0.0004782,53.5391703],[-0.0068912,53.5444986],[-0.0291388,53.5439589],[-0.0342295,53.5484865],[-0.0352957,53.5478562],[-0.0333716,53.5387045],[-0.0389943,53.5372916],[-0.0313766,53.5347201],[-0.0352189,53.5299621],[-0.0290085,53.5246812],[-0.0424026,53.5163275],[-0.0396848,53.5130771],[-0.0286339,53.5173119],[-0.0195432,53.5179494],[-0.0174212,53.5150605],[0.004875,53.5195415],[0.0163677,53.5263634],[0.0088586,53.5348351],[0.0084697,53.5351085],[0.0017272,53.5398481]]],"type":"Polygon"},"id":"E02002745","properties":{"code":"E02002745","geography":"MSOA","name":"North East Lincolnshire 020"},"type":"Feature"},{"geometry":{"coordinates":[[[-0.0784164,53.540273],[-0.0917406,53.5399183],[-0.100442,53.5444467],[-0.1139624,53.5435213],[-0.1049963,53.5279769],[-0.0973456,53.5256993],[-0.092437,53.5268376],[-0.0907826,53.5345559],[-0.0844222,53.5322689],[-0.0731575,53.5380167],[-0.0784164,53.540273]]],"type":"Polygon"},"id":"E02002746","properties":{"code":"E02002746","geography":"MSOA","name":"North East Lincolnshire 021"},"type":"Feature"},{"geometry":{"coordinates":[[[-0.0389943,53.5372916],[-0.0496092,53.5442223],[-0.0521844,53.5506921],[-0.0576616,53.5478479],[-0.0561542,53.5439108],[-0.0640336,53.5414774],[-0.0655205,53.546767],[-0.0718236,53.5437291],[-0.0784164,53.540273],[-0.0731575,53.5380167],[-0.0844222,53.5322689],[-0.0907826,53.5345559],[-0.092437,53.5268376],[-0.0973456,53.5256993],[-0.0856177,53.5281567],[-0.0786957,53.5163361],[-0.0670911,53.5168129],[-0.0605399,53.519724],[-0.0466083,53.520073],[-0.0424026,53.5163275],[-0.0290085,53.5246812],[-0.0352189,53.5299621],[-0.0313766,53.5347201],[-0.0389943,53.5372916]]],"type":"Polygon"},"id":"E02002747","properties":{"code":"E02002747","geography":"MSOA","name":"North East Lincolnshire 022"},"type":"Feature"},{"geometry":{"coordinates":[[[-0.1245132,53.5454322],[-0.1244397,53.5491624],[-0.1360266,53.5486039],[-0.1430626,53.5238417],[-0.1510546,53.5206663],[-0.156865,53.5251197],[-0.1741528,53.527885],[-0.1960355,53.536002],[-0.2023284,53.5329658],[-0.2084091,53.5352937],[-0.2105852,53.531683],[-0.2136196,53.5263351],[-0.2040234,53.5085978],[-0.2106013,53.4862644],[-0.1885618,53.4845139],[-0.1817988,53.4686873],[-0.1537061,53.4657096],[-0.1585427,53.4615941],[-0.1492828,53.4468389],[-0.1444432,53.4409258],[-0.1342456,53.4407138],[-0.1318051,53.435913],[-0.1226325,53.4372308],[-0.1203371,53.4335752],[-0.0822062,53.4511261],[-0.107861,53.4698693],[-0.0898002,53.4776576],[-0.0954849,53.4859641],[-0.0752579,53.4893106],[-0.0670911,53.5168129],[-0.0786957,53.5163361],[-0.0856177,53.5281567],[-0.0973456,53.5256993],[-0.1049963,53.5279769],[-0.1139624,53.5435213],[-0.1242663,53.5434123],[-0.1245132,53.5454322]]],"type":"Polygon"},"id":"E02002748","properties":{"code":"E02002748","geography":"MSOA","name":"North East Lincolnshire 023"},"type":"Feature"},{"geometry":{"coordinates":[[[0.0017272,53.5398481],[-0.019662,53.5548738],[-0.0201794,53.5552938],[-0.0281342,53.5617355],[-0.0404517,53.5694512],[-0.0479994,53.5641739],[-0.0409947,53.5587456],[-0.0355003,53.5561789],[-0.0303105,53.5577424],[-0.0209136,53.554225],[-0.0342295,53.5484865],[-0.0291388,53.5439589],[-0.0068912,53.5444986],[0.0004782,53.5391703],[0.0017272,53.5398481]]],"type":"Polygon"},"id":"E02007081","properties":{"code":"E02007081","geography":"MSOA","name":"North East Lincolnshire 024"},"type":"Feature"}],"type":"FeatureCollection"}
