{"features":[{"geometry":{"coordinates":[[[-3.1445571,54.1709024],[-3.1583337,54.1925016],[-3.1637395,54.1923885],[-3.1496749,54.2072846],[-3.1476977,54.2183976],[-3.1676361,54.203183],[-3.1827442,54.2035813],[-3.200579,54.2082392],[-3.2055139,54.2143088],[-3.2091994,54.209661],[-3.2100555,54.2085814],[-3.204505,54.209534],[-3.2130581,54.2071841],[-3.2120412,54.1997361],[-3.2189959,54.1874845],[-3.2147583,54.1856506],[-3.2229907,54.1877819],[-3.2150944,54.184832],[-3.2171533,54.1774554],[-3.2270026,54.1721363],[-3.2284393,54.1713602],[-3.246132,54.1719855],[-3.2565398,54.1686937],[-3.2495801,54.1547968],[-3.2405207,54.158377],[-3.2376981,54.1559119],[-3.240491,54.1471247],[-3.2334129,54.1474],[-3.2272896,54.1596389],[-3.2143692,54.1593288],[-3.2151156,54.1617081],[-3.2012804,54.160955],[-3.1922107,54.1624137],[-3.1866347,54.1557525],[-3.1777205,54.1573698],[-3.1741024,54.1617125],[-3.1602072,54.1588722],[-3.1494678,54.1597547],[-3.1469623,54.1652657],[-3.1425992,54.1652509],[-3.1445571,54.1709024]]],"type":"Polygon"},"id":"E02003977","properties":{"code":"E02003977","geography":"MSOA","name":"Barrow-in-Furness 001"},"type":"Feature"},{"geometry":{"coordinates":[[[-3.1602072,54.1588722],[-3.1741024,54.1617125],[-3.1777205,54.1573698],[-3.1866347,54.1557525],[-3.1922107,54.1624137],[-3.2012804,54.160955],[-3.1953056,54.1433735],[-3.1846115,54.1409837],[-3.182265,54.1333077],[-3.1609643,54.1340482],[-3.1646985,54.1544927],[-3.1602072,54.1588722]]],"type":"Polygon"},"id":"E02003978","properties":{"code":"E02003978","geography":"MSOA","name":"Barrow-in-Furness 002"},"type":"Feature"},{"geometry":{"coordinates":[[[-3.2012804,54.160955],[-3.2151156,54.1617081],[-3.2143692,54.1593288],[-3.2256907,54.1312292],[-3.2183207,54.1268707],[-3.2149811,54.1289058],[-3.2088207,54.1238804],[-3.2048684,54.1232333],[-3.1987991,54.1214394],[-3.1886478,54.1285163],[-3.1979363,54.1373423],[-3.1953056,54.1433735],[-3.2012804,54.160955]]],"type":"Polygon"},"id":"E02003979","properties":{"code":"E02003979","geography":"MSOA","name":"Barrow-in-Furness 003"},"type":"Feature"},{"geometry":{"coordinates":[[[-3.2143692,54.1593288],[-3.2272896,54.1596389],[-3.2334129,54.1474],[-3.240491,54.1471247],[-3.2434787,54.1286777],[-3.2421108,54.1151008],[-3.2416435,54.112179],[-3.2281103,54.1088512],[-3.2315701,54.1116724],[-3.2285446,54.1136702],[-3.231874,54.1123342],[-3.2354843,54.1172749],[-3.224172,54.1180211],[-3.2285799,54.1207942],[-3.224094,54.122569],[-3.2282912,54.1243067],[-3.2256907,54.1312292],[-3.2143692,54.1593288]]],"type":"Polygon"},"id":"E02003980","properties":{"code":"E02003980","geography":"MSOA","name":"Barrow-in-Furness 004"},"type":"Feature"},{"geometry":{"coordinates":[[[-3.2088207,54.1238804],[-3.2149811,54.1289058],[-3.2183207,54.1268707],[-3.2256907,54.1312292],[-3.2282912,54.1243067],[-3.224094,54.122569],[-3.2285799,54.1207942],[-3.224172,54.1180211],[-3.2202073,54.1155803],[-3.2075251,54.1170033],[-3.2088207,54.1238804]]],"type":"Polygon"},"id":"E02003981","properties":{"code":"E02003981","geography":"MSOA","name":"Barrow-in-Furness 005"},"type":"Feature"},{"geometry":{"coordinates":[[[[-3.174145,54.0664962],[-3.1769103,54.0635048],[-3.1733612,54.061892],[-3.174145,54.0664962]]],[[[-3.2218463,54.093595],[-3.2219094,54.0935871],[-3.2217192,54.0932938],[-3.2218463,54.093595]]],[[[-3.2184958,54.0957985],[-3.2190699,54.0955924],[-3.2191004,54.095433],[-3.2184958,54.0957985]]],[[[-3.1846115,54.1409837],[-3.1953056,54.1433735],[-3.1979363,54.1373423],[-3.1886478,54.1285163],[-3.1987991,54.1214394],[-3.2048684,54.1232333],[-3.2009754,54.1181242],[-3.2032345,54.1087035],[-3.1985582,54.1029539],[-3.1993607,54.102666],[-3.19131,54.1028416],[-3.1851617,54.0957037],[-3.1868625,54.0904181],[-3.1737521,54.0833851],[-3.1779792,54.0748689],[-3.1732401,54.073584],[-3.1714386,54.0796191],[-3.1507153,54.0647758],[-3.1517626,54.0702081],[-3.1527051,54.0676572],[-3.1724028,54.081775],[-3.1647954,54.0832151],[-3.1491107,54.0935197],[-3.1495715,54.0938947],[-3.1426579,54.097381],[-3.1468439,54.1012154],[-3.1749692,54.1148054],[-3.1634352,54.1219534],[-3.1609643,54.1340482],[-3.182265,54.1333077],[-3.1846115,54.1409837]]]],"type":"MultiPolygon"},"id":"E02003982","properties":{"code":"E02003982","geography":"MSOA","name":"Barrow-in-Furness 006"},"type":"Feature"},{"geometry":{"coordinates":[[[-3.2048684,54.1232333],[-3.2088207,54.1238804],[-3.2075251,54.1170033],[-3.2202073,54.1155803],[-3.214952,54.1050847],[-3.2032345,54.1087035],[-3.2009754,54.1181242],[-3.2048684,54.1232333]]],"type":"Polygon"},"id":"E02003983","properties":{"code":"E02003983","geography":"MSOA","name":"Barrow-in-Furness 007"},"type":"Feature"},{"geometry":{"coordinates":[[[-3.2202073,54.1155803],[-3.224172,54.1180211],[-3.2354843,54.1172749],[-3.231874,54.1123342],[-3.2285446,54.1136702],[-3.2315701,54.1116724],[-3.2281103,54.1088512],[-3.214952,54.1050847],[-3.2202073,54.1155803]]],"type":"Polygon"},"id":"E02003984","properties":{"code":"E02003984","geography":"MSOA","name":"Barrow-in-Furness 008"},"type":"Feature"},{"geometry":{"coordinates":[[[[-3.2416435,54.112179],[-3.2421108,54.1151008],[-3.2418027,54.1120409],[-3.2415467,54.1112283],[-3.2416435,54.112179]]],[[[-3.2455993,54.1062097],[-3.2459644,54.1071985],[-3.2507925,54.1257392],[-3.2546261,54.1317735],[-3.2587649,54.1318382],[-3.2550588,54.1320125],[-3.259531,54.1351485],[-3.2561348,54.1352038],[-3.2609466,54.1378127],[-3.2606833,54.1385124],[-3.2647668,54.1385486],[-3.2645131,54.147757],[-3.2520087,54.1507378],[-3.2572346,54.1526589],[-3.2713095,54.1481527],[-3.2766844,54.1418131],[-3.2644847,54.1039326],[-3.264051,54.1025848],[-3.2627108,54.1026176],[-3.2583377,54.1057328],[-3.2541925,54.1026043],[-3.2455993,54.1062097]]]],"type":"MultiPolygon"},"id":"E02003985","properties":{"code":"E02003985","geography":"MSOA","name":"Barrow-in-Furness 009"},"type":"Feature"},{"geometry":{"coordinates":[[[[-3.2455993,54.1062097],[-3.2541925,54.1026043],[-3.2583377,54.1057328],[-3.2627108,54.1026176],[-3.264051,54.1025848],[-3.2237456,54.0617628],[-3.2096967,54.047514],[-3.19562,54.0442509],[-3.173123,54.0470817],[-3.1728715,54.0552491],[-3.1741435,54.0482961],[-3.1785385,54.0552845],[-3.1960696,54.0487379],[-3.2057438,54.0522599],[-3.2101676,54.0650839],[-3.2233819,54.0670066],[-3.2239603,54.0690646],[-3.226465,54.0779741],[-3.2242526,54.0789786],[-3.2209307,54.0804868],[-3.224326,54.0814763],[-3.2332196,54.0840673],[-3.2300006,54.088473],[-3.2389036,54.0863332],[-3.2469899,54.0939435],[-3.2432208,54.0975239],[-3.2477018,54.0972842],[-3.2472877,54.094851],[-3.2515208,54.0963386],[-3.2476492,54.0981279],[-3.2527052,54.0992582],[-3.2429343,54.0989911],[-3.2455993,54.1062097]]],[[[-3.2281103,54.1088512],[-3.2416435,54.112179],[-3.2415467,54.1112283],[-3.2394149,54.1044581],[-3.2393119,54.104131],[-3.2385266,54.1036104],[-3.2247077,54.0944466],[-3.2238365,54.0937893],[-3.2224323,54.0936357],[-3.2219287,54.0936168],[-3.2219094,54.0935871],[-3.2218463,54.093595],[-3.2217192,54.0932938],[-3.2213481,54.0927218],[-3.2212987,54.092492],[-3.2200761,54.0929164],[-3.2198658,54.0930092],[-3.2194483,54.093616],[-3.2194118,54.0937874],[-3.2198049,54.0942672],[-3.2200668,54.0946987],[-3.2200665,54.0948488],[-3.2191004,54.095433],[-3.2190699,54.0955924],[-3.2184958,54.0957985],[-3.2150285,54.0978946],[-3.2142393,54.0982001],[-3.2120221,54.0988921],[-3.210053,54.0994837],[-3.2069737,54.1004043],[-3.2045752,54.1011249],[-3.1994575,54.1026639],[-3.1993607,54.102666],[-3.1985582,54.1029539],[-3.2032345,54.1087035],[-3.214952,54.1050847],[-3.2281103,54.1088512]]]],"type":"MultiPolygon"},"id":"E02003986","properties":{"code":"E02003986","geography":"MSOA","name":"Barrow-in-Furness 010"},"type":"Feature"},{"geometry":{"coordinates":[[[-2.3927197,54.8345085],[-2.4016163,54.8514773],[-2.4116173,54.8564241],[-2.4226843,54.8428265],[-2.4522121,54.8320237],[-2.4605869,54.8341636],[-2.4954035,54.8102993],[-2.5306413,54.8059852],[-2.5583012,54.8167178],[-2.5678429,54.8235679],[-2.5826654,54.8458599],[-2.6037631,54.8533366],[-2.655325,54.8547615],[-2.6577648,54.8494457],[-2.6689661,54.8450349],[-2.6801316,54.8353101],[-2.6863153,54.8379407],[-2.7012196,54.8335977],[-2.689788,54.8191841],[-2.7056574,54.8163554],[-2.7145348,54.8199339],[-2.7292017,54.8186492],[-2.7495725,54.8291204],[-2.7564231,54.8228508],[-2.7635803,54.8180334],[-2.7585748,54.8120229],[-2.7736059,54.8011889],[-2.7686256,54.792558],[-2.7632376,54.7899565],[-2.7490638,54.7902156],[-2.7358749,54.7738888],[-2.7011592,54.7625668],[-2.6978612,54.7529812],[-2.6768985,54.7467549],[-2.6806722,54.7337979],[-2.6875997,54.7313155],[-2.6821332,54.723615],[-2.6893638,54.7198608],[-2.6825067,54.7150676],[-2.6947594,54.7078534],[-2.6944847,54.70413],[-2.6875575,54.7015898],[-2.6924879,54.7028928],[-2.6929454,54.6988641],[-2.6997029,54.6957967],[-2.7223965,54.6957664],[-2.7192445,54.6851811],[-2.7070254,54.6713813],[-2.7138699,54.665662],[-2.7093251,54.6597299],[-2.698377,54.6622457],[-2.692971,54.657753],[-2.6812554,54.6555351],[-2.6876336,54.6635036],[-2.6848821,54.6653615],[-2.6678919,54.6646571],[-2.6415263,54.6730832],[-2.6401121,54.6627205],[-2.6219383,54.6615357],[-2.6138699,54.6502593],[-2.6040363,54.6468969],[-2.5755036,54.6541354],[-2.5674885,54.6655691],[-2.5505441,54.6654086],[-2.5509778,54.670068],[-2.5365885,54.6735728],[-2.5351893,54.6763992],[-2.5067427,54.6754735],[-2.4657567,54.7005113],[-2.4306572,54.7026101],[-2.4111875,54.7072458],[-2.3889251,54.7045585],[-2.3734215,54.6982078],[-2.3555125,54.6971322],[-2.3444222,54.7017256],[-2.3420172,54.7161367],[-2.3257964,54.7265896],[-2.332299,54.7319887],[-2.3208614,54.7550584],[-2.3223757,54.7641891],[-2.3084395,54.7735097],[-2.3139172,54.7811066],[-2.3120829,54.7910079],[-2.3232776,54.7950022],[-2.3273907,54.8053308],[-2.348422,54.8070722],[-2.3698241,54.8209597],[-2.3726631,54.8273722],[-2.3927197,54.8345085]]],"type":"Polygon"},"id":"E02004008","properties":{"code":"E02004008","geography":"MSOA","name":"Eden 001"},"type":"Feature"},{"geometry":{"coordinates":[[[-2.848672,54.8331117],[-2.8630556,54.837247],[-2.8710221,54.8347654],[-2.8719864,54.8285862],[-2.8814664,54.8234908],[-2.9074043,54.8219516],[-2.9044092,54.8130123],[-2.9210764,54.8091999],[-2.9197104,54.8059782],[-2.9348303,54.7929502],[-2.9311668,54.792151],[-2.9447786,54.7840367],[-2.9620705,54.7786156],[-2.9675684,54.7798882],[-2.9693421,54.7771364],[-2.9844326,54.7761502],[-2.9886012,54.7700397],[-2.9857211,54.7660218],[-2.9929568,54.760214],[-2.9977668,54.7620589],[-3.0008775,54.7552936],[-3.0261358,54.7479334],[-3.0215074,54.7401335],[-3.0119787,54.7347516],[-2.9966101,54.7336263],[-2.9896088,54.7277597],[-2.9749585,54.7260287],[-2.9679337,54.7177585],[-2.9405834,54.7060807],[-2.9332125,54.7087057],[-2.9159751,54.6968525],[-2.8933047,54.7033666],[-2.8847441,54.7018314],[-2.8766886,54.7058605],[-2.8684361,54.6994347],[-2.8571574,54.698204],[-2.8423168,54.6858281],[-2.8290702,54.6875954],[-2.8161899,54.6722906],[-2.783785,54.6592564],[-2.7801716,54.665904],[-2.7842686,54.6726128],[-2.7969569,54.6832749],[-2.7880102,54.6919491],[-2.7886538,54.6969489],[-2.7947393,54.6996439],[-2.7903557,54.6992948],[-2.7754794,54.7117386],[-2.7789647,54.7210149],[-2.7605834,54.7232121],[-2.7603247,54.7260355],[-2.7463932,54.7239097],[-2.7376998,54.6986021],[-2.7223965,54.6957664],[-2.6997029,54.6957967],[-2.6929454,54.6988641],[-2.6924879,54.7028928],[-2.6875575,54.7015898],[-2.6944847,54.70413],[-2.6947594,54.7078534],[-2.6825067,54.7150676],[-2.6893638,54.7198608],[-2.6821332,54.723615],[-2.6875997,54.7313155],[-2.6806722,54.7337979],[-2.6768985,54.7467549],[-2.6978612,54.7529812],[-2.7011592,54.7625668],[-2.7358749,54.7738888],[-2.7490638,54.7902156],[-2.7632376,54.7899565],[-2.7686256,54.792558],[-2.7736059,54.8011889],[-2.7585748,54.8120229],[-2.7635803,54.8180334],[-2.7564231,54.8228508],[-2.7670042,54.8232982],[-2.7731938,54.8205163],[-2.7830469,54.8222785],[-2.7993731,54.8187111],[-2.8176208,54.8275664],[-2.829503,54.8255736],[-2.8382682,54.8341631],[-2.848672,54.8331117]]],"type":"Polygon"},"id":"E02004009","properties":{"code":"E02004009","geography":"MSOA","name":"Eden 002"},"type":"Feature"},{"geometry":{"coordinates":[[[-2.7665874,54.6515488],[-2.759401,54.653474],[-2.758628,54.6600071],[-2.7526086,54.6597311],[-2.7533486,54.6568709],[-2.7454625,54.6576931],[-2.7420091,54.6515579],[-2.7331669,54.652614],[-2.7382861,54.6609036],[-2.7435858,54.6619389],[-2.7414565,54.6694683],[-2.7508122,54.6652825],[-2.7719965,54.6736913],[-2.7842686,54.6726128],[-2.7801716,54.665904],[-2.783785,54.6592564],[-2.7665874,54.6515488]]],"type":"Polygon"},"id":"E02004010","properties":{"code":"E02004010","geography":"MSOA","name":"Eden 003"},"type":"Feature"},{"geometry":{"coordinates":[[[-2.7223965,54.6957664],[-2.7376998,54.6986021],[-2.7463932,54.7239097],[-2.7603247,54.7260355],[-2.7605834,54.7232121],[-2.7789647,54.7210149],[-2.7754794,54.7117386],[-2.7903557,54.6992948],[-2.7947393,54.6996439],[-2.7886538,54.6969489],[-2.7880102,54.6919491],[-2.7969569,54.6832749],[-2.7842686,54.6726128],[-2.7719965,54.6736913],[-2.7508122,54.6652825],[-2.7414565,54.6694683],[-2.7435858,54.6619389],[-2.7382861,54.6609036],[-2.7331669,54.652614],[-2.7420091,54.6515579],[-2.7454625,54.6576931],[-2.7533486,54.6568709],[-2.7526086,54.6597311],[-2.758628,54.6600071],[-2.759401,54.653474],[-2.7665874,54.6515488],[-2.7609491,54.6495651],[-2.7694919,54.6456484],[-2.7703894,54.6395125],[-2.7808198,54.642968],[-2.7940578,54.6363169],[-2.7916791,54.6325265],[-2.7829478,54.6322766],[-2.7786927,54.6216736],[-2.781726,54.6192288],[-2.773646,54.6119796],[-2.7586052,54.6199846],[-2.754003,54.6263294],[-2.7466077,54.6176984],[-2.7351023,54.6244233],[-2.7275305,54.6163885],[-2.7220579,54.6195324],[-2.7143367,54.6145141],[-2.7008379,54.6126479],[-2.6918976,54.6242382],[-2.6784037,54.624192],[-2.708769,54.6381454],[-2.7340222,54.6440937],[-2.7373246,54.6498502],[-2.7141047,54.6555183],[-2.7093251,54.6597299],[-2.7138699,54.665662],[-2.7070254,54.6713813],[-2.7192445,54.6851811],[-2.7223965,54.6957664]]],"type":"Polygon"},"id":"E02004011","properties":{"code":"E02004011","geography":"MSOA","name":"Eden 004"},"type":"Feature"},{"geometry":{"coordinates":[[[-2.783785,54.6592564],[-2.8161899,54.6722906],[-2.8290702,54.6875954],[-2.8423168,54.6858281],[-2.8571574,54.698204],[-2.8684361,54.6994347],[-2.8766886,54.7058605],[-2.8847441,54.7018314],[-2.8933047,54.7033666],[-2.9159751,54.6968525],[-2.9332125,54.7087057],[-2.9405834,54.7060807],[-2.9679337,54.7177585],[-2.9749585,54.7260287],[-2.9896088,54.7277597],[-2.9829939,54.7193735],[-2.9912256,54.7128372],[-2.9957642,54.6945206],[-3.0336955,54.694313],[-3.0637943,54.7000744],[-3.0819159,54.6952463],[-3.0871866,54.6860844],[-3.0704248,54.6849266],[-3.0546003,54.6797494],[-3.0728921,54.6668586],[-3.0864921,54.6633475],[-3.0920412,54.6573944],[-3.0924003,54.6172286],[-3.0869464,54.6126377],[-3.077791,54.6105596],[-3.0677022,54.6141704],[-3.0447039,54.6142885],[-3.0391121,54.6123369],[-3.0343389,54.6027705],[-3.0228863,54.6027527],[-3.007489,54.5953405],[-3.0370622,54.5809796],[-3.0269611,54.5745432],[-3.0182796,54.5749878],[-3.0287907,54.5669199],[-3.0167749,54.5615825],[-3.0203595,54.5589162],[-3.0165779,54.5479521],[-3.0250513,54.5410368],[-3.0257582,54.5300887],[-3.0153113,54.5255869],[-3.0169806,54.5149285],[-3.011386,54.5073755],[-3.0148324,54.499836],[-3.0137504,54.4947035],[-2.9960098,54.4975427],[-2.9801951,54.495843],[-2.9663576,54.4822246],[-2.9553444,54.4845248],[-2.9375498,54.468663],[-2.9314523,54.469865],[-2.9213105,54.4649074],[-2.906275,54.4813401],[-2.883662,54.4849488],[-2.8775292,54.4811467],[-2.865457,54.4900158],[-2.8646997,54.5059094],[-2.8499028,54.498378],[-2.8147935,54.4989826],[-2.8076343,54.5173601],[-2.7972287,54.5255322],[-2.77914,54.5332917],[-2.7454485,54.5383366],[-2.7437808,54.5420035],[-2.735332,54.5415744],[-2.7315426,54.5508528],[-2.7277061,54.5495875],[-2.707191,54.5576386],[-2.7177486,54.577151],[-2.7123842,54.5797505],[-2.7141741,54.5904533],[-2.6951266,54.5887056],[-2.6973169,54.6088345],[-2.6898848,54.6102883],[-2.6900309,54.6181808],[-2.6684445,54.620911],[-2.6784037,54.624192],[-2.6918976,54.6242382],[-2.7008379,54.6126479],[-2.7143367,54.6145141],[-2.7220579,54.6195324],[-2.7275305,54.6163885],[-2.7351023,54.6244233],[-2.7466077,54.6176984],[-2.754003,54.6263294],[-2.7586052,54.6199846],[-2.773646,54.6119796],[-2.781726,54.6192288],[-2.7786927,54.6216736],[-2.7829478,54.6322766],[-2.7916791,54.6325265],[-2.7940578,54.6363169],[-2.7808198,54.642968],[-2.7703894,54.6395125],[-2.7694919,54.6456484],[-2.7609491,54.6495651],[-2.7665874,54.6515488],[-2.783785,54.6592564]]],"type":"Polygon"},"id":"E02004012","properties":{"code":"E02004012","geography":"MSOA","name":"Eden 005"},"type":"Feature"},{"geometry":{"coordinates":[[[-2.3555125,54.6971322],[-2.3734215,54.6982078],[-2.3889251,54.7045585],[-2.4111875,54.7072458],[-2.4306572,54.7026101],[-2.4657567,54.7005113],[-2.5067427,54.6754735],[-2.5351893,54.6763992],[-2.5365885,54.6735728],[-2.5509778,54.670068],[-2.5505441,54.6654086],[-2.5674885,54.6655691],[-2.5755036,54.6541354],[-2.6040363,54.6468969],[-2.6138699,54.6502593],[-2.6219383,54.6615357],[-2.6401121,54.6627205],[-2.6415263,54.6730832],[-2.6678919,54.6646571],[-2.6848821,54.6653615],[-2.6876336,54.6635036],[-2.6812554,54.6555351],[-2.692971,54.657753],[-2.698377,54.6622457],[-2.7093251,54.6597299],[-2.7141047,54.6555183],[-2.7373246,54.6498502],[-2.7340222,54.6440937],[-2.708769,54.6381454],[-2.6784037,54.624192],[-2.6684445,54.620911],[-2.6900309,54.6181808],[-2.6898848,54.6102883],[-2.6973169,54.6088345],[-2.6951266,54.5887056],[-2.7141741,54.5904533],[-2.7123842,54.5797505],[-2.7177486,54.577151],[-2.707191,54.5576386],[-2.7277061,54.5495875],[-2.7315426,54.5508528],[-2.735332,54.5415744],[-2.7437808,54.5420035],[-2.7454485,54.5383366],[-2.77914,54.5332917],[-2.7972287,54.5255322],[-2.8076343,54.5173601],[-2.8147935,54.4989826],[-2.8499028,54.498378],[-2.8646997,54.5059094],[-2.865457,54.4900158],[-2.8544776,54.4833441],[-2.853008,54.4785303],[-2.8351877,54.4763476],[-2.8276098,54.4799227],[-2.8155296,54.474715],[-2.8068735,54.4820519],[-2.7954171,54.4752597],[-2.7962378,54.4699204],[-2.7891731,54.4649735],[-2.7769883,54.459864],[-2.77162,54.4632203],[-2.7476118,54.4470711],[-2.7370717,54.4468223],[-2.7035195,54.4320694],[-2.6950142,54.4356694],[-2.6991613,54.4424525],[-2.6945495,54.4469059],[-2.693816,54.4527071],[-2.6852933,54.4601],[-2.6889833,54.4632326],[-2.6489048,54.4802821],[-2.6450067,54.4769976],[-2.6332159,54.4808391],[-2.6181437,54.4757217],[-2.6153211,54.480385],[-2.5579223,54.4838532],[-2.5526074,54.4874623],[-2.5446451,54.4767581],[-2.513247,54.4814284],[-2.5011788,54.479682],[-2.5012519,54.4633116],[-2.4886123,54.46744],[-2.4692904,54.466318],[-2.458844,54.4686855],[-2.4410754,54.4973079],[-2.4449568,54.504957],[-2.441066,54.5067352],[-2.4416964,54.5155087],[-2.4488464,54.512526],[-2.4619934,54.5131917],[-2.4641934,54.5187993],[-2.4818409,54.526386],[-2.485759,54.5254312],[-2.4943476,54.5325843],[-2.507194,54.523855],[-2.5336203,54.5177489],[-2.5410706,54.539589],[-2.5372502,54.544523],[-2.5385821,54.5610733],[-2.5471577,54.57241],[-2.5481668,54.5825794],[-2.5409323,54.5838781],[-2.5384194,54.5901943],[-2.5275077,54.5899695],[-2.5248329,54.5840211],[-2.519132,54.5845821],[-2.5094377,54.564052],[-2.5022534,54.5626192],[-2.4940234,54.565207],[-2.4906809,54.5610412],[-2.4845346,54.5618468],[-2.483594,54.5655622],[-2.4662131,54.5743862],[-2.4711012,54.5768127],[-2.4661107,54.5806183],[-2.4704448,54.5860448],[-2.4821423,54.5888772],[-2.476062,54.5920451],[-2.4711984,54.5909354],[-2.4704688,54.5945463],[-2.4836953,54.602781],[-2.4706272,54.6033258],[-2.463919,54.6001372],[-2.4489564,54.6055498],[-2.4304783,54.606262],[-2.4267591,54.6124222],[-2.3864747,54.6351543],[-2.3512065,54.6354797],[-2.3361373,54.6274321],[-2.3249951,54.6315909],[-2.287973,54.6504725],[-2.2928692,54.6638779],[-2.303391,54.6668165],[-2.3033111,54.6696222],[-2.3274058,54.6707154],[-2.327186,54.67369],[-2.3356551,54.6752867],[-2.3518882,54.6858477],[-2.3555125,54.6971322]]],"type":"Polygon"},"id":"E02004013","properties":{"code":"E02004013","geography":"MSOA","name":"Eden 006"},"type":"Feature"},{"geometry":{"coordinates":[[[-2.3249951,54.6315909],[-2.3361373,54.6274321],[-2.3512065,54.6354797],[-2.3864747,54.6351543],[-2.4267591,54.6124222],[-2.4304783,54.606262],[-2.4489564,54.6055498],[-2.463919,54.6001372],[-2.4706272,54.6033258],[-2.4836953,54.602781],[-2.4704688,54.5945463],[-2.4711984,54.5909354],[-2.476062,54.5920451],[-2.4821423,54.5888772],[-2.4704448,54.5860448],[-2.4661107,54.5806183],[-2.4711012,54.5768127],[-2.4662131,54.5743862],[-2.483594,54.5655622],[-2.4845346,54.5618468],[-2.4906809,54.5610412],[-2.4940234,54.565207],[-2.5022534,54.5626192],[-2.5094377,54.564052],[-2.519132,54.5845821],[-2.5248329,54.5840211],[-2.5275077,54.5899695],[-2.5384194,54.5901943],[-2.5409323,54.5838781],[-2.5481668,54.5825794],[-2.5471577,54.57241],[-2.5385821,54.5610733],[-2.5372502,54.544523],[-2.5410706,54.539589],[-2.5336203,54.5177489],[-2.507194,54.523855],[-2.4943476,54.5325843],[-2.485759,54.5254312],[-2.4818409,54.526386],[-2.4641934,54.5187993],[-2.4619934,54.5131917],[-2.4488464,54.512526],[-2.4416964,54.5155087],[-2.441066,54.5067352],[-2.4449568,54.504957],[-2.4410754,54.4973079],[-2.458844,54.4686855],[-2.4692904,54.466318],[-2.4886123,54.46744],[-2.5012519,54.4633116],[-2.5011788,54.479682],[-2.513247,54.4814284],[-2.5446451,54.4767581],[-2.5526074,54.4874623],[-2.5579223,54.4838532],[-2.6153211,54.480385],[-2.6181437,54.4757217],[-2.6332159,54.4808391],[-2.6450067,54.4769976],[-2.6489048,54.4802821],[-2.6889833,54.4632326],[-2.6852933,54.4601],[-2.693816,54.4527071],[-2.6945495,54.4469059],[-2.6879296,54.4434542],[-2.6909526,54.4291342],[-2.6868003,54.4266565],[-2.6663037,54.4215551],[-2.6604267,54.4142268],[-2.6446548,54.4102437],[-2.6402733,54.4043371],[-2.6148595,54.409379],[-2.603972,54.4069193],[-2.6017355,54.3989474],[-2.5834671,54.3876411],[-2.5752695,54.3919744],[-2.5523335,54.3869605],[-2.5382205,54.394216],[-2.5310852,54.3845575],[-2.5339871,54.3810748],[-2.5234582,54.3753477],[-2.5211544,54.3699213],[-2.513686,54.3679246],[-2.507358,54.372907],[-2.4836492,54.3773428],[-2.4627383,54.3683769],[-2.4530757,54.3744847],[-2.4437684,54.3760185],[-2.4208716,54.3658353],[-2.4062828,54.3702431],[-2.3823135,54.3713047],[-2.3677077,54.3560595],[-2.3607449,54.3549373],[-2.3446437,54.3596181],[-2.3260877,54.3680853],[-2.317038,54.3763003],[-2.2974359,54.3768884],[-2.2917792,54.3908943],[-2.305502,54.3971103],[-2.3081412,54.4197839],[-2.3033685,54.4262666],[-2.2918489,54.4314528],[-2.2928606,54.4392979],[-2.2713429,54.4409064],[-2.265374,54.4429165],[-2.2678979,54.4472237],[-2.2495542,54.4519307],[-2.2356122,54.4482213],[-2.1893097,54.4489684],[-2.1775024,54.4616164],[-2.1705725,54.4611318],[-2.1702068,54.458189],[-2.1590184,54.4719766],[-2.1665288,54.4899218],[-2.1624615,54.5039776],[-2.1686982,54.5196424],[-2.1744866,54.521718],[-2.1725235,54.532417],[-2.1824411,54.5357949],[-2.1975755,54.5326617],[-2.2101448,54.5436807],[-2.2094827,54.5517047],[-2.2459228,54.5651011],[-2.2708753,54.5821907],[-2.3044947,54.5962307],[-2.3086588,54.6117434],[-2.3249951,54.6315909]]],"type":"Polygon"},"id":"E02004014","properties":{"code":"E02004014","geography":"MSOA","name":"Eden 007"},"type":"Feature"},{"geometry":{"coordinates":[[[-2.9548098,54.2747441],[-2.9522674,54.2758239],[-2.947598,54.2918524],[-2.9503457,54.3065469],[-2.9360782,54.3328106],[-2.9351103,54.3374483],[-2.9391468,54.3388216],[-2.9272729,54.3534088],[-2.9386501,54.3571271],[-2.927874,54.3697074],[-2.9223386,54.3711823],[-2.9201856,54.3687974],[-2.9098289,54.37256],[-2.9036792,54.3797394],[-2.8918428,54.3752745],[-2.8730496,54.3778896],[-2.8700366,54.4054184],[-2.8744702,54.4189463],[-2.8824345,54.4255452],[-2.8690407,54.4314375],[-2.8671483,54.4361515],[-2.8775292,54.4811467],[-2.883662,54.4849488],[-2.906275,54.4813401],[-2.9213105,54.4649074],[-2.9314523,54.469865],[-2.9375498,54.468663],[-2.9553444,54.4845248],[-2.9663576,54.4822246],[-2.9801951,54.495843],[-2.9960098,54.4975427],[-3.0137504,54.4947035],[-3.0148324,54.499836],[-3.048301,54.4962708],[-3.0507987,54.4912578],[-3.0619825,54.4925152],[-3.0762114,54.489358],[-3.0882622,54.4839565],[-3.0977506,54.4718958],[-3.1094761,54.4739959],[-3.1157015,54.466575],[-3.1125701,54.461483],[-3.1194222,54.4602297],[-3.1322098,54.464536],[-3.1364409,54.4707382],[-3.145555,54.4684358],[-3.1538221,54.4601459],[-3.1671359,54.4541022],[-3.1662755,54.4477583],[-3.161113,54.4470289],[-3.1585883,54.4421693],[-3.1579413,54.4312978],[-3.1359745,54.4218755],[-3.128732,54.4215244],[-3.1239926,54.4274987],[-3.1149303,54.4219826],[-3.1152578,54.4150127],[-3.0756502,54.4194547],[-3.0537485,54.416539],[-3.0521568,54.4190163],[-3.0315974,54.4181935],[-3.0263309,54.4290107],[-3.0263627,54.4260985],[-3.0136588,54.4211619],[-2.9727067,54.4235318],[-2.9693966,54.4184014],[-2.9731166,54.4180659],[-2.9741614,54.4125302],[-2.9817974,54.4104593],[-2.97204,54.4084384],[-2.9645545,54.4075636],[-2.959589,54.4006502],[-2.9628015,54.3954833],[-2.9444367,54.3835186],[-2.9426444,54.3547589],[-2.9381166,54.3528271],[-2.9494938,54.3387785],[-2.945485,54.3292438],[-2.953568,54.3251622],[-2.9606043,54.3105802],[-2.9548098,54.2747441]]],"type":"Polygon"},"id":"E02004015","properties":{"code":"E02004015","geography":"MSOA","name":"South Lakeland 001"},"type":"Feature"},{"geometry":{"coordinates":[[[-2.8351877,54.4763476],[-2.853008,54.4785303],[-2.8544776,54.4833441],[-2.865457,54.4900158],[-2.8775292,54.4811467],[-2.8671483,54.4361515],[-2.8690407,54.4314375],[-2.8824345,54.4255452],[-2.8744702,54.4189463],[-2.8700366,54.4054184],[-2.8730496,54.3778896],[-2.8918428,54.3752745],[-2.9036792,54.3797394],[-2.9098289,54.37256],[-2.9201856,54.3687974],[-2.9223386,54.3711823],[-2.927874,54.3697074],[-2.9386501,54.3571271],[-2.9272729,54.3534088],[-2.9391468,54.3388216],[-2.9351103,54.3374483],[-2.9360782,54.3328106],[-2.9304084,54.3301924],[-2.9236946,54.3376424],[-2.9166311,54.3384471],[-2.9136509,54.3355512],[-2.9025096,54.3375862],[-2.9035175,54.3190914],[-2.8736076,54.3313935],[-2.8719414,54.326706],[-2.8525017,54.3317197],[-2.8502171,54.327131],[-2.8244829,54.3475608],[-2.805985,54.3470072],[-2.8089532,54.3547148],[-2.7878349,54.3692568],[-2.7938029,54.374479],[-2.787382,54.3749676],[-2.7885844,54.3799531],[-2.800124,54.3922294],[-2.7847255,54.3981462],[-2.7828355,54.4021794],[-2.800172,54.4063159],[-2.8084118,54.4380429],[-2.8142844,54.4414554],[-2.8137656,54.4548559],[-2.836279,54.4697021],[-2.8351877,54.4763476]]],"type":"Polygon"},"id":"E02004016","properties":{"code":"E02004016","geography":"MSOA","name":"South Lakeland 002"},"type":"Feature"},{"geometry":{"coordinates":[[[-2.7439336,54.3243217],[-2.7383946,54.3241417],[-2.7362224,54.3303391],[-2.731449,54.3282177],[-2.7219232,54.3329781],[-2.7065398,54.3298286],[-2.7080949,54.3368295],[-2.7211628,54.3374152],[-2.7240631,54.3436869],[-2.7329518,54.3439013],[-2.7303476,54.3472829],[-2.7386151,54.3514946],[-2.7437054,54.3454931],[-2.7571445,54.3500252],[-2.7393667,54.3649117],[-2.7345681,54.386214],[-2.7387414,54.3907844],[-2.7464108,54.3917989],[-2.7502579,54.3890168],[-2.7847255,54.3981462],[-2.800124,54.3922294],[-2.7885844,54.3799531],[-2.787382,54.3749676],[-2.7938029,54.374479],[-2.7878349,54.3692568],[-2.8089532,54.3547148],[-2.805985,54.3470072],[-2.8244829,54.3475608],[-2.8502171,54.327131],[-2.8435572,54.3107996],[-2.8337655,54.3092993],[-2.8237215,54.2990285],[-2.8101215,54.2986593],[-2.8082671,54.3031818],[-2.7915157,54.3018288],[-2.7896917,54.314915],[-2.7708267,54.3124054],[-2.7667116,54.3184681],[-2.7690693,54.3214535],[-2.7632833,54.3273958],[-2.7680299,54.3329953],[-2.7607305,54.3347313],[-2.7654583,54.3371047],[-2.7590452,54.344391],[-2.7530208,54.3405029],[-2.7555173,54.3384085],[-2.7488122,54.3370104],[-2.7550761,54.3333597],[-2.7411653,54.3294848],[-2.7439336,54.3243217]]],"type":"Polygon"},"id":"E02004017","properties":{"code":"E02004017","geography":"MSOA","name":"South Lakeland 003"},"type":"Feature"},{"geometry":{"coordinates":[[[-2.7439336,54.3243217],[-2.7411653,54.3294848],[-2.7550761,54.3333597],[-2.7488122,54.3370104],[-2.7555173,54.3384085],[-2.7530208,54.3405029],[-2.7590452,54.344391],[-2.7654583,54.3371047],[-2.7607305,54.3347313],[-2.7680299,54.3329953],[-2.7632833,54.3273958],[-2.7690693,54.3214535],[-2.7667116,54.3184681],[-2.7657717,54.3173196],[-2.7603571,54.3214024],[-2.7527055,54.3185161],[-2.7438283,54.3187484],[-2.7444938,54.3206163],[-2.7439336,54.3243217]]],"type":"Polygon"},"id":"E02004018","properties":{"code":"E02004018","geography":"MSOA","name":"South Lakeland 004"},"type":"Feature"},{"geometry":{"coordinates":[[[-2.6945495,54.4469059],[-2.6991613,54.4424525],[-2.6950142,54.4356694],[-2.7035195,54.4320694],[-2.7370717,54.4468223],[-2.7476118,54.4470711],[-2.77162,54.4632203],[-2.7769883,54.459864],[-2.7891731,54.4649735],[-2.7962378,54.4699204],[-2.7954171,54.4752597],[-2.8068735,54.4820519],[-2.8155296,54.474715],[-2.8276098,54.4799227],[-2.8351877,54.4763476],[-2.836279,54.4697021],[-2.8137656,54.4548559],[-2.8142844,54.4414554],[-2.8084118,54.4380429],[-2.800172,54.4063159],[-2.7828355,54.4021794],[-2.7847255,54.3981462],[-2.7502579,54.3890168],[-2.7464108,54.3917989],[-2.7387414,54.3907844],[-2.7345681,54.386214],[-2.7393667,54.3649117],[-2.7571445,54.3500252],[-2.7437054,54.3454931],[-2.7386151,54.3514946],[-2.7303476,54.3472829],[-2.7329518,54.3439013],[-2.7240631,54.3436869],[-2.7211628,54.3374152],[-2.7080949,54.3368295],[-2.7065398,54.3298286],[-2.7219232,54.3329781],[-2.731449,54.3282177],[-2.7362224,54.3303391],[-2.7383946,54.3241417],[-2.7439336,54.3243217],[-2.7444938,54.3206163],[-2.7396079,54.3199229],[-2.7353414,54.3121551],[-2.7312487,54.3150363],[-2.7234302,54.3138646],[-2.7219494,54.3047767],[-2.7185441,54.319273],[-2.7088538,54.3171122],[-2.7194615,54.3050852],[-2.7137194,54.3030747],[-2.7011163,54.3002754],[-2.7069635,54.2886615],[-2.6940243,54.2830777],[-2.6985436,54.275485],[-2.6957819,54.2713469],[-2.6778819,54.2725534],[-2.6646872,54.2682267],[-2.6582649,54.2719971],[-2.6474891,54.272923],[-2.6471752,54.2704934],[-2.6466644,54.272537],[-2.6371546,54.2682659],[-2.6343764,54.2715466],[-2.6143137,54.2715831],[-2.5918408,54.2757542],[-2.5857994,54.2738335],[-2.5858329,54.2816082],[-2.5782378,54.2877482],[-2.580514,54.2914131],[-2.571574,54.2972905],[-2.5718062,54.3002912],[-2.5839147,54.3043915],[-2.5837965,54.308217],[-2.5675147,54.3254405],[-2.5754041,54.3465919],[-2.5727956,54.3508418],[-2.5884297,54.3588784],[-2.5800028,54.3637543],[-2.5808567,54.3742322],[-2.5762299,54.3791128],[-2.5834671,54.3876411],[-2.6017355,54.3989474],[-2.603972,54.4069193],[-2.6148595,54.409379],[-2.6402733,54.4043371],[-2.6446548,54.4102437],[-2.6604267,54.4142268],[-2.6663037,54.4215551],[-2.6868003,54.4266565],[-2.6909526,54.4291342],[-2.6879296,54.4434542],[-2.6945495,54.4469059]]],"type":"Polygon"},"id":"E02004019","properties":{"code":"E02004019","geography":"MSOA","name":"South Lakeland 005"},"type":"Feature"},{"geometry":{"coordinates":[[[-2.7444938,54.3206163],[-2.7438283,54.3187484],[-2.7527055,54.3185161],[-2.7603571,54.3214024],[-2.7657717,54.3173196],[-2.7576549,54.3159679],[-2.7609305,54.3088042],[-2.750413,54.308621],[-2.7486131,54.3117589],[-2.7449069,54.3086795],[-2.7430012,54.3113325],[-2.7364557,54.3106716],[-2.7294396,54.2962041],[-2.7137194,54.3030747],[-2.7194615,54.3050852],[-2.7088538,54.3171122],[-2.7185441,54.319273],[-2.7219494,54.3047767],[-2.7234302,54.3138646],[-2.7312487,54.3150363],[-2.7353414,54.3121551],[-2.7396079,54.3199229],[-2.7444938,54.3206163]]],"type":"Polygon"},"id":"E02004020","properties":{"code":"E02004020","geography":"MSOA","name":"South Lakeland 006"},"type":"Feature"},{"geometry":{"coordinates":[[[[-2.8011742,54.2211055],[-2.7926242,54.2261351],[-2.8045781,54.2202182],[-2.8011742,54.2211055]]],[[[-2.7970954,54.2415964],[-2.7996535,54.2438761],[-2.7980842,54.2407271],[-2.7970954,54.2415964]]],[[[-2.9548098,54.2747441],[-2.9606043,54.3105802],[-2.953568,54.3251622],[-2.945485,54.3292438],[-2.9494938,54.3387785],[-2.9381166,54.3528271],[-2.9426444,54.3547589],[-2.9444367,54.3835186],[-2.9628015,54.3954833],[-2.959589,54.4006502],[-2.9645545,54.4075636],[-2.97204,54.4084384],[-2.968087,54.4053379],[-2.9736686,54.4025249],[-3.0048748,54.4028102],[-3.0086309,54.4066218],[-3.0294644,54.4033554],[-3.0354134,54.3881164],[-3.0334101,54.3789088],[-3.0298579,54.3786768],[-3.0362708,54.3668931],[-3.0326745,54.3652646],[-3.042548,54.346035],[-3.0480035,54.3405695],[-3.0581135,54.3441607],[-3.0575668,54.3489874],[-3.0691014,54.3474036],[-3.0734832,54.3396107],[-3.0532134,54.3278416],[-3.0576694,54.3151848],[-3.040357,54.3098251],[-3.0290242,54.2964125],[-3.0318031,54.2856024],[-3.0402755,54.2799713],[-3.0395614,54.2719112],[-3.0497407,54.2627176],[-3.0377911,54.2588493],[-3.0442132,54.2518966],[-3.0412961,54.2477765],[-3.0479424,54.24403],[-3.0484161,54.2417125],[-3.0480539,54.2422805],[-3.037524,54.2398955],[-3.0356767,54.2443118],[-3.0285733,54.2463599],[-3.0273163,54.2415343],[-3.0293589,54.2401653],[-3.02899,54.2415775],[-3.0332511,54.2437817],[-3.0339737,54.2396645],[-3.0487649,54.2332246],[-3.0463184,54.2267576],[-3.0336155,54.2292616],[-3.0285588,54.2204222],[-3.027627,54.2192788],[-3.0231898,54.2193903],[-3.0231575,54.2191392],[-3.0229617,54.2176204],[-3.0161047,54.2197549],[-3.0083144,54.228056],[-2.9951003,54.2221842],[-2.9913063,54.2288532],[-2.9850469,54.2297943],[-2.960206,54.2258352],[-2.9615882,54.2209001],[-2.9493168,54.2119906],[-2.9508678,54.2053527],[-2.934616,54.2059428],[-2.9333952,54.2017783],[-2.9306072,54.2043829],[-2.9193173,54.201208],[-2.9132609,54.2042448],[-2.9109734,54.2147013],[-2.9032201,54.2148706],[-2.8972013,54.2106995],[-2.8875723,54.2133718],[-2.878462,54.2020044],[-2.8784677,54.2014944],[-2.8715797,54.2040183],[-2.8700621,54.2017643],[-2.8674104,54.2047845],[-2.8685558,54.2020862],[-2.8424739,54.2055079],[-2.8414681,54.2071651],[-2.8371114,54.2128218],[-2.8321966,54.219201],[-2.8047228,54.2245439],[-2.8029026,54.2250485],[-2.7943815,54.2274103],[-2.8011525,54.2305876],[-2.8011629,54.2311784],[-2.8013965,54.2443684],[-2.8096456,54.2426838],[-2.8147252,54.244732],[-2.8143985,54.2495686],[-2.8065267,54.2512702],[-2.8064756,54.2512424],[-2.8058361,54.251385],[-2.8150223,54.2558205],[-2.8142535,54.2624525],[-2.8086696,54.2653498],[-2.8168745,54.2737374],[-2.8151992,54.2795716],[-2.8202942,54.2838547],[-2.8168899,54.2872481],[-2.8237215,54.2990285],[-2.8337655,54.3092993],[-2.8435572,54.3107996],[-2.8502171,54.327131],[-2.8525017,54.3317197],[-2.8719414,54.326706],[-2.8736076,54.3313935],[-2.9035175,54.3190914],[-2.9025096,54.3375862],[-2.9136509,54.3355512],[-2.9166311,54.3384471],[-2.9236946,54.3376424],[-2.9304084,54.3301924],[-2.9360782,54.3328106],[-2.9503457,54.3065469],[-2.947598,54.2918524],[-2.9522674,54.2758239],[-2.9548098,54.2747441]]]],"type":"MultiPolygon"},"id":"E02004021","properties":{"code":"E02004021","geography":"MSOA","name":"South Lakeland 007"},"type":"Feature"},{"geometry":{"coordinates":[[[[-3.0209253,54.2010581],[-3.022893,54.2010541],[-3.0238543,54.1994421],[-3.0209253,54.2010581]]],[[[-3.0181962,54.2025636],[-3.0181549,54.2027411],[-3.0184982,54.202397],[-3.0181962,54.2025636]]],[[[-3.0224898,54.2139575],[-3.0222278,54.2119243],[-3.0215034,54.2113995],[-3.0189655,54.2095609],[-3.0224898,54.2139575]]],[[[-3.2252153,54.2734047],[-3.2273871,54.2684534],[-3.2269113,54.267896],[-3.2252153,54.2734047]]],[[[-3.0263627,54.4260985],[-3.0263309,54.4290107],[-3.0315974,54.4181935],[-3.0521568,54.4190163],[-3.0537485,54.416539],[-3.0756502,54.4194547],[-3.1152578,54.4150127],[-3.1593222,54.40716],[-3.1704218,54.39994],[-3.1725955,54.3889821],[-3.1815257,54.3848441],[-3.1809621,54.375354],[-3.189134,54.3682671],[-3.1945972,54.3543434],[-3.207083,54.3529499],[-3.2185629,54.3449882],[-3.2184052,54.3360174],[-3.2418687,54.3235176],[-3.2395053,54.3172019],[-3.2309211,54.3146718],[-3.2381651,54.294009],[-3.225539,54.2772493],[-3.2237591,54.2769211],[-3.2242744,54.274838],[-3.2261978,54.2670602],[-3.2242817,54.2648154],[-3.2276895,54.261026],[-3.2277088,54.2609481],[-3.2278378,54.2604263],[-3.2283947,54.2601807],[-3.2284857,54.2601406],[-3.2287446,54.2598527],[-3.2286945,54.2598453],[-3.2163925,54.2580222],[-3.2118949,54.2518074],[-3.2126861,54.2475401],[-3.2000487,54.2376981],[-3.1975642,54.2287897],[-3.1891926,54.2335804],[-3.198882,54.2199505],[-3.2049272,54.217556],[-3.201817,54.2111049],[-3.204987,54.2149732],[-3.2055139,54.2143088],[-3.200579,54.2082392],[-3.1827442,54.2035813],[-3.1676361,54.203183],[-3.1476977,54.2183976],[-3.1496749,54.2072846],[-3.1637395,54.1923885],[-3.1583337,54.1925016],[-3.1445571,54.1709024],[-3.1227535,54.1730957],[-3.1270634,54.1795476],[-3.1196922,54.1826577],[-3.1218275,54.1877314],[-3.1152168,54.1900892],[-3.1182218,54.196191],[-3.1024796,54.1972925],[-3.1037263,54.2093192],[-3.096068,54.2088033],[-3.0924117,54.2043777],[-3.0875072,54.2082248],[-3.0772714,54.209008],[-3.0693542,54.2033443],[-3.0714126,54.1995213],[-3.0656026,54.2002427],[-3.0547624,54.1940716],[-3.0531357,54.1988791],[-3.0496747,54.1990884],[-3.0492682,54.1996058],[-3.0453853,54.1993475],[-3.0446916,54.1993895],[-3.0387759,54.2101433],[-3.0347467,54.2112863],[-3.0342601,54.2114243],[-3.0343728,54.2112895],[-3.0390269,54.2057218],[-3.0324195,54.2113064],[-3.0355671,54.2156122],[-3.0531195,54.2208365],[-3.0518745,54.2303902],[-3.0515306,54.2330288],[-3.051818,54.234192],[-3.0521856,54.2357985],[-3.0484161,54.2417125],[-3.0479424,54.24403],[-3.0412961,54.2477765],[-3.0442132,54.2518966],[-3.0377911,54.2588493],[-3.0497407,54.2627176],[-3.0395614,54.2719112],[-3.0402755,54.2799713],[-3.0318031,54.2856024],[-3.0290242,54.2964125],[-3.040357,54.3098251],[-3.0576694,54.3151848],[-3.0532134,54.3278416],[-3.0734832,54.3396107],[-3.0691014,54.3474036],[-3.0575668,54.3489874],[-3.0581135,54.3441607],[-3.0480035,54.3405695],[-3.042548,54.346035],[-3.0326745,54.3652646],[-3.0362708,54.3668931],[-3.0298579,54.3786768],[-3.0334101,54.3789088],[-3.0354134,54.3881164],[-3.0294644,54.4033554],[-3.0086309,54.4066218],[-3.0048748,54.4028102],[-2.9736686,54.4025249],[-2.968087,54.4053379],[-2.97204,54.4084384],[-2.9817974,54.4104593],[-2.9741614,54.4125302],[-2.9731166,54.4180659],[-2.9693966,54.4184014],[-2.9727067,54.4235318],[-3.0136588,54.4211619],[-3.0263627,54.4260985]]]],"type":"MultiPolygon"},"id":"E02004022","properties":{"code":"E02004022","geography":"MSOA","name":"South Lakeland 008"},"type":"Feature"},{"geometry":{"coordinates":[[[-2.3677077,54.3560595],[-2.3823135,54.3713047],[-2.4062828,54.3702431],[-2.4208716,54.3658353],[-2.4437684,54.3760185],[-2.4530757,54.3744847],[-2.4627383,54.3683769],[-2.4836492,54.3773428],[-2.507358,54.372907],[-2.513686,54.3679246],[-2.5211544,54.3699213],[-2.5234582,54.3753477],[-2.5339871,54.3810748],[-2.5310852,54.3845575],[-2.5382205,54.394216],[-2.5523335,54.3869605],[-2.5752695,54.3919744],[-2.5834671,54.3876411],[-2.5762299,54.3791128],[-2.5808567,54.3742322],[-2.5800028,54.3637543],[-2.5884297,54.3588784],[-2.5727956,54.3508418],[-2.5754041,54.3465919],[-2.5675147,54.3254405],[-2.5837965,54.308217],[-2.5839147,54.3043915],[-2.5718062,54.3002912],[-2.571574,54.2972905],[-2.580514,54.2914131],[-2.5782378,54.2877482],[-2.5858329,54.2816082],[-2.5857994,54.2738335],[-2.5835037,54.2685134],[-2.5899247,54.2660258],[-2.5896403,54.2580345],[-2.5978404,54.2522018],[-2.5892991,54.2477995],[-2.5929523,54.2454792],[-2.5968838,54.2476094],[-2.5942936,54.2388668],[-2.6026229,54.2318806],[-2.601872,54.2233994],[-2.613386,54.2367281],[-2.6247355,54.2348462],[-2.6295048,54.2391219],[-2.6359675,54.2372578],[-2.6432847,54.2160619],[-2.6493168,54.213981],[-2.6398328,54.2019776],[-2.6249564,54.1955582],[-2.5760763,54.1955843],[-2.550749,54.2002819],[-2.5200673,54.2164356],[-2.4996,54.2195443],[-2.4595818,54.2395576],[-2.4608591,54.226705],[-2.4414149,54.2257282],[-2.4354151,54.2228663],[-2.411967,54.2266757],[-2.4056282,54.224904],[-2.3967759,54.23937],[-2.3730169,54.2400876],[-2.3723215,54.2482225],[-2.3623134,54.2497413],[-2.3480486,54.237795],[-2.3376536,54.2375873],[-2.3256431,54.2414266],[-2.3190927,54.257144],[-2.3155104,54.2702733],[-2.3258872,54.2796843],[-2.3171882,54.287154],[-2.324168,54.2935934],[-2.3203862,54.2990331],[-2.3245185,54.3031722],[-2.3203973,54.3067593],[-2.3230284,54.3110715],[-2.3149734,54.313575],[-2.3098375,54.3243039],[-2.320198,54.3317398],[-2.3347449,54.3349335],[-2.3357634,54.3404238],[-2.3677077,54.3560595]]],"type":"Polygon"},"id":"E02004023","properties":{"code":"E02004023","geography":"MSOA","name":"South Lakeland 009"},"type":"Feature"},{"geometry":{"coordinates":[[[-2.7657717,54.3173196],[-2.7667116,54.3184681],[-2.7708267,54.3124054],[-2.7896917,54.314915],[-2.7915157,54.3018288],[-2.8082671,54.3031818],[-2.8101215,54.2986593],[-2.8237215,54.2990285],[-2.8168899,54.2872481],[-2.8202942,54.2838547],[-2.8151992,54.2795716],[-2.8168745,54.2737374],[-2.8086696,54.2653498],[-2.8142535,54.2624525],[-2.8150223,54.2558205],[-2.8058361,54.251385],[-2.8064756,54.2512424],[-2.8042645,54.2500411],[-2.8006703,54.2508812],[-2.8024045,54.2494154],[-2.812804,54.2498076],[-2.8130844,54.2449435],[-2.8008057,54.2461878],[-2.7996535,54.2438761],[-2.7970954,54.2415964],[-2.7980842,54.2407271],[-2.7946475,54.2338293],[-2.7895267,54.2314385],[-2.7893402,54.2313514],[-2.7694646,54.236733],[-2.7658391,54.2336826],[-2.755278,54.2402337],[-2.749132,54.2371525],[-2.7487823,54.229198],[-2.7402346,54.2319263],[-2.7395157,54.2257393],[-2.7298537,54.2339508],[-2.6910482,54.2264043],[-2.6879277,54.2215583],[-2.6971667,54.2133849],[-2.6918836,54.1994883],[-2.6948348,54.1973046],[-2.7162723,54.2005128],[-2.7123236,54.1969442],[-2.7235909,54.1961869],[-2.7308209,54.1903666],[-2.725771,54.1884465],[-2.7259934,54.183292],[-2.7175859,54.1804788],[-2.7302799,54.1812397],[-2.7365142,54.1767967],[-2.7364889,54.168971],[-2.7087884,54.1638503],[-2.6879644,54.1646362],[-2.6781797,54.1614966],[-2.6726409,54.1747361],[-2.6477412,54.1872715],[-2.6398328,54.2019776],[-2.6493168,54.213981],[-2.6432847,54.2160619],[-2.6359675,54.2372578],[-2.6295048,54.2391219],[-2.6247355,54.2348462],[-2.613386,54.2367281],[-2.601872,54.2233994],[-2.6026229,54.2318806],[-2.5942936,54.2388668],[-2.5968838,54.2476094],[-2.5929523,54.2454792],[-2.5892991,54.2477995],[-2.5978404,54.2522018],[-2.5896403,54.2580345],[-2.5899247,54.2660258],[-2.5835037,54.2685134],[-2.5857994,54.2738335],[-2.5918408,54.2757542],[-2.6143137,54.2715831],[-2.6343764,54.2715466],[-2.6371546,54.2682659],[-2.6466644,54.272537],[-2.6471752,54.2704934],[-2.6474891,54.272923],[-2.6582649,54.2719971],[-2.6646872,54.2682267],[-2.6778819,54.2725534],[-2.6957819,54.2713469],[-2.6985436,54.275485],[-2.6940243,54.2830777],[-2.7069635,54.2886615],[-2.7011163,54.3002754],[-2.7137194,54.3030747],[-2.7294396,54.2962041],[-2.7364557,54.3106716],[-2.7430012,54.3113325],[-2.7449069,54.3086795],[-2.7486131,54.3117589],[-2.750413,54.308621],[-2.7609305,54.3088042],[-2.7576549,54.3159679],[-2.7657717,54.3173196]]],"type":"Polygon"},"id":"E02004024","properties":{"code":"E02004024","geography":"MSOA","name":"South Lakeland 010"},"type":"Feature"},{"geometry":{"coordinates":[[[-2.7365142,54.1767967],[-2.7302799,54.1812397],[-2.7175859,54.1804788],[-2.7259934,54.183292],[-2.725771,54.1884465],[-2.7308209,54.1903666],[-2.7235909,54.1961869],[-2.7123236,54.1969442],[-2.7162723,54.2005128],[-2.6948348,54.1973046],[-2.6918836,54.1994883],[-2.6971667,54.2133849],[-2.6879277,54.2215583],[-2.6910482,54.2264043],[-2.7298537,54.2339508],[-2.7395157,54.2257393],[-2.7402346,54.2319263],[-2.7487823,54.229198],[-2.749132,54.2371525],[-2.755278,54.2402337],[-2.7658391,54.2336826],[-2.7694646,54.236733],[-2.7893402,54.2313514],[-2.7892792,54.2313229],[-2.7858142,54.2264303],[-2.7908869,54.2269947],[-2.7926242,54.2261351],[-2.8011742,54.2211055],[-2.8045781,54.2202182],[-2.8071192,54.2189601],[-2.8076456,54.2186995],[-2.816153,54.2129656],[-2.8214657,54.2093838],[-2.8208745,54.2091212],[-2.818423,54.2080321],[-2.8228665,54.2061611],[-2.8231737,54.206028],[-2.8266074,54.2045422],[-2.8354032,54.2052139],[-2.8362152,54.2015404],[-2.853453,54.1927302],[-2.8641346,54.1920213],[-2.8647282,54.183751],[-2.8574335,54.1789759],[-2.8656086,54.1806395],[-2.8694773,54.1766579],[-2.8372178,54.1741623],[-2.8159713,54.1818903],[-2.816334,54.1897995],[-2.7989825,54.1977309],[-2.7682327,54.1859539],[-2.7493019,54.1889447],[-2.7343876,54.1841004],[-2.7365142,54.1767967]]],"type":"Polygon"},"id":"E02004025","properties":{"code":"E02004025","geography":"MSOA","name":"South Lakeland 011"},"type":"Feature"},{"geometry":{"coordinates":[[[-3.0547624,54.1940716],[-3.0656026,54.2002427],[-3.0714126,54.1995213],[-3.0693542,54.2033443],[-3.0772714,54.209008],[-3.0875072,54.2082248],[-3.0924117,54.2043777],[-3.096068,54.2088033],[-3.1037263,54.2093192],[-3.1024796,54.1972925],[-3.0963156,54.1960481],[-3.0972218,54.1817948],[-3.0867329,54.1844894],[-3.0700376,54.171224],[-3.0591107,54.1731344],[-3.0611743,54.179443],[-3.0612446,54.1795871],[-3.061622,54.1808113],[-3.0558692,54.1871674],[-3.059741,54.1893507],[-3.0533018,54.1884734],[-3.0549505,54.1935155],[-3.0547822,54.1940132],[-3.0547624,54.1940716]]],"type":"Polygon"},"id":"E02004026","properties":{"code":"E02004026","geography":"MSOA","name":"South Lakeland 012"},"type":"Feature"},{"geometry":{"coordinates":[[[[-2.9870033,54.1483318],[-2.9954467,54.1493445],[-2.9990763,54.1526884],[-3.0006445,54.1523815],[-3.0020386,54.1502551],[-2.9944487,54.1478203],[-3.0029682,54.1500136],[-3.0066508,54.1427054],[-2.999906,54.139402],[-3.0093269,54.1405097],[-3.0164661,54.1325646],[-3.0004468,54.1323123],[-2.9783435,54.1399468],[-2.9723414,54.1454969],[-2.9870033,54.1483318]]],[[[-3.0453853,54.1993475],[-3.0492682,54.1996058],[-3.0496747,54.1990884],[-3.0453853,54.1993475]]],[[[-2.960206,54.2258352],[-2.9850469,54.2297943],[-2.9913063,54.2288532],[-2.9951003,54.2221842],[-3.0083144,54.228056],[-3.0161047,54.2197549],[-3.0229617,54.2176204],[-3.0224898,54.2139575],[-3.0189655,54.2095609],[-3.0145456,54.2063584],[-3.0181549,54.2027411],[-3.0181962,54.2025636],[-3.0184982,54.202397],[-3.0198318,54.2010602],[-3.0209253,54.2010581],[-3.0238543,54.1994421],[-3.0254128,54.1968283],[-3.0347577,54.1964913],[-3.0387605,54.1971848],[-3.0292486,54.1937702],[-3.0277436,54.1900666],[-3.0246057,54.1917777],[-3.0269909,54.189629],[-3.0221323,54.1857651],[-3.0201794,54.1895997],[-3.0210569,54.185279],[-3.012658,54.1797128],[-3.0098259,54.1827628],[-3.0102923,54.1769438],[-3.0050673,54.1802698],[-3.0096947,54.1768166],[-3.0065259,54.1722603],[-3.0015345,54.1722399],[-3.0035353,54.1757914],[-3.0009275,54.1721002],[-3.0002195,54.1743728],[-2.9961548,54.1732813],[-2.9993003,54.1754545],[-2.996065,54.1759145],[-2.994121,54.173039],[-2.9929711,54.1702607],[-2.9973077,54.1731216],[-2.9971145,54.1667482],[-3.0003616,54.1683921],[-3.0043038,54.1662822],[-3.0052938,54.1562596],[-3.0001893,54.1538242],[-2.9966784,54.1557444],[-2.9995324,54.1532517],[-2.9967266,54.1519529],[-2.9958215,54.1499687],[-2.9683824,54.1460159],[-2.9654256,54.1502322],[-2.9392824,54.1565771],[-2.9481231,54.1576627],[-2.9445956,54.1593314],[-2.9437751,54.1580474],[-2.9356184,54.1581596],[-2.9318627,54.1513822],[-2.9352366,54.1669643],[-2.9293462,54.1675375],[-2.9207391,54.1776717],[-2.9076104,54.1931188],[-2.8892177,54.1988068],[-2.8873666,54.1945415],[-2.8871772,54.1993656],[-2.885903,54.197555],[-2.8796688,54.200859],[-2.8784677,54.2014944],[-2.878462,54.2020044],[-2.8875723,54.2133718],[-2.8972013,54.2106995],[-2.9032201,54.2148706],[-2.9109734,54.2147013],[-2.9132609,54.2042448],[-2.9193173,54.201208],[-2.9306072,54.2043829],[-2.9333952,54.2017783],[-2.934616,54.2059428],[-2.9508678,54.2053527],[-2.9493168,54.2119906],[-2.9615882,54.2209001],[-2.960206,54.2258352]]]],"type":"MultiPolygon"},"id":"E02004027","properties":{"code":"E02004027","geography":"MSOA","name":"South Lakeland 013"},"type":"Feature"},{"geometry":{"coordinates":[[[-3.0591107,54.1731344],[-3.0700376,54.171224],[-3.0867329,54.1844894],[-3.0972218,54.1817948],[-3.0963156,54.1960481],[-3.1024796,54.1972925],[-3.1182218,54.196191],[-3.1152168,54.1900892],[-3.1218275,54.1877314],[-3.1196922,54.1826577],[-3.1270634,54.1795476],[-3.1227535,54.1730957],[-3.1445571,54.1709024],[-3.1425992,54.1652509],[-3.1469623,54.1652657],[-3.1494678,54.1597547],[-3.1602072,54.1588722],[-3.1646985,54.1544927],[-3.1609643,54.1340482],[-3.1634352,54.1219534],[-3.1749692,54.1148054],[-3.1468439,54.1012154],[-3.1426579,54.097381],[-3.1495715,54.0938947],[-3.1491107,54.0935197],[-3.142753,54.0973016],[-3.1425964,54.0973947],[-3.1046507,54.1199952],[-3.1006292,54.1279927],[-3.0876358,54.1362432],[-3.0779758,54.1539662],[-3.0608564,54.161989],[-3.0591016,54.1731067],[-3.0591107,54.1731344]]],"type":"Polygon"},"id":"E02004028","properties":{"code":"E02004028","geography":"MSOA","name":"South Lakeland 014"},"type":"Feature"}],"type":"FeatureCollection"}
