{"features":[{"geometry":{"coordinates":[[[[-1.282966,50.7554286],[-1.2898138,50.7570449],[-1.2904755,50.7543646],[-1.2904362,50.7542316],[-1.2896091,50.7514361],[-1.282966,50.7554286]]],[[[-1.2998596,50.766838],[-1.3000347,50.7669677],[-1.3007504,50.7669907],[-1.3203524,50.7651758],[-1.3207426,50.7648121],[-1.3168869,50.760981],[-1.3053626,50.7654298],[-1.3047324,50.756198],[-1.2977568,50.7570691],[-1.3035066,50.7511144],[-1.2936976,50.7501335],[-1.2938694,50.7505965],[-1.2938401,50.7507262],[-1.2925493,50.7564556],[-1.2921983,50.7580135],[-1.292754,50.758358],[-1.2954448,50.760026],[-1.2998596,50.766838]]]],"type":"MultiPolygon"},"id":"E02003581","properties":{"code":"E02003581","geography":"MSOA","name":"Isle of Wight 001"},"type":"Feature"},{"geometry":{"coordinates":[[[-1.2936976,50.7501335],[-1.3035066,50.7511144],[-1.2977568,50.7570691],[-1.3047324,50.756198],[-1.3053626,50.7654298],[-1.3168869,50.760981],[-1.3207426,50.7648121],[-1.3280889,50.7579631],[-1.3425434,50.7526516],[-1.3459726,50.746635],[-1.3460279,50.7465784],[-1.3399095,50.7437193],[-1.3381691,50.7344201],[-1.3317018,50.7282511],[-1.3232601,50.7267335],[-1.3178942,50.7301505],[-1.3143074,50.7278346],[-1.3060765,50.7286482],[-1.3065129,50.7316275],[-1.2874677,50.7338732],[-1.2877712,50.7341503],[-1.2936976,50.7501335]]],"type":"Polygon"},"id":"E02003582","properties":{"code":"E02003582","geography":"MSOA","name":"Isle of Wight 002"},"type":"Feature"},{"geometry":{"coordinates":[[[[-1.2829314,50.7297313],[-1.2831546,50.7299351],[-1.2831098,50.7292675],[-1.2829314,50.7297313]]],[[[-1.2544876,50.7245466],[-1.2505017,50.7338152],[-1.2382905,50.7428925],[-1.23855,50.7437115],[-1.2386114,50.7437256],[-1.2392396,50.7438691],[-1.2447824,50.7490219],[-1.2454762,50.7496668],[-1.2551512,50.7545698],[-1.2566211,50.7550741],[-1.2568408,50.755334],[-1.2571633,50.7557156],[-1.2679172,50.7629166],[-1.2756672,50.7657089],[-1.2803453,50.7654108],[-1.2883494,50.7629753],[-1.2898138,50.7570449],[-1.282966,50.7554286],[-1.2896091,50.7514361],[-1.2865924,50.7412369],[-1.2863928,50.7405619],[-1.275885,50.7319483],[-1.2756448,50.7317355],[-1.2760781,50.7313668],[-1.280666,50.7238602],[-1.2706082,50.7207242],[-1.2544876,50.7245466]]]],"type":"MultiPolygon"},"id":"E02003583","properties":{"code":"E02003583","geography":"MSOA","name":"Isle of Wight 003"},"type":"Feature"},{"geometry":{"coordinates":[[[-1.1448092,50.7293174],[-1.1449109,50.7293431],[-1.150384,50.7307246],[-1.1512195,50.7309355],[-1.15572,50.7320711],[-1.1601869,50.7331981],[-1.1618363,50.7332207],[-1.1651953,50.7332666],[-1.1652131,50.7314206],[-1.1720261,50.7265656],[-1.1630513,50.7260041],[-1.1564943,50.7265482],[-1.1524003,50.7220563],[-1.1455834,50.7233025],[-1.1448092,50.7293174]]],"type":"Polygon"},"id":"E02003584","properties":{"code":"E02003584","geography":"MSOA","name":"Isle of Wight 004"},"type":"Feature"},{"geometry":{"coordinates":[[[-1.1825156,50.7335023],[-1.1826717,50.7335045],[-1.2125418,50.7347655],[-1.2145449,50.7341644],[-1.2144579,50.7348461],[-1.2161334,50.7349166],[-1.2175653,50.7349768],[-1.2198979,50.7319276],[-1.2249499,50.725322],[-1.2254714,50.72464],[-1.2251034,50.7259309],[-1.224417,50.7283388],[-1.2235525,50.731371],[-1.21444,50.7376548],[-1.2141667,50.7381373],[-1.23855,50.7437115],[-1.2382905,50.7428925],[-1.2505017,50.7338152],[-1.2544876,50.7245466],[-1.2581355,50.7150357],[-1.2538976,50.7114575],[-1.2456368,50.7168944],[-1.239954,50.7168872],[-1.2109417,50.7041109],[-1.223409,50.7193755],[-1.2175918,50.7216566],[-1.2024053,50.7130529],[-1.1923386,50.7157138],[-1.1927371,50.7211976],[-1.1822261,50.7190419],[-1.1825156,50.7335023]]],"type":"Polygon"},"id":"E02003585","properties":{"code":"E02003585","geography":"MSOA","name":"Isle of Wight 005"},"type":"Feature"},{"geometry":{"coordinates":[[[-1.1651953,50.7332666],[-1.1746414,50.7333951],[-1.1825156,50.7335023],[-1.1822261,50.7190419],[-1.1927371,50.7211976],[-1.1923386,50.7157138],[-1.2024053,50.7130529],[-1.2175918,50.7216566],[-1.223409,50.7193755],[-1.2109417,50.7041109],[-1.2109363,50.6959884],[-1.2194476,50.6828297],[-1.1922321,50.685148],[-1.1805801,50.6824183],[-1.1734018,50.6918687],[-1.1631056,50.6968564],[-1.1631575,50.7050034],[-1.1547079,50.709385],[-1.1603828,50.7169998],[-1.1686482,50.7178837],[-1.1630513,50.7260041],[-1.1720261,50.7265656],[-1.1652131,50.7314206],[-1.1651953,50.7332666]]],"type":"Polygon"},"id":"E02003586","properties":{"code":"E02003586","geography":"MSOA","name":"Isle of Wight 006"},"type":"Feature"},{"geometry":{"coordinates":[[[-1.1376745,50.7272908],[-1.1437656,50.729054],[-1.1448092,50.7293174],[-1.1455834,50.7233025],[-1.1524003,50.7220563],[-1.1564943,50.7265482],[-1.1630513,50.7260041],[-1.1686482,50.7178837],[-1.1603828,50.7169998],[-1.1547079,50.709385],[-1.146938,50.7068941],[-1.1461751,50.7151257],[-1.1390413,50.7141679],[-1.1328362,50.7195087],[-1.138064,50.7240403],[-1.1376745,50.7272908]]],"type":"Polygon"},"id":"E02003587","properties":{"code":"E02003587","geography":"MSOA","name":"Isle of Wight 007"},"type":"Feature"},{"geometry":{"coordinates":[[[[-1.2544876,50.7245466],[-1.2706082,50.7207242],[-1.280666,50.7238602],[-1.289285,50.7097511],[-1.2898952,50.7085811],[-1.2907056,50.7074276],[-1.2910959,50.7067893],[-1.2910366,50.7065693],[-1.2893962,50.7006272],[-1.2894242,50.7005005],[-1.2897185,50.699156],[-1.2900293,50.6977201],[-1.2904139,50.6987601],[-1.290186,50.6970877],[-1.2868409,50.6888199],[-1.2819495,50.690227],[-1.2702265,50.6865067],[-1.2642092,50.6954851],[-1.2406757,50.683408],[-1.2193033,50.6823891],[-1.2194476,50.6828297],[-1.2109363,50.6959884],[-1.2109417,50.7041109],[-1.239954,50.7168872],[-1.2456368,50.7168944],[-1.2538976,50.7114575],[-1.2581355,50.7150357],[-1.2544876,50.7245466]]],[[[-1.2831098,50.7292675],[-1.2831546,50.7299351],[-1.2874677,50.7338732],[-1.3065129,50.7316275],[-1.3060765,50.7286482],[-1.3143074,50.7278346],[-1.3178942,50.7301505],[-1.3232601,50.7267335],[-1.3267334,50.7210399],[-1.3139906,50.7206303],[-1.3138089,50.716401],[-1.3050854,50.7183228],[-1.3087973,50.7129543],[-1.2963952,50.7046154],[-1.292226,50.7055349],[-1.2909872,50.7087714],[-1.2831098,50.7292675]]]],"type":"MultiPolygon"},"id":"E02003588","properties":{"code":"E02003588","geography":"MSOA","name":"Isle of Wight 008"},"type":"Feature"},{"geometry":{"coordinates":[[[-1.3232601,50.7267335],[-1.3317018,50.7282511],[-1.3356229,50.7251828],[-1.3462812,50.7264911],[-1.345827,50.7204428],[-1.3414348,50.7177813],[-1.3370732,50.703772],[-1.3309366,50.704564],[-1.3279362,50.6964129],[-1.323927,50.6940847],[-1.3201222,50.6956376],[-1.321058,50.701115],[-1.3102415,50.7022511],[-1.2995648,50.7008944],[-1.3028409,50.6957372],[-1.2941994,50.6963443],[-1.2951064,50.6986625],[-1.290186,50.6970877],[-1.2904139,50.6987601],[-1.2914876,50.7015976],[-1.2916029,50.7019021],[-1.292226,50.7055349],[-1.2963952,50.7046154],[-1.3087973,50.7129543],[-1.3050854,50.7183228],[-1.3138089,50.716401],[-1.3139906,50.7206303],[-1.3267334,50.7210399],[-1.3232601,50.7267335]]],"type":"Polygon"},"id":"E02003589","properties":{"code":"E02003589","geography":"MSOA","name":"Isle of Wight 009"},"type":"Feature"},{"geometry":{"coordinates":[[[-1.1090462,50.6655082],[-1.1089576,50.665521],[-1.098064,50.6652385],[-1.0976499,50.6658416],[-1.0947172,50.6719954],[-1.0698471,50.6838924],[-1.0706849,50.6879397],[-1.0819234,50.6941851],[-1.0837784,50.69463],[-1.0936317,50.6958119],[-1.0948614,50.6944248],[-1.0955245,50.6936767],[-1.0983191,50.6905236],[-1.1082727,50.6935264],[-1.1079809,50.6938632],[-1.1028411,50.6997951],[-1.1038985,50.6962735],[-1.096154,50.6942429],[-1.09781,50.7061466],[-1.1014045,50.7073911],[-1.1015744,50.7076809],[-1.1097192,50.7215746],[-1.1368611,50.7270553],[-1.1376745,50.7272908],[-1.138064,50.7240403],[-1.1328362,50.7195087],[-1.1390413,50.7141679],[-1.1461751,50.7151257],[-1.146938,50.7068941],[-1.1306037,50.7067356],[-1.121484,50.7033615],[-1.1204457,50.6924821],[-1.1102413,50.6925181],[-1.1286635,50.6813423],[-1.1286476,50.6785436],[-1.1375837,50.6755569],[-1.1387626,50.6774739],[-1.1433233,50.6730048],[-1.128325,50.6718864],[-1.1090462,50.6655082]]],"type":"Polygon"},"id":"E02003590","properties":{"code":"E02003590","geography":"MSOA","name":"Isle of Wight 010"},"type":"Feature"},{"geometry":{"coordinates":[[[-1.290186,50.6970877],[-1.2951064,50.6986625],[-1.2941994,50.6963443],[-1.3028409,50.6957372],[-1.2995648,50.7008944],[-1.3102415,50.7022511],[-1.321058,50.701115],[-1.3201222,50.6956376],[-1.3094818,50.6921486],[-1.3115463,50.6828533],[-1.3026169,50.6718065],[-1.2982589,50.6699565],[-1.2976125,50.6739166],[-1.2886243,50.6728307],[-1.2919809,50.6620242],[-1.2784412,50.6583226],[-1.2823582,50.6545361],[-1.2895826,50.654978],[-1.2853427,50.6462691],[-1.2773786,50.6479936],[-1.2809533,50.6532286],[-1.2682521,50.6553843],[-1.2655487,50.6506757],[-1.2538777,50.6476177],[-1.2420147,50.6507175],[-1.2349974,50.6484068],[-1.2248768,50.6497613],[-1.2174698,50.6552434],[-1.2237473,50.6677468],[-1.2126752,50.6686492],[-1.2193033,50.6823891],[-1.2406757,50.683408],[-1.2642092,50.6954851],[-1.2702265,50.6865067],[-1.2819495,50.690227],[-1.2868409,50.6888199],[-1.290186,50.6970877]]],"type":"Polygon"},"id":"E02003591","properties":{"code":"E02003591","geography":"MSOA","name":"Isle of Wight 011"},"type":"Feature"},{"geometry":{"coordinates":[[[-1.464173,50.6524534],[-1.4605989,50.6682917],[-1.4632079,50.6848091],[-1.4588179,50.6924796],[-1.4678576,50.6972415],[-1.4644947,50.7040929],[-1.4691943,50.7043734],[-1.4641444,50.7119566],[-1.4701277,50.7096501],[-1.4762837,50.7089281],[-1.4871418,50.7068263],[-1.4939607,50.706853],[-1.5039192,50.7056827],[-1.5010174,50.7017368],[-1.4967659,50.7027142],[-1.4974472,50.7002171],[-1.5000551,50.7007238],[-1.5013587,50.700977],[-1.4978628,50.6981283],[-1.4980176,50.6980195],[-1.5019543,50.6952539],[-1.4990688,50.6942283],[-1.5051003,50.6936769],[-1.5038836,50.695148],[-1.5080379,50.6960402],[-1.5034131,50.696899],[-1.4998443,50.6979634],[-1.5022728,50.6995457],[-1.50339,50.6971312],[-1.5028029,50.7030305],[-1.5049448,50.7013419],[-1.5045812,50.7046861],[-1.5096793,50.7058246],[-1.5029948,50.7067448],[-1.5238,50.7062714],[-1.5313298,50.7023794],[-1.532064,50.7019998],[-1.5356164,50.6920446],[-1.537608,50.6915528],[-1.5382125,50.6897469],[-1.5382599,50.6896052],[-1.5478671,50.6791004],[-1.5480063,50.6787424],[-1.5482474,50.6786845],[-1.5484184,50.6784974],[-1.5484462,50.6784308],[-1.5484883,50.6784211],[-1.5489869,50.6778757],[-1.5695797,50.6735299],[-1.5693388,50.6656383],[-1.5698335,50.6655664],[-1.5699185,50.6653721],[-1.5865512,50.6631355],[-1.5735225,50.6609298],[-1.5324316,50.6668031],[-1.5110449,50.6700132],[-1.5102063,50.6699142],[-1.5100877,50.6699319],[-1.5081881,50.6696759],[-1.4851923,50.6669577],[-1.464173,50.6524534]]],"type":"Polygon"},"id":"E02003592","properties":{"code":"E02003592","geography":"MSOA","name":"Isle of Wight 012"},"type":"Feature"},{"geometry":{"coordinates":[[[-1.3317018,50.7282511],[-1.3381691,50.7344201],[-1.3399095,50.7437193],[-1.3460279,50.7465784],[-1.3461292,50.7464749],[-1.3533398,50.7390976],[-1.408788,50.725596],[-1.4094847,50.7251324],[-1.4078174,50.7238234],[-1.4011652,50.7272255],[-1.3959926,50.7263329],[-1.4000922,50.7241571],[-1.386153,50.7226466],[-1.3927821,50.72272],[-1.3897283,50.7200181],[-1.3952201,50.7197552],[-1.3892514,50.7166448],[-1.3699345,50.7198344],[-1.3793389,50.7174735],[-1.376683,50.7106576],[-1.3795311,50.716349],[-1.3922728,50.7155429],[-1.3974391,50.7191848],[-1.3999039,50.7166022],[-1.403952,50.7208594],[-1.4091936,50.7160994],[-1.4087543,50.7179349],[-1.403489,50.7244674],[-1.4078454,50.7212678],[-1.4099111,50.7165022],[-1.4093042,50.7159185],[-1.399733,50.7107875],[-1.4024533,50.7093032],[-1.4122031,50.7143518],[-1.4070333,50.7085662],[-1.4129097,50.71152],[-1.4130459,50.703554],[-1.413539,50.7154611],[-1.4160571,50.7141277],[-1.4167579,50.7137565],[-1.4155318,50.7152486],[-1.4124724,50.718971],[-1.4137954,50.7189533],[-1.4182713,50.7188931],[-1.4130833,50.7204724],[-1.4119706,50.7208111],[-1.4127674,50.7211463],[-1.4211769,50.7246827],[-1.4120667,50.7245706],[-1.4158204,50.725176],[-1.4279776,50.7258871],[-1.4346957,50.7233009],[-1.4641444,50.7119566],[-1.4691943,50.7043734],[-1.4644947,50.7040929],[-1.4678576,50.6972415],[-1.4588179,50.6924796],[-1.4632079,50.6848091],[-1.4605989,50.6682917],[-1.464173,50.6524534],[-1.463973,50.6523153],[-1.4472786,50.643499],[-1.4356931,50.640167],[-1.3925517,50.6277453],[-1.3903335,50.6271295],[-1.3902769,50.6271015],[-1.3893042,50.6268094],[-1.3840521,50.6235015],[-1.3745817,50.61803],[-1.3669067,50.6135942],[-1.3696651,50.6412178],[-1.3737281,50.6430228],[-1.374705,50.6537035],[-1.3778292,50.6534261],[-1.3770314,50.6660309],[-1.3507097,50.6649627],[-1.3510951,50.6581591],[-1.3448924,50.6598222],[-1.3389164,50.6512407],[-1.3311862,50.6482371],[-1.328227,50.6616654],[-1.3340354,50.6659424],[-1.3343265,50.6725655],[-1.327928,50.6713085],[-1.3234669,50.6738249],[-1.3177352,50.6709975],[-1.3125193,50.6741632],[-1.3123313,50.6717445],[-1.3026169,50.6718065],[-1.3115463,50.6828533],[-1.3094818,50.6921486],[-1.3201222,50.6956376],[-1.323927,50.6940847],[-1.3279362,50.6964129],[-1.3309366,50.704564],[-1.3370732,50.703772],[-1.3414348,50.7177813],[-1.345827,50.7204428],[-1.3462812,50.7264911],[-1.3356229,50.7251828],[-1.3317018,50.7282511]]],"type":"Polygon"},"id":"E02003593","properties":{"code":"E02003593","geography":"MSOA","name":"Isle of Wight 013"},"type":"Feature"},{"geometry":{"coordinates":[[[-1.146938,50.7068941],[-1.1547079,50.709385],[-1.1631575,50.7050034],[-1.1631056,50.6968564],[-1.1734018,50.6918687],[-1.1805801,50.6824183],[-1.1727215,50.6790256],[-1.1781635,50.6656538],[-1.1649208,50.6589733],[-1.1626043,50.6502382],[-1.1600854,50.6495714],[-1.1526069,50.6539635],[-1.1522417,50.6541779],[-1.1519106,50.6543723],[-1.1326071,50.6621151],[-1.1093276,50.6654677],[-1.1090462,50.6655082],[-1.128325,50.6718864],[-1.1433233,50.6730048],[-1.1387626,50.6774739],[-1.1375837,50.6755569],[-1.1286476,50.6785436],[-1.1286635,50.6813423],[-1.1102413,50.6925181],[-1.1204457,50.6924821],[-1.121484,50.7033615],[-1.1306037,50.7067356],[-1.146938,50.7068941]]],"type":"Polygon"},"id":"E02003594","properties":{"code":"E02003594","geography":"MSOA","name":"Isle of Wight 014"},"type":"Feature"},{"geometry":{"coordinates":[[[-1.1805801,50.6824183],[-1.1922321,50.685148],[-1.2194476,50.6828297],[-1.2193033,50.6823891],[-1.2126752,50.6686492],[-1.2237473,50.6677468],[-1.2174698,50.6552434],[-1.2248768,50.6497613],[-1.2199472,50.6454972],[-1.2242464,50.6324519],[-1.2130819,50.6303225],[-1.1858098,50.6280881],[-1.1760441,50.6370267],[-1.1769789,50.6411598],[-1.1698701,50.6427657],[-1.1713474,50.6478634],[-1.1787206,50.6512322],[-1.1753341,50.6532674],[-1.1688173,50.6513922],[-1.1662416,50.6468449],[-1.1626043,50.6502382],[-1.1649208,50.6589733],[-1.1781635,50.6656538],[-1.1727215,50.6790256],[-1.1805801,50.6824183]]],"type":"Polygon"},"id":"E02003595","properties":{"code":"E02003595","geography":"MSOA","name":"Isle of Wight 015"},"type":"Feature"},{"geometry":{"coordinates":[[[-1.1626043,50.6502382],[-1.1662416,50.6468449],[-1.1688173,50.6513922],[-1.1753341,50.6532674],[-1.1787206,50.6512322],[-1.1713474,50.6478634],[-1.1698701,50.6427657],[-1.1769789,50.6411598],[-1.1760441,50.6370267],[-1.1858098,50.6280881],[-1.2130819,50.6303225],[-1.2119589,50.622783],[-1.2049839,50.6202338],[-1.2011555,50.6217209],[-1.1887991,50.6070213],[-1.1752454,50.6068254],[-1.1752253,50.6068483],[-1.1733748,50.6167766],[-1.1707047,50.6313448],[-1.1690247,50.6368565],[-1.168366,50.6384253],[-1.1680694,50.6400043],[-1.1674045,50.6407149],[-1.1660216,50.6440078],[-1.1604643,50.6493489],[-1.1600854,50.6495714],[-1.1626043,50.6502382]]],"type":"Polygon"},"id":"E02003596","properties":{"code":"E02003596","geography":"MSOA","name":"Isle of Wight 016"},"type":"Feature"},{"geometry":{"coordinates":[[[-1.3026169,50.6718065],[-1.3123313,50.6717445],[-1.3125193,50.6741632],[-1.3177352,50.6709975],[-1.3234669,50.6738249],[-1.327928,50.6713085],[-1.3343265,50.6725655],[-1.3340354,50.6659424],[-1.328227,50.6616654],[-1.3311862,50.6482371],[-1.3389164,50.6512407],[-1.3448924,50.6598222],[-1.3510951,50.6581591],[-1.3507097,50.6649627],[-1.3770314,50.6660309],[-1.3778292,50.6534261],[-1.374705,50.6537035],[-1.3737281,50.6430228],[-1.3696651,50.6412178],[-1.3669067,50.6135942],[-1.3522611,50.6062515],[-1.3394747,50.6018011],[-1.3181736,50.5894656],[-1.3035056,50.5764997],[-1.2996558,50.5759155],[-1.2691037,50.5795801],[-1.2698112,50.5836995],[-1.2452823,50.5884218],[-1.2459486,50.5946592],[-1.2523477,50.5974829],[-1.2484697,50.6021442],[-1.2386849,50.6050124],[-1.2353937,50.6101574],[-1.2378826,50.6147061],[-1.2322236,50.616232],[-1.2352197,50.6185476],[-1.2416321,50.6173538],[-1.2412225,50.620684],[-1.2331501,50.6267319],[-1.2276478,50.6270545],[-1.2242464,50.6324519],[-1.2199472,50.6454972],[-1.2248768,50.6497613],[-1.2349974,50.6484068],[-1.2420147,50.6507175],[-1.2538777,50.6476177],[-1.2655487,50.6506757],[-1.2682521,50.6553843],[-1.2809533,50.6532286],[-1.2773786,50.6479936],[-1.2853427,50.6462691],[-1.2895826,50.654978],[-1.2823582,50.6545361],[-1.2784412,50.6583226],[-1.2919809,50.6620242],[-1.2886243,50.6728307],[-1.2976125,50.6739166],[-1.2982589,50.6699565],[-1.3026169,50.6718065]]],"type":"Polygon"},"id":"E02003597","properties":{"code":"E02003597","geography":"MSOA","name":"Isle of Wight 017"},"type":"Feature"},{"geometry":{"coordinates":[[[-1.2130819,50.6303225],[-1.2242464,50.6324519],[-1.2276478,50.6270545],[-1.2331501,50.6267319],[-1.2412225,50.620684],[-1.2416321,50.6173538],[-1.2352197,50.6185476],[-1.2322236,50.616232],[-1.2378826,50.6147061],[-1.2353937,50.6101574],[-1.2386849,50.6050124],[-1.2484697,50.6021442],[-1.2523477,50.5974829],[-1.2459486,50.5946592],[-1.2452823,50.5884218],[-1.2698112,50.5836995],[-1.2691037,50.5795801],[-1.249894,50.5808935],[-1.2428563,50.5827936],[-1.2102197,50.5926195],[-1.1962125,50.5951305],[-1.1826168,50.5984063],[-1.1752454,50.6068254],[-1.1887991,50.6070213],[-1.2011555,50.6217209],[-1.2049839,50.6202338],[-1.2119589,50.622783],[-1.2130819,50.6303225]]],"type":"Polygon"},"id":"E02003598","properties":{"code":"E02003598","geography":"MSOA","name":"Isle of Wight 018"},"type":"Feature"}],"type":"FeatureCollection"}
