{"features":[{"geometry":{"coordinates":[[[-0.9845982,54.0388515],[-0.9932666,54.0422797],[-1.0023308,54.0553275],[-1.0143673,54.049305],[-1.0597024,54.0565904],[-1.0587241,54.0478283],[-1.0637139,54.0424468],[-1.056869,54.0314594],[-1.0618916,54.0268735],[-1.0523604,54.0196635],[-1.0616657,54.0152082],[-1.0620048,54.0071098],[-1.0620765,54.007052],[-1.0554619,54.0050605],[-1.0263084,54.0041917],[-1.0264205,54.0069506],[-1.0151982,54.0066637],[-1.0128299,54.0167889],[-0.9845982,54.0388515]]],"type":"Polygon"},"id":"E02002772","properties":{"code":"E02002772","geography":"MSOA","name":"York 001"},"type":"Feature"},{"geometry":{"coordinates":[[[-1.0587241,54.0478283],[-1.0621609,54.0501213],[-1.0889974,54.0480825],[-1.0942686,54.0466093],[-1.0960764,54.0404952],[-1.0845279,54.0231068],[-1.0800475,54.0226794],[-1.0798367,54.0140738],[-1.0840444,54.0109369],[-1.0692147,54.0103336],[-1.0660384,54.0147338],[-1.0620048,54.0071098],[-1.0616657,54.0152082],[-1.0523604,54.0196635],[-1.0618916,54.0268735],[-1.056869,54.0314594],[-1.0637139,54.0424468],[-1.0587241,54.0478283]]],"type":"Polygon"},"id":"E02002773","properties":{"code":"E02002773","geography":"MSOA","name":"York 002"},"type":"Feature"},{"geometry":{"coordinates":[[[-1.0620048,54.0071098],[-1.0660384,54.0147338],[-1.0692147,54.0103336],[-1.0840444,54.0109369],[-1.0798367,54.0140738],[-1.0800475,54.0226794],[-1.0845279,54.0231068],[-1.0960764,54.0404952],[-1.1148805,54.0358257],[-1.1202738,54.0290284],[-1.1207715,54.0233929],[-1.1077842,54.0175818],[-1.101439,54.0030557],[-1.0952754,53.9959486],[-1.090496,53.9966515],[-1.0620765,54.007052],[-1.0620048,54.0071098]]],"type":"Polygon"},"id":"E02002774","properties":{"code":"E02002774","geography":"MSOA","name":"York 003"},"type":"Feature"},{"geometry":{"coordinates":[[[-1.0554619,54.0050605],[-1.0620765,54.007052],[-1.090496,53.9966515],[-1.0786126,53.9799588],[-1.0710463,53.9792424],[-1.0682814,53.9874409],[-1.0596519,53.9885219],[-1.0642234,53.9915934],[-1.0470589,54.0011942],[-1.0554619,54.0050605]]],"type":"Polygon"},"id":"E02002775","properties":{"code":"E02002775","geography":"MSOA","name":"York 004"},"type":"Feature"},{"geometry":{"coordinates":[[[-1.0151982,54.0066637],[-1.0264205,54.0069506],[-1.0263084,54.0041917],[-1.0554619,54.0050605],[-1.0470589,54.0011942],[-1.0642234,53.9915934],[-1.0596519,53.9885219],[-1.0682814,53.9874409],[-1.0710463,53.9792424],[-1.0715127,53.97794],[-1.0654356,53.9769894],[-1.0473735,53.9791734],[-1.03989,53.9912371],[-1.028397,53.9853612],[-1.0174806,53.9962337],[-1.0151982,54.0066637]]],"type":"Polygon"},"id":"E02002776","properties":{"code":"E02002776","geography":"MSOA","name":"York 005"},"type":"Feature"},{"geometry":{"coordinates":[[[-1.1202738,54.0290284],[-1.1407884,54.0298423],[-1.1450258,54.0245171],[-1.1423734,54.0189358],[-1.1480606,54.0156948],[-1.1428675,54.0107707],[-1.1490821,54.0029299],[-1.1369893,53.9910654],[-1.1322692,53.9905352],[-1.1353226,53.9922459],[-1.1193195,53.9929512],[-1.1113031,53.9831459],[-1.1040507,53.9874747],[-1.1030814,53.9805964],[-1.109371,53.9773684],[-1.0968359,53.9732403],[-1.0875548,53.9814903],[-1.0814341,53.9782977],[-1.0715127,53.97794],[-1.0710463,53.9792424],[-1.0786126,53.9799588],[-1.090496,53.9966515],[-1.0952754,53.9959486],[-1.101439,54.0030557],[-1.1077842,54.0175818],[-1.1207715,54.0233929],[-1.1202738,54.0290284]]],"type":"Polygon"},"id":"E02002777","properties":{"code":"E02002777","geography":"MSOA","name":"York 006"},"type":"Feature"},{"geometry":{"coordinates":[[[-1.0968359,53.9732403],[-1.109371,53.9773684],[-1.1030814,53.9805964],[-1.1040507,53.9874747],[-1.1113031,53.9831459],[-1.1193195,53.9929512],[-1.1353226,53.9922459],[-1.1322692,53.9905352],[-1.1208396,53.9762605],[-1.1126737,53.9664628],[-1.1085052,53.9662923],[-1.104237,53.9683458],[-1.0928467,53.9611963],[-1.0864413,53.9685644],[-1.094755,53.9683753],[-1.0968359,53.9732403]]],"type":"Polygon"},"id":"E02002778","properties":{"code":"E02002778","geography":"MSOA","name":"York 007"},"type":"Feature"},{"geometry":{"coordinates":[[[-0.9958089,53.9839626],[-0.9812536,53.9911445],[-0.9790932,53.9959358],[-0.9718466,53.9969748],[-0.9754102,54.0047324],[-0.9847725,54.0026617],[-0.9793768,54.0052552],[-0.9827438,54.0100131],[-0.9769313,54.0157564],[-0.9794124,54.0174026],[-0.966836,54.0229585],[-0.9706097,54.0230549],[-0.9733077,54.0292885],[-0.9823047,54.0309052],[-0.9845982,54.0388515],[-1.0128299,54.0167889],[-1.0151982,54.0066637],[-1.0174806,53.9962337],[-1.028397,53.9853612],[-1.03989,53.9912371],[-1.0473735,53.9791734],[-1.0654356,53.9769894],[-1.0687222,53.9735793],[-1.0641263,53.9730788],[-1.0677226,53.9726537],[-1.0631028,53.9684348],[-1.0686811,53.9653226],[-1.0582647,53.962765],[-1.054416,53.9651126],[-1.0513841,53.9677889],[-1.0463216,53.9653479],[-1.0335348,53.9690837],[-1.01012,53.979771],[-1.0071623,53.9829679],[-0.9958089,53.9839626]]],"type":"Polygon"},"id":"E02002779","properties":{"code":"E02002779","geography":"MSOA","name":"York 008"},"type":"Feature"},{"geometry":{"coordinates":[[[-1.0814341,53.9782977],[-1.0875548,53.9814903],[-1.0968359,53.9732403],[-1.094755,53.9683753],[-1.0864413,53.9685644],[-1.0811728,53.9679708],[-1.0764115,53.9711067],[-1.0820676,53.9720361],[-1.0814341,53.9782977]]],"type":"Polygon"},"id":"E02002780","properties":{"code":"E02002780","geography":"MSOA","name":"York 009"},"type":"Feature"},{"geometry":{"coordinates":[[[-1.0715127,53.97794],[-1.0814341,53.9782977],[-1.0820676,53.9720361],[-1.0764115,53.9711067],[-1.0811728,53.9679708],[-1.0743373,53.9668657],[-1.0709004,53.9577775],[-1.0694439,53.9621701],[-1.0663159,53.9603082],[-1.0582647,53.962765],[-1.0686811,53.9653226],[-1.0631028,53.9684348],[-1.0677226,53.9726537],[-1.0641263,53.9730788],[-1.0687222,53.9735793],[-1.0654356,53.9769894],[-1.0715127,53.97794]]],"type":"Polygon"},"id":"E02002781","properties":{"code":"E02002781","geography":"MSOA","name":"York 010"},"type":"Feature"},{"geometry":{"coordinates":[[[-1.1755024,54.0021792],[-1.1795064,53.9988437],[-1.1885623,54.0024658],[-1.1919289,54.0004911],[-1.1832746,53.9961988],[-1.1820956,53.9853286],[-1.1922122,53.9841746],[-1.2001738,53.9890151],[-1.2165123,53.9855736],[-1.2236984,53.9748122],[-1.1956322,53.9223629],[-1.1911262,53.9225639],[-1.1857022,53.916046],[-1.1792979,53.9168796],[-1.1705896,53.9088039],[-1.1649099,53.9105579],[-1.1695035,53.9169634],[-1.1170085,53.9247727],[-1.1196864,53.9265773],[-1.1125343,53.9241648],[-1.1106776,53.9260826],[-1.1456372,53.9347011],[-1.1396622,53.9450662],[-1.1473391,53.9530438],[-1.1432951,53.9562653],[-1.1374163,53.9687461],[-1.1208396,53.9762605],[-1.1322692,53.9905352],[-1.1369893,53.9910654],[-1.1519041,53.9891606],[-1.1755024,54.0021792]]],"type":"Polygon"},"id":"E02002782","properties":{"code":"E02002782","geography":"MSOA","name":"York 011"},"type":"Feature"},{"geometry":{"coordinates":[[[-1.1085052,53.9662923],[-1.1126737,53.9664628],[-1.1208396,53.9762605],[-1.1374163,53.9687461],[-1.1432951,53.9562653],[-1.1324561,53.9557603],[-1.1234173,53.9559062],[-1.1241426,53.9584176],[-1.1138615,53.9638761],[-1.1071424,53.9636684],[-1.1085052,53.9662923]]],"type":"Polygon"},"id":"E02002783","properties":{"code":"E02002783","geography":"MSOA","name":"York 012"},"type":"Feature"},{"geometry":{"coordinates":[[[-1.0811728,53.9679708],[-1.0864413,53.9685644],[-1.0928467,53.9611963],[-1.0983124,53.9543349],[-1.0862763,53.9509854],[-1.0798563,53.9546307],[-1.0664141,53.954511],[-1.0581644,53.9589106],[-1.0663159,53.9603082],[-1.0694439,53.9621701],[-1.0709004,53.9577775],[-1.0743373,53.9668657],[-1.0811728,53.9679708]]],"type":"Polygon"},"id":"E02002784","properties":{"code":"E02002784","geography":"MSOA","name":"York 013"},"type":"Feature"},{"geometry":{"coordinates":[[[-1.0214656,53.9552805],[-1.0057247,53.9592013],[-0.9934523,53.9663345],[-1.01012,53.979771],[-1.0335348,53.9690837],[-1.0463216,53.9653479],[-1.0513841,53.9677889],[-1.054416,53.9651126],[-1.0508378,53.9609294],[-1.0573455,53.9595909],[-1.0455006,53.9603755],[-1.0380578,53.9563091],[-1.0369664,53.9539101],[-1.0458156,53.9537953],[-1.0450653,53.9509858],[-1.0393258,53.9484049],[-1.0315928,53.9514154],[-1.0327863,53.9538776],[-1.0214656,53.9552805]]],"type":"Polygon"},"id":"E02002785","properties":{"code":"E02002785","geography":"MSOA","name":"York 014"},"type":"Feature"},{"geometry":{"coordinates":[[[-1.0450653,53.9509858],[-1.0458156,53.9537953],[-1.0369664,53.9539101],[-1.0380578,53.9563091],[-1.0455006,53.9603755],[-1.0573455,53.9595909],[-1.0508378,53.9609294],[-1.054416,53.9651126],[-1.0582647,53.962765],[-1.0663159,53.9603082],[-1.0581644,53.9589106],[-1.0664141,53.954511],[-1.059063,53.9541551],[-1.0593201,53.9509408],[-1.0450653,53.9509858]]],"type":"Polygon"},"id":"E02002786","properties":{"code":"E02002786","geography":"MSOA","name":"York 015"},"type":"Feature"},{"geometry":{"coordinates":[[[-1.1139268,53.9487601],[-1.1111604,53.9535638],[-1.1074261,53.9520202],[-1.1058315,53.9542574],[-1.1093009,53.9528761],[-1.1108126,53.9588061],[-1.106091,53.9591519],[-1.1138615,53.9638761],[-1.1241426,53.9584176],[-1.1234173,53.9559062],[-1.1324561,53.9557603],[-1.1326236,53.9515321],[-1.1263377,53.9481163],[-1.1210844,53.9512483],[-1.1152819,53.9488171],[-1.1139268,53.9487601]]],"type":"Polygon"},"id":"E02002787","properties":{"code":"E02002787","geography":"MSOA","name":"York 016"},"type":"Feature"},{"geometry":{"coordinates":[[[-1.0928467,53.9611963],[-1.104237,53.9683458],[-1.1085052,53.9662923],[-1.1071424,53.9636684],[-1.1138615,53.9638761],[-1.106091,53.9591519],[-1.1108126,53.9588061],[-1.1093009,53.9528761],[-1.1058315,53.9542574],[-1.1074261,53.9520202],[-1.1111604,53.9535638],[-1.1139268,53.9487601],[-1.1102533,53.9494497],[-1.1076866,53.947015],[-1.0947946,53.9498683],[-1.0863363,53.9450152],[-1.0818678,53.9479239],[-1.0862763,53.9509854],[-1.0983124,53.9543349],[-1.0928467,53.9611963]]],"type":"Polygon"},"id":"E02002788","properties":{"code":"E02002788","geography":"MSOA","name":"York 017"},"type":"Feature"},{"geometry":{"coordinates":[[[-1.1324561,53.9557603],[-1.1432951,53.9562653],[-1.1473391,53.9530438],[-1.1396622,53.9450662],[-1.1281469,53.9446511],[-1.1347202,53.9415641],[-1.1285586,53.9394919],[-1.1152819,53.9488171],[-1.1210844,53.9512483],[-1.1263377,53.9481163],[-1.1326236,53.9515321],[-1.1324561,53.9557603]]],"type":"Polygon"},"id":"E02002789","properties":{"code":"E02002789","geography":"MSOA","name":"York 018"},"type":"Feature"},{"geometry":{"coordinates":[[[-1.0664141,53.954511],[-1.0798563,53.9546307],[-1.0862763,53.9509854],[-1.0818678,53.9479239],[-1.0827006,53.9382949],[-1.0628928,53.9390299],[-1.0574967,53.9421164],[-1.0593201,53.9509408],[-1.059063,53.9541551],[-1.0664141,53.954511]]],"type":"Polygon"},"id":"E02002790","properties":{"code":"E02002790","geography":"MSOA","name":"York 019"},"type":"Feature"},{"geometry":{"coordinates":[[[-0.9229156,53.8907157],[-0.9495129,53.8938947],[-0.9402845,53.8986187],[-0.9383074,53.9078698],[-0.9320439,53.9087437],[-0.9316734,53.9173545],[-0.921593,53.9213971],[-0.9289116,53.9295981],[-0.9234123,53.9349879],[-0.9276491,53.9526472],[-0.921204,53.9604025],[-0.9340977,53.9684376],[-0.9278171,53.9840059],[-0.9203053,53.9900759],[-0.9252854,53.9914998],[-0.9443536,53.9891101],[-0.9576719,53.9839394],[-0.9670364,53.9859006],[-0.9846487,53.9815305],[-0.9958089,53.9839626],[-1.0071623,53.9829679],[-1.01012,53.979771],[-0.9934523,53.9663345],[-1.0057247,53.9592013],[-1.0214656,53.9552805],[-1.0027145,53.9334326],[-0.9888113,53.9313472],[-0.9867894,53.9188697],[-0.9698372,53.914501],[-0.9643318,53.9093652],[-0.9671886,53.9063191],[-0.9619648,53.9029528],[-0.9751646,53.8984031],[-0.9726005,53.8942419],[-0.9670814,53.8952973],[-0.9729482,53.8937892],[-0.9694638,53.882284],[-0.9480206,53.8848467],[-0.9440652,53.8881017],[-0.9386057,53.8875219],[-0.9344273,53.8797968],[-0.9268289,53.8825424],[-0.9235119,53.8807466],[-0.9235895,53.8877069],[-0.9196723,53.8892832],[-0.9229156,53.8907157]]],"type":"Polygon"},"id":"E02002791","properties":{"code":"E02002791","geography":"MSOA","name":"York 020"},"type":"Feature"},{"geometry":{"coordinates":[[[-1.0818678,53.9479239],[-1.0863363,53.9450152],[-1.0947946,53.9498683],[-1.1076866,53.947015],[-1.1102533,53.9494497],[-1.1145733,53.9358541],[-1.1055648,53.9268259],[-1.0931817,53.9284736],[-1.0875706,53.9358027],[-1.0804941,53.9359378],[-1.0827006,53.9382949],[-1.0818678,53.9479239]]],"type":"Polygon"},"id":"E02002792","properties":{"code":"E02002792","geography":"MSOA","name":"York 021"},"type":"Feature"},{"geometry":{"coordinates":[[[-1.1055648,53.9268259],[-1.1145733,53.9358541],[-1.1102533,53.9494497],[-1.1139268,53.9487601],[-1.1152819,53.9488171],[-1.1285586,53.9394919],[-1.1347202,53.9415641],[-1.1281469,53.9446511],[-1.1396622,53.9450662],[-1.1456372,53.9347011],[-1.1106776,53.9260826],[-1.1055648,53.9268259]]],"type":"Polygon"},"id":"E02002793","properties":{"code":"E02002793","geography":"MSOA","name":"York 022"},"type":"Feature"},{"geometry":{"coordinates":[[[-0.9694638,53.882284],[-0.9729482,53.8937892],[-0.9670814,53.8952973],[-0.9726005,53.8942419],[-0.9751646,53.8984031],[-0.9619648,53.9029528],[-0.9671886,53.9063191],[-0.9643318,53.9093652],[-0.9698372,53.914501],[-0.9867894,53.9188697],[-0.9888113,53.9313472],[-1.0027145,53.9334326],[-1.0214656,53.9552805],[-1.0327863,53.9538776],[-1.0315928,53.9514154],[-1.0393258,53.9484049],[-1.0450653,53.9509858],[-1.0593201,53.9509408],[-1.0574967,53.9421164],[-1.0628928,53.9390299],[-1.0827006,53.9382949],[-1.0804941,53.9359378],[-1.0755188,53.9296686],[-1.0919677,53.924763],[-1.0867598,53.9203258],[-1.092294,53.9097817],[-1.0904271,53.9043604],[-1.1036291,53.9005936],[-1.0933247,53.8901925],[-1.0955798,53.8843979],[-1.0776636,53.8835737],[-1.0649527,53.874567],[-1.0215362,53.8883524],[-1.0081983,53.889976],[-0.9928263,53.8751915],[-0.9694638,53.882284]]],"type":"Polygon"},"id":"E02002794","properties":{"code":"E02002794","geography":"MSOA","name":"York 023"},"type":"Feature"},{"geometry":{"coordinates":[[[-1.0955798,53.8843979],[-1.0933247,53.8901925],[-1.1036291,53.9005936],[-1.0904271,53.9043604],[-1.092294,53.9097817],[-1.0867598,53.9203258],[-1.0919677,53.924763],[-1.0755188,53.9296686],[-1.0804941,53.9359378],[-1.0875706,53.9358027],[-1.0931817,53.9284736],[-1.1055648,53.9268259],[-1.1106776,53.9260826],[-1.1125343,53.9241648],[-1.1196864,53.9265773],[-1.1170085,53.9247727],[-1.1695035,53.9169634],[-1.1649099,53.9105579],[-1.1543897,53.8959104],[-1.1435546,53.8924721],[-1.1364808,53.8957953],[-1.1249773,53.8826579],[-1.105097,53.8757144],[-1.1004234,53.8766075],[-1.0955798,53.8843979]]],"type":"Polygon"},"id":"E02002795","properties":{"code":"E02002795","geography":"MSOA","name":"York 024"},"type":"Feature"}],"type":"FeatureCollection"}
