{"features":[{"geometry":{"coordinates":[[[-2.3575843,52.7722052],[-2.3688691,52.7772928],[-2.3660982,52.7833843],[-2.376278,52.7837569],[-2.3821504,52.7793071],[-2.3808076,52.7742081],[-2.3883506,52.7757164],[-2.3955126,52.7698935],[-2.3905065,52.7680777],[-2.3803881,52.771386],[-2.3726069,52.7683986],[-2.3688341,52.7711666],[-2.358316,52.7705645],[-2.3575843,52.7722052]]],"type":"Polygon"},"id":"E02002928","properties":{"code":"E02002928","geography":"MSOA","name":"Telford and Wrekin 001"},"type":"Feature"},{"geometry":{"coordinates":[[[-2.4163476,52.8269913],[-2.4260385,52.8231976],[-2.4265094,52.8259144],[-2.4263244,52.822512],[-2.4302101,52.8281391],[-2.4404744,52.820757],[-2.4691027,52.8230295],[-2.4729478,52.8207382],[-2.4577476,52.7985153],[-2.4634717,52.7927316],[-2.4582051,52.7900307],[-2.4576063,52.783392],[-2.4709527,52.7842744],[-2.4726338,52.7804401],[-2.4882143,52.780597],[-2.4899578,52.7839072],[-2.4771227,52.799364],[-2.4784797,52.8015134],[-2.4883756,52.8004105],[-2.4865085,52.8052312],[-2.5030297,52.7965899],[-2.5117236,52.7984964],[-2.5161432,52.7955419],[-2.5219914,52.7989368],[-2.5324106,52.7856876],[-2.53889,52.7860675],[-2.5338124,52.7941046],[-2.5436739,52.7963583],[-2.5540252,52.7814756],[-2.5487093,52.7713872],[-2.5554805,52.763255],[-2.5496006,52.7508121],[-2.5527209,52.7480521],[-2.5275544,52.7243764],[-2.5247562,52.7182643],[-2.5134106,52.7196804],[-2.50312,52.726137],[-2.4945996,52.7274204],[-2.4957834,52.7385501],[-2.4610941,52.7459986],[-2.4546586,52.7517878],[-2.42839,52.7503799],[-2.4069519,52.7457053],[-2.3976661,52.7501793],[-2.3834267,52.7469343],[-2.3750738,52.7407942],[-2.3688231,52.7404489],[-2.3718759,52.7385128],[-2.3672972,52.7331484],[-2.3579305,52.7311977],[-2.336386,52.7330309],[-2.335857,52.730258],[-2.3300724,52.7294472],[-2.3155783,52.7329325],[-2.3167194,52.7379611],[-2.3122032,52.7408489],[-2.3216342,52.7498796],[-2.330477,52.7516024],[-2.3301356,52.7579631],[-2.3575843,52.7722052],[-2.358316,52.7705645],[-2.3610839,52.7619219],[-2.3682572,52.7626906],[-2.3779436,52.7590095],[-2.3823208,52.7613752],[-2.3853999,52.7576587],[-2.3905065,52.7680777],[-2.3955126,52.7698935],[-2.3883506,52.7757164],[-2.3808076,52.7742081],[-2.3821504,52.7793071],[-2.376278,52.7837569],[-2.3856209,52.7907084],[-2.3808757,52.7910982],[-2.3806408,52.7947142],[-2.3714151,52.7952704],[-2.3776555,52.8116282],[-2.4163476,52.8269913]]],"type":"Polygon"},"id":"E02002929","properties":{"code":"E02002929","geography":"MSOA","name":"Telford and Wrekin 002"},"type":"Feature"},{"geometry":{"coordinates":[[[-2.358316,52.7705645],[-2.3688341,52.7711666],[-2.3726069,52.7683986],[-2.3803881,52.771386],[-2.3905065,52.7680777],[-2.3853999,52.7576587],[-2.3823208,52.7613752],[-2.3779436,52.7590095],[-2.3682572,52.7626906],[-2.3610839,52.7619219],[-2.358316,52.7705645]]],"type":"Polygon"},"id":"E02002930","properties":{"code":"E02002930","geography":"MSOA","name":"Telford and Wrekin 003"},"type":"Feature"},{"geometry":{"coordinates":[[[-2.3750738,52.7407942],[-2.3834267,52.7469343],[-2.3976661,52.7501793],[-2.4069519,52.7457053],[-2.42839,52.7503799],[-2.4546586,52.7517878],[-2.4610941,52.7459986],[-2.4957834,52.7385501],[-2.4945996,52.7274204],[-2.4948926,52.7192522],[-2.4766577,52.7259371],[-2.4731093,52.7310762],[-2.4663536,52.7284185],[-2.4584411,52.7297773],[-2.4575462,52.7339817],[-2.4532809,52.7329574],[-2.4407347,52.7315736],[-2.4233402,52.7163739],[-2.4316725,52.7070482],[-2.4211498,52.6949262],[-2.405243,52.6948437],[-2.4015267,52.694935],[-2.4025029,52.7038908],[-2.3818822,52.7229451],[-2.3750738,52.7407942]]],"type":"Polygon"},"id":"E02002931","properties":{"code":"E02002931","geography":"MSOA","name":"Telford and Wrekin 004"},"type":"Feature"},{"geometry":{"coordinates":[[[-2.4316725,52.7070482],[-2.4233402,52.7163739],[-2.4407347,52.7315736],[-2.4532809,52.7329574],[-2.4508383,52.7293188],[-2.4552111,52.7280502],[-2.4544947,52.7205224],[-2.4579565,52.720117],[-2.4565804,52.7163711],[-2.4473904,52.7181133],[-2.4402789,52.7076592],[-2.4316725,52.7070482]]],"type":"Polygon"},"id":"E02002932","properties":{"code":"E02002932","geography":"MSOA","name":"Telford and Wrekin 005"},"type":"Feature"},{"geometry":{"coordinates":[[[-2.5247562,52.7182643],[-2.5275544,52.7243764],[-2.5386535,52.7231966],[-2.5359778,52.7046054],[-2.530747,52.7064659],[-2.519767,52.7032833],[-2.5130224,52.7058198],[-2.5126483,52.7096872],[-2.5247562,52.7182643]]],"type":"Polygon"},"id":"E02002933","properties":{"code":"E02002933","geography":"MSOA","name":"Telford and Wrekin 006"},"type":"Feature"},{"geometry":{"coordinates":[[[-2.4948926,52.7192522],[-2.4945996,52.7274204],[-2.50312,52.726137],[-2.5134106,52.7196804],[-2.5247562,52.7182643],[-2.5126483,52.7096872],[-2.4975126,52.7013986],[-2.4921239,52.7076849],[-2.4938832,52.7126607],[-2.4906385,52.7121674],[-2.4909158,52.7178901],[-2.4963501,52.717511],[-2.4948926,52.7192522]]],"type":"Polygon"},"id":"E02002934","properties":{"code":"E02002934","geography":"MSOA","name":"Telford and Wrekin 007"},"type":"Feature"},{"geometry":{"coordinates":[[[-2.4402789,52.7076592],[-2.4473904,52.7181133],[-2.4565804,52.7163711],[-2.4579565,52.720117],[-2.4744291,52.7171873],[-2.4674559,52.7082414],[-2.4505281,52.6992075],[-2.4487913,52.7049165],[-2.4402789,52.7076592]]],"type":"Polygon"},"id":"E02002935","properties":{"code":"E02002935","geography":"MSOA","name":"Telford and Wrekin 008"},"type":"Feature"},{"geometry":{"coordinates":[[[-2.4532809,52.7329574],[-2.4575462,52.7339817],[-2.4584411,52.7297773],[-2.4663536,52.7284185],[-2.4731093,52.7310762],[-2.4766577,52.7259371],[-2.4948926,52.7192522],[-2.4963501,52.717511],[-2.4909158,52.7178901],[-2.4906385,52.7121674],[-2.4938832,52.7126607],[-2.4921239,52.7076849],[-2.4975126,52.7013986],[-2.4953333,52.6997643],[-2.4735149,52.7000145],[-2.4722804,52.6959206],[-2.4649923,52.6938964],[-2.4674559,52.7082414],[-2.4744291,52.7171873],[-2.4579565,52.720117],[-2.4544947,52.7205224],[-2.4552111,52.7280502],[-2.4508383,52.7293188],[-2.4532809,52.7329574]]],"type":"Polygon"},"id":"E02002936","properties":{"code":"E02002936","geography":"MSOA","name":"Telford and Wrekin 009"},"type":"Feature"},{"geometry":{"coordinates":[[[-2.5483752,52.8003325],[-2.5530667,52.8029194],[-2.5643945,52.7994385],[-2.569791,52.8051809],[-2.5827885,52.8056108],[-2.5918413,52.7985044],[-2.59801,52.7979541],[-2.5925679,52.793547],[-2.5922472,52.7768349],[-2.6210058,52.7765074],[-2.6323339,52.7595754],[-2.6431312,52.7670697],[-2.6634183,52.7604259],[-2.6619124,52.7505573],[-2.6673646,52.7501827],[-2.6593929,52.7435179],[-2.6644322,52.7379847],[-2.6602509,52.731619],[-2.6313305,52.7266705],[-2.6242861,52.7194883],[-2.6189201,52.7218627],[-2.6151238,52.718939],[-2.5974218,52.7182358],[-2.6054249,52.7067651],[-2.6243254,52.7034019],[-2.6225524,52.6990168],[-2.6127189,52.696784],[-2.6033343,52.6893426],[-2.5966738,52.690552],[-2.588565,52.6837337],[-2.5556501,52.6710827],[-2.5494155,52.6662727],[-2.5542113,52.6600079],[-2.5454935,52.6583888],[-2.5484601,52.6546975],[-2.5127386,52.6406469],[-2.5012871,52.6294068],[-2.4920635,52.6280946],[-2.4863723,52.6238315],[-2.4719977,52.6240092],[-2.4720297,52.621919],[-2.4645646,52.6237808],[-2.4510193,52.6169638],[-2.4381089,52.6145464],[-2.4340447,52.6182105],[-2.4506599,52.6230847],[-2.4523426,52.6211157],[-2.4544522,52.6272648],[-2.4569576,52.6252657],[-2.4650855,52.6295409],[-2.473246,52.6291923],[-2.476202,52.6343459],[-2.485452,52.6357876],[-2.4806407,52.6416333],[-2.4738655,52.6425936],[-2.4878716,52.6451274],[-2.4990848,52.6529681],[-2.4903463,52.6586991],[-2.4964827,52.6732614],[-2.4899933,52.6774473],[-2.4824694,52.6765149],[-2.4901673,52.6884617],[-2.5096512,52.6904602],[-2.5373985,52.6897614],[-2.53034,52.6980809],[-2.5365378,52.7003004],[-2.5359778,52.7046054],[-2.5386535,52.7231966],[-2.5275544,52.7243764],[-2.5527209,52.7480521],[-2.5496006,52.7508121],[-2.5554805,52.763255],[-2.5487093,52.7713872],[-2.5540252,52.7814756],[-2.5436739,52.7963583],[-2.5483752,52.8003325]]],"type":"Polygon"},"id":"E02002937","properties":{"code":"E02002937","geography":"MSOA","name":"Telford and Wrekin 010"},"type":"Feature"},{"geometry":{"coordinates":[[[-2.4975126,52.7013986],[-2.5126483,52.7096872],[-2.5130224,52.7058198],[-2.519767,52.7032833],[-2.5081882,52.6940255],[-2.5096512,52.6904602],[-2.4901673,52.6884617],[-2.4887663,52.6884196],[-2.4953333,52.6997643],[-2.4975126,52.7013986]]],"type":"Polygon"},"id":"E02002938","properties":{"code":"E02002938","geography":"MSOA","name":"Telford and Wrekin 011"},"type":"Feature"},{"geometry":{"coordinates":[[[-2.519767,52.7032833],[-2.530747,52.7064659],[-2.5359778,52.7046054],[-2.5365378,52.7003004],[-2.53034,52.6980809],[-2.5373985,52.6897614],[-2.5096512,52.6904602],[-2.5081882,52.6940255],[-2.519767,52.7032833]]],"type":"Polygon"},"id":"E02002939","properties":{"code":"E02002939","geography":"MSOA","name":"Telford and Wrekin 012"},"type":"Feature"},{"geometry":{"coordinates":[[[-2.4423867,52.6873507],[-2.4371002,52.6870884],[-2.4312385,52.6949045],[-2.4402789,52.7076592],[-2.4487913,52.7049165],[-2.4505281,52.6992075],[-2.4423867,52.6873507]]],"type":"Polygon"},"id":"E02002940","properties":{"code":"E02002940","geography":"MSOA","name":"Telford and Wrekin 013"},"type":"Feature"},{"geometry":{"coordinates":[[[-2.4505281,52.6992075],[-2.4674559,52.7082414],[-2.4649923,52.6938964],[-2.4722804,52.6959206],[-2.4735149,52.7000145],[-2.4953333,52.6997643],[-2.4887663,52.6884196],[-2.4354322,52.6816462],[-2.4346798,52.6843629],[-2.4423867,52.6873507],[-2.4505281,52.6992075]]],"type":"Polygon"},"id":"E02002941","properties":{"code":"E02002941","geography":"MSOA","name":"Telford and Wrekin 014"},"type":"Feature"},{"geometry":{"coordinates":[[[-2.4316725,52.7070482],[-2.4402789,52.7076592],[-2.4312385,52.6949045],[-2.4371002,52.6870884],[-2.4423867,52.6873507],[-2.4346798,52.6843629],[-2.4354322,52.6816462],[-2.4077705,52.6796371],[-2.4012124,52.6845204],[-2.405243,52.6948437],[-2.4211498,52.6949262],[-2.4316725,52.7070482]]],"type":"Polygon"},"id":"E02002942","properties":{"code":"E02002942","geography":"MSOA","name":"Telford and Wrekin 015"},"type":"Feature"},{"geometry":{"coordinates":[[[-2.4459134,52.674507],[-2.454747,52.6774507],[-2.4700393,52.6711281],[-2.4796704,52.668254],[-2.4802387,52.6626331],[-2.4697678,52.6643983],[-2.4514848,52.6568264],[-2.4410558,52.6713212],[-2.4459134,52.674507]]],"type":"Polygon"},"id":"E02002944","properties":{"code":"E02002944","geography":"MSOA","name":"Telford and Wrekin 017"},"type":"Feature"},{"geometry":{"coordinates":[[[-2.4077705,52.6796371],[-2.4354322,52.6816462],[-2.4459134,52.674507],[-2.4410558,52.6713212],[-2.4514848,52.6568264],[-2.4525209,52.6529802],[-2.4448279,52.6582779],[-2.4368809,52.6527145],[-2.4261968,52.6543574],[-2.4175752,52.6503093],[-2.4190303,52.6628773],[-2.4099406,52.6716327],[-2.4077705,52.6796371]]],"type":"Polygon"},"id":"E02002945","properties":{"code":"E02002945","geography":"MSOA","name":"Telford and Wrekin 018"},"type":"Feature"},{"geometry":{"coordinates":[[[-2.4514848,52.6568264],[-2.4697678,52.6643983],[-2.4802387,52.6626331],[-2.4748565,52.6596047],[-2.4754519,52.652342],[-2.4689937,52.6452846],[-2.4718029,52.6428355],[-2.4617471,52.6444331],[-2.445992,52.6451686],[-2.4525209,52.6529802],[-2.4514848,52.6568264]]],"type":"Polygon"},"id":"E02002946","properties":{"code":"E02002946","geography":"MSOA","name":"Telford and Wrekin 019"},"type":"Feature"},{"geometry":{"coordinates":[[[-2.4261968,52.6543574],[-2.4368809,52.6527145],[-2.4448279,52.6582779],[-2.4525209,52.6529802],[-2.445992,52.6451686],[-2.4325565,52.6468987],[-2.4261968,52.6543574]]],"type":"Polygon"},"id":"E02002947","properties":{"code":"E02002947","geography":"MSOA","name":"Telford and Wrekin 020"},"type":"Feature"},{"geometry":{"coordinates":[[[-2.476202,52.6343459],[-2.4639259,52.6348801],[-2.4577545,52.638057],[-2.4617471,52.6444331],[-2.4718029,52.6428355],[-2.4738655,52.6425936],[-2.4806407,52.6416333],[-2.485452,52.6357876],[-2.476202,52.6343459]]],"type":"Polygon"},"id":"E02002948","properties":{"code":"E02002948","geography":"MSOA","name":"Telford and Wrekin 021"},"type":"Feature"},{"geometry":{"coordinates":[[[-2.4544522,52.6272648],[-2.4445958,52.6372342],[-2.4372596,52.6385848],[-2.445992,52.6451686],[-2.4617471,52.6444331],[-2.4577545,52.638057],[-2.4639259,52.6348801],[-2.476202,52.6343459],[-2.473246,52.6291923],[-2.4650855,52.6295409],[-2.4569576,52.6252657],[-2.4544522,52.6272648]]],"type":"Polygon"},"id":"E02002949","properties":{"code":"E02002949","geography":"MSOA","name":"Telford and Wrekin 022"},"type":"Feature"},{"geometry":{"coordinates":[[[-2.4175752,52.6503093],[-2.4261968,52.6543574],[-2.4325565,52.6468987],[-2.445992,52.6451686],[-2.4372596,52.6385848],[-2.4445958,52.6372342],[-2.4544522,52.6272648],[-2.4523426,52.6211157],[-2.4506599,52.6230847],[-2.4340447,52.6182105],[-2.4366365,52.6270793],[-2.4182966,52.6337601],[-2.4164668,52.6448924],[-2.4175752,52.6503093]]],"type":"Polygon"},"id":"E02002950","properties":{"code":"E02002950","geography":"MSOA","name":"Telford and Wrekin 023"},"type":"Feature"},{"geometry":{"coordinates":[[[-2.4887663,52.6884196],[-2.4901673,52.6884617],[-2.4824694,52.6765149],[-2.4700393,52.6711281],[-2.454747,52.6774507],[-2.4459134,52.674507],[-2.4354322,52.6816462],[-2.4887663,52.6884196]]],"type":"Polygon"},"id":"E02007050","properties":{"code":"E02007050","geography":"MSOA","name":"Telford and Wrekin 024"},"type":"Feature"},{"geometry":{"coordinates":[[[-2.4824694,52.6765149],[-2.4899933,52.6774473],[-2.4964827,52.6732614],[-2.4903463,52.6586991],[-2.4990848,52.6529681],[-2.4878716,52.6451274],[-2.4738655,52.6425936],[-2.4718029,52.6428355],[-2.4689937,52.6452846],[-2.4754519,52.652342],[-2.4748565,52.6596047],[-2.4802387,52.6626331],[-2.4796704,52.668254],[-2.4700393,52.6711281],[-2.4824694,52.6765149]]],"type":"Polygon"},"id":"E02007051","properties":{"code":"E02007051","geography":"MSOA","name":"Telford and Wrekin 025"},"type":"Feature"}],"type":"FeatureCollection"}
