{"features":[{"geometry":{"coordinates":[[[-3.0306774,53.8740245],[-3.0480031,53.8753633],[-3.0492353,53.8659764],[-3.0512727,53.8577164],[-3.0513316,53.8574778],[-3.0480482,53.8575488],[-3.0449173,53.8645977],[-3.038755,53.8616],[-3.0345392,53.8677085],[-3.0289065,53.8655709],[-3.0218309,53.8687511],[-3.0306774,53.8740245]]],"type":"Polygon"},"id":"E02002633","properties":{"code":"E02002633","geography":"MSOA","name":"Blackpool 001"},"type":"Feature"},{"geometry":{"coordinates":[[[-3.0226245,53.8617007],[-3.0218309,53.8687511],[-3.0289065,53.8655709],[-3.0345392,53.8677085],[-3.038755,53.8616],[-3.0410931,53.8518632],[-3.0346997,53.8522925],[-3.029877,53.8472941],[-3.0209628,53.8502088],[-3.017776,53.8473975],[-3.0143494,53.8501927],[-3.0226245,53.8617007]]],"type":"Polygon"},"id":"E02002634","properties":{"code":"E02002634","geography":"MSOA","name":"Blackpool 002"},"type":"Feature"},{"geometry":{"coordinates":[[[-3.038755,53.8616],[-3.0449173,53.8645977],[-3.0480482,53.8575488],[-3.0513316,53.8574778],[-3.0514065,53.8571739],[-3.0529154,53.8516061],[-3.0555613,53.841839],[-3.0487468,53.8423383],[-3.0484,53.8387767],[-3.0436763,53.8388925],[-3.0412112,53.8427297],[-3.0410931,53.8518632],[-3.038755,53.8616]]],"type":"Polygon"},"id":"E02002635","properties":{"code":"E02002635","geography":"MSOA","name":"Blackpool 003"},"type":"Feature"},{"geometry":{"coordinates":[[[-3.017776,53.8473975],[-3.0209628,53.8502088],[-3.029877,53.8472941],[-3.0346997,53.8522925],[-3.0410931,53.8518632],[-3.0412112,53.8427297],[-3.0406383,53.8367951],[-3.0313873,53.8374039],[-3.0258581,53.8332249],[-3.0099935,53.8360619],[-3.0155127,53.8407142],[-3.0190662,53.8370983],[-3.0204532,53.8407168],[-3.0152222,53.8427017],[-3.017776,53.8473975]]],"type":"Polygon"},"id":"E02002636","properties":{"code":"E02002636","geography":"MSOA","name":"Blackpool 004"},"type":"Feature"},{"geometry":{"coordinates":[[[-3.0258581,53.8332249],[-3.0313873,53.8374039],[-3.0406383,53.8367951],[-3.0412112,53.8427297],[-3.0436763,53.8388925],[-3.0484,53.8387767],[-3.0512368,53.8334476],[-3.0440673,53.8319262],[-3.0506227,53.8304679],[-3.0405875,53.83122],[-3.037987,53.8281989],[-3.0359649,53.830442],[-3.0316925,53.8279695],[-3.0321424,53.8310457],[-3.0267232,53.8302968],[-3.0258581,53.8332249]]],"type":"Polygon"},"id":"E02002637","properties":{"code":"E02002637","geography":"MSOA","name":"Blackpool 005"},"type":"Feature"},{"geometry":{"coordinates":[[[-3.0484,53.8387767],[-3.0487468,53.8423383],[-3.0555613,53.841839],[-3.0555805,53.8417681],[-3.0557357,53.841195],[-3.056425,53.8296198],[-3.0564781,53.8287279],[-3.056629,53.8191504],[-3.0566215,53.8189682],[-3.0549668,53.8189025],[-3.0474716,53.8223717],[-3.0542117,53.8264577],[-3.0405875,53.83122],[-3.0506227,53.8304679],[-3.0440673,53.8319262],[-3.0512368,53.8334476],[-3.0484,53.8387767]]],"type":"Polygon"},"id":"E02002638","properties":{"code":"E02002638","geography":"MSOA","name":"Blackpool 006"},"type":"Feature"},{"geometry":{"coordinates":[[[-3.0107047,53.8270727],[-3.013639,53.8292136],[-3.0072078,53.8328865],[-3.0099935,53.8360619],[-3.0258581,53.8332249],[-3.0267232,53.8302968],[-3.0321424,53.8310457],[-3.0316925,53.8279695],[-3.0265436,53.8287968],[-3.0288415,53.8232036],[-3.0239008,53.8276596],[-3.0107047,53.8270727]]],"type":"Polygon"},"id":"E02002639","properties":{"code":"E02002639","geography":"MSOA","name":"Blackpool 007"},"type":"Feature"},{"geometry":{"coordinates":[[[-3.037987,53.8281989],[-3.0405875,53.83122],[-3.0542117,53.8264577],[-3.0474716,53.8223717],[-3.0442018,53.8201239],[-3.0388991,53.8231052],[-3.0370352,53.8206355],[-3.0331478,53.8243255],[-3.037987,53.8281989]]],"type":"Polygon"},"id":"E02002640","properties":{"code":"E02002640","geography":"MSOA","name":"Blackpool 008"},"type":"Feature"},{"geometry":{"coordinates":[[[-3.0316925,53.8279695],[-3.0359649,53.830442],[-3.037987,53.8281989],[-3.0331478,53.8243255],[-3.0370352,53.8206355],[-3.0370927,53.8167082],[-3.0310968,53.815974],[-3.0193792,53.8205001],[-3.0089271,53.8173024],[-3.0067192,53.8224418],[-2.9993183,53.8170593],[-2.9945034,53.8176422],[-3.0106578,53.826179],[-3.0107047,53.8270727],[-3.0239008,53.8276596],[-3.0288415,53.8232036],[-3.0265436,53.8287968],[-3.0316925,53.8279695]]],"type":"Polygon"},"id":"E02002641","properties":{"code":"E02002641","geography":"MSOA","name":"Blackpool 009"},"type":"Feature"},{"geometry":{"coordinates":[[[-3.0370352,53.8206355],[-3.0388991,53.8231052],[-3.0442018,53.8201239],[-3.0474716,53.8223717],[-3.0549668,53.8189025],[-3.0566215,53.8189682],[-3.056351,53.8123975],[-3.0563087,53.8113683],[-3.0563367,53.8110167],[-3.0523126,53.8109927],[-3.045815,53.807877],[-3.0451855,53.809109],[-3.0477483,53.8124804],[-3.0370927,53.8167082],[-3.0370352,53.8206355]]],"type":"Polygon"},"id":"E02002642","properties":{"code":"E02002642","geography":"MSOA","name":"Blackpool 010"},"type":"Feature"},{"geometry":{"coordinates":[[[-3.0310968,53.815974],[-3.0370927,53.8167082],[-3.0477483,53.8124804],[-3.0451855,53.809109],[-3.036131,53.8050518],[-3.0310968,53.815974]]],"type":"Polygon"},"id":"E02002643","properties":{"code":"E02002643","geography":"MSOA","name":"Blackpool 011"},"type":"Feature"},{"geometry":{"coordinates":[[[-2.9993183,53.8170593],[-3.0067192,53.8224418],[-3.0089271,53.8173024],[-3.0193792,53.8205001],[-3.0310968,53.815974],[-3.036131,53.8050518],[-3.0310548,53.8018277],[-3.0189098,53.8043541],[-3.0103858,53.8047443],[-3.0118739,53.8073389],[-3.0009653,53.8114636],[-3.0032234,53.817437],[-2.9993183,53.8170593]]],"type":"Polygon"},"id":"E02002644","properties":{"code":"E02002644","geography":"MSOA","name":"Blackpool 012"},"type":"Feature"},{"geometry":{"coordinates":[[[-3.045815,53.807877],[-3.0523126,53.8109927],[-3.0563367,53.8110167],[-3.057314,53.7987694],[-3.0573362,53.7984915],[-3.0573283,53.7984343],[-3.0558002,53.7984572],[-3.0557137,53.7934354],[-3.0460068,53.795336],[-3.045815,53.807877]]],"type":"Polygon"},"id":"E02002645","properties":{"code":"E02002645","geography":"MSOA","name":"Blackpool 013"},"type":"Feature"},{"geometry":{"coordinates":[[[-2.9993795,53.7941573],[-2.983361,53.7937892],[-2.9945034,53.8176422],[-2.9993183,53.8170593],[-3.0032234,53.817437],[-3.0009653,53.8114636],[-3.0118739,53.8073389],[-3.0103858,53.8047443],[-3.0189098,53.8043541],[-3.0147084,53.7996863],[-3.0218082,53.7966787],[-3.0169406,53.7930784],[-2.9993795,53.7941573]]],"type":"Polygon"},"id":"E02002646","properties":{"code":"E02002646","geography":"MSOA","name":"Blackpool 014"},"type":"Feature"},{"geometry":{"coordinates":[[[-3.036131,53.8050518],[-3.0451855,53.809109],[-3.045815,53.807877],[-3.0460068,53.795336],[-3.0401346,53.7931095],[-3.0292195,53.7970229],[-3.0310548,53.8018277],[-3.036131,53.8050518]]],"type":"Polygon"},"id":"E02002647","properties":{"code":"E02002647","geography":"MSOA","name":"Blackpool 015"},"type":"Feature"},{"geometry":{"coordinates":[[[-3.0169406,53.7930784],[-3.0218082,53.7966787],[-3.0147084,53.7996863],[-3.0189098,53.8043541],[-3.0310548,53.8018277],[-3.0292195,53.7970229],[-3.0401346,53.7931095],[-3.0169406,53.7930784]]],"type":"Polygon"},"id":"E02002648","properties":{"code":"E02002648","geography":"MSOA","name":"Blackpool 016"},"type":"Feature"},{"geometry":{"coordinates":[[[-3.0460068,53.795336],[-3.0557137,53.7934354],[-3.0558002,53.7984572],[-3.0573283,53.7984343],[-3.0569204,53.7954822],[-3.0610137,53.7953148],[-3.056695,53.7950914],[-3.0587831,53.7840519],[-3.0580189,53.7840615],[-3.0575565,53.7797927],[-3.0537826,53.7801289],[-3.0559486,53.7828449],[-3.0513658,53.7811765],[-3.0415116,53.7843592],[-3.0388238,53.7905626],[-3.0401346,53.7931095],[-3.0460068,53.795336]]],"type":"Polygon"},"id":"E02002649","properties":{"code":"E02002649","geography":"MSOA","name":"Blackpool 017"},"type":"Feature"},{"geometry":{"coordinates":[[[-2.9965635,53.7744352],[-3.006127,53.7879205],[-2.9993795,53.7941573],[-3.0169406,53.7930784],[-3.0401346,53.7931095],[-3.0388238,53.7905626],[-3.0341617,53.7904018],[-3.0356817,53.7857017],[-3.028112,53.7887645],[-3.0278521,53.7815684],[-3.0327224,53.7806449],[-3.0288045,53.7731019],[-3.0155543,53.7745518],[-2.9965635,53.7744352]]],"type":"Polygon"},"id":"E02002650","properties":{"code":"E02002650","geography":"MSOA","name":"Blackpool 018"},"type":"Feature"},{"geometry":{"coordinates":[[[-3.0327224,53.7806449],[-3.0278521,53.7815684],[-3.028112,53.7887645],[-3.0356817,53.7857017],[-3.0341617,53.7904018],[-3.0388238,53.7905626],[-3.0415116,53.7843592],[-3.0513658,53.7811765],[-3.0559486,53.7828449],[-3.0537826,53.7801289],[-3.0575565,53.7797927],[-3.0580189,53.7840615],[-3.0587831,53.7840519],[-3.0587903,53.7840136],[-3.05871,53.783705],[-3.0568531,53.7765615],[-3.0568463,53.7765077],[-3.0327224,53.7806449]]],"type":"Polygon"},"id":"E02002651","properties":{"code":"E02002651","geography":"MSOA","name":"Blackpool 019"},"type":"Feature"}],"type":"FeatureCollection"}
