{"features":[{"geometry":{"coordinates":[[[-0.6197334,51.5379246],[-0.6247392,51.537986],[-0.6432324,51.5368071],[-0.6479243,51.5325668],[-0.6522357,51.5301651],[-0.6277061,51.5293497],[-0.6226182,51.5296575],[-0.6177572,51.534625],[-0.6197334,51.5379246]]],"type":"Polygon"},"id":"E02003407","properties":{"code":"E02003407","geography":"MSOA","name":"Slough 001"},"type":"Feature"},{"geometry":{"coordinates":[[[-0.6105545,51.5315001],[-0.6177572,51.534625],[-0.6226182,51.5296575],[-0.6277061,51.5293497],[-0.6337033,51.5198016],[-0.6255227,51.5163376],[-0.6176799,51.5137144],[-0.613886,51.516877],[-0.6152228,51.5201738],[-0.6067119,51.521726],[-0.6105545,51.5315001]]],"type":"Polygon"},"id":"E02003408","properties":{"code":"E02003408","geography":"MSOA","name":"Slough 002"},"type":"Feature"},{"geometry":{"coordinates":[[[-0.6277061,51.5293497],[-0.6522357,51.5301651],[-0.6599013,51.5283357],[-0.6597295,51.5223864],[-0.6601562,51.5204205],[-0.6337033,51.5198016],[-0.6277061,51.5293497]]],"type":"Polygon"},"id":"E02003409","properties":{"code":"E02003409","geography":"MSOA","name":"Slough 003"},"type":"Feature"},{"geometry":{"coordinates":[[[-0.5950398,51.5242733],[-0.5962397,51.5279278],[-0.6105545,51.5315001],[-0.6067119,51.521726],[-0.6152228,51.5201738],[-0.613886,51.516877],[-0.6010783,51.513836],[-0.5950398,51.5242733]]],"type":"Polygon"},"id":"E02003410","properties":{"code":"E02003410","geography":"MSOA","name":"Slough 004"},"type":"Feature"},{"geometry":{"coordinates":[[[-0.5687055,51.511379],[-0.5650377,51.5206759],[-0.5751135,51.5292979],[-0.5679197,51.5302624],[-0.5672201,51.5329875],[-0.5761706,51.5338993],[-0.5810114,51.5230731],[-0.5898441,51.5226725],[-0.5881409,51.5186119],[-0.5790733,51.5195985],[-0.5803177,51.5148344],[-0.5687055,51.511379]]],"type":"Polygon"},"id":"E02003411","properties":{"code":"E02003411","geography":"MSOA","name":"Slough 005"},"type":"Feature"},{"geometry":{"coordinates":[[[-0.6337033,51.5198016],[-0.6601562,51.5204205],[-0.6550239,51.5188061],[-0.6539513,51.5122334],[-0.6388142,51.5122792],[-0.6354766,51.5148596],[-0.6313595,51.5123164],[-0.6255227,51.5163376],[-0.6337033,51.5198016]]],"type":"Polygon"},"id":"E02003412","properties":{"code":"E02003412","geography":"MSOA","name":"Slough 006"},"type":"Feature"},{"geometry":{"coordinates":[[[-0.6176799,51.5137144],[-0.6255227,51.5163376],[-0.6313595,51.5123164],[-0.6354766,51.5148596],[-0.6388142,51.5122792],[-0.6539513,51.5122334],[-0.6593378,51.5049063],[-0.6539427,51.504233],[-0.6535473,51.500447],[-0.6430231,51.5026711],[-0.6422297,51.5006251],[-0.6346012,51.5005142],[-0.6272225,51.504425],[-0.617113,51.5017206],[-0.6124639,51.5125408],[-0.6176799,51.5137144]]],"type":"Polygon"},"id":"E02003414","properties":{"code":"E02003414","geography":"MSOA","name":"Slough 008"},"type":"Feature"},{"geometry":{"coordinates":[[[-0.6010783,51.513836],[-0.613886,51.516877],[-0.6176799,51.5137144],[-0.6124639,51.5125408],[-0.617113,51.5017206],[-0.6077617,51.4972937],[-0.6005791,51.5023189],[-0.595027,51.5106494],[-0.594029,51.5124671],[-0.6010783,51.513836]]],"type":"Polygon"},"id":"E02003415","properties":{"code":"E02003415","geography":"MSOA","name":"Slough 009"},"type":"Feature"},{"geometry":{"coordinates":[[[-0.5280951,51.5097093],[-0.5688054,51.51125],[-0.575451,51.5100392],[-0.5747307,51.5053555],[-0.5740933,51.5051892],[-0.5422041,51.5032788],[-0.5289262,51.5015097],[-0.5280951,51.5097093]]],"type":"Polygon"},"id":"E02003416","properties":{"code":"E02003416","geography":"MSOA","name":"Slough 010"},"type":"Feature"},{"geometry":{"coordinates":[[[-0.5747307,51.5053555],[-0.595027,51.5106494],[-0.6005791,51.5023189],[-0.5910619,51.4973072],[-0.589198,51.499351],[-0.5654862,51.4913978],[-0.5605371,51.4972429],[-0.5740933,51.5051892],[-0.5747307,51.5053555]]],"type":"Polygon"},"id":"E02003417","properties":{"code":"E02003417","geography":"MSOA","name":"Slough 011"},"type":"Feature"},{"geometry":{"coordinates":[[[-0.5422041,51.5032788],[-0.5740933,51.5051892],[-0.5605371,51.4972429],[-0.5525191,51.494864],[-0.5478721,51.4938983],[-0.5422041,51.5032788]]],"type":"Polygon"},"id":"E02003418","properties":{"code":"E02003418","geography":"MSOA","name":"Slough 012"},"type":"Feature"},{"geometry":{"coordinates":[[[-0.5289262,51.5015097],[-0.5422041,51.5032788],[-0.5478721,51.4938983],[-0.5525191,51.494864],[-0.5541745,51.4913038],[-0.5493349,51.4902971],[-0.5322958,51.4933547],[-0.5289262,51.5015097]]],"type":"Polygon"},"id":"E02003419","properties":{"code":"E02003419","geography":"MSOA","name":"Slough 013"},"type":"Feature"},{"geometry":{"coordinates":[[[-0.5097197,51.469176],[-0.4991931,51.4885682],[-0.4900504,51.4947338],[-0.5322958,51.4933547],[-0.5493349,51.4902971],[-0.5343962,51.4868392],[-0.5243049,51.4794964],[-0.5243776,51.4715275],[-0.5156805,51.4682679],[-0.5097197,51.469176]]],"type":"Polygon"},"id":"E02003420","properties":{"code":"E02003420","geography":"MSOA","name":"Slough 014"},"type":"Feature"},{"geometry":{"coordinates":[[[-0.5898441,51.5226725],[-0.5950398,51.5242733],[-0.6010783,51.513836],[-0.594029,51.5124671],[-0.5863876,51.5140186],[-0.5909847,51.5163055],[-0.5881409,51.5186119],[-0.5898441,51.5226725]]],"type":"Polygon"},"id":"E02007068","properties":{"code":"E02007068","geography":"MSOA","name":"Slough 015"},"type":"Feature"},{"geometry":{"coordinates":[[[-0.5687055,51.511379],[-0.5803177,51.5148344],[-0.5790733,51.5195985],[-0.5881409,51.5186119],[-0.5909847,51.5163055],[-0.5863876,51.5140186],[-0.594029,51.5124671],[-0.595027,51.5106494],[-0.5747307,51.5053555],[-0.575451,51.5100392],[-0.5688054,51.51125],[-0.5687055,51.511379]]],"type":"Polygon"},"id":"E02007069","properties":{"code":"E02007069","geography":"MSOA","name":"Slough 016"},"type":"Feature"}],"type":"FeatureCollection"}
