{"features":[{"geometry":{"coordinates":[[[1.2297027,52.9435301],[1.1866829,52.946337],[1.192066,52.9321863],[1.2044101,52.9329939],[1.203879,52.9307924],[1.2199316,52.9295326],[1.2225146,52.9405916],[1.2291903,52.9404057],[1.2297027,52.9435301]]],"type":"Polygon"},"id":"E02005570","properties":{"code":"E02005570","geography":"MSOA","name":"North Norfolk 001"},"type":"Feature"},{"geometry":{"coordinates":[[[[0.8689294,52.9576598],[0.8712378,52.9601858],[0.8658038,52.960451],[0.8572886,52.9576275],[0.8689294,52.9576598]]],[[[0.8825841,52.9697584],[0.8794013,52.9764819],[0.8748362,52.9780437],[0.8718513,52.9790647],[0.8665983,52.9789991],[0.8555006,52.9687697],[0.8630143,52.9677453],[0.8538684,52.9635079],[0.8570531,52.9602202],[0.852983,52.9578452],[0.8633968,52.9619756],[0.8634469,52.9657728],[0.8653285,52.9694952],[0.8727417,52.9676926],[0.8744257,52.9672831],[0.8726684,52.9673298],[0.8678553,52.9674577],[0.8643712,52.9618236],[0.8712963,52.9605455],[0.8723879,52.960344],[0.8719257,52.9590559],[0.8743281,52.9592757],[0.8702114,52.95518],[0.8699002,52.9548704],[0.8687841,52.9569943],[0.8509787,52.9577531],[0.8521929,52.9731403],[0.8434923,52.9746635],[0.8441818,52.9771774],[0.8241048,52.9772759],[0.8113709,52.9762732],[0.812927,52.9741079],[0.8215605,52.976555],[0.8218809,52.9765638],[0.8124387,52.9735395],[0.8123613,52.970261],[0.809108,52.9735634],[0.7813155,52.9766713],[0.7784314,52.9516132],[0.7875155,52.924223],[0.7878617,52.907859],[0.8149801,52.9128033],[0.812362,52.9204045],[0.8320482,52.9256441],[0.849068,52.9349307],[0.8891604,52.9300602],[0.8939906,52.9267242],[0.9067012,52.9251519],[0.9035352,52.9186714],[0.9107344,52.9138811],[0.905426,52.9066966],[0.9159702,52.895543],[0.9102561,52.8855261],[0.9202646,52.8795087],[0.9535494,52.8745898],[0.9640258,52.8763612],[0.9695181,52.8849125],[0.9662875,52.8890883],[0.9697612,52.8978547],[1.000672,52.9012417],[1.0117207,52.8831386],[1.0038468,52.8731018],[1.0156342,52.8711517],[1.0232605,52.8755195],[1.0321492,52.8739295],[1.0326471,52.8704824],[1.0417854,52.8700085],[1.0354413,52.8648084],[1.0560509,52.8628388],[1.0659772,52.8560936],[1.0759887,52.8595297],[1.0870595,52.8592123],[1.0800753,52.8727868],[1.0910678,52.8799508],[1.0880963,52.8819051],[1.0722681,52.8843222],[1.0562392,52.8956488],[1.0628467,52.9030173],[1.0778546,52.8996516],[1.0743488,52.9092459],[1.080865,52.9192479],[1.0749675,52.9178693],[1.0722768,52.9199499],[1.0754262,52.9263465],[1.0707809,52.9266261],[1.0706938,52.9334854],[1.0436172,52.9337885],[1.0455593,52.9442712],[1.0392432,52.952199],[1.0457924,52.9601472],[1.0411079,52.9577366],[1.02669,52.9620491],[1.0271212,52.9646362],[1.0254845,52.9645123],[1.0256549,52.9655496],[1.0258439,52.9660113],[1.0185792,52.9640783],[1.0180679,52.9607172],[1.016404,52.9628279],[1.0159203,52.9591612],[1.0144745,52.9634991],[0.9987786,52.9642935],[0.9877595,52.9639223],[0.9903393,52.9604528],[0.9982259,52.9606415],[0.997827,52.9581481],[1.0068884,52.956044],[1.0070526,52.9559005],[0.9981837,52.9565342],[0.9963383,52.9588439],[0.9920437,52.9576842],[0.9966773,52.9566418],[0.9826845,52.95764],[0.9827269,52.9612827],[0.9790658,52.9603656],[0.9839706,52.9637712],[0.9765025,52.9637404],[0.9693187,52.9637103],[0.9609481,52.9572765],[0.9577205,52.9574846],[0.9620651,52.9593259],[0.9606009,52.9599457],[0.963348,52.9601185],[0.952163,52.9634905],[0.94584,52.9636978],[0.9461828,52.9590375],[0.9487433,52.9591989],[0.9459913,52.9588723],[0.9448577,52.9638382],[0.9366368,52.9603852],[0.9357703,52.9627691],[0.9196845,52.9656196],[0.9156541,52.9634282],[0.9181445,52.9623081],[0.9175539,52.9624335],[0.9117714,52.9633158],[0.9075912,52.9584624],[0.907867,52.9623485],[0.8975575,52.9594207],[0.8932482,52.9610056],[0.9038132,52.9619702],[0.8973886,52.9694945],[0.8834978,52.9649371],[0.88195,52.9654527],[0.8833076,52.9651224],[0.892427,52.9688034],[0.8825841,52.9697584]]],[[[0.9773839,52.9798342],[0.9657799,52.9776229],[0.9581698,52.9714748],[0.9582913,52.9691543],[0.9736954,52.9787307],[0.9681671,52.9730032],[0.9702478,52.9705448],[0.9715302,52.9752086],[0.9770968,52.9723808],[0.9788813,52.9714742],[0.9773642,52.9740212],[0.9884481,52.9772436],[0.9817764,52.9706651],[0.9947894,52.9765314],[1.0272337,52.9688247],[1.0278042,52.9687326],[1.0281241,52.9706509],[0.9773839,52.9798342]]]],"type":"MultiPolygon"},"id":"E02005571","properties":{"code":"E02005571","geography":"MSOA","name":"North Norfolk 002"},"type":"Feature"},{"geometry":{"coordinates":[[[1.3216961,52.9258286],[1.3215395,52.9258709],[1.3065143,52.930963],[1.2834125,52.9357322],[1.2829058,52.925206],[1.2761888,52.9211451],[1.2701306,52.9223634],[1.2730292,52.9196252],[1.2793866,52.9205],[1.2919562,52.9150843],[1.3035553,52.9156561],[1.3213973,52.9196782],[1.3216961,52.9258286]]],"type":"Polygon"},"id":"E02005572","properties":{"code":"E02005572","geography":"MSOA","name":"North Norfolk 003"},"type":"Feature"},{"geometry":{"coordinates":[[[1.1649819,52.9477412],[1.1353447,52.9507552],[1.1234725,52.9517795],[1.1216064,52.9521497],[1.1150485,52.9528148],[1.0659021,52.962771],[1.0357122,52.9691525],[1.0281241,52.9706509],[1.0278042,52.9687326],[1.0463756,52.9657319],[1.0448428,52.9622025],[1.0434213,52.9658688],[1.0271212,52.9646362],[1.02669,52.9620491],[1.0411079,52.9577366],[1.0457924,52.9601472],[1.0392432,52.952199],[1.0455593,52.9442712],[1.0436172,52.9337885],[1.0706938,52.9334854],[1.0707809,52.9266261],[1.0754262,52.9263465],[1.0722768,52.9199499],[1.0749675,52.9178693],[1.080865,52.9192479],[1.0743488,52.9092459],[1.0778546,52.8996516],[1.0628467,52.9030173],[1.0562392,52.8956488],[1.0722681,52.8843222],[1.0880963,52.8819051],[1.0867137,52.8869628],[1.1033904,52.8904729],[1.1101413,52.8978862],[1.1300674,52.9065651],[1.1293099,52.9139654],[1.1328957,52.9134184],[1.1343122,52.9174235],[1.131007,52.9185152],[1.1373875,52.9237524],[1.1671447,52.9228903],[1.1649819,52.9477412]]],"type":"Polygon"},"id":"E02005573","properties":{"code":"E02005573","geography":"MSOA","name":"North Norfolk 004"},"type":"Feature"},{"geometry":{"coordinates":[[[1.2834125,52.9357322],[1.2833198,52.9357513],[1.2723998,52.937509],[1.2420284,52.9423916],[1.2403911,52.9271487],[1.2253302,52.92508],[1.2198183,52.9105348],[1.2412505,52.9023264],[1.2408345,52.8973409],[1.246675,52.894318],[1.2513777,52.8961768],[1.2680186,52.8925962],[1.2789537,52.8937155],[1.2802807,52.8801467],[1.2923096,52.8738051],[1.2904823,52.8701261],[1.2996979,52.8664805],[1.2992187,52.8635189],[1.3172625,52.8642965],[1.3174583,52.8576393],[1.329493,52.8583292],[1.33146,52.8551263],[1.3313586,52.8615567],[1.3477619,52.860317],[1.3519423,52.8666392],[1.3638597,52.8610766],[1.3687282,52.8650541],[1.3785497,52.8826641],[1.3712022,52.8902715],[1.3894715,52.8938128],[1.4063066,52.8907587],[1.4064743,52.8938478],[1.3804764,52.9046045],[1.3675073,52.9096409],[1.3351924,52.922179],[1.3216961,52.9258286],[1.3213973,52.9196782],[1.3035553,52.9156561],[1.2919562,52.9150843],[1.2793866,52.9205],[1.2730292,52.9196252],[1.2701306,52.9223634],[1.2761888,52.9211451],[1.2829058,52.925206],[1.2834125,52.9357322]]],"type":"Polygon"},"id":"E02005574","properties":{"code":"E02005574","geography":"MSOA","name":"North Norfolk 005"},"type":"Feature"},{"geometry":{"coordinates":[[[1.1866829,52.946337],[1.1865108,52.9463482],[1.1649819,52.9477412],[1.1671447,52.9228903],[1.1373875,52.9237524],[1.131007,52.9185152],[1.1343122,52.9174235],[1.1328957,52.9134184],[1.1293099,52.9139654],[1.1300674,52.9065651],[1.1101413,52.8978862],[1.1033904,52.8904729],[1.0867137,52.8869628],[1.0880963,52.8819051],[1.0910678,52.8799508],[1.0800753,52.8727868],[1.0870595,52.8592123],[1.1138886,52.852475],[1.1110307,52.8419747],[1.1157556,52.8364438],[1.1017691,52.8293175],[1.1283153,52.8145659],[1.1495806,52.8120785],[1.14826,52.8188825],[1.1436993,52.8206197],[1.1458374,52.8241558],[1.1564338,52.8216737],[1.1658179,52.8257788],[1.1671928,52.8298601],[1.1734366,52.83057],[1.1808364,52.8271361],[1.1810774,52.8203678],[1.1896552,52.819695],[1.1933677,52.8152907],[1.2019491,52.8156447],[1.2067363,52.8270304],[1.2143682,52.8296861],[1.2375801,52.8232516],[1.2382019,52.8203981],[1.2510623,52.820495],[1.2537064,52.8136019],[1.2619393,52.8126444],[1.2674502,52.8190292],[1.274105,52.8187926],[1.2888616,52.8046405],[1.2992835,52.8072559],[1.2996139,52.804715],[1.3065715,52.8073297],[1.3088642,52.8052397],[1.3164237,52.809992],[1.3073992,52.8206675],[1.3072701,52.8344977],[1.301443,52.8453173],[1.3275916,52.8504574],[1.33146,52.8551263],[1.329493,52.8583292],[1.3174583,52.8576393],[1.3172625,52.8642965],[1.2992187,52.8635189],[1.2996979,52.8664805],[1.2904823,52.8701261],[1.2923096,52.8738051],[1.2802807,52.8801467],[1.2789537,52.8937155],[1.2680186,52.8925962],[1.2513777,52.8961768],[1.246675,52.894318],[1.2408345,52.8973409],[1.2412505,52.9023264],[1.2198183,52.9105348],[1.2253302,52.92508],[1.2403911,52.9271487],[1.2420284,52.9423916],[1.2419694,52.9424011],[1.2297027,52.9435301],[1.2291903,52.9404057],[1.2225146,52.9405916],[1.2199316,52.9295326],[1.203879,52.9307924],[1.2044101,52.9329939],[1.192066,52.9321863],[1.1866829,52.946337]]],"type":"Polygon"},"id":"E02005575","properties":{"code":"E02005575","geography":"MSOA","name":"North Norfolk 006"},"type":"Feature"},{"geometry":{"coordinates":[[[1.4973911,52.8445212],[1.497292,52.8445713],[1.444455,52.8737913],[1.4287918,52.8824415],[1.4123687,52.8913205],[1.4064743,52.8938478],[1.4063066,52.8907587],[1.3894715,52.8938128],[1.3712022,52.8902715],[1.3785497,52.8826641],[1.3687282,52.8650541],[1.3638597,52.8610766],[1.3519423,52.8666392],[1.3477619,52.860317],[1.3313586,52.8615567],[1.33146,52.8551263],[1.3275916,52.8504574],[1.3264102,52.8445917],[1.3340976,52.8403729],[1.3364658,52.8301624],[1.3553989,52.8339606],[1.3625145,52.8414809],[1.3743593,52.8389627],[1.3833571,52.8403477],[1.3929302,52.8349425],[1.4024322,52.8337754],[1.4179412,52.8193287],[1.4226431,52.8194988],[1.4437231,52.8291603],[1.4507816,52.8395076],[1.46323,52.8413176],[1.4874188,52.8373926],[1.4973911,52.8445212]]],"type":"Polygon"},"id":"E02005576","properties":{"code":"E02005576","geography":"MSOA","name":"North Norfolk 007"},"type":"Feature"},{"geometry":{"coordinates":[[[1.0870595,52.8592123],[1.0759887,52.8595297],[1.0659772,52.8560936],[1.0560509,52.8628388],[1.0354413,52.8648084],[1.0417854,52.8700085],[1.0326471,52.8704824],[1.0321492,52.8739295],[1.0232605,52.8755195],[1.0156342,52.8711517],[1.0038468,52.8731018],[1.0117207,52.8831386],[1.000672,52.9012417],[0.9697612,52.8978547],[0.9662875,52.8890883],[0.9695181,52.8849125],[0.9640258,52.8763612],[0.9535494,52.8745898],[0.9202646,52.8795087],[0.9247706,52.8779157],[0.9220298,52.8724422],[0.9000888,52.870182],[0.8834641,52.8549026],[0.8913647,52.8491226],[0.8809747,52.8476227],[0.8884461,52.8353548],[0.8780999,52.824183],[0.8999819,52.8199246],[0.9082623,52.8221639],[0.9150533,52.8304424],[0.926372,52.8291897],[0.962359,52.8157148],[0.9676432,52.8077125],[0.9757413,52.8069941],[0.9806856,52.8013682],[0.993576,52.7983349],[1.0044066,52.8022688],[1.0222604,52.8000056],[1.0207395,52.8065301],[1.0304617,52.8076147],[1.0352427,52.811802],[1.0733679,52.8168588],[1.0878818,52.8158212],[1.1017691,52.8293175],[1.1157556,52.8364438],[1.1110307,52.8419747],[1.1138886,52.852475],[1.0870595,52.8592123]]],"type":"Polygon"},"id":"E02005577","properties":{"code":"E02005577","geography":"MSOA","name":"North Norfolk 008"},"type":"Feature"},{"geometry":{"coordinates":[[[0.9202646,52.8795087],[0.9102561,52.8855261],[0.9159702,52.895543],[0.905426,52.9066966],[0.9107344,52.9138811],[0.9035352,52.9186714],[0.9067012,52.9251519],[0.8939906,52.9267242],[0.8891604,52.9300602],[0.849068,52.9349307],[0.8320482,52.9256441],[0.812362,52.9204045],[0.8149801,52.9128033],[0.7878617,52.907859],[0.7898571,52.8998253],[0.8169751,52.900042],[0.8152171,52.8969957],[0.8215533,52.892832],[0.8068805,52.8794126],[0.7971617,52.8852433],[0.7948557,52.8834849],[0.7977718,52.864428],[0.7911267,52.8655306],[0.7909537,52.8598578],[0.7578409,52.8557699],[0.7315067,52.8576342],[0.7277585,52.8553133],[0.7250684,52.842848],[0.7447562,52.8280024],[0.7472748,52.8206422],[0.7563196,52.816414],[0.7466661,52.8152297],[0.7309227,52.8036321],[0.7361673,52.7992673],[0.7079218,52.7884471],[0.717816,52.7823209],[0.7518189,52.7784649],[0.7528624,52.775689],[0.7698309,52.7791499],[0.7802626,52.7693846],[0.7958128,52.769072],[0.8018729,52.770035],[0.8030245,52.7813497],[0.8091013,52.7800274],[0.8115723,52.7864225],[0.8193078,52.7861147],[0.8180567,52.7943643],[0.8320573,52.7988903],[0.8297819,52.8047304],[0.8394257,52.8111012],[0.8530135,52.8071827],[0.8654012,52.8074031],[0.8717212,52.7980795],[0.8885536,52.7915836],[0.9176278,52.803287],[0.9237837,52.8008254],[0.9305109,52.7893331],[0.9384231,52.7879475],[0.9368247,52.7955552],[0.9507649,52.8046759],[0.9665303,52.8030703],[0.9676432,52.8077125],[0.962359,52.8157148],[0.926372,52.8291897],[0.9150533,52.8304424],[0.9082623,52.8221639],[0.8999819,52.8199246],[0.8780999,52.824183],[0.8701006,52.8264974],[0.8456381,52.8253458],[0.838113,52.8337648],[0.8421328,52.8498592],[0.8476894,52.8478886],[0.8598926,52.8573089],[0.8715572,52.8526184],[0.8834641,52.8549026],[0.9000888,52.870182],[0.9220298,52.8724422],[0.9247706,52.8779157],[0.9202646,52.8795087]]],"type":"Polygon"},"id":"E02005578","properties":{"code":"E02005578","geography":"MSOA","name":"North Norfolk 009"},"type":"Feature"},{"geometry":{"coordinates":[[[0.8834641,52.8549026],[0.8715572,52.8526184],[0.8598926,52.8573089],[0.8476894,52.8478886],[0.8421328,52.8498592],[0.838113,52.8337648],[0.8456381,52.8253458],[0.8701006,52.8264974],[0.8780999,52.824183],[0.8884461,52.8353548],[0.8809747,52.8476227],[0.8913647,52.8491226],[0.8834641,52.8549026]]],"type":"Polygon"},"id":"E02005580","properties":{"code":"E02005580","geography":"MSOA","name":"North Norfolk 011"},"type":"Feature"},{"geometry":{"coordinates":[[[1.3553989,52.8339606],[1.3364658,52.8301624],[1.3340976,52.8403729],[1.3264102,52.8445917],[1.3275916,52.8504574],[1.301443,52.8453173],[1.3072701,52.8344977],[1.3073992,52.8206675],[1.3164237,52.809992],[1.3088642,52.8052397],[1.308096,52.8020018],[1.3149196,52.8008616],[1.3083457,52.7956797],[1.3170734,52.7891376],[1.3147896,52.7797286],[1.326574,52.7670529],[1.3375246,52.7686104],[1.345336,52.7554655],[1.3570618,52.7512073],[1.3569846,52.7462439],[1.3876382,52.7399808],[1.3973092,52.7290795],[1.4058785,52.7324877],[1.4377027,52.7481681],[1.4369251,52.7550606],[1.4551742,52.7535529],[1.4946869,52.7627212],[1.4748979,52.771986],[1.4755386,52.775768],[1.48508,52.7798156],[1.4795963,52.7812772],[1.4681825,52.7960003],[1.471386,52.8069637],[1.4858115,52.8145908],[1.4886189,52.8194288],[1.5068935,52.8215249],[1.5107612,52.8184669],[1.5163831,52.818927],[1.5213598,52.801698],[1.509836,52.7940477],[1.5239341,52.7944144],[1.5244588,52.8000957],[1.5368057,52.8009009],[1.5374662,52.8072029],[1.5516033,52.8058971],[1.5633717,52.8111299],[1.5598926,52.8128928],[1.5539498,52.8159035],[1.5444406,52.8199432],[1.5362123,52.8248852],[1.5199059,52.8331368],[1.4973911,52.8445212],[1.4874188,52.8373926],[1.46323,52.8413176],[1.4507816,52.8395076],[1.4437231,52.8291603],[1.4226431,52.8194988],[1.4315267,52.8126192],[1.4232462,52.8046714],[1.4012856,52.8042624],[1.378698,52.803923],[1.3687012,52.7997152],[1.3594556,52.7996996],[1.3411351,52.8051106],[1.3468992,52.8127905],[1.3541414,52.8133303],[1.3553989,52.8339606]]],"type":"Polygon"},"id":"E02005581","properties":{"code":"E02005581","geography":"MSOA","name":"North Norfolk 012"},"type":"Feature"},{"geometry":{"coordinates":[[[1.5633717,52.8111299],[1.5516033,52.8058971],[1.5374662,52.8072029],[1.5368057,52.8009009],[1.5244588,52.8000957],[1.5239341,52.7944144],[1.509836,52.7940477],[1.5213598,52.801698],[1.5163831,52.818927],[1.5107612,52.8184669],[1.5068935,52.8215249],[1.4886189,52.8194288],[1.4858115,52.8145908],[1.471386,52.8069637],[1.4681825,52.7960003],[1.4795963,52.7812772],[1.48508,52.7798156],[1.4755386,52.775768],[1.4748979,52.771986],[1.4946869,52.7627212],[1.4988396,52.7506889],[1.5162055,52.7483488],[1.5174412,52.7459692],[1.5349063,52.7454224],[1.5381876,52.7486039],[1.5492163,52.7494135],[1.5538297,52.7588854],[1.5492618,52.7625103],[1.5510861,52.7730742],[1.5592639,52.7692464],[1.5604236,52.7722445],[1.5639799,52.7708604],[1.5807138,52.7756511],[1.5867354,52.7699147],[1.5950837,52.7700305],[1.6183578,52.7529103],[1.6152961,52.7484318],[1.6210045,52.7388441],[1.6169093,52.7352941],[1.626728,52.7313619],[1.6266253,52.7249304],[1.6371272,52.7310141],[1.6458123,52.7366008],[1.6751281,52.7426198],[1.6051126,52.7893575],[1.5920469,52.7963998],[1.5873527,52.8011908],[1.5866909,52.8016315],[1.5633717,52.8111299]]],"type":"Polygon"},"id":"E02005582","properties":{"code":"E02005582","geography":"MSOA","name":"North Norfolk 013"},"type":"Feature"},{"geometry":{"coordinates":[[[1.6266253,52.7249304],[1.626728,52.7313619],[1.6169093,52.7352941],[1.6210045,52.7388441],[1.6152961,52.7484318],[1.6183578,52.7529103],[1.5950837,52.7700305],[1.5867354,52.7699147],[1.5807138,52.7756511],[1.5639799,52.7708604],[1.5604236,52.7722445],[1.5592639,52.7692464],[1.5510861,52.7730742],[1.5492618,52.7625103],[1.5538297,52.7588854],[1.5492163,52.7494135],[1.5381876,52.7486039],[1.5349063,52.7454224],[1.5174412,52.7459692],[1.5162055,52.7483488],[1.4988396,52.7506889],[1.4946869,52.7627212],[1.4551742,52.7535529],[1.4369251,52.7550606],[1.4377027,52.7481681],[1.4058785,52.7324877],[1.4047997,52.7288178],[1.3997256,52.7280919],[1.4096806,52.7256375],[1.4024218,52.7156741],[1.4086166,52.7090239],[1.4239892,52.7033427],[1.4162596,52.6938975],[1.4339259,52.6894805],[1.4421612,52.695037],[1.4414057,52.7014239],[1.4564388,52.7027329],[1.4609349,52.7056379],[1.4739429,52.6892809],[1.4880876,52.6932561],[1.4895187,52.6887456],[1.4948693,52.687146],[1.5015474,52.6903116],[1.5119215,52.6900081],[1.5091405,52.6845563],[1.5122226,52.6816085],[1.5189201,52.6869393],[1.527212,52.6819347],[1.5360711,52.6834774],[1.5435137,52.679598],[1.5491909,52.6815153],[1.5446105,52.6939854],[1.5495156,52.6987538],[1.5595219,52.7019783],[1.5712635,52.7016976],[1.5856942,52.7115898],[1.6192904,52.717559],[1.6266253,52.7249304]]],"type":"Polygon"},"id":"E02005583","properties":{"code":"E02005583","geography":"MSOA","name":"North Norfolk 014"},"type":"Feature"},{"geometry":{"coordinates":[[[1.4226431,52.8194988],[1.4179412,52.8193287],[1.4024322,52.8337754],[1.3929302,52.8349425],[1.3833571,52.8403477],[1.3743593,52.8389627],[1.3803926,52.8381335],[1.3792715,52.8350427],[1.385629,52.830934],[1.3908436,52.8313994],[1.3851441,52.8223757],[1.3922709,52.80955],[1.4012856,52.8042624],[1.4232462,52.8046714],[1.4315267,52.8126192],[1.4226431,52.8194988]]],"type":"Polygon"},"id":"E02007032","properties":{"code":"E02007032","geography":"MSOA","name":"North Norfolk 015"},"type":"Feature"},{"geometry":{"coordinates":[[[1.3743593,52.8389627],[1.3625145,52.8414809],[1.3553989,52.8339606],[1.3541414,52.8133303],[1.3468992,52.8127905],[1.3411351,52.8051106],[1.3594556,52.7996996],[1.3687012,52.7997152],[1.378698,52.803923],[1.4012856,52.8042624],[1.3922709,52.80955],[1.3851441,52.8223757],[1.3908436,52.8313994],[1.385629,52.830934],[1.3792715,52.8350427],[1.3803926,52.8381335],[1.3743593,52.8389627]]],"type":"Polygon"},"id":"E02007033","properties":{"code":"E02007033","geography":"MSOA","name":"North Norfolk 016"},"type":"Feature"}],"type":"FeatureCollection"}
