{"features":[{"geometry":{"coordinates":[[[-0.2728629,51.2932954],[-0.28732,51.3207899],[-0.296771,51.325785],[-0.3067412,51.3203484],[-0.3020678,51.3181814],[-0.3052054,51.3162248],[-0.2998854,51.3096686],[-0.3051327,51.3073052],[-0.3031425,51.305677],[-0.3112258,51.3000538],[-0.304114,51.3016046],[-0.2994961,51.2932322],[-0.2815708,51.290743],[-0.2728629,51.2932954]]],"type":"Polygon"},"id":"E02006362","properties":{"code":"E02006362","geography":"MSOA","name":"Mole Valley 001"},"type":"Feature"},{"geometry":{"coordinates":[[[-0.296771,51.325785],[-0.3062165,51.3350853],[-0.3240288,51.3266958],[-0.3276873,51.3259387],[-0.3306357,51.3159756],[-0.3185179,51.301362],[-0.3051327,51.3073052],[-0.2998854,51.3096686],[-0.3052054,51.3162248],[-0.3020678,51.3181814],[-0.3067412,51.3203484],[-0.296771,51.325785]]],"type":"Polygon"},"id":"E02006363","properties":{"code":"E02006363","geography":"MSOA","name":"Mole Valley 002"},"type":"Feature"},{"geometry":{"coordinates":[[[-0.3240288,51.3266958],[-0.3306791,51.3290107],[-0.3525222,51.3191299],[-0.360339,51.3118046],[-0.3545262,51.3108867],[-0.3605897,51.3080295],[-0.354754,51.3013471],[-0.3461899,51.3008721],[-0.3359156,51.292707],[-0.3185179,51.301362],[-0.3306357,51.3159756],[-0.3276873,51.3259387],[-0.3240288,51.3266958]]],"type":"Polygon"},"id":"E02006364","properties":{"code":"E02006364","geography":"MSOA","name":"Mole Valley 003"},"type":"Feature"},{"geometry":{"coordinates":[[[-0.2815708,51.290743],[-0.2994961,51.2932322],[-0.304114,51.3016046],[-0.3112258,51.3000538],[-0.3031425,51.305677],[-0.3051327,51.3073052],[-0.3185179,51.301362],[-0.3359156,51.292707],[-0.33314,51.2793259],[-0.3296179,51.2761059],[-0.3090624,51.2733774],[-0.301153,51.2789688],[-0.2815708,51.290743]]],"type":"Polygon"},"id":"E02006365","properties":{"code":"E02006365","geography":"MSOA","name":"Mole Valley 004"},"type":"Feature"},{"geometry":{"coordinates":[[[-0.360339,51.3118046],[-0.3673376,51.3148721],[-0.3734712,51.3092738],[-0.380448,51.31357],[-0.3875042,51.3097331],[-0.3969495,51.3128187],[-0.3920242,51.3084086],[-0.394101,51.2986665],[-0.373703,51.2994324],[-0.376211,51.2918096],[-0.3713359,51.2938417],[-0.3733943,51.2912355],[-0.3669633,51.2902359],[-0.3631942,51.2847896],[-0.3582225,51.2866407],[-0.3552087,51.2814483],[-0.361054,51.2792093],[-0.3587045,51.2723529],[-0.3490646,51.2634323],[-0.3445356,51.2751156],[-0.33314,51.2793259],[-0.3359156,51.292707],[-0.3461899,51.3008721],[-0.354754,51.3013471],[-0.3605897,51.3080295],[-0.3545262,51.3108867],[-0.360339,51.3118046]]],"type":"Polygon"},"id":"E02006366","properties":{"code":"E02006366","geography":"MSOA","name":"Mole Valley 005"},"type":"Feature"},{"geometry":{"coordinates":[[[-0.3631942,51.2847896],[-0.3669633,51.2902359],[-0.3733943,51.2912355],[-0.3713359,51.2938417],[-0.376211,51.2918096],[-0.373703,51.2994324],[-0.394101,51.2986665],[-0.394765,51.2979501],[-0.3973997,51.2796442],[-0.3920712,51.2752158],[-0.3631942,51.2847896]]],"type":"Polygon"},"id":"E02006367","properties":{"code":"E02006367","geography":"MSOA","name":"Mole Valley 006"},"type":"Feature"},{"geometry":{"coordinates":[[[-0.3490646,51.2634323],[-0.3587045,51.2723529],[-0.361054,51.2792093],[-0.3552087,51.2814483],[-0.3582225,51.2866407],[-0.3631942,51.2847896],[-0.3920712,51.2752158],[-0.3871652,51.265084],[-0.3906606,51.2626034],[-0.3892975,51.2559308],[-0.3623389,51.2541199],[-0.3563809,51.256387],[-0.357761,51.2630269],[-0.3475927,51.2615223],[-0.3490646,51.2634323]]],"type":"Polygon"},"id":"E02006368","properties":{"code":"E02006368","geography":"MSOA","name":"Mole Valley 007"},"type":"Feature"},{"geometry":{"coordinates":[[[-0.2722582,51.2923331],[-0.2728629,51.2932954],[-0.2815708,51.290743],[-0.301153,51.2789688],[-0.3014922,51.274168],[-0.2912762,51.2631445],[-0.3217656,51.2487872],[-0.3141181,51.2406792],[-0.3068799,51.2419357],[-0.3045982,51.2384995],[-0.3090295,51.2378778],[-0.3117292,51.2358112],[-0.302016,51.2192536],[-0.2966555,51.2174526],[-0.3010987,51.2159281],[-0.2921122,51.2002966],[-0.2876783,51.2056561],[-0.2666487,51.2149194],[-0.2547212,51.2168535],[-0.2465728,51.2233667],[-0.249932,51.2310727],[-0.2448814,51.2363126],[-0.230716,51.2401073],[-0.2263631,51.2488715],[-0.2315698,51.2506813],[-0.2267692,51.2559028],[-0.2332603,51.258464],[-0.2514966,51.2606533],[-0.2608588,51.2578314],[-0.2657684,51.261389],[-0.2661918,51.2786324],[-0.2722582,51.2923331]]],"type":"Polygon"},"id":"E02006369","properties":{"code":"E02006369","geography":"MSOA","name":"Mole Valley 008"},"type":"Feature"},{"geometry":{"coordinates":[[[-0.3090295,51.2378778],[-0.3045982,51.2384995],[-0.3068799,51.2419357],[-0.3141181,51.2406792],[-0.3217656,51.2487872],[-0.2912762,51.2631445],[-0.3014922,51.274168],[-0.301153,51.2789688],[-0.3090624,51.2733774],[-0.3296179,51.2761059],[-0.33314,51.2793259],[-0.3445356,51.2751156],[-0.3490646,51.2634323],[-0.3475927,51.2615223],[-0.357761,51.2630269],[-0.3563809,51.256387],[-0.3493402,51.2562619],[-0.3460587,51.2537822],[-0.3505463,51.251279],[-0.3400781,51.2500114],[-0.3356999,51.2428091],[-0.3357257,51.2397691],[-0.3509357,51.2385041],[-0.3515288,51.2267454],[-0.3090295,51.2378778]]],"type":"Polygon"},"id":"E02006370","properties":{"code":"E02006370","geography":"MSOA","name":"Mole Valley 009"},"type":"Feature"},{"geometry":{"coordinates":[[[-0.302016,51.2192536],[-0.3117292,51.2358112],[-0.3090295,51.2378778],[-0.3515288,51.2267454],[-0.3486687,51.2231562],[-0.3391499,51.2213187],[-0.3309078,51.2166377],[-0.3301248,51.2209386],[-0.3211622,51.2200648],[-0.319881,51.2248459],[-0.3121828,51.2244294],[-0.302016,51.2192536]]],"type":"Polygon"},"id":"E02006371","properties":{"code":"E02006371","geography":"MSOA","name":"Mole Valley 010"},"type":"Feature"},{"geometry":{"coordinates":[[[-0.302016,51.2192536],[-0.3121828,51.2244294],[-0.319881,51.2248459],[-0.3211622,51.2200648],[-0.3301248,51.2209386],[-0.3309078,51.2166377],[-0.3391499,51.2213187],[-0.3485887,51.2050974],[-0.3449102,51.1954969],[-0.3497147,51.1854174],[-0.3458256,51.1806871],[-0.3401091,51.1799806],[-0.3300588,51.1815216],[-0.3303977,51.1883752],[-0.3246,51.1857474],[-0.2967994,51.1921608],[-0.2921122,51.2002966],[-0.3010987,51.2159281],[-0.2966555,51.2174526],[-0.302016,51.2192536]]],"type":"Polygon"},"id":"E02006372","properties":{"code":"E02006372","geography":"MSOA","name":"Mole Valley 011"},"type":"Feature"},{"geometry":{"coordinates":[[[-0.3515288,51.2267454],[-0.3509357,51.2385041],[-0.3357257,51.2397691],[-0.3356999,51.2428091],[-0.3400781,51.2500114],[-0.3505463,51.251279],[-0.3460587,51.2537822],[-0.3493402,51.2562619],[-0.3563809,51.256387],[-0.3623389,51.2541199],[-0.3892975,51.2559308],[-0.3943715,51.2553214],[-0.3990165,51.2370422],[-0.4109772,51.2351624],[-0.4251764,51.2410904],[-0.434671,51.2399085],[-0.4257001,51.230326],[-0.4384604,51.2096827],[-0.4189767,51.201798],[-0.4099025,51.1927027],[-0.4083612,51.1757112],[-0.4185892,51.1731854],[-0.4132615,51.126333],[-0.4179057,51.1216747],[-0.419229,51.1052085],[-0.400244,51.1084237],[-0.3915505,51.1165149],[-0.3846568,51.1147452],[-0.3580596,51.1210341],[-0.3505219,51.1182768],[-0.3264534,51.1258189],[-0.3193593,51.1246408],[-0.2968537,51.1256829],[-0.2977446,51.1300223],[-0.301999,51.1292857],[-0.2999203,51.1365018],[-0.2962162,51.1406783],[-0.2896539,51.1403487],[-0.2925098,51.1483386],[-0.2866167,51.1537695],[-0.2986141,51.1527141],[-0.2941964,51.1572613],[-0.3085186,51.165748],[-0.31847,51.1623062],[-0.3250919,51.165339],[-0.3321615,51.1613879],[-0.3285545,51.1757141],[-0.3318809,51.1770187],[-0.335767,51.1715202],[-0.3411842,51.1759118],[-0.3401091,51.1799806],[-0.3458256,51.1806871],[-0.3497147,51.1854174],[-0.3449102,51.1954969],[-0.3485887,51.2050974],[-0.3391499,51.2213187],[-0.3486687,51.2231562],[-0.3515288,51.2267454]]],"type":"Polygon"},"id":"E02006373","properties":{"code":"E02006373","geography":"MSOA","name":"Mole Valley 012"},"type":"Feature"},{"geometry":{"coordinates":[[[-0.2341731,51.217692],[-0.2354036,51.2223607],[-0.2465728,51.2233667],[-0.2547212,51.2168535],[-0.2666487,51.2149194],[-0.2876783,51.2056561],[-0.2921122,51.2002966],[-0.2967994,51.1921608],[-0.3246,51.1857474],[-0.3303977,51.1883752],[-0.3300588,51.1815216],[-0.3401091,51.1799806],[-0.3411842,51.1759118],[-0.335767,51.1715202],[-0.3318809,51.1770187],[-0.3285545,51.1757141],[-0.3321615,51.1613879],[-0.3250919,51.165339],[-0.31847,51.1623062],[-0.3085186,51.165748],[-0.2941964,51.1572613],[-0.2986141,51.1527141],[-0.2866167,51.1537695],[-0.2925098,51.1483386],[-0.2896539,51.1403487],[-0.2962162,51.1406783],[-0.2999203,51.1365018],[-0.301999,51.1292857],[-0.2977446,51.1300223],[-0.2968537,51.1256829],[-0.2864162,51.1304964],[-0.2732722,51.1308596],[-0.2546403,51.1390543],[-0.2551948,51.1441445],[-0.2142619,51.1484683],[-0.2121696,51.1554588],[-0.2041373,51.1557153],[-0.195949,51.1623062],[-0.1869489,51.1616571],[-0.1853256,51.1648234],[-0.1767334,51.1668536],[-0.1770762,51.1679108],[-0.1905842,51.1814658],[-0.1996541,51.1811088],[-0.1969515,51.1753634],[-0.2097279,51.172313],[-0.2200051,51.1762702],[-0.2237885,51.1749346],[-0.2372671,51.1844768],[-0.2430857,51.1828366],[-0.2429267,51.1895106],[-0.2321574,51.1867207],[-0.2271913,51.1915826],[-0.2128469,51.1933221],[-0.2185763,51.201852],[-0.2236111,51.1959609],[-0.2230778,51.2038728],[-0.2283649,51.206989],[-0.2326974,51.2043189],[-0.2347842,51.2060886],[-0.2250961,51.2123243],[-0.2330477,51.2134249],[-0.2341731,51.217692]]],"type":"Polygon"},"id":"E02006374","properties":{"code":"E02006374","geography":"MSOA","name":"Mole Valley 013"},"type":"Feature"}],"type":"FeatureCollection"}
