{"features":[{"geometry":{"coordinates":[[[-2.2424207,53.7490422],[-2.2516908,53.7550297],[-2.2574823,53.7498534],[-2.2667972,53.7480823],[-2.2629085,53.7460986],[-2.2693996,53.742223],[-2.2853664,53.7437729],[-2.2952718,53.7519758],[-2.3027425,53.7484644],[-2.3105441,53.736931],[-2.3053899,53.7074357],[-2.289894,53.7061721],[-2.2943741,53.7085779],[-2.2902113,53.7128936],[-2.2816252,53.7053883],[-2.263629,53.7153474],[-2.2632267,53.7055081],[-2.2528433,53.7067055],[-2.249587,53.7133567],[-2.2447756,53.7083406],[-2.2494556,53.7050948],[-2.242129,53.7013863],[-2.2330399,53.7021647],[-2.2335693,53.7088653],[-2.223024,53.7108143],[-2.2233734,53.7221574],[-2.2142575,53.7266117],[-2.2142646,53.7372504],[-2.2326539,53.7376206],[-2.2424207,53.7490422]]],"type":"Polygon"},"id":"E02005278","properties":{"code":"E02005278","geography":"MSOA","name":"Rossendale 001"},"type":"Feature"},{"geometry":{"coordinates":[[[-2.3053899,53.7074357],[-2.3105441,53.736931],[-2.3027425,53.7484644],[-2.3141095,53.7470241],[-2.3261486,53.7473208],[-2.3257724,53.7343384],[-2.3381667,53.7296784],[-2.3441855,53.7224343],[-2.3552859,53.7221552],[-2.3608014,53.7164826],[-2.4045918,53.7064896],[-2.3329845,53.6992542],[-2.3238837,53.6918929],[-2.3187474,53.6978648],[-2.3130259,53.6955316],[-2.309803,53.6976724],[-2.3127042,53.7064787],[-2.3053899,53.7074357]]],"type":"Polygon"},"id":"E02005279","properties":{"code":"E02005279","geography":"MSOA","name":"Rossendale 002"},"type":"Feature"},{"geometry":{"coordinates":[[[-2.1732927,53.722998],[-2.1854411,53.7308101],[-2.2032967,53.7323739],[-2.2142646,53.7372504],[-2.2142575,53.7266117],[-2.2233734,53.7221574],[-2.223024,53.7108143],[-2.2136577,53.6996961],[-2.2044407,53.701712],[-2.2030732,53.6961394],[-2.1966603,53.6961673],[-2.2016971,53.6898739],[-2.1973337,53.6826119],[-2.1862591,53.682989],[-2.1834176,53.6887576],[-2.17441,53.6892777],[-2.1808879,53.6936189],[-2.1715964,53.6990606],[-2.1625826,53.6992064],[-2.1625322,53.707237],[-2.1732927,53.722998]]],"type":"Polygon"},"id":"E02005280","properties":{"code":"E02005280","geography":"MSOA","name":"Rossendale 003"},"type":"Feature"},{"geometry":{"coordinates":[[[-2.2632267,53.7055081],[-2.263629,53.7153474],[-2.2816252,53.7053883],[-2.2902113,53.7128936],[-2.2943741,53.7085779],[-2.289894,53.7061721],[-2.3053899,53.7074357],[-2.3127042,53.7064787],[-2.309803,53.6976724],[-2.3130259,53.6955316],[-2.3063869,53.6925208],[-2.3029496,53.6964302],[-2.2902975,53.6979961],[-2.2955737,53.6937756],[-2.2821152,53.6922923],[-2.2824006,53.6834044],[-2.2666532,53.6827961],[-2.2612743,53.6887845],[-2.2671495,53.6969407],[-2.2616235,53.700826],[-2.2632267,53.7055081]]],"type":"Polygon"},"id":"E02005281","properties":{"code":"E02005281","geography":"MSOA","name":"Rossendale 004"},"type":"Feature"},{"geometry":{"coordinates":[[[-2.3238837,53.6918929],[-2.3329845,53.6992542],[-2.4045918,53.7064896],[-2.4109908,53.7051214],[-2.3983499,53.6915442],[-2.3744255,53.6872389],[-2.3759365,53.6756256],[-2.371238,53.6670647],[-2.3555717,53.6644911],[-2.3533401,53.6584669],[-2.3253294,53.6554398],[-2.3235235,53.6634914],[-2.3189055,53.6649595],[-2.3245339,53.6720376],[-2.3198898,53.6743344],[-2.3235062,53.6815604],[-2.3185303,53.6819774],[-2.3238837,53.6918929]]],"type":"Polygon"},"id":"E02005284","properties":{"code":"E02005284","geography":"MSOA","name":"Rossendale 007"},"type":"Feature"},{"geometry":{"coordinates":[[[-2.2666532,53.6827961],[-2.2824006,53.6834044],[-2.2821152,53.6922923],[-2.2955737,53.6937756],[-2.2902975,53.6979961],[-2.3029496,53.6964302],[-2.3063869,53.6925208],[-2.3130259,53.6955316],[-2.3187474,53.6978648],[-2.3238837,53.6918929],[-2.3185303,53.6819774],[-2.3235062,53.6815604],[-2.3198898,53.6743344],[-2.3245339,53.6720376],[-2.3189055,53.6649595],[-2.3235235,53.6634914],[-2.3253294,53.6554398],[-2.3155612,53.6550617],[-2.29983,53.6669565],[-2.293827,53.6579557],[-2.2974004,53.6496818],[-2.290573,53.6356663],[-2.2828461,53.6202313],[-2.2777473,53.6186927],[-2.2725533,53.6184963],[-2.2717895,53.614498],[-2.257919,53.6164497],[-2.2567717,53.6203817],[-2.2629999,53.6249957],[-2.2698673,53.6461204],[-2.2614427,53.6541075],[-2.2365763,53.6669913],[-2.2520496,53.6704847],[-2.2666532,53.6827961]]],"type":"Polygon"},"id":"E02005285","properties":{"code":"E02005285","geography":"MSOA","name":"Rossendale 008"},"type":"Feature"},{"geometry":{"coordinates":[[[-2.1465473,53.6930295],[-2.1625826,53.6992064],[-2.1715964,53.6990606],[-2.1808879,53.6936189],[-2.17441,53.6892777],[-2.1834176,53.6887576],[-2.1862591,53.682989],[-2.1973337,53.6826119],[-2.2177294,53.6689656],[-2.2071629,53.6607184],[-2.2052297,53.6543331],[-2.1895853,53.6480094],[-2.1824085,53.6482416],[-2.180469,53.6405335],[-2.1853971,53.6382081],[-2.1740979,53.6393011],[-2.1626812,53.6411522],[-2.1639394,53.6547499],[-2.146328,53.6822162],[-2.1465473,53.6930295]]],"type":"Polygon"},"id":"E02005286","properties":{"code":"E02005286","geography":"MSOA","name":"Rossendale 009"},"type":"Feature"},{"geometry":{"coordinates":[[[-2.223024,53.7108143],[-2.2335693,53.7088653],[-2.2330399,53.7021647],[-2.242129,53.7013863],[-2.2494556,53.7050948],[-2.2447756,53.7083406],[-2.249587,53.7133567],[-2.2528433,53.7067055],[-2.2632267,53.7055081],[-2.2616235,53.700826],[-2.2671495,53.6969407],[-2.2612743,53.6887845],[-2.2666532,53.6827961],[-2.2520496,53.6704847],[-2.2365763,53.6669913],[-2.2258252,53.6707522],[-2.2177294,53.6689656],[-2.1973337,53.6826119],[-2.2016971,53.6898739],[-2.1966603,53.6961673],[-2.2030732,53.6961394],[-2.2044407,53.701712],[-2.2136577,53.6996961],[-2.223024,53.7108143]]],"type":"Polygon"},"id":"E02006884","properties":{"code":"E02006884","geography":"MSOA","name":"Rossendale 010"},"type":"Feature"}],"type":"FeatureCollection"}
