{"features":[{"geometry":{"coordinates":[[[-1.2752081,51.724679],[-1.287944,51.7326188],[-1.2987663,51.7345135],[-1.3058578,51.7563384],[-1.3126713,51.7590032],[-1.312901,51.7625735],[-1.3302438,51.762501],[-1.3324478,51.7673917],[-1.3381622,51.7683636],[-1.3369263,51.772878],[-1.3429761,51.779633],[-1.3289558,51.7834919],[-1.3302675,51.7862689],[-1.3473439,51.7774592],[-1.363802,51.7721015],[-1.3591145,51.7636527],[-1.3663484,51.7583263],[-1.3651142,51.7470586],[-1.3727373,51.7392464],[-1.3669811,51.7295184],[-1.3687309,51.7237332],[-1.3922077,51.7062239],[-1.3849522,51.6941125],[-1.3759991,51.691529],[-1.369478,51.6936816],[-1.3638357,51.7059321],[-1.3534556,51.7106485],[-1.3375884,51.7228848],[-1.3366286,51.7174907],[-1.3317711,51.7178085],[-1.3319796,51.713386],[-1.3236778,51.7094395],[-1.3222729,51.7134277],[-1.3276111,51.7189397],[-1.3220224,51.7205533],[-1.3208766,51.7166282],[-1.3163814,51.7181662],[-1.31542,51.7231367],[-1.3037562,51.7266073],[-1.2996823,51.7312074],[-1.2994463,51.72595],[-1.2923921,51.7251222],[-1.2892572,51.719008],[-1.2752081,51.724679]]],"type":"Polygon"},"id":"E02005978","properties":{"code":"E02005978","geography":"MSOA","name":"Vale of White Horse 001"},"type":"Feature"},{"geometry":{"coordinates":[[[-1.3029941,51.7808985],[-1.3050037,51.7897951],[-1.3223602,51.7878339],[-1.3302675,51.7862689],[-1.3289558,51.7834919],[-1.3429761,51.779633],[-1.3369263,51.772878],[-1.3381622,51.7683636],[-1.3324478,51.7673917],[-1.3302438,51.762501],[-1.312901,51.7625735],[-1.3126713,51.7590032],[-1.3058578,51.7563384],[-1.2987663,51.7345135],[-1.287944,51.7326188],[-1.2752081,51.724679],[-1.2722313,51.7213125],[-1.2773296,51.7186852],[-1.267454,51.7049879],[-1.2652183,51.7070747],[-1.2470208,51.707545],[-1.2404847,51.7052236],[-1.2329131,51.7071071],[-1.2426044,51.7208507],[-1.2413278,51.7251548],[-1.2535274,51.7279671],[-1.267886,51.7426627],[-1.2887684,51.7490104],[-1.3036961,51.7726322],[-1.3029941,51.7808985]]],"type":"Polygon"},"id":"E02005979","properties":{"code":"E02005979","geography":"MSOA","name":"Vale of White Horse 002"},"type":"Feature"},{"geometry":{"coordinates":[[[-1.2752081,51.724679],[-1.2892572,51.719008],[-1.2923921,51.7251222],[-1.2994463,51.72595],[-1.2996823,51.7312074],[-1.3037562,51.7266073],[-1.31542,51.7231367],[-1.3163814,51.7181662],[-1.3208766,51.7166282],[-1.3220224,51.7205533],[-1.3276111,51.7189397],[-1.3222729,51.7134277],[-1.3236778,51.7094395],[-1.3319796,51.713386],[-1.3317711,51.7178085],[-1.3366286,51.7174907],[-1.3375884,51.7228848],[-1.3534556,51.7106485],[-1.3454707,51.7061152],[-1.35022,51.6966516],[-1.3546252,51.6961173],[-1.3508169,51.6854556],[-1.3551788,51.6791056],[-1.353191,51.6729221],[-1.3579087,51.6684304],[-1.3628883,51.6696222],[-1.3693689,51.6627023],[-1.3431282,51.6538597],[-1.3131882,51.6630591],[-1.3099479,51.6687655],[-1.2921925,51.6859627],[-1.2910834,51.683719],[-1.2890367,51.6840717],[-1.2811919,51.6908013],[-1.2735107,51.6913484],[-1.2560515,51.6840726],[-1.2588033,51.6756891],[-1.2582017,51.6716269],[-1.2622687,51.6717136],[-1.2625532,51.6699691],[-1.2497468,51.6666366],[-1.2268832,51.6760057],[-1.2221484,51.6882866],[-1.2329131,51.7071071],[-1.2404847,51.7052236],[-1.2470208,51.707545],[-1.2652183,51.7070747],[-1.267454,51.7049879],[-1.2773296,51.7186852],[-1.2722313,51.7213125],[-1.2752081,51.724679]]],"type":"Polygon"},"id":"E02005980","properties":{"code":"E02005980","geography":"MSOA","name":"Vale of White Horse 003"},"type":"Feature"},{"geometry":{"coordinates":[[[-1.2588033,51.6756891],[-1.2560515,51.6840726],[-1.2735107,51.6913484],[-1.2811919,51.6908013],[-1.2890367,51.6840717],[-1.2769512,51.6864818],[-1.2729318,51.6813398],[-1.2616651,51.6792007],[-1.2588033,51.6756891]]],"type":"Polygon"},"id":"E02005981","properties":{"code":"E02005981","geography":"MSOA","name":"Vale of White Horse 004"},"type":"Feature"},{"geometry":{"coordinates":[[[-1.2588033,51.6756891],[-1.2616651,51.6792007],[-1.2729318,51.6813398],[-1.2769512,51.6864818],[-1.2890367,51.6840717],[-1.2910834,51.683719],[-1.2808257,51.6826933],[-1.2739907,51.6731178],[-1.2651956,51.6744135],[-1.2622687,51.6717136],[-1.2582017,51.6716269],[-1.2588033,51.6756891]]],"type":"Polygon"},"id":"E02005982","properties":{"code":"E02005982","geography":"MSOA","name":"Vale of White Horse 005"},"type":"Feature"},{"geometry":{"coordinates":[[[-1.2910834,51.683719],[-1.2921925,51.6859627],[-1.3099479,51.6687655],[-1.3001792,51.6686846],[-1.3011788,51.6647723],[-1.2967231,51.6640302],[-1.295964,51.6672207],[-1.2913252,51.6663488],[-1.2846037,51.6700239],[-1.2837788,51.6658627],[-1.2752696,51.6694349],[-1.2625532,51.6699691],[-1.2622687,51.6717136],[-1.2651956,51.6744135],[-1.2739907,51.6731178],[-1.2808257,51.6826933],[-1.2910834,51.683719]]],"type":"Polygon"},"id":"E02005983","properties":{"code":"E02005983","geography":"MSOA","name":"Vale of White Horse 006"},"type":"Feature"},{"geometry":{"coordinates":[[[-1.3922077,51.7062239],[-1.4034494,51.7058768],[-1.4193077,51.7102891],[-1.4386025,51.7077674],[-1.4420815,51.7123785],[-1.4590251,51.7133002],[-1.4638576,51.7116093],[-1.4645721,51.6996256],[-1.4790534,51.7038459],[-1.4898815,51.6940124],[-1.4954763,51.6946687],[-1.4972432,51.6986773],[-1.5160742,51.7017616],[-1.5342905,51.6981798],[-1.5452025,51.7032352],[-1.5608293,51.6986266],[-1.5829173,51.6869831],[-1.5676088,51.6548763],[-1.5628156,51.6535956],[-1.5284905,51.6666285],[-1.5237008,51.6618161],[-1.5122102,51.6599235],[-1.509143,51.6567084],[-1.4789551,51.6548837],[-1.4625343,51.6451749],[-1.4750638,51.6420652],[-1.4781469,51.6336401],[-1.4888133,51.6300011],[-1.4966786,51.6218781],[-1.4567376,51.6123168],[-1.4470895,51.617595],[-1.4123124,51.625902],[-1.3955348,51.6231662],[-1.3848936,51.6245751],[-1.3720002,51.6295141],[-1.3543149,51.650297],[-1.3431282,51.6538597],[-1.3693689,51.6627023],[-1.3628883,51.6696222],[-1.3579087,51.6684304],[-1.353191,51.6729221],[-1.3551788,51.6791056],[-1.3508169,51.6854556],[-1.3546252,51.6961173],[-1.35022,51.6966516],[-1.3454707,51.7061152],[-1.3534556,51.7106485],[-1.3638357,51.7059321],[-1.369478,51.6936816],[-1.3759991,51.691529],[-1.3849522,51.6941125],[-1.3922077,51.7062239]]],"type":"Polygon"},"id":"E02005984","properties":{"code":"E02005984","geography":"MSOA","name":"Vale of White Horse 007"},"type":"Feature"},{"geometry":{"coordinates":[[[-1.2837788,51.6658627],[-1.2846037,51.6700239],[-1.2913252,51.6663488],[-1.295964,51.6672207],[-1.2967231,51.6640302],[-1.3011788,51.6647723],[-1.3001792,51.6686846],[-1.3099479,51.6687655],[-1.3131882,51.6630591],[-1.3072782,51.6628967],[-1.3077867,51.6584677],[-1.2932731,51.6570161],[-1.2966994,51.6535681],[-1.2870038,51.6525168],[-1.2840973,51.6571771],[-1.2796779,51.6565395],[-1.2837788,51.6658627]]],"type":"Polygon"},"id":"E02005985","properties":{"code":"E02005985","geography":"MSOA","name":"Vale of White Horse 008"},"type":"Feature"},{"geometry":{"coordinates":[[[-1.5608293,51.6986266],[-1.5748663,51.7001031],[-1.5846891,51.6930432],[-1.6010732,51.688855],[-1.6063069,51.6752763],[-1.6261631,51.6620647],[-1.6148135,51.6621117],[-1.6149279,51.6562938],[-1.6046012,51.6504521],[-1.590534,51.6508216],[-1.5845415,51.6421037],[-1.5723673,51.637104],[-1.569694,51.6291882],[-1.5634352,51.6286224],[-1.5570567,51.6221463],[-1.5534851,51.6215463],[-1.5449093,51.6278088],[-1.5291141,51.6258901],[-1.5164907,51.6294722],[-1.5023372,51.6194189],[-1.4966786,51.6218781],[-1.4888133,51.6300011],[-1.4781469,51.6336401],[-1.4750638,51.6420652],[-1.4625343,51.6451749],[-1.4789551,51.6548837],[-1.509143,51.6567084],[-1.5122102,51.6599235],[-1.5237008,51.6618161],[-1.5284905,51.6666285],[-1.5628156,51.6535956],[-1.5676088,51.6548763],[-1.5829173,51.6869831],[-1.5608293,51.6986266]]],"type":"Polygon"},"id":"E02005986","properties":{"code":"E02005986","geography":"MSOA","name":"Vale of White Horse 009"},"type":"Feature"},{"geometry":{"coordinates":[[[-1.2796779,51.6565395],[-1.2840973,51.6571771],[-1.2870038,51.6525168],[-1.2966994,51.6535681],[-1.2932731,51.6570161],[-1.3077867,51.6584677],[-1.3072782,51.6628967],[-1.3131882,51.6630591],[-1.3431282,51.6538597],[-1.3543149,51.650297],[-1.3720002,51.6295141],[-1.3848936,51.6245751],[-1.3726752,51.6291439],[-1.370528,51.6225884],[-1.3583401,51.6225422],[-1.3495176,51.6000655],[-1.3356461,51.5980036],[-1.3341022,51.6008773],[-1.3234655,51.6029835],[-1.3216812,51.5973319],[-1.3103415,51.599545],[-1.3082047,51.6070617],[-1.2905596,51.6122763],[-1.3033065,51.6189024],[-1.3107918,51.6291756],[-1.3057719,51.6359489],[-1.2891569,51.6342428],[-1.2862426,51.6201765],[-1.2765625,51.6227075],[-1.2649489,51.6192177],[-1.2575469,51.6171641],[-1.2532042,51.6226736],[-1.2430067,51.6226439],[-1.2193423,51.6426409],[-1.2326035,51.6415418],[-1.2632375,51.6500953],[-1.2871403,51.6428028],[-1.2891398,51.6479303],[-1.2832174,51.6500082],[-1.2796779,51.6565395]]],"type":"Polygon"},"id":"E02005987","properties":{"code":"E02005987","geography":"MSOA","name":"Vale of White Horse 010"},"type":"Feature"},{"geometry":{"coordinates":[[[-1.3955348,51.6231662],[-1.4123124,51.625902],[-1.4470895,51.617595],[-1.4445626,51.6005184],[-1.4385043,51.5995046],[-1.4374817,51.5964575],[-1.4313287,51.595831],[-1.4321499,51.5995768],[-1.4224323,51.5977331],[-1.4227029,51.5949995],[-1.3979799,51.5966263],[-1.3955348,51.6231662]]],"type":"Polygon"},"id":"E02005988","properties":{"code":"E02005988","geography":"MSOA","name":"Vale of White Horse 011"},"type":"Feature"},{"geometry":{"coordinates":[[[-1.3979799,51.5966263],[-1.4227029,51.5949995],[-1.4224323,51.5977331],[-1.4321499,51.5995768],[-1.4313287,51.595831],[-1.4374817,51.5964575],[-1.4443764,51.5901906],[-1.4405646,51.5776317],[-1.4213573,51.5888225],[-1.4153522,51.5895654],[-1.4123456,51.584913],[-1.4005843,51.5862427],[-1.3979799,51.5966263]]],"type":"Polygon"},"id":"E02005991","properties":{"code":"E02005991","geography":"MSOA","name":"Vale of White Horse 014"},"type":"Feature"},{"geometry":{"coordinates":[[[-1.2649489,51.6192177],[-1.2765625,51.6227075],[-1.2862426,51.6201765],[-1.2891569,51.6342428],[-1.3057719,51.6359489],[-1.3107918,51.6291756],[-1.3033065,51.6189024],[-1.2905596,51.6122763],[-1.3082047,51.6070617],[-1.3103415,51.599545],[-1.3216812,51.5973319],[-1.3234655,51.6029835],[-1.3341022,51.6008773],[-1.3356461,51.5980036],[-1.3495176,51.6000655],[-1.3583401,51.6225422],[-1.370528,51.6225884],[-1.3726752,51.6291439],[-1.3848936,51.6245751],[-1.3955348,51.6231662],[-1.3979799,51.5966263],[-1.4005843,51.5862427],[-1.4123456,51.584913],[-1.4153522,51.5895654],[-1.4213573,51.5888225],[-1.4405646,51.5776317],[-1.4265861,51.5455737],[-1.4227845,51.5357647],[-1.4049165,51.5472111],[-1.395867,51.5403445],[-1.3837954,51.5404255],[-1.3769773,51.5457781],[-1.3779682,51.549686],[-1.367338,51.552466],[-1.3587982,51.5466047],[-1.3503782,51.5468829],[-1.3440053,51.5433767],[-1.3379691,51.545776],[-1.3287187,51.5636899],[-1.3263151,51.5595809],[-1.2875696,51.5528491],[-1.2855395,51.5483298],[-1.2702182,51.5446191],[-1.2606743,51.5377887],[-1.2401835,51.5376569],[-1.2299606,51.5346123],[-1.226811,51.5351572],[-1.2279929,51.5468656],[-1.2022935,51.5901266],[-1.2088438,51.5912197],[-1.2300803,51.580324],[-1.2334283,51.5827245],[-1.2694069,51.5845579],[-1.2857292,51.575274],[-1.2902425,51.5778953],[-1.2884417,51.5816839],[-1.2650806,51.6037505],[-1.2732878,51.6116329],[-1.2649489,51.6192177]]],"type":"Polygon"},"id":"E02005992","properties":{"code":"E02005992","geography":"MSOA","name":"Vale of White Horse 015"},"type":"Feature"},{"geometry":{"coordinates":[[[-1.6010732,51.688855],[-1.6060585,51.6922518],[-1.6283158,51.683846],[-1.6353592,51.6875525],[-1.6482678,51.6840833],[-1.6684541,51.6804318],[-1.6752223,51.6825314],[-1.6760293,51.6884032],[-1.6827024,51.6900486],[-1.6965315,51.682113],[-1.7002027,51.6707386],[-1.6906366,51.6637806],[-1.6885086,51.6567853],[-1.6919516,51.652162],[-1.6862871,51.652379],[-1.6756829,51.6414232],[-1.6633212,51.6399279],[-1.6599681,51.6349883],[-1.6737496,51.622848],[-1.667023,51.6162626],[-1.6749686,51.6117498],[-1.6813332,51.6135603],[-1.6906299,51.6054485],[-1.6847725,51.5903699],[-1.6904426,51.584386],[-1.6840652,51.5729204],[-1.6765529,51.5694383],[-1.6550579,51.5765053],[-1.6477043,51.5719509],[-1.6340836,51.5532558],[-1.6137632,51.5365095],[-1.6028253,51.5182946],[-1.5847221,51.5249112],[-1.5812006,51.536994],[-1.5693736,51.5432823],[-1.5698821,51.5475142],[-1.5661179,51.5455621],[-1.5550225,51.5533703],[-1.5414681,51.5520584],[-1.5309736,51.5460694],[-1.5213214,51.5508955],[-1.5129538,51.5507594],[-1.4893524,51.5426891],[-1.4858719,51.5340789],[-1.47076,51.528607],[-1.4630032,51.5301912],[-1.464438,51.5385166],[-1.4567718,51.5354584],[-1.4478478,51.5364268],[-1.4265861,51.5455737],[-1.4405646,51.5776317],[-1.4443764,51.5901906],[-1.4374817,51.5964575],[-1.4385043,51.5995046],[-1.4445626,51.6005184],[-1.4470895,51.617595],[-1.4567376,51.6123168],[-1.4966786,51.6218781],[-1.5023372,51.6194189],[-1.5164907,51.6294722],[-1.5291141,51.6258901],[-1.5449093,51.6278088],[-1.5534851,51.6215463],[-1.5570567,51.6221463],[-1.5634352,51.6286224],[-1.569694,51.6291882],[-1.5723673,51.637104],[-1.5845415,51.6421037],[-1.590534,51.6508216],[-1.6046012,51.6504521],[-1.6149279,51.6562938],[-1.6148135,51.6621117],[-1.6261631,51.6620647],[-1.6063069,51.6752763],[-1.6010732,51.688855]]],"type":"Polygon"},"id":"E02006886","properties":{"code":"E02006886","geography":"MSOA","name":"Vale of White Horse 016"},"type":"Feature"}],"type":"FeatureCollection"}
