{"features":[{"geometry":{"coordinates":[[[-2.4271686,52.3218672],[-2.4365136,52.324014],[-2.4330717,52.3298919],[-2.4209954,52.3330471],[-2.4249526,52.3366768],[-2.422072,52.3490144],[-2.4117563,52.3577696],[-2.4149265,52.3682411],[-2.4263398,52.3658189],[-2.4576558,52.3678107],[-2.4677519,52.3645384],[-2.474773,52.3671319],[-2.474183,52.3605992],[-2.4838927,52.360478],[-2.48833,52.3553839],[-2.481795,52.3511062],[-2.4843572,52.344546],[-2.4782243,52.3384087],[-2.4817986,52.3310644],[-2.5132075,52.3292006],[-2.5084129,52.3332436],[-2.5121322,52.3370967],[-2.52191,52.3418342],[-2.5391523,52.3441256],[-2.5622214,52.3330949],[-2.5626474,52.3111231],[-2.5748555,52.3175626],[-2.5845032,52.3131586],[-2.5950918,52.3138724],[-2.6100043,52.3062677],[-2.6180377,52.3069435],[-2.6324479,52.3056274],[-2.6363279,52.3089394],[-2.6632072,52.3039241],[-2.6524206,52.2952337],[-2.6442229,52.2937369],[-2.6398791,52.2863622],[-2.6262603,52.2888832],[-2.6184511,52.282215],[-2.6126089,52.2867468],[-2.59897,52.2835283],[-2.596452,52.2765803],[-2.606733,52.2756521],[-2.6143967,52.2657028],[-2.6282983,52.2611516],[-2.6342347,52.2507422],[-2.6288728,52.2403366],[-2.5964708,52.244245],[-2.5854415,52.2482847],[-2.5761433,52.2477398],[-2.5742083,52.2527182],[-2.5673736,52.2501278],[-2.5531826,52.2524671],[-2.5479521,52.2496846],[-2.5316758,52.2532638],[-2.525823,52.2480846],[-2.5158547,52.255904],[-2.4958649,52.2568441],[-2.4935239,52.2638391],[-2.5040159,52.2721848],[-2.503115,52.2774362],[-2.4920094,52.2781629],[-2.4763072,52.2855741],[-2.4674586,52.2833133],[-2.4514058,52.2850696],[-2.4279986,52.2705972],[-2.4681017,52.2560249],[-2.4736516,52.250712],[-2.4747042,52.2413461],[-2.4648601,52.2343611],[-2.4230683,52.2372479],[-2.4142108,52.231711],[-2.3932902,52.2309884],[-2.3859135,52.2264384],[-2.38682,52.2326758],[-2.3753183,52.2399637],[-2.3867007,52.2484165],[-2.3828992,52.2543167],[-2.3739279,52.2557327],[-2.3753541,52.2643067],[-2.3605302,52.266339],[-2.3611349,52.2701985],[-2.3714929,52.269866],[-2.3786058,52.2741658],[-2.3781987,52.2925534],[-2.4128589,52.291602],[-2.4110744,52.3043736],[-2.4051859,52.3074046],[-2.4223736,52.3155434],[-2.4314659,52.315392],[-2.4271686,52.3218672]]],"type":"Polygon"},"id":"E02006710","properties":{"code":"E02006710","geography":"MSOA","name":"Malvern Hills 001"},"type":"Feature"},{"geometry":{"coordinates":[[[-2.3052645,52.3377615],[-2.3109358,52.3405365],[-2.3238333,52.3353187],[-2.3196846,52.3315165],[-2.3289476,52.3202606],[-2.3473551,52.3201871],[-2.3609664,52.3150999],[-2.372761,52.3190083],[-2.3698198,52.3267932],[-2.3895402,52.3212135],[-2.4030132,52.3267169],[-2.4034156,52.3240213],[-2.4133672,52.325462],[-2.4155719,52.3224867],[-2.4271686,52.3218672],[-2.4314659,52.315392],[-2.4223736,52.3155434],[-2.4051859,52.3074046],[-2.4110744,52.3043736],[-2.4128589,52.291602],[-2.3781987,52.2925534],[-2.3786058,52.2741658],[-2.3714929,52.269866],[-2.3611349,52.2701985],[-2.3605302,52.266339],[-2.3753541,52.2643067],[-2.3739279,52.2557327],[-2.3828992,52.2543167],[-2.3867007,52.2484165],[-2.3753183,52.2399637],[-2.38682,52.2326758],[-2.3859135,52.2264384],[-2.3864578,52.2222213],[-2.3965112,52.2247518],[-2.3976502,52.2216643],[-2.4040433,52.2212353],[-2.4015812,52.2153892],[-2.3928966,52.2103154],[-2.3767983,52.2110107],[-2.3791698,52.2145148],[-2.3758401,52.2166338],[-2.3714849,52.210578],[-2.3673407,52.2166416],[-2.3548141,52.2158914],[-2.3261577,52.2063832],[-2.3096857,52.2057093],[-2.3016396,52.2082089],[-2.3011956,52.2128679],[-2.2903184,52.222042],[-2.2735794,52.2216416],[-2.2684009,52.225112],[-2.2573639,52.2208149],[-2.2590563,52.2157839],[-2.2531834,52.2144219],[-2.2529371,52.2099559],[-2.2484645,52.2099026],[-2.2348903,52.2114435],[-2.2435425,52.2174512],[-2.243276,52.2218409],[-2.2417135,52.2322235],[-2.2326832,52.2368933],[-2.2357538,52.241564],[-2.2313366,52.2488792],[-2.2518977,52.2667423],[-2.2748158,52.2715091],[-2.270393,52.2828318],[-2.2748937,52.3087169],[-2.2652911,52.319492],[-2.2664182,52.3235916],[-2.2738937,52.3289183],[-2.2991678,52.3223463],[-2.3086438,52.3352774],[-2.3052645,52.3377615]]],"type":"Polygon"},"id":"E02006711","properties":{"code":"E02006711","geography":"MSOA","name":"Malvern Hills 002"},"type":"Feature"},{"geometry":{"coordinates":[[[-2.2484645,52.2099026],[-2.2529371,52.2099559],[-2.2531834,52.2144219],[-2.2590563,52.2157839],[-2.2573639,52.2208149],[-2.2684009,52.225112],[-2.2735794,52.2216416],[-2.2903184,52.222042],[-2.3011956,52.2128679],[-2.3016396,52.2082089],[-2.3096857,52.2057093],[-2.3261577,52.2063832],[-2.3548141,52.2158914],[-2.3673407,52.2166416],[-2.3714849,52.210578],[-2.3758401,52.2166338],[-2.3791698,52.2145148],[-2.3767983,52.2110107],[-2.3928966,52.2103154],[-2.396097,52.2056737],[-2.4026614,52.2071376],[-2.400482,52.2017049],[-2.4078657,52.202709],[-2.4087132,52.1963524],[-2.4191488,52.1879601],[-2.4150709,52.1832499],[-2.4254643,52.1770051],[-2.4220133,52.1724009],[-2.4354257,52.1709919],[-2.4223129,52.1513934],[-2.4150863,52.1451987],[-2.4001918,52.1482459],[-2.3939742,52.1467375],[-2.3793235,52.1550999],[-2.3652327,52.1509918],[-2.3587246,52.1518847],[-2.3512106,52.1418398],[-2.3355368,52.1495732],[-2.3181038,52.1492925],[-2.3100924,52.1535447],[-2.3030078,52.1470802],[-2.2971051,52.1532222],[-2.2858695,52.1570691],[-2.2929692,52.1601704],[-2.2933709,52.1683724],[-2.2880646,52.173074],[-2.2735316,52.1752546],[-2.2699469,52.170168],[-2.2524214,52.1703938],[-2.2523613,52.1675225],[-2.2473147,52.1697116],[-2.2465802,52.1770278],[-2.2526112,52.1834827],[-2.2618089,52.1818821],[-2.2618448,52.1897898],[-2.257362,52.1921095],[-2.2605354,52.1963307],[-2.2502484,52.197413],[-2.2484645,52.2099026]]],"type":"Polygon"},"id":"E02006712","properties":{"code":"E02006712","geography":"MSOA","name":"Malvern Hills 003"},"type":"Feature"},{"geometry":{"coordinates":[[[-2.3030078,52.1470802],[-2.3100924,52.1535447],[-2.3181038,52.1492925],[-2.3213959,52.143743],[-2.3127035,52.1385378],[-2.3199273,52.129533],[-2.3313326,52.1274796],[-2.3297207,52.1210482],[-2.3189762,52.120253],[-2.2976239,52.1261382],[-2.29096,52.1302578],[-2.3037604,52.1335628],[-2.3030078,52.1470802]]],"type":"Polygon"},"id":"E02006713","properties":{"code":"E02006713","geography":"MSOA","name":"Malvern Hills 004"},"type":"Feature"},{"geometry":{"coordinates":[[[-2.2473147,52.1697116],[-2.2523613,52.1675225],[-2.2524214,52.1703938],[-2.2699469,52.170168],[-2.2735316,52.1752546],[-2.2880646,52.173074],[-2.2933709,52.1683724],[-2.2929692,52.1601704],[-2.2858695,52.1570691],[-2.2971051,52.1532222],[-2.3030078,52.1470802],[-2.3037604,52.1335628],[-2.29096,52.1302578],[-2.2976239,52.1261382],[-2.2969221,52.1231152],[-2.2860044,52.1195559],[-2.2918774,52.116901],[-2.2907168,52.1126945],[-2.2794137,52.1042159],[-2.2802782,52.0996187],[-2.311587,52.0944513],[-2.3076366,52.0799699],[-2.3001429,52.071601],[-2.2880488,52.0787599],[-2.2750287,52.0773264],[-2.2704852,52.073978],[-2.2751307,52.0538184],[-2.2566468,52.049416],[-2.2536943,52.056753],[-2.2446144,52.0610456],[-2.2491734,52.0632219],[-2.2356831,52.0627023],[-2.2219267,52.0660056],[-2.2267008,52.0761202],[-2.2159462,52.0843768],[-2.2157563,52.0906759],[-2.2235111,52.0991369],[-2.238396,52.1039221],[-2.2435504,52.1170845],[-2.2250466,52.1261119],[-2.2336001,52.1337947],[-2.226079,52.1386786],[-2.2176057,52.1619836],[-2.2204812,52.1673429],[-2.2257357,52.1680998],[-2.2276283,52.1636548],[-2.2327648,52.1696881],[-2.2473147,52.1697116]]],"type":"Polygon"},"id":"E02006714","properties":{"code":"E02006714","geography":"MSOA","name":"Malvern Hills 005"},"type":"Feature"},{"geometry":{"coordinates":[[[-2.3181038,52.1492925],[-2.3355368,52.1495732],[-2.3512106,52.1418398],[-2.3446572,52.1325808],[-2.356093,52.1270717],[-2.3521303,52.1033988],[-2.3491218,52.0956355],[-2.3383023,52.0954387],[-2.3383637,52.1135469],[-2.3297207,52.1210482],[-2.3313326,52.1274796],[-2.3199273,52.129533],[-2.3127035,52.1385378],[-2.3213959,52.143743],[-2.3181038,52.1492925]]],"type":"Polygon"},"id":"E02006715","properties":{"code":"E02006715","geography":"MSOA","name":"Malvern Hills 006"},"type":"Feature"},{"geometry":{"coordinates":[[[-2.2907168,52.1126945],[-2.2918774,52.116901],[-2.2860044,52.1195559],[-2.2969221,52.1231152],[-2.2976239,52.1261382],[-2.3189762,52.120253],[-2.3180704,52.1113777],[-2.3118818,52.1090999],[-2.2907168,52.1126945]]],"type":"Polygon"},"id":"E02006716","properties":{"code":"E02006716","geography":"MSOA","name":"Malvern Hills 007"},"type":"Feature"},{"geometry":{"coordinates":[[[-2.1518522,52.107446],[-2.1733407,52.1092926],[-2.1858206,52.117722],[-2.1839358,52.1199565],[-2.1964108,52.1248235],[-2.1921542,52.1301979],[-2.1728444,52.1349999],[-2.1717448,52.1404246],[-2.1649267,52.1428179],[-2.1666966,52.1455888],[-2.1895805,52.1460082],[-2.2033766,52.1673054],[-2.2176057,52.1619836],[-2.226079,52.1386786],[-2.2336001,52.1337947],[-2.2250466,52.1261119],[-2.2435504,52.1170845],[-2.238396,52.1039221],[-2.2235111,52.0991369],[-2.2157563,52.0906759],[-2.2159462,52.0843768],[-2.2207165,52.0801316],[-2.2201572,52.0699867],[-2.2105121,52.0667966],[-2.2103889,52.0636155],[-2.200383,52.0582103],[-2.2022254,52.0469633],[-2.2089223,52.0428412],[-2.1876901,52.0190704],[-2.1769131,52.0225495],[-2.1806862,52.0417182],[-2.1713881,52.0475636],[-2.1697414,52.0555099],[-2.1753991,52.0586412],[-2.1581348,52.0612163],[-2.1499851,52.075415],[-2.1558174,52.0765268],[-2.1583253,52.0845188],[-2.1488009,52.0996411],[-2.1518522,52.107446]]],"type":"Polygon"},"id":"E02006717","properties":{"code":"E02006717","geography":"MSOA","name":"Malvern Hills 008"},"type":"Feature"},{"geometry":{"coordinates":[[[-2.311587,52.0944513],[-2.2802782,52.0996187],[-2.2794137,52.1042159],[-2.2907168,52.1126945],[-2.3118818,52.1090999],[-2.3180704,52.1113777],[-2.3230417,52.0959193],[-2.311587,52.0944513]]],"type":"Polygon"},"id":"E02006718","properties":{"code":"E02006718","geography":"MSOA","name":"Malvern Hills 009"},"type":"Feature"},{"geometry":{"coordinates":[[[-2.3189762,52.120253],[-2.3297207,52.1210482],[-2.3383637,52.1135469],[-2.3383023,52.0954387],[-2.3394293,52.068914],[-2.3515245,52.0564354],[-2.3485982,52.048901],[-2.3427274,52.0469871],[-2.341059,52.0519188],[-2.3137431,52.0547792],[-2.3168859,52.0574122],[-2.3284277,52.057718],[-2.3246135,52.063974],[-2.3001429,52.071601],[-2.3076366,52.0799699],[-2.311587,52.0944513],[-2.3230417,52.0959193],[-2.3180704,52.1113777],[-2.3189762,52.120253]]],"type":"Polygon"},"id":"E02006719","properties":{"code":"E02006719","geography":"MSOA","name":"Malvern Hills 010"},"type":"Feature"},{"geometry":{"coordinates":[[[-2.1876901,52.0190704],[-2.2089223,52.0428412],[-2.2022254,52.0469633],[-2.200383,52.0582103],[-2.2103889,52.0636155],[-2.2105121,52.0667966],[-2.2201572,52.0699867],[-2.2207165,52.0801316],[-2.2159462,52.0843768],[-2.2267008,52.0761202],[-2.2219267,52.0660056],[-2.2356831,52.0627023],[-2.2491734,52.0632219],[-2.2446144,52.0610456],[-2.2536943,52.056753],[-2.2566468,52.049416],[-2.2751307,52.0538184],[-2.2704852,52.073978],[-2.2750287,52.0773264],[-2.2880488,52.0787599],[-2.3001429,52.071601],[-2.3246135,52.063974],[-2.3284277,52.057718],[-2.3168859,52.0574122],[-2.3137431,52.0547792],[-2.341059,52.0519188],[-2.3427274,52.0469871],[-2.3485982,52.048901],[-2.3513817,52.0213498],[-2.3525457,52.0135262],[-2.3404966,52.0067314],[-2.3294271,52.0068195],[-2.3247138,52.0035582],[-2.3206606,51.9921196],[-2.3265419,51.9757825],[-2.3126232,51.9764965],[-2.3094691,51.9706383],[-2.3004368,51.9667669],[-2.2882948,51.9706595],[-2.2705608,51.9689307],[-2.2513653,51.9665566],[-2.2206199,51.9954874],[-2.2028928,51.9963538],[-2.1850909,51.9905515],[-2.1794326,51.9948382],[-2.1811135,51.9994743],[-2.1748816,51.9961102],[-2.1647343,51.9960639],[-2.1641349,52.0033909],[-2.1840727,52.0138916],[-2.1876901,52.0190704]]],"type":"Polygon"},"id":"E02006720","properties":{"code":"E02006720","geography":"MSOA","name":"Malvern Hills 011"},"type":"Feature"}],"type":"FeatureCollection"}
