{"features":[{"geometry":{"coordinates":[[[-0.763102,52.9236714],[-0.7661114,52.9280041],[-0.7553181,52.951357],[-0.7784428,52.9592921],[-0.7782844,52.9769013],[-0.796108,52.9766773],[-0.8098176,52.965958],[-0.812885,52.9574231],[-0.8200271,52.9604432],[-0.8339132,52.94586],[-0.8225451,52.9441219],[-0.8243661,52.9417683],[-0.8348942,52.9393245],[-0.8413781,52.9283619],[-0.8618682,52.9143067],[-0.8637518,52.9113041],[-0.857638,52.9056213],[-0.8743244,52.8981968],[-0.911981,52.8835396],[-0.9169299,52.8789106],[-0.9405788,52.8768351],[-0.9281267,52.8660626],[-0.9408323,52.8615429],[-0.9411809,52.8539384],[-0.9527772,52.8503886],[-0.9608582,52.8433361],[-0.961045,52.8361683],[-0.9525162,52.8326547],[-0.9550252,52.823614],[-0.9329198,52.8158768],[-0.9234068,52.8149936],[-0.8959203,52.8288443],[-0.8898248,52.8304065],[-0.8852619,52.8229921],[-0.8780016,52.8250678],[-0.8647321,52.8214923],[-0.8543991,52.8240189],[-0.8362975,52.8223624],[-0.8203238,52.8377374],[-0.8031246,52.8368955],[-0.8052807,52.8282104],[-0.7996341,52.8286651],[-0.7961929,52.8140331],[-0.7985145,52.7998867],[-0.7906648,52.7947335],[-0.757453,52.8018906],[-0.7628466,52.8150496],[-0.733386,52.8206704],[-0.7166355,52.8188082],[-0.717001,52.8149327],[-0.6924135,52.8217642],[-0.7090333,52.8445761],[-0.7336793,52.8669012],[-0.7427284,52.8831358],[-0.7665971,52.8867774],[-0.7584733,52.9004686],[-0.7768641,52.9047877],[-0.7674879,52.922443],[-0.763102,52.9236714]]],"type":"Polygon"},"id":"E02005391","properties":{"code":"E02005391","geography":"MSOA","name":"Melton 001"},"type":"Feature"},{"geometry":{"coordinates":[[[-0.8484727,52.765846],[-0.8479782,52.7694715],[-0.8668787,52.7732287],[-0.8627611,52.7942797],[-0.8716533,52.7919859],[-0.8730784,52.7873418],[-0.8902898,52.7933933],[-0.9061767,52.7933646],[-0.9156869,52.7771584],[-0.8997162,52.773146],[-0.892344,52.7788652],[-0.8874087,52.7779337],[-0.8880839,52.7668623],[-0.8702693,52.7639376],[-0.8484727,52.765846]]],"type":"Polygon"},"id":"E02005392","properties":{"code":"E02005392","geography":"MSOA","name":"Melton 002"},"type":"Feature"},{"geometry":{"coordinates":[[[-0.9608582,52.8433361],[-0.9706185,52.8449644],[-0.9770806,52.840717],[-0.9750554,52.8292144],[-0.9890108,52.8182295],[-0.9956828,52.8212497],[-1.0214941,52.8220534],[-1.0362964,52.8158566],[-1.0466306,52.7809346],[-1.0379578,52.7750141],[-1.0459142,52.7660119],[-1.0414305,52.7660387],[-1.0368485,52.7583512],[-1.030389,52.7561663],[-1.0330598,52.7497693],[-1.0194295,52.7371101],[-1.0195886,52.7350286],[-1.0274595,52.7349208],[-1.0199176,52.7269603],[-1.0172509,52.7244478],[-1.0010572,52.7236419],[-0.9734369,52.7287596],[-0.9311924,52.7170169],[-0.9136684,52.7273957],[-0.9085981,52.7324256],[-0.9103879,52.7370866],[-0.9184136,52.7416011],[-0.9160867,52.7519335],[-0.9281664,52.7591139],[-0.9239889,52.7698803],[-0.9156869,52.7771584],[-0.9061767,52.7933646],[-0.8902898,52.7933933],[-0.8947899,52.8004347],[-0.8959203,52.8288443],[-0.9234068,52.8149936],[-0.9329198,52.8158768],[-0.9550252,52.823614],[-0.9525162,52.8326547],[-0.961045,52.8361683],[-0.9608582,52.8433361]]],"type":"Polygon"},"id":"E02005393","properties":{"code":"E02005393","geography":"MSOA","name":"Melton 003"},"type":"Feature"},{"geometry":{"coordinates":[[[-0.8880839,52.7668623],[-0.8874087,52.7779337],[-0.892344,52.7788652],[-0.8997162,52.773146],[-0.9156869,52.7771584],[-0.9239889,52.7698803],[-0.9281664,52.7591139],[-0.9160867,52.7519335],[-0.9184136,52.7416011],[-0.9103879,52.7370866],[-0.8984075,52.7405147],[-0.895734,52.750053],[-0.9007307,52.7519479],[-0.8897488,52.7547301],[-0.891653,52.7630174],[-0.8880839,52.7668623]]],"type":"Polygon"},"id":"E02005394","properties":{"code":"E02005394","geography":"MSOA","name":"Melton 004"},"type":"Feature"},{"geometry":{"coordinates":[[[-0.8484727,52.765846],[-0.8702693,52.7639376],[-0.8880839,52.7668623],[-0.891653,52.7630174],[-0.8897488,52.7547301],[-0.9007307,52.7519479],[-0.895734,52.750053],[-0.8984075,52.7405147],[-0.8881548,52.7349932],[-0.8830602,52.7358534],[-0.8799106,52.7428196],[-0.8714748,52.7429161],[-0.8652985,52.7469484],[-0.8658764,52.7524126],[-0.8519085,52.7540591],[-0.8484727,52.765846]]],"type":"Polygon"},"id":"E02005395","properties":{"code":"E02005395","geography":"MSOA","name":"Melton 005"},"type":"Feature"},{"geometry":{"coordinates":[[[-0.6924135,52.8217642],[-0.717001,52.8149327],[-0.7166355,52.8188082],[-0.733386,52.8206704],[-0.7628466,52.8150496],[-0.757453,52.8018906],[-0.7906648,52.7947335],[-0.7985145,52.7998867],[-0.7961929,52.8140331],[-0.7996341,52.8286651],[-0.8052807,52.8282104],[-0.8031246,52.8368955],[-0.8203238,52.8377374],[-0.8362975,52.8223624],[-0.8543991,52.8240189],[-0.8647321,52.8214923],[-0.8780016,52.8250678],[-0.8852619,52.8229921],[-0.8898248,52.8304065],[-0.8959203,52.8288443],[-0.8947899,52.8004347],[-0.8902898,52.7933933],[-0.8730784,52.7873418],[-0.8716533,52.7919859],[-0.8627611,52.7942797],[-0.8668787,52.7732287],[-0.8479782,52.7694715],[-0.8484727,52.765846],[-0.8519085,52.7540591],[-0.8658764,52.7524126],[-0.8652985,52.7469484],[-0.8714748,52.7429161],[-0.8799106,52.7428196],[-0.8830602,52.7358534],[-0.8881548,52.7349932],[-0.8984075,52.7405147],[-0.9103879,52.7370866],[-0.9085981,52.7324256],[-0.9136684,52.7273957],[-0.9311924,52.7170169],[-0.9734369,52.7287596],[-1.0010572,52.7236419],[-1.003285,52.717232],[-1.0076567,52.7173666],[-1.0154833,52.7109457],[-1.0048539,52.7044993],[-1.0079833,52.6963733],[-1.0060863,52.6983572],[-0.9711762,52.69102],[-0.9561766,52.6826467],[-0.9472463,52.6827099],[-0.9489326,52.6803621],[-0.916058,52.6711219],[-0.9119346,52.6771532],[-0.8933716,52.6736525],[-0.8744272,52.6798552],[-0.8726141,52.6843322],[-0.8555553,52.6849546],[-0.8587535,52.6737441],[-0.8411296,52.6755374],[-0.8339906,52.6726859],[-0.8295585,52.6587344],[-0.8095379,52.657593],[-0.8171972,52.6499434],[-0.8236157,52.6533533],[-0.822281,52.647236],[-0.8087029,52.6461075],[-0.7929238,52.6596665],[-0.7901464,52.6671665],[-0.7820483,52.6694645],[-0.7857313,52.6940466],[-0.7957536,52.6968307],[-0.7966167,52.7039708],[-0.8033776,52.7046296],[-0.8002437,52.7077785],[-0.8217616,52.7156555],[-0.817355,52.7253369],[-0.8011998,52.7367228],[-0.7806814,52.7405555],[-0.7764931,52.7439143],[-0.7676624,52.7436619],[-0.7647348,52.7391744],[-0.7579873,52.7397161],[-0.7533283,52.7365549],[-0.7202195,52.7409427],[-0.7182063,52.7447777],[-0.6962529,52.7464733],[-0.6969762,52.7492005],[-0.6843606,52.75309],[-0.6844383,52.7564602],[-0.6641109,52.7566907],[-0.6756685,52.7775201],[-0.6741184,52.7877479],[-0.6831155,52.7946629],[-0.6820495,52.8117752],[-0.6924135,52.8217642]]],"type":"Polygon"},"id":"E02005396","properties":{"code":"E02005396","geography":"MSOA","name":"Melton 006"},"type":"Feature"}],"type":"FeatureCollection"}
