{"features":[{"geometry":{"coordinates":[[[-2.0629589,52.9223785],[-2.046267,52.9368149],[-2.0499347,52.939361],[-2.0430333,52.9513357],[-2.0688818,52.9629752],[-2.0684487,52.9683488],[-2.0881291,52.9738341],[-2.08122,52.9668878],[-2.0999943,52.9607274],[-2.1030092,52.9633949],[-2.1086329,52.9623454],[-2.1101844,52.9578426],[-2.1216578,52.9560695],[-2.1140702,52.9451908],[-2.0979713,52.9452316],[-2.0846484,52.9287682],[-2.0794068,52.9289592],[-2.0629589,52.9223785]]],"type":"Polygon"},"id":"E02006188","properties":{"code":"E02006188","geography":"MSOA","name":"Stafford 001"},"type":"Feature"},{"geometry":{"coordinates":[[[-2.1947174,52.961918],[-2.2125142,52.9805623],[-2.2271044,52.9763581],[-2.2535755,52.9639145],[-2.2625664,52.9656732],[-2.2644046,52.9628327],[-2.2702257,52.9633556],[-2.2780207,52.9512308],[-2.2731536,52.9411573],[-2.263265,52.9339491],[-2.2641137,52.9236805],[-2.263134,52.9218804],[-2.2404758,52.9245095],[-2.2254749,52.9068219],[-2.2156744,52.9010065],[-2.2115174,52.9045929],[-2.1932379,52.907129],[-2.1886619,52.899848],[-2.1783866,52.8942799],[-2.1658671,52.8982418],[-2.1584455,52.9015365],[-2.1656986,52.9101931],[-2.164416,52.9153067],[-2.12394,52.9117492],[-2.1083484,52.9062305],[-2.1021262,52.9068714],[-2.0932355,52.9145126],[-2.082069,52.9178236],[-2.0794068,52.9289592],[-2.0846484,52.9287682],[-2.0979713,52.9452316],[-2.1140702,52.9451908],[-2.1216578,52.9560695],[-2.133866,52.9737],[-2.1457107,52.9760937],[-2.15157,52.9711192],[-2.1509857,52.9641037],[-2.1594998,52.9636026],[-2.1625957,52.9533493],[-2.1711208,52.9517125],[-2.1722138,52.9549298],[-2.176899,52.9536908],[-2.1745399,52.9472157],[-2.18161,52.9461903],[-2.1859982,52.9509901],[-2.1912547,52.9500713],[-2.1947174,52.961918]]],"type":"Polygon"},"id":"E02006189","properties":{"code":"E02006189","geography":"MSOA","name":"Stafford 002"},"type":"Feature"},{"geometry":{"coordinates":[[[-2.12394,52.9117492],[-2.164416,52.9153067],[-2.1656986,52.9101931],[-2.1584455,52.9015365],[-2.1658671,52.8982418],[-2.1606857,52.8897566],[-2.1559082,52.8930865],[-2.1540347,52.8902092],[-2.1485036,52.8902382],[-2.1418234,52.8978594],[-2.1347217,52.8935642],[-2.1316671,52.8991393],[-2.1248469,52.8984451],[-2.1280623,52.9037829],[-2.1209458,52.9071762],[-2.12394,52.9117492]]],"type":"Polygon"},"id":"E02006190","properties":{"code":"E02006190","geography":"MSOA","name":"Stafford 003"},"type":"Feature"},{"geometry":{"coordinates":[[[-2.0629589,52.9223785],[-2.0794068,52.9289592],[-2.082069,52.9178236],[-2.0932355,52.9145126],[-2.1021262,52.9068714],[-2.1083484,52.9062305],[-2.12394,52.9117492],[-2.1209458,52.9071762],[-2.1280623,52.9037829],[-2.1248469,52.8984451],[-2.1316671,52.8991393],[-2.1347217,52.8935642],[-2.1418234,52.8978594],[-2.1485036,52.8902382],[-2.1540347,52.8902092],[-2.1559082,52.8930865],[-2.1606857,52.8897566],[-2.1658671,52.8982418],[-2.1783866,52.8942799],[-2.1664806,52.8807567],[-2.1669531,52.8689421],[-2.1587171,52.8682334],[-2.1597809,52.8712049],[-2.154425,52.8713963],[-2.1421468,52.8643601],[-2.1079467,52.8688669],[-2.0883,52.8590013],[-2.0484654,52.8489417],[-2.0458807,52.8560372],[-2.0506807,52.865171],[-2.0497627,52.8680452],[-2.0423813,52.868013],[-2.0459256,52.8690238],[-2.0431628,52.8753868],[-2.0225294,52.8720507],[-2.0202524,52.8637647],[-2.0039912,52.8665761],[-1.9903845,52.8787151],[-1.9859546,52.8949137],[-1.999707,52.8922517],[-2.0027323,52.8968389],[-2.016972,52.9022882],[-2.012753,52.9065648],[-2.0426529,52.9157094],[-2.041529,52.9174603],[-2.0629589,52.9223785]]],"type":"Polygon"},"id":"E02006191","properties":{"code":"E02006191","geography":"MSOA","name":"Stafford 004"},"type":"Feature"},{"geometry":{"coordinates":[[[-2.2641137,52.9236805],[-2.2854753,52.9266025],[-2.2964114,52.9319321],[-2.3020523,52.930027],[-2.3199133,52.9324166],[-2.3328579,52.9281187],[-2.3473717,52.9140954],[-2.3579174,52.9185817],[-2.3791726,52.9128719],[-2.3826996,52.8978815],[-2.378939,52.8917043],[-2.3753796,52.891458],[-2.382513,52.8765952],[-2.3811566,52.8670483],[-2.3884963,52.8622191],[-2.3937568,52.8366057],[-2.3970915,52.833839],[-2.4076565,52.8345906],[-2.4163476,52.8269913],[-2.3776555,52.8116282],[-2.3644488,52.8155774],[-2.3739476,52.8231474],[-2.373198,52.8297786],[-2.3774858,52.8327563],[-2.3676604,52.8425626],[-2.3584226,52.8425002],[-2.3449907,52.8375832],[-2.3213575,52.8460251],[-2.3075465,52.8402043],[-2.2877047,52.8413165],[-2.2705453,52.8304148],[-2.2662548,52.8390277],[-2.2471374,52.8419721],[-2.2403819,52.8466762],[-2.2300427,52.8415112],[-2.2293577,52.8379437],[-2.2017149,52.8351086],[-2.1916094,52.8367651],[-2.1954923,52.8394212],[-2.1918575,52.8513717],[-2.186259,52.8494253],[-2.1878942,52.8539746],[-2.1823375,52.8545625],[-2.1726065,52.8479805],[-2.1708552,52.8553757],[-2.1774042,52.8578492],[-2.1626832,52.8606791],[-2.1669531,52.8689421],[-2.1664806,52.8807567],[-2.1783866,52.8942799],[-2.1886619,52.899848],[-2.1932379,52.907129],[-2.2115174,52.9045929],[-2.2156744,52.9010065],[-2.2254749,52.9068219],[-2.2404758,52.9245095],[-2.263134,52.9218804],[-2.2641137,52.9236805]]],"type":"Polygon"},"id":"E02006192","properties":{"code":"E02006192","geography":"MSOA","name":"Stafford 005"},"type":"Feature"},{"geometry":{"coordinates":[[[-2.0883,52.8590013],[-2.1079467,52.8688669],[-2.1421468,52.8643601],[-2.154425,52.8713963],[-2.1597809,52.8712049],[-2.1587171,52.8682334],[-2.1669531,52.8689421],[-2.1626832,52.8606791],[-2.1774042,52.8578492],[-2.1708552,52.8553757],[-2.1726065,52.8479805],[-2.1823375,52.8545625],[-2.1878942,52.8539746],[-2.186259,52.8494253],[-2.1918575,52.8513717],[-2.1954923,52.8394212],[-2.1916094,52.8367651],[-2.1925981,52.8344322],[-2.184528,52.8330385],[-2.1701721,52.8330875],[-2.1575033,52.8443641],[-2.1584795,52.8353255],[-2.1640352,52.8339237],[-2.1519014,52.8210716],[-2.1475021,52.8242079],[-2.1396212,52.8197613],[-2.1339532,52.8236158],[-2.1392586,52.8278451],[-2.1319793,52.8310031],[-2.1293427,52.8269116],[-2.1244455,52.8281023],[-2.1218637,52.8257518],[-2.1213712,52.8199834],[-2.1175642,52.8234],[-2.112774,52.8198779],[-2.1044836,52.8185338],[-2.1030683,52.8207705],[-2.1069588,52.8296254],[-2.1177831,52.8332398],[-2.1205226,52.8376664],[-2.1076496,52.8453797],[-2.0883,52.8590013]]],"type":"Polygon"},"id":"E02006193","properties":{"code":"E02006193","geography":"MSOA","name":"Stafford 006"},"type":"Feature"},{"geometry":{"coordinates":[[[-2.1213712,52.8199834],[-2.1218637,52.8257518],[-2.1244455,52.8281023],[-2.1293427,52.8269116],[-2.1319793,52.8310031],[-2.1392586,52.8278451],[-2.1339532,52.8236158],[-2.1396212,52.8197613],[-2.1475021,52.8242079],[-2.1519014,52.8210716],[-2.1557063,52.8155746],[-2.1538488,52.8064074],[-2.1260376,52.8060961],[-2.1274477,52.8155549],[-2.1213712,52.8199834]]],"type":"Polygon"},"id":"E02006194","properties":{"code":"E02006194","geography":"MSOA","name":"Stafford 007"},"type":"Feature"},{"geometry":{"coordinates":[[[-1.9703298,52.885397],[-1.9859546,52.8949137],[-1.9903845,52.8787151],[-2.0039912,52.8665761],[-2.0202524,52.8637647],[-2.0225294,52.8720507],[-2.0431628,52.8753868],[-2.0459256,52.8690238],[-2.0423813,52.868013],[-2.0497627,52.8680452],[-2.0506807,52.865171],[-2.0458807,52.8560372],[-2.0484654,52.8489417],[-2.0883,52.8590013],[-2.1076496,52.8453797],[-2.0838478,52.8387259],[-2.081296,52.8403019],[-2.0748738,52.8358351],[-2.0599783,52.8377701],[-2.0361509,52.8336991],[-2.0109948,52.8186936],[-2.0062051,52.8114701],[-2.0165284,52.8074704],[-2.0148145,52.7993765],[-2.0322106,52.792986],[-2.020282,52.7780428],[-2.0184314,52.758844],[-1.9967816,52.7636273],[-1.9731359,52.7615414],[-1.9705412,52.765009],[-1.9439489,52.7737424],[-1.9520701,52.7801466],[-1.9452811,52.7893355],[-1.9506976,52.7897595],[-1.9480482,52.793407],[-1.9581359,52.7984743],[-1.9526358,52.8006213],[-1.9513321,52.8074115],[-1.9678761,52.8243442],[-1.9531507,52.832304],[-1.9511486,52.8437121],[-1.9367888,52.8480767],[-1.9398772,52.8516705],[-1.9335797,52.8531484],[-1.9376405,52.8588479],[-1.9343277,52.8662028],[-1.9360549,52.8706672],[-1.9524255,52.8684172],[-1.9605409,52.8702095],[-1.96838,52.8748296],[-1.9703298,52.885397]]],"type":"Polygon"},"id":"E02006195","properties":{"code":"E02006195","geography":"MSOA","name":"Stafford 008"},"type":"Feature"},{"geometry":{"coordinates":[[[-2.0996338,52.8034271],[-2.0967511,52.804996],[-2.1001953,52.8071541],[-2.0946299,52.8067452],[-2.0976239,52.8123496],[-2.0922834,52.8153069],[-2.09962,52.8178346],[-2.1006092,52.8148532],[-2.1092183,52.8176666],[-2.1123435,52.8133394],[-2.1189914,52.8123054],[-2.1062027,52.8038146],[-2.0996338,52.8034271]]],"type":"Polygon"},"id":"E02006196","properties":{"code":"E02006196","geography":"MSOA","name":"Stafford 009"},"type":"Feature"},{"geometry":{"coordinates":[[[-2.1030683,52.8207705],[-2.1044836,52.8185338],[-2.112774,52.8198779],[-2.1175642,52.8234],[-2.1213712,52.8199834],[-2.1274477,52.8155549],[-2.1260376,52.8060961],[-2.1162649,52.7979611],[-2.1058297,52.7954443],[-2.0996338,52.8034271],[-2.1062027,52.8038146],[-2.1189914,52.8123054],[-2.1123435,52.8133394],[-2.1092183,52.8176666],[-2.1006092,52.8148532],[-2.09962,52.8178346],[-2.1030683,52.8207705]]],"type":"Polygon"},"id":"E02006197","properties":{"code":"E02006197","geography":"MSOA","name":"Stafford 010"},"type":"Feature"},{"geometry":{"coordinates":[[[-2.020282,52.7780428],[-2.0322106,52.792986],[-2.0148145,52.7993765],[-2.0165284,52.8074704],[-2.0062051,52.8114701],[-2.0109948,52.8186936],[-2.0361509,52.8336991],[-2.0599783,52.8377701],[-2.0748738,52.8358351],[-2.081296,52.8403019],[-2.0838478,52.8387259],[-2.1076496,52.8453797],[-2.1205226,52.8376664],[-2.1177831,52.8332398],[-2.1069588,52.8296254],[-2.1030683,52.8207705],[-2.09962,52.8178346],[-2.0922834,52.8153069],[-2.0976239,52.8123496],[-2.0946299,52.8067452],[-2.1001953,52.8071541],[-2.0967511,52.804996],[-2.0996338,52.8034271],[-2.1058297,52.7954443],[-2.0986735,52.7952446],[-2.0953823,52.7888133],[-2.0911324,52.7984222],[-2.0830321,52.8041919],[-2.079272,52.8034842],[-2.0835279,52.7958852],[-2.0760328,52.7956537],[-2.0715596,52.800422],[-2.063298,52.7952073],[-2.0550928,52.7942478],[-2.0515233,52.7897462],[-2.0589019,52.7866061],[-2.0415625,52.7808616],[-2.041519,52.7775456],[-2.020282,52.7780428]]],"type":"Polygon"},"id":"E02006198","properties":{"code":"E02006198","geography":"MSOA","name":"Stafford 011"},"type":"Feature"},{"geometry":{"coordinates":[[[-2.1916094,52.8367651],[-2.2017149,52.8351086],[-2.2293577,52.8379437],[-2.2300427,52.8415112],[-2.2403819,52.8466762],[-2.2471374,52.8419721],[-2.2662548,52.8390277],[-2.2705453,52.8304148],[-2.2590043,52.8176329],[-2.2615007,52.814429],[-2.2549726,52.8141991],[-2.2482915,52.8006625],[-2.2449463,52.8029657],[-2.2232784,52.7968513],[-2.1856073,52.8001929],[-2.1897144,52.79316],[-2.1626824,52.7878745],[-2.1622973,52.7840211],[-2.156391,52.782391],[-2.1611103,52.775649],[-2.1493503,52.7802957],[-2.1384484,52.783724],[-2.134728,52.7759721],[-2.1134697,52.7692469],[-2.1214747,52.7805061],[-2.1482346,52.7923746],[-2.1375352,52.792104],[-2.1337577,52.7970716],[-2.1231978,52.78952],[-2.1126676,52.7926757],[-2.1162649,52.7979611],[-2.1260376,52.8060961],[-2.1538488,52.8064074],[-2.1557063,52.8155746],[-2.1519014,52.8210716],[-2.1640352,52.8339237],[-2.1584795,52.8353255],[-2.1575033,52.8443641],[-2.1701721,52.8330875],[-2.184528,52.8330385],[-2.1925981,52.8344322],[-2.1916094,52.8367651]]],"type":"Polygon"},"id":"E02006199","properties":{"code":"E02006199","geography":"MSOA","name":"Stafford 012"},"type":"Feature"},{"geometry":{"coordinates":[[[-2.1126676,52.7926757],[-2.1231978,52.78952],[-2.1337577,52.7970716],[-2.1375352,52.792104],[-2.1482346,52.7923746],[-2.1214747,52.7805061],[-2.1184082,52.7850518],[-2.110522,52.7872981],[-2.1126676,52.7926757]]],"type":"Polygon"},"id":"E02006200","properties":{"code":"E02006200","geography":"MSOA","name":"Stafford 013"},"type":"Feature"},{"geometry":{"coordinates":[[[-2.020282,52.7780428],[-2.041519,52.7775456],[-2.0415625,52.7808616],[-2.0589019,52.7866061],[-2.0515233,52.7897462],[-2.0550928,52.7942478],[-2.063298,52.7952073],[-2.0715596,52.800422],[-2.0760328,52.7956537],[-2.0835279,52.7958852],[-2.079272,52.8034842],[-2.0830321,52.8041919],[-2.0911324,52.7984222],[-2.0953823,52.7888133],[-2.0951685,52.7864167],[-2.095093,52.7810745],[-2.0776664,52.7804333],[-2.0659688,52.7735305],[-2.0761688,52.7669513],[-2.0562016,52.7653983],[-2.0516014,52.7615574],[-2.0471473,52.7636051],[-2.0434063,52.7613334],[-2.0268071,52.7363013],[-2.0170214,52.7425498],[-2.0147857,52.7534938],[-2.0184314,52.758844],[-2.020282,52.7780428]]],"type":"Polygon"},"id":"E02006201","properties":{"code":"E02006201","geography":"MSOA","name":"Stafford 014"},"type":"Feature"},{"geometry":{"coordinates":[[[-2.2705453,52.8304148],[-2.2877047,52.8413165],[-2.3075465,52.8402043],[-2.3213575,52.8460251],[-2.3449907,52.8375832],[-2.3584226,52.8425002],[-2.3676604,52.8425626],[-2.3774858,52.8327563],[-2.373198,52.8297786],[-2.3739476,52.8231474],[-2.3644488,52.8155774],[-2.3776555,52.8116282],[-2.3714151,52.7952704],[-2.3806408,52.7947142],[-2.3808757,52.7910982],[-2.3856209,52.7907084],[-2.376278,52.7837569],[-2.3660982,52.7833843],[-2.3688691,52.7772928],[-2.3575843,52.7722052],[-2.3301356,52.7579631],[-2.330477,52.7516024],[-2.3216342,52.7498796],[-2.3122032,52.7408489],[-2.2993946,52.7407053],[-2.295912,52.7434309],[-2.2809407,52.7405274],[-2.2749575,52.7427743],[-2.2739024,52.7377411],[-2.2664981,52.7371672],[-2.2644371,52.7309679],[-2.2549963,52.7295562],[-2.2568524,52.7178345],[-2.2470219,52.7150329],[-2.2311863,52.7247517],[-2.2197633,52.7259793],[-2.2168806,52.7328776],[-2.2019455,52.7319626],[-2.1785066,52.7366876],[-2.1779036,52.7439955],[-2.1689886,52.7445673],[-2.1635765,52.7411901],[-2.1596056,52.743674],[-2.1561764,52.7725604],[-2.1493503,52.7802957],[-2.1611103,52.775649],[-2.156391,52.782391],[-2.1622973,52.7840211],[-2.1626824,52.7878745],[-2.1897144,52.79316],[-2.1856073,52.8001929],[-2.2232784,52.7968513],[-2.2449463,52.8029657],[-2.2482915,52.8006625],[-2.2549726,52.8141991],[-2.2615007,52.814429],[-2.2590043,52.8176329],[-2.2705453,52.8304148]]],"type":"Polygon"},"id":"E02006202","properties":{"code":"E02006202","geography":"MSOA","name":"Stafford 015"},"type":"Feature"},{"geometry":{"coordinates":[[[-2.1058297,52.7954443],[-2.1162649,52.7979611],[-2.1126676,52.7926757],[-2.110522,52.7872981],[-2.1184082,52.7850518],[-2.1214747,52.7805061],[-2.1134697,52.7692469],[-2.1110247,52.7715856],[-2.1028529,52.7698057],[-2.0989654,52.7732173],[-2.0991235,52.7846849],[-2.0951685,52.7864167],[-2.0953823,52.7888133],[-2.0986735,52.7952446],[-2.1058297,52.7954443]]],"type":"Polygon"},"id":"E02006203","properties":{"code":"E02006203","geography":"MSOA","name":"Stafford 016"},"type":"Feature"}],"type":"FeatureCollection"}
