{"features":[{"geometry":{"coordinates":[[[1.2732156,51.9282616],[1.2821119,51.9346271],[1.2852952,51.9369042],[1.2896566,51.9363878],[1.2913048,51.936936],[1.2965284,51.9355918],[1.2901014,51.9381532],[1.2916285,51.9490369],[1.2843774,51.9464779],[1.2848001,51.9450408],[1.276836,51.944699],[1.2805331,51.9404001],[1.2775155,51.9398904],[1.2745777,51.9393941],[1.2640249,51.9452794],[1.263181,51.9457499],[1.2639314,51.9409105],[1.2741533,51.9389647],[1.2695643,51.9347709],[1.2732156,51.9282616]]],"type":"Polygon"},"id":"E02004573","properties":{"code":"E02004573","geography":"MSOA","name":"Tendring 001"},"type":"Feature"},{"geometry":{"coordinates":[[[1.263181,51.9457499],[1.2628829,51.9459162],[1.254165,51.9471597],[1.2418914,51.9468013],[1.2364703,51.9441503],[1.2351342,51.9434968],[1.2329524,51.9443846],[1.236923,51.9407116],[1.2332065,51.9394197],[1.2398608,51.9376607],[1.2375008,51.9353291],[1.2441621,51.9339958],[1.2437313,51.9288544],[1.2512654,51.9296066],[1.2492086,51.9257408],[1.2548402,51.9249307],[1.253708,51.9301688],[1.2566039,51.9316454],[1.2586952,51.9278909],[1.2620369,51.9285712],[1.2639585,51.9348015],[1.2695643,51.9347709],[1.2741533,51.9389647],[1.2639314,51.9409105],[1.263181,51.9457499]]],"type":"Polygon"},"id":"E02004574","properties":{"code":"E02004574","geography":"MSOA","name":"Tendring 002"},"type":"Feature"},{"geometry":{"coordinates":[[[1.0556983,51.9521418],[1.0476818,51.959486],[1.0399253,51.9559398],[1.0331219,51.9577464],[1.024682,51.9548893],[1.0227897,51.9464464],[1.005703,51.9355929],[1.0251162,51.9181437],[1.0326519,51.9215117],[1.0504148,51.9197442],[1.0619459,51.9341596],[1.0682843,51.9302682],[1.067367,51.9146508],[1.0724593,51.904316],[1.0683267,51.8980031],[1.0646592,51.9000948],[1.0683093,51.903999],[1.0600289,51.9041461],[1.0634249,51.900785],[1.0616702,51.8878543],[1.0549346,51.8829866],[1.0553822,51.8773206],[1.0500893,51.8756726],[1.0533673,51.8712976],[1.056561,51.874081],[1.0563522,51.870971],[1.0781986,51.8672008],[1.0863402,51.858336],[1.0963346,51.8562374],[1.0952856,51.8620322],[1.1039466,51.8598771],[1.1059245,51.8673717],[1.1095061,51.868503],[1.1135927,51.8630969],[1.1200577,51.862973],[1.1208009,51.8651429],[1.125732,51.8641421],[1.1326512,51.8734649],[1.1408207,51.8732151],[1.1437515,51.8821254],[1.1361483,51.8853699],[1.1210928,51.8948713],[1.1268741,51.9055041],[1.1501791,51.9061506],[1.1504229,51.8973415],[1.1541898,51.8988154],[1.1532587,51.9031248],[1.162952,51.9045939],[1.1758423,51.9010166],[1.1821525,51.9054971],[1.1720671,51.9112443],[1.1712103,51.9159092],[1.1585476,51.9153186],[1.1661928,51.9307411],[1.1798223,51.9363671],[1.1815483,51.9417679],[1.1810002,51.9417453],[1.1705945,51.9479857],[1.150337,51.9458821],[1.1362798,51.9404656],[1.1194083,51.9400274],[1.0981909,51.9437344],[1.0853526,51.9455949],[1.0811877,51.9446698],[1.0795202,51.9464396],[1.0792748,51.9464751],[1.0755473,51.9470148],[1.0618467,51.9459332],[1.059904,51.9486063],[1.0587185,51.9494699],[1.058567,51.949513],[1.0582091,51.949841],[1.0538896,51.9529871],[1.0556983,51.9521418]]],"type":"Polygon"},"id":"E02004575","properties":{"code":"E02004575","geography":"MSOA","name":"Tendring 003"},"type":"Feature"},{"geometry":{"coordinates":[[[[1.2235046,51.8982091],[1.2190387,51.8975453],[1.2237218,51.8965538],[1.2238302,51.8965341],[1.2288665,51.8956165],[1.2235046,51.8982091]]],[[[1.231801,51.9017401],[1.2286375,51.8984434],[1.2342158,51.8929574],[1.2308353,51.8882501],[1.2424583,51.8864802],[1.2349652,51.8911262],[1.2446121,51.8880496],[1.2445881,51.8955012],[1.2347117,51.896662],[1.2381519,51.896507],[1.231801,51.9017401]]],[[[1.2332065,51.9394197],[1.236923,51.9407116],[1.2329524,51.9443846],[1.2319811,51.9447798],[1.2328544,51.9406206],[1.2273828,51.9394609],[1.2172563,51.9398094],[1.2191111,51.9448997],[1.2140482,51.9403073],[1.2058463,51.9427706],[1.1994329,51.9425064],[1.1815483,51.9417679],[1.1798223,51.9363671],[1.1661928,51.9307411],[1.1585476,51.9153186],[1.1712103,51.9159092],[1.1720671,51.9112443],[1.1821525,51.9054971],[1.1758423,51.9010166],[1.162952,51.9045939],[1.1532587,51.9031248],[1.1541898,51.8988154],[1.1504229,51.8973415],[1.1501791,51.9061506],[1.1268741,51.9055041],[1.1210928,51.8948713],[1.1361483,51.8853699],[1.1516822,51.8923853],[1.1782619,51.8871296],[1.1838623,51.8917387],[1.1798115,51.8959613],[1.1860043,51.8985249],[1.1977685,51.8929958],[1.2127184,51.8971674],[1.2297263,51.9045376],[1.2400442,51.9026177],[1.2316309,51.902449],[1.2399546,51.8965662],[1.2443536,51.8969674],[1.243444,51.9001801],[1.2467,51.8960986],[1.2533138,51.9032447],[1.2541009,51.904095],[1.2588814,51.9152684],[1.2540051,51.918108],[1.2549907,51.9180506],[1.25857,51.9165111],[1.2589733,51.9163353],[1.2597039,51.9167401],[1.2617963,51.9178993],[1.2729681,51.9280845],[1.2732156,51.9282616],[1.2695643,51.9347709],[1.2639585,51.9348015],[1.2620369,51.9285712],[1.2586952,51.9278909],[1.2566039,51.9316454],[1.253708,51.9301688],[1.2548402,51.9249307],[1.2492086,51.9257408],[1.2512654,51.9296066],[1.2437313,51.9288544],[1.2441621,51.9339958],[1.2375008,51.9353291],[1.2398608,51.9376607],[1.2332065,51.9394197]]]],"type":"MultiPolygon"},"id":"E02004576","properties":{"code":"E02004576","geography":"MSOA","name":"Tendring 004"},"type":"Feature"},{"geometry":{"coordinates":[[[1.005703,51.9355929],[0.9854975,51.9397248],[0.9692384,51.9397126],[0.9491962,51.9350066],[0.9352529,51.9224948],[0.932211,51.9182023],[0.9314799,51.9132179],[0.947973,51.9100009],[0.944109,51.9062131],[0.957113,51.9036365],[0.9487457,51.8969676],[0.953077,51.8916932],[0.9626091,51.8907167],[0.9580912,51.8811051],[0.9528245,51.8802987],[0.9791437,51.8703363],[0.9739487,51.8604448],[0.9780751,51.8540325],[0.966552,51.8516473],[0.97156,51.8501015],[0.9731242,51.8495776],[0.9844613,51.854393],[0.9854879,51.8633834],[0.9905435,51.8672473],[0.9945828,51.8640173],[0.9983952,51.8658326],[0.9984243,51.8616681],[1.0020995,51.8620671],[1.0052794,51.8575776],[1.0135623,51.8564972],[1.0102135,51.8658359],[1.0201131,51.875575],[1.0354312,51.872584],[1.0500893,51.8756726],[1.0553822,51.8773206],[1.0549346,51.8829866],[1.0616702,51.8878543],[1.0634249,51.900785],[1.0600289,51.9041461],[1.0683093,51.903999],[1.0646592,51.9000948],[1.0683267,51.8980031],[1.0724593,51.904316],[1.067367,51.9146508],[1.0682843,51.9302682],[1.0619459,51.9341596],[1.0504148,51.9197442],[1.0326519,51.9215117],[1.0251162,51.9181437],[1.005703,51.9355929]]],"type":"Polygon"},"id":"E02004577","properties":{"code":"E02004577","geography":"MSOA","name":"Tendring 005"},"type":"Feature"},{"geometry":{"coordinates":[[[[1.2634985,51.8639916],[1.2632305,51.8640329],[1.2633054,51.8639545],[1.2634985,51.8639916]]],[[[1.2636605,51.8862002],[1.2635295,51.8827492],[1.2716066,51.8820785],[1.2664633,51.8812789],[1.2703046,51.8770266],[1.2677592,51.8770866],[1.2734534,51.8621001],[1.2701312,51.8569578],[1.2749028,51.8548597],[1.2697221,51.8560446],[1.2690367,51.8517401],[1.2654223,51.8558781],[1.2713953,51.8605852],[1.2662067,51.8619311],[1.2714291,51.8622914],[1.2600544,51.8633623],[1.2600125,51.8633662],[1.2549595,51.8497484],[1.2618786,51.8471982],[1.2589341,51.8444005],[1.2639552,51.8448936],[1.2533828,51.8386202],[1.243235,51.8376114],[1.2432252,51.8293505],[1.2401076,51.8334939],[1.240395,51.828754],[1.2355694,51.8301598],[1.2391037,51.8215301],[1.23919,51.8215986],[1.2542401,51.8335431],[1.260612,51.8385976],[1.2625857,51.8401318],[1.280717,51.854219],[1.2889029,51.8630297],[1.2920709,51.8700472],[1.2917088,51.8709138],[1.2862352,51.8766499],[1.2834146,51.8767168],[1.2636605,51.8862002]]]],"type":"MultiPolygon"},"id":"E02004578","properties":{"code":"E02004578","geography":"MSOA","name":"Tendring 006"},"type":"Feature"},{"geometry":{"coordinates":[[[[1.2676315,51.8647857],[1.2681187,51.8648793],[1.2680245,51.8650754],[1.2645811,51.8722371],[1.2544391,51.8736066],[1.2518282,51.8694641],[1.2587693,51.8687061],[1.2632305,51.8640329],[1.2634985,51.8639916],[1.2676315,51.8647857]]],[[[1.2636525,51.8749293],[1.262185,51.8806818],[1.2596129,51.8755868],[1.2546157,51.8756083],[1.2635058,51.8729775],[1.2636525,51.8749293]]],[[[1.2570057,51.8837198],[1.238221,51.8812022],[1.2385968,51.8788893],[1.2364133,51.881932],[1.2293944,51.8814154],[1.2258809,51.8750548],[1.2445277,51.8688258],[1.2460415,51.8745511],[1.2502316,51.8769573],[1.2483014,51.874222],[1.2540584,51.8767247],[1.258985,51.8763076],[1.2570057,51.8837198]]],[[[1.2271346,51.8881889],[1.2256407,51.88864],[1.2208781,51.8882642],[1.2261226,51.8882011],[1.2295145,51.8851114],[1.2119698,51.8809573],[1.2297284,51.8849166],[1.2297596,51.8851694],[1.2271346,51.8881889]]],[[[1.2190387,51.8975453],[1.21862,51.8974831],[1.2237218,51.8965538],[1.2190387,51.8975453]]],[[[1.1860043,51.8985249],[1.1798115,51.8959613],[1.1838623,51.8917387],[1.1782619,51.8871296],[1.1516822,51.8923853],[1.1361483,51.8853699],[1.1437515,51.8821254],[1.1408207,51.8732151],[1.1326512,51.8734649],[1.125732,51.8641421],[1.1208009,51.8651429],[1.1200577,51.862973],[1.1135927,51.8630969],[1.1095061,51.868503],[1.1059245,51.8673717],[1.1039466,51.8598771],[1.0952856,51.8620322],[1.0963346,51.8562374],[1.0939775,51.851045],[1.1011436,51.8444654],[1.1100782,51.8458368],[1.1319061,51.8358606],[1.1258711,51.8316718],[1.1234496,51.8176762],[1.1365974,51.8193013],[1.1487111,51.8199],[1.1498976,51.823396],[1.1797483,51.8224088],[1.1809366,51.8250979],[1.1867472,51.8246496],[1.1901643,51.8286497],[1.1840958,51.8319154],[1.2144383,51.8563563],[1.2281779,51.8588167],[1.2280944,51.8588912],[1.2322463,51.8629562],[1.2252524,51.8649382],[1.2301192,51.8679769],[1.2284641,51.872596],[1.212727,51.8699367],[1.2217423,51.8720653],[1.2243939,51.8805687],[1.2077499,51.8708649],[1.1943599,51.8711167],[1.1781833,51.8714189],[1.1923091,51.8717458],[1.194487,51.8729093],[1.1996613,51.8756733],[1.197081,51.8773166],[1.2097559,51.8784823],[1.2108335,51.8791454],[1.2111763,51.880549],[1.2062586,51.8817977],[1.210479,51.8795194],[1.2025181,51.8781445],[1.1989856,51.884775],[1.2122291,51.8863638],[1.212486,51.8903718],[1.2282789,51.8905257],[1.2300931,51.8941122],[1.218876,51.8958639],[1.2121376,51.8969156],[1.2127184,51.8971674],[1.1977685,51.8929958],[1.1860043,51.8985249]]]],"type":"MultiPolygon"},"id":"E02004579","properties":{"code":"E02004579","geography":"MSOA","name":"Tendring 007"},"type":"Feature"},{"geometry":{"coordinates":[[[1.2600125,51.8633662],[1.2586898,51.8634907],[1.2525013,51.863735],[1.2537612,51.8580462],[1.24934,51.8565406],[1.2499311,51.8570102],[1.2523554,51.858936],[1.2492638,51.8622946],[1.2431087,51.8592059],[1.2355911,51.8614872],[1.2323774,51.855062],[1.2281779,51.8588167],[1.2144383,51.8563563],[1.1840958,51.8319154],[1.1901643,51.8286497],[1.1867472,51.8246496],[1.198945,51.8126072],[1.2032185,51.8096807],[1.2132379,51.8100147],[1.2285915,51.818676],[1.2316504,51.8170661],[1.2318562,51.817158],[1.2387317,51.8212347],[1.2391037,51.8215301],[1.2355694,51.8301598],[1.240395,51.828754],[1.2401076,51.8334939],[1.2432252,51.8293505],[1.243235,51.8376114],[1.2533828,51.8386202],[1.2639552,51.8448936],[1.2589341,51.8444005],[1.2618786,51.8471982],[1.2549595,51.8497484],[1.2600125,51.8633662]]],"type":"Polygon"},"id":"E02004580","properties":{"code":"E02004580","geography":"MSOA","name":"Tendring 008"},"type":"Feature"},{"geometry":{"coordinates":[[[1.0963346,51.8562374],[1.0863402,51.858336],[1.0781986,51.8672008],[1.0563522,51.870971],[1.056561,51.874081],[1.0533673,51.8712976],[1.0500893,51.8756726],[1.0354312,51.872584],[1.0201131,51.875575],[1.0102135,51.8658359],[1.0135623,51.8564972],[1.0052794,51.8575776],[1.0020995,51.8620671],[0.9984243,51.8616681],[0.9983952,51.8658326],[0.9945828,51.8640173],[0.9905435,51.8672473],[0.9854879,51.8633834],[0.9844613,51.854393],[0.9731242,51.8495776],[0.9803886,51.847144],[0.984271,51.8407085],[0.9854644,51.83873],[0.9893324,51.8375938],[0.9882906,51.8365928],[0.9826597,51.8311817],[0.9936218,51.8164049],[1.0019388,51.8111138],[1.00577,51.8132105],[1.0141278,51.8108153],[1.0166589,51.8163359],[1.0267209,51.8172229],[1.0245082,51.8212787],[1.0300057,51.8264906],[1.0442772,51.8194333],[1.0490534,51.823042],[1.0634657,51.81827],[1.0635947,51.8185336],[1.0609817,51.8221547],[1.0595246,51.8241737],[1.0632573,51.820576],[1.067701,51.82107],[1.0860064,51.8402668],[1.0929985,51.8401752],[1.1011436,51.8444654],[1.0939775,51.851045],[1.0963346,51.8562374]]],"type":"Polygon"},"id":"E02004581","properties":{"code":"E02004581","geography":"MSOA","name":"Tendring 009"},"type":"Feature"},{"geometry":{"coordinates":[[[1.1867472,51.8246496],[1.1809366,51.8250979],[1.1797483,51.8224088],[1.1498976,51.823396],[1.1487111,51.8199],[1.1365974,51.8193013],[1.145397,51.8101467],[1.1565404,51.810278],[1.155681,51.8052278],[1.1618537,51.8027696],[1.1710698,51.8081301],[1.1774074,51.8072389],[1.198945,51.8126072],[1.1867472,51.8246496]]],"type":"Polygon"},"id":"E02004582","properties":{"code":"E02004582","geography":"MSOA","name":"Tendring 010"},"type":"Feature"},{"geometry":{"coordinates":[[[[1.0574347,51.8084444],[1.0444014,51.8031176],[1.0465029,51.8024471],[1.0297393,51.8003766],[1.0207517,51.8031416],[1.0175809,51.8006517],[1.0371211,51.7905967],[1.0370867,51.7875663],[1.0373402,51.7874537],[1.0414176,51.7890123],[1.05305,51.7862372],[1.0512695,51.7790083],[1.059045,51.7790395],[1.0631579,51.7877127],[1.0574347,51.8084444]]],[[[1.0300057,51.8264906],[1.0245082,51.8212787],[1.0267209,51.8172229],[1.0166589,51.8163359],[1.0141278,51.8108153],[1.00577,51.8132105],[1.0019388,51.8111138],[1.0105718,51.8056199],[1.0396426,51.80559],[1.0589123,51.8112174],[1.061461,51.8141718],[1.0634657,51.81827],[1.0490534,51.823042],[1.0442772,51.8194333],[1.0300057,51.8264906]]]],"type":"MultiPolygon"},"id":"E02004583","properties":{"code":"E02004583","geography":"MSOA","name":"Tendring 011"},"type":"Feature"},{"geometry":{"coordinates":[[[1.2316504,51.8170661],[1.2285915,51.818676],[1.2132379,51.8100147],[1.2032185,51.8096807],[1.198945,51.8126072],[1.1774074,51.8072389],[1.1789773,51.7958995],[1.1855295,51.7979196],[1.1892616,51.7990699],[1.196006,51.8011484],[1.2316504,51.8170661]]],"type":"Polygon"},"id":"E02004584","properties":{"code":"E02004584","geography":"MSOA","name":"Tendring 012"},"type":"Feature"},{"geometry":{"coordinates":[[[1.155681,51.8052278],[1.1565404,51.810278],[1.145397,51.8101467],[1.1365974,51.8193013],[1.1234496,51.8176762],[1.1182354,51.8043657],[1.1012074,51.8046937],[1.0975163,51.8011285],[1.0986066,51.7930608],[1.1185284,51.7898054],[1.1225409,51.7955048],[1.1183627,51.7994993],[1.1243398,51.7989944],[1.1305817,51.8040454],[1.1409224,51.8046005],[1.1371136,51.7998852],[1.140457,51.7967323],[1.141799,51.7975019],[1.1479502,51.8008476],[1.147938,51.8047703],[1.155681,51.8052278]]],"type":"Polygon"},"id":"E02004585","properties":{"code":"E02004585","geography":"MSOA","name":"Tendring 013"},"type":"Feature"},{"geometry":{"coordinates":[[[1.1774074,51.8072389],[1.1710698,51.8081301],[1.1618537,51.8027696],[1.155681,51.8052278],[1.147938,51.8047703],[1.1479502,51.8008476],[1.1612627,51.7895802],[1.1613006,51.7895965],[1.1727744,51.7936945],[1.1788044,51.7958462],[1.1789773,51.7958995],[1.1774074,51.8072389]]],"type":"Polygon"},"id":"E02004586","properties":{"code":"E02004586","geography":"MSOA","name":"Tendring 014"},"type":"Feature"},{"geometry":{"coordinates":[[[1.140457,51.7967323],[1.1371136,51.7998852],[1.1409224,51.8046005],[1.1305817,51.8040454],[1.1243398,51.7989944],[1.1183627,51.7994993],[1.1225409,51.7955048],[1.1185284,51.7898054],[1.1200406,51.7846022],[1.1332985,51.7856521],[1.1408091,51.7930895],[1.135174,51.7928264],[1.1317182,51.7966342],[1.140457,51.7967323]]],"type":"Polygon"},"id":"E02004587","properties":{"code":"E02004587","geography":"MSOA","name":"Tendring 015"},"type":"Feature"},{"geometry":{"coordinates":[[[1.1612627,51.7895802],[1.1479502,51.8008476],[1.141799,51.7975019],[1.1480035,51.7944535],[1.1503144,51.7848501],[1.1549854,51.7868684],[1.1612627,51.7895802]]],"type":"Polygon"},"id":"E02004588","properties":{"code":"E02004588","geography":"MSOA","name":"Tendring 016"},"type":"Feature"},{"geometry":{"coordinates":[[[1.1503144,51.7848501],[1.1480035,51.7944535],[1.141799,51.7975019],[1.140457,51.7967323],[1.1317182,51.7966342],[1.135174,51.7928264],[1.1408091,51.7930895],[1.1332985,51.7856521],[1.1200406,51.7846022],[1.1243041,51.7754283],[1.1243798,51.7754372],[1.1501203,51.7847662],[1.1503144,51.7848501]]],"type":"Polygon"},"id":"E02004589","properties":{"code":"E02004589","geography":"MSOA","name":"Tendring 017"},"type":"Feature"},{"geometry":{"coordinates":[[[[1.0601999,51.8115933],[1.061461,51.8141718],[1.0589123,51.8112174],[1.0601999,51.8115933]]],[[[1.1258711,51.8316718],[1.1319061,51.8358606],[1.1100782,51.8458368],[1.1011436,51.8444654],[1.0929985,51.8401752],[1.0860064,51.8402668],[1.067701,51.82107],[1.0677657,51.8210772],[1.067408,51.8203952],[1.0621513,51.8103714],[1.0574347,51.8084444],[1.0631579,51.7877127],[1.059045,51.7790395],[1.0512695,51.7790083],[1.05305,51.7862372],[1.0414176,51.7890123],[1.0373402,51.7874537],[1.0370867,51.7875663],[1.0370631,51.7854842],[1.0411496,51.7838666],[1.0362553,51.7848272],[1.0355589,51.7874639],[1.0321763,51.7862004],[1.0292131,51.7886809],[1.0329744,51.7782993],[1.0426513,51.7698996],[1.094506,51.7719285],[1.1243041,51.7754283],[1.1200406,51.7846022],[1.1185284,51.7898054],[1.0986066,51.7930608],[1.0975163,51.8011285],[1.1012074,51.8046937],[1.1182354,51.8043657],[1.1234496,51.8176762],[1.1258711,51.8316718]]]],"type":"MultiPolygon"},"id":"E02004590","properties":{"code":"E02004590","geography":"MSOA","name":"Tendring 018"},"type":"Feature"}],"type":"FeatureCollection"}
