{"features":[{"geometry":{"coordinates":[[[-4.0774515,51.2156243],[-4.0780317,51.2161546],[-4.0816351,51.2170329],[-4.0833715,51.2158748],[-4.0880954,51.2174543],[-4.096985,51.2108984],[-4.097718,51.211198],[-4.0980668,51.2108844],[-4.0996842,51.2120017],[-4.1031273,51.2134088],[-4.1115215,51.2094804],[-4.1156736,51.2098883],[-4.1139963,51.2105575],[-4.1188815,51.2119615],[-4.1212234,51.2120328],[-4.1200052,51.2103045],[-4.1273723,51.2059997],[-4.1073614,51.1973337],[-4.09934,51.1758126],[-4.0977615,51.1753548],[-4.0841184,51.1896698],[-4.0820619,51.2113141],[-4.0865028,51.2130902],[-4.0774515,51.2156243]]],"type":"Polygon"},"id":"E02004175","properties":{"code":"E02004175","geography":"MSOA","name":"North Devon 001"},"type":"Feature"},{"geometry":{"coordinates":[[[-3.7205333,51.2330684],[-3.7207649,51.2330928],[-3.7697369,51.2376671],[-3.7854075,51.2463939],[-3.8085373,51.2318129],[-3.8275602,51.2327044],[-3.8300581,51.2303875],[-3.8452758,51.2351801],[-3.8459911,51.2351855],[-3.8614861,51.2307324],[-3.8676081,51.2311072],[-3.8717995,51.2300683],[-3.872035,51.2274399],[-3.8775278,51.2286481],[-3.8870045,51.2262979],[-3.8919606,51.22381],[-3.9036388,51.2296872],[-3.9256401,51.2319665],[-3.9455711,51.224166],[-3.948153,51.2221556],[-3.9514755,51.2217619],[-3.95431,51.2205566],[-3.9548579,51.2205293],[-3.958213,51.2192152],[-3.9667269,51.219938],[-3.9669504,51.2199269],[-3.9670843,51.219911],[-4.005984,51.2179704],[-4.0133893,51.2175995],[-4.0279308,51.2164003],[-4.0286387,51.2159986],[-4.031869,51.2105324],[-4.0389354,51.2101547],[-4.0406867,51.2091605],[-4.0386506,51.2066957],[-4.0419672,51.2069037],[-4.0507789,51.2074559],[-4.072355,51.2173889],[-4.070804,51.2151169],[-4.0692495,51.2145616],[-4.0705796,51.2147882],[-4.0701556,51.214167],[-4.0771192,51.2153205],[-4.0774515,51.2156243],[-4.0865028,51.2130902],[-4.0820619,51.2113141],[-4.0841184,51.1896698],[-4.0977615,51.1753548],[-4.084409,51.1785078],[-4.0716495,51.1771355],[-4.071942,51.1657381],[-4.0642157,51.1596311],[-4.0488422,51.1621732],[-4.0357004,51.1731014],[-4.0256456,51.1732955],[-4.0232501,51.17725],[-4.0048446,51.175726],[-3.9984069,51.181982],[-3.9994724,51.1919534],[-3.9747003,51.1851286],[-3.9667844,51.185674],[-3.9537788,51.1914361],[-3.9527439,51.1972776],[-3.9425068,51.1912935],[-3.9340293,51.1779492],[-3.9368798,51.1719387],[-3.9314403,51.1697071],[-3.9132963,51.1680895],[-3.909211,51.1725575],[-3.8953815,51.1689976],[-3.8981467,51.1808015],[-3.8901641,51.1739901],[-3.8610838,51.1757392],[-3.8435427,51.1734407],[-3.8398034,51.1766741],[-3.8062507,51.1778748],[-3.786287,51.1719287],[-3.7572333,51.1773511],[-3.7458592,51.1755589],[-3.7252786,51.1793617],[-3.7244058,51.1839224],[-3.7320717,51.190971],[-3.7261956,51.1994249],[-3.731557,51.2151323],[-3.7287212,51.2188523],[-3.7331855,51.222726],[-3.7205333,51.2330684]]],"type":"Polygon"},"id":"E02004176","properties":{"code":"E02004176","geography":"MSOA","name":"North Devon 002"},"type":"Feature"},{"geometry":{"coordinates":[[[-4.1212234,51.2120328],[-4.1216541,51.2120459],[-4.1216772,51.2104226],[-4.139547,51.2077473],[-4.1449514,51.2054811],[-4.1457481,51.2044683],[-4.1460707,51.2040581],[-4.1572786,51.2033429],[-4.1676263,51.2023279],[-4.1758372,51.1982713],[-4.1771884,51.1974515],[-4.1772229,51.1975866],[-4.177577,51.1974116],[-4.1836768,51.199878],[-4.1930905,51.1988628],[-4.1934619,51.1989452],[-4.1977212,51.1878927],[-4.180748,51.178969],[-4.1717342,51.1836306],[-4.1739042,51.1928164],[-4.1692017,51.1958002],[-4.1589409,51.1892191],[-4.1594133,51.1759836],[-4.133075,51.1795185],[-4.0993983,51.1758223],[-4.09934,51.1758126],[-4.1073614,51.1973337],[-4.1273723,51.2059997],[-4.1200052,51.2103045],[-4.1212234,51.2120328]]],"type":"Polygon"},"id":"E02004177","properties":{"code":"E02004177","geography":"MSOA","name":"North Devon 003"},"type":"Feature"},{"geometry":{"coordinates":[[[-4.1934619,51.1989452],[-4.1989207,51.2001566],[-4.2015367,51.2003628],[-4.2115324,51.1901526],[-4.2305058,51.187881],[-4.214267,51.1823854],[-4.2114609,51.1781702],[-4.2145286,51.1764394],[-4.2097089,51.1725303],[-4.217532,51.1527767],[-4.2199373,51.1466999],[-4.224818,51.1442193],[-4.2546455,51.146874],[-4.2556662,51.1469257],[-4.2615235,51.1430077],[-4.259415,51.1418431],[-4.2493632,51.1376131],[-4.2392092,51.1333385],[-4.2424902,51.1237243],[-4.1859699,51.1275311],[-4.177134,51.1259792],[-4.1775629,51.1318971],[-4.1660321,51.1327475],[-4.158076,51.124168],[-4.1615916,51.1135678],[-4.1573191,51.1139643],[-4.1575063,51.1073589],[-4.1530909,51.1043029],[-4.1208677,51.1047443],[-4.1159664,51.1107292],[-4.108923,51.1087804],[-4.0976766,51.1143674],[-4.0978222,51.1199679],[-4.1056149,51.1231304],[-4.1013756,51.1313514],[-4.1077649,51.1316745],[-4.1117106,51.1368297],[-4.0927094,51.1543589],[-4.0837805,51.1541371],[-4.0993983,51.1758223],[-4.133075,51.1795185],[-4.1594133,51.1759836],[-4.1589409,51.1892191],[-4.1692017,51.1958002],[-4.1739042,51.1928164],[-4.1717342,51.1836306],[-4.180748,51.178969],[-4.1977212,51.1878927],[-4.1934619,51.1989452]]],"type":"Polygon"},"id":"E02004178","properties":{"code":"E02004178","geography":"MSOA","name":"North Devon 004"},"type":"Feature"},{"geometry":{"coordinates":[[[[-4.1283442,51.0793143],[-4.1296362,51.0793601],[-4.1366206,51.0796071],[-4.1368282,51.0796144],[-4.1303459,51.0788152],[-4.1283442,51.0793143]]],[[[-4.1660321,51.1327475],[-4.1775629,51.1318971],[-4.177134,51.1259792],[-4.1859699,51.1275311],[-4.2424902,51.1237243],[-4.242535,51.1235932],[-4.2398887,51.1209576],[-4.2347894,51.1194829],[-4.2225336,51.1177986],[-4.2228363,51.0895155],[-4.2158123,51.075726],[-4.190522,51.0648792],[-4.1919676,51.0694046],[-4.1818456,51.0772295],[-4.1805675,51.0775168],[-4.179862,51.0776754],[-4.1669261,51.0805821],[-4.1708196,51.087227],[-4.1706244,51.0875969],[-4.1679572,51.0926497],[-4.167585,51.0933506],[-4.1688522,51.0875073],[-4.1637347,51.0839085],[-4.1339462,51.085791],[-4.1287768,51.0933381],[-4.1186662,51.0945408],[-4.1080446,51.0937202],[-4.0924942,51.0865405],[-4.0877589,51.0934368],[-4.0889342,51.1001532],[-4.0836228,51.1033423],[-4.0976766,51.1143674],[-4.108923,51.1087804],[-4.1159664,51.1107292],[-4.1208677,51.1047443],[-4.1530909,51.1043029],[-4.1575063,51.1073589],[-4.1573191,51.1139643],[-4.1615916,51.1135678],[-4.158076,51.124168],[-4.1660321,51.1327475]]]],"type":"MultiPolygon"},"id":"E02004179","properties":{"code":"E02004179","geography":"MSOA","name":"North Devon 005"},"type":"Feature"},{"geometry":{"coordinates":[[[-3.8398034,51.1766741],[-3.8435427,51.1734407],[-3.8610838,51.1757392],[-3.8901641,51.1739901],[-3.8981467,51.1808015],[-3.8953815,51.1689976],[-3.909211,51.1725575],[-3.9132963,51.1680895],[-3.9314403,51.1697071],[-3.9368798,51.1719387],[-3.9340293,51.1779492],[-3.9425068,51.1912935],[-3.9527439,51.1972776],[-3.9537788,51.1914361],[-3.9667844,51.185674],[-3.9747003,51.1851286],[-3.9994724,51.1919534],[-3.9984069,51.181982],[-4.0048446,51.175726],[-4.0232501,51.17725],[-4.0256456,51.1732955],[-4.0357004,51.1731014],[-4.0488422,51.1621732],[-4.0642157,51.1596311],[-4.071942,51.1657381],[-4.0716495,51.1771355],[-4.084409,51.1785078],[-4.0977615,51.1753548],[-4.09934,51.1758126],[-4.0993983,51.1758223],[-4.0837805,51.1541371],[-4.0927094,51.1543589],[-4.1117106,51.1368297],[-4.1077649,51.1316745],[-4.1013756,51.1313514],[-4.1056149,51.1231304],[-4.0978222,51.1199679],[-4.0976766,51.1143674],[-4.0836228,51.1033423],[-4.0889342,51.1001532],[-4.0877589,51.0934368],[-4.0924942,51.0865405],[-4.0894029,51.0859592],[-4.088949,51.0857573],[-4.0835069,51.0886047],[-4.078117,51.0874034],[-4.0792819,51.0912924],[-4.0605471,51.0945542],[-4.0579244,51.0915496],[-4.0522352,51.0940115],[-4.0421303,51.0932566],[-4.0409564,51.0904859],[-4.0333053,51.0923608],[-4.0234485,51.0903776],[-4.0249679,51.0803239],[-4.0206823,51.0779186],[-4.0226769,51.0710604],[-4.0361658,51.0719745],[-4.0417313,51.0634243],[-4.0540638,51.0653347],[-4.0545909,51.0601153],[-4.0431942,51.0589592],[-4.0463003,51.0558887],[-4.0340784,51.0540621],[-4.0328711,51.0507557],[-4.0195256,51.0516626],[-4.0145908,51.0471583],[-4.003929,51.0480495],[-4.001495,51.0538056],[-3.9937834,51.0529284],[-3.9919055,51.0559482],[-3.99528,51.0594129],[-4.0025759,51.0599636],[-4.005728,51.0574211],[-4.0207931,51.0581079],[-4.0155731,51.0665741],[-4.0026271,51.06223],[-4.0001202,51.0646133],[-3.9905524,51.0644993],[-3.9751047,51.0585334],[-3.9803063,51.0555975],[-3.972394,51.053472],[-3.9643299,51.0562015],[-3.9683571,51.0478645],[-3.9535501,51.0491412],[-3.9405111,51.0423527],[-3.9346261,51.0429903],[-3.939605,51.0453019],[-3.9359157,51.0513282],[-3.9442331,51.0524765],[-3.9397585,51.0545859],[-3.9441343,51.0581439],[-3.9318274,51.0717855],[-3.9318405,51.0855698],[-3.9189311,51.0907544],[-3.9070265,51.0911814],[-3.9021534,51.0959695],[-3.9082111,51.1024948],[-3.908449,51.1109529],[-3.8940417,51.1093226],[-3.894737,51.113321],[-3.8854599,51.1172187],[-3.8942312,51.1243595],[-3.8883113,51.127606],[-3.8347195,51.1413846],[-3.8320511,51.1511873],[-3.8398034,51.1766741]]],"type":"Polygon"},"id":"E02004180","properties":{"code":"E02004180","geography":"MSOA","name":"North Devon 006"},"type":"Feature"},{"geometry":{"coordinates":[[[-4.0409564,51.0904859],[-4.0421303,51.0932566],[-4.0522352,51.0940115],[-4.0579244,51.0915496],[-4.0605471,51.0945542],[-4.0792819,51.0912924],[-4.078117,51.0874034],[-4.0835069,51.0886047],[-4.088949,51.0857573],[-4.075776,51.0798951],[-4.0617913,51.0836675],[-4.0609851,51.0852336],[-4.0615214,51.0837403],[-4.0619062,51.0826687],[-4.0621956,51.0828821],[-4.0667833,51.0811553],[-4.0666057,51.0810617],[-4.0470454,51.0850245],[-4.0501774,51.0867173],[-4.0409564,51.0904859]]],"type":"Polygon"},"id":"E02004181","properties":{"code":"E02004181","geography":"MSOA","name":"North Devon 007"},"type":"Feature"},{"geometry":{"coordinates":[[[-4.0249679,51.0803239],[-4.0234485,51.0903776],[-4.0333053,51.0923608],[-4.0409564,51.0904859],[-4.0501774,51.0867173],[-4.0470454,51.0850245],[-4.0666057,51.0810617],[-4.0664969,51.0810044],[-4.0593619,51.0772462],[-4.0454701,51.0793474],[-4.0264995,51.0753814],[-4.0249679,51.0803239]]],"type":"Polygon"},"id":"E02004182","properties":{"code":"E02004182","geography":"MSOA","name":"North Devon 008"},"type":"Feature"},{"geometry":{"coordinates":[[[[-4.0454701,51.0793474],[-4.0593619,51.0772462],[-4.0552196,51.0750639],[-4.0552285,51.0750003],[-4.0546944,51.0753995],[-4.0434035,51.0751928],[-4.0454701,51.0793474]]],[[[-4.0824405,51.0784915],[-4.0836416,51.0787952],[-4.0856605,51.0793057],[-4.0882744,51.0724994],[-4.083228,51.0677928],[-4.0707583,51.0668493],[-4.0655107,51.0742969],[-4.0602235,51.0712673],[-4.0568511,51.0737878],[-4.0649905,51.0789539],[-4.0690683,51.0781218],[-4.0756592,51.0767765],[-4.0824405,51.0784915]]]],"type":"MultiPolygon"},"id":"E02004183","properties":{"code":"E02004183","geography":"MSOA","name":"North Devon 009"},"type":"Feature"},{"geometry":{"coordinates":[[[-4.0540638,51.0653347],[-4.0417313,51.0634243],[-4.0361658,51.0719745],[-4.0226769,51.0710604],[-4.0206823,51.0779186],[-4.0249679,51.0803239],[-4.0264995,51.0753814],[-4.0454701,51.0793474],[-4.0434035,51.0751928],[-4.0546944,51.0753995],[-4.0552285,51.0750003],[-4.0552522,51.0748311],[-4.0554585,51.0733564],[-4.0555167,51.0729407],[-4.0568511,51.0737878],[-4.0602235,51.0712673],[-4.0540638,51.0653347]]],"type":"Polygon"},"id":"E02004184","properties":{"code":"E02004184","geography":"MSOA","name":"North Devon 010"},"type":"Feature"},{"geometry":{"coordinates":[[[-4.1368282,51.0796144],[-4.1530699,51.0801871],[-4.1554011,51.0762787],[-4.1515905,51.073534],[-4.1608877,51.0712894],[-4.1585018,51.0733634],[-4.1646317,51.0745567],[-4.1715542,51.0696843],[-4.1808723,51.0663098],[-4.179672,51.0485404],[-4.1874074,51.0388689],[-4.198278,51.0330097],[-4.1980984,51.0212297],[-4.1982222,51.0208546],[-4.1879224,51.0213092],[-4.1866596,51.0235339],[-4.185631,51.021041],[-4.1783195,51.0243038],[-4.1668714,51.0148902],[-4.1603225,51.0144203],[-4.1484764,51.0187787],[-4.139709,51.0175134],[-4.1351866,51.020683],[-4.1160646,51.0193013],[-4.1206705,51.0107773],[-4.0982232,51.0095976],[-4.0935405,51.0037751],[-4.0778783,51.0026789],[-4.0784695,51.008726],[-4.089948,51.0291215],[-4.1004058,51.0296433],[-4.0990717,51.0379584],[-4.1051109,51.0386551],[-4.1043208,51.0465743],[-4.1095298,51.0497658],[-4.0995706,51.0533066],[-4.1053429,51.0568591],[-4.1051553,51.0655211],[-4.1168509,51.0691936],[-4.1142145,51.073489],[-4.114948,51.0738011],[-4.1146275,51.0735691],[-4.1185305,51.0743882],[-4.1191104,51.0748948],[-4.1192758,51.0749922],[-4.1196938,51.0752601],[-4.1198843,51.075381],[-4.120471,51.0757301],[-4.1206054,51.0758264],[-4.1212369,51.0760829],[-4.1215916,51.0763476],[-4.1220036,51.0765681],[-4.122278,51.0768257],[-4.1226222,51.0770109],[-4.1228368,51.0771038],[-4.1229949,51.0772371],[-4.1230174,51.0772752],[-4.1231156,51.0773174],[-4.1231149,51.0774193],[-4.1231947,51.0787798],[-4.1232442,51.0789054],[-4.1232647,51.0791344],[-4.1283442,51.0793143],[-4.1303459,51.0788152],[-4.1368282,51.0796144]]],"type":"Polygon"},"id":"E02004185","properties":{"code":"E02004185","geography":"MSOA","name":"North Devon 011"},"type":"Feature"},{"geometry":{"coordinates":[[[[-4.1231149,51.0774193],[-4.1231156,51.0773174],[-4.1230174,51.0772752],[-4.1231149,51.0774193]]],[[[-4.1231149,51.0774193],[-4.1230712,51.0777962],[-4.1229819,51.0784249],[-4.1231411,51.0786438],[-4.1231947,51.0787798],[-4.1231149,51.0774193]]],[[[-4.083228,51.0677928],[-4.0882744,51.0724994],[-4.0856605,51.0793057],[-4.0858918,51.0793642],[-4.1179406,51.0898199],[-4.1180563,51.0815708],[-4.122285,51.0789112],[-4.1149923,51.0738236],[-4.114948,51.0738011],[-4.1142145,51.073489],[-4.1168509,51.0691936],[-4.1051553,51.0655211],[-4.1053429,51.0568591],[-4.0995706,51.0533066],[-4.1095298,51.0497658],[-4.1043208,51.0465743],[-4.1051109,51.0386551],[-4.0990717,51.0379584],[-4.1004058,51.0296433],[-4.089948,51.0291215],[-4.0784695,51.008726],[-4.0639374,51.010274],[-4.0342766,51.0076259],[-4.0226684,51.0063054],[-4.0229241,51.0032039],[-4.0148148,51.006711],[-4.0125651,51.0125423],[-4.0053461,51.0099886],[-3.9871652,51.0137596],[-3.9753655,51.0126428],[-3.9655974,51.0185508],[-3.9462679,51.0213741],[-3.9411552,51.0245004],[-3.9419134,51.0352166],[-3.9338229,51.0398711],[-3.9346261,51.0429903],[-3.9405111,51.0423527],[-3.9535501,51.0491412],[-3.9683571,51.0478645],[-3.9643299,51.0562015],[-3.972394,51.053472],[-3.9803063,51.0555975],[-3.9751047,51.0585334],[-3.9905524,51.0644993],[-4.0001202,51.0646133],[-4.0026271,51.06223],[-4.0155731,51.0665741],[-4.0207931,51.0581079],[-4.005728,51.0574211],[-4.0025759,51.0599636],[-3.99528,51.0594129],[-3.9919055,51.0559482],[-3.9937834,51.0529284],[-4.001495,51.0538056],[-4.003929,51.0480495],[-4.0145908,51.0471583],[-4.0195256,51.0516626],[-4.0328711,51.0507557],[-4.0340784,51.0540621],[-4.0463003,51.0558887],[-4.0431942,51.0589592],[-4.0545909,51.0601153],[-4.0540638,51.0653347],[-4.0602235,51.0712673],[-4.0655107,51.0742969],[-4.0707583,51.0668493],[-4.083228,51.0677928]]]],"type":"MultiPolygon"},"id":"E02004186","properties":{"code":"E02004186","geography":"MSOA","name":"North Devon 012"},"type":"Feature"},{"geometry":{"coordinates":[[[-3.6523148,51.0596453],[-3.6502405,51.0640954],[-3.6824046,51.0733341],[-3.6923906,51.0805954],[-3.7199375,51.080818],[-3.7673779,51.1057864],[-3.8042712,51.1156877],[-3.8215057,51.1263819],[-3.8347195,51.1413846],[-3.8883113,51.127606],[-3.8942312,51.1243595],[-3.8854599,51.1172187],[-3.894737,51.113321],[-3.8940417,51.1093226],[-3.908449,51.1109529],[-3.9082111,51.1024948],[-3.9021534,51.0959695],[-3.9070265,51.0911814],[-3.9189311,51.0907544],[-3.9318405,51.0855698],[-3.9318274,51.0717855],[-3.9441343,51.0581439],[-3.9397585,51.0545859],[-3.9442331,51.0524765],[-3.9359157,51.0513282],[-3.939605,51.0453019],[-3.9346261,51.0429903],[-3.9338229,51.0398711],[-3.9419134,51.0352166],[-3.9411552,51.0245004],[-3.9462679,51.0213741],[-3.9655974,51.0185508],[-3.9753655,51.0126428],[-3.9871652,51.0137596],[-4.0053461,51.0099886],[-4.0125651,51.0125423],[-4.0148148,51.006711],[-4.0229241,51.0032039],[-4.0226684,51.0063054],[-4.0342766,51.0076259],[-4.0362205,50.9815846],[-4.0197042,50.9720959],[-4.0199914,50.9694576],[-4.0102874,50.9675392],[-4.004901,50.9695306],[-4.0060695,50.9727824],[-3.9917252,50.9744075],[-3.9836299,50.9821232],[-3.9610315,50.9788177],[-3.9587298,50.9816406],[-3.9582265,50.977775],[-3.9525706,50.9759611],[-3.9583398,50.9717275],[-3.9575198,50.9661159],[-3.9660658,50.9616491],[-3.9607631,50.9561516],[-3.9334787,50.9620551],[-3.9232436,50.9501817],[-3.9074682,50.9421806],[-3.8997127,50.944476],[-3.8973198,50.9497535],[-3.8852241,50.951368],[-3.8752811,50.9470034],[-3.8427506,50.9452333],[-3.8330909,50.9543683],[-3.8324986,50.965191],[-3.8128326,50.9795981],[-3.8241379,50.9845539],[-3.8320973,50.9780502],[-3.8382731,50.9819818],[-3.8548125,50.9840306],[-3.8592641,50.9905858],[-3.8745278,50.9904465],[-3.8724197,50.9959359],[-3.8632738,50.9991406],[-3.8554159,51.0075208],[-3.8497697,51.0083878],[-3.8423,51.0042416],[-3.8358161,51.0076501],[-3.830413,51.0043647],[-3.8137489,51.0053808],[-3.8215469,51.0120417],[-3.8203999,51.0193239],[-3.8261998,51.02675],[-3.8128489,51.0284098],[-3.7937865,51.0437527],[-3.7858766,51.0439143],[-3.7658732,51.0419279],[-3.7501027,51.0340391],[-3.7243435,51.0348723],[-3.726941,51.025005],[-3.6902793,51.0268948],[-3.6900461,51.0165268],[-3.6842512,51.0101269],[-3.6496515,51.0105318],[-3.6503267,51.0164744],[-3.6567236,51.0175739],[-3.6575409,51.0255607],[-3.6664743,51.0259721],[-3.6650617,51.0293674],[-3.6759933,51.02954],[-3.669912,51.034283],[-3.674029,51.0430993],[-3.6607979,51.0579253],[-3.6523148,51.0596453]]],"type":"Polygon"},"id":"E02004187","properties":{"code":"E02004187","geography":"MSOA","name":"North Devon 013"},"type":"Feature"},{"geometry":{"coordinates":[[[-3.6031911,51.0072381],[-3.6097286,51.007988],[-3.6146376,51.015495],[-3.5981525,51.0369756],[-3.6003142,51.0506461],[-3.5944555,51.0551981],[-3.6103137,51.05795],[-3.6130368,51.0561103],[-3.6242875,51.0612424],[-3.6353378,51.0563001],[-3.6523148,51.0596453],[-3.6607979,51.0579253],[-3.674029,51.0430993],[-3.669912,51.034283],[-3.6759933,51.02954],[-3.6650617,51.0293674],[-3.6664743,51.0259721],[-3.6575409,51.0255607],[-3.6567236,51.0175739],[-3.6503267,51.0164744],[-3.6496515,51.0105318],[-3.6842512,51.0101269],[-3.6900461,51.0165268],[-3.6902793,51.0268948],[-3.726941,51.025005],[-3.7243435,51.0348723],[-3.7501027,51.0340391],[-3.7658732,51.0419279],[-3.7858766,51.0439143],[-3.7937865,51.0437527],[-3.8128489,51.0284098],[-3.8261998,51.02675],[-3.8203999,51.0193239],[-3.8215469,51.0120417],[-3.8137489,51.0053808],[-3.830413,51.0043647],[-3.8358161,51.0076501],[-3.8423,51.0042416],[-3.8497697,51.0083878],[-3.8554159,51.0075208],[-3.8632738,50.9991406],[-3.8724197,50.9959359],[-3.8745278,50.9904465],[-3.8592641,50.9905858],[-3.8548125,50.9840306],[-3.8382731,50.9819818],[-3.8320973,50.9780502],[-3.8241379,50.9845539],[-3.8128326,50.9795981],[-3.8324986,50.965191],[-3.8330909,50.9543683],[-3.8427506,50.9452333],[-3.8752811,50.9470034],[-3.8852241,50.951368],[-3.8973198,50.9497535],[-3.8997127,50.944476],[-3.9074682,50.9421806],[-3.9232436,50.9501817],[-3.9334787,50.9620551],[-3.9607631,50.9561516],[-3.9938715,50.948432],[-3.9966326,50.9259849],[-3.9667543,50.9239983],[-3.954185,50.9176957],[-3.9054738,50.9248468],[-3.9045439,50.9273665],[-3.9013195,50.9238484],[-3.9059695,50.9174467],[-3.9023559,50.9162509],[-3.9041367,50.9050939],[-3.9023316,50.9033081],[-3.8940036,50.907648],[-3.8790562,50.9061133],[-3.8691278,50.9092995],[-3.8601406,50.9067504],[-3.8299944,50.9068829],[-3.8232608,50.9134884],[-3.8167749,50.9145978],[-3.8112063,50.9116125],[-3.8168891,50.9018021],[-3.8128703,50.9046271],[-3.7984963,50.9012288],[-3.7904965,50.9038847],[-3.7831209,50.9024595],[-3.7794552,50.8940959],[-3.7623957,50.8832493],[-3.7607837,50.8768112],[-3.7491907,50.8785151],[-3.7493919,50.8824744],[-3.7403116,50.88745],[-3.7447872,50.8903098],[-3.7345614,50.8906229],[-3.7370009,50.9011227],[-3.7280385,50.9107714],[-3.6976744,50.9106145],[-3.6985239,50.9130029],[-3.6643994,50.9206863],[-3.6437936,50.9218305],[-3.6409997,50.9180342],[-3.6193124,50.9225086],[-3.5960991,50.9439948],[-3.6016264,50.960924],[-3.5978306,50.9672163],[-3.6195531,50.9681781],[-3.6196472,50.9786983],[-3.6288487,50.9903921],[-3.628781,51.0057778],[-3.6228524,51.005003],[-3.6117722,50.9948139],[-3.6053104,50.9949272],[-3.6064223,50.9904765],[-3.6010315,50.9915444],[-3.5987501,50.9958924],[-3.6073442,51.0044492],[-3.6031911,51.0072381]]],"type":"Polygon"},"id":"E02004188","properties":{"code":"E02004188","geography":"MSOA","name":"North Devon 014"},"type":"Feature"}],"type":"FeatureCollection"}
