{"features":[{"geometry":{"coordinates":[[[-1.2820034,53.3094586],[-1.3046374,53.3129283],[-1.3218958,53.3090468],[-1.3106756,53.2979276],[-1.3241417,53.2950886],[-1.316704,53.2816367],[-1.3070059,53.2752429],[-1.3013105,53.2638759],[-1.2844498,53.2667466],[-1.275235,53.2579677],[-1.2647616,53.256602],[-1.2463549,53.2753227],[-1.2585119,53.27846],[-1.242184,53.2814845],[-1.2521742,53.2921944],[-1.2581532,53.2925968],[-1.2542557,53.3017341],[-1.2735982,53.3104192],[-1.2820034,53.3094586]]],"type":"Polygon"},"id":"E02004045","properties":{"code":"E02004045","geography":"MSOA","name":"Bolsover 001"},"type":"Feature"},{"geometry":{"coordinates":[[[-1.1741775,53.3025111],[-1.1794284,53.3063847],[-1.1872059,53.3039586],[-1.1997395,53.3114171],[-1.2031764,53.3041697],[-1.219532,53.303979],[-1.2305971,53.3086205],[-1.2434545,53.3015771],[-1.2542557,53.3017341],[-1.2581532,53.2925968],[-1.2521742,53.2921944],[-1.242184,53.2814845],[-1.2585119,53.27846],[-1.2463549,53.2753227],[-1.2647616,53.256602],[-1.2735132,53.2427474],[-1.2321359,53.2419956],[-1.2209871,53.2446972],[-1.217157,53.2446323],[-1.2273413,53.2602563],[-1.2205137,53.2643266],[-1.2245318,53.2701237],[-1.2182173,53.2751004],[-1.2130995,53.2722479],[-1.2005073,53.279788],[-1.2029737,53.2864969],[-1.192356,53.2904031],[-1.1866289,53.2874445],[-1.1743146,53.298316],[-1.1741775,53.3025111]]],"type":"Polygon"},"id":"E02004046","properties":{"code":"E02004046","geography":"MSOA","name":"Bolsover 002"},"type":"Feature"},{"geometry":{"coordinates":[[[-1.2124626,53.2455656],[-1.2024521,53.2611984],[-1.1746911,53.2651442],[-1.1815446,53.2700107],[-1.1664901,53.277634],[-1.1801182,53.2871134],[-1.1715637,53.2946163],[-1.1743146,53.298316],[-1.1866289,53.2874445],[-1.192356,53.2904031],[-1.2029737,53.2864969],[-1.2005073,53.279788],[-1.2130995,53.2722479],[-1.2182173,53.2751004],[-1.2245318,53.2701237],[-1.2205137,53.2643266],[-1.2273413,53.2602563],[-1.217157,53.2446323],[-1.2124626,53.2455656]]],"type":"Polygon"},"id":"E02004047","properties":{"code":"E02004047","geography":"MSOA","name":"Bolsover 003"},"type":"Feature"},{"geometry":{"coordinates":[[[-1.2647616,53.256602],[-1.275235,53.2579677],[-1.2844498,53.2667466],[-1.3013105,53.2638759],[-1.3166776,53.2624839],[-1.3312639,53.2572118],[-1.3260664,53.2543262],[-1.3192038,53.239564],[-1.3115361,53.23255],[-1.3125432,53.2222496],[-1.2960227,53.2228121],[-1.3026508,53.2252414],[-1.3003521,53.2294112],[-1.2904966,53.2270318],[-1.2809147,53.2352908],[-1.2718036,53.2314505],[-1.274609,53.2273506],[-1.264911,53.2274328],[-1.255802,53.2333756],[-1.2252696,53.2381877],[-1.2209871,53.2446972],[-1.2321359,53.2419956],[-1.2735132,53.2427474],[-1.2647616,53.256602]]],"type":"Polygon"},"id":"E02004048","properties":{"code":"E02004048","geography":"MSOA","name":"Bolsover 004"},"type":"Feature"},{"geometry":{"coordinates":[[[-1.264911,53.2274328],[-1.274609,53.2273506],[-1.2718036,53.2314505],[-1.2809147,53.2352908],[-1.2904966,53.2270318],[-1.3003521,53.2294112],[-1.3026508,53.2252414],[-1.2960227,53.2228121],[-1.3125432,53.2222496],[-1.3137458,53.2084537],[-1.3116133,53.1989691],[-1.3016154,53.1985664],[-1.3025641,53.1900714],[-1.2925577,53.1851978],[-1.2684723,53.1836588],[-1.2681693,53.194515],[-1.2786309,53.1982509],[-1.2858247,53.2118712],[-1.285173,53.2150297],[-1.2786543,53.2136642],[-1.2760044,53.2160494],[-1.2817975,53.221672],[-1.2631549,53.2225378],[-1.264911,53.2274328]]],"type":"Polygon"},"id":"E02004049","properties":{"code":"E02004049","geography":"MSOA","name":"Bolsover 005"},"type":"Feature"},{"geometry":{"coordinates":[[[-1.2082036,53.2116975],[-1.2321421,53.2162121],[-1.2339,53.2015637],[-1.2408014,53.1996991],[-1.2378607,53.1947486],[-1.2265113,53.1915967],[-1.2234377,53.2016221],[-1.2047403,53.2082639],[-1.2082036,53.2116975]]],"type":"Polygon"},"id":"E02004050","properties":{"code":"E02004050","geography":"MSOA","name":"Bolsover 006"},"type":"Feature"},{"geometry":{"coordinates":[[[-1.2094259,53.2176773],[-1.2019987,53.2355353],[-1.2124626,53.2455656],[-1.217157,53.2446323],[-1.2209871,53.2446972],[-1.2252696,53.2381877],[-1.255802,53.2333756],[-1.264911,53.2274328],[-1.2631549,53.2225378],[-1.2817975,53.221672],[-1.2760044,53.2160494],[-1.2786543,53.2136642],[-1.285173,53.2150297],[-1.2858247,53.2118712],[-1.2786309,53.1982509],[-1.2681693,53.194515],[-1.2684723,53.1836588],[-1.2602855,53.1647439],[-1.2599322,53.1644628],[-1.2531756,53.1654998],[-1.2416915,53.1781295],[-1.2299154,53.1784756],[-1.1988037,53.1830707],[-1.195057,53.1893406],[-1.2009836,53.2039289],[-1.2047403,53.2082639],[-1.2234377,53.2016221],[-1.2265113,53.1915967],[-1.2378607,53.1947486],[-1.2408014,53.1996991],[-1.2339,53.2015637],[-1.2321421,53.2162121],[-1.2082036,53.2116975],[-1.2094259,53.2176773]]],"type":"Polygon"},"id":"E02004051","properties":{"code":"E02004051","geography":"MSOA","name":"Bolsover 007"},"type":"Feature"},{"geometry":{"coordinates":[[[-1.2684723,53.1836588],[-1.2925577,53.1851978],[-1.3025641,53.1900714],[-1.3016154,53.1985664],[-1.3116133,53.1989691],[-1.3187945,53.1858043],[-1.3442653,53.1879546],[-1.3456452,53.1834182],[-1.3567841,53.1854556],[-1.3638894,53.1823201],[-1.3711713,53.1806333],[-1.3782667,53.1737057],[-1.3666649,53.1709643],[-1.3529414,53.1591929],[-1.3549599,53.1517044],[-1.3676976,53.141189],[-1.3778232,53.1360929],[-1.3727755,53.1316165],[-1.3754884,53.1162883],[-1.3486396,53.1221278],[-1.3443094,53.11976],[-1.3502828,53.1172088],[-1.3437894,53.1142585],[-1.3120867,53.1160294],[-1.3142508,53.1248945],[-1.3217818,53.1306308],[-1.3152254,53.1361776],[-1.3255848,53.156456],[-1.3234485,53.1623236],[-1.3165019,53.1653466],[-1.3007139,53.1641964],[-1.2959655,53.1712062],[-1.2602855,53.1647439],[-1.2684723,53.1836588]]],"type":"Polygon"},"id":"E02004052","properties":{"code":"E02004052","geography":"MSOA","name":"Bolsover 008"},"type":"Feature"},{"geometry":{"coordinates":[[[-1.3437894,53.1142585],[-1.3502828,53.1172088],[-1.3443094,53.11976],[-1.3486396,53.1221278],[-1.3754884,53.1162883],[-1.3709011,53.1092644],[-1.3736522,53.1078372],[-1.3633275,53.0924967],[-1.3521144,53.0998501],[-1.3462521,53.0958789],[-1.3367935,53.1010945],[-1.3382649,53.1034459],[-1.3355021,53.1006701],[-1.3298895,53.101971],[-1.3338289,53.1116934],[-1.3382137,53.1089093],[-1.3437894,53.1142585]]],"type":"Polygon"},"id":"E02004053","properties":{"code":"E02004053","geography":"MSOA","name":"Bolsover 009"},"type":"Feature"},{"geometry":{"coordinates":[[[-1.3107845,53.1101004],[-1.3120867,53.1160294],[-1.3437894,53.1142585],[-1.3382137,53.1089093],[-1.3338289,53.1116934],[-1.3298895,53.101971],[-1.3355021,53.1006701],[-1.3382649,53.1034459],[-1.3367935,53.1010945],[-1.3462521,53.0958789],[-1.3521144,53.0998501],[-1.3633275,53.0924967],[-1.3632349,53.0924521],[-1.3531281,53.0861768],[-1.3436692,53.0865638],[-1.3316375,53.0809677],[-1.3033554,53.088027],[-1.309251,53.0967608],[-1.3010153,53.1032315],[-1.3107845,53.1101004]]],"type":"Polygon"},"id":"E02004054","properties":{"code":"E02004054","geography":"MSOA","name":"Bolsover 010"},"type":"Feature"}],"type":"FeatureCollection"}
