{"features":[{"geometry":{"coordinates":[[[-0.848929,51.2107178],[-0.8690695,51.2127379],[-0.8960163,51.209944],[-0.9043237,51.2099103],[-0.9091931,51.2054995],[-0.9511912,51.2004484],[-0.9738362,51.1860098],[-0.9858986,51.1904376],[-1.0131462,51.1877434],[-1.0357069,51.1907084],[-1.06182,51.1887947],[-1.0675949,51.1832804],[-1.0545818,51.1751616],[-1.0067709,51.1591864],[-0.985675,51.1594624],[-0.9807509,51.1629926],[-0.9697987,51.1675751],[-0.9602279,51.1590603],[-0.9615927,51.1550872],[-0.953327,51.1582907],[-0.9590884,51.1486407],[-0.9552809,51.1465025],[-0.9383026,51.1484366],[-0.920165,51.1411606],[-0.9189511,51.1432533],[-0.912873,51.1413965],[-0.9112416,51.1474445],[-0.901183,51.1378621],[-0.8969077,51.1420469],[-0.8785625,51.1429453],[-0.8682425,51.1483457],[-0.8484528,51.1516587],[-0.8482152,51.1479956],[-0.8468744,51.1506845],[-0.8339594,51.1492558],[-0.8265736,51.1785672],[-0.8271986,51.1846599],[-0.8393207,51.1963493],[-0.8455487,51.2001366],[-0.848929,51.2107178]]],"type":"Polygon"},"id":"E02004697","properties":{"code":"E02004697","geography":"MSOA","name":"East Hampshire 001"},"type":"Feature"},{"geometry":{"coordinates":[[[-0.9615927,51.1550872],[-0.9602279,51.1590603],[-0.9697987,51.1675751],[-0.9807509,51.1629926],[-0.9816248,51.1605768],[-0.9742295,51.16227],[-0.9693597,51.159456],[-0.9776551,51.1569378],[-0.9746767,51.1498789],[-0.9793646,51.1496173],[-0.978761,51.1463553],[-0.9721248,51.146766],[-0.9615927,51.1550872]]],"type":"Polygon"},"id":"E02004698","properties":{"code":"E02004698","geography":"MSOA","name":"East Hampshire 002"},"type":"Feature"},{"geometry":{"coordinates":[[[-0.9615927,51.1550872],[-0.9721248,51.146766],[-0.978761,51.1463553],[-0.9793646,51.1496173],[-0.9746767,51.1498789],[-0.9776551,51.1569378],[-0.9693597,51.159456],[-0.9742295,51.16227],[-0.9816248,51.1605768],[-0.9807509,51.1629926],[-0.985675,51.1594624],[-1.0067709,51.1591864],[-1.0013274,51.1571094],[-1.0034119,51.1531068],[-0.9979845,51.1489754],[-1.0020639,51.1489027],[-1.0007751,51.1471338],[-0.991621,51.1445886],[-0.9990309,51.1380077],[-0.9954484,51.1358289],[-0.983228,51.1385927],[-0.9651345,51.1317618],[-0.9590884,51.1486407],[-0.953327,51.1582907],[-0.9615927,51.1550872]]],"type":"Polygon"},"id":"E02004699","properties":{"code":"E02004699","geography":"MSOA","name":"East Hampshire 003"},"type":"Feature"},{"geometry":{"coordinates":[[[-0.7806695,51.1278036],[-0.7810412,51.1352225],[-0.7913015,51.1394171],[-0.7944724,51.1494924],[-0.8047479,51.1553676],[-0.8174063,51.1477545],[-0.8283927,51.1452694],[-0.8342215,51.1475843],[-0.8342324,51.1429553],[-0.8410851,51.1414817],[-0.8531502,51.1459262],[-0.8486122,51.1425769],[-0.8650578,51.134204],[-0.8718968,51.1204522],[-0.8623725,51.113701],[-0.8652587,51.1086049],[-0.8603573,51.109923],[-0.8619563,51.1070484],[-0.8578139,51.1071126],[-0.8550943,51.118999],[-0.8458477,51.1241986],[-0.8427055,51.1231221],[-0.8366224,51.1210291],[-0.8298831,51.1250794],[-0.8284872,51.1315354],[-0.8186502,51.1255864],[-0.8093481,51.1291845],[-0.8091067,51.1246768],[-0.8002692,51.12116],[-0.7983579,51.1243824],[-0.782388,51.1237444],[-0.7806695,51.1278036]]],"type":"Polygon"},"id":"E02004700","properties":{"code":"E02004700","geography":"MSOA","name":"East Hampshire 004"},"type":"Feature"},{"geometry":{"coordinates":[[[-0.8427055,51.1231221],[-0.8458477,51.1241986],[-0.8550943,51.118999],[-0.8578139,51.1071126],[-0.8619563,51.1070484],[-0.8603573,51.109923],[-0.8652587,51.1086049],[-0.8700505,51.1002284],[-0.8504104,51.1053827],[-0.8458931,51.1136848],[-0.8384981,51.1168935],[-0.8427055,51.1231221]]],"type":"Polygon"},"id":"E02004702","properties":{"code":"E02004702","geography":"MSOA","name":"East Hampshire 006"},"type":"Feature"},{"geometry":{"coordinates":[[[-1.0067709,51.1591864],[-1.0545818,51.1751616],[-1.0675949,51.1832804],[-1.06182,51.1887947],[-1.0734312,51.1853282],[-1.0774875,51.1727385],[-1.0742655,51.1644541],[-1.0873936,51.1676918],[-1.1049367,51.1631505],[-1.1172578,51.1514364],[-1.1318219,51.1436268],[-1.1297365,51.1386045],[-1.1120322,51.1365894],[-1.0950584,51.1403494],[-1.0905478,51.1120022],[-1.0939403,51.1077725],[-1.080971,51.1094626],[-1.0720878,51.1070903],[-1.0793745,51.1056016],[-1.0828727,51.0990745],[-1.1004588,51.0940041],[-1.1086656,51.0871385],[-1.1071526,51.0789],[-1.0920037,51.0675772],[-1.0950027,51.0631921],[-1.0889357,51.0607567],[-1.0906752,51.0549509],[-1.0816979,51.0464318],[-1.0673545,51.0476448],[-1.0622115,51.0445245],[-1.0537899,51.047237],[-1.0375244,51.0541198],[-1.0102642,51.07687],[-1.0052063,51.0762938],[-1.0006453,51.0803936],[-0.9916116,51.0758132],[-0.9774287,51.0726784],[-0.9727324,51.0741139],[-0.9627744,51.0697294],[-0.9654644,51.0756903],[-0.9560168,51.079301],[-0.9502073,51.0751134],[-0.9486172,51.0674641],[-0.9388807,51.070927],[-0.9412035,51.0762776],[-0.9344387,51.0760577],[-0.9296159,51.0805739],[-0.9334865,51.0844158],[-0.9436582,51.0856334],[-0.9457479,51.0878515],[-0.9576554,51.0842633],[-0.9608456,51.0883022],[-0.9683411,51.1106075],[-0.9631837,51.1183549],[-0.9651345,51.1317618],[-0.983228,51.1385927],[-0.9954484,51.1358289],[-0.9990309,51.1380077],[-0.991621,51.1445886],[-1.0007751,51.1471338],[-1.0020639,51.1489027],[-0.9979845,51.1489754],[-1.0034119,51.1531068],[-1.0013274,51.1571094],[-1.0067709,51.1591864]]],"type":"Polygon"},"id":"E02004703","properties":{"code":"E02004703","geography":"MSOA","name":"East Hampshire 007"},"type":"Feature"},{"geometry":{"coordinates":[[[-0.8339594,51.1492558],[-0.8468744,51.1506845],[-0.8482152,51.1479956],[-0.8484528,51.1516587],[-0.8682425,51.1483457],[-0.8785625,51.1429453],[-0.8969077,51.1420469],[-0.901183,51.1378621],[-0.9112416,51.1474445],[-0.912873,51.1413965],[-0.9189511,51.1432533],[-0.920165,51.1411606],[-0.9383026,51.1484366],[-0.9552809,51.1465025],[-0.9590884,51.1486407],[-0.9651345,51.1317618],[-0.9631837,51.1183549],[-0.9683411,51.1106075],[-0.9608456,51.0883022],[-0.9576554,51.0842633],[-0.9457479,51.0878515],[-0.9436582,51.0856334],[-0.9282731,51.0877925],[-0.9117915,51.079797],[-0.9019809,51.0854802],[-0.8923062,51.0736466],[-0.8878264,51.0801804],[-0.8831778,51.0792552],[-0.8860706,51.0765986],[-0.881251,51.0737997],[-0.88129,51.0575972],[-0.8545333,51.0639963],[-0.8501305,51.0593415],[-0.8373088,51.0692081],[-0.8414381,51.0682401],[-0.8525989,51.0965529],[-0.8486241,51.0975115],[-0.8504104,51.1053827],[-0.8700505,51.1002284],[-0.8652587,51.1086049],[-0.8623725,51.113701],[-0.8718968,51.1204522],[-0.8650578,51.134204],[-0.8486122,51.1425769],[-0.8531502,51.1459262],[-0.8410851,51.1414817],[-0.8342324,51.1429553],[-0.8342215,51.1475843],[-0.8339594,51.1492558]]],"type":"Polygon"},"id":"E02004704","properties":{"code":"E02004704","geography":"MSOA","name":"East Hampshire 008"},"type":"Feature"},{"geometry":{"coordinates":[[[-0.7711233,51.1107187],[-0.7869923,51.1167628],[-0.8486241,51.0975115],[-0.8525989,51.0965529],[-0.8414381,51.0682401],[-0.8373088,51.0692081],[-0.8291614,51.0677744],[-0.8263871,51.0613305],[-0.8173127,51.0612329],[-0.8145231,51.0666854],[-0.8115818,51.0629856],[-0.796954,51.0638944],[-0.780806,51.0793805],[-0.7535002,51.086461],[-0.7589079,51.0908467],[-0.754334,51.0958813],[-0.759251,51.103254],[-0.7594664,51.103577],[-0.768906,51.1032545],[-0.7711233,51.1107187]]],"type":"Polygon"},"id":"E02004705","properties":{"code":"E02004705","geography":"MSOA","name":"East Hampshire 009"},"type":"Feature"},{"geometry":{"coordinates":[[[-0.8501305,51.0593415],[-0.8545333,51.0639963],[-0.88129,51.0575972],[-0.881251,51.0737997],[-0.8860706,51.0765986],[-0.8831778,51.0792552],[-0.8878264,51.0801804],[-0.8923062,51.0736466],[-0.9019809,51.0854802],[-0.9117915,51.079797],[-0.9282731,51.0877925],[-0.9436582,51.0856334],[-0.9334865,51.0844158],[-0.9296159,51.0805739],[-0.9344387,51.0760577],[-0.9412035,51.0762776],[-0.9388807,51.070927],[-0.9486172,51.0674641],[-0.9445979,51.055676],[-0.9555414,51.0531301],[-0.9532215,51.0410876],[-0.9363307,51.0379402],[-0.9202322,51.0405911],[-0.9143253,51.0366297],[-0.904193,51.036019],[-0.9007127,51.0330205],[-0.9110986,51.0225452],[-0.9020072,51.018999],[-0.8945228,51.0235011],[-0.8826746,51.0268677],[-0.8528288,51.0448487],[-0.8501305,51.0593415]]],"type":"Polygon"},"id":"E02004706","properties":{"code":"E02004706","geography":"MSOA","name":"East Hampshire 010"},"type":"Feature"},{"geometry":{"coordinates":[[[-0.9486172,51.0674641],[-0.9502073,51.0751134],[-0.9560168,51.079301],[-0.9654644,51.0756903],[-0.9627744,51.0697294],[-0.9727324,51.0741139],[-0.9774287,51.0726784],[-0.9916116,51.0758132],[-1.0006453,51.0803936],[-1.0052063,51.0762938],[-1.0102642,51.07687],[-1.0375244,51.0541198],[-1.0537899,51.047237],[-1.0645412,51.0424623],[-1.0745148,51.0326338],[-1.0649567,51.0309392],[-1.0623559,51.0203351],[-1.0688022,51.008558],[-1.0695297,50.9937002],[-1.0633812,50.9776983],[-1.0555459,50.9775584],[-1.0535808,50.9709225],[-1.0452518,50.968639],[-1.0461827,50.9545841],[-1.0357051,50.9515242],[-1.0230232,50.9584591],[-1.0063078,50.9573038],[-0.9878044,50.9603759],[-0.9797555,50.9585227],[-0.9770315,50.9517705],[-0.961855,50.9544854],[-0.9421161,50.9428923],[-0.9318642,50.9455878],[-0.9265392,50.9525329],[-0.9292907,50.9583544],[-0.9155574,50.9706117],[-0.9177096,50.9786708],[-0.90564,50.9968232],[-0.9233816,50.9912435],[-0.9510117,50.9904804],[-0.9544485,50.9917952],[-0.9516463,50.9996457],[-0.9548841,51.0083852],[-0.945575,51.0101931],[-0.9437142,51.0053289],[-0.9397911,51.012781],[-0.9318737,51.0072738],[-0.9325223,51.0018934],[-0.9232612,51.0046105],[-0.8997268,51.0012828],[-0.893365,51.0027483],[-0.8985249,51.017673],[-0.8945228,51.0235011],[-0.9020072,51.018999],[-0.9110986,51.0225452],[-0.9007127,51.0330205],[-0.904193,51.036019],[-0.9143253,51.0366297],[-0.9202322,51.0405911],[-0.9363307,51.0379402],[-0.9532215,51.0410876],[-0.9555414,51.0531301],[-0.9445979,51.055676],[-0.9486172,51.0674641]]],"type":"Polygon"},"id":"E02004707","properties":{"code":"E02004707","geography":"MSOA","name":"East Hampshire 011"},"type":"Feature"},{"geometry":{"coordinates":[[[-0.8997268,51.0012828],[-0.9232612,51.0046105],[-0.9325223,51.0018934],[-0.9318737,51.0072738],[-0.9397911,51.012781],[-0.9437142,51.0053289],[-0.945575,51.0101931],[-0.9548841,51.0083852],[-0.9516463,50.9996457],[-0.9544485,50.9917952],[-0.9510117,50.9904804],[-0.9233816,50.9912435],[-0.90564,50.9968232],[-0.8997268,51.0012828]]],"type":"Polygon"},"id":"E02004708","properties":{"code":"E02004708","geography":"MSOA","name":"East Hampshire 012"},"type":"Feature"},{"geometry":{"coordinates":[[[-0.9421161,50.9428923],[-0.961855,50.9544854],[-0.9770315,50.9517705],[-0.9797555,50.9585227],[-0.9878044,50.9603759],[-1.0063078,50.9573038],[-1.0230232,50.9584591],[-1.0357051,50.9515242],[-1.0379991,50.9453094],[-1.0160137,50.9437111],[-1.0173931,50.9401066],[-1.0044099,50.9381116],[-1.0003061,50.935124],[-1.0054954,50.9273368],[-0.9978739,50.9230964],[-0.993572,50.9354067],[-0.9764288,50.9328597],[-0.9665501,50.9235609],[-0.9725013,50.91489],[-0.9769758,50.9154626],[-0.9829029,50.9084862],[-0.9677027,50.9080847],[-0.9608052,50.9023795],[-0.9595481,50.905946],[-0.9510845,50.906667],[-0.9496604,50.9040635],[-0.9394171,50.9188107],[-0.9240308,50.9242066],[-0.9312021,50.9352904],[-0.9353356,50.9411105],[-0.9421161,50.9428923]]],"type":"Polygon"},"id":"E02004709","properties":{"code":"E02004709","geography":"MSOA","name":"East Hampshire 013"},"type":"Feature"},{"geometry":{"coordinates":[[[-0.9978739,50.9230964],[-1.0054954,50.9273368],[-1.0003061,50.935124],[-1.0044099,50.9381116],[-1.0173931,50.9401066],[-1.0160137,50.9437111],[-1.0379991,50.9453094],[-1.0366051,50.9317363],[-1.0393889,50.9277871],[-1.0363701,50.9220385],[-1.0448043,50.9162696],[-1.0484713,50.9025251],[-1.0341332,50.9041712],[-1.0238761,50.9061689],[-1.0245435,50.9094716],[-1.0186966,50.9090462],[-1.0144964,50.9135219],[-1.0157867,50.9073364],[-1.0101559,50.9063325],[-0.9990495,50.9127747],[-0.9978739,50.9230964]]],"type":"Polygon"},"id":"E02004710","properties":{"code":"E02004710","geography":"MSOA","name":"East Hampshire 014"},"type":"Feature"},{"geometry":{"coordinates":[[[-0.9496604,50.9040635],[-0.9510845,50.906667],[-0.9595481,50.905946],[-0.9608052,50.9023795],[-0.9677027,50.9080847],[-0.9829029,50.9084862],[-0.9769758,50.9154626],[-0.9725013,50.91489],[-0.9665501,50.9235609],[-0.9764288,50.9328597],[-0.993572,50.9354067],[-0.9978739,50.9230964],[-0.9990495,50.9127747],[-1.0101559,50.9063325],[-1.0157867,50.9073364],[-1.0144964,50.9135219],[-1.0186966,50.9090462],[-1.0184834,50.9038388],[-1.0077949,50.9025478],[-1.0014963,50.8994852],[-1.0047228,50.896555],[-0.9987836,50.8954098],[-0.9932333,50.8920686],[-0.9787304,50.8783163],[-0.9717095,50.8778721],[-0.9682714,50.8777199],[-0.9680276,50.8734486],[-0.9604594,50.8721929],[-0.9634003,50.867263],[-0.953563,50.8682024],[-0.9386237,50.8737304],[-0.9575977,50.8906386],[-0.9496604,50.9040635]]],"type":"Polygon"},"id":"E02006829","properties":{"code":"E02006829","geography":"MSOA","name":"East Hampshire 016"},"type":"Feature"},{"geometry":{"coordinates":[[[-0.8284872,51.1315354],[-0.8298831,51.1250794],[-0.8366224,51.1210291],[-0.8427055,51.1231221],[-0.8384981,51.1168935],[-0.8458931,51.1136848],[-0.8504104,51.1053827],[-0.8486241,51.0975115],[-0.7869923,51.1167628],[-0.7711233,51.1107187],[-0.768906,51.1032545],[-0.7598857,51.1048728],[-0.7493073,51.1032527],[-0.744707,51.1064159],[-0.745553,51.1121934],[-0.7692999,51.1171472],[-0.7806695,51.1278036],[-0.782388,51.1237444],[-0.7983579,51.1243824],[-0.8002692,51.12116],[-0.8091067,51.1246768],[-0.8093481,51.1291845],[-0.8186502,51.1255864],[-0.8284872,51.1315354]]],"type":"Polygon"},"id":"E02006838","properties":{"code":"E02006838","geography":"MSOA","name":"East Hampshire 017"},"type":"Feature"}],"type":"FeatureCollection"}
