{"features":[{"geometry":{"coordinates":[[[-1.6901919,52.0547235],[-1.6995728,52.0546173],[-1.7051529,52.0596941],[-1.7017429,52.0727967],[-1.7098945,52.0733365],[-1.7129654,52.0665722],[-1.7306828,52.0733868],[-1.7285718,52.1001073],[-1.7385525,52.091395],[-1.7460337,52.0929472],[-1.7676594,52.1125797],[-1.7894277,52.1063622],[-1.7901456,52.1005789],[-1.8022993,52.0969291],[-1.812747,52.0787321],[-1.8189535,52.0853924],[-1.8317629,52.0727579],[-1.8466294,52.0794095],[-1.8533985,52.0723558],[-1.8556163,52.0744293],[-1.8720144,52.0719056],[-1.8716918,52.065415],[-1.8649978,52.066267],[-1.8628872,52.0634207],[-1.8634588,52.0534067],[-1.8345987,52.0437221],[-1.8297611,52.0390608],[-1.8305705,52.0321283],[-1.8250329,52.0309228],[-1.8356692,52.0224919],[-1.8353188,52.0091522],[-1.8390604,52.0067732],[-1.8179407,52.0013743],[-1.8068846,52.0026628],[-1.8016896,51.996885],[-1.796177,51.9945217],[-1.7669851,52.0016242],[-1.7553794,52.0001361],[-1.7270186,52.0119085],[-1.7176688,52.0058181],[-1.6957103,52.0059293],[-1.6825426,52.0252588],[-1.6721031,52.0248949],[-1.6681713,52.0307951],[-1.6610776,52.0316021],[-1.6688908,52.0365702],[-1.6939946,52.0395144],[-1.6901919,52.0547235]]],"type":"Polygon"},"id":"E02004615","properties":{"code":"E02004615","geography":"MSOA","name":"Cotswold 001"},"type":"Feature"},{"geometry":{"coordinates":[[[-1.6657663,51.9874784],[-1.6698998,51.9930794],[-1.6661855,51.9969072],[-1.6428505,52.0091915],[-1.6386621,52.0204747],[-1.6284179,52.0271955],[-1.6196986,52.0279669],[-1.6174997,52.0333425],[-1.6244309,52.0389698],[-1.6453872,52.03422],[-1.6535624,52.0353908],[-1.6610776,52.0316021],[-1.6681713,52.0307951],[-1.6721031,52.0248949],[-1.6825426,52.0252588],[-1.6957103,52.0059293],[-1.7176688,52.0058181],[-1.7270186,52.0119085],[-1.7553794,52.0001361],[-1.7669851,52.0016242],[-1.796177,51.9945217],[-1.8016896,51.996885],[-1.812209,51.9880092],[-1.8085711,51.9826877],[-1.7913845,51.9777482],[-1.7868487,51.9707831],[-1.7905116,51.9689376],[-1.799483,51.9730169],[-1.8083698,51.9727676],[-1.7994186,51.9649081],[-1.8065199,51.9532661],[-1.7807167,51.9456004],[-1.7509365,51.9476665],[-1.7435984,51.9449699],[-1.7365319,51.9478027],[-1.7220625,51.9396319],[-1.7232472,51.9361524],[-1.7313673,51.9365182],[-1.7317798,51.9258755],[-1.7253439,51.9260643],[-1.7250674,51.9178774],[-1.7298408,51.9161936],[-1.7427365,51.9193369],[-1.7417713,51.9053811],[-1.7376304,51.9080504],[-1.7226257,51.904593],[-1.7203221,51.9016173],[-1.7132398,51.9019021],[-1.715565,51.9041932],[-1.7047556,51.9101946],[-1.6926695,51.908173],[-1.6762699,51.913267],[-1.6682791,51.8977589],[-1.6576016,51.8971798],[-1.6415622,51.8955283],[-1.6330631,51.8992169],[-1.6337585,51.9054662],[-1.6348677,51.9128819],[-1.6449054,51.9137183],[-1.6411948,51.921553],[-1.6455425,51.9222851],[-1.6152021,51.9376727],[-1.632503,51.9556419],[-1.6489386,51.9589152],[-1.6553787,51.9574939],[-1.6523863,51.9615024],[-1.6625406,51.9639951],[-1.6689549,51.9752626],[-1.6657663,51.9874784]]],"type":"Polygon"},"id":"E02004616","properties":{"code":"E02004616","geography":"MSOA","name":"Cotswold 002"},"type":"Feature"},{"geometry":{"coordinates":[[[-1.812209,51.9880092],[-1.8450233,51.988092],[-1.8653654,51.9951483],[-1.8834354,51.9836038],[-1.8684741,51.9805818],[-1.8754211,51.9715015],[-1.8745087,51.9650889],[-1.89708,51.9603161],[-1.9028269,51.962327],[-1.9006273,51.9671397],[-1.9109399,51.9693758],[-1.9166419,51.9627215],[-1.9228605,51.963025],[-1.9316698,51.9573159],[-1.9231967,51.9348806],[-1.9183709,51.9357765],[-1.8872153,51.9261841],[-1.8919862,51.919596],[-1.8867998,51.9172801],[-1.8878701,51.9118799],[-1.8684145,51.9080596],[-1.8807443,51.8967826],[-1.8570392,51.896773],[-1.8536187,51.8934219],[-1.8620594,51.8897138],[-1.8405342,51.8872497],[-1.811562,51.8894234],[-1.8106463,51.884544],[-1.8214376,51.8778597],[-1.8248375,51.8788635],[-1.8321538,51.8672254],[-1.815805,51.8616023],[-1.8112983,51.85543],[-1.8032217,51.855682],[-1.7856611,51.8516042],[-1.7731205,51.8558719],[-1.7722472,51.8539414],[-1.7407221,51.8579673],[-1.7402793,51.8532306],[-1.7289591,51.8444847],[-1.727275,51.8368664],[-1.7121208,51.8396906],[-1.7004711,51.8475039],[-1.6787064,51.8529148],[-1.6868797,51.8654922],[-1.6671244,51.876992],[-1.6689694,51.8814964],[-1.6576016,51.8971798],[-1.6682791,51.8977589],[-1.6762699,51.913267],[-1.6926695,51.908173],[-1.7047556,51.9101946],[-1.715565,51.9041932],[-1.7132398,51.9019021],[-1.7203221,51.9016173],[-1.7226257,51.904593],[-1.7376304,51.9080504],[-1.7417713,51.9053811],[-1.7427365,51.9193369],[-1.7298408,51.9161936],[-1.7250674,51.9178774],[-1.7253439,51.9260643],[-1.7317798,51.9258755],[-1.7313673,51.9365182],[-1.7232472,51.9361524],[-1.7220625,51.9396319],[-1.7365319,51.9478027],[-1.7435984,51.9449699],[-1.7509365,51.9476665],[-1.7807167,51.9456004],[-1.8065199,51.9532661],[-1.7994186,51.9649081],[-1.8083698,51.9727676],[-1.799483,51.9730169],[-1.7905116,51.9689376],[-1.7868487,51.9707831],[-1.7913845,51.9777482],[-1.8085711,51.9826877],[-1.812209,51.9880092]]],"type":"Polygon"},"id":"E02004617","properties":{"code":"E02004617","geography":"MSOA","name":"Cotswold 003"},"type":"Feature"},{"geometry":{"coordinates":[[[-1.9811735,51.9089303],[-1.9941772,51.9149687],[-2.0004289,51.9040669],[-2.0096777,51.9058602],[-2.0102252,51.9029121],[-2.0253076,51.8642719],[-2.0364152,51.8642193],[-2.0472801,51.8583168],[-2.0594918,51.8644572],[-2.0707155,51.865007],[-2.0719333,51.8601855],[-2.0821446,51.8549147],[-2.0984191,51.8565527],[-2.0968885,51.8512172],[-2.1075364,51.8427707],[-2.0987396,51.8433527],[-2.1009928,51.8375643],[-2.1131422,51.8344433],[-2.1105315,51.8281474],[-2.1149009,51.8227832],[-2.1211832,51.8195536],[-2.1342604,51.819912],[-2.1237013,51.8101943],[-2.1175989,51.8091565],[-2.1195086,51.8033551],[-2.1156417,51.7994516],[-2.0838167,51.7889441],[-2.0827607,51.7784495],[-2.0735084,51.7686318],[-2.0903474,51.765636],[-2.1026582,51.7672736],[-2.1071688,51.7475374],[-2.1013551,51.7407356],[-2.0896398,51.7469892],[-2.080262,51.7436276],[-2.0799558,51.7392812],[-2.0689176,51.7391927],[-2.0725044,51.7353306],[-2.0539659,51.7242247],[-2.0555507,51.7344227],[-2.0373768,51.7394908],[-2.0102432,51.7246883],[-2.0041112,51.7250699],[-2.0091639,51.7340377],[-1.9936837,51.7347863],[-1.9893283,51.7389204],[-1.9837315,51.7334103],[-1.974442,51.7374399],[-1.9620297,51.737763],[-1.9598414,51.729768],[-1.9441265,51.7257582],[-1.9444776,51.7379637],[-1.9327635,51.7625686],[-1.9131153,51.7732315],[-1.8577149,51.8218646],[-1.8738321,51.8345579],[-1.8970103,51.8388922],[-1.8841969,51.8437569],[-1.8851122,51.8494949],[-1.8318899,51.8410338],[-1.8032217,51.855682],[-1.8112983,51.85543],[-1.815805,51.8616023],[-1.8321538,51.8672254],[-1.8248375,51.8788635],[-1.8214376,51.8778597],[-1.8106463,51.884544],[-1.811562,51.8894234],[-1.8405342,51.8872497],[-1.8620594,51.8897138],[-1.8733954,51.8936491],[-1.8747898,51.8899515],[-1.8828961,51.8915243],[-1.8821869,51.8942703],[-1.8960256,51.8942925],[-1.9016768,51.8870037],[-1.912169,51.8875927],[-1.9273267,51.8964222],[-1.9294165,51.904687],[-1.9388719,51.9068951],[-1.9605893,51.9024499],[-1.9811735,51.9089303]]],"type":"Polygon"},"id":"E02004618","properties":{"code":"E02004618","geography":"MSOA","name":"Cotswold 004"},"type":"Feature"},{"geometry":{"coordinates":[[[-1.8990229,51.6796826],[-1.8933001,51.6769346],[-1.8738938,51.682586],[-1.8504952,51.6562818],[-1.8344824,51.6575173],[-1.8152097,51.6635262],[-1.8231821,51.6734809],[-1.812483,51.6859963],[-1.819526,51.6951451],[-1.8184993,51.7023056],[-1.8145429,51.7029213],[-1.8176879,51.7182972],[-1.8232065,51.7188063],[-1.8304762,51.7297468],[-1.8292134,51.7351692],[-1.8361994,51.7413585],[-1.825682,51.7433792],[-1.818885,51.7495538],[-1.7986331,51.7462798],[-1.7921587,51.7415059],[-1.7801385,51.7461486],[-1.7733786,51.7455718],[-1.761745,51.7539349],[-1.7491481,51.7563166],[-1.753046,51.7354212],[-1.7509703,51.7302395],[-1.7346065,51.7185472],[-1.7224252,51.7135489],[-1.7163447,51.7159279],[-1.7054931,51.7129516],[-1.7068118,51.7150223],[-1.69372,51.7215828],[-1.6958318,51.7237681],[-1.6855217,51.7306291],[-1.6870343,51.7398786],[-1.6948791,51.7485695],[-1.7007175,51.770579],[-1.7195007,51.7832062],[-1.6934622,51.7941433],[-1.6819441,51.8039863],[-1.6768725,51.817018],[-1.6811326,51.8160459],[-1.6864736,51.8344487],[-1.6763976,51.8503021],[-1.6787064,51.8529148],[-1.7004711,51.8475039],[-1.7121208,51.8396906],[-1.727275,51.8368664],[-1.7289591,51.8444847],[-1.7402793,51.8532306],[-1.7407221,51.8579673],[-1.7722472,51.8539414],[-1.7731205,51.8558719],[-1.7856611,51.8516042],[-1.8032217,51.855682],[-1.8318899,51.8410338],[-1.8851122,51.8494949],[-1.8841969,51.8437569],[-1.8970103,51.8388922],[-1.8738321,51.8345579],[-1.8577149,51.8218646],[-1.9131153,51.7732315],[-1.9327635,51.7625686],[-1.9444776,51.7379637],[-1.9228949,51.7314803],[-1.9115719,51.7089761],[-1.9118766,51.6997505],[-1.9185573,51.6923521],[-1.9141137,51.6904382],[-1.9100924,51.6878767],[-1.8990229,51.6796826]]],"type":"Polygon"},"id":"E02004619","properties":{"code":"E02004619","geography":"MSOA","name":"Cotswold 005"},"type":"Feature"},{"geometry":{"coordinates":[[[-1.9441265,51.7257582],[-1.9598414,51.729768],[-1.9620297,51.737763],[-1.974442,51.7374399],[-1.9837315,51.7334103],[-1.9893283,51.7389204],[-1.9936837,51.7347863],[-2.0091639,51.7340377],[-2.0041112,51.7250699],[-1.9744054,51.7235694],[-1.9619616,51.7195621],[-1.9539043,51.7110238],[-1.9432703,51.7103204],[-1.9441265,51.7257582]]],"type":"Polygon"},"id":"E02004620","properties":{"code":"E02004620","geography":"MSOA","name":"Cotswold 006"},"type":"Feature"},{"geometry":{"coordinates":[[[-2.0041112,51.7250699],[-2.0102432,51.7246883],[-2.0373768,51.7394908],[-2.0555507,51.7344227],[-2.0539659,51.7242247],[-2.0533768,51.7161252],[-2.0175301,51.7149098],[-2.0165398,51.7119781],[-2.0047641,51.7096597],[-1.9997946,51.7119028],[-2.004597,51.6992953],[-1.9999004,51.7012587],[-1.9816332,51.7108569],[-1.9623828,51.7075153],[-1.9539043,51.7110238],[-1.9619616,51.7195621],[-1.9744054,51.7235694],[-2.0041112,51.7250699]]],"type":"Polygon"},"id":"E02004621","properties":{"code":"E02004621","geography":"MSOA","name":"Cotswold 007"},"type":"Feature"},{"geometry":{"coordinates":[[[-1.9228949,51.7314803],[-1.9444776,51.7379637],[-1.9441265,51.7257582],[-1.9432703,51.7103204],[-1.9539043,51.7110238],[-1.9623828,51.7075153],[-1.9816332,51.7108569],[-1.9999004,51.7012587],[-1.9886287,51.6938274],[-1.9653561,51.7009636],[-1.9581257,51.6967385],[-1.9665752,51.6943533],[-1.9669822,51.6916382],[-1.9584908,51.6909252],[-1.952279,51.6950262],[-1.9519083,51.6973909],[-1.9560516,51.696898],[-1.9513432,51.6986459],[-1.9521479,51.701784],[-1.9402864,51.7015531],[-1.9291,51.6968315],[-1.9348025,51.6922209],[-1.9448218,51.6903972],[-1.9423878,51.6845741],[-1.9315057,51.6794735],[-1.9103675,51.6877689],[-1.9100924,51.6878767],[-1.9141137,51.6904382],[-1.9185573,51.6923521],[-1.9118766,51.6997505],[-1.9115719,51.7089761],[-1.9228949,51.7314803]]],"type":"Polygon"},"id":"E02004622","properties":{"code":"E02004622","geography":"MSOA","name":"Cotswold 008"},"type":"Feature"},{"geometry":{"coordinates":[[[-1.69372,51.7215828],[-1.7068118,51.7150223],[-1.7054931,51.7129516],[-1.7163447,51.7159279],[-1.7224252,51.7135489],[-1.7346065,51.7185472],[-1.7509703,51.7302395],[-1.753046,51.7354212],[-1.7491481,51.7563166],[-1.761745,51.7539349],[-1.7733786,51.7455718],[-1.7801385,51.7461486],[-1.7921587,51.7415059],[-1.7986331,51.7462798],[-1.818885,51.7495538],[-1.825682,51.7433792],[-1.8361994,51.7413585],[-1.8292134,51.7351692],[-1.8304762,51.7297468],[-1.8232065,51.7188063],[-1.8176879,51.7182972],[-1.8145429,51.7029213],[-1.8075046,51.6991504],[-1.8111841,51.6974778],[-1.7886285,51.6669988],[-1.7770006,51.6693879],[-1.7702799,51.6679618],[-1.7663321,51.6626813],[-1.7538052,51.6622127],[-1.7392251,51.6674229],[-1.7193274,51.6698389],[-1.7110688,51.67179],[-1.7096736,51.6816533],[-1.6968441,51.6920381],[-1.6827024,51.6900486],[-1.6760293,51.6884032],[-1.6752223,51.6825314],[-1.6684541,51.6804318],[-1.6482678,51.6840833],[-1.6574522,51.6964472],[-1.6647131,51.6968749],[-1.6861799,51.7101714],[-1.69372,51.7215828]]],"type":"Polygon"},"id":"E02004623","properties":{"code":"E02004623","geography":"MSOA","name":"Cotswold 009"},"type":"Feature"},{"geometry":{"coordinates":[[[-1.9999004,51.7012587],[-2.004597,51.6992953],[-1.9997946,51.7119028],[-2.0047641,51.7096597],[-2.0165398,51.7119781],[-2.0175301,51.7149098],[-2.0533768,51.7161252],[-2.0539659,51.7242247],[-2.0725044,51.7353306],[-2.0835238,51.7358097],[-2.0815781,51.7296405],[-2.0846985,51.7283122],[-2.128258,51.7247041],[-2.1340057,51.7220469],[-2.133234,51.7085972],[-2.1237438,51.7061675],[-2.1103401,51.7049157],[-2.109349,51.6973433],[-2.0952936,51.6956328],[-2.0874777,51.6956883],[-2.0834713,51.7017801],[-2.0780857,51.7030503],[-2.0599557,51.7026178],[-2.0588521,51.694345],[-2.0505462,51.692353],[-2.0508797,51.6822413],[-2.0408024,51.6802483],[-2.0571806,51.6724395],[-2.0155997,51.6505123],[-2.0032181,51.6489753],[-1.9955608,51.6514071],[-1.9847853,51.643181],[-1.9764853,51.6433443],[-1.9773349,51.638088],[-1.968749,51.6399564],[-1.950815,51.6370559],[-1.9630653,51.6586529],[-1.9578954,51.6596777],[-1.9522475,51.6678133],[-1.9420678,51.6704129],[-1.9209253,51.6572481],[-1.9039122,51.6560246],[-1.8884075,51.6488557],[-1.8766181,51.6515873],[-1.8873621,51.6600785],[-1.8990229,51.6796826],[-1.9100924,51.6878767],[-1.9103675,51.6877689],[-1.9315057,51.6794735],[-1.9423878,51.6845741],[-1.9448218,51.6903972],[-1.9348025,51.6922209],[-1.9291,51.6968315],[-1.9402864,51.7015531],[-1.9521479,51.701784],[-1.9513432,51.6986459],[-1.9560516,51.696898],[-1.9519083,51.6973909],[-1.952279,51.6950262],[-1.9584908,51.6909252],[-1.9669822,51.6916382],[-1.9665752,51.6943533],[-1.9581257,51.6967385],[-1.9653561,51.7009636],[-1.9886287,51.6938274],[-1.9999004,51.7012587]]],"type":"Polygon"},"id":"E02004624","properties":{"code":"E02004624","geography":"MSOA","name":"Cotswold 010"},"type":"Feature"},{"geometry":{"coordinates":[[[-2.0571806,51.6724395],[-2.0408024,51.6802483],[-2.0508797,51.6822413],[-2.0505462,51.692353],[-2.0588521,51.694345],[-2.0599557,51.7026178],[-2.0780857,51.7030503],[-2.0834713,51.7017801],[-2.0874777,51.6956883],[-2.0952936,51.6956328],[-2.109349,51.6973433],[-2.1103401,51.7049157],[-2.1237438,51.7061675],[-2.1299139,51.6972791],[-2.1406609,51.6993472],[-2.1498807,51.689334],[-2.1589587,51.6863752],[-2.1641736,51.6905367],[-2.1752015,51.690745],[-2.1807949,51.6876243],[-2.2006501,51.6928763],[-2.2118482,51.6822419],[-2.2046367,51.681545],[-2.2005883,51.674638],[-2.187555,51.6702946],[-2.1921128,51.6597589],[-2.232726,51.6609181],[-2.2425232,51.6740316],[-2.2653611,51.6782867],[-2.2715325,51.682884],[-2.2871668,51.680633],[-2.2861475,51.6742698],[-2.2818012,51.6736409],[-2.2838509,51.670047],[-2.2897001,51.6694551],[-2.2843027,51.6670038],[-2.2928549,51.6561907],[-2.3153642,51.6458427],[-2.3075289,51.6424732],[-2.3236037,51.6330841],[-2.3143437,51.6250541],[-2.2937643,51.6325126],[-2.2772337,51.6196282],[-2.2743286,51.6145859],[-2.2808267,51.6115312],[-2.2916413,51.5936952],[-2.2940899,51.588573],[-2.2835074,51.5849629],[-2.2872815,51.5831564],[-2.2808928,51.5813127],[-2.2827498,51.5785161],[-2.2765661,51.5798957],[-2.2725632,51.5775898],[-2.2674574,51.5827168],[-2.2451207,51.5814088],[-2.2418713,51.5921063],[-2.2229487,51.5961091],[-2.2074316,51.6034],[-2.2065569,51.5959485],[-2.1924474,51.5958122],[-2.1900169,51.5925021],[-2.1794964,51.6000446],[-2.1747222,51.5961647],[-2.1525426,51.5903405],[-2.0571806,51.6724395]]],"type":"Polygon"},"id":"E02004625","properties":{"code":"E02004625","geography":"MSOA","name":"Cotswold 011"},"type":"Feature"}],"type":"FeatureCollection"}
