{"features":[{"geometry":{"coordinates":[[[0.5630625,52.0708154],[0.5513413,52.0687404],[0.5514994,52.0620443],[0.5422324,52.0577466],[0.5341822,52.0597405],[0.5231234,52.0567612],[0.5110238,52.0598192],[0.5007891,52.0538023],[0.4884996,52.0614617],[0.4871154,52.0696149],[0.4746906,52.0751814],[0.4707641,52.0734507],[0.4666359,52.0784439],[0.4581295,52.0761107],[0.461793,52.072323],[0.453799,52.0711293],[0.453592,52.0681353],[0.4439217,52.0685066],[0.446068,52.0721053],[0.4386455,52.0723304],[0.428855,52.0683086],[0.4187555,52.0648938],[0.4046086,52.0654908],[0.3903896,52.0602765],[0.3795829,52.0495515],[0.3881591,52.0437065],[0.3896654,52.0364558],[0.394003,52.0318301],[0.412811,52.038063],[0.4313598,52.0389217],[0.4304123,52.0205163],[0.4377251,52.0140369],[0.4445343,52.0114346],[0.4565024,52.0154885],[0.4646681,52.0117406],[0.4543537,52.0077917],[0.4574499,52.0024582],[0.4653015,52.0050683],[0.4703605,52.0035206],[0.4764703,52.0098921],[0.4880442,52.0023353],[0.4871314,51.9995345],[0.5142971,51.9734619],[0.5204359,51.9734863],[0.5215416,51.9680573],[0.5265522,51.9701042],[0.5242808,51.9798949],[0.5178807,51.9772551],[0.5285701,51.9913901],[0.5411208,51.9916902],[0.5539317,51.9990225],[0.5566644,51.9946033],[0.5669067,51.996681],[0.5619321,51.9936311],[0.5673552,51.9901388],[0.5739021,51.9948374],[0.5828097,52.0029691],[0.5854758,52.0124718],[0.6075957,52.0180281],[0.6077848,52.0209791],[0.6185796,52.0241892],[0.616771,52.0317384],[0.5996826,52.0283076],[0.5957045,52.0315965],[0.6010281,52.0339524],[0.5847317,52.034415],[0.5822467,52.0396985],[0.5767269,52.0387895],[0.5803657,52.0352234],[0.5708081,52.0246834],[0.5554553,52.0253576],[0.5450682,52.0338215],[0.5497249,52.0439852],[0.557556,52.0446194],[0.5584852,52.04903],[0.5646871,52.048859],[0.5597082,52.0547309],[0.5637575,52.0613725],[0.5686483,52.0593034],[0.5774917,52.0630975],[0.5806232,52.0594004],[0.5867202,52.0606768],[0.5849296,52.0741263],[0.5820882,52.0758299],[0.5717465,52.0690729],[0.5630625,52.0708154]]],"type":"Polygon"},"id":"E02004446","properties":{"code":"E02004446","geography":"MSOA","name":"Braintree 001"},"type":"Feature"},{"geometry":{"coordinates":[[[0.6882229,52.0847618],[0.6830863,52.0870266],[0.6789147,52.0838718],[0.6724122,52.0861564],[0.6608303,52.0836856],[0.6568703,52.0854278],[0.651847,52.0831364],[0.6362731,52.0866199],[0.6194837,52.0765778],[0.6073467,52.080902],[0.5999389,52.0755944],[0.5849296,52.0741263],[0.5867202,52.0606768],[0.5806232,52.0594004],[0.5774917,52.0630975],[0.5686483,52.0593034],[0.5637575,52.0613725],[0.5597082,52.0547309],[0.5646871,52.048859],[0.5584852,52.04903],[0.557556,52.0446194],[0.5497249,52.0439852],[0.5450682,52.0338215],[0.5554553,52.0253576],[0.5708081,52.0246834],[0.5803657,52.0352234],[0.5767269,52.0387895],[0.5822467,52.0396985],[0.5847317,52.034415],[0.6010281,52.0339524],[0.5957045,52.0315965],[0.5996826,52.0283076],[0.616771,52.0317384],[0.6185796,52.0241892],[0.6077848,52.0209791],[0.6075957,52.0180281],[0.5854758,52.0124718],[0.5828097,52.0029691],[0.5739021,51.9948374],[0.5780668,51.9885162],[0.5862718,51.9864624],[0.5828517,51.99363],[0.5924001,51.998243],[0.6056383,51.9899784],[0.6038173,51.9844235],[0.5924402,51.983732],[0.5967619,51.978696],[0.6040946,51.9775743],[0.6011032,51.9743087],[0.6072929,51.9742994],[0.6048374,51.9714096],[0.6157024,51.9595538],[0.6399896,51.964158],[0.6409607,51.9583755],[0.6463664,51.9623452],[0.6566121,51.9613846],[0.6581675,51.963914],[0.6695608,51.9589802],[0.6781314,51.9598572],[0.6751968,51.9553914],[0.6860665,51.9534781],[0.6980132,51.9544601],[0.7024295,51.9584067],[0.7068264,51.9565901],[0.7210234,51.95975],[0.7288918,51.9534808],[0.7365627,51.9562499],[0.7496764,51.9547779],[0.7640182,51.9543131],[0.7684771,51.9618965],[0.7775428,51.9598738],[0.781438,51.9665013],[0.7722283,51.9704136],[0.7746011,51.9825802],[0.7596357,51.9854176],[0.7611174,51.9974714],[0.7498318,51.9998467],[0.749127,52.0055382],[0.7384952,52.0106863],[0.7423783,52.0163448],[0.7391451,52.0322649],[0.7143649,52.027306],[0.706498,52.0295127],[0.7124759,52.0348566],[0.6986614,52.0367417],[0.6983606,52.0468464],[0.7162318,52.048674],[0.703147,52.0652596],[0.7098488,52.0669734],[0.7120871,52.0722287],[0.7020506,52.0794811],[0.6923969,52.0787147],[0.6882229,52.0847618]]],"type":"Polygon"},"id":"E02004447","properties":{"code":"E02004447","geography":"MSOA","name":"Braintree 002"},"type":"Feature"},{"geometry":{"coordinates":[[[0.6695608,51.9589802],[0.6581675,51.963914],[0.6566121,51.9613846],[0.6463664,51.9623452],[0.6409607,51.9583755],[0.6399896,51.964158],[0.6157024,51.9595538],[0.6048374,51.9714096],[0.6072929,51.9742994],[0.6011032,51.9743087],[0.6040946,51.9775743],[0.5967619,51.978696],[0.5924402,51.983732],[0.6038173,51.9844235],[0.6056383,51.9899784],[0.5924001,51.998243],[0.5828517,51.99363],[0.5862718,51.9864624],[0.5780668,51.9885162],[0.5739021,51.9948374],[0.5673552,51.9901388],[0.5619321,51.9936311],[0.5669067,51.996681],[0.5566644,51.9946033],[0.5539317,51.9990225],[0.5411208,51.9916902],[0.5285701,51.9913901],[0.5178807,51.9772551],[0.5242808,51.9798949],[0.5265522,51.9701042],[0.5294758,51.9655602],[0.5370467,51.9672449],[0.5449342,51.9628507],[0.5538225,51.9513441],[0.5661184,51.9536021],[0.5803817,51.9501457],[0.595745,51.9550154],[0.6037297,51.9519044],[0.6082467,51.946722],[0.5992121,51.9389338],[0.5948283,51.941238],[0.5855494,51.9394684],[0.5931936,51.9345318],[0.5875033,51.9270614],[0.5913889,51.9265023],[0.5982847,51.9328559],[0.6055162,51.9291276],[0.6015802,51.9215836],[0.6393507,51.9138538],[0.6430387,51.907861],[0.6553914,51.9083995],[0.6596165,51.9045604],[0.6668528,51.9089848],[0.6588437,51.91818],[0.6759152,51.9231062],[0.6799321,51.9273131],[0.6741389,51.9274029],[0.6685064,51.9365291],[0.6603415,51.9384014],[0.6461032,51.9389211],[0.6377998,51.9351098],[0.6311155,51.9324996],[0.6240259,51.9379169],[0.6209835,51.9475903],[0.6299034,51.9511174],[0.6275841,51.9557734],[0.6398094,51.9583517],[0.6413049,51.953677],[0.6546565,51.94994],[0.6657292,51.9523484],[0.6744673,51.9508963],[0.6635224,51.9561385],[0.6695608,51.9589802]]],"type":"Polygon"},"id":"E02004448","properties":{"code":"E02004448","geography":"MSOA","name":"Braintree 003"},"type":"Feature"},{"geometry":{"coordinates":[[[0.6377998,51.9351098],[0.6378671,51.939931],[0.6431533,51.9395778],[0.6445007,51.9433496],[0.6566373,51.9429039],[0.6418739,51.946738],[0.6412688,51.9497537],[0.6300064,51.9461613],[0.6299034,51.9511174],[0.6209835,51.9475903],[0.6240259,51.9379169],[0.6311155,51.9324996],[0.6377998,51.9351098]]],"type":"Polygon"},"id":"E02004449","properties":{"code":"E02004449","geography":"MSOA","name":"Braintree 004"},"type":"Feature"},{"geometry":{"coordinates":[[[0.5265522,51.9701042],[0.5215416,51.9680573],[0.5204359,51.9734863],[0.5142971,51.9734619],[0.4871314,51.9995345],[0.4880442,52.0023353],[0.4764703,52.0098921],[0.4703605,52.0035206],[0.4653015,52.0050683],[0.4574499,52.0024582],[0.4543537,52.0077917],[0.4646681,52.0117406],[0.4565024,52.0154885],[0.4445343,52.0114346],[0.4377251,52.0140369],[0.4209367,52.0148249],[0.4138096,52.0116717],[0.4269137,51.9867491],[0.4235935,51.9732079],[0.4141402,51.9740372],[0.4124464,51.9710522],[0.4187289,51.958565],[0.4255946,51.9581942],[0.4300236,51.9538122],[0.4251859,51.9520228],[0.4190886,51.9410999],[0.421364,51.9262958],[0.4329879,51.9247902],[0.4400051,51.9082692],[0.4706104,51.8781722],[0.4787654,51.8754566],[0.4844398,51.8848872],[0.479511,51.8883722],[0.4870551,51.8892723],[0.4840339,51.8934027],[0.4923686,51.8954687],[0.4873923,51.9051594],[0.4769977,51.905994],[0.4870704,51.9114895],[0.5047452,51.8891405],[0.5114618,51.8861496],[0.5328143,51.8901299],[0.5394343,51.8922687],[0.5356166,51.898147],[0.5426682,51.9024512],[0.532109,51.9083917],[0.5269182,51.9168416],[0.5483122,51.926194],[0.5380333,51.9348008],[0.541524,51.9388373],[0.5567203,51.9420357],[0.5538225,51.9513441],[0.5449342,51.9628507],[0.5370467,51.9672449],[0.5294758,51.9655602],[0.5265522,51.9701042]]],"type":"Polygon"},"id":"E02004450","properties":{"code":"E02004450","geography":"MSOA","name":"Braintree 005"},"type":"Feature"},{"geometry":{"coordinates":[[[0.7496764,51.9547779],[0.7365627,51.9562499],[0.7288918,51.9534808],[0.7210234,51.95975],[0.7068264,51.9565901],[0.7024295,51.9584067],[0.6980132,51.9544601],[0.6860665,51.9534781],[0.6751968,51.9553914],[0.6781314,51.9598572],[0.6695608,51.9589802],[0.6635224,51.9561385],[0.6744673,51.9508963],[0.6657292,51.9523484],[0.6546565,51.94994],[0.6413049,51.953677],[0.6398094,51.9583517],[0.6275841,51.9557734],[0.6299034,51.9511174],[0.6300064,51.9461613],[0.6412688,51.9497537],[0.6418739,51.946738],[0.6566373,51.9429039],[0.6445007,51.9433496],[0.6431533,51.9395778],[0.6378671,51.939931],[0.6377998,51.9351098],[0.6461032,51.9389211],[0.6603415,51.9384014],[0.6685064,51.9365291],[0.6741389,51.9274029],[0.6799321,51.9273131],[0.6759152,51.9231062],[0.6588437,51.91818],[0.6668528,51.9089848],[0.6765846,51.9091801],[0.6913117,51.9000824],[0.6999303,51.8997148],[0.6995689,51.9034572],[0.7225763,51.9035765],[0.7289839,51.908042],[0.722197,51.9101646],[0.7401119,51.9316275],[0.7402429,51.9399837],[0.7468892,51.9453595],[0.7496764,51.9547779]]],"type":"Polygon"},"id":"E02004451","properties":{"code":"E02004451","geography":"MSOA","name":"Braintree 006"},"type":"Feature"},{"geometry":{"coordinates":[[[0.6015802,51.9215836],[0.6055162,51.9291276],[0.5982847,51.9328559],[0.5913889,51.9265023],[0.5875033,51.9270614],[0.5931936,51.9345318],[0.5855494,51.9394684],[0.5948283,51.941238],[0.5992121,51.9389338],[0.6082467,51.946722],[0.6037297,51.9519044],[0.595745,51.9550154],[0.5803817,51.9501457],[0.5661184,51.9536021],[0.5538225,51.9513441],[0.5567203,51.9420357],[0.541524,51.9388373],[0.5380333,51.9348008],[0.5483122,51.926194],[0.5269182,51.9168416],[0.532109,51.9083917],[0.5426682,51.9024512],[0.5356166,51.898147],[0.5394343,51.8922687],[0.5440085,51.8919154],[0.5447392,51.8963959],[0.5514441,51.8990162],[0.5520547,51.8928741],[0.5560602,51.8938221],[0.5600269,51.8895474],[0.5597418,51.8857778],[0.565679,51.8876951],[0.5721633,51.8854505],[0.5722814,51.8813397],[0.5737578,51.8814712],[0.5876637,51.8813193],[0.5912297,51.8860023],[0.5861882,51.8910887],[0.5878018,51.8979209],[0.5946863,51.9030524],[0.5903153,51.9054329],[0.6015802,51.9215836]]],"type":"Polygon"},"id":"E02004452","properties":{"code":"E02004452","geography":"MSOA","name":"Braintree 007"},"type":"Feature"},{"geometry":{"coordinates":[[[0.5600269,51.8895474],[0.5560602,51.8938221],[0.5520547,51.8928741],[0.5514441,51.8990162],[0.5447392,51.8963959],[0.5440085,51.8919154],[0.5394343,51.8922687],[0.5328143,51.8901299],[0.5298844,51.886178],[0.5329928,51.8844216],[0.519115,51.8765497],[0.538179,51.8785713],[0.5400292,51.8812272],[0.550913,51.8799034],[0.5600269,51.8895474]]],"type":"Polygon"},"id":"E02004453","properties":{"code":"E02004453","geography":"MSOA","name":"Braintree 008"},"type":"Feature"},{"geometry":{"coordinates":[[[0.5722814,51.8813397],[0.5721633,51.8854505],[0.565679,51.8876951],[0.5597418,51.8857778],[0.5600269,51.8895474],[0.550913,51.8799034],[0.5400292,51.8812272],[0.5432117,51.8757883],[0.5514656,51.8740106],[0.5671365,51.8743423],[0.5692584,51.8774902],[0.5651606,51.8806575],[0.5722814,51.8813397]]],"type":"Polygon"},"id":"E02004454","properties":{"code":"E02004454","geography":"MSOA","name":"Braintree 009"},"type":"Feature"},{"geometry":{"coordinates":[[[0.5328143,51.8901299],[0.5114618,51.8861496],[0.5047452,51.8891405],[0.4870704,51.9114895],[0.4769977,51.905994],[0.4873923,51.9051594],[0.4923686,51.8954687],[0.4840339,51.8934027],[0.4870551,51.8892723],[0.479511,51.8883722],[0.4844398,51.8848872],[0.4787654,51.8754566],[0.4706104,51.8781722],[0.4671773,51.878648],[0.4826645,51.872683],[0.4822727,51.8696253],[0.4907673,51.8703774],[0.5012436,51.8646243],[0.5134747,51.8643886],[0.5121052,51.8572641],[0.5213894,51.8583999],[0.5241669,51.8607955],[0.5205517,51.8645216],[0.5248545,51.8628825],[0.5276423,51.8671661],[0.5363498,51.8623675],[0.5423652,51.8703253],[0.5515379,51.8735551],[0.5514656,51.8740106],[0.5432117,51.8757883],[0.5400292,51.8812272],[0.538179,51.8785713],[0.519115,51.8765497],[0.5329928,51.8844216],[0.5298844,51.886178],[0.5328143,51.8901299]]],"type":"Polygon"},"id":"E02004455","properties":{"code":"E02004455","geography":"MSOA","name":"Braintree 010"},"type":"Feature"},{"geometry":{"coordinates":[[[0.5655348,51.8650296],[0.5811025,51.8691838],[0.5767195,51.8730262],[0.5700803,51.873358],[0.5758344,51.8791629],[0.5737578,51.8814712],[0.5722814,51.8813397],[0.5651606,51.8806575],[0.5692584,51.8774902],[0.5671365,51.8743423],[0.5514656,51.8740106],[0.5515379,51.8735551],[0.5557065,51.8721918],[0.5530356,51.8634163],[0.5655348,51.8650296]]],"type":"Polygon"},"id":"E02004456","properties":{"code":"E02004456","geography":"MSOA","name":"Braintree 011"},"type":"Feature"},{"geometry":{"coordinates":[[[0.6430387,51.907861],[0.6393507,51.9138538],[0.6015802,51.9215836],[0.5903153,51.9054329],[0.5946863,51.9030524],[0.5878018,51.8979209],[0.5861882,51.8910887],[0.5912297,51.8860023],[0.5876637,51.8813193],[0.5737578,51.8814712],[0.5758344,51.8791629],[0.5700803,51.873358],[0.5767195,51.8730262],[0.5811025,51.8691838],[0.5655348,51.8650296],[0.574546,51.8493734],[0.5798077,51.8439669],[0.5876016,51.845944],[0.5903057,51.8404222],[0.6025597,51.8432985],[0.6101231,51.8311534],[0.624877,51.8340769],[0.627998,51.8428126],[0.6334148,51.8448686],[0.6265198,51.8465569],[0.6279515,51.8587543],[0.635749,51.8591592],[0.6544788,51.8559988],[0.6562374,51.8581458],[0.6509518,51.8644648],[0.6538937,51.8721946],[0.6452972,51.8825686],[0.6499783,51.8919557],[0.6331603,51.8979482],[0.6337272,51.9022932],[0.6430387,51.907861]]],"type":"Polygon"},"id":"E02004457","properties":{"code":"E02004457","geography":"MSOA","name":"Braintree 012"},"type":"Feature"},{"geometry":{"coordinates":[[[0.5655348,51.8650296],[0.5530356,51.8634163],[0.5557065,51.8721918],[0.5515379,51.8735551],[0.5423652,51.8703253],[0.5363498,51.8623675],[0.5276423,51.8671661],[0.5248545,51.8628825],[0.5205517,51.8645216],[0.5241669,51.8607955],[0.5213894,51.8583999],[0.5121052,51.8572641],[0.5192337,51.8504404],[0.5249143,51.8492459],[0.520338,51.844007],[0.529801,51.8364705],[0.5301525,51.8295843],[0.5320949,51.837914],[0.5412799,51.8375315],[0.574546,51.8493734],[0.5655348,51.8650296]]],"type":"Polygon"},"id":"E02004458","properties":{"code":"E02004458","geography":"MSOA","name":"Braintree 013"},"type":"Feature"},{"geometry":{"coordinates":[[[0.6999303,51.8997148],[0.6913117,51.9000824],[0.6765846,51.9091801],[0.6668528,51.9089848],[0.6596165,51.9045604],[0.6553914,51.9083995],[0.6430387,51.907861],[0.6337272,51.9022932],[0.6331603,51.8979482],[0.6499783,51.8919557],[0.6452972,51.8825686],[0.6538937,51.8721946],[0.6509518,51.8644648],[0.6562374,51.8581458],[0.6544788,51.8559988],[0.635749,51.8591592],[0.6345221,51.8552846],[0.6550199,51.8483251],[0.6554843,51.8423396],[0.6634968,51.8375591],[0.6654509,51.8314561],[0.6818249,51.8190875],[0.6972421,51.8291172],[0.7088818,51.8188957],[0.7213038,51.8302269],[0.7118767,51.8345213],[0.7331654,51.8419687],[0.7381595,51.8377904],[0.7414291,51.841441],[0.7331164,51.8484521],[0.7445866,51.851799],[0.7503162,51.8535914],[0.7452077,51.8563751],[0.7517579,51.8645304],[0.7365785,51.8716687],[0.7304334,51.8675428],[0.7163741,51.8712519],[0.723471,51.8739066],[0.7181618,51.8779314],[0.7227298,51.8787822],[0.7118409,51.8865345],[0.7105267,51.8952672],[0.6999303,51.8997148]]],"type":"Polygon"},"id":"E02004459","properties":{"code":"E02004459","geography":"MSOA","name":"Braintree 014"},"type":"Feature"},{"geometry":{"coordinates":[[[0.6818249,51.8190875],[0.6654509,51.8314561],[0.6634968,51.8375591],[0.6554843,51.8423396],[0.6550199,51.8483251],[0.6345221,51.8552846],[0.635749,51.8591592],[0.6279515,51.8587543],[0.6265198,51.8465569],[0.6334148,51.8448686],[0.627998,51.8428126],[0.624877,51.8340769],[0.6101231,51.8311534],[0.6149791,51.8305752],[0.624523,51.8139822],[0.6196046,51.8131707],[0.6304346,51.7987285],[0.6342384,51.799016],[0.6360775,51.8079625],[0.643254,51.8151279],[0.6538094,51.8096102],[0.652398,51.80211],[0.6566627,51.8015115],[0.6599335,51.8057857],[0.6666404,51.8052182],[0.6700309,51.8094437],[0.6787022,51.8106635],[0.6818249,51.8190875]]],"type":"Polygon"},"id":"E02004460","properties":{"code":"E02004460","geography":"MSOA","name":"Braintree 015"},"type":"Feature"},{"geometry":{"coordinates":[[[0.6304346,51.7987285],[0.6196046,51.8131707],[0.6122624,51.8098115],[0.5934103,51.8101982],[0.6041531,51.7963489],[0.6049292,51.7938972],[0.5979608,51.7939981],[0.6033561,51.7883518],[0.6138391,51.7907051],[0.6195443,51.7940901],[0.6218526,51.7919954],[0.6265627,51.7936114],[0.6276688,51.7911063],[0.6304346,51.7987285]]],"type":"Polygon"},"id":"E02004461","properties":{"code":"E02004461","geography":"MSOA","name":"Braintree 016"},"type":"Feature"},{"geometry":{"coordinates":[[[0.6566627,51.8015115],[0.652398,51.80211],[0.6538094,51.8096102],[0.643254,51.8151279],[0.6360775,51.8079625],[0.6342384,51.799016],[0.6304346,51.7987285],[0.6276688,51.7911063],[0.6265627,51.7936114],[0.6218526,51.7919954],[0.6195443,51.7940901],[0.6138391,51.7907051],[0.6180505,51.7831915],[0.6330637,51.7858555],[0.6366484,51.7911991],[0.6430827,51.7897172],[0.6463811,51.793859],[0.6554181,51.7914234],[0.6566627,51.8015115]]],"type":"Polygon"},"id":"E02004462","properties":{"code":"E02004462","geography":"MSOA","name":"Braintree 017"},"type":"Feature"},{"geometry":{"coordinates":[[[0.6101231,51.8311534],[0.6025597,51.8432985],[0.5903057,51.8404222],[0.5876016,51.845944],[0.5798077,51.8439669],[0.574546,51.8493734],[0.5412799,51.8375315],[0.5320949,51.837914],[0.5301525,51.8295843],[0.5301639,51.8231806],[0.5225125,51.8221596],[0.5325529,51.8159255],[0.534156,51.810911],[0.5247328,51.8096779],[0.5237638,51.8034206],[0.5291599,51.7969419],[0.541878,51.7904454],[0.5583719,51.7753908],[0.5720718,51.7518939],[0.5844999,51.7511448],[0.5933388,51.7554416],[0.5986754,51.7504091],[0.6067226,51.7589353],[0.614352,51.7608159],[0.6149855,51.7580856],[0.6186641,51.7585415],[0.6185792,51.7625577],[0.6349558,51.7614265],[0.6375104,51.7576412],[0.6474757,51.7615036],[0.6326547,51.7716152],[0.6333136,51.7761158],[0.6511148,51.784848],[0.6554181,51.7914234],[0.6463811,51.793859],[0.6430827,51.7897172],[0.6366484,51.7911991],[0.6330637,51.7858555],[0.6180505,51.7831915],[0.6138391,51.7907051],[0.6033561,51.7883518],[0.5979608,51.7939981],[0.6049292,51.7938972],[0.6041531,51.7963489],[0.5934103,51.8101982],[0.6122624,51.8098115],[0.6196046,51.8131707],[0.624523,51.8139822],[0.6149791,51.8305752],[0.6101231,51.8311534]]],"type":"Polygon"},"id":"E02004463","properties":{"code":"E02004463","geography":"MSOA","name":"Braintree 018"},"type":"Feature"}],"type":"FeatureCollection"}
