{"features":[{"geometry":{"coordinates":[[[1.3088642,52.8052397],[1.3065715,52.8073297],[1.2996139,52.804715],[1.2992835,52.8072559],[1.2888616,52.8046405],[1.274105,52.8187926],[1.2674502,52.8190292],[1.2619393,52.8126444],[1.2537064,52.8136019],[1.2510623,52.820495],[1.2382019,52.8203981],[1.2375801,52.8232516],[1.2143682,52.8296861],[1.2067363,52.8270304],[1.2019491,52.8156447],[1.1933677,52.8152907],[1.1896552,52.819695],[1.1810774,52.8203678],[1.1808364,52.8271361],[1.1734366,52.83057],[1.1671928,52.8298601],[1.1658179,52.8257788],[1.1564338,52.8216737],[1.1458374,52.8241558],[1.1436993,52.8206197],[1.14826,52.8188825],[1.1495806,52.8120785],[1.1583096,52.8100845],[1.1622284,52.8005266],[1.1696477,52.7959415],[1.2061136,52.7931444],[1.2073126,52.7808505],[1.2246414,52.7753423],[1.2126769,52.7727751],[1.2098081,52.7692968],[1.2141555,52.7590003],[1.2194346,52.7615966],[1.2405981,52.7612798],[1.2575925,52.7568773],[1.2825902,52.7591329],[1.2755432,52.7713153],[1.2843579,52.7766106],[1.2944618,52.7775577],[1.295281,52.7756274],[1.298141,52.7784026],[1.309987,52.7774698],[1.3147896,52.7797286],[1.3170734,52.7891376],[1.3083457,52.7956797],[1.3149196,52.8008616],[1.308096,52.8020018],[1.3088642,52.8052397]]],"type":"Polygon"},"id":"E02005520","properties":{"code":"E02005520","geography":"MSOA","name":"Broadland 001"},"type":"Feature"},{"geometry":{"coordinates":[[[1.1495806,52.8120785],[1.1283153,52.8145659],[1.1017691,52.8293175],[1.0878818,52.8158212],[1.0733679,52.8168588],[1.0352427,52.811802],[1.0304617,52.8076147],[1.0207395,52.8065301],[1.0222604,52.8000056],[1.0044066,52.8022688],[0.993576,52.7983349],[0.9969303,52.7925136],[0.9903483,52.7840389],[0.99215,52.7800796],[1.0022285,52.7761799],[1.0002205,52.7657606],[1.0112399,52.7629613],[1.0313176,52.7692402],[1.0447502,52.7690182],[1.0550196,52.7568977],[1.051068,52.7503877],[1.0615486,52.7431571],[1.0802218,52.7409323],[1.0885309,52.7231695],[1.1051812,52.7146683],[1.0846088,52.7035984],[1.0871096,52.6976445],[1.1082993,52.6824982],[1.0998719,52.6728258],[1.0976724,52.6497333],[1.1160412,52.6454182],[1.1319944,52.645767],[1.1352224,52.6428352],[1.1381616,52.6597422],[1.146332,52.6600074],[1.1472735,52.6713416],[1.1636643,52.6651852],[1.1737416,52.6651412],[1.1742666,52.6672748],[1.1649217,52.6679865],[1.1614549,52.674403],[1.1716754,52.6799599],[1.1743361,52.6893002],[1.1958683,52.7026313],[1.1757035,52.7084071],[1.1854961,52.7184114],[1.2012947,52.7266894],[1.210521,52.7253227],[1.2186574,52.7337977],[1.2141555,52.7590003],[1.2098081,52.7692968],[1.2126769,52.7727751],[1.2246414,52.7753423],[1.2073126,52.7808505],[1.2061136,52.7931444],[1.1696477,52.7959415],[1.1622284,52.8005266],[1.1583096,52.8100845],[1.1495806,52.8120785]]],"type":"Polygon"},"id":"E02005521","properties":{"code":"E02005521","geography":"MSOA","name":"Broadland 002"},"type":"Feature"},{"geometry":{"coordinates":[[[1.3973092,52.7290795],[1.3876382,52.7399808],[1.3569846,52.7462439],[1.3570618,52.7512073],[1.345336,52.7554655],[1.3375246,52.7686104],[1.326574,52.7670529],[1.3147896,52.7797286],[1.309987,52.7774698],[1.298141,52.7784026],[1.295281,52.7756274],[1.2944618,52.7775577],[1.2843579,52.7766106],[1.2755432,52.7713153],[1.2825902,52.7591329],[1.2887661,52.7470723],[1.3010393,52.7474398],[1.3115245,52.7399513],[1.313286,52.7112018],[1.3052271,52.7086758],[1.3114284,52.7070729],[1.308286,52.7050497],[1.3138581,52.7039496],[1.3124611,52.699427],[1.3278696,52.6948759],[1.3295274,52.6879675],[1.3337514,52.6878152],[1.3310714,52.6854094],[1.3516487,52.6844206],[1.3635398,52.7025965],[1.377375,52.7039526],[1.374943,52.7079061],[1.3862532,52.7143657],[1.3771593,52.7214092],[1.3824453,52.7194956],[1.3887971,52.726814],[1.3973092,52.7290795]]],"type":"Polygon"},"id":"E02005522","properties":{"code":"E02005522","geography":"MSOA","name":"Broadland 003"},"type":"Feature"},{"geometry":{"coordinates":[[[1.2825902,52.7591329],[1.2575925,52.7568773],[1.2405981,52.7612798],[1.2194346,52.7615966],[1.2141555,52.7590003],[1.2186574,52.7337977],[1.210521,52.7253227],[1.2012947,52.7266894],[1.1854961,52.7184114],[1.1757035,52.7084071],[1.1958683,52.7026313],[1.2062327,52.6982556],[1.2189831,52.7042464],[1.2233674,52.7024663],[1.2170299,52.6932297],[1.2409349,52.6822002],[1.2487446,52.6683378],[1.2538521,52.6705044],[1.2512147,52.6722765],[1.2646151,52.6748898],[1.2628367,52.67738],[1.2622792,52.6837189],[1.2794544,52.7004464],[1.2770207,52.7159438],[1.2909516,52.7125942],[1.2974508,52.7058976],[1.3124611,52.699427],[1.3138581,52.7039496],[1.308286,52.7050497],[1.3114284,52.7070729],[1.3052271,52.7086758],[1.313286,52.7112018],[1.3115245,52.7399513],[1.3010393,52.7474398],[1.2887661,52.7470723],[1.2825902,52.7591329]]],"type":"Polygon"},"id":"E02005523","properties":{"code":"E02005523","geography":"MSOA","name":"Broadland 004"},"type":"Feature"},{"geometry":{"coordinates":[[[1.3124611,52.699427],[1.2974508,52.7058976],[1.2909516,52.7125942],[1.2770207,52.7159438],[1.2794544,52.7004464],[1.2622792,52.6837189],[1.2628367,52.67738],[1.2829226,52.6773096],[1.2923071,52.6849094],[1.299638,52.6742391],[1.3095076,52.6715577],[1.3149565,52.6713367],[1.3167374,52.6743609],[1.3246163,52.6730337],[1.3301724,52.6689834],[1.3539581,52.6785288],[1.3516487,52.6844206],[1.3310714,52.6854094],[1.3337514,52.6878152],[1.3295274,52.6879675],[1.3278696,52.6948759],[1.3124611,52.699427]]],"type":"Polygon"},"id":"E02005524","properties":{"code":"E02005524","geography":"MSOA","name":"Broadland 005"},"type":"Feature"},{"geometry":{"coordinates":[[[1.2062327,52.6982556],[1.1958683,52.7026313],[1.1743361,52.6893002],[1.1716754,52.6799599],[1.1614549,52.674403],[1.1649217,52.6679865],[1.1742666,52.6672748],[1.1871938,52.6774437],[1.1936535,52.6780402],[1.201776,52.6728979],[1.2023395,52.6621249],[1.2065841,52.6608417],[1.2080178,52.6684355],[1.2175266,52.6730168],[1.2111478,52.6876145],[1.2153222,52.6937786],[1.2062327,52.6982556]]],"type":"Polygon"},"id":"E02005525","properties":{"code":"E02005525","geography":"MSOA","name":"Broadland 006"},"type":"Feature"},{"geometry":{"coordinates":[[[1.2487446,52.6683378],[1.2409349,52.6822002],[1.2170299,52.6932297],[1.2233674,52.7024663],[1.2189831,52.7042464],[1.2062327,52.6982556],[1.2153222,52.6937786],[1.2111478,52.6876145],[1.2175266,52.6730168],[1.2080178,52.6684355],[1.2065841,52.6608417],[1.2130216,52.6626151],[1.2216712,52.6731444],[1.234308,52.6679378],[1.2334453,52.6611525],[1.2487446,52.6683378]]],"type":"Polygon"},"id":"E02005526","properties":{"code":"E02005526","geography":"MSOA","name":"Broadland 007"},"type":"Feature"},{"geometry":{"coordinates":[[[1.4339259,52.6894805],[1.4162596,52.6938975],[1.4239892,52.7033427],[1.4086166,52.7090239],[1.4024218,52.7156741],[1.4096806,52.7256375],[1.3997256,52.7280919],[1.4047997,52.7288178],[1.4058785,52.7324877],[1.3973092,52.7290795],[1.3887971,52.726814],[1.3824453,52.7194956],[1.3771593,52.7214092],[1.3862532,52.7143657],[1.374943,52.7079061],[1.377375,52.7039526],[1.3635398,52.7025965],[1.3516487,52.6844206],[1.3539581,52.6785288],[1.3599007,52.6748025],[1.3534994,52.6713874],[1.3650158,52.6531253],[1.3560631,52.6504492],[1.365285,52.6480402],[1.3721823,52.643924],[1.3733029,52.6351121],[1.3870097,52.6356895],[1.4013274,52.6274208],[1.4069145,52.6297992],[1.4083748,52.6406856],[1.4220184,52.6429209],[1.4247948,52.6502876],[1.4170236,52.6683696],[1.4339259,52.6894805]]],"type":"Polygon"},"id":"E02005527","properties":{"code":"E02005527","geography":"MSOA","name":"Broadland 008"},"type":"Feature"},{"geometry":{"coordinates":[[[1.3246163,52.6730337],[1.3167374,52.6743609],[1.3149565,52.6713367],[1.3095076,52.6715577],[1.299638,52.6742391],[1.2920434,52.67164],[1.2916831,52.661315],[1.2925759,52.6549866],[1.3023229,52.6530459],[1.3246163,52.6730337]]],"type":"Polygon"},"id":"E02005528","properties":{"code":"E02005528","geography":"MSOA","name":"Broadland 009"},"type":"Feature"},{"geometry":{"coordinates":[[[1.2710014,52.6687474],[1.2646151,52.6748898],[1.2512147,52.6722765],[1.2538521,52.6705044],[1.2487446,52.6683378],[1.2334453,52.6611525],[1.2470786,52.653359],[1.2484865,52.6477182],[1.2615638,52.6520659],[1.25346,52.6591212],[1.2710014,52.6687474]]],"type":"Polygon"},"id":"E02005529","properties":{"code":"E02005529","geography":"MSOA","name":"Broadland 010"},"type":"Feature"},{"geometry":{"coordinates":[[[1.277164,52.6564925],[1.2849715,52.6601914],[1.2710014,52.6687474],[1.25346,52.6591212],[1.2615638,52.6520659],[1.277164,52.6564925]]],"type":"Polygon"},"id":"E02005530","properties":{"code":"E02005530","geography":"MSOA","name":"Broadland 011"},"type":"Feature"},{"geometry":{"coordinates":[[[1.3534994,52.6713874],[1.3599007,52.6748025],[1.3539581,52.6785288],[1.3301724,52.6689834],[1.3246163,52.6730337],[1.3023229,52.6530459],[1.3105845,52.6516811],[1.3534994,52.6713874]]],"type":"Polygon"},"id":"E02005531","properties":{"code":"E02005531","geography":"MSOA","name":"Broadland 012"},"type":"Feature"},{"geometry":{"coordinates":[[[1.3560631,52.6504492],[1.3650158,52.6531253],[1.3534994,52.6713874],[1.3105845,52.6516811],[1.3229534,52.6449994],[1.3405483,52.6496828],[1.3411133,52.6470686],[1.3560631,52.6504492]]],"type":"Polygon"},"id":"E02005532","properties":{"code":"E02005532","geography":"MSOA","name":"Broadland 013"},"type":"Feature"},{"geometry":{"coordinates":[[[1.5491909,52.6815153],[1.5435137,52.679598],[1.5360711,52.6834774],[1.527212,52.6819347],[1.5189201,52.6869393],[1.5122226,52.6816085],[1.5091405,52.6845563],[1.5119215,52.6900081],[1.5015474,52.6903116],[1.4948693,52.687146],[1.4895187,52.6887456],[1.4880876,52.6932561],[1.4739429,52.6892809],[1.4609349,52.7056379],[1.4564388,52.7027329],[1.4414057,52.7014239],[1.4421612,52.695037],[1.4339259,52.6894805],[1.4170236,52.6683696],[1.4247948,52.6502876],[1.4220184,52.6429209],[1.4349966,52.6333406],[1.4335276,52.6276585],[1.4389818,52.6261772],[1.4552796,52.6290806],[1.4760939,52.6260724],[1.4830713,52.6226114],[1.4804992,52.6104253],[1.507435,52.6061411],[1.5154464,52.6189424],[1.5038221,52.628641],[1.5129794,52.6343839],[1.5139142,52.6398057],[1.5335819,52.6424382],[1.5316045,52.6442643],[1.5400751,52.648901],[1.5504849,52.6432915],[1.5578381,52.6448693],[1.5560743,52.6481299],[1.5646133,52.646414],[1.567666,52.6489439],[1.557172,52.6514473],[1.562108,52.6660908],[1.5491909,52.6815153]]],"type":"Polygon"},"id":"E02005533","properties":{"code":"E02005533","geography":"MSOA","name":"Broadland 014"},"type":"Feature"},{"geometry":{"coordinates":[[[1.365285,52.6480402],[1.3560631,52.6504492],[1.3411133,52.6470686],[1.3422206,52.641294],[1.3298418,52.6375597],[1.3287439,52.6306148],[1.3518347,52.6311459],[1.3514805,52.6350982],[1.3587036,52.6358072],[1.3573147,52.6456414],[1.365285,52.6480402]]],"type":"Polygon"},"id":"E02005534","properties":{"code":"E02005534","geography":"MSOA","name":"Broadland 015"},"type":"Feature"},{"geometry":{"coordinates":[[[1.3733029,52.6351121],[1.3721823,52.643924],[1.365285,52.6480402],[1.3573147,52.6456414],[1.3587036,52.6358072],[1.3514805,52.6350982],[1.3518347,52.6311459],[1.3287439,52.6306148],[1.3283189,52.6297019],[1.3225013,52.6258918],[1.324508,52.6238226],[1.3319229,52.6262376],[1.3374496,52.6261552],[1.3411742,52.6259389],[1.3503476,52.6213192],[1.3504533,52.6212659],[1.3514302,52.621445],[1.3676739,52.6244205],[1.3733029,52.6351121]]],"type":"Polygon"},"id":"E02005535","properties":{"code":"E02005535","geography":"MSOA","name":"Broadland 016"},"type":"Feature"},{"geometry":{"coordinates":[[[1.507435,52.6061411],[1.4804992,52.6104253],[1.4830713,52.6226114],[1.4760939,52.6260724],[1.4552796,52.6290806],[1.4389818,52.6261772],[1.4335276,52.6276585],[1.4349966,52.6333406],[1.4220184,52.6429209],[1.4083748,52.6406856],[1.4069145,52.6297992],[1.4013274,52.6274208],[1.3870097,52.6356895],[1.3733029,52.6351121],[1.3676739,52.6244205],[1.3766087,52.6206538],[1.3813712,52.6063714],[1.3876248,52.6045899],[1.39894,52.6085122],[1.40077,52.613214],[1.4070498,52.6139407],[1.4136802,52.6211724],[1.4220712,52.6223045],[1.4293963,52.6182888],[1.4346739,52.6200315],[1.4376568,52.6175525],[1.4334649,52.6124254],[1.4536441,52.6013511],[1.4545152,52.5945351],[1.4624806,52.5941845],[1.4689784,52.5870175],[1.4846472,52.5877594],[1.4977689,52.5712943],[1.5184133,52.5758059],[1.5248523,52.5699607],[1.522382,52.562684],[1.5284466,52.559509],[1.5363697,52.5621792],[1.5405598,52.555568],[1.5417957,52.5553045],[1.547508,52.572591],[1.5552724,52.5801256],[1.5510696,52.580008],[1.5507316,52.5837698],[1.5397937,52.5848245],[1.545291,52.5963217],[1.5380267,52.6007305],[1.5306762,52.5987151],[1.5170048,52.6056484],[1.507435,52.6061411]]],"type":"Polygon"},"id":"E02005536","properties":{"code":"E02005536","geography":"MSOA","name":"Broadland 017"},"type":"Feature"},{"geometry":{"coordinates":[[[1.6767907,52.6143103],[1.668053,52.6169262],[1.659322,52.6256318],[1.6428538,52.6261031],[1.6441848,52.6303786],[1.6333747,52.632678],[1.6214353,52.6235127],[1.6175979,52.6288575],[1.6092866,52.6243668],[1.6004221,52.6250183],[1.5930437,52.6290938],[1.5905923,52.6381519],[1.56781,52.6379836],[1.567666,52.6489439],[1.5646133,52.646414],[1.5560743,52.6481299],[1.5578381,52.6448693],[1.5504849,52.6432915],[1.5400751,52.648901],[1.5316045,52.6442643],[1.5335819,52.6424382],[1.5139142,52.6398057],[1.5129794,52.6343839],[1.5038221,52.628641],[1.5154464,52.6189424],[1.507435,52.6061411],[1.5170048,52.6056484],[1.5306762,52.5987151],[1.5380267,52.6007305],[1.545291,52.5963217],[1.5397937,52.5848245],[1.5507316,52.5837698],[1.5510696,52.580008],[1.5552724,52.5801256],[1.547508,52.572591],[1.5417957,52.5553045],[1.5548419,52.559573],[1.5786732,52.5564204],[1.5917819,52.5580178],[1.6011083,52.5670912],[1.6083026,52.5692608],[1.6075015,52.5740073],[1.6229953,52.5742055],[1.6280672,52.5799974],[1.6368998,52.5819368],[1.6394491,52.5877167],[1.6455639,52.588842],[1.6454442,52.5893572],[1.630987,52.5924768],[1.6347987,52.5928373],[1.6419529,52.6042022],[1.6506591,52.6019506],[1.6556588,52.6065029],[1.6751443,52.6095861],[1.6767907,52.6143103]]],"type":"Polygon"},"id":"E02005537","properties":{"code":"E02005537","geography":"MSOA","name":"Broadland 018"},"type":"Feature"}],"type":"FeatureCollection"}
