{"features":[{"geometry":{"coordinates":[[[-1.2453737,52.8061435],[-1.2553702,52.8041325],[-1.261933,52.8104337],[-1.2764557,52.8003091],[-1.2796145,52.7886643],[-1.2748347,52.7875536],[-1.2786768,52.7831578],[-1.261217,52.7818318],[-1.2431773,52.7776086],[-1.2340318,52.778904],[-1.2272598,52.7820273],[-1.2339534,52.7845336],[-1.2284136,52.7930882],[-1.2318761,52.8006215],[-1.2453737,52.8061435]]],"type":"Polygon"},"id":"E02005345","properties":{"code":"E02005345","geography":"MSOA","name":"Charnwood 001"},"type":"Feature"},{"geometry":{"coordinates":[[[-1.1961434,52.7901448],[-1.2002945,52.7937674],[-1.2112522,52.7949104],[-1.2219606,52.79175],[-1.2284136,52.7930882],[-1.2339534,52.7845336],[-1.2272598,52.7820273],[-1.2047851,52.7711804],[-1.1979003,52.7646055],[-1.1912198,52.7666409],[-1.1785245,52.763602],[-1.1683204,52.7669357],[-1.1765763,52.776339],[-1.1809853,52.7764746],[-1.1807525,52.7818435],[-1.185526,52.7819502],[-1.1961434,52.7901448]]],"type":"Polygon"},"id":"E02005346","properties":{"code":"E02005346","geography":"MSOA","name":"Charnwood 002"},"type":"Feature"},{"geometry":{"coordinates":[[[-1.2047851,52.7711804],[-1.2272598,52.7820273],[-1.2340318,52.778904],[-1.2285356,52.773953],[-1.2181501,52.7642682],[-1.2162944,52.7635088],[-1.2074355,52.7660317],[-1.2105661,52.7686478],[-1.2047851,52.7711804]]],"type":"Polygon"},"id":"E02005347","properties":{"code":"E02005347","geography":"MSOA","name":"Charnwood 003"},"type":"Feature"},{"geometry":{"coordinates":[[[-1.2340318,52.778904],[-1.2431773,52.7776086],[-1.261217,52.7818318],[-1.2636588,52.769793],[-1.2701712,52.7691295],[-1.2682206,52.7669249],[-1.2743663,52.7645219],[-1.2714459,52.7604031],[-1.2543372,52.7618034],[-1.2396589,52.7681064],[-1.2360143,52.7745888],[-1.2326363,52.7720886],[-1.2285356,52.773953],[-1.2340318,52.778904]]],"type":"Polygon"},"id":"E02005348","properties":{"code":"E02005348","geography":"MSOA","name":"Charnwood 004"},"type":"Feature"},{"geometry":{"coordinates":[[[-1.2792727,52.7832369],[-1.3189685,52.7853698],[-1.3277102,52.7756821],[-1.3290652,52.7663838],[-1.3347781,52.7631462],[-1.3323874,52.7529997],[-1.3237482,52.7548836],[-1.3190591,52.749924],[-1.3025373,52.7474013],[-1.2879749,52.7778481],[-1.2792727,52.7832369]]],"type":"Polygon"},"id":"E02005349","properties":{"code":"E02005349","geography":"MSOA","name":"Charnwood 005"},"type":"Feature"},{"geometry":{"coordinates":[[[-1.2786768,52.7831578],[-1.2792727,52.7832369],[-1.2879749,52.7778481],[-1.3025373,52.7474013],[-1.2874951,52.7339538],[-1.2668726,52.7474322],[-1.2745063,52.7528075],[-1.2714459,52.7604031],[-1.2743663,52.7645219],[-1.2682206,52.7669249],[-1.2701712,52.7691295],[-1.2636588,52.769793],[-1.261217,52.7818318],[-1.2786768,52.7831578]]],"type":"Polygon"},"id":"E02005350","properties":{"code":"E02005350","geography":"MSOA","name":"Charnwood 006"},"type":"Feature"},{"geometry":{"coordinates":[[[-1.2285356,52.773953],[-1.2326363,52.7720886],[-1.2360143,52.7745888],[-1.2396589,52.7681064],[-1.2543372,52.7618034],[-1.2444971,52.7625679],[-1.2360607,52.754958],[-1.2181501,52.7642682],[-1.2285356,52.773953]]],"type":"Polygon"},"id":"E02005351","properties":{"code":"E02005351","geography":"MSOA","name":"Charnwood 007"},"type":"Feature"},{"geometry":{"coordinates":[[[-1.036655,52.8159368],[-1.049773,52.8134274],[-1.0592135,52.8172283],[-1.0717458,52.8139906],[-1.0688192,52.8212151],[-1.0744421,52.8247058],[-1.0914914,52.8200588],[-1.0941974,52.821948],[-1.1169481,52.8195564],[-1.1308996,52.8058064],[-1.1439696,52.803856],[-1.1632822,52.8065019],[-1.1867526,52.7976771],[-1.1961434,52.7901448],[-1.185526,52.7819502],[-1.1807525,52.7818435],[-1.1809853,52.7764746],[-1.1765763,52.776339],[-1.1683204,52.7669357],[-1.1306291,52.7713681],[-1.1089405,52.7536343],[-1.0987046,52.7567679],[-1.0908956,52.75243],[-1.0886234,52.7436744],[-1.0800123,52.7478933],[-1.0706066,52.7433548],[-1.100186,52.7214669],[-1.1199706,52.7200888],[-1.123874,52.7141334],[-1.1199039,52.7091268],[-1.0986449,52.7030898],[-1.0840812,52.7101917],[-1.0758182,52.7092007],[-1.0730271,52.718149],[-1.0644378,52.7221433],[-1.0559879,52.7216628],[-1.0515601,52.717073],[-1.0398839,52.7171248],[-1.0402434,52.7130747],[-1.0154833,52.7109457],[-1.0076567,52.7173666],[-1.003285,52.717232],[-1.0010572,52.7236419],[-1.0172509,52.7244478],[-1.0199176,52.7269603],[-1.0274595,52.7349208],[-1.0195886,52.7350286],[-1.0194295,52.7371101],[-1.0330598,52.7497693],[-1.030389,52.7561663],[-1.0368485,52.7583512],[-1.0414305,52.7660387],[-1.0459142,52.7660119],[-1.0379578,52.7750141],[-1.0466306,52.7809346],[-1.0362964,52.8158566],[-1.036655,52.8159368]]],"type":"Polygon"},"id":"E02005352","properties":{"code":"E02005352","geography":"MSOA","name":"Charnwood 008"},"type":"Feature"},{"geometry":{"coordinates":[[[-1.1785245,52.763602],[-1.1912198,52.7666409],[-1.1979003,52.7646055],[-1.2047851,52.7711804],[-1.2105661,52.7686478],[-1.2074355,52.7660317],[-1.2162944,52.7635088],[-1.210213,52.7592],[-1.2144752,52.7561173],[-1.2106477,52.75077],[-1.2027215,52.7460276],[-1.1990899,52.7445659],[-1.1901619,52.7475672],[-1.1927092,52.757618],[-1.1785245,52.763602]]],"type":"Polygon"},"id":"E02005353","properties":{"code":"E02005353","geography":"MSOA","name":"Charnwood 009"},"type":"Feature"},{"geometry":{"coordinates":[[[-1.2162944,52.7635088],[-1.2181501,52.7642682],[-1.2360607,52.754958],[-1.2444971,52.7625679],[-1.2543372,52.7618034],[-1.2714459,52.7604031],[-1.2745063,52.7528075],[-1.2668726,52.7474322],[-1.2471478,52.73635],[-1.2329979,52.7350442],[-1.2286368,52.7391544],[-1.2027215,52.7460276],[-1.2106477,52.75077],[-1.2144752,52.7561173],[-1.210213,52.7592],[-1.2162944,52.7635088]]],"type":"Polygon"},"id":"E02005354","properties":{"code":"E02005354","geography":"MSOA","name":"Charnwood 010"},"type":"Feature"},{"geometry":{"coordinates":[[[-1.1089405,52.7536343],[-1.1306291,52.7713681],[-1.1683204,52.7669357],[-1.1629434,52.7568693],[-1.1531284,52.750809],[-1.1623954,52.7458953],[-1.1623583,52.7413338],[-1.1503403,52.7412888],[-1.144247,52.7458727],[-1.1368858,52.7454917],[-1.1348175,52.7432651],[-1.1447245,52.7350197],[-1.1393784,52.7315023],[-1.1344682,52.7322313],[-1.1254649,52.7282959],[-1.1100972,52.7316042],[-1.1227763,52.7419021],[-1.1089405,52.7536343]]],"type":"Polygon"},"id":"E02005355","properties":{"code":"E02005355","geography":"MSOA","name":"Charnwood 011"},"type":"Feature"},{"geometry":{"coordinates":[[[-1.1344682,52.7322313],[-1.1393784,52.7315023],[-1.1447245,52.7350197],[-1.1348175,52.7432651],[-1.1368858,52.7454917],[-1.144247,52.7458727],[-1.1503403,52.7412888],[-1.1623583,52.7413338],[-1.1623954,52.7458953],[-1.1531284,52.750809],[-1.1629434,52.7568693],[-1.1683204,52.7669357],[-1.1785245,52.763602],[-1.1927092,52.757618],[-1.1901619,52.7475672],[-1.1990899,52.7445659],[-1.1941863,52.7390605],[-1.1870302,52.7374007],[-1.1810456,52.7226515],[-1.1642988,52.7272175],[-1.1581233,52.7257109],[-1.1352441,52.7269236],[-1.1344682,52.7322313]]],"type":"Polygon"},"id":"E02005356","properties":{"code":"E02005356","geography":"MSOA","name":"Charnwood 012"},"type":"Feature"},{"geometry":{"coordinates":[[[-1.1199706,52.7200888],[-1.100186,52.7214669],[-1.0706066,52.7433548],[-1.0800123,52.7478933],[-1.0886234,52.7436744],[-1.0908956,52.75243],[-1.0987046,52.7567679],[-1.1089405,52.7536343],[-1.1227763,52.7419021],[-1.1100972,52.7316042],[-1.1254649,52.7282959],[-1.1199706,52.7200888]]],"type":"Polygon"},"id":"E02005357","properties":{"code":"E02005357","geography":"MSOA","name":"Charnwood 013"},"type":"Feature"},{"geometry":{"coordinates":[[[-1.1254649,52.7282959],[-1.1344682,52.7322313],[-1.1352441,52.7269236],[-1.1581233,52.7257109],[-1.1524003,52.7154067],[-1.1479428,52.7167825],[-1.145341,52.706994],[-1.1551679,52.6997602],[-1.1594507,52.70287],[-1.1622957,52.7013907],[-1.1410274,52.6927611],[-1.1322278,52.7018147],[-1.1201919,52.7058487],[-1.1199039,52.7091268],[-1.123874,52.7141334],[-1.1199706,52.7200888],[-1.1254649,52.7282959]]],"type":"Polygon"},"id":"E02005358","properties":{"code":"E02005358","geography":"MSOA","name":"Charnwood 014"},"type":"Feature"},{"geometry":{"coordinates":[[[-1.0154833,52.7109457],[-1.0402434,52.7130747],[-1.0398839,52.7171248],[-1.0515601,52.717073],[-1.0559879,52.7216628],[-1.0644378,52.7221433],[-1.0730271,52.718149],[-1.0758182,52.7092007],[-1.0650051,52.7025964],[-1.0539056,52.6960286],[-1.0575772,52.6900121],[-1.065907,52.6873153],[-1.0821474,52.6914856],[-1.0826012,52.6854741],[-1.0697343,52.6802154],[-1.0750865,52.669607],[-1.0644594,52.6647103],[-1.0567342,52.6637845],[-1.0589492,52.6564263],[-1.0486212,52.6549774],[-1.0377896,52.6539676],[-1.0385973,52.6589897],[-1.0137964,52.6550273],[-0.999586,52.662833],[-0.9809355,52.6816178],[-0.9601757,52.6730878],[-0.9489326,52.6803621],[-0.9472463,52.6827099],[-0.9561766,52.6826467],[-0.9711762,52.69102],[-1.0060863,52.6983572],[-1.0079833,52.6963733],[-1.0048539,52.7044993],[-1.0154833,52.7109457]]],"type":"Polygon"},"id":"E02005359","properties":{"code":"E02005359","geography":"MSOA","name":"Charnwood 015"},"type":"Feature"},{"geometry":{"coordinates":[[[-1.1990899,52.7445659],[-1.2027215,52.7460276],[-1.2286368,52.7391544],[-1.2329979,52.7350442],[-1.2471478,52.73635],[-1.2633711,52.7308884],[-1.2663629,52.7285705],[-1.2624774,52.7242526],[-1.2827232,52.7146234],[-1.2853789,52.7025656],[-1.2752949,52.6982702],[-1.2814285,52.6921658],[-1.2590194,52.6820538],[-1.2566908,52.6845859],[-1.244744,52.6846013],[-1.2266008,52.669909],[-1.2166128,52.6709143],[-1.2137719,52.6746624],[-1.2137318,52.6808541],[-1.2075759,52.6833543],[-1.2032398,52.6810996],[-1.1911932,52.6817417],[-1.1739258,52.6860204],[-1.1707436,52.6835431],[-1.1572592,52.6915038],[-1.1523828,52.6884189],[-1.1475256,52.6906433],[-1.1407852,52.6843656],[-1.1410274,52.6927611],[-1.1622957,52.7013907],[-1.1594507,52.70287],[-1.1551679,52.6997602],[-1.145341,52.706994],[-1.1479428,52.7167825],[-1.1524003,52.7154067],[-1.1581233,52.7257109],[-1.1642988,52.7272175],[-1.1810456,52.7226515],[-1.1870302,52.7374007],[-1.1941863,52.7390605],[-1.1990899,52.7445659]]],"type":"Polygon"},"id":"E02005360","properties":{"code":"E02005360","geography":"MSOA","name":"Charnwood 016"},"type":"Feature"},{"geometry":{"coordinates":[[[-1.0758182,52.7092007],[-1.0840812,52.7101917],[-1.0986449,52.7030898],[-1.1199039,52.7091268],[-1.1201919,52.7058487],[-1.1194358,52.7021826],[-1.1101526,52.7002496],[-1.1080824,52.6919543],[-1.0826012,52.6854741],[-1.0821474,52.6914856],[-1.0650051,52.7025964],[-1.0758182,52.7092007]]],"type":"Polygon"},"id":"E02005361","properties":{"code":"E02005361","geography":"MSOA","name":"Charnwood 017"},"type":"Feature"},{"geometry":{"coordinates":[[[-1.0821474,52.6914856],[-1.065907,52.6873153],[-1.0575772,52.6900121],[-1.0539056,52.6960286],[-1.0650051,52.7025964],[-1.0821474,52.6914856]]],"type":"Polygon"},"id":"E02005362","properties":{"code":"E02005362","geography":"MSOA","name":"Charnwood 018"},"type":"Feature"},{"geometry":{"coordinates":[[[-1.1080824,52.6919543],[-1.1101526,52.7002496],[-1.1194358,52.7021826],[-1.1201919,52.7058487],[-1.1322278,52.7018147],[-1.1410274,52.6927611],[-1.1407852,52.6843656],[-1.1373633,52.6770553],[-1.1258997,52.6779871],[-1.1259577,52.685093],[-1.1164982,52.6854801],[-1.1172743,52.677435],[-1.1250854,52.6758946],[-1.1293659,52.6691315],[-1.1290954,52.6653708],[-1.1188744,52.6731434],[-1.11496,52.6727674],[-1.1118904,52.6789194],[-1.1042265,52.6774371],[-1.1006454,52.6816145],[-1.1079412,52.6871284],[-1.1080824,52.6919543]]],"type":"Polygon"},"id":"E02005363","properties":{"code":"E02005363","geography":"MSOA","name":"Charnwood 019"},"type":"Feature"},{"geometry":{"coordinates":[[[-1.1293659,52.6691315],[-1.1250854,52.6758946],[-1.1172743,52.677435],[-1.1164982,52.6854801],[-1.1259577,52.685093],[-1.1258997,52.6779871],[-1.1373633,52.6770553],[-1.1377185,52.6753478],[-1.1293659,52.6691315]]],"type":"Polygon"},"id":"E02005364","properties":{"code":"E02005364","geography":"MSOA","name":"Charnwood 020"},"type":"Feature"},{"geometry":{"coordinates":[[[-1.0826012,52.6854741],[-1.1080824,52.6919543],[-1.1079412,52.6871284],[-1.1006454,52.6816145],[-1.1042265,52.6774371],[-1.1118904,52.6789194],[-1.11496,52.6727674],[-1.0905647,52.6685212],[-1.0750865,52.669607],[-1.0697343,52.6802154],[-1.0826012,52.6854741]]],"type":"Polygon"},"id":"E02005365","properties":{"code":"E02005365","geography":"MSOA","name":"Charnwood 021"},"type":"Feature"},{"geometry":{"coordinates":[[[-1.1707436,52.6835431],[-1.1739258,52.6860204],[-1.1911932,52.6817417],[-1.2032398,52.6810996],[-1.2075759,52.6833543],[-1.2137318,52.6808541],[-1.2137719,52.6746624],[-1.2016271,52.6688265],[-1.1996883,52.6643833],[-1.1933566,52.6604602],[-1.1852144,52.6606239],[-1.1766604,52.6642841],[-1.1802373,52.6693458],[-1.1790925,52.6763789],[-1.1743875,52.6785329],[-1.1707436,52.6835431]]],"type":"Polygon"},"id":"E02005366","properties":{"code":"E02005366","geography":"MSOA","name":"Charnwood 022"},"type":"Feature"}],"type":"FeatureCollection"}
