{"features":[{"geometry":{"coordinates":[[[-1.7634932,53.0113534],[-1.7577227,53.0171266],[-1.763735,53.0214102],[-1.757192,53.0287777],[-1.7615475,53.0333817],[-1.7590415,53.0375347],[-1.7681981,53.0440197],[-1.7787379,53.0429961],[-1.7789854,53.0448265],[-1.7901934,53.0428772],[-1.7909197,53.0382958],[-1.7946639,53.0393183],[-1.7934559,53.0323823],[-1.7879243,53.0298817],[-1.7911099,53.0263612],[-1.7848688,53.0245659],[-1.7947174,53.0204108],[-1.7960039,53.0131906],[-1.8014134,53.0215544],[-1.8141952,53.0297413],[-1.8211482,53.0287224],[-1.8304855,53.0329548],[-1.845293,53.0303192],[-1.8560359,53.0340794],[-1.863985,53.0300759],[-1.8715983,53.0200149],[-1.8803817,53.0209948],[-1.8865499,53.0162577],[-1.8762086,53.0044506],[-1.8805978,52.9945849],[-1.8693852,52.9915365],[-1.8612467,52.9748712],[-1.8709143,52.974398],[-1.8799725,52.9699117],[-1.8992084,52.9716258],[-1.9096706,52.9625289],[-1.916871,52.9659382],[-1.9221835,52.9635842],[-1.9280328,52.9597277],[-1.917398,52.957333],[-1.9178079,52.9518673],[-1.9035513,52.9459957],[-1.9101897,52.9397919],[-1.9268953,52.9412792],[-1.9343678,52.931652],[-1.9405123,52.931459],[-1.9711182,52.9407744],[-1.9774081,52.93458],[-1.9936522,52.933911],[-2.0042026,52.9277493],[-2.0214623,52.9244503],[-2.0338046,52.922441],[-2.0343307,52.9180972],[-2.041529,52.9174603],[-2.0426529,52.9157094],[-2.012753,52.9065648],[-2.016972,52.9022882],[-2.0027323,52.8968389],[-1.999707,52.8922517],[-1.9859546,52.8949137],[-1.9703298,52.885397],[-1.9631994,52.8836916],[-1.9515625,52.8859932],[-1.9360387,52.8773894],[-1.9256468,52.8792426],[-1.9191843,52.8732119],[-1.9037015,52.8722474],[-1.8930313,52.8659566],[-1.8922809,52.8613758],[-1.8786606,52.8592935],[-1.8674903,52.860571],[-1.8718358,52.8710281],[-1.8433138,52.8754473],[-1.8369782,52.8821778],[-1.8236263,52.8828631],[-1.8220268,52.8860212],[-1.8265619,52.8840233],[-1.832673,52.887385],[-1.8414219,52.883674],[-1.8731717,52.8826222],[-1.9053505,52.8864133],[-1.9067737,52.89083],[-1.9011843,52.8923706],[-1.9049259,52.8992272],[-1.900297,52.9027527],[-1.8939561,52.9022177],[-1.8964845,52.9156248],[-1.8792848,52.9101113],[-1.8591545,52.9170439],[-1.8489553,52.916617],[-1.8478445,52.920319],[-1.855474,52.9204319],[-1.855736,52.9270708],[-1.849125,52.9357091],[-1.8391311,52.9414736],[-1.8331899,52.9411643],[-1.8355855,52.9452468],[-1.8298216,52.9456544],[-1.8344387,52.9548718],[-1.8255484,52.9618042],[-1.8301889,52.9713288],[-1.8270662,52.9767982],[-1.8057052,52.9804536],[-1.8015487,52.9829578],[-1.8048082,52.9854569],[-1.7967836,52.9850863],[-1.7933947,52.9896238],[-1.7875251,52.9894086],[-1.7893561,52.9927424],[-1.7625736,52.9996513],[-1.7662181,53.0070729],[-1.7634932,53.0113534]]],"type":"Polygon"},"id":"E02006131","properties":{"code":"E02006131","geography":"MSOA","name":"East Staffordshire 001"},"type":"Feature"},{"geometry":{"coordinates":[[[-1.8489553,52.916617],[-1.8591545,52.9170439],[-1.8792848,52.9101113],[-1.8964845,52.9156248],[-1.8939561,52.9022177],[-1.900297,52.9027527],[-1.9049259,52.8992272],[-1.9011843,52.8923706],[-1.8796335,52.8963834],[-1.8772086,52.9030365],[-1.8628725,52.9097987],[-1.844262,52.9072843],[-1.8475368,52.9101191],[-1.8426107,52.9129713],[-1.8479655,52.9129704],[-1.8489553,52.916617]]],"type":"Polygon"},"id":"E02006132","properties":{"code":"E02006132","geography":"MSOA","name":"East Staffordshire 002"},"type":"Feature"},{"geometry":{"coordinates":[[[-1.844262,52.9072843],[-1.8628725,52.9097987],[-1.8772086,52.9030365],[-1.8796335,52.8963834],[-1.9011843,52.8923706],[-1.9067737,52.89083],[-1.9053505,52.8864133],[-1.8731717,52.8826222],[-1.8414219,52.883674],[-1.832673,52.887385],[-1.8341639,52.8955082],[-1.8300019,52.8965709],[-1.8333889,52.9021075],[-1.844262,52.9072843]]],"type":"Polygon"},"id":"E02006133","properties":{"code":"E02006133","geography":"MSOA","name":"East Staffordshire 003"},"type":"Feature"},{"geometry":{"coordinates":[[[-1.6649621,52.8584375],[-1.690276,52.8644515],[-1.7006128,52.8605656],[-1.7034648,52.866376],[-1.7120646,52.8659033],[-1.7182508,52.8548221],[-1.7271865,52.8499687],[-1.7129129,52.8455949],[-1.7202567,52.8420088],[-1.7184357,52.8363361],[-1.733646,52.8310261],[-1.7434489,52.8326404],[-1.7484041,52.8227663],[-1.7413476,52.8188101],[-1.7455119,52.8163742],[-1.7042896,52.8123144],[-1.6877696,52.8120853],[-1.681938,52.8188297],[-1.6638322,52.8141081],[-1.660341,52.8143566],[-1.6578516,52.8166612],[-1.6619229,52.8201032],[-1.6540871,52.8233067],[-1.6547748,52.8261297],[-1.6434972,52.8286182],[-1.6469448,52.8361494],[-1.6372013,52.8350469],[-1.6346301,52.8401855],[-1.6269658,52.8399389],[-1.6190864,52.8459978],[-1.6282393,52.8518441],[-1.6267587,52.8544194],[-1.6357773,52.8530175],[-1.6426365,52.8563091],[-1.6649621,52.8584375]]],"type":"Polygon"},"id":"E02006134","properties":{"code":"E02006134","geography":"MSOA","name":"East Staffordshire 004"},"type":"Feature"},{"geometry":{"coordinates":[[[-1.5989817,52.8377358],[-1.6060743,52.8429107],[-1.6190864,52.8459978],[-1.6269658,52.8399389],[-1.6346301,52.8401855],[-1.6372013,52.8350469],[-1.6469448,52.8361494],[-1.6434972,52.8286182],[-1.6400192,52.8308414],[-1.6343565,52.824198],[-1.6216383,52.8326493],[-1.6149234,52.8275827],[-1.5989817,52.8377358]]],"type":"Polygon"},"id":"E02006135","properties":{"code":"E02006135","geography":"MSOA","name":"East Staffordshire 005"},"type":"Feature"},{"geometry":{"coordinates":[[[-1.7462491,52.8686713],[-1.7475903,52.8705613],[-1.7524546,52.8688608],[-1.7506733,52.8735731],[-1.7585883,52.8772031],[-1.774236,52.8792425],[-1.7772239,52.8837973],[-1.7837335,52.8839466],[-1.7882469,52.8800613],[-1.8013811,52.8861557],[-1.8110566,52.8806354],[-1.8236263,52.8828631],[-1.8369782,52.8821778],[-1.8433138,52.8754473],[-1.8718358,52.8710281],[-1.8674903,52.860571],[-1.8786606,52.8592935],[-1.8922809,52.8613758],[-1.8930313,52.8659566],[-1.9037015,52.8722474],[-1.9191843,52.8732119],[-1.9256468,52.8792426],[-1.9360387,52.8773894],[-1.9515625,52.8859932],[-1.9631994,52.8836916],[-1.9703298,52.885397],[-1.96838,52.8748296],[-1.9605409,52.8702095],[-1.9524255,52.8684172],[-1.9360549,52.8706672],[-1.9343277,52.8662028],[-1.9376405,52.8588479],[-1.9335797,52.8531484],[-1.9398772,52.8516705],[-1.9367888,52.8480767],[-1.9511486,52.8437121],[-1.9531507,52.832304],[-1.9678761,52.8243442],[-1.9513321,52.8074115],[-1.9307844,52.8055509],[-1.9019469,52.7953054],[-1.8898843,52.800357],[-1.8637179,52.7899246],[-1.8577074,52.7840304],[-1.8528842,52.7823965],[-1.8449472,52.7877177],[-1.8423604,52.7959153],[-1.8175823,52.7930108],[-1.809509,52.7831259],[-1.8284246,52.7690252],[-1.8234948,52.7691287],[-1.817531,52.7551736],[-1.8078621,52.7573804],[-1.7953223,52.752339],[-1.7905371,52.7537691],[-1.7841743,52.745787],[-1.7784885,52.7461738],[-1.7758512,52.7507535],[-1.7691003,52.7480268],[-1.767213,52.7507931],[-1.7715144,52.755331],[-1.7645019,52.769257],[-1.7792925,52.7817826],[-1.7784202,52.7912738],[-1.7714676,52.7862504],[-1.7640277,52.7889701],[-1.758152,52.7846068],[-1.7613186,52.7775463],[-1.7490579,52.7802214],[-1.7550238,52.7933157],[-1.7769279,52.8047114],[-1.774044,52.8092187],[-1.7815588,52.8085844],[-1.7801418,52.820431],[-1.7455119,52.8163742],[-1.7413476,52.8188101],[-1.7484041,52.8227663],[-1.7434489,52.8326404],[-1.733646,52.8310261],[-1.7184357,52.8363361],[-1.7202567,52.8420088],[-1.7129129,52.8455949],[-1.7271865,52.8499687],[-1.7182508,52.8548221],[-1.7120646,52.8659033],[-1.7176691,52.8645034],[-1.716973,52.8607686],[-1.7221733,52.8632426],[-1.7253268,52.8596455],[-1.7264273,52.8630373],[-1.7390843,52.86476],[-1.7397888,52.867651],[-1.749656,52.8668118],[-1.7462491,52.8686713]]],"type":"Polygon"},"id":"E02006136","properties":{"code":"E02006136","geography":"MSOA","name":"East Staffordshire 006"},"type":"Feature"},{"geometry":{"coordinates":[[[-1.6343565,52.824198],[-1.6400192,52.8308414],[-1.6434972,52.8286182],[-1.6547748,52.8261297],[-1.6540871,52.8233067],[-1.6619229,52.8201032],[-1.6578516,52.8166612],[-1.660341,52.8143566],[-1.6477042,52.8156677],[-1.6343565,52.824198]]],"type":"Polygon"},"id":"E02006137","properties":{"code":"E02006137","geography":"MSOA","name":"East Staffordshire 007"},"type":"Feature"},{"geometry":{"coordinates":[[[-1.6149234,52.8275827],[-1.6216383,52.8326493],[-1.6343565,52.824198],[-1.6477042,52.8156677],[-1.6362187,52.8108925],[-1.6149234,52.8275827]]],"type":"Polygon"},"id":"E02006138","properties":{"code":"E02006138","geography":"MSOA","name":"East Staffordshire 008"},"type":"Feature"},{"geometry":{"coordinates":[[[-1.6362187,52.8108925],[-1.6477042,52.8156677],[-1.660341,52.8143566],[-1.6638322,52.8141081],[-1.6722674,52.8046927],[-1.6660258,52.8052847],[-1.6694212,52.7987108],[-1.6536798,52.7969419],[-1.6362187,52.8108925]]],"type":"Polygon"},"id":"E02006139","properties":{"code":"E02006139","geography":"MSOA","name":"East Staffordshire 009"},"type":"Feature"},{"geometry":{"coordinates":[[[-1.5889509,52.7998048],[-1.5918317,52.8094728],[-1.6103443,52.8155996],[-1.6211684,52.80874],[-1.620971,52.8044044],[-1.6056001,52.7999149],[-1.597434,52.8022442],[-1.5889509,52.7998048]]],"type":"Polygon"},"id":"E02006140","properties":{"code":"E02006140","geography":"MSOA","name":"East Staffordshire 010"},"type":"Feature"},{"geometry":{"coordinates":[[[-1.5888416,52.8313593],[-1.5916837,52.8361802],[-1.5989817,52.8377358],[-1.6149234,52.8275827],[-1.6362187,52.8108925],[-1.6536798,52.7969419],[-1.6557433,52.7952798],[-1.6496563,52.7950541],[-1.6382481,52.786711],[-1.6245781,52.7975024],[-1.620971,52.8044044],[-1.6211684,52.80874],[-1.6103443,52.8155996],[-1.6030979,52.8261178],[-1.5886475,52.8289612],[-1.585467,52.8316119],[-1.5888416,52.8313593]]],"type":"Polygon"},"id":"E02006141","properties":{"code":"E02006141","geography":"MSOA","name":"East Staffordshire 011"},"type":"Feature"},{"geometry":{"coordinates":[[[-1.5889509,52.7998048],[-1.597434,52.8022442],[-1.6056001,52.7999149],[-1.620971,52.8044044],[-1.6245781,52.7975024],[-1.6204296,52.7967405],[-1.6195457,52.7916273],[-1.6117284,52.7898449],[-1.6026629,52.7919677],[-1.6035541,52.7954378],[-1.5978548,52.7983268],[-1.5935177,52.7969141],[-1.5889509,52.7998048]]],"type":"Polygon"},"id":"E02006142","properties":{"code":"E02006142","geography":"MSOA","name":"East Staffordshire 012"},"type":"Feature"},{"geometry":{"coordinates":[[[-1.6638322,52.8141081],[-1.681938,52.8188297],[-1.6877696,52.8120853],[-1.7042896,52.8123144],[-1.6989588,52.806802],[-1.7004405,52.8012547],[-1.6795814,52.7892693],[-1.6860578,52.7832001],[-1.6847508,52.7783383],[-1.6700529,52.7735772],[-1.670745,52.7810531],[-1.665609,52.7851447],[-1.6499361,52.779464],[-1.6382481,52.786711],[-1.6496563,52.7950541],[-1.6557433,52.7952798],[-1.6536798,52.7969419],[-1.6694212,52.7987108],[-1.6660258,52.8052847],[-1.6722674,52.8046927],[-1.6638322,52.8141081]]],"type":"Polygon"},"id":"E02006143","properties":{"code":"E02006143","geography":"MSOA","name":"East Staffordshire 013"},"type":"Feature"},{"geometry":{"coordinates":[[[-1.6117284,52.7898449],[-1.6195457,52.7916273],[-1.6204296,52.7967405],[-1.6245781,52.7975024],[-1.6382481,52.786711],[-1.6269631,52.779755],[-1.6192942,52.7851505],[-1.6124679,52.781201],[-1.6094108,52.7844323],[-1.6137253,52.7861374],[-1.6117284,52.7898449]]],"type":"Polygon"},"id":"E02006144","properties":{"code":"E02006144","geography":"MSOA","name":"East Staffordshire 014"},"type":"Feature"},{"geometry":{"coordinates":[[[-1.7455119,52.8163742],[-1.7801418,52.820431],[-1.7815588,52.8085844],[-1.774044,52.8092187],[-1.7769279,52.8047114],[-1.7550238,52.7933157],[-1.7490579,52.7802214],[-1.7613186,52.7775463],[-1.758152,52.7846068],[-1.7640277,52.7889701],[-1.7714676,52.7862504],[-1.7784202,52.7912738],[-1.7792925,52.7817826],[-1.7645019,52.769257],[-1.7715144,52.755331],[-1.767213,52.7507931],[-1.7506096,52.7391308],[-1.7235855,52.7392645],[-1.7176453,52.7312676],[-1.7108023,52.7298387],[-1.7041645,52.7320613],[-1.6978925,52.7353647],[-1.6976258,52.743746],[-1.6922416,52.7441052],[-1.6968687,52.7527238],[-1.6859738,52.7589952],[-1.6820726,52.770174],[-1.6700529,52.7735772],[-1.6847508,52.7783383],[-1.6860578,52.7832001],[-1.6795814,52.7892693],[-1.7004405,52.8012547],[-1.6989588,52.806802],[-1.7042896,52.8123144],[-1.7455119,52.8163742]]],"type":"Polygon"},"id":"E02006145","properties":{"code":"E02006145","geography":"MSOA","name":"East Staffordshire 015"},"type":"Feature"}],"type":"FeatureCollection"}
