{"features":[{"geometry":{"coordinates":[[[-0.2447056,51.3690626],[-0.2450556,51.3800345],[-0.2611709,51.3796002],[-0.2740465,51.3706567],[-0.2687136,51.3661606],[-0.2621837,51.3667084],[-0.2540297,51.3728951],[-0.2447056,51.3690626]]],"type":"Polygon"},"id":"E02006335","properties":{"code":"E02006335","geography":"MSOA","name":"Epsom and Ewell 001"},"type":"Feature"},{"geometry":{"coordinates":[[[-0.2621837,51.3667084],[-0.2687136,51.3661606],[-0.2740465,51.3706567],[-0.2830359,51.3655595],[-0.2806955,51.3613455],[-0.2719787,51.3604742],[-0.275274,51.3582612],[-0.2726921,51.355817],[-0.2591552,51.3608861],[-0.2616857,51.3663026],[-0.2621837,51.3667084]]],"type":"Polygon"},"id":"E02006336","properties":{"code":"E02006336","geography":"MSOA","name":"Epsom and Ewell 002"},"type":"Feature"},{"geometry":{"coordinates":[[[-0.2447056,51.3690626],[-0.2540297,51.3728951],[-0.2621837,51.3667084],[-0.2616857,51.3663026],[-0.2512635,51.3595197],[-0.2447385,51.3518961],[-0.2340092,51.3654008],[-0.2387178,51.3669875],[-0.2454291,51.3668463],[-0.2447056,51.3690626]]],"type":"Polygon"},"id":"E02006337","properties":{"code":"E02006337","geography":"MSOA","name":"Epsom and Ewell 003"},"type":"Feature"},{"geometry":{"coordinates":[[[-0.2512635,51.3595197],[-0.2616857,51.3663026],[-0.2591552,51.3608861],[-0.2726921,51.355817],[-0.2598283,51.3454902],[-0.2587692,51.347327],[-0.2512635,51.3595197]]],"type":"Polygon"},"id":"E02006338","properties":{"code":"E02006338","geography":"MSOA","name":"Epsom and Ewell 004"},"type":"Feature"},{"geometry":{"coordinates":[[[-0.2726921,51.355817],[-0.275274,51.3582612],[-0.2719787,51.3604742],[-0.2806955,51.3613455],[-0.2830359,51.3655595],[-0.2841062,51.3651448],[-0.2927904,51.3526558],[-0.3040673,51.3430061],[-0.3005941,51.3416464],[-0.3022506,51.3372281],[-0.2884006,51.3355787],[-0.2814892,51.3360823],[-0.2780286,51.3420506],[-0.2716902,51.3387889],[-0.2682072,51.3399957],[-0.2705916,51.3479533],[-0.2654902,51.3480031],[-0.2622641,51.3434665],[-0.2598283,51.3454902],[-0.2726921,51.355817]]],"type":"Polygon"},"id":"E02006339","properties":{"code":"E02006339","geography":"MSOA","name":"Epsom and Ewell 005"},"type":"Feature"},{"geometry":{"coordinates":[[[-0.2598283,51.3454902],[-0.2622641,51.3434665],[-0.2654902,51.3480031],[-0.2705916,51.3479533],[-0.2682072,51.3399957],[-0.2716902,51.3387889],[-0.2780286,51.3420506],[-0.2814892,51.3360823],[-0.2884006,51.3355787],[-0.282308,51.3341946],[-0.2864401,51.331944],[-0.2825659,51.3326696],[-0.2801637,51.3286153],[-0.2633806,51.3369507],[-0.2579624,51.3356993],[-0.2501014,51.3405076],[-0.2587692,51.347327],[-0.2598283,51.3454902]]],"type":"Polygon"},"id":"E02006341","properties":{"code":"E02006341","geography":"MSOA","name":"Epsom and Ewell 007"},"type":"Feature"},{"geometry":{"coordinates":[[[-0.2579624,51.3356993],[-0.2633806,51.3369507],[-0.2801637,51.3286153],[-0.2733645,51.3235421],[-0.2658692,51.324663],[-0.2602094,51.3207164],[-0.2612902,51.3245988],[-0.2556846,51.3239338],[-0.2530868,51.3288737],[-0.2571315,51.329953],[-0.254863,51.3346007],[-0.2579624,51.3356993]]],"type":"Polygon"},"id":"E02006342","properties":{"code":"E02006342","geography":"MSOA","name":"Epsom and Ewell 008"},"type":"Feature"},{"geometry":{"coordinates":[[[-0.2884006,51.3355787],[-0.3022506,51.3372281],[-0.3005941,51.3416464],[-0.3040673,51.3430061],[-0.3062165,51.3350853],[-0.296771,51.325785],[-0.28732,51.3207899],[-0.2728629,51.2932954],[-0.2722582,51.2923331],[-0.264424,51.2995471],[-0.2471592,51.2986806],[-0.2427764,51.310117],[-0.2429935,51.3212811],[-0.2381975,51.3247329],[-0.233916,51.3273168],[-0.2440498,51.327275],[-0.254863,51.3346007],[-0.2571315,51.329953],[-0.2530868,51.3288737],[-0.2556846,51.3239338],[-0.2612902,51.3245988],[-0.2602094,51.3207164],[-0.2658692,51.324663],[-0.2733645,51.3235421],[-0.2801637,51.3286153],[-0.2825659,51.3326696],[-0.2864401,51.331944],[-0.282308,51.3341946],[-0.2884006,51.3355787]]],"type":"Polygon"},"id":"E02006343","properties":{"code":"E02006343","geography":"MSOA","name":"Epsom and Ewell 009"},"type":"Feature"},{"geometry":{"coordinates":[[[-0.2182369,51.3462157],[-0.2240827,51.3592752],[-0.2332159,51.3660112],[-0.2340092,51.3654008],[-0.2447385,51.3518961],[-0.2512635,51.3595197],[-0.2587692,51.347327],[-0.2501014,51.3405076],[-0.2579624,51.3356993],[-0.254863,51.3346007],[-0.2440498,51.327275],[-0.233916,51.3273168],[-0.2209661,51.3298641],[-0.2298065,51.3365448],[-0.2172897,51.3433881],[-0.2182369,51.3462157]]],"type":"Polygon"},"id":"E02006837","properties":{"code":"E02006837","geography":"MSOA","name":"Epsom and Ewell 010"},"type":"Feature"}],"type":"FeatureCollection"}
