{"features":[{"geometry":{"coordinates":[[[-1.1042405,53.2088365],[-1.1039424,53.2192297],[-1.0973212,53.2195236],[-1.0947652,53.2285943],[-1.095601,53.2325427],[-1.1032985,53.235588],[-1.1114604,53.2304213],[-1.1220835,53.230837],[-1.1238086,53.2246256],[-1.1403305,53.2257174],[-1.1711223,53.2189395],[-1.2022386,53.2160981],[-1.2094259,53.2176773],[-1.2082036,53.2116975],[-1.2047403,53.2082639],[-1.2009836,53.2039289],[-1.1739843,53.2024383],[-1.1479547,53.2117666],[-1.1487687,53.2011552],[-1.1406422,53.1937973],[-1.1479519,53.1949115],[-1.1361214,53.1886659],[-1.1150831,53.1950145],[-1.1042405,53.2088365]]],"type":"Polygon"},"id":"E02005880","properties":{"code":"E02005880","geography":"MSOA","name":"Mansfield 001"},"type":"Feature"},{"geometry":{"coordinates":[[[-1.1361214,53.1886659],[-1.1479519,53.1949115],[-1.1406422,53.1937973],[-1.1487687,53.2011552],[-1.1479547,53.2117666],[-1.1739843,53.2024383],[-1.2009836,53.2039289],[-1.195057,53.1893406],[-1.1988037,53.1830707],[-1.1960946,53.183616],[-1.1520017,53.1727321],[-1.1529856,53.175306],[-1.1361214,53.1886659]]],"type":"Polygon"},"id":"E02005881","properties":{"code":"E02005881","geography":"MSOA","name":"Mansfield 002"},"type":"Feature"},{"geometry":{"coordinates":[[[-1.1520017,53.1727321],[-1.1960946,53.183616],[-1.1908175,53.1778273],[-1.1957485,53.1714218],[-1.1936422,53.1660332],[-1.190181,53.1696082],[-1.1862215,53.1666167],[-1.1797049,53.1697937],[-1.1772675,53.1613663],[-1.1631123,53.1671309],[-1.1497147,53.167497],[-1.1462583,53.169275],[-1.1520017,53.1727321]]],"type":"Polygon"},"id":"E02005882","properties":{"code":"E02005882","geography":"MSOA","name":"Mansfield 003"},"type":"Feature"},{"geometry":{"coordinates":[[[-1.1936422,53.1660332],[-1.1957485,53.1714218],[-1.1908175,53.1778273],[-1.1960946,53.183616],[-1.1988037,53.1830707],[-1.2299154,53.1784756],[-1.2301814,53.1721363],[-1.2109953,53.1654224],[-1.2099235,53.1547514],[-1.2007198,53.1500441],[-1.1980121,53.1556902],[-1.1937954,53.1538909],[-1.1864069,53.1545981],[-1.1933701,53.15625],[-1.1936422,53.1660332]]],"type":"Polygon"},"id":"E02005883","properties":{"code":"E02005883","geography":"MSOA","name":"Mansfield 004"},"type":"Feature"},{"geometry":{"coordinates":[[[-1.1497147,53.167497],[-1.1631123,53.1671309],[-1.1772675,53.1613663],[-1.1797049,53.1697937],[-1.1862215,53.1666167],[-1.190181,53.1696082],[-1.1936422,53.1660332],[-1.1933701,53.15625],[-1.1864069,53.1545981],[-1.1810394,53.1507695],[-1.1697893,53.1497624],[-1.1775351,53.1576069],[-1.1688491,53.1621851],[-1.1471563,53.1582339],[-1.1497147,53.167497]]],"type":"Polygon"},"id":"E02005884","properties":{"code":"E02005884","geography":"MSOA","name":"Mansfield 005"},"type":"Feature"},{"geometry":{"coordinates":[[[-1.2099235,53.1547514],[-1.2109953,53.1654224],[-1.2301814,53.1721363],[-1.2299154,53.1784756],[-1.2416915,53.1781295],[-1.2531756,53.1654998],[-1.2599322,53.1644628],[-1.2553274,53.154598],[-1.2418172,53.1535652],[-1.2371278,53.1462084],[-1.2252423,53.1497181],[-1.2223708,53.1456113],[-1.2160656,53.1505128],[-1.2224622,53.1523706],[-1.2167726,53.1538788],[-1.2181119,53.1568465],[-1.2099235,53.1547514]]],"type":"Polygon"},"id":"E02005885","properties":{"code":"E02005885","geography":"MSOA","name":"Mansfield 006"},"type":"Feature"},{"geometry":{"coordinates":[[[-1.1189699,53.1544272],[-1.1462583,53.169275],[-1.1497147,53.167497],[-1.1471563,53.1582339],[-1.1688491,53.1621851],[-1.1775351,53.1576069],[-1.1697893,53.1497624],[-1.1628161,53.1470033],[-1.1504174,53.1487964],[-1.1189699,53.1544272]]],"type":"Polygon"},"id":"E02005886","properties":{"code":"E02005886","geography":"MSOA","name":"Mansfield 007"},"type":"Feature"},{"geometry":{"coordinates":[[[-1.2099235,53.1547514],[-1.2181119,53.1568465],[-1.2167726,53.1538788],[-1.2224622,53.1523706],[-1.2160656,53.1505128],[-1.2126353,53.146635],[-1.2065315,53.1477036],[-1.2119862,53.1352367],[-1.199669,53.1357855],[-1.1955314,53.1406234],[-1.1834795,53.137659],[-1.1817679,53.1403989],[-1.196047,53.1444133],[-1.1937954,53.1538909],[-1.1980121,53.1556902],[-1.2007198,53.1500441],[-1.2099235,53.1547514]]],"type":"Polygon"},"id":"E02005887","properties":{"code":"E02005887","geography":"MSOA","name":"Mansfield 008"},"type":"Feature"},{"geometry":{"coordinates":[[[-1.1697893,53.1497624],[-1.1810394,53.1507695],[-1.1864069,53.1545981],[-1.1937954,53.1538909],[-1.196047,53.1444133],[-1.1817679,53.1403989],[-1.1834795,53.137659],[-1.1716148,53.1355928],[-1.1743537,53.1375606],[-1.168441,53.1392119],[-1.1674066,53.1450156],[-1.1759045,53.1409803],[-1.1805118,53.1440042],[-1.1628161,53.1470033],[-1.1697893,53.1497624]]],"type":"Polygon"},"id":"E02005888","properties":{"code":"E02005888","geography":"MSOA","name":"Mansfield 009"},"type":"Feature"},{"geometry":{"coordinates":[[[-1.2119862,53.1352367],[-1.2065315,53.1477036],[-1.2126353,53.146635],[-1.2160656,53.1505128],[-1.2223708,53.1456113],[-1.2252423,53.1497181],[-1.2371278,53.1462084],[-1.2399103,53.1395953],[-1.22461,53.1316158],[-1.2119862,53.1352367]]],"type":"Polygon"},"id":"E02005889","properties":{"code":"E02005889","geography":"MSOA","name":"Mansfield 010"},"type":"Feature"},{"geometry":{"coordinates":[[[-1.156917,53.1334628],[-1.1586488,53.1451055],[-1.1504174,53.1487964],[-1.1628161,53.1470033],[-1.1805118,53.1440042],[-1.1759045,53.1409803],[-1.1674066,53.1450156],[-1.168441,53.1392119],[-1.1743537,53.1375606],[-1.1716148,53.1355928],[-1.1649526,53.1326089],[-1.156917,53.1334628]]],"type":"Polygon"},"id":"E02005890","properties":{"code":"E02005890","geography":"MSOA","name":"Mansfield 011"},"type":"Feature"},{"geometry":{"coordinates":[[[-1.1110586,53.1534088],[-1.1189699,53.1544272],[-1.1504174,53.1487964],[-1.1586488,53.1451055],[-1.156917,53.1334628],[-1.1556723,53.1299954],[-1.1609824,53.1308029],[-1.1679498,53.1230737],[-1.1633227,53.1242703],[-1.1605564,53.1218733],[-1.1680347,53.1187689],[-1.1676047,53.1159508],[-1.147126,53.1219368],[-1.1362996,53.1185384],[-1.120428,53.1189044],[-1.1272447,53.1244797],[-1.1301449,53.1415995],[-1.1110949,53.1532258],[-1.1110586,53.1534088]]],"type":"Polygon"},"id":"E02005891","properties":{"code":"E02005891","geography":"MSOA","name":"Mansfield 012"},"type":"Feature"},{"geometry":{"coordinates":[[[-1.1834795,53.137659],[-1.1955314,53.1406234],[-1.199669,53.1357855],[-1.2119862,53.1352367],[-1.22461,53.1316158],[-1.2215381,53.1297905],[-1.1778927,53.114791],[-1.1676047,53.1159508],[-1.1680347,53.1187689],[-1.1605564,53.1218733],[-1.1633227,53.1242703],[-1.1679498,53.1230737],[-1.1609824,53.1308029],[-1.1556723,53.1299954],[-1.156917,53.1334628],[-1.1649526,53.1326089],[-1.1716148,53.1355928],[-1.1834795,53.137659]]],"type":"Polygon"},"id":"E02005892","properties":{"code":"E02005892","geography":"MSOA","name":"Mansfield 013"},"type":"Feature"}],"type":"FeatureCollection"}
