{"features":[{"geometry":{"coordinates":[[[-0.4119107,51.7320691],[-0.4161864,51.7326062],[-0.4221025,51.7408305],[-0.4404754,51.7334435],[-0.4399101,51.7281961],[-0.4501061,51.725526],[-0.4402837,51.701008],[-0.4354246,51.6980108],[-0.4367924,51.7023626],[-0.4299876,51.7016234],[-0.4111505,51.7025245],[-0.4005572,51.7110521],[-0.4059462,51.7138517],[-0.402553,51.7211744],[-0.4093501,51.7217081],[-0.4066315,51.7244317],[-0.4119107,51.7320691]]],"type":"Polygon"},"id":"E02004956","properties":{"code":"E02004956","geography":"MSOA","name":"Three Rivers 001"},"type":"Feature"},{"geometry":{"coordinates":[[[-0.3755819,51.6929071],[-0.3807645,51.7070151],[-0.4005572,51.7110521],[-0.4111505,51.7025245],[-0.4299876,51.7016234],[-0.4289773,51.6944758],[-0.4215445,51.6954833],[-0.4216568,51.6923725],[-0.4300972,51.6903365],[-0.4231837,51.6857153],[-0.4128592,51.688632],[-0.4024233,51.7020018],[-0.384427,51.6960243],[-0.3755819,51.6929071]]],"type":"Polygon"},"id":"E02004957","properties":{"code":"E02004957","geography":"MSOA","name":"Three Rivers 002"},"type":"Feature"},{"geometry":{"coordinates":[[[-0.4696608,51.6968271],[-0.5029701,51.7005295],[-0.5155171,51.7065722],[-0.5230366,51.6950755],[-0.5242948,51.682108],[-0.5249559,51.6787169],[-0.510919,51.6798127],[-0.5051296,51.6730725],[-0.4930854,51.6638395],[-0.4860066,51.665902],[-0.4813084,51.6593091],[-0.4750052,51.6629852],[-0.4710829,51.6614645],[-0.4730687,51.6586947],[-0.4651555,51.655938],[-0.4600996,51.6590208],[-0.4475168,51.6536002],[-0.4318323,51.6520223],[-0.4248023,51.6543058],[-0.435448,51.6593047],[-0.4382574,51.6643316],[-0.439461,51.6728622],[-0.4280689,51.6710341],[-0.4300682,51.6834384],[-0.4281793,51.6840516],[-0.4231837,51.6857153],[-0.4300972,51.6903365],[-0.4216568,51.6923725],[-0.4215445,51.6954833],[-0.4289773,51.6944758],[-0.4299876,51.7016234],[-0.4367924,51.7023626],[-0.4354246,51.6980108],[-0.4402837,51.701008],[-0.4638033,51.6953357],[-0.4696608,51.6968271]]],"type":"Polygon"},"id":"E02004958","properties":{"code":"E02004958","geography":"MSOA","name":"Three Rivers 003"},"type":"Feature"},{"geometry":{"coordinates":[[[-0.4651555,51.655938],[-0.4730687,51.6586947],[-0.4710829,51.6614645],[-0.4750052,51.6629852],[-0.4813084,51.6593091],[-0.4860066,51.665902],[-0.4930854,51.6638395],[-0.5051296,51.6730725],[-0.51474,51.665449],[-0.5117826,51.6612274],[-0.501058,51.6576184],[-0.5058956,51.6533044],[-0.4988014,51.6491674],[-0.4857132,51.6464693],[-0.4746452,51.6393653],[-0.4637958,51.6385119],[-0.4608043,51.6413114],[-0.4669039,51.650554],[-0.4651555,51.655938]]],"type":"Polygon"},"id":"E02004959","properties":{"code":"E02004959","geography":"MSOA","name":"Three Rivers 004"},"type":"Feature"},{"geometry":{"coordinates":[[[-0.51474,51.665449],[-0.5210163,51.6680411],[-0.5244626,51.6578473],[-0.5326478,51.6630032],[-0.5369136,51.6606206],[-0.5366871,51.6523656],[-0.5309507,51.6491307],[-0.5374133,51.6429036],[-0.5392819,51.6380367],[-0.5341517,51.6371474],[-0.5332894,51.6434099],[-0.5262697,51.6453695],[-0.5205713,51.6421542],[-0.517348,51.6473751],[-0.5026341,51.6426084],[-0.4988014,51.6491674],[-0.5058956,51.6533044],[-0.501058,51.6576184],[-0.5117826,51.6612274],[-0.51474,51.665449]]],"type":"Polygon"},"id":"E02004960","properties":{"code":"E02004960","geography":"MSOA","name":"Three Rivers 005"},"type":"Feature"},{"geometry":{"coordinates":[[[-0.4248023,51.6543058],[-0.4318323,51.6520223],[-0.4475168,51.6536002],[-0.4600996,51.6590208],[-0.4651555,51.655938],[-0.4669039,51.650554],[-0.4608043,51.6413114],[-0.4450578,51.6383245],[-0.4288466,51.6413142],[-0.4260549,51.6453603],[-0.430336,51.6484946],[-0.4265934,51.6520885],[-0.4248023,51.6543058]]],"type":"Polygon"},"id":"E02004961","properties":{"code":"E02004961","geography":"MSOA","name":"Three Rivers 006"},"type":"Feature"},{"geometry":{"coordinates":[[[-0.4637958,51.6385119],[-0.4746452,51.6393653],[-0.4857132,51.6464693],[-0.4988014,51.6491674],[-0.5026341,51.6426084],[-0.4885414,51.6341427],[-0.4822857,51.6360318],[-0.4655394,51.6342386],[-0.4637958,51.6385119]]],"type":"Polygon"},"id":"E02004962","properties":{"code":"E02004962","geography":"MSOA","name":"Three Rivers 007"},"type":"Feature"},{"geometry":{"coordinates":[[[-0.3868489,51.6395984],[-0.3943151,51.6377165],[-0.4028157,51.6438631],[-0.4109149,51.639985],[-0.4245362,51.641074],[-0.4269463,51.6379385],[-0.4168153,51.6341759],[-0.4134108,51.6254859],[-0.3871852,51.6283195],[-0.3868489,51.6395984]]],"type":"Polygon"},"id":"E02004963","properties":{"code":"E02004963","geography":"MSOA","name":"Three Rivers 008"},"type":"Feature"},{"geometry":{"coordinates":[[[-0.5026341,51.6426084],[-0.517348,51.6473751],[-0.5205713,51.6421542],[-0.5262697,51.6453695],[-0.5332894,51.6434099],[-0.5341517,51.6371474],[-0.53008,51.6171484],[-0.5225223,51.605059],[-0.5178568,51.6002473],[-0.5006171,51.5996877],[-0.4963276,51.6024269],[-0.4992525,51.6089254],[-0.4954301,51.6189152],[-0.5002047,51.6221839],[-0.4972471,51.631654],[-0.4885414,51.6341427],[-0.5026341,51.6426084]]],"type":"Polygon"},"id":"E02004964","properties":{"code":"E02004964","geography":"MSOA","name":"Three Rivers 009"},"type":"Feature"},{"geometry":{"coordinates":[[[-0.3774471,51.6376983],[-0.3868489,51.6395984],[-0.3871852,51.6283195],[-0.3859965,51.6217699],[-0.3897186,51.6190165],[-0.3850084,51.6160451],[-0.3845886,51.6161677],[-0.3626186,51.6235331],[-0.3699485,51.6311941],[-0.3774471,51.6376983]]],"type":"Polygon"},"id":"E02004965","properties":{"code":"E02004965","geography":"MSOA","name":"Three Rivers 010"},"type":"Feature"},{"geometry":{"coordinates":[[[-0.4245362,51.641074],[-0.4288466,51.6413142],[-0.4450578,51.6383245],[-0.4608043,51.6413114],[-0.4637958,51.6385119],[-0.4655394,51.6342386],[-0.4822857,51.6360318],[-0.4885414,51.6341427],[-0.4972471,51.631654],[-0.4571517,51.6122912],[-0.4405254,51.6200844],[-0.4040718,51.6131804],[-0.4029226,51.6233319],[-0.4134108,51.6254859],[-0.4168153,51.6341759],[-0.4269463,51.6379385],[-0.4245362,51.641074]]],"type":"Polygon"},"id":"E02004966","properties":{"code":"E02004966","geography":"MSOA","name":"Three Rivers 011"},"type":"Feature"},{"geometry":{"coordinates":[[[-0.3850084,51.6160451],[-0.3897186,51.6190165],[-0.3859965,51.6217699],[-0.3871852,51.6283195],[-0.4134108,51.6254859],[-0.4029226,51.6233319],[-0.4040718,51.6131804],[-0.3850084,51.6160451]]],"type":"Polygon"},"id":"E02004967","properties":{"code":"E02004967","geography":"MSOA","name":"Three Rivers 012"},"type":"Feature"}],"type":"FeatureCollection"}
