{"features":[{"geometry":{"coordinates":[[[-0.3516394,51.4080406],[-0.3607121,51.4120507],[-0.3833722,51.4085386],[-0.3856892,51.4091449],[-0.3835196,51.4011091],[-0.3703197,51.403276],[-0.3612843,51.4013308],[-0.3588518,51.407391],[-0.3516394,51.4080406]]],"type":"Polygon"},"id":"E02006317","properties":{"code":"E02006317","geography":"MSOA","name":"Elmbridge 001"},"type":"Feature"},{"geometry":{"coordinates":[[[-0.338503,51.4010413],[-0.3516394,51.4080406],[-0.3588518,51.407391],[-0.3612843,51.4013308],[-0.3609833,51.3970409],[-0.3692696,51.395652],[-0.3728565,51.3878641],[-0.3725614,51.3867881],[-0.3616159,51.3869996],[-0.3518349,51.3915243],[-0.3450508,51.3912381],[-0.3431034,51.4010275],[-0.338503,51.4010413]]],"type":"Polygon"},"id":"E02006318","properties":{"code":"E02006318","geography":"MSOA","name":"Elmbridge 002"},"type":"Feature"},{"geometry":{"coordinates":[[[-0.3612843,51.4013308],[-0.3703197,51.403276],[-0.3835196,51.4011091],[-0.3838813,51.3945568],[-0.3692696,51.395652],[-0.3609833,51.3970409],[-0.3612843,51.4013308]]],"type":"Polygon"},"id":"E02006319","properties":{"code":"E02006319","geography":"MSOA","name":"Elmbridge 003"},"type":"Feature"},{"geometry":{"coordinates":[[[-0.3835196,51.4011091],[-0.3856892,51.4091449],[-0.3971498,51.4086484],[-0.4115574,51.4032548],[-0.4129544,51.4014696],[-0.4196205,51.3935417],[-0.4098111,51.3882498],[-0.3925731,51.3834932],[-0.3728565,51.3878641],[-0.3692696,51.395652],[-0.3838813,51.3945568],[-0.3835196,51.4011091]]],"type":"Polygon"},"id":"E02006320","properties":{"code":"E02006320","geography":"MSOA","name":"Elmbridge 004"},"type":"Feature"},{"geometry":{"coordinates":[[[-0.3259899,51.3914457],[-0.338503,51.4010413],[-0.3431034,51.4010275],[-0.3450508,51.3912381],[-0.3465063,51.3878963],[-0.3334236,51.3830096],[-0.3254538,51.3843268],[-0.3259899,51.3914457]]],"type":"Polygon"},"id":"E02006321","properties":{"code":"E02006321","geography":"MSOA","name":"Elmbridge 005"},"type":"Feature"},{"geometry":{"coordinates":[[[-0.3131588,51.3888005],[-0.3159814,51.3876328],[-0.3177209,51.3936677],[-0.3259899,51.3914457],[-0.3254538,51.3843268],[-0.3334236,51.3830096],[-0.3252882,51.3762176],[-0.3126748,51.3747525],[-0.3084572,51.3758603],[-0.3098379,51.3828281],[-0.3131588,51.3888005]]],"type":"Polygon"},"id":"E02006322","properties":{"code":"E02006322","geography":"MSOA","name":"Elmbridge 006"},"type":"Feature"},{"geometry":{"coordinates":[[[-0.4098111,51.3882498],[-0.4196205,51.3935417],[-0.4129544,51.4014696],[-0.4189689,51.397165],[-0.4321095,51.3840424],[-0.4314002,51.3834063],[-0.4276437,51.3836533],[-0.4294801,51.3776147],[-0.4226828,51.3725273],[-0.420373,51.3796604],[-0.4137686,51.3806054],[-0.4071735,51.3839087],[-0.4098111,51.3882498]]],"type":"Polygon"},"id":"E02006323","properties":{"code":"E02006323","geography":"MSOA","name":"Elmbridge 007"},"type":"Feature"},{"geometry":{"coordinates":[[[-0.3725614,51.3867881],[-0.3728565,51.3878641],[-0.3925731,51.3834932],[-0.4098111,51.3882498],[-0.4071735,51.3839087],[-0.4137686,51.3806054],[-0.4083305,51.3820189],[-0.4069255,51.378502],[-0.4025357,51.3798065],[-0.4039345,51.3770874],[-0.3947196,51.3759982],[-0.3776764,51.3788274],[-0.3725614,51.3867881]]],"type":"Polygon"},"id":"E02006324","properties":{"code":"E02006324","geography":"MSOA","name":"Elmbridge 008"},"type":"Feature"},{"geometry":{"coordinates":[[[-0.3450508,51.3912381],[-0.3518349,51.3915243],[-0.3616159,51.3869996],[-0.3607616,51.3797112],[-0.3536255,51.3800014],[-0.3561793,51.3754672],[-0.3519841,51.3695668],[-0.3400819,51.3661408],[-0.3179154,51.3698462],[-0.3126748,51.3747525],[-0.3252882,51.3762176],[-0.3334236,51.3830096],[-0.3465063,51.3878963],[-0.3450508,51.3912381]]],"type":"Polygon"},"id":"E02006325","properties":{"code":"E02006325","geography":"MSOA","name":"Elmbridge 009"},"type":"Feature"},{"geometry":{"coordinates":[[[-0.3947196,51.3759982],[-0.4039345,51.3770874],[-0.4025357,51.3798065],[-0.4069255,51.378502],[-0.4083305,51.3820189],[-0.4137686,51.3806054],[-0.420373,51.3796604],[-0.4226828,51.3725273],[-0.4233064,51.3706499],[-0.3995599,51.3688073],[-0.3950376,51.3704684],[-0.3947196,51.3759982]]],"type":"Polygon"},"id":"E02006326","properties":{"code":"E02006326","geography":"MSOA","name":"Elmbridge 010"},"type":"Feature"},{"geometry":{"coordinates":[[[-0.4226828,51.3725273],[-0.4294801,51.3776147],[-0.4276437,51.3836533],[-0.4314002,51.3834063],[-0.4497304,51.3751417],[-0.4430592,51.3666706],[-0.4308791,51.3661556],[-0.4233064,51.3706499],[-0.4226828,51.3725273]]],"type":"Polygon"},"id":"E02006327","properties":{"code":"E02006327","geography":"MSOA","name":"Elmbridge 011"},"type":"Feature"},{"geometry":{"coordinates":[[[-0.4321095,51.3840424],[-0.4426486,51.3898028],[-0.4450242,51.3869016],[-0.4519109,51.3876339],[-0.4505433,51.3836606],[-0.4580108,51.3805678],[-0.4676432,51.3746211],[-0.4675764,51.3656871],[-0.4741409,51.363969],[-0.4645282,51.3589398],[-0.4430592,51.3666706],[-0.4497304,51.3751417],[-0.4314002,51.3834063],[-0.4321095,51.3840424]]],"type":"Polygon"},"id":"E02006328","properties":{"code":"E02006328","geography":"MSOA","name":"Elmbridge 012"},"type":"Feature"},{"geometry":{"coordinates":[[[-0.3519841,51.3695668],[-0.3561793,51.3754672],[-0.3536255,51.3800014],[-0.3607616,51.3797112],[-0.3616159,51.3869996],[-0.3725614,51.3867881],[-0.3776764,51.3788274],[-0.3786534,51.3682789],[-0.3902176,51.3682135],[-0.396173,51.3614484],[-0.3968074,51.357432],[-0.3901445,51.3526835],[-0.3949005,51.3493981],[-0.3912991,51.3446466],[-0.3784112,51.3454922],[-0.3529612,51.3494131],[-0.3568027,51.3593326],[-0.3519841,51.3695668]]],"type":"Polygon"},"id":"E02006329","properties":{"code":"E02006329","geography":"MSOA","name":"Elmbridge 013"},"type":"Feature"},{"geometry":{"coordinates":[[[-0.3949005,51.3493981],[-0.3901445,51.3526835],[-0.3968074,51.357432],[-0.396173,51.3614484],[-0.3902176,51.3682135],[-0.3786534,51.3682789],[-0.3776764,51.3788274],[-0.3947196,51.3759982],[-0.3950376,51.3704684],[-0.3995599,51.3688073],[-0.4233064,51.3706499],[-0.4308791,51.3661556],[-0.4346063,51.3322077],[-0.4462884,51.3268033],[-0.437186,51.3274482],[-0.4229574,51.3273051],[-0.4202299,51.3294968],[-0.4244991,51.3374875],[-0.4161887,51.3520501],[-0.4056814,51.3543914],[-0.3949005,51.3493981]]],"type":"Polygon"},"id":"E02006330","properties":{"code":"E02006330","geography":"MSOA","name":"Elmbridge 014"},"type":"Feature"},{"geometry":{"coordinates":[[[-0.317921,51.369804],[-0.3179154,51.3698462],[-0.3400819,51.3661408],[-0.3519841,51.3695668],[-0.3568027,51.3593326],[-0.3529612,51.3494131],[-0.3279467,51.3521863],[-0.3202593,51.3590995],[-0.317921,51.369804]]],"type":"Polygon"},"id":"E02006331","properties":{"code":"E02006331","geography":"MSOA","name":"Elmbridge 015"},"type":"Feature"},{"geometry":{"coordinates":[[[-0.4308791,51.3661556],[-0.4430592,51.3666706],[-0.4645282,51.3589398],[-0.4741409,51.363969],[-0.4761061,51.3595487],[-0.46703,51.3565878],[-0.4811757,51.3493597],[-0.4769597,51.3432944],[-0.4637816,51.3406858],[-0.4623651,51.3299623],[-0.451474,51.33094],[-0.4462884,51.3268033],[-0.4346063,51.3322077],[-0.4308791,51.3661556]]],"type":"Polygon"},"id":"E02006332","properties":{"code":"E02006332","geography":"MSOA","name":"Elmbridge 016"},"type":"Feature"},{"geometry":{"coordinates":[[[-0.3949005,51.3493981],[-0.4056814,51.3543914],[-0.4161887,51.3520501],[-0.4244991,51.3374875],[-0.4202299,51.3294968],[-0.4229574,51.3273051],[-0.437186,51.3274482],[-0.4457217,51.3241428],[-0.4404159,51.3049013],[-0.4118171,51.3035683],[-0.4053497,51.2948943],[-0.394765,51.2979501],[-0.394101,51.2986665],[-0.3920242,51.3084086],[-0.3969495,51.3128187],[-0.3952056,51.3167807],[-0.4057763,51.3145157],[-0.4111731,51.3202648],[-0.4060311,51.3223739],[-0.4001984,51.3203883],[-0.4024332,51.3305081],[-0.3949603,51.3275184],[-0.3937624,51.3320171],[-0.3883855,51.326958],[-0.3806781,51.3317281],[-0.3825601,51.334657],[-0.3740599,51.3370252],[-0.3784112,51.3454922],[-0.3912991,51.3446466],[-0.3949005,51.3493981]]],"type":"Polygon"},"id":"E02006333","properties":{"code":"E02006333","geography":"MSOA","name":"Elmbridge 017"},"type":"Feature"},{"geometry":{"coordinates":[[[-0.3306791,51.3290107],[-0.3279467,51.3521863],[-0.3529612,51.3494131],[-0.3784112,51.3454922],[-0.3740599,51.3370252],[-0.3825601,51.334657],[-0.3806781,51.3317281],[-0.3883855,51.326958],[-0.3937624,51.3320171],[-0.3949603,51.3275184],[-0.4024332,51.3305081],[-0.4001984,51.3203883],[-0.4060311,51.3223739],[-0.4111731,51.3202648],[-0.4057763,51.3145157],[-0.3952056,51.3167807],[-0.3969495,51.3128187],[-0.3875042,51.3097331],[-0.380448,51.31357],[-0.3734712,51.3092738],[-0.3673376,51.3148721],[-0.360339,51.3118046],[-0.3525222,51.3191299],[-0.3306791,51.3290107]]],"type":"Polygon"},"id":"E02006334","properties":{"code":"E02006334","geography":"MSOA","name":"Elmbridge 018"},"type":"Feature"}],"type":"FeatureCollection"}
