{"features":[{"geometry":{"coordinates":[[[1.1332398,51.364086],[1.1484754,51.3733928],[1.1437589,51.3733575],[1.1366749,51.3729954],[1.1122707,51.3726188],[1.1122084,51.3717181],[1.1124074,51.3682516],[1.1276272,51.3697698],[1.1332398,51.364086]]],"type":"Polygon"},"id":"E02005010","properties":{"code":"E02005010","geography":"MSOA","name":"Canterbury 001"},"type":"Feature"},{"geometry":{"coordinates":[[[1.2247654,51.3793051],[1.2241547,51.3793309],[1.2055158,51.3797213],[1.1830268,51.3772297],[1.1660478,51.3744946],[1.1654551,51.3744644],[1.1596222,51.3741669],[1.1518939,51.3737729],[1.1484754,51.3733928],[1.1332398,51.364086],[1.1355094,51.3632657],[1.1713879,51.3635995],[1.1706687,51.360132],[1.199144,51.3649949],[1.2107524,51.3636098],[1.2205296,51.3667401],[1.2290142,51.3646155],[1.2247654,51.3793051]]],"type":"Polygon"},"id":"E02005011","properties":{"code":"E02005011","geography":"MSOA","name":"Canterbury 002"},"type":"Feature"},{"geometry":{"coordinates":[[[1.1332398,51.364086],[1.1276272,51.3697698],[1.1124074,51.3682516],[1.1122084,51.3717181],[1.1010121,51.3571927],[1.1133021,51.3530066],[1.1243809,51.3605327],[1.1311313,51.3592984],[1.1355094,51.3632657],[1.1332398,51.364086]]],"type":"Polygon"},"id":"E02005012","properties":{"code":"E02005012","geography":"MSOA","name":"Canterbury 003"},"type":"Feature"},{"geometry":{"coordinates":[[[1.1122084,51.3717181],[1.1122707,51.3726188],[1.1024557,51.3724659],[1.1021224,51.3724607],[1.0950761,51.3686219],[1.0822521,51.3681409],[1.081727,51.3681898],[1.0693683,51.3693401],[1.0542137,51.3656224],[1.0541544,51.3656223],[1.0540827,51.3646229],[1.0664174,51.3601883],[1.0710814,51.3605837],[1.0661438,51.3613941],[1.0699597,51.3645746],[1.0809203,51.36389],[1.0765259,51.3610355],[1.080379,51.3613643],[1.0782256,51.3566791],[1.0830636,51.3542252],[1.0770127,51.3489527],[1.0865451,51.3445555],[1.08132,51.3406096],[1.0927057,51.3337516],[1.0894936,51.3299723],[1.1020509,51.3316191],[1.1105733,51.3383324],[1.1040441,51.3446601],[1.1133021,51.3530066],[1.1010121,51.3571927],[1.1122084,51.3717181]]],"type":"Polygon"},"id":"E02005013","properties":{"code":"E02005013","geography":"MSOA","name":"Canterbury 004"},"type":"Feature"},{"geometry":{"coordinates":[[[1.0894936,51.3299723],[1.0927057,51.3337516],[1.08132,51.3406096],[1.0865451,51.3445555],[1.0770127,51.3489527],[1.0830636,51.3542252],[1.0782256,51.3566791],[1.080379,51.3613643],[1.0765259,51.3610355],[1.0809203,51.36389],[1.0699597,51.3645746],[1.0661438,51.3613941],[1.0710814,51.3605837],[1.0664174,51.3601883],[1.0540827,51.3646229],[1.0459632,51.3646636],[1.0408742,51.3589198],[1.0477041,51.3586482],[1.0497069,51.3477777],[1.0553992,51.3462101],[1.0497428,51.3390921],[1.0484657,51.333041],[1.0604987,51.3291207],[1.0684789,51.3225035],[1.0753058,51.3242081],[1.0863883,51.321797],[1.0894936,51.3299723]]],"type":"Polygon"},"id":"E02005014","properties":{"code":"E02005014","geography":"MSOA","name":"Canterbury 005"},"type":"Feature"},{"geometry":{"coordinates":[[[1.1706687,51.360132],[1.1713879,51.3635995],[1.1355094,51.3632657],[1.1311313,51.3592984],[1.1243809,51.3605327],[1.1133021,51.3530066],[1.1040441,51.3446601],[1.1105733,51.3383324],[1.1020509,51.3316191],[1.1177065,51.33511],[1.1200662,51.3316616],[1.1324371,51.3325971],[1.1429804,51.3360823],[1.1522728,51.3341338],[1.1526098,51.3385727],[1.1468043,51.3411077],[1.1520979,51.3404898],[1.1530894,51.3438446],[1.1627224,51.3463944],[1.1706687,51.360132]]],"type":"Polygon"},"id":"E02005015","properties":{"code":"E02005015","geography":"MSOA","name":"Canterbury 006"},"type":"Feature"},{"geometry":{"coordinates":[[[1.0540827,51.3646229],[1.0541544,51.3656223],[1.0533241,51.3656211],[1.0331519,51.3655907],[1.0327911,51.3655416],[1.0351858,51.3631355],[1.0304397,51.3627336],[1.0300441,51.3545087],[1.026049,51.3543322],[1.0300377,51.3517026],[1.0279803,51.3459885],[1.030086,51.3423902],[1.0349939,51.3453251],[1.0353234,51.3519346],[1.0414706,51.3518581],[1.0497428,51.3390921],[1.0553992,51.3462101],[1.0497069,51.3477777],[1.0477041,51.3586482],[1.0408742,51.3589198],[1.0459632,51.3646636],[1.0540827,51.3646229]]],"type":"Polygon"},"id":"E02005016","properties":{"code":"E02005016","geography":"MSOA","name":"Canterbury 007"},"type":"Feature"},{"geometry":{"coordinates":[[[1.0279803,51.3459885],[1.0300377,51.3517026],[1.026049,51.3543322],[1.0300441,51.3545087],[1.0304397,51.3627336],[1.0351858,51.3631355],[1.0327911,51.3655416],[1.0285064,51.3649586],[1.0257614,51.3640592],[1.0260047,51.3639168],[1.0276722,51.3629406],[1.0250868,51.3638352],[1.0244687,51.3636265],[1.0115072,51.3517806],[1.0114403,51.3508458],[1.0165734,51.349091],[1.0098896,51.3485154],[1.0116953,51.3464473],[1.0176216,51.3472557],[1.0216652,51.3446186],[1.0214993,51.3501797],[1.0279803,51.3459885]]],"type":"Polygon"},"id":"E02005017","properties":{"code":"E02005017","geography":"MSOA","name":"Canterbury 008"},"type":"Feature"},{"geometry":{"coordinates":[[[1.0497428,51.3390921],[1.0414706,51.3518581],[1.0353234,51.3519346],[1.0349939,51.3453251],[1.030086,51.3423902],[1.0279803,51.3459885],[1.0214993,51.3501797],[1.0216652,51.3446186],[1.0176216,51.3472557],[1.0116953,51.3464473],[1.0098896,51.3485154],[1.0165734,51.349091],[1.0114403,51.3508458],[1.0115072,51.3517806],[1.0114604,51.3517378],[0.9977326,51.3475581],[0.9502669,51.3457606],[0.9581204,51.3379499],[0.9638763,51.3359443],[0.9719327,51.33824],[1.0009319,51.3189845],[1.0150312,51.3167164],[1.0263744,51.3229968],[1.0372785,51.3229919],[1.0375244,51.3283124],[1.0484657,51.333041],[1.0497428,51.3390921]]],"type":"Polygon"},"id":"E02005018","properties":{"code":"E02005018","geography":"MSOA","name":"Canterbury 009"},"type":"Feature"},{"geometry":{"coordinates":[[[1.2107524,51.3636098],[1.199144,51.3649949],[1.1706687,51.360132],[1.1627224,51.3463944],[1.1530894,51.3438446],[1.1520979,51.3404898],[1.1468043,51.3411077],[1.1526098,51.3385727],[1.1522728,51.3341338],[1.1429804,51.3360823],[1.1324371,51.3325971],[1.1410352,51.3272323],[1.1420599,51.3189662],[1.1482529,51.3193477],[1.1508149,51.3112799],[1.1252636,51.299874],[1.1277277,51.2962986],[1.136947,51.2987635],[1.1403886,51.2969368],[1.135035,51.2875018],[1.1241633,51.284337],[1.114706,51.2783454],[1.1323891,51.2783728],[1.1260138,51.2719384],[1.1418045,51.2658113],[1.1566417,51.2694791],[1.1547277,51.2626294],[1.1456802,51.2593991],[1.1802202,51.2501268],[1.1849612,51.2535275],[1.1904357,51.2526086],[1.1940879,51.2565333],[1.1947936,51.2693129],[1.2123177,51.2826846],[1.1999715,51.2915684],[1.2049437,51.3006466],[1.2129202,51.3058771],[1.2139786,51.3113536],[1.2216733,51.3088768],[1.219196,51.3121564],[1.2293555,51.316061],[1.2205166,51.3236921],[1.2297917,51.3250519],[1.2307979,51.3287038],[1.2341453,51.3261209],[1.2322682,51.3323192],[1.2500694,51.3293307],[1.2315903,51.3390845],[1.2278908,51.3481764],[1.2202732,51.349911],[1.2107524,51.3636098]]],"type":"Polygon"},"id":"E02005019","properties":{"code":"E02005019","geography":"MSOA","name":"Canterbury 010"},"type":"Feature"},{"geometry":{"coordinates":[[[1.1324371,51.3325971],[1.1200662,51.3316616],[1.1177065,51.33511],[1.1020509,51.3316191],[1.0894936,51.3299723],[1.0863883,51.321797],[1.0845057,51.3146757],[1.0928122,51.3155017],[1.0931032,51.3084422],[1.1039943,51.3046805],[1.1048764,51.297942],[1.0962076,51.2917431],[1.1023542,51.2919986],[1.1023378,51.2877165],[1.11479,51.2930097],[1.1241633,51.284337],[1.135035,51.2875018],[1.1403886,51.2969368],[1.136947,51.2987635],[1.1277277,51.2962986],[1.1252636,51.299874],[1.1508149,51.3112799],[1.1482529,51.3193477],[1.1420599,51.3189662],[1.1410352,51.3272323],[1.1324371,51.3325971]]],"type":"Polygon"},"id":"E02005020","properties":{"code":"E02005020","geography":"MSOA","name":"Canterbury 011"},"type":"Feature"},{"geometry":{"coordinates":[[[1.0863883,51.321797],[1.0753058,51.3242081],[1.0684789,51.3225035],[1.0604987,51.3291207],[1.0484657,51.333041],[1.0375244,51.3283124],[1.0372785,51.3229919],[1.0263744,51.3229968],[1.0150312,51.3167164],[1.0169539,51.3129306],[1.0065817,51.3094645],[1.0109959,51.3029128],[1.004022,51.2881754],[1.0059374,51.2837791],[0.9817228,51.2776675],[0.9831631,51.2746672],[0.9732491,51.268592],[0.9738678,51.26706],[1.0149714,51.2615007],[1.0410917,51.2743687],[1.0542092,51.2737489],[1.0555046,51.2753607],[1.0539002,51.2787094],[1.0633205,51.2812781],[1.0580568,51.2854514],[1.0623812,51.2837993],[1.0678176,51.2860112],[1.0657226,51.2873359],[1.0717436,51.2947836],[1.0827741,51.2983536],[1.0963815,51.2958373],[1.1048764,51.297942],[1.1039943,51.3046805],[1.0931032,51.3084422],[1.0928122,51.3155017],[1.0845057,51.3146757],[1.0863883,51.321797]]],"type":"Polygon"},"id":"E02005021","properties":{"code":"E02005021","geography":"MSOA","name":"Canterbury 012"},"type":"Feature"},{"geometry":{"coordinates":[[[1.0962076,51.2917431],[1.1048764,51.297942],[1.0963815,51.2958373],[1.0827741,51.2983536],[1.0717436,51.2947836],[1.0657226,51.2873359],[1.0714704,51.2850788],[1.0800222,51.2878949],[1.080768,51.2848398],[1.0962076,51.2917431]]],"type":"Polygon"},"id":"E02005022","properties":{"code":"E02005022","geography":"MSOA","name":"Canterbury 013"},"type":"Feature"},{"geometry":{"coordinates":[[[1.1241633,51.284337],[1.11479,51.2930097],[1.1023378,51.2877165],[1.1023542,51.2919986],[1.0962076,51.2917431],[1.080768,51.2848398],[1.0777585,51.2828325],[1.0819508,51.2837927],[1.085189,51.2807765],[1.0963314,51.2815235],[1.0930628,51.2771537],[1.1068096,51.2729294],[1.1051413,51.2749822],[1.114706,51.2783454],[1.1241633,51.284337]]],"type":"Polygon"},"id":"E02005023","properties":{"code":"E02005023","geography":"MSOA","name":"Canterbury 014"},"type":"Feature"},{"geometry":{"coordinates":[[[1.114706,51.2783454],[1.1051413,51.2749822],[1.1068096,51.2729294],[1.0930628,51.2771537],[1.0963314,51.2815235],[1.085189,51.2807765],[1.0778324,51.2744667],[1.0860204,51.2610439],[1.0974968,51.2549468],[1.1151938,51.2551042],[1.1217093,51.2615631],[1.1190003,51.2669673],[1.1260138,51.2719384],[1.1323891,51.2783728],[1.114706,51.2783454]]],"type":"Polygon"},"id":"E02005025","properties":{"code":"E02005025","geography":"MSOA","name":"Canterbury 016"},"type":"Feature"},{"geometry":{"coordinates":[[[1.0542092,51.2737489],[1.0410917,51.2743687],[1.0149714,51.2615007],[0.9738678,51.26706],[0.9981717,51.251363],[0.9903818,51.2457941],[0.986144,51.2358655],[0.9913061,51.2304088],[0.9902968,51.2243045],[0.9971971,51.2212831],[1.0053679,51.2084842],[1.0028844,51.1973869],[0.9971633,51.1917904],[0.9893695,51.1902315],[1.0039394,51.1800508],[1.0398078,51.1821854],[1.042002,51.1871148],[1.0495481,51.1849851],[1.0546859,51.1885583],[1.0582277,51.2050012],[1.070111,51.2007367],[1.0803278,51.191645],[1.097278,51.1889208],[1.1012287,51.2085867],[1.0945981,51.2165217],[1.0973159,51.2186344],[1.0927724,51.2297608],[1.0974968,51.2549468],[1.0860204,51.2610439],[1.0825993,51.2555215],[1.0614606,51.2698435],[1.0557656,51.2658729],[1.058635,51.2714624],[1.0542092,51.2737489]]],"type":"Polygon"},"id":"E02005026","properties":{"code":"E02005026","geography":"MSOA","name":"Canterbury 017"},"type":"Feature"},{"geometry":{"coordinates":[[[1.1940879,51.2565333],[1.1904357,51.2526086],[1.1849612,51.2535275],[1.1802202,51.2501268],[1.1456802,51.2593991],[1.1547277,51.2626294],[1.1566417,51.2694791],[1.1418045,51.2658113],[1.1260138,51.2719384],[1.1190003,51.2669673],[1.1217093,51.2615631],[1.1151938,51.2551042],[1.0974968,51.2549468],[1.0927724,51.2297608],[1.0973159,51.2186344],[1.0945981,51.2165217],[1.1012287,51.2085867],[1.097278,51.1889208],[1.1089414,51.1869586],[1.1135556,51.1895217],[1.1147656,51.1969506],[1.118116,51.1963243],[1.1160032,51.1877969],[1.1344834,51.1849406],[1.147608,51.1771746],[1.1535623,51.1909422],[1.1577721,51.1910062],[1.1634143,51.1842112],[1.1700129,51.1841052],[1.1807288,51.1905416],[1.1922383,51.1838267],[1.19633,51.1844238],[1.215615,51.2012731],[1.2221639,51.2073902],[1.2194222,51.2093852],[1.1971146,51.219631],[1.185519,51.2178162],[1.2063071,51.2462586],[1.2115555,51.2523931],[1.2010158,51.2586942],[1.1940879,51.2565333]]],"type":"Polygon"},"id":"E02005027","properties":{"code":"E02005027","geography":"MSOA","name":"Canterbury 018"},"type":"Feature"},{"geometry":{"coordinates":[[[1.0778324,51.2744667],[1.0555046,51.2753607],[1.0542092,51.2737489],[1.058635,51.2714624],[1.0557656,51.2658729],[1.0614606,51.2698435],[1.0825993,51.2555215],[1.0860204,51.2610439],[1.0778324,51.2744667]]],"type":"Polygon"},"id":"E02006855","properties":{"code":"E02006855","geography":"MSOA","name":"Canterbury 019"},"type":"Feature"},{"geometry":{"coordinates":[[[1.080768,51.2848398],[1.0800222,51.2878949],[1.0714704,51.2850788],[1.0657226,51.2873359],[1.0678176,51.2860112],[1.0623812,51.2837993],[1.0580568,51.2854514],[1.0633205,51.2812781],[1.0539002,51.2787094],[1.0555046,51.2753607],[1.0778324,51.2744667],[1.085189,51.2807765],[1.0819508,51.2837927],[1.0777585,51.2828325],[1.080768,51.2848398]]],"type":"Polygon"},"id":"E02006856","properties":{"code":"E02006856","geography":"MSOA","name":"Canterbury 020"},"type":"Feature"}],"type":"FeatureCollection"}
