{"features":[{"geometry":{"coordinates":[[[-1.5160429,51.9314719],[-1.5172249,51.9359734],[-1.5121717,51.9358945],[-1.5142575,51.9392334],[-1.5051736,51.9437007],[-1.5069047,51.9469032],[-1.5186925,51.9494589],[-1.5283742,51.9462771],[-1.5274237,51.9506548],[-1.5356465,51.9526981],[-1.5531602,51.9427234],[-1.5730352,51.9495614],[-1.5695083,51.940188],[-1.5779743,51.936769],[-1.5688277,51.9273876],[-1.5500287,51.9239593],[-1.5258648,51.9270113],[-1.5241539,51.9312588],[-1.5160429,51.9314719]]],"type":"Polygon"},"id":"E02005993","properties":{"code":"E02005993","geography":"MSOA","name":"West Oxfordshire 001"},"type":"Feature"},{"geometry":{"coordinates":[[[-1.4003575,51.9795411],[-1.4066973,51.9779121],[-1.4100052,51.9727706],[-1.412548,51.9785646],[-1.4265944,51.9829203],[-1.4244991,51.9866248],[-1.4374753,51.9891393],[-1.4541512,51.9796511],[-1.4938383,51.9748602],[-1.5018943,51.9840685],[-1.5182475,51.9898186],[-1.5228399,51.996833],[-1.5279434,51.9917441],[-1.5417556,51.996422],[-1.5572375,51.9916474],[-1.5496854,51.9808496],[-1.5635527,51.9770304],[-1.5805872,51.9729862],[-1.6003138,51.9769315],[-1.591647,51.9704398],[-1.6123554,51.9553939],[-1.6383277,51.9751619],[-1.6657663,51.9874784],[-1.6689549,51.9752626],[-1.6625406,51.9639951],[-1.6523863,51.9615024],[-1.6553787,51.9574939],[-1.6489386,51.9589152],[-1.632503,51.9556419],[-1.6152021,51.9376727],[-1.6455425,51.9222851],[-1.6411948,51.921553],[-1.6449054,51.9137183],[-1.6348677,51.9128819],[-1.6337585,51.9054662],[-1.6261315,51.9056763],[-1.6136159,51.9114508],[-1.6124998,51.9169828],[-1.6003564,51.9228428],[-1.591241,51.9353611],[-1.5779743,51.936769],[-1.5695083,51.940188],[-1.5730352,51.9495614],[-1.5531602,51.9427234],[-1.5356465,51.9526981],[-1.5274237,51.9506548],[-1.5283742,51.9462771],[-1.5186925,51.9494589],[-1.5069047,51.9469032],[-1.5051736,51.9437007],[-1.5142575,51.9392334],[-1.5121717,51.9358945],[-1.5172249,51.9359734],[-1.5160429,51.9314719],[-1.5029542,51.9192845],[-1.4586974,51.9032481],[-1.4501881,51.8958483],[-1.4411644,51.9026444],[-1.4272136,51.9042752],[-1.4059131,51.9082371],[-1.4024577,51.9140922],[-1.3826361,51.9205731],[-1.3668185,51.9085008],[-1.3567134,51.9056873],[-1.3513962,51.8993313],[-1.3332097,51.8964026],[-1.3286037,51.8984797],[-1.3247386,51.9224968],[-1.3252467,51.926721],[-1.3305571,51.9273421],[-1.3301907,51.9334789],[-1.3400086,51.9349514],[-1.3324818,51.9421402],[-1.3452842,51.9411522],[-1.3464332,51.9450813],[-1.3618748,51.9483658],[-1.3614126,51.9685272],[-1.3649637,51.967454],[-1.3773347,51.9796272],[-1.4003575,51.9795411]]],"type":"Polygon"},"id":"E02005994","properties":{"code":"E02005994","geography":"MSOA","name":"West Oxfordshire 002"},"type":"Feature"},{"geometry":{"coordinates":[[[-1.5160429,51.9314719],[-1.5241539,51.9312588],[-1.5258648,51.9270113],[-1.5500287,51.9239593],[-1.5688277,51.9273876],[-1.5779743,51.936769],[-1.591241,51.9353611],[-1.6003564,51.9228428],[-1.6124998,51.9169828],[-1.6136159,51.9114508],[-1.6261315,51.9056763],[-1.6337585,51.9054662],[-1.6330631,51.8992169],[-1.6415622,51.8955283],[-1.6576016,51.8971798],[-1.6689694,51.8814964],[-1.6671244,51.876992],[-1.6868797,51.8654922],[-1.6787064,51.8529148],[-1.6763976,51.8503021],[-1.6618833,51.8415221],[-1.6615926,51.8376499],[-1.6435631,51.8392258],[-1.630248,51.8313851],[-1.6214279,51.8337818],[-1.6095123,51.8280086],[-1.59852,51.8361228],[-1.5885149,51.8370159],[-1.5792662,51.838627],[-1.5758198,51.8423164],[-1.5600589,51.8408297],[-1.5575741,51.8431536],[-1.567737,51.8465911],[-1.5535922,51.847296],[-1.5487912,51.8517885],[-1.5401661,51.8515018],[-1.5348845,51.8445492],[-1.5209391,51.8380109],[-1.4910379,51.8421132],[-1.4872677,51.8442683],[-1.4954555,51.8502395],[-1.4818398,51.8534943],[-1.4770542,51.857636],[-1.4823422,51.8649581],[-1.4890057,51.8691355],[-1.504258,51.8669956],[-1.5166423,51.8733443],[-1.4997862,51.8873373],[-1.4845502,51.8921199],[-1.4625855,51.8878228],[-1.4580687,51.8894016],[-1.447212,51.8752965],[-1.4334361,51.8672981],[-1.4290626,51.8621746],[-1.4220447,51.8688333],[-1.4210535,51.8764536],[-1.4086033,51.8739112],[-1.4207374,51.8856635],[-1.417235,51.8859826],[-1.4183706,51.8929019],[-1.4239994,51.8922607],[-1.4291111,51.8964368],[-1.4272136,51.9042752],[-1.4411644,51.9026444],[-1.4501881,51.8958483],[-1.4586974,51.9032481],[-1.5029542,51.9192845],[-1.5160429,51.9314719]]],"type":"Polygon"},"id":"E02005995","properties":{"code":"E02005995","geography":"MSOA","name":"West Oxfordshire 003"},"type":"Feature"},{"geometry":{"coordinates":[[[-1.3014904,51.8994837],[-1.3039007,51.9039823],[-1.2989365,51.9131473],[-1.3064095,51.9163399],[-1.3064768,51.9198744],[-1.3247386,51.9224968],[-1.3286037,51.8984797],[-1.3332097,51.8964026],[-1.3513962,51.8993313],[-1.3567134,51.9056873],[-1.3668185,51.9085008],[-1.3826361,51.9205731],[-1.4024577,51.9140922],[-1.4059131,51.9082371],[-1.4272136,51.9042752],[-1.4291111,51.8964368],[-1.4239994,51.8922607],[-1.4183706,51.8929019],[-1.417235,51.8859826],[-1.4207374,51.8856635],[-1.4086033,51.8739112],[-1.4210535,51.8764536],[-1.4220447,51.8688333],[-1.4290626,51.8621746],[-1.4334361,51.8672981],[-1.4401929,51.85272],[-1.4374321,51.8436671],[-1.427773,51.8441701],[-1.4223079,51.8322597],[-1.4160683,51.8368307],[-1.4093465,51.8367445],[-1.4111077,51.8295718],[-1.4029633,51.8333763],[-1.3935491,51.8300085],[-1.3790923,51.8325065],[-1.3726584,51.8264322],[-1.3615597,51.8297505],[-1.3657253,51.8211929],[-1.3628544,51.8178802],[-1.3577309,51.8207272],[-1.3494507,51.8183994],[-1.3383576,51.8199463],[-1.331162,51.8204416],[-1.3262419,51.825488],[-1.3325593,51.8310825],[-1.342018,51.8301753],[-1.3367362,51.8378424],[-1.3413788,51.840418],[-1.3370124,51.8498913],[-1.3391926,51.8561662],[-1.3340117,51.8624717],[-1.3245783,51.8596462],[-1.3075196,51.8627433],[-1.2967628,51.8610923],[-1.2944271,51.8638221],[-1.3021315,51.8691082],[-1.2861732,51.8749892],[-1.2886897,51.8816767],[-1.2980094,51.8883852],[-1.2899988,51.8935656],[-1.2913506,51.8966723],[-1.3014904,51.8994837]]],"type":"Polygon"},"id":"E02005996","properties":{"code":"E02005996","geography":"MSOA","name":"West Oxfordshire 004"},"type":"Feature"},{"geometry":{"coordinates":[[[-1.4334361,51.8672981],[-1.447212,51.8752965],[-1.4580687,51.8894016],[-1.4625855,51.8878228],[-1.4845502,51.8921199],[-1.4997862,51.8873373],[-1.5166423,51.8733443],[-1.504258,51.8669956],[-1.4890057,51.8691355],[-1.4823422,51.8649581],[-1.4770542,51.857636],[-1.4818398,51.8534943],[-1.4954555,51.8502395],[-1.4872677,51.8442683],[-1.4910379,51.8421132],[-1.4680649,51.8336075],[-1.461809,51.8240132],[-1.4664438,51.8221735],[-1.4586485,51.8200947],[-1.453823,51.8143275],[-1.4566238,51.801457],[-1.4433231,51.8002046],[-1.4386069,51.7959531],[-1.4307589,51.79507],[-1.412443,51.8012008],[-1.4108674,51.8088435],[-1.4184545,51.8209005],[-1.4165828,51.8299021],[-1.4111077,51.8295718],[-1.4093465,51.8367445],[-1.4160683,51.8368307],[-1.4223079,51.8322597],[-1.427773,51.8441701],[-1.4374321,51.8436671],[-1.4401929,51.85272],[-1.4334361,51.8672981]]],"type":"Polygon"},"id":"E02005997","properties":{"code":"E02005997","geography":"MSOA","name":"West Oxfordshire 005"},"type":"Feature"},{"geometry":{"coordinates":[[[-1.3383576,51.8199463],[-1.3494507,51.8183994],[-1.3577309,51.8207272],[-1.3628544,51.8178802],[-1.3657253,51.8211929],[-1.3615597,51.8297505],[-1.3726584,51.8264322],[-1.3790923,51.8325065],[-1.3935491,51.8300085],[-1.4029633,51.8333763],[-1.4111077,51.8295718],[-1.4165828,51.8299021],[-1.4184545,51.8209005],[-1.4108674,51.8088435],[-1.412443,51.8012008],[-1.4062523,51.8008667],[-1.4033734,51.7971424],[-1.3864296,51.798546],[-1.3821911,51.7909974],[-1.372478,51.7938873],[-1.3676818,51.784608],[-1.3801704,51.7807575],[-1.3777275,51.779019],[-1.3825476,51.7767281],[-1.3789259,51.7753916],[-1.3696645,51.7794251],[-1.3667878,51.777881],[-1.3657411,51.781457],[-1.3522209,51.7812993],[-1.3473439,51.7774592],[-1.3302675,51.7862689],[-1.3223602,51.7878339],[-1.3256501,51.8053514],[-1.3373415,51.8117323],[-1.3323919,51.8169891],[-1.3383576,51.8199463]]],"type":"Polygon"},"id":"E02005998","properties":{"code":"E02005998","geography":"MSOA","name":"West Oxfordshire 006"},"type":"Feature"},{"geometry":{"coordinates":[[[-1.4910379,51.8421132],[-1.5209391,51.8380109],[-1.5348845,51.8445492],[-1.5401661,51.8515018],[-1.5487912,51.8517885],[-1.5535922,51.847296],[-1.567737,51.8465911],[-1.5575741,51.8431536],[-1.5600589,51.8408297],[-1.5758198,51.8423164],[-1.5792662,51.838627],[-1.5885149,51.8370159],[-1.585685,51.8306118],[-1.5786196,51.8289224],[-1.5664924,51.818215],[-1.5554695,51.8196853],[-1.5487238,51.8239942],[-1.5247441,51.822365],[-1.5457243,51.8111804],[-1.5427167,51.8029454],[-1.548692,51.8031941],[-1.5683597,51.7926263],[-1.5682916,51.7870334],[-1.5481054,51.7826554],[-1.5513423,51.779946],[-1.5485873,51.7740619],[-1.5453844,51.7751571],[-1.5358493,51.7681726],[-1.5553525,51.7479316],[-1.5500699,51.7445211],[-1.5520882,51.7412719],[-1.5383732,51.7448813],[-1.5308582,51.7433245],[-1.5322898,51.7396375],[-1.5171154,51.7384112],[-1.5033771,51.7481065],[-1.4963694,51.7453828],[-1.4982028,51.7414423],[-1.4924747,51.7418943],[-1.4833622,51.7520122],[-1.4652968,51.7610288],[-1.4530684,51.7572203],[-1.4522916,51.7597668],[-1.4603327,51.7600497],[-1.4747805,51.7692193],[-1.4777196,51.7755597],[-1.4777665,51.7755556],[-1.5031265,51.7759452],[-1.5257609,51.7792435],[-1.5275532,51.7820802],[-1.5212271,51.7934228],[-1.5064407,51.7905972],[-1.5046678,51.7959009],[-1.4921596,51.7938602],[-1.4866892,51.7995297],[-1.4686444,51.7952774],[-1.4615722,51.7976493],[-1.4566238,51.801457],[-1.453823,51.8143275],[-1.4586485,51.8200947],[-1.4664438,51.8221735],[-1.461809,51.8240132],[-1.4680649,51.8336075],[-1.4910379,51.8421132]]],"type":"Polygon"},"id":"E02005999","properties":{"code":"E02005999","geography":"MSOA","name":"West Oxfordshire 007"},"type":"Feature"},{"geometry":{"coordinates":[[[-1.4615722,51.7976493],[-1.4686444,51.7952774],[-1.4866892,51.7995297],[-1.4921596,51.7938602],[-1.478472,51.7855559],[-1.4777665,51.7755556],[-1.4777196,51.7755597],[-1.45702,51.783064],[-1.4643444,51.7851967],[-1.459193,51.7923517],[-1.4615722,51.7976493]]],"type":"Polygon"},"id":"E02006000","properties":{"code":"E02006000","geography":"MSOA","name":"West Oxfordshire 008"},"type":"Feature"},{"geometry":{"coordinates":[[[-1.5064407,51.7905972],[-1.5212271,51.7934228],[-1.5275532,51.7820802],[-1.5257609,51.7792435],[-1.5031265,51.7759452],[-1.5054784,51.7808136],[-1.4997942,51.7843523],[-1.5064407,51.7905972]]],"type":"Polygon"},"id":"E02006001","properties":{"code":"E02006001","geography":"MSOA","name":"West Oxfordshire 009"},"type":"Feature"},{"geometry":{"coordinates":[[[-1.4921596,51.7938602],[-1.5046678,51.7959009],[-1.5064407,51.7905972],[-1.4997942,51.7843523],[-1.5054784,51.7808136],[-1.5031265,51.7759452],[-1.4777665,51.7755556],[-1.478472,51.7855559],[-1.4921596,51.7938602]]],"type":"Polygon"},"id":"E02006002","properties":{"code":"E02006002","geography":"MSOA","name":"West Oxfordshire 010"},"type":"Feature"},{"geometry":{"coordinates":[[[-1.412443,51.8012008],[-1.4307589,51.79507],[-1.4386069,51.7959531],[-1.4433231,51.8002046],[-1.4566238,51.801457],[-1.4615722,51.7976493],[-1.459193,51.7923517],[-1.4643444,51.7851967],[-1.45702,51.783064],[-1.4777196,51.7755597],[-1.4747805,51.7692193],[-1.4603327,51.7600497],[-1.4522916,51.7597668],[-1.4530684,51.7572203],[-1.4465921,51.7527598],[-1.4328002,51.7501924],[-1.440461,51.7434218],[-1.444849,51.747236],[-1.4502166,51.7451348],[-1.4460128,51.7439777],[-1.4502831,51.7408527],[-1.4558431,51.7428952],[-1.4704562,51.7391092],[-1.4735182,51.7342057],[-1.4617041,51.7308725],[-1.4526388,51.736046],[-1.4440127,51.7320568],[-1.4453045,51.7424567],[-1.4306029,51.7333143],[-1.4331079,51.7281797],[-1.4212686,51.7323705],[-1.4235775,51.7353976],[-1.4199072,51.7363654],[-1.4172479,51.7321636],[-1.3949244,51.7289975],[-1.3727373,51.7392464],[-1.3651142,51.7470586],[-1.3663484,51.7583263],[-1.3591145,51.7636527],[-1.363802,51.7721015],[-1.3473439,51.7774592],[-1.3522209,51.7812993],[-1.3657411,51.781457],[-1.3667878,51.777881],[-1.3696645,51.7794251],[-1.3789259,51.7753916],[-1.3825476,51.7767281],[-1.3777275,51.779019],[-1.3801704,51.7807575],[-1.3676818,51.784608],[-1.372478,51.7938873],[-1.3821911,51.7909974],[-1.3864296,51.798546],[-1.4033734,51.7971424],[-1.4062523,51.8008667],[-1.412443,51.8012008]]],"type":"Polygon"},"id":"E02006003","properties":{"code":"E02006003","geography":"MSOA","name":"West Oxfordshire 011"},"type":"Feature"},{"geometry":{"coordinates":[[[-1.5885149,51.8370159],[-1.59852,51.8361228],[-1.6095123,51.8280086],[-1.6214279,51.8337818],[-1.630248,51.8313851],[-1.6435631,51.8392258],[-1.6615926,51.8376499],[-1.6618833,51.8415221],[-1.6763976,51.8503021],[-1.6864736,51.8344487],[-1.6811326,51.8160459],[-1.6768725,51.817018],[-1.6819441,51.8039863],[-1.6934622,51.7941433],[-1.7195007,51.7832062],[-1.7007175,51.770579],[-1.6948791,51.7485695],[-1.6870343,51.7398786],[-1.6855217,51.7306291],[-1.6958318,51.7237681],[-1.69372,51.7215828],[-1.6861799,51.7101714],[-1.6647131,51.6968749],[-1.6574522,51.6964472],[-1.6482678,51.6840833],[-1.6353592,51.6875525],[-1.6283158,51.683846],[-1.6060585,51.6922518],[-1.6010732,51.688855],[-1.5846891,51.6930432],[-1.5748663,51.7001031],[-1.5767846,51.701848],[-1.6039727,51.6990125],[-1.606985,51.7066977],[-1.620336,51.7179592],[-1.619479,51.721167],[-1.5977156,51.7206547],[-1.5964858,51.7247427],[-1.6023665,51.7297389],[-1.5977927,51.742008],[-1.6064713,51.7456412],[-1.6086006,51.7607216],[-1.6033345,51.7683962],[-1.6061091,51.7721602],[-1.5985994,51.7764246],[-1.5959456,51.7732261],[-1.5813672,51.7717735],[-1.5802702,51.7638734],[-1.5846948,51.7624236],[-1.5814716,51.7502402],[-1.5668239,51.7509656],[-1.5553525,51.7479316],[-1.5358493,51.7681726],[-1.5453844,51.7751571],[-1.5485873,51.7740619],[-1.5513423,51.779946],[-1.5481054,51.7826554],[-1.5682916,51.7870334],[-1.5683597,51.7926263],[-1.548692,51.8031941],[-1.5427167,51.8029454],[-1.5457243,51.8111804],[-1.5247441,51.822365],[-1.5487238,51.8239942],[-1.5554695,51.8196853],[-1.5664924,51.818215],[-1.5786196,51.8289224],[-1.585685,51.8306118],[-1.5885149,51.8370159]]],"type":"Polygon"},"id":"E02006004","properties":{"code":"E02006004","geography":"MSOA","name":"West Oxfordshire 012"},"type":"Feature"},{"geometry":{"coordinates":[[[-1.5846948,51.7624236],[-1.5802702,51.7638734],[-1.5813672,51.7717735],[-1.5959456,51.7732261],[-1.5985994,51.7764246],[-1.6061091,51.7721602],[-1.6033345,51.7683962],[-1.6086006,51.7607216],[-1.6023333,51.760019],[-1.5963956,51.7633922],[-1.5943353,51.7591947],[-1.5846948,51.7624236]]],"type":"Polygon"},"id":"E02006005","properties":{"code":"E02006005","geography":"MSOA","name":"West Oxfordshire 013"},"type":"Feature"},{"geometry":{"coordinates":[[[-1.5846948,51.7624236],[-1.5943353,51.7591947],[-1.5963956,51.7633922],[-1.6023333,51.760019],[-1.6086006,51.7607216],[-1.6064713,51.7456412],[-1.5814716,51.7502402],[-1.5846948,51.7624236]]],"type":"Polygon"},"id":"E02006006","properties":{"code":"E02006006","geography":"MSOA","name":"West Oxfordshire 014"},"type":"Feature"},{"geometry":{"coordinates":[[[-1.4530684,51.7572203],[-1.4652968,51.7610288],[-1.4833622,51.7520122],[-1.4924747,51.7418943],[-1.4982028,51.7414423],[-1.4963694,51.7453828],[-1.5033771,51.7481065],[-1.5171154,51.7384112],[-1.5322898,51.7396375],[-1.5308582,51.7433245],[-1.5383732,51.7448813],[-1.5520882,51.7412719],[-1.5500699,51.7445211],[-1.5553525,51.7479316],[-1.5668239,51.7509656],[-1.5814716,51.7502402],[-1.6064713,51.7456412],[-1.5977927,51.742008],[-1.6023665,51.7297389],[-1.5964858,51.7247427],[-1.5977156,51.7206547],[-1.619479,51.721167],[-1.620336,51.7179592],[-1.606985,51.7066977],[-1.6039727,51.6990125],[-1.5767846,51.701848],[-1.5748663,51.7001031],[-1.5608293,51.6986266],[-1.5452025,51.7032352],[-1.5342905,51.6981798],[-1.5160742,51.7017616],[-1.4972432,51.6986773],[-1.4954763,51.6946687],[-1.4898815,51.6940124],[-1.4790534,51.7038459],[-1.4645721,51.6996256],[-1.4638576,51.7116093],[-1.4590251,51.7133002],[-1.4420815,51.7123785],[-1.4386025,51.7077674],[-1.4193077,51.7102891],[-1.4034494,51.7058768],[-1.3922077,51.7062239],[-1.3687309,51.7237332],[-1.3669811,51.7295184],[-1.3727373,51.7392464],[-1.3949244,51.7289975],[-1.4172479,51.7321636],[-1.4199072,51.7363654],[-1.4235775,51.7353976],[-1.4212686,51.7323705],[-1.4331079,51.7281797],[-1.4306029,51.7333143],[-1.4453045,51.7424567],[-1.4440127,51.7320568],[-1.4526388,51.736046],[-1.4617041,51.7308725],[-1.4735182,51.7342057],[-1.4704562,51.7391092],[-1.4558431,51.7428952],[-1.4502831,51.7408527],[-1.4460128,51.7439777],[-1.4502166,51.7451348],[-1.444849,51.747236],[-1.440461,51.7434218],[-1.4328002,51.7501924],[-1.4465921,51.7527598],[-1.4530684,51.7572203]]],"type":"Polygon"},"id":"E02006007","properties":{"code":"E02006007","geography":"MSOA","name":"West Oxfordshire 015"},"type":"Feature"}],"type":"FeatureCollection"}
