{"features":[{"geometry":{"coordinates":[[[-2.1960161,53.9695623],[-2.2006319,53.9701126],[-2.2096359,53.9628851],[-2.2144168,53.9650852],[-2.2257333,53.9610857],[-2.2259448,53.9672399],[-2.2320123,53.9712163],[-2.2210597,53.9779141],[-2.2303422,53.9815166],[-2.2943172,53.9744195],[-2.2988523,53.9765472],[-2.296731,53.980541],[-2.3191488,53.9938288],[-2.3399212,53.9894147],[-2.3523554,53.9946609],[-2.3523083,54.0105263],[-2.3502866,54.0121876],[-2.3407578,54.0074496],[-2.3395579,54.0094204],[-2.3435383,54.0173148],[-2.357321,54.0191043],[-2.361997,54.0406573],[-2.3740697,54.049076],[-2.4258242,54.0380826],[-2.4327318,54.0415808],[-2.4587731,54.0404833],[-2.4695477,54.0462002],[-2.4910724,54.0407267],[-2.4770895,54.0390071],[-2.4539579,54.0251719],[-2.4403984,54.0255982],[-2.4297271,54.0128886],[-2.4151145,54.0078968],[-2.4143739,54.0035172],[-2.417578,53.9977871],[-2.4316631,53.995308],[-2.4291609,54.0020371],[-2.4523931,54.0088151],[-2.4577312,53.999469],[-2.473616,53.9967811],[-2.4907405,53.9867561],[-2.4984087,53.9888378],[-2.4948098,53.9798688],[-2.509951,53.9690193],[-2.4996241,53.9577453],[-2.5005647,53.9472193],[-2.5110455,53.9475574],[-2.5167845,53.9448407],[-2.5186347,53.9383937],[-2.5292265,53.9340137],[-2.5197094,53.9180888],[-2.5285838,53.9128801],[-2.5304486,53.9042022],[-2.5269019,53.9016105],[-2.5340061,53.8892721],[-2.5426091,53.8871674],[-2.5341134,53.8831466],[-2.5280322,53.8728584],[-2.5285098,53.862983],[-2.5347968,53.8585876],[-2.5351958,53.8320816],[-2.5250847,53.8168042],[-2.5275829,53.8140949],[-2.5151537,53.8145262],[-2.5008215,53.8226444],[-2.4946643,53.8180748],[-2.4842338,53.8233245],[-2.4758653,53.8249155],[-2.4756181,53.8305298],[-2.4646415,53.8308228],[-2.4583152,53.8347794],[-2.4477101,53.8292851],[-2.4418565,53.8306887],[-2.4430076,53.8448638],[-2.4519632,53.8466013],[-2.446476,53.8538552],[-2.4602642,53.856347],[-2.4554608,53.8608789],[-2.4622164,53.8644966],[-2.4564281,53.8705533],[-2.4433345,53.8725921],[-2.4287862,53.8683648],[-2.4213357,53.8748144],[-2.4154989,53.869958],[-2.4136662,53.8740353],[-2.4113405,53.8775211],[-2.3941941,53.8826475],[-2.3965308,53.8867307],[-2.3878223,53.8929007],[-2.3750131,53.8955075],[-2.3668382,53.90035],[-2.3532938,53.8999424],[-2.3531233,53.9060669],[-2.3089246,53.900301],[-2.2890927,53.901165],[-2.2797284,53.8981573],[-2.2716725,53.8884401],[-2.2591949,53.8820207],[-2.2266279,53.8894982],[-2.2231102,53.8940299],[-2.2349535,53.9079484],[-2.245838,53.933249],[-2.2254182,53.9436447],[-2.2156141,53.9415101],[-2.1845198,53.9522507],[-2.1960161,53.9695623]]],"type":"Polygon"},"id":"E02005270","properties":{"code":"E02005270","geography":"MSOA","name":"Ribble Valley 001"},"type":"Feature"},{"geometry":{"coordinates":[[[-2.3966668,53.8616352],[-2.3839283,53.8579927],[-2.3684735,53.8630958],[-2.3720708,53.8645101],[-2.3659534,53.8697605],[-2.3718011,53.8726273],[-2.3585056,53.8818253],[-2.3654313,53.8839379],[-2.3750131,53.8955075],[-2.3878223,53.8929007],[-2.3965308,53.8867307],[-2.3941941,53.8826475],[-2.4113405,53.8775211],[-2.4136662,53.8740353],[-2.3964733,53.870769],[-2.3940236,53.8740248],[-2.382456,53.8689444],[-2.3809028,53.8670433],[-2.3872221,53.8657134],[-2.3930975,53.8678276],[-2.3966668,53.8616352]]],"type":"Polygon"},"id":"E02005271","properties":{"code":"E02005271","geography":"MSOA","name":"Ribble Valley 002"},"type":"Feature"},{"geometry":{"coordinates":[[[-2.3966668,53.8616352],[-2.3930975,53.8678276],[-2.3872221,53.8657134],[-2.3809028,53.8670433],[-2.382456,53.8689444],[-2.3940236,53.8740248],[-2.3964733,53.870769],[-2.4136662,53.8740353],[-2.4154989,53.869958],[-2.4192649,53.8674572],[-2.4171573,53.8620207],[-2.4246122,53.8580483],[-2.4202031,53.8566218],[-2.4109532,53.8597491],[-2.3966668,53.8616352]]],"type":"Polygon"},"id":"E02005272","properties":{"code":"E02005272","geography":"MSOA","name":"Ribble Valley 003"},"type":"Feature"},{"geometry":{"coordinates":[[[-2.5151537,53.8145262],[-2.5275829,53.8140949],[-2.5250847,53.8168042],[-2.5351958,53.8320816],[-2.5347968,53.8585876],[-2.5285098,53.862983],[-2.5280322,53.8728584],[-2.5341134,53.8831466],[-2.5426091,53.8871674],[-2.5340061,53.8892721],[-2.5269019,53.9016105],[-2.5304486,53.9042022],[-2.5285838,53.9128801],[-2.5197094,53.9180888],[-2.5292265,53.9340137],[-2.5186347,53.9383937],[-2.5167845,53.9448407],[-2.5110455,53.9475574],[-2.5005647,53.9472193],[-2.4996241,53.9577453],[-2.509951,53.9690193],[-2.4948098,53.9798688],[-2.4984087,53.9888378],[-2.4907405,53.9867561],[-2.473616,53.9967811],[-2.4577312,53.999469],[-2.4523931,54.0088151],[-2.4291609,54.0020371],[-2.4316631,53.995308],[-2.417578,53.9977871],[-2.4143739,54.0035172],[-2.4151145,54.0078968],[-2.4297271,54.0128886],[-2.4403984,54.0255982],[-2.4539579,54.0251719],[-2.4770895,54.0390071],[-2.4910724,54.0407267],[-2.5014164,54.0207408],[-2.5186773,54.0212335],[-2.5273091,54.0262332],[-2.544144,54.0196789],[-2.5471048,54.0140649],[-2.5714242,54.0146523],[-2.5792596,54.0075695],[-2.580652,54.0001062],[-2.5713143,53.9893943],[-2.5738245,53.9851617],[-2.5575258,53.9749],[-2.577423,53.9719989],[-2.5888468,53.9602039],[-2.6114585,53.9568494],[-2.6169019,53.9522004],[-2.6307424,53.9577945],[-2.6430435,53.9575762],[-2.6508338,53.9522429],[-2.648219,53.9489093],[-2.6264377,53.9385512],[-2.6296482,53.930722],[-2.6225752,53.9297031],[-2.6171034,53.9243475],[-2.6142717,53.9195344],[-2.6186433,53.9164016],[-2.6134029,53.908243],[-2.6166286,53.8997916],[-2.6251454,53.8946272],[-2.6452322,53.8937447],[-2.6359676,53.8902718],[-2.6355307,53.8827805],[-2.625382,53.8802842],[-2.6293605,53.859973],[-2.6144105,53.8510787],[-2.6232604,53.8467056],[-2.6078992,53.8387589],[-2.6101811,53.8329447],[-2.5756466,53.8307256],[-2.5651838,53.8197441],[-2.5660044,53.8150193],[-2.5495187,53.8097332],[-2.5486967,53.806861],[-2.5308663,53.8040312],[-2.5305887,53.8110931],[-2.5194588,53.8097141],[-2.5151537,53.8145262]]],"type":"Polygon"},"id":"E02005273","properties":{"code":"E02005273","geography":"MSOA","name":"Ribble Valley 004"},"type":"Feature"},{"geometry":{"coordinates":[[[-2.2591949,53.8820207],[-2.2716725,53.8884401],[-2.2797284,53.8981573],[-2.2890927,53.901165],[-2.3089246,53.900301],[-2.3531233,53.9060669],[-2.3532938,53.8999424],[-2.3668382,53.90035],[-2.3750131,53.8955075],[-2.3654313,53.8839379],[-2.3585056,53.8818253],[-2.3718011,53.8726273],[-2.3659534,53.8697605],[-2.3720708,53.8645101],[-2.3684735,53.8630958],[-2.3839283,53.8579927],[-2.3966668,53.8616352],[-2.4109532,53.8597491],[-2.4138811,53.8444589],[-2.4201817,53.8396944],[-2.402699,53.8363741],[-2.399273,53.8281167],[-2.3844459,53.8257375],[-2.3748072,53.8185192],[-2.3781019,53.8117842],[-2.3870059,53.8071778],[-2.3862023,53.8024988],[-2.3698058,53.8014646],[-2.3697455,53.7941135],[-2.3566439,53.7929089],[-2.3593006,53.7972023],[-2.3560314,53.7978232],[-2.3446314,53.7932679],[-2.3423047,53.7948137],[-2.3362204,53.7954329],[-2.3298205,53.8066388],[-2.3131769,53.812348],[-2.3178441,53.8170433],[-2.317136,53.8278402],[-2.3058278,53.8295884],[-2.3025732,53.8363812],[-2.3336438,53.8406176],[-2.3179281,53.8469081],[-2.3185328,53.8500336],[-2.3251713,53.8511065],[-2.3142656,53.854297],[-2.3200392,53.8603143],[-2.3050921,53.8706604],[-2.273695,53.878964],[-2.2656872,53.8758043],[-2.2587721,53.8778492],[-2.2591949,53.8820207]]],"type":"Polygon"},"id":"E02005274","properties":{"code":"E02005274","geography":"MSOA","name":"Ribble Valley 005"},"type":"Feature"},{"geometry":{"coordinates":[[[-2.5486967,53.806861],[-2.5495187,53.8097332],[-2.5660044,53.8150193],[-2.5651838,53.8197441],[-2.5756466,53.8307256],[-2.6101811,53.8329447],[-2.6114183,53.8252836],[-2.6247155,53.8155504],[-2.6122986,53.803881],[-2.5954368,53.7961871],[-2.5897887,53.7957963],[-2.5822052,53.7896324],[-2.5755867,53.7894981],[-2.5783909,53.8009293],[-2.5650331,53.7983931],[-2.5575383,53.8079353],[-2.5486967,53.806861]]],"type":"Polygon"},"id":"E02005275","properties":{"code":"E02005275","geography":"MSOA","name":"Ribble Valley 006"},"type":"Feature"},{"geometry":{"coordinates":[[[-2.4154989,53.869958],[-2.4213357,53.8748144],[-2.4287862,53.8683648],[-2.4433345,53.8725921],[-2.4564281,53.8705533],[-2.4622164,53.8644966],[-2.4554608,53.8608789],[-2.4602642,53.856347],[-2.446476,53.8538552],[-2.4519632,53.8466013],[-2.4430076,53.8448638],[-2.4418565,53.8306887],[-2.4477101,53.8292851],[-2.4583152,53.8347794],[-2.4646415,53.8308228],[-2.4756181,53.8305298],[-2.4758653,53.8249155],[-2.4842338,53.8233245],[-2.4769015,53.808127],[-2.484622,53.8040698],[-2.4647286,53.8001553],[-2.4522993,53.8037767],[-2.4486131,53.7989785],[-2.4517784,53.7958903],[-2.4414009,53.7937972],[-2.3967363,53.8166053],[-2.3934036,53.8143125],[-2.3993868,53.8098342],[-2.3988773,53.8035659],[-2.3862023,53.8024988],[-2.3870059,53.8071778],[-2.3781019,53.8117842],[-2.3748072,53.8185192],[-2.3844459,53.8257375],[-2.399273,53.8281167],[-2.402699,53.8363741],[-2.4201817,53.8396944],[-2.4138811,53.8444589],[-2.4109532,53.8597491],[-2.4202031,53.8566218],[-2.4246122,53.8580483],[-2.4171573,53.8620207],[-2.4192649,53.8674572],[-2.4154989,53.869958]]],"type":"Polygon"},"id":"E02005276","properties":{"code":"E02005276","geography":"MSOA","name":"Ribble Valley 007"},"type":"Feature"},{"geometry":{"coordinates":[[[-2.4414009,53.7937972],[-2.4517784,53.7958903],[-2.4486131,53.7989785],[-2.4522993,53.8037767],[-2.4647286,53.8001553],[-2.484622,53.8040698],[-2.4769015,53.808127],[-2.4842338,53.8233245],[-2.4946643,53.8180748],[-2.5008215,53.8226444],[-2.5151537,53.8145262],[-2.5194588,53.8097141],[-2.5305887,53.8110931],[-2.5308663,53.8040312],[-2.5486967,53.806861],[-2.5575383,53.8079353],[-2.5650331,53.7983931],[-2.5783909,53.8009293],[-2.5755867,53.7894981],[-2.5822052,53.7896324],[-2.5897887,53.7957963],[-2.5954368,53.7961871],[-2.6017833,53.7896677],[-2.5994894,53.7814562],[-2.5929487,53.7790023],[-2.5852977,53.7827038],[-2.5774407,53.7749427],[-2.5668399,53.7771929],[-2.5475073,53.7758562],[-2.545545,53.7691897],[-2.5642743,53.7619966],[-2.5636365,53.757258],[-2.5513,53.7563733],[-2.5457262,53.7594127],[-2.525689,53.7596612],[-2.5133553,53.7665247],[-2.5086036,53.7694275],[-2.4947045,53.7701537],[-2.480828,53.773977],[-2.4770891,53.7810335],[-2.4658088,53.780799],[-2.4474798,53.7874652],[-2.4414009,53.7937972]]],"type":"Polygon"},"id":"E02005277","properties":{"code":"E02005277","geography":"MSOA","name":"Ribble Valley 008"},"type":"Feature"}],"type":"FeatureCollection"}
