{"features":[{"geometry":{"coordinates":[[[-0.2114922,51.3181801],[-0.2021083,51.3401337],[-0.2130571,51.3355427],[-0.2141202,51.3303517],[-0.2209661,51.3298641],[-0.233916,51.3273168],[-0.2381975,51.3247329],[-0.234388,51.3233832],[-0.2363333,51.3193219],[-0.2320676,51.3203291],[-0.2244667,51.312264],[-0.2114922,51.3181801]]],"type":"Polygon"},"id":"E02006375","properties":{"code":"E02006375","geography":"MSOA","name":"Reigate and Banstead 001"},"type":"Feature"},{"geometry":{"coordinates":[[[-0.1916318,51.3421105],[-0.197398,51.3435945],[-0.2021083,51.3401337],[-0.2114922,51.3181801],[-0.2140026,51.3121318],[-0.1962321,51.3134475],[-0.1909808,51.3189285],[-0.1826743,51.3197684],[-0.1879781,51.3239307],[-0.1850581,51.3267973],[-0.1894834,51.3337452],[-0.1824073,51.3380487],[-0.1846338,51.3391942],[-0.1916318,51.3421105]]],"type":"Polygon"},"id":"E02006376","properties":{"code":"E02006376","geography":"MSOA","name":"Reigate and Banstead 002"},"type":"Feature"},{"geometry":{"coordinates":[[[-0.2114922,51.3181801],[-0.2244667,51.312264],[-0.2320676,51.3203291],[-0.2363333,51.3193219],[-0.234388,51.3233832],[-0.2381975,51.3247329],[-0.2429935,51.3212811],[-0.2427764,51.310117],[-0.2384702,51.3059899],[-0.2360047,51.3081436],[-0.2323288,51.3058827],[-0.2315271,51.3093739],[-0.2256406,51.3068925],[-0.2178239,51.3079877],[-0.2140026,51.3121318],[-0.2114922,51.3181801]]],"type":"Polygon"},"id":"E02006377","properties":{"code":"E02006377","geography":"MSOA","name":"Reigate and Banstead 003"},"type":"Feature"},{"geometry":{"coordinates":[[[-0.1565692,51.3215099],[-0.1641984,51.3260085],[-0.1631402,51.3302433],[-0.1730021,51.3300253],[-0.1824073,51.3380487],[-0.1894834,51.3337452],[-0.1850581,51.3267973],[-0.1879781,51.3239307],[-0.1826743,51.3197684],[-0.1909808,51.3189285],[-0.1962321,51.3134475],[-0.1730492,51.309188],[-0.1911521,51.3010509],[-0.1862806,51.2967363],[-0.1868754,51.2889228],[-0.1972908,51.2845315],[-0.198445,51.272257],[-0.1877295,51.2693876],[-0.1705219,51.2767538],[-0.1569644,51.2784836],[-0.1554991,51.2841908],[-0.1305056,51.2794778],[-0.1310828,51.2848189],[-0.1243193,51.2867601],[-0.1320608,51.2960623],[-0.137403,51.3007971],[-0.1553441,51.3012766],[-0.1543717,51.3102534],[-0.1583571,51.3109875],[-0.161906,51.3196273],[-0.1565692,51.3215099]]],"type":"Polygon"},"id":"E02006378","properties":{"code":"E02006378","geography":"MSOA","name":"Reigate and Banstead 004"},"type":"Feature"},{"geometry":{"coordinates":[[[-0.2256406,51.3068925],[-0.2315271,51.3093739],[-0.2323288,51.3058827],[-0.2360047,51.3081436],[-0.2384702,51.3059899],[-0.2427764,51.310117],[-0.2471592,51.2986806],[-0.2346413,51.2975322],[-0.2237065,51.3016662],[-0.2256406,51.3068925]]],"type":"Polygon"},"id":"E02006379","properties":{"code":"E02006379","geography":"MSOA","name":"Reigate and Banstead 005"},"type":"Feature"},{"geometry":{"coordinates":[[[-0.2332603,51.258464],[-0.2240598,51.2630253],[-0.2191086,51.2794536],[-0.2237065,51.3016662],[-0.2346413,51.2975322],[-0.2471592,51.2986806],[-0.264424,51.2995471],[-0.2722582,51.2923331],[-0.2661918,51.2786324],[-0.2657684,51.261389],[-0.2608588,51.2578314],[-0.2514966,51.2606533],[-0.2332603,51.258464]]],"type":"Polygon"},"id":"E02006380","properties":{"code":"E02006380","geography":"MSOA","name":"Reigate and Banstead 006"},"type":"Feature"},{"geometry":{"coordinates":[[[-0.1877295,51.2693876],[-0.198445,51.272257],[-0.1972908,51.2845315],[-0.1868754,51.2889228],[-0.1862806,51.2967363],[-0.1911521,51.3010509],[-0.1730492,51.309188],[-0.1962321,51.3134475],[-0.2140026,51.3121318],[-0.2178239,51.3079877],[-0.2256406,51.3068925],[-0.2237065,51.3016662],[-0.2191086,51.2794536],[-0.2240598,51.2630253],[-0.2332603,51.258464],[-0.2267692,51.2559028],[-0.1976093,51.2549694],[-0.1994098,51.2608708],[-0.1877295,51.2693876]]],"type":"Polygon"},"id":"E02006381","properties":{"code":"E02006381","geography":"MSOA","name":"Reigate and Banstead 007"},"type":"Feature"},{"geometry":{"coordinates":[[[-0.1313965,51.268219],[-0.1390041,51.2702278],[-0.1389431,51.2657829],[-0.1474907,51.2656528],[-0.1560419,51.2551705],[-0.1444995,51.2487992],[-0.1429834,51.2533198],[-0.1318189,51.2541716],[-0.1268278,51.2617381],[-0.1313965,51.268219]]],"type":"Polygon"},"id":"E02006382","properties":{"code":"E02006382","geography":"MSOA","name":"Reigate and Banstead 008"},"type":"Feature"},{"geometry":{"coordinates":[[[-0.1305056,51.2794778],[-0.1554991,51.2841908],[-0.1569644,51.2784836],[-0.1705219,51.2767538],[-0.1877295,51.2693876],[-0.1994098,51.2608708],[-0.1976093,51.2549694],[-0.2267692,51.2559028],[-0.2315698,51.2506813],[-0.2263631,51.2488715],[-0.230716,51.2401073],[-0.2448814,51.2363126],[-0.249932,51.2310727],[-0.2465728,51.2233667],[-0.2354036,51.2223607],[-0.2341731,51.217692],[-0.227724,51.2220351],[-0.2167808,51.2292501],[-0.2196701,51.2312096],[-0.2097942,51.2397235],[-0.2116793,51.2414329],[-0.188083,51.2399133],[-0.1815479,51.2396338],[-0.1846859,51.2429402],[-0.1816835,51.2438918],[-0.1870155,51.2456354],[-0.1841559,51.2489625],[-0.1644985,51.2539896],[-0.1583315,51.2569125],[-0.1560419,51.2551705],[-0.1474907,51.2656528],[-0.1389431,51.2657829],[-0.1390041,51.2702278],[-0.1313965,51.268219],[-0.1300035,51.2724868],[-0.1305056,51.2794778]]],"type":"Polygon"},"id":"E02006383","properties":{"code":"E02006383","geography":"MSOA","name":"Reigate and Banstead 009"},"type":"Feature"},{"geometry":{"coordinates":[[[-0.1759254,51.2354325],[-0.1691481,51.2374973],[-0.1644985,51.2539896],[-0.1841559,51.2489625],[-0.1870155,51.2456354],[-0.1816835,51.2438918],[-0.1846859,51.2429402],[-0.1815479,51.2396338],[-0.188083,51.2399133],[-0.1848703,51.2376684],[-0.1884943,51.2354849],[-0.1768549,51.2374873],[-0.1759254,51.2354325]]],"type":"Polygon"},"id":"E02006384","properties":{"code":"E02006384","geography":"MSOA","name":"Reigate and Banstead 010"},"type":"Feature"},{"geometry":{"coordinates":[[[-0.1560419,51.2551705],[-0.1583315,51.2569125],[-0.1644985,51.2539896],[-0.1691481,51.2374973],[-0.1759254,51.2354325],[-0.1723447,51.2324666],[-0.1543491,51.2319575],[-0.1453336,51.2372988],[-0.1444995,51.2487992],[-0.1560419,51.2551705]]],"type":"Polygon"},"id":"E02006385","properties":{"code":"E02006385","geography":"MSOA","name":"Reigate and Banstead 011"},"type":"Feature"},{"geometry":{"coordinates":[[[-0.188083,51.2399133],[-0.2116793,51.2414329],[-0.2097942,51.2397235],[-0.2196701,51.2312096],[-0.2167808,51.2292501],[-0.2073817,51.2292198],[-0.203309,51.2327763],[-0.193674,51.2299414],[-0.1845197,51.2317529],[-0.1826043,51.2256578],[-0.1772697,51.22552],[-0.1723447,51.2324666],[-0.1759254,51.2354325],[-0.1768549,51.2374873],[-0.1884943,51.2354849],[-0.1848703,51.2376684],[-0.188083,51.2399133]]],"type":"Polygon"},"id":"E02006386","properties":{"code":"E02006386","geography":"MSOA","name":"Reigate and Banstead 012"},"type":"Feature"},{"geometry":{"coordinates":[[[-0.1826043,51.2256578],[-0.1845197,51.2317529],[-0.193674,51.2299414],[-0.203309,51.2327763],[-0.2073817,51.2292198],[-0.2167808,51.2292501],[-0.227724,51.2220351],[-0.2158872,51.2201358],[-0.215363,51.2224916],[-0.1943783,51.2233847],[-0.1826043,51.2256578]]],"type":"Polygon"},"id":"E02006387","properties":{"code":"E02006387","geography":"MSOA","name":"Reigate and Banstead 013"},"type":"Feature"},{"geometry":{"coordinates":[[[-0.1543491,51.2319575],[-0.1723447,51.2324666],[-0.1772697,51.22552],[-0.1826043,51.2256578],[-0.1943783,51.2233847],[-0.1828817,51.2192772],[-0.1880771,51.2156328],[-0.184635,51.2088791],[-0.1695325,51.2102829],[-0.167537,51.2048287],[-0.1565909,51.2086878],[-0.1510731,51.2050126],[-0.1489528,51.2086257],[-0.1359456,51.2111373],[-0.1455286,51.210736],[-0.1447599,51.216259],[-0.1543491,51.2319575]]],"type":"Polygon"},"id":"E02006388","properties":{"code":"E02006388","geography":"MSOA","name":"Reigate and Banstead 014"},"type":"Feature"},{"geometry":{"coordinates":[[[-0.1359456,51.2111373],[-0.1489528,51.2086257],[-0.1510731,51.2050126],[-0.1565909,51.2086878],[-0.167537,51.2048287],[-0.1695325,51.2102829],[-0.184635,51.2088791],[-0.1880771,51.2156328],[-0.1828817,51.2192772],[-0.1943783,51.2233847],[-0.215363,51.2224916],[-0.2158872,51.2201358],[-0.227724,51.2220351],[-0.2341731,51.217692],[-0.2330477,51.2134249],[-0.2250961,51.2123243],[-0.2347842,51.2060886],[-0.2326974,51.2043189],[-0.2283649,51.206989],[-0.2230778,51.2038728],[-0.2236111,51.1959609],[-0.2185763,51.201852],[-0.2128469,51.1933221],[-0.2271913,51.1915826],[-0.2321574,51.1867207],[-0.2429267,51.1895106],[-0.2430857,51.1828366],[-0.2372671,51.1844768],[-0.2237885,51.1749346],[-0.2200051,51.1762702],[-0.2097279,51.172313],[-0.1969515,51.1753634],[-0.1996541,51.1811088],[-0.1905842,51.1814658],[-0.1921276,51.1845964],[-0.1828738,51.1912444],[-0.1714886,51.1893387],[-0.1691616,51.1859218],[-0.1638203,51.1867528],[-0.16127,51.1861676],[-0.161228,51.1913127],[-0.1418971,51.1906214],[-0.1359456,51.2111373]]],"type":"Polygon"},"id":"E02006389","properties":{"code":"E02006389","geography":"MSOA","name":"Reigate and Banstead 015"},"type":"Feature"},{"geometry":{"coordinates":[[[-0.1638203,51.1867528],[-0.1691616,51.1859218],[-0.1714886,51.1893387],[-0.1828738,51.1912444],[-0.1921276,51.1845964],[-0.1905842,51.1814658],[-0.1770762,51.1679108],[-0.1640114,51.1809857],[-0.1675394,51.1828298],[-0.1638203,51.1867528]]],"type":"Polygon"},"id":"E02006390","properties":{"code":"E02006390","geography":"MSOA","name":"Reigate and Banstead 016"},"type":"Feature"},{"geometry":{"coordinates":[[[-0.1418971,51.1906214],[-0.161228,51.1913127],[-0.16127,51.1861676],[-0.1608544,51.1772625],[-0.1511193,51.1600292],[-0.1404897,51.1600509],[-0.1282812,51.1627936],[-0.1291277,51.1749663],[-0.1350045,51.1765519],[-0.1435352,51.1865376],[-0.1418971,51.1906214]]],"type":"Polygon"},"id":"E02006391","properties":{"code":"E02006391","geography":"MSOA","name":"Reigate and Banstead 017"},"type":"Feature"},{"geometry":{"coordinates":[[[-0.16127,51.1861676],[-0.1638203,51.1867528],[-0.1675394,51.1828298],[-0.1640114,51.1809857],[-0.1770762,51.1679108],[-0.1767334,51.1668536],[-0.1609203,51.159827],[-0.1511193,51.1600292],[-0.1608544,51.1772625],[-0.16127,51.1861676]]],"type":"Polygon"},"id":"E02006392","properties":{"code":"E02006392","geography":"MSOA","name":"Reigate and Banstead 018"},"type":"Feature"}],"type":"FeatureCollection"}
