{"features":[{"geometry":{"coordinates":[[[-0.4683495,53.2031183],[-0.469239,53.2124304],[-0.458905,53.2119352],[-0.457481,53.2089661],[-0.4446805,53.2168702],[-0.4521256,53.2187548],[-0.452635,53.2219424],[-0.4641273,53.2204768],[-0.4722076,53.2231986],[-0.4711067,53.2272407],[-0.4756856,53.2271352],[-0.4950837,53.2252815],[-0.5023012,53.2257743],[-0.5012742,53.2210382],[-0.5089246,53.2181639],[-0.5138461,53.220152],[-0.5269209,53.2186934],[-0.5368536,53.2111463],[-0.5396472,53.2038974],[-0.5464234,53.2055362],[-0.5491826,53.2010979],[-0.5528604,53.1862537],[-0.5323468,53.1863389],[-0.5409667,53.1909336],[-0.5333385,53.1976902],[-0.5327266,53.1915163],[-0.5260809,53.1898486],[-0.5197394,53.1801675],[-0.5166724,53.1807404],[-0.5089004,53.1824492],[-0.5184194,53.1891827],[-0.5094949,53.1918501],[-0.506176,53.1975606],[-0.5021838,53.1942603],[-0.4963078,53.1950591],[-0.4950366,53.1999018],[-0.4848152,53.1970711],[-0.4868519,53.1922301],[-0.4773036,53.1931013],[-0.4721507,53.1903289],[-0.4692126,53.1934662],[-0.4761735,53.2023781],[-0.4683495,53.2031183]]],"type":"Polygon"},"id":"E02005453","properties":{"code":"E02005453","geography":"MSOA","name":"North Kesteven 001"},"type":"Feature"},{"geometry":{"coordinates":[[[-0.5951121,53.2451487],[-0.6114744,53.2564029],[-0.6224813,53.2581091],[-0.6483781,53.2531462],[-0.6484643,53.2433923],[-0.6665782,53.2396808],[-0.6758732,53.2176233],[-0.6975003,53.2202292],[-0.7147549,53.207587],[-0.7304261,53.2106961],[-0.7537067,53.1881313],[-0.7621791,53.188098],[-0.7641398,53.1815229],[-0.7181625,53.1772668],[-0.7160302,53.170391],[-0.7232348,53.1550825],[-0.7153783,53.1368621],[-0.7324104,53.1277805],[-0.731095,53.1239821],[-0.716886,53.1194226],[-0.6956014,53.1192773],[-0.6940111,53.1166314],[-0.6866892,53.1196387],[-0.6673028,53.1181222],[-0.6772507,53.1055318],[-0.6031288,53.0878618],[-0.5973092,53.1112468],[-0.6046791,53.1163298],[-0.5910773,53.1238308],[-0.5769156,53.1636054],[-0.5744369,53.1690784],[-0.6022571,53.1721436],[-0.6144902,53.1804752],[-0.6174553,53.1880394],[-0.6121667,53.1888678],[-0.6202693,53.1970228],[-0.6197162,53.2080625],[-0.6192089,53.2087469],[-0.6174097,53.2143045],[-0.6226185,53.2175769],[-0.6068861,53.2240058],[-0.5950363,53.2278294],[-0.5754752,53.2316136],[-0.570727,53.22959],[-0.5721958,53.2364249],[-0.5951121,53.2451487]]],"type":"Polygon"},"id":"E02005455","properties":{"code":"E02005455","geography":"MSOA","name":"North Kesteven 003"},"type":"Feature"},{"geometry":{"coordinates":[[[-0.4928585,53.1533103],[-0.4932005,53.1637867],[-0.4671257,53.1679247],[-0.4685101,53.1776891],[-0.4551012,53.1830436],[-0.468034,53.194816],[-0.4673112,53.1987408],[-0.4633748,53.1933909],[-0.4571405,53.1972166],[-0.461441,53.2032164],[-0.4683495,53.2031183],[-0.4761735,53.2023781],[-0.4692126,53.1934662],[-0.4721507,53.1903289],[-0.4773036,53.1931013],[-0.4868519,53.1922301],[-0.4848152,53.1970711],[-0.4950366,53.1999018],[-0.4963078,53.1950591],[-0.5021838,53.1942603],[-0.506176,53.1975606],[-0.5094949,53.1918501],[-0.5184194,53.1891827],[-0.5089004,53.1824492],[-0.5166724,53.1807404],[-0.5197394,53.1801675],[-0.5260809,53.1898486],[-0.5327266,53.1915163],[-0.5333385,53.1976902],[-0.5409667,53.1909336],[-0.5323468,53.1863389],[-0.5528604,53.1862537],[-0.5649934,53.1871115],[-0.5812773,53.1797948],[-0.5793683,53.1762489],[-0.5715137,53.1752606],[-0.5744369,53.1690784],[-0.5769156,53.1636054],[-0.5293186,53.1589153],[-0.5275301,53.1517275],[-0.4928585,53.1533103]]],"type":"Polygon"},"id":"E02005456","properties":{"code":"E02005456","geography":"MSOA","name":"North Kesteven 004"},"type":"Feature"},{"geometry":{"coordinates":[[[-0.2896543,53.1793419],[-0.3194075,53.1849251],[-0.3300631,53.2011096],[-0.337122,53.2029794],[-0.3368206,53.2084455],[-0.3467411,53.214631],[-0.3524351,53.227898],[-0.3669864,53.2254148],[-0.3818692,53.2319348],[-0.4711067,53.2272407],[-0.4722076,53.2231986],[-0.4641273,53.2204768],[-0.452635,53.2219424],[-0.4521256,53.2187548],[-0.4446805,53.2168702],[-0.457481,53.2089661],[-0.458905,53.2119352],[-0.469239,53.2124304],[-0.4683495,53.2031183],[-0.461441,53.2032164],[-0.4571405,53.1972166],[-0.4633748,53.1933909],[-0.4673112,53.1987408],[-0.468034,53.194816],[-0.4551012,53.1830436],[-0.4685101,53.1776891],[-0.4671257,53.1679247],[-0.4932005,53.1637867],[-0.4928585,53.1533103],[-0.4907721,53.1225207],[-0.4423067,53.1314823],[-0.4007485,53.1347459],[-0.3939936,53.138179],[-0.3498321,53.1416468],[-0.3369705,53.1490563],[-0.2743885,53.1706275],[-0.2896543,53.1793419]]],"type":"Polygon"},"id":"E02005457","properties":{"code":"E02005457","geography":"MSOA","name":"North Kesteven 005"},"type":"Feature"},{"geometry":{"coordinates":[[[-0.4928585,53.1533103],[-0.5275301,53.1517275],[-0.5293186,53.1589153],[-0.5769156,53.1636054],[-0.5910773,53.1238308],[-0.6046791,53.1163298],[-0.5973092,53.1112468],[-0.6031288,53.0878618],[-0.6772507,53.1055318],[-0.6673028,53.1181222],[-0.6866892,53.1196387],[-0.6940111,53.1166314],[-0.6956014,53.1192773],[-0.716886,53.1194226],[-0.7212542,53.1042471],[-0.7289228,53.0960883],[-0.7061535,53.0833576],[-0.7103623,53.0793567],[-0.6984863,53.0754464],[-0.69881,53.0677253],[-0.6951364,53.0662691],[-0.7015437,53.063642],[-0.7134706,53.0660255],[-0.716208,53.0590377],[-0.7059341,53.0519819],[-0.6982946,53.0532903],[-0.6952016,53.0591274],[-0.6898931,53.0597415],[-0.6442934,53.0525595],[-0.6360135,53.0523291],[-0.63735,53.0546573],[-0.6041469,53.052132],[-0.5849448,53.0456545],[-0.5740977,53.0469726],[-0.5736006,53.049597],[-0.5228195,53.049619],[-0.5172693,53.0825241],[-0.4908164,53.0875866],[-0.4861732,53.0943195],[-0.4894152,53.1139127],[-0.4907721,53.1225207],[-0.4928585,53.1533103]]],"type":"Polygon"},"id":"E02005458","properties":{"code":"E02005458","geography":"MSOA","name":"North Kesteven 006"},"type":"Feature"},{"geometry":{"coordinates":[[[-0.2467309,53.1480552],[-0.2743885,53.1706275],[-0.3369705,53.1490563],[-0.3498321,53.1416468],[-0.3939936,53.138179],[-0.4007485,53.1347459],[-0.4423067,53.1314823],[-0.4907721,53.1225207],[-0.4894152,53.1139127],[-0.4544073,53.117845],[-0.453311,53.1090457],[-0.4191185,53.1064894],[-0.4074267,53.1109091],[-0.4011356,53.1101358],[-0.400038,53.099162],[-0.43172,53.0956659],[-0.4194624,53.0862702],[-0.4131294,53.0723529],[-0.393083,53.0773512],[-0.3965862,53.0522929],[-0.3893012,53.0466753],[-0.3855258,53.0478924],[-0.382215,53.0434705],[-0.3764951,53.0462286],[-0.3698994,53.0381466],[-0.3521839,53.0326538],[-0.349011,53.0335046],[-0.3560685,53.0506639],[-0.3369961,53.0541539],[-0.3325968,53.0500962],[-0.305662,53.0553615],[-0.3035621,53.0569714],[-0.3153778,53.0678151],[-0.2841708,53.0685387],[-0.2791552,53.0724473],[-0.2724526,53.0703308],[-0.2608335,53.0774803],[-0.2663524,53.0832545],[-0.2553899,53.0829181],[-0.2326526,53.0585351],[-0.2139941,53.0624625],[-0.2105419,53.070273],[-0.1961242,53.0695335],[-0.1957192,53.082112],[-0.2145193,53.0895985],[-0.2190415,53.1050305],[-0.2246426,53.1092595],[-0.2258821,53.1243681],[-0.2384501,53.133712],[-0.2467309,53.1480552]]],"type":"Polygon"},"id":"E02005459","properties":{"code":"E02005459","geography":"MSOA","name":"North Kesteven 007"},"type":"Feature"},{"geometry":{"coordinates":[[[-0.3893012,53.0466753],[-0.3965862,53.0522929],[-0.393083,53.0773512],[-0.4131294,53.0723529],[-0.4194624,53.0862702],[-0.43172,53.0956659],[-0.400038,53.099162],[-0.4011356,53.1101358],[-0.4074267,53.1109091],[-0.4191185,53.1064894],[-0.453311,53.1090457],[-0.4544073,53.117845],[-0.4894152,53.1139127],[-0.4861732,53.0943195],[-0.4908164,53.0875866],[-0.5172693,53.0825241],[-0.5228195,53.049619],[-0.5264078,53.0267681],[-0.4765684,53.0249384],[-0.4461136,53.0289998],[-0.4397338,53.0313338],[-0.4453249,53.0413512],[-0.4416474,53.0515943],[-0.4331733,53.0515397],[-0.4085846,53.0390915],[-0.3941621,53.0391016],[-0.3947568,53.0431062],[-0.3861037,53.0444128],[-0.3922913,53.0446133],[-0.3893012,53.0466753]]],"type":"Polygon"},"id":"E02005460","properties":{"code":"E02005460","geography":"MSOA","name":"North Kesteven 008"},"type":"Feature"},{"geometry":{"coordinates":[[[-0.3893012,53.0466753],[-0.3922913,53.0446133],[-0.3861037,53.0444128],[-0.3947568,53.0431062],[-0.3941621,53.0391016],[-0.4085846,53.0390915],[-0.4331733,53.0515397],[-0.4416474,53.0515943],[-0.4453249,53.0413512],[-0.4397338,53.0313338],[-0.4461136,53.0289998],[-0.4765684,53.0249384],[-0.5264078,53.0267681],[-0.5319484,52.9897944],[-0.5235386,52.9881579],[-0.5283109,52.9836773],[-0.5267546,52.9769283],[-0.5310654,52.9757293],[-0.5261793,52.9693651],[-0.5403937,52.9673121],[-0.5431626,52.9717205],[-0.5541051,52.954409],[-0.5267179,52.9557134],[-0.5178523,52.9602662],[-0.5100129,52.9475515],[-0.4941596,52.9538257],[-0.4941414,52.9483108],[-0.4891531,52.9464933],[-0.4871857,52.9394903],[-0.4828769,52.9393671],[-0.4794944,52.9314027],[-0.481664,52.9279979],[-0.4868725,52.9280312],[-0.4876169,52.9205598],[-0.4939825,52.9207162],[-0.4892148,52.9134484],[-0.4798913,52.9064006],[-0.4720721,52.9054131],[-0.4697636,52.901167],[-0.44534,52.9005504],[-0.4373491,52.8869747],[-0.3834663,52.8986286],[-0.3658325,52.8979091],[-0.3660765,52.9011419],[-0.3608332,52.9019173],[-0.3579012,52.9156276],[-0.3228385,52.9175074],[-0.2565046,52.9058612],[-0.2524328,52.9153336],[-0.2989138,52.935157],[-0.3202999,52.9395158],[-0.3381488,52.9367112],[-0.3371134,52.9606917],[-0.3458154,52.9572646],[-0.35949,52.9691352],[-0.378688,52.9651867],[-0.3871824,52.9662463],[-0.3870246,52.9764398],[-0.3969626,52.9789988],[-0.4264981,52.9784913],[-0.4558349,52.98114],[-0.4550191,52.9906463],[-0.4428729,52.9959693],[-0.4557792,53.0135272],[-0.416253,53.0182548],[-0.3780463,53.0188158],[-0.3767923,53.0265007],[-0.3521839,53.0326538],[-0.3698994,53.0381466],[-0.3764951,53.0462286],[-0.382215,53.0434705],[-0.3855258,53.0478924],[-0.3893012,53.0466753]]],"type":"Polygon"},"id":"E02005461","properties":{"code":"E02005461","geography":"MSOA","name":"North Kesteven 009"},"type":"Feature"},{"geometry":{"coordinates":[[[-0.3870246,52.9764398],[-0.3968665,53.0013817],[-0.3795032,53.0129769],[-0.3780463,53.0188158],[-0.416253,53.0182548],[-0.4182889,53.010791],[-0.4116476,53.0086056],[-0.4175006,53.0080631],[-0.4146474,53.0053274],[-0.4213735,53.0034936],[-0.4137455,53.002258],[-0.4139464,52.9962167],[-0.41959,52.9952088],[-0.4144931,52.9917051],[-0.4264981,52.9784913],[-0.3969626,52.9789988],[-0.3870246,52.9764398]]],"type":"Polygon"},"id":"E02005462","properties":{"code":"E02005462","geography":"MSOA","name":"North Kesteven 010"},"type":"Feature"},{"geometry":{"coordinates":[[[-0.4264981,52.9784913],[-0.4144931,52.9917051],[-0.41959,52.9952088],[-0.4139464,52.9962167],[-0.4137455,53.002258],[-0.4213735,53.0034936],[-0.4146474,53.0053274],[-0.4175006,53.0080631],[-0.4116476,53.0086056],[-0.4182889,53.010791],[-0.416253,53.0182548],[-0.4557792,53.0135272],[-0.4428729,52.9959693],[-0.4550191,52.9906463],[-0.4558349,52.98114],[-0.4264981,52.9784913]]],"type":"Polygon"},"id":"E02005463","properties":{"code":"E02005463","geography":"MSOA","name":"North Kesteven 011"},"type":"Feature"},{"geometry":{"coordinates":[[[-0.2139941,53.0624625],[-0.2326526,53.0585351],[-0.2553899,53.0829181],[-0.2663524,53.0832545],[-0.2608335,53.0774803],[-0.2724526,53.0703308],[-0.2791552,53.0724473],[-0.2841708,53.0685387],[-0.3153778,53.0678151],[-0.3035621,53.0569714],[-0.305662,53.0553615],[-0.3325968,53.0500962],[-0.3369961,53.0541539],[-0.3560685,53.0506639],[-0.349011,53.0335046],[-0.3521839,53.0326538],[-0.3767923,53.0265007],[-0.3780463,53.0188158],[-0.3795032,53.0129769],[-0.3968665,53.0013817],[-0.3870246,52.9764398],[-0.3871824,52.9662463],[-0.378688,52.9651867],[-0.35949,52.9691352],[-0.3458154,52.9572646],[-0.3371134,52.9606917],[-0.3381488,52.9367112],[-0.3202999,52.9395158],[-0.2989138,52.935157],[-0.2524328,52.9153336],[-0.2467138,52.9288098],[-0.2012054,52.9774378],[-0.1898973,52.9963868],[-0.2247844,53.0290191],[-0.2139941,53.0624625]]],"type":"Polygon"},"id":"E02005464","properties":{"code":"E02005464","geography":"MSOA","name":"North Kesteven 012"},"type":"Feature"},{"geometry":{"coordinates":[[[-0.5649934,53.1871115],[-0.5744766,53.1915611],[-0.5898696,53.1815303],[-0.5940954,53.1839389],[-0.6044239,53.1828271],[-0.6040026,53.1848707],[-0.6144902,53.1804752],[-0.6022571,53.1721436],[-0.5744369,53.1690784],[-0.5715137,53.1752606],[-0.5793683,53.1762489],[-0.5812773,53.1797948],[-0.5649934,53.1871115]]],"type":"Polygon"},"id":"E02006866","properties":{"code":"E02006866","geography":"MSOA","name":"North Kesteven 013"},"type":"Feature"},{"geometry":{"coordinates":[[[-0.588217,53.2005498],[-0.6004894,53.2035543],[-0.6137066,53.2027064],[-0.6197162,53.2080625],[-0.6202693,53.1970228],[-0.6121667,53.1888678],[-0.6174553,53.1880394],[-0.6144902,53.1804752],[-0.6040026,53.1848707],[-0.6044239,53.1828271],[-0.5940954,53.1839389],[-0.5898696,53.1815303],[-0.5744766,53.1915611],[-0.588217,53.2005498]]],"type":"Polygon"},"id":"E02006867","properties":{"code":"E02006867","geography":"MSOA","name":"North Kesteven 014"},"type":"Feature"}],"type":"FeatureCollection"}
