{"features":[{"geometry":{"coordinates":[[[-1.8861694,52.3149509],[-1.8950332,52.3218343],[-1.908792,52.3204587],[-1.9093965,52.3235003],[-1.9335338,52.3241968],[-1.9425825,52.3216826],[-1.9481672,52.3217327],[-1.9444588,52.3174642],[-1.9505191,52.3136932],[-1.9404309,52.3124022],[-1.9402884,52.3092435],[-1.9248938,52.3142962],[-1.9150279,52.3102097],[-1.9145224,52.3101211],[-1.913398,52.3190488],[-1.9121485,52.3144837],[-1.9058493,52.3162788],[-1.9081891,52.3188531],[-1.8957044,52.3137346],[-1.8920907,52.3155565],[-1.8853758,52.3123291],[-1.8861694,52.3149509]]],"type":"Polygon"},"id":"E02006721","properties":{"code":"E02006721","geography":"MSOA","name":"Redditch 001"},"type":"Feature"},{"geometry":{"coordinates":[[[-1.8861694,52.3149509],[-1.8853758,52.3123291],[-1.8920907,52.3155565],[-1.8957044,52.3137346],[-1.9081891,52.3188531],[-1.9058493,52.3162788],[-1.9121485,52.3144837],[-1.913398,52.3190488],[-1.9145224,52.3101211],[-1.8990981,52.3102076],[-1.8809426,52.3109187],[-1.8861694,52.3149509]]],"type":"Polygon"},"id":"E02006722","properties":{"code":"E02006722","geography":"MSOA","name":"Redditch 002"},"type":"Feature"},{"geometry":{"coordinates":[[[-1.9505191,52.3136932],[-1.9444588,52.3174642],[-1.9481672,52.3217327],[-1.9551166,52.3209766],[-1.9605892,52.3147135],[-1.969578,52.3150128],[-1.9740033,52.3083791],[-1.9778967,52.3098616],[-1.9807226,52.3071262],[-1.96854,52.3021161],[-1.9518002,52.3086717],[-1.946155,52.3076679],[-1.9540007,52.3122891],[-1.9505191,52.3136932]]],"type":"Polygon"},"id":"E02006723","properties":{"code":"E02006723","geography":"MSOA","name":"Redditch 003"},"type":"Feature"},{"geometry":{"coordinates":[[[-1.9150279,52.3102097],[-1.9248938,52.3142962],[-1.9402884,52.3092435],[-1.9404309,52.3124022],[-1.9505191,52.3136932],[-1.9540007,52.3122891],[-1.946155,52.3076679],[-1.9423715,52.3007379],[-1.9308024,52.3025377],[-1.9179423,52.3054452],[-1.9147542,52.303044],[-1.9150279,52.3102097]]],"type":"Polygon"},"id":"E02006724","properties":{"code":"E02006724","geography":"MSOA","name":"Redditch 004"},"type":"Feature"},{"geometry":{"coordinates":[[[-1.8752374,52.3043391],[-1.8809426,52.3109187],[-1.8990981,52.3102076],[-1.899662,52.3017362],[-1.8947099,52.2997689],[-1.8831719,52.2986115],[-1.8888028,52.3045944],[-1.8752374,52.3043391]]],"type":"Polygon"},"id":"E02006725","properties":{"code":"E02006725","geography":"MSOA","name":"Redditch 005"},"type":"Feature"},{"geometry":{"coordinates":[[[-1.946155,52.3076679],[-1.9518002,52.3086717],[-1.96854,52.3021161],[-1.9492117,52.2960682],[-1.9354237,52.2907087],[-1.9276735,52.2937528],[-1.9245406,52.297558],[-1.9331222,52.2989894],[-1.9308024,52.3025377],[-1.9423715,52.3007379],[-1.946155,52.3076679]]],"type":"Polygon"},"id":"E02006726","properties":{"code":"E02006726","geography":"MSOA","name":"Redditch 006"},"type":"Feature"},{"geometry":{"coordinates":[[[-1.8947099,52.2997689],[-1.899662,52.3017362],[-1.8990981,52.3102076],[-1.9145224,52.3101211],[-1.9150279,52.3102097],[-1.9147542,52.303044],[-1.9179423,52.3054452],[-1.9308024,52.3025377],[-1.9331222,52.2989894],[-1.9245406,52.297558],[-1.9276735,52.2937528],[-1.9192883,52.2910618],[-1.9140323,52.2948322],[-1.9083449,52.2904095],[-1.9026371,52.2891522],[-1.903434,52.2935582],[-1.896484,52.2941473],[-1.8947099,52.2997689]]],"type":"Polygon"},"id":"E02006727","properties":{"code":"E02006727","geography":"MSOA","name":"Redditch 007"},"type":"Feature"},{"geometry":{"coordinates":[[[-1.96854,52.3021161],[-1.9807226,52.3071262],[-1.9764991,52.3036957],[-1.9816045,52.2993175],[-1.9849903,52.3000785],[-1.9861589,52.2908915],[-1.9807324,52.2844186],[-1.9711128,52.2843034],[-1.9589321,52.2827212],[-1.9570192,52.2894058],[-1.952982,52.2898842],[-1.9492117,52.2960682],[-1.96854,52.3021161]]],"type":"Polygon"},"id":"E02006728","properties":{"code":"E02006728","geography":"MSOA","name":"Redditch 008"},"type":"Feature"},{"geometry":{"coordinates":[[[-1.8752374,52.3043391],[-1.8888028,52.3045944],[-1.8831719,52.2986115],[-1.8947099,52.2997689],[-1.896484,52.2941473],[-1.903434,52.2935582],[-1.9026371,52.2891522],[-1.9083449,52.2904095],[-1.9151871,52.2883904],[-1.9097734,52.2836739],[-1.9130746,52.282175],[-1.9187266,52.2855324],[-1.9210729,52.282581],[-1.914768,52.2786397],[-1.9210937,52.2764645],[-1.9133795,52.2761166],[-1.8979499,52.2835691],[-1.8863199,52.2867523],[-1.8752374,52.3043391]]],"type":"Polygon"},"id":"E02006729","properties":{"code":"E02006729","geography":"MSOA","name":"Redditch 009"},"type":"Feature"},{"geometry":{"coordinates":[[[-1.9083449,52.2904095],[-1.9140323,52.2948322],[-1.9192883,52.2910618],[-1.9276735,52.2937528],[-1.9354237,52.2907087],[-1.928838,52.2823965],[-1.9210729,52.282581],[-1.9187266,52.2855324],[-1.9130746,52.282175],[-1.9097734,52.2836739],[-1.9151871,52.2883904],[-1.9083449,52.2904095]]],"type":"Polygon"},"id":"E02006730","properties":{"code":"E02006730","geography":"MSOA","name":"Redditch 010"},"type":"Feature"},{"geometry":{"coordinates":[[[-1.9354237,52.2907087],[-1.9492117,52.2960682],[-1.952982,52.2898842],[-1.9444746,52.288563],[-1.9375456,52.2781926],[-1.9342666,52.2769572],[-1.9210937,52.2764645],[-1.914768,52.2786397],[-1.9210729,52.282581],[-1.928838,52.2823965],[-1.9354237,52.2907087]]],"type":"Polygon"},"id":"E02006731","properties":{"code":"E02006731","geography":"MSOA","name":"Redditch 011"},"type":"Feature"},{"geometry":{"coordinates":[[[-1.9375456,52.2781926],[-1.9444746,52.288563],[-1.952982,52.2898842],[-1.9570192,52.2894058],[-1.9589321,52.2827212],[-1.9711128,52.2843034],[-1.9755991,52.280392],[-1.96578,52.2809711],[-1.9583502,52.2769487],[-1.9526961,52.2785216],[-1.9452004,52.27586],[-1.9375456,52.2781926]]],"type":"Polygon"},"id":"E02006732","properties":{"code":"E02006732","geography":"MSOA","name":"Redditch 012"},"type":"Feature"},{"geometry":{"coordinates":[[[-1.9861589,52.2908915],[-1.990903,52.2920356],[-2.0020251,52.2881249],[-1.9979602,52.283584],[-2.0024683,52.279568],[-2.0070518,52.2753722],[-2.0032055,52.2736174],[-2.0058376,52.2705786],[-2.0155373,52.269988],[-2.0113624,52.260066],[-2.0189362,52.2412868],[-2.01699,52.2373611],[-2.005799,52.2355775],[-1.9937815,52.2354481],[-1.9940299,52.2398471],[-1.9675817,52.2370159],[-1.9530021,52.2436679],[-1.9460614,52.2511691],[-1.9346183,52.252004],[-1.9343946,52.2645804],[-1.9386948,52.2704837],[-1.9342666,52.2769572],[-1.9375456,52.2781926],[-1.9452004,52.27586],[-1.9526961,52.2785216],[-1.9583502,52.2769487],[-1.96578,52.2809711],[-1.9755991,52.280392],[-1.9711128,52.2843034],[-1.9807324,52.2844186],[-1.9861589,52.2908915]]],"type":"Polygon"},"id":"E02006733","properties":{"code":"E02006733","geography":"MSOA","name":"Redditch 013"},"type":"Feature"}],"type":"FeatureCollection"}
