{"features":[{"geometry":{"coordinates":[[[1.097278,51.1889208],[1.0803278,51.191645],[1.070111,51.2007367],[1.0582277,51.2050012],[1.0546859,51.1885583],[1.0495481,51.1849851],[1.042002,51.1871148],[1.0398078,51.1821854],[1.0039394,51.1800508],[0.999496,51.1721176],[0.9984063,51.1647392],[1.0168924,51.1611993],[1.0094662,51.154095],[1.013252,51.1510805],[1.008591,51.1450012],[1.0179821,51.1412897],[1.0205378,51.1346624],[1.0292085,51.132537],[1.0220986,51.1238406],[1.0175502,51.1254221],[1.0168415,51.1194021],[1.0088002,51.1164552],[1.0062382,51.1119365],[1.0304158,51.1132148],[1.0416896,51.108598],[1.0437833,51.1165379],[1.0513159,51.1221937],[1.0829149,51.1174965],[1.0906949,51.1242367],[1.0956998,51.122818],[1.0985513,51.1278625],[1.1092018,51.1305903],[1.1143873,51.1251331],[1.1210758,51.1279389],[1.1310232,51.1222647],[1.1278353,51.1174111],[1.1342393,51.1263306],[1.1555798,51.1231369],[1.166879,51.1332455],[1.1772927,51.1324374],[1.1884679,51.1348193],[1.18912,51.1387557],[1.2110329,51.1514715],[1.2076589,51.1567984],[1.2030112,51.1551475],[1.1906822,51.15404],[1.1830001,51.1579385],[1.1770603,51.1569117],[1.1764986,51.1624466],[1.1715585,51.16066],[1.1707045,51.1631318],[1.1657913,51.1584986],[1.157608,51.1595388],[1.1437017,51.165773],[1.147608,51.1771746],[1.1344834,51.1849406],[1.1160032,51.1877969],[1.118116,51.1963243],[1.1147656,51.1969506],[1.1135556,51.1895217],[1.1089414,51.1869586],[1.097278,51.1889208]]],"type":"Polygon"},"id":"E02005102","properties":{"code":"E02005102","geography":"MSOA","name":"Folkestone and Hythe 001"},"type":"Feature"},{"geometry":{"coordinates":[[[1.1772927,51.1324374],[1.166879,51.1332455],[1.1555798,51.1231369],[1.1342393,51.1263306],[1.1278353,51.1174111],[1.1253145,51.1127736],[1.1440849,51.1094545],[1.145359,51.1026532],[1.127073,51.1003687],[1.1255108,51.0977128],[1.1352461,51.0980038],[1.1328047,51.0897373],[1.1384979,51.0907948],[1.1385934,51.0877249],[1.1390696,51.092619],[1.1464892,51.093506],[1.1554526,51.0960482],[1.1597126,51.101237],[1.1718958,51.1052443],[1.1952274,51.0967385],[1.2026247,51.0996076],[1.1948944,51.1030658],[1.1973423,51.1180884],[1.1857812,51.1213678],[1.1808351,51.1191979],[1.1779772,51.1237021],[1.1716445,51.1241006],[1.1772927,51.1324374]]],"type":"Polygon"},"id":"E02005103","properties":{"code":"E02005103","geography":"MSOA","name":"Folkestone and Hythe 002"},"type":"Feature"},{"geometry":{"coordinates":[[[1.2026247,51.0996076],[1.1952274,51.0967385],[1.1718958,51.1052443],[1.1597126,51.101237],[1.1554526,51.0960482],[1.1673294,51.0973244],[1.1754703,51.0884769],[1.1826343,51.0918411],[1.1955671,51.0822242],[1.1992609,51.0832173],[1.2057802,51.0927747],[1.221079,51.0980923],[1.2199072,51.1013398],[1.2043563,51.0971981],[1.2026247,51.0996076]]],"type":"Polygon"},"id":"E02005104","properties":{"code":"E02005104","geography":"MSOA","name":"Folkestone and Hythe 003"},"type":"Feature"},{"geometry":{"coordinates":[[[1.1955671,51.0822242],[1.1826343,51.0918411],[1.1754703,51.0884769],[1.1731699,51.0852698],[1.1767362,51.0833128],[1.1853081,51.0844498],[1.1886699,51.0803697],[1.1955671,51.0822242]]],"type":"Polygon"},"id":"E02005105","properties":{"code":"E02005105","geography":"MSOA","name":"Folkestone and Hythe 004"},"type":"Feature"},{"geometry":{"coordinates":[[[1.1464892,51.093506],[1.1390696,51.092619],[1.1385934,51.0877249],[1.1384979,51.0907948],[1.1328047,51.0897373],[1.1352461,51.0980038],[1.1255108,51.0977128],[1.117205,51.0868654],[1.1216591,51.0806241],[1.1124049,51.083883],[1.1087484,51.0779998],[1.1170693,51.0778877],[1.1175021,51.0715086],[1.1243559,51.0715974],[1.1289972,51.0792086],[1.1261679,51.0813893],[1.1523023,51.080349],[1.1408788,51.08644],[1.1464892,51.093506]]],"type":"Polygon"},"id":"E02005106","properties":{"code":"E02005106","geography":"MSOA","name":"Folkestone and Hythe 005"},"type":"Feature"},{"geometry":{"coordinates":[[[1.1754703,51.0884769],[1.1673294,51.0973244],[1.1554526,51.0960482],[1.1464892,51.093506],[1.1408788,51.08644],[1.1523023,51.080349],[1.1261679,51.0813893],[1.1289972,51.0792086],[1.1243559,51.0715974],[1.1244717,51.0709239],[1.1246584,51.0709523],[1.1389611,51.0716584],[1.1623623,51.0728098],[1.1576222,51.0770552],[1.1646141,51.0831027],[1.1555136,51.0844551],[1.1558202,51.0875195],[1.1597304,51.0864819],[1.160677,51.0898049],[1.1731699,51.0852698],[1.1754703,51.0884769]]],"type":"Polygon"},"id":"E02005107","properties":{"code":"E02005107","geography":"MSOA","name":"Folkestone and Hythe 006"},"type":"Feature"},{"geometry":{"coordinates":[[[1.1278353,51.1174111],[1.1310232,51.1222647],[1.1210758,51.1279389],[1.1143873,51.1251331],[1.1092018,51.1305903],[1.0985513,51.1278625],[1.0956998,51.122818],[1.0906949,51.1242367],[1.0829149,51.1174965],[1.0513159,51.1221937],[1.0437833,51.1165379],[1.0416896,51.108598],[1.0511805,51.1041914],[1.0384258,51.0950057],[1.0364353,51.0855494],[1.0456385,51.081331],[1.0465755,51.0690134],[1.0584344,51.0712372],[1.0647203,51.0728973],[1.0602741,51.0765118],[1.0727238,51.0721445],[1.0749206,51.0746804],[1.0816015,51.071754],[1.0890749,51.0737514],[1.0937199,51.0667223],[1.112989,51.0691786],[1.1244717,51.0709239],[1.1243559,51.0715974],[1.1175021,51.0715086],[1.1170693,51.0778877],[1.1087484,51.0779998],[1.1124049,51.083883],[1.1216591,51.0806241],[1.117205,51.0868654],[1.1255108,51.0977128],[1.127073,51.1003687],[1.145359,51.1026532],[1.1440849,51.1094545],[1.1253145,51.1127736],[1.1278353,51.1174111]]],"type":"Polygon"},"id":"E02005109","properties":{"code":"E02005109","geography":"MSOA","name":"Folkestone and Hythe 008"},"type":"Feature"},{"geometry":{"coordinates":[[[1.0088002,51.1164552],[0.9955576,51.1223694],[0.9953876,51.1181668],[0.9797351,51.1121863],[0.9833554,51.1083273],[0.9779409,51.1051604],[0.9853828,51.1001197],[0.9834331,51.0910848],[0.9755069,51.0790171],[0.9674142,51.0770651],[0.9665434,51.0702161],[0.9891327,51.0705892],[1.0223563,51.0666503],[1.0278338,51.0545177],[1.0204218,51.0517559],[1.0183915,51.0448219],[0.9992234,51.0321127],[1.0037239,51.0323529],[1.0027705,51.0290628],[1.0075184,51.0311107],[1.0345974,51.0471058],[1.0348344,51.0472006],[1.0510766,51.0536961],[1.0602493,51.0586139],[1.0579039,51.0635253],[1.048381,51.0641886],[1.0645474,51.0693117],[1.0584344,51.0712372],[1.0465755,51.0690134],[1.0456385,51.081331],[1.0364353,51.0855494],[1.0384258,51.0950057],[1.0511805,51.1041914],[1.0416896,51.108598],[1.0304158,51.1132148],[1.0062382,51.1119365],[1.0088002,51.1164552]]],"type":"Polygon"},"id":"E02005110","properties":{"code":"E02005110","geography":"MSOA","name":"Folkestone and Hythe 009"},"type":"Feature"},{"geometry":{"coordinates":[[[1.0937199,51.0667223],[1.0890749,51.0737514],[1.0816015,51.071754],[1.0749206,51.0746804],[1.0727238,51.0721445],[1.0602741,51.0765118],[1.0647203,51.0728973],[1.0584344,51.0712372],[1.0645474,51.0693117],[1.048381,51.0641886],[1.0579039,51.0635253],[1.0602493,51.0586139],[1.0682103,51.0605436],[1.0755645,51.0634813],[1.0757681,51.0635124],[1.0884278,51.0654411],[1.0937199,51.0667223]]],"type":"Polygon"},"id":"E02005111","properties":{"code":"E02005111","geography":"MSOA","name":"Folkestone and Hythe 010"},"type":"Feature"},{"geometry":{"coordinates":[[[1.0075184,51.0311107],[1.0027705,51.0290628],[1.0037239,51.0323529],[0.9992234,51.0321127],[1.0183915,51.0448219],[1.0204218,51.0517559],[1.0278338,51.0545177],[1.0223563,51.0666503],[0.9891327,51.0705892],[0.9665434,51.0702161],[0.9688949,51.0629252],[0.9534729,51.0572812],[0.9440942,51.0549055],[0.9342401,51.0611465],[0.9213021,51.0561167],[0.9227597,51.0520746],[0.9153495,51.0534255],[0.9144052,51.0498124],[0.9032904,51.0504627],[0.89794,51.0449188],[0.9000884,51.0386576],[0.894448,51.0369865],[0.8820961,51.0427126],[0.8814154,51.0483381],[0.8726588,51.0528035],[0.8689699,51.0516124],[0.86965,51.0441142],[0.8534068,51.04315],[0.8547754,51.0317645],[0.8390598,51.0313552],[0.8400828,51.0389423],[0.8310596,51.0417238],[0.8376174,51.0458417],[0.8308386,51.049373],[0.7789237,50.9894943],[0.7810204,50.9865014],[0.7769935,50.9848578],[0.7816691,50.9828883],[0.7771017,50.9754309],[0.7842944,50.977232],[0.8134293,50.9490129],[0.8129237,50.941996],[0.8190342,50.945457],[0.8298345,50.945667],[0.8413688,50.9576108],[0.8460781,50.9518554],[0.8559327,50.9531301],[0.8624719,50.9525277],[0.8786475,50.9590192],[0.9189192,50.9851746],[0.9281381,50.9827709],[0.9292896,50.9879467],[0.9600124,50.9965466],[0.9747435,51.0053126],[0.9780344,51.0037857],[0.9781394,51.0039018],[0.997313,51.0250781],[1.0075184,51.0311107]]],"type":"Polygon"},"id":"E02005112","properties":{"code":"E02005112","geography":"MSOA","name":"Folkestone and Hythe 011"},"type":"Feature"},{"geometry":{"coordinates":[[[0.9780344,51.0037857],[0.9747435,51.0053126],[0.9600124,50.9965466],[0.9292896,50.9879467],[0.9281381,50.9827709],[0.9387809,50.9772921],[0.9498607,50.9773273],[0.96207,50.9678696],[0.9641332,50.9678658],[0.9641049,50.9680806],[0.976971,51.0026106],[0.9780344,51.0037857]]],"type":"Polygon"},"id":"E02005113","properties":{"code":"E02005113","geography":"MSOA","name":"Folkestone and Hythe 012"},"type":"Feature"},{"geometry":{"coordinates":[[[0.9281381,50.9827709],[0.9189192,50.9851746],[0.8786475,50.9590192],[0.8624719,50.9525277],[0.8559327,50.9531301],[0.8595933,50.9396811],[0.8678561,50.9332632],[0.8546609,50.923732],[0.9352246,50.9125793],[0.9368278,50.9123598],[0.9382622,50.9123204],[0.9783706,50.9128735],[0.9809949,50.9181564],[0.9707027,50.9416221],[0.9662503,50.9517662],[0.9641332,50.9678658],[0.96207,50.9678696],[0.9498607,50.9773273],[0.9387809,50.9772921],[0.9281381,50.9827709]]],"type":"Polygon"},"id":"E02005114","properties":{"code":"E02005114","geography":"MSOA","name":"Folkestone and Hythe 013"},"type":"Feature"},{"geometry":{"coordinates":[[[1.1886699,51.0803697],[1.1853081,51.0844498],[1.1767362,51.0833128],[1.1717667,51.0823715],[1.1727622,51.0749262],[1.1775595,51.0759489],[1.1784575,51.0759491],[1.1941889,51.0759511],[1.1948758,51.0759683],[1.1856872,51.0795675],[1.1886699,51.0803697]]],"type":"Polygon"},"id":"E02006879","properties":{"code":"E02006879","geography":"MSOA","name":"Folkestone and Hythe 014"},"type":"Feature"},{"geometry":{"coordinates":[[[1.1731699,51.0852698],[1.160677,51.0898049],[1.1597304,51.0864819],[1.1558202,51.0875195],[1.1555136,51.0844551],[1.1646141,51.0831027],[1.1576222,51.0770552],[1.1623623,51.0728098],[1.1625968,51.0728214],[1.1629801,51.0728402],[1.1727622,51.0749262],[1.1717667,51.0823715],[1.1767362,51.0833128],[1.1731699,51.0852698]]],"type":"Polygon"},"id":"E02006880","properties":{"code":"E02006880","geography":"MSOA","name":"Folkestone and Hythe 015"},"type":"Feature"}],"type":"FeatureCollection"}
