{"features":[{"geometry":{"coordinates":[[[0.5678583,51.571095],[0.5614762,51.5717893],[0.5624764,51.5765206],[0.5575876,51.5806143],[0.5496701,51.5774528],[0.5489946,51.5730112],[0.5538663,51.5727453],[0.5490813,51.5728805],[0.5504757,51.5673856],[0.5634918,51.5661457],[0.5699327,51.5687529],[0.5678583,51.571095]]],"type":"Polygon"},"id":"E02004473","properties":{"code":"E02004473","geography":"MSOA","name":"Castle Point 001"},"type":"Feature"},{"geometry":{"coordinates":[[[0.6009078,51.5766535],[0.5658918,51.5882408],[0.5660125,51.5881284],[0.5683992,51.5865736],[0.5575876,51.5806143],[0.5624764,51.5765206],[0.5614762,51.5717893],[0.5678583,51.571095],[0.5704722,51.5735878],[0.5772205,51.5685079],[0.5825587,51.5697091],[0.5838986,51.5614297],[0.5912436,51.560401],[0.5969296,51.5598285],[0.5944119,51.5638227],[0.5997779,51.5622573],[0.5988441,51.5656906],[0.603434,51.5661436],[0.6171547,51.563755],[0.6100157,51.5693935],[0.6139823,51.5752051],[0.6009078,51.5766535]]],"type":"Polygon"},"id":"E02004474","properties":{"code":"E02004474","geography":"MSOA","name":"Castle Point 002"},"type":"Feature"},{"geometry":{"coordinates":[[[0.5634918,51.5661457],[0.5504757,51.5673856],[0.5490813,51.5728805],[0.5538663,51.5727453],[0.5489946,51.5730112],[0.5496701,51.5774528],[0.5429622,51.5719159],[0.5396668,51.5600812],[0.5567283,51.5580684],[0.5571339,51.5609493],[0.5620294,51.559576],[0.5661224,51.5629852],[0.5634918,51.5661457]]],"type":"Polygon"},"id":"E02004475","properties":{"code":"E02004475","geography":"MSOA","name":"Castle Point 003"},"type":"Feature"},{"geometry":{"coordinates":[[[0.5912436,51.560401],[0.5838986,51.5614297],[0.5825587,51.5697091],[0.5772205,51.5685079],[0.5704722,51.5735878],[0.5678583,51.571095],[0.5699327,51.5687529],[0.5634918,51.5661457],[0.5661224,51.5629852],[0.5620294,51.559576],[0.5571339,51.5609493],[0.5567283,51.5580684],[0.5647415,51.557118],[0.5605673,51.5532943],[0.5634934,51.5483046],[0.5692303,51.5528963],[0.567514,51.5483545],[0.5840476,51.5392688],[0.5875633,51.5387667],[0.5877852,51.5387261],[0.5879325,51.5386992],[0.5943636,51.5528309],[0.5876486,51.5526275],[0.5912436,51.560401]]],"type":"Polygon"},"id":"E02004476","properties":{"code":"E02004476","geography":"MSOA","name":"Castle Point 004"},"type":"Feature"},{"geometry":{"coordinates":[[[0.6320494,51.5705246],[0.6139823,51.5752051],[0.6100157,51.5693935],[0.6171547,51.563755],[0.603434,51.5661436],[0.5988441,51.5656906],[0.5997779,51.5622573],[0.6051173,51.5589415],[0.6007204,51.556794],[0.6037596,51.5551118],[0.6109891,51.5560996],[0.6102832,51.5536286],[0.6183856,51.5509973],[0.6191959,51.5530732],[0.6251166,51.549209],[0.6316569,51.5576407],[0.6355476,51.5606451],[0.6320494,51.5705246]]],"type":"Polygon"},"id":"E02004477","properties":{"code":"E02004477","geography":"MSOA","name":"Castle Point 005"},"type":"Feature"},{"geometry":{"coordinates":[[[[0.6253532,51.5366007],[0.62506,51.5365753],[0.6242186,51.5365024],[0.6090082,51.534829],[0.6254286,51.5323664],[0.6253532,51.5366007]]],[[[0.5997779,51.5622573],[0.5944119,51.5638227],[0.5969296,51.5598285],[0.5912436,51.560401],[0.5876486,51.5526275],[0.5943636,51.5528309],[0.5879325,51.5386992],[0.5940494,51.5375808],[0.5959599,51.5372314],[0.6032081,51.5359056],[0.6084425,51.5349478],[0.6249682,51.5376717],[0.625332,51.5377316],[0.6251166,51.549209],[0.6191959,51.5530732],[0.6183856,51.5509973],[0.6102832,51.5536286],[0.6109891,51.5560996],[0.6037596,51.5551118],[0.6007204,51.556794],[0.6051173,51.5589415],[0.5997779,51.5622573]]]],"type":"MultiPolygon"},"id":"E02004478","properties":{"code":"E02004478","geography":"MSOA","name":"Castle Point 006"},"type":"Feature"},{"geometry":{"coordinates":[[[[0.5466158,51.5471897],[0.5465185,51.5472168],[0.5459031,51.5473886],[0.5458135,51.5469792],[0.5457651,51.5467585],[0.54574,51.5466439],[0.5466158,51.5471897]]],[[[0.5605673,51.5532943],[0.5647415,51.557118],[0.5567283,51.5580684],[0.5396668,51.5600812],[0.5383546,51.553328],[0.5442487,51.5463873],[0.5450063,51.5476266],[0.5475555,51.5476854],[0.5646447,51.5421667],[0.5653606,51.5419354],[0.5840476,51.5392688],[0.567514,51.5483545],[0.5692303,51.5528963],[0.5634934,51.5483046],[0.5605673,51.5532943]]]],"type":"MultiPolygon"},"id":"E02004479","properties":{"code":"E02004479","geography":"MSOA","name":"Castle Point 007"},"type":"Feature"},{"geometry":{"coordinates":[[[0.596199,51.5304805],[0.5960757,51.5304925],[0.5961311,51.5306899],[0.5966073,51.5323847],[0.6058114,51.5306939],[0.6016119,51.5348792],[0.5990876,51.5349865],[0.6006438,51.5355041],[0.5939765,51.5362969],[0.5872494,51.5370963],[0.5929939,51.5352453],[0.5779469,51.535883],[0.5852413,51.5373637],[0.5732939,51.5390961],[0.5716371,51.528241],[0.5774639,51.529276],[0.5851509,51.5237501],[0.5919082,51.523207],[0.596199,51.5304805]]],"type":"Polygon"},"id":"E02004480","properties":{"code":"E02004480","geography":"MSOA","name":"Castle Point 008"},"type":"Feature"},{"geometry":{"coordinates":[[[0.6256641,51.5220521],[0.6261119,51.5222304],[0.632017,51.5245974],[0.627962,51.5273863],[0.596199,51.5304805],[0.5919082,51.523207],[0.5990147,51.5226434],[0.6053036,51.5200993],[0.6008541,51.5247603],[0.6093931,51.5237292],[0.6071106,51.5220611],[0.6168822,51.5173754],[0.6194554,51.5205875],[0.6256641,51.5220521]]],"type":"Polygon"},"id":"E02004481","properties":{"code":"E02004481","geography":"MSOA","name":"Castle Point 009"},"type":"Feature"},{"geometry":{"coordinates":[[[[0.5268817,51.532264],[0.5268351,51.5322521],[0.5270613,51.5322227],[0.5268817,51.532264]]],[[[0.5428405,51.5349677],[0.5429468,51.5358392],[0.5427989,51.534947],[0.5428405,51.5349677]]],[[[0.5564908,51.5444332],[0.5466158,51.5471897],[0.54574,51.5466439],[0.5430815,51.5345038],[0.5344693,51.5304229],[0.5296924,51.5313426],[0.5263793,51.5319803],[0.5260274,51.5320458],[0.518596,51.5301472],[0.5179665,51.5298682],[0.526675,51.5192117],[0.5380737,51.5199238],[0.5413098,51.520123],[0.543148,51.5185918],[0.5434602,51.5185358],[0.5601409,51.521584],[0.5818416,51.5201517],[0.5851509,51.5237501],[0.5774639,51.529276],[0.5716371,51.528241],[0.5732939,51.5390961],[0.573238,51.5391042],[0.5610667,51.5431392],[0.5592242,51.5437393],[0.5584593,51.5439856],[0.5530928,51.5418866],[0.5564908,51.5444332]]]],"type":"MultiPolygon"},"id":"E02004482","properties":{"code":"E02004482","geography":"MSOA","name":"Castle Point 010"},"type":"Feature"},{"geometry":{"coordinates":[[[0.5919082,51.523207],[0.5851509,51.5237501],[0.5818416,51.5201517],[0.5601409,51.521584],[0.5434602,51.5185358],[0.5475649,51.5149119],[0.5482801,51.5143159],[0.5484874,51.5141432],[0.5535394,51.509933],[0.5733028,51.5078264],[0.5814438,51.5096827],[0.5814844,51.5097163],[0.580388,51.5153941],[0.58989,51.511899],[0.5997401,51.5149659],[0.5934346,51.5166246],[0.5990606,51.5180752],[0.5990147,51.5226434],[0.5919082,51.523207]]],"type":"Polygon"},"id":"E02004483","properties":{"code":"E02004483","geography":"MSOA","name":"Castle Point 011"},"type":"Feature"},{"geometry":{"coordinates":[[[0.6256641,51.5220521],[0.6194554,51.5205875],[0.6168822,51.5173754],[0.6071106,51.5220611],[0.6093931,51.5237292],[0.6008541,51.5247603],[0.6053036,51.5200993],[0.5990147,51.5226434],[0.5990606,51.5180752],[0.5934346,51.5166246],[0.5997401,51.5149659],[0.58989,51.511899],[0.580388,51.5153941],[0.5814844,51.5097163],[0.5831121,51.5110627],[0.5856323,51.5131473],[0.5893991,51.5108454],[0.5925549,51.511289],[0.6032891,51.512797],[0.6038093,51.5128825],[0.6250282,51.5163657],[0.6278031,51.5204226],[0.6368294,51.5219503],[0.6237366,51.5212781],[0.6253922,51.5219716],[0.6256641,51.5220521]]],"type":"Polygon"},"id":"E02004484","properties":{"code":"E02004484","geography":"MSOA","name":"Castle Point 012"},"type":"Feature"}],"type":"FeatureCollection"}
