{"features":[{"geometry":{"coordinates":[[[-1.0142827,53.4262572],[-1.0304608,53.4251614],[-1.0309504,53.4309938],[-1.0570356,53.4253837],[-1.073166,53.4280711],[-1.0803635,53.4268638],[-1.0813048,53.4225176],[-1.087037,53.4255091],[-1.0986714,53.4188007],[-1.1081963,53.4058648],[-1.1159804,53.4073889],[-1.1156072,53.3971492],[-1.1228908,53.3982727],[-1.1332198,53.3913747],[-1.1077534,53.3891439],[-1.0872656,53.3808047],[-1.0833577,53.387636],[-1.0731145,53.3874399],[-1.0636953,53.3820056],[-1.0743269,53.3795324],[-1.0760657,53.3748316],[-1.0678929,53.3620949],[-1.0498284,53.3628378],[-1.0409288,53.368301],[-1.0392671,53.3730238],[-1.0444113,53.3769519],[-1.0387961,53.3910034],[-1.0304104,53.3897589],[-1.0179935,53.3928995],[-1.0174485,53.3896719],[-0.9953889,53.3957528],[-1.0109096,53.4044415],[-1.0127063,53.4095138],[-1.0034526,53.420495],[-1.0116988,53.4216655],[-1.0142827,53.4262572]]],"type":"Polygon"},"id":"E02005835","properties":{"code":"E02005835","geography":"MSOA","name":"Bassetlaw 001"},"type":"Feature"},{"geometry":{"coordinates":[[[-0.7974804,53.4550434],[-0.8720432,53.4663397],[-0.8737293,53.4615049],[-0.9162626,53.4602824],[-0.9221065,53.4564917],[-0.9065229,53.4594906],[-0.9134217,53.4495463],[-0.9114091,53.4364544],[-0.9043948,53.4342026],[-0.8940102,53.4365643],[-0.8842869,53.4296375],[-0.8691382,53.427395],[-0.8694799,53.4234902],[-0.8752483,53.4222944],[-0.8667041,53.4146153],[-0.8646286,53.4005643],[-0.869146,53.3944128],[-0.8768329,53.3944727],[-0.9060806,53.3993691],[-0.9104623,53.4066653],[-0.9207917,53.4120274],[-0.9385882,53.4062865],[-0.9448577,53.4070872],[-0.9426085,53.3979393],[-0.9327085,53.393873],[-0.9266577,53.3745368],[-0.9327777,53.3588122],[-0.9239416,53.3562325],[-0.9402654,53.3553634],[-0.9456987,53.3502248],[-0.9568568,53.3523498],[-0.9641629,53.346156],[-0.9615682,53.34268],[-0.9503609,53.3384542],[-0.9439424,53.3411643],[-0.9262965,53.3422105],[-0.9294644,53.3364525],[-0.9211026,53.332808],[-0.9221335,53.3249724],[-0.871385,53.3280784],[-0.8724521,53.3249265],[-0.855108,53.3230725],[-0.8054452,53.3264606],[-0.8053943,53.3212821],[-0.7536857,53.3202306],[-0.7500516,53.3242959],[-0.7600174,53.3246291],[-0.7664733,53.3300862],[-0.756719,53.3396544],[-0.7647907,53.3460351],[-0.7586866,53.3539079],[-0.7744583,53.3644113],[-0.7806838,53.3612324],[-0.7911317,53.3635304],[-0.7860354,53.3745317],[-0.7755682,53.3773814],[-0.7904269,53.3857619],[-0.776456,53.3913147],[-0.7775872,53.3974283],[-0.7905097,53.4082527],[-0.7884187,53.4143365],[-0.8046575,53.4175548],[-0.8181196,53.4270733],[-0.8205128,53.4407266],[-0.8095371,53.4435917],[-0.7974804,53.4550434]]],"type":"Polygon"},"id":"E02005836","properties":{"code":"E02005836","geography":"MSOA","name":"Bassetlaw 002"},"type":"Feature"},{"geometry":{"coordinates":[[[-0.9162626,53.4602824],[-0.9202443,53.4654863],[-0.9005309,53.4751348],[-0.9355782,53.502478],[-0.9533251,53.4843923],[-0.9860175,53.4716209],[-0.9834469,53.4675999],[-0.9973391,53.444238],[-0.9959051,53.4368317],[-1.0123756,53.4327841],[-1.0142827,53.4262572],[-1.0116988,53.4216655],[-1.0034526,53.420495],[-1.0127063,53.4095138],[-1.0109096,53.4044415],[-0.9953889,53.3957528],[-1.0174485,53.3896719],[-1.0179935,53.3928995],[-1.0304104,53.3897589],[-1.0387961,53.3910034],[-1.0444113,53.3769519],[-1.0392671,53.3730238],[-1.0409288,53.368301],[-1.0498284,53.3628378],[-1.033015,53.3487046],[-1.0639776,53.3412863],[-1.0586692,53.3345456],[-1.0279342,53.3336431],[-1.0272331,53.3208923],[-1.0359726,53.2900196],[-0.9724576,53.283814],[-0.9705563,53.2974177],[-0.9660647,53.3074416],[-0.9712474,53.3156833],[-0.9646764,53.3233445],[-0.9701697,53.3285189],[-0.9740705,53.3370415],[-0.9701039,53.3414198],[-0.9615682,53.34268],[-0.9641629,53.346156],[-0.9568568,53.3523498],[-0.9456987,53.3502248],[-0.9402654,53.3553634],[-0.9239416,53.3562325],[-0.9327777,53.3588122],[-0.9266577,53.3745368],[-0.9327085,53.393873],[-0.9426085,53.3979393],[-0.9448577,53.4070872],[-0.9385882,53.4062865],[-0.9207917,53.4120274],[-0.9104623,53.4066653],[-0.9060806,53.3993691],[-0.8768329,53.3944727],[-0.869146,53.3944128],[-0.8646286,53.4005643],[-0.8667041,53.4146153],[-0.8752483,53.4222944],[-0.8694799,53.4234902],[-0.8691382,53.427395],[-0.8842869,53.4296375],[-0.8940102,53.4365643],[-0.9043948,53.4342026],[-0.9114091,53.4364544],[-0.9134217,53.4495463],[-0.9065229,53.4594906],[-0.9221065,53.4564917],[-0.9162626,53.4602824]]],"type":"Polygon"},"id":"E02005837","properties":{"code":"E02005837","geography":"MSOA","name":"Bassetlaw 003"},"type":"Feature"},{"geometry":{"coordinates":[[[-1.1332198,53.3913747],[-1.1335188,53.3915036],[-1.1305653,53.3755678],[-1.1461389,53.3691374],[-1.1464743,53.363924],[-1.1404728,53.3639605],[-1.1385279,53.3558214],[-1.1516929,53.3544658],[-1.1619493,53.3578894],[-1.161995,53.3542411],[-1.1623046,53.3530846],[-1.1568508,53.3449463],[-1.1403284,53.3465597],[-1.1386862,53.3413756],[-1.1486276,53.3385049],[-1.1421787,53.3375055],[-1.1344422,53.3404721],[-1.1323966,53.3358433],[-1.1191476,53.3316473],[-1.1014314,53.3266253],[-1.0846639,53.326201],[-1.0586692,53.3345456],[-1.0639776,53.3412863],[-1.033015,53.3487046],[-1.0498284,53.3628378],[-1.0678929,53.3620949],[-1.0760657,53.3748316],[-1.0743269,53.3795324],[-1.0636953,53.3820056],[-1.0731145,53.3874399],[-1.0833577,53.387636],[-1.0872656,53.3808047],[-1.1077534,53.3891439],[-1.1332198,53.3913747]]],"type":"Polygon"},"id":"E02005838","properties":{"code":"E02005838","geography":"MSOA","name":"Bassetlaw 004"},"type":"Feature"},{"geometry":{"coordinates":[[[-0.9439424,53.3411643],[-0.9503609,53.3384542],[-0.9615682,53.34268],[-0.9701039,53.3414198],[-0.9740705,53.3370415],[-0.9701697,53.3285189],[-0.9570427,53.3260896],[-0.9509496,53.3218511],[-0.9482644,53.3249448],[-0.9405475,53.3252148],[-0.9354834,53.3295334],[-0.9439424,53.3411643]]],"type":"Polygon"},"id":"E02005839","properties":{"code":"E02005839","geography":"MSOA","name":"Bassetlaw 005"},"type":"Feature"},{"geometry":{"coordinates":[[[-1.1191476,53.3316473],[-1.1323966,53.3358433],[-1.1344422,53.3404721],[-1.1421787,53.3375055],[-1.1486276,53.3385049],[-1.1593504,53.3334621],[-1.1504726,53.3276572],[-1.1350773,53.3259657],[-1.1313067,53.3156061],[-1.1230809,53.3116966],[-1.1215366,53.3112448],[-1.1191476,53.3316473]]],"type":"Polygon"},"id":"E02005840","properties":{"code":"E02005840","geography":"MSOA","name":"Bassetlaw 006"},"type":"Feature"},{"geometry":{"coordinates":[[[-0.8724521,53.3249265],[-0.871385,53.3280784],[-0.9221335,53.3249724],[-0.9211026,53.332808],[-0.9294644,53.3364525],[-0.9262965,53.3422105],[-0.9439424,53.3411643],[-0.9354834,53.3295334],[-0.9405475,53.3252148],[-0.9444302,53.3131299],[-0.9344705,53.3089937],[-0.9342115,53.3037763],[-0.9045701,53.3007529],[-0.9088775,53.3064786],[-0.9025716,53.3177078],[-0.8720597,53.3216176],[-0.8724521,53.3249265]]],"type":"Polygon"},"id":"E02005842","properties":{"code":"E02005842","geography":"MSOA","name":"Bassetlaw 008"},"type":"Feature"},{"geometry":{"coordinates":[[[-1.1230809,53.3116966],[-1.1313067,53.3156061],[-1.1350773,53.3259657],[-1.1504726,53.3276572],[-1.1593504,53.3334621],[-1.1751115,53.3256567],[-1.1720375,53.322743],[-1.1902966,53.3198642],[-1.1997395,53.3114171],[-1.1872059,53.3039586],[-1.1794284,53.3063847],[-1.1741775,53.3025111],[-1.1718018,53.3100947],[-1.1641405,53.3115953],[-1.1545837,53.3082328],[-1.1369245,53.3104304],[-1.1264824,53.3068733],[-1.1239305,53.3091318],[-1.1283351,53.310915],[-1.1230809,53.3116966]]],"type":"Polygon"},"id":"E02005843","properties":{"code":"E02005843","geography":"MSOA","name":"Bassetlaw 009"},"type":"Feature"},{"geometry":{"coordinates":[[[-0.9405475,53.3252148],[-0.9482644,53.3249448],[-0.9509496,53.3218511],[-0.9570427,53.3260896],[-0.9701697,53.3285189],[-0.9646764,53.3233445],[-0.9712474,53.3156833],[-0.9660647,53.3074416],[-0.9705563,53.2974177],[-0.9469964,53.2995028],[-0.9342115,53.3037763],[-0.9344705,53.3089937],[-0.9444302,53.3131299],[-0.9405475,53.3252148]]],"type":"Polygon"},"id":"E02005844","properties":{"code":"E02005844","geography":"MSOA","name":"Bassetlaw 010"},"type":"Feature"},{"geometry":{"coordinates":[[[-1.1215366,53.3112448],[-1.1230809,53.3116966],[-1.1283351,53.310915],[-1.1239305,53.3091318],[-1.1264824,53.3068733],[-1.1142512,53.2963965],[-1.1065779,53.2964215],[-1.1060374,53.2989635],[-1.101993,53.2993153],[-1.1028121,53.3023674],[-1.0984115,53.3022359],[-1.0984044,53.2990088],[-1.0946286,53.301596],[-1.1069648,53.3055065],[-1.1103275,53.3091921],[-1.1215366,53.3112448]]],"type":"Polygon"},"id":"E02005846","properties":{"code":"E02005846","geography":"MSOA","name":"Bassetlaw 012"},"type":"Feature"},{"geometry":{"coordinates":[[[-1.1264824,53.3068733],[-1.1369245,53.3104304],[-1.1545837,53.3082328],[-1.1513823,53.3014374],[-1.1480314,53.3039758],[-1.1425475,53.301995],[-1.1407877,53.3048861],[-1.1351967,53.3039407],[-1.1316709,53.297892],[-1.1291289,53.3016213],[-1.1259477,53.3005488],[-1.1344418,53.293271],[-1.14346,53.2916911],[-1.1455322,53.2870856],[-1.1332223,53.2882912],[-1.1268129,53.2794321],[-1.1143743,53.2865078],[-1.1144964,53.2916422],[-1.1048159,53.290078],[-1.1012169,53.2947944],[-1.1060374,53.2989635],[-1.1065779,53.2964215],[-1.1142512,53.2963965],[-1.1264824,53.3068733]]],"type":"Polygon"},"id":"E02005847","properties":{"code":"E02005847","geography":"MSOA","name":"Bassetlaw 013"},"type":"Feature"},{"geometry":{"coordinates":[[[-0.9724576,53.283814],[-1.0359726,53.2900196],[-1.0272331,53.3208923],[-1.0279342,53.3336431],[-1.0586692,53.3345456],[-1.0846639,53.326201],[-1.1014314,53.3266253],[-1.1082916,53.3192013],[-1.102384,53.3187608],[-1.1005321,53.3098656],[-1.1021514,53.3071837],[-1.1071096,53.3085537],[-1.1038786,53.307111],[-1.1069648,53.3055065],[-1.0946286,53.301596],[-1.0984044,53.2990088],[-1.0984115,53.3022359],[-1.1028121,53.3023674],[-1.101993,53.2993153],[-1.1060374,53.2989635],[-1.1012169,53.2947944],[-1.1048159,53.290078],[-1.1144964,53.2916422],[-1.1143743,53.2865078],[-1.1268129,53.2794321],[-1.1332223,53.2882912],[-1.1455322,53.2870856],[-1.14346,53.2916911],[-1.1344418,53.293271],[-1.1259477,53.3005488],[-1.1291289,53.3016213],[-1.1316709,53.297892],[-1.1351967,53.3039407],[-1.1407877,53.3048861],[-1.1425475,53.301995],[-1.1480314,53.3039758],[-1.1513823,53.3014374],[-1.1545837,53.3082328],[-1.1641405,53.3115953],[-1.1718018,53.3100947],[-1.1741775,53.3025111],[-1.1743146,53.298316],[-1.1715637,53.2946163],[-1.1801182,53.2871134],[-1.1664901,53.277634],[-1.1815446,53.2700107],[-1.1746911,53.2651442],[-1.2024521,53.2611984],[-1.2124626,53.2455656],[-1.2019987,53.2355353],[-1.2094259,53.2176773],[-1.2022386,53.2160981],[-1.1711223,53.2189395],[-1.1403305,53.2257174],[-1.1238086,53.2246256],[-1.1220835,53.230837],[-1.1114604,53.2304213],[-1.1032985,53.235588],[-1.072485,53.2408866],[-1.052147,53.2521806],[-1.0274513,53.260817],[-1.0123623,53.2638003],[-0.9981205,53.2708364],[-0.9936264,53.2653908],[-0.9859659,53.264262],[-0.9688994,53.2666371],[-0.9661347,53.2703015],[-0.9581687,53.2679813],[-0.9517147,53.2697861],[-0.9479054,53.2748137],[-0.9724576,53.283814]]],"type":"Polygon"},"id":"E02005848","properties":{"code":"E02005848","geography":"MSOA","name":"Bassetlaw 014"},"type":"Feature"},{"geometry":{"coordinates":[[[-0.7536857,53.3202306],[-0.8053943,53.3212821],[-0.8054452,53.3264606],[-0.855108,53.3230725],[-0.8724521,53.3249265],[-0.8720597,53.3216176],[-0.9025716,53.3177078],[-0.9088775,53.3064786],[-0.9045701,53.3007529],[-0.9342115,53.3037763],[-0.9469964,53.2995028],[-0.9705563,53.2974177],[-0.9724576,53.283814],[-0.9479054,53.2748137],[-0.9517147,53.2697861],[-0.9581687,53.2679813],[-0.9661347,53.2703015],[-0.9688994,53.2666371],[-0.9859659,53.264262],[-0.9936264,53.2653908],[-0.9981205,53.2708364],[-1.0123623,53.2638003],[-1.0274513,53.260817],[-1.0235503,53.2477831],[-1.0129239,53.2416234],[-1.006589,53.2361031],[-0.9700048,53.235718],[-0.9574523,53.2318337],[-0.9472203,53.2257434],[-0.94768,53.2138137],[-0.8943442,53.2235787],[-0.8794125,53.2210461],[-0.8578405,53.2121855],[-0.8484996,53.2152877],[-0.848215,53.2186408],[-0.8398228,53.2188979],[-0.8308002,53.2175442],[-0.8369582,53.2136365],[-0.8305226,53.2128097],[-0.8320626,53.2067088],[-0.8215742,53.2013281],[-0.8157255,53.2048976],[-0.7872942,53.2045443],[-0.7900791,53.1991256],[-0.7803667,53.1963767],[-0.7755752,53.2149373],[-0.7834445,53.2259243],[-0.7770754,53.246887],[-0.7784878,53.2519711],[-0.7701767,53.2530762],[-0.7730993,53.260715],[-0.7642802,53.272718],[-0.7781692,53.2837331],[-0.7662711,53.2925036],[-0.7635022,53.2994161],[-0.7592998,53.2985072],[-0.7578848,53.2927961],[-0.750331,53.2942524],[-0.7471376,53.3043122],[-0.7532946,53.3104192],[-0.7536857,53.3202306]]],"type":"Polygon"},"id":"E02005849","properties":{"code":"E02005849","geography":"MSOA","name":"Bassetlaw 015"},"type":"Feature"},{"geometry":{"coordinates":[[[-1.1014314,53.3266253],[-1.1191476,53.3316473],[-1.1215366,53.3112448],[-1.1103275,53.3091921],[-1.1069648,53.3055065],[-1.1038786,53.307111],[-1.1071096,53.3085537],[-1.1021514,53.3071837],[-1.1005321,53.3098656],[-1.102384,53.3187608],[-1.1082916,53.3192013],[-1.1014314,53.3266253]]],"type":"Polygon"},"id":"E02006903","properties":{"code":"E02006903","geography":"MSOA","name":"Bassetlaw 016"},"type":"Feature"}],"type":"FeatureCollection"}
