{"features":[{"geometry":{"coordinates":[[[-1.3570787,50.9984386],[-1.3929851,51.0043687],[-1.3919433,50.9992268],[-1.3996532,50.9946815],[-1.3969357,50.9902001],[-1.3789063,50.9926068],[-1.3795815,50.9897413],[-1.3735589,50.9874115],[-1.3671627,50.9858252],[-1.3699005,50.9904115],[-1.3659015,50.9930872],[-1.3601544,50.9918125],[-1.3570787,50.9984386]]],"type":"Polygon"},"id":"E02004712","properties":{"code":"E02004712","geography":"MSOA","name":"Eastleigh 001"},"type":"Feature"},{"geometry":{"coordinates":[[[-1.3565375,50.9984024],[-1.3570787,50.9984386],[-1.3601544,50.9918125],[-1.3659015,50.9930872],[-1.3699005,50.9904115],[-1.3671627,50.9858252],[-1.3735589,50.9874115],[-1.3781951,50.9859748],[-1.3748681,50.9829819],[-1.3809937,50.9805964],[-1.3727223,50.9757259],[-1.3669896,50.974219],[-1.3656157,50.9801696],[-1.3563795,50.9856025],[-1.3514184,50.9830918],[-1.345963,50.9845945],[-1.3435651,50.9919753],[-1.3468718,50.9910731],[-1.3565375,50.9984024]]],"type":"Polygon"},"id":"E02004713","properties":{"code":"E02004713","geography":"MSOA","name":"Eastleigh 002"},"type":"Feature"},{"geometry":{"coordinates":[[[-1.3735589,50.9874115],[-1.3795815,50.9897413],[-1.3789063,50.9926068],[-1.3969357,50.9902001],[-1.3910632,50.9828651],[-1.3959692,50.9789812],[-1.3923961,50.9762821],[-1.39555,50.9704837],[-1.3927716,50.9644952],[-1.3880208,50.9750777],[-1.3749283,50.9733981],[-1.3727223,50.9757259],[-1.3809937,50.9805964],[-1.3748681,50.9829819],[-1.3781951,50.9859748],[-1.3735589,50.9874115]]],"type":"Polygon"},"id":"E02004714","properties":{"code":"E02004714","geography":"MSOA","name":"Eastleigh 003"},"type":"Feature"},{"geometry":{"coordinates":[[[-1.345963,50.9845945],[-1.3514184,50.9830918],[-1.3563795,50.9856025],[-1.3656157,50.9801696],[-1.3669896,50.974219],[-1.3727223,50.9757259],[-1.3749283,50.9733981],[-1.3616644,50.9701755],[-1.3539026,50.9722281],[-1.3597974,50.9747641],[-1.3572264,50.97707],[-1.3494258,50.9709986],[-1.3484583,50.9748123],[-1.3420312,50.9748707],[-1.340118,50.9700426],[-1.3313769,50.9715778],[-1.3360233,50.976179],[-1.3331071,50.9834658],[-1.34407,50.9848692],[-1.3466463,50.9813501],[-1.345963,50.9845945]]],"type":"Polygon"},"id":"E02004715","properties":{"code":"E02004715","geography":"MSOA","name":"Eastleigh 004"},"type":"Feature"},{"geometry":{"coordinates":[[[-1.316405,50.985132],[-1.3227392,50.9875539],[-1.3276893,50.9801275],[-1.3331071,50.9834658],[-1.3360233,50.976179],[-1.3313769,50.9715778],[-1.340118,50.9700426],[-1.3350362,50.9578243],[-1.3265991,50.955029],[-1.3244486,50.9648108],[-1.3169703,50.9651719],[-1.3156799,50.9619379],[-1.3143784,50.9640455],[-1.3081188,50.9615009],[-1.3047863,50.9633325],[-1.3035092,50.9698116],[-1.3140391,50.9679374],[-1.3130601,50.9827015],[-1.316405,50.985132]]],"type":"Polygon"},"id":"E02004716","properties":{"code":"E02004716","geography":"MSOA","name":"Eastleigh 005"},"type":"Feature"},{"geometry":{"coordinates":[[[-1.3749283,50.9733981],[-1.3880208,50.9750777],[-1.3927716,50.9644952],[-1.3829567,50.9607724],[-1.3844893,50.9562769],[-1.3740444,50.9539842],[-1.3799018,50.9475268],[-1.3669299,50.946877],[-1.3547211,50.9409753],[-1.3538554,50.9391672],[-1.3459918,50.9445774],[-1.3377206,50.9551848],[-1.3516671,50.9590701],[-1.3531499,50.9622035],[-1.3574989,50.9572486],[-1.363479,50.9570331],[-1.3580529,50.960271],[-1.3585873,50.9651447],[-1.3634295,50.9667834],[-1.358948,50.9667885],[-1.3616644,50.9701755],[-1.3749283,50.9733981]]],"type":"Polygon"},"id":"E02004717","properties":{"code":"E02004717","geography":"MSOA","name":"Eastleigh 006"},"type":"Feature"},{"geometry":{"coordinates":[[[-1.340118,50.9700426],[-1.3420312,50.9748707],[-1.3484583,50.9748123],[-1.3494258,50.9709986],[-1.3572264,50.97707],[-1.3597974,50.9747641],[-1.3539026,50.9722281],[-1.3616644,50.9701755],[-1.358948,50.9667885],[-1.3634295,50.9667834],[-1.3585873,50.9651447],[-1.3580529,50.960271],[-1.363479,50.9570331],[-1.3574989,50.9572486],[-1.3531499,50.9622035],[-1.3516671,50.9590701],[-1.3377206,50.9551848],[-1.3350362,50.9578243],[-1.340118,50.9700426]]],"type":"Polygon"},"id":"E02004718","properties":{"code":"E02004718","geography":"MSOA","name":"Eastleigh 007"},"type":"Feature"},{"geometry":{"coordinates":[[[-1.2699808,50.9655372],[-1.2596427,50.979228],[-1.2720833,50.9791056],[-1.2754006,50.9738925],[-1.2931822,50.9741211],[-1.2905866,50.9828766],[-1.316405,50.985132],[-1.3130601,50.9827015],[-1.3140391,50.9679374],[-1.3035092,50.9698116],[-1.3047863,50.9633325],[-1.3081188,50.9615009],[-1.3143784,50.9640455],[-1.3156799,50.9619379],[-1.3169703,50.9651719],[-1.3244486,50.9648108],[-1.3265991,50.955029],[-1.3172621,50.9559117],[-1.3126145,50.952203],[-1.3004109,50.9506096],[-1.2973787,50.9434757],[-1.2910123,50.9468073],[-1.2911041,50.950837],[-1.2699808,50.9655372]]],"type":"Polygon"},"id":"E02004719","properties":{"code":"E02004719","geography":"MSOA","name":"Eastleigh 008"},"type":"Feature"},{"geometry":{"coordinates":[[[-1.3265991,50.955029],[-1.3350362,50.9578243],[-1.3377206,50.9551848],[-1.3459918,50.9445774],[-1.3538554,50.9391672],[-1.3547211,50.9409753],[-1.3589541,50.9380054],[-1.3528416,50.935252],[-1.3579429,50.9307421],[-1.3473828,50.9245469],[-1.3394979,50.9237218],[-1.3324285,50.9181432],[-1.3275749,50.9141214],[-1.3134787,50.9230705],[-1.311076,50.9245996],[-1.3079821,50.9336027],[-1.2973787,50.9434757],[-1.3004109,50.9506096],[-1.3126145,50.952203],[-1.3172621,50.9559117],[-1.3265991,50.955029]]],"type":"Polygon"},"id":"E02004720","properties":{"code":"E02004720","geography":"MSOA","name":"Eastleigh 009"},"type":"Feature"},{"geometry":{"coordinates":[[[-1.2688645,50.9125571],[-1.2646934,50.9262913],[-1.2737027,50.9357109],[-1.2847372,50.9363869],[-1.2910123,50.9468073],[-1.2973787,50.9434757],[-1.3079821,50.9336027],[-1.311076,50.9245996],[-1.3014838,50.9279124],[-1.2936732,50.9172398],[-1.282767,50.9184295],[-1.2770821,50.915876],[-1.2760163,50.9205465],[-1.2752071,50.9153505],[-1.2688645,50.9125571]]],"type":"Polygon"},"id":"E02004721","properties":{"code":"E02004721","geography":"MSOA","name":"Eastleigh 010"},"type":"Feature"},{"geometry":{"coordinates":[[[-1.2688645,50.9125571],[-1.2752071,50.9153505],[-1.2760163,50.9205465],[-1.2770821,50.915876],[-1.282767,50.9184295],[-1.2936732,50.9172398],[-1.3014838,50.9279124],[-1.311076,50.9245996],[-1.3134787,50.9230705],[-1.3110568,50.917517],[-1.3058975,50.9194056],[-1.308168,50.9132124],[-1.2997485,50.9137439],[-1.2986198,50.9110749],[-1.2963362,50.9136335],[-1.2884876,50.9126695],[-1.2805956,50.8971337],[-1.2802459,50.8971735],[-1.2808305,50.8993803],[-1.2790911,50.8972743],[-1.2628985,50.8997824],[-1.2628037,50.8998524],[-1.2610422,50.9028421],[-1.2611877,50.9029741],[-1.2620566,50.9037459],[-1.2615214,50.9037271],[-1.2688645,50.9125571]]],"type":"Polygon"},"id":"E02004722","properties":{"code":"E02004722","geography":"MSOA","name":"Eastleigh 011"},"type":"Feature"},{"geometry":{"coordinates":[[[-1.2805956,50.8971337],[-1.2884876,50.9126695],[-1.2963362,50.9136335],[-1.2986198,50.9110749],[-1.2997485,50.9137439],[-1.308168,50.9132124],[-1.3058975,50.9194056],[-1.3110568,50.917517],[-1.3134787,50.9230705],[-1.3275749,50.9141214],[-1.3189859,50.8990227],[-1.309553,50.9008063],[-1.3088283,50.9043072],[-1.2951798,50.9029293],[-1.296237,50.895772],[-1.2935321,50.8927799],[-1.2911565,50.892441],[-1.2897888,50.8939142],[-1.289066,50.8961682],[-1.2805956,50.8971337]]],"type":"Polygon"},"id":"E02004723","properties":{"code":"E02004723","geography":"MSOA","name":"Eastleigh 012"},"type":"Feature"},{"geometry":{"coordinates":[[[[-1.2979922,50.8870216],[-1.2988127,50.8866429],[-1.3001072,50.8854474],[-1.2979922,50.8870216]]],[[[-1.3275749,50.9141214],[-1.3324285,50.9181432],[-1.329826,50.91495],[-1.3246509,50.9084427],[-1.3286547,50.9065979],[-1.3220997,50.9009386],[-1.3350652,50.8973809],[-1.3442133,50.8909482],[-1.349395,50.8885975],[-1.3440473,50.882845],[-1.3351807,50.8891684],[-1.3297064,50.8876407],[-1.3193348,50.8820045],[-1.3152783,50.8728408],[-1.3135912,50.8725566],[-1.3143756,50.8733651],[-1.3129116,50.8764545],[-1.3002208,50.8794735],[-1.3051222,50.8830827],[-1.2947042,50.8929472],[-1.2935321,50.8927799],[-1.296237,50.895772],[-1.2951798,50.9029293],[-1.3088283,50.9043072],[-1.309553,50.9008063],[-1.3189859,50.8990227],[-1.3275749,50.9141214]]]],"type":"MultiPolygon"},"id":"E02004724","properties":{"code":"E02004724","geography":"MSOA","name":"Eastleigh 013"},"type":"Feature"},{"geometry":{"coordinates":[[[-1.3440473,50.882845],[-1.349395,50.8885975],[-1.3640178,50.8792873],[-1.3514749,50.8706273],[-1.3513224,50.8707349],[-1.3396496,50.8735591],[-1.3440473,50.882845]]],"type":"Polygon"},"id":"E02004725","properties":{"code":"E02004725","geography":"MSOA","name":"Eastleigh 014"},"type":"Feature"},{"geometry":{"coordinates":[[[-1.3135912,50.8725566],[-1.3152783,50.8728408],[-1.3193348,50.8820045],[-1.3297064,50.8876407],[-1.3351807,50.8891684],[-1.3440473,50.882845],[-1.3396496,50.8735591],[-1.3513224,50.8707349],[-1.3514749,50.8706273],[-1.3319182,50.8571157],[-1.3126589,50.8488773],[-1.3102247,50.8506749],[-1.3177477,50.8541966],[-1.3124457,50.8547833],[-1.3131426,50.8650857],[-1.3097131,50.8684714],[-1.309688,50.8690081],[-1.3126015,50.8715365],[-1.3134215,50.8723817],[-1.3135912,50.8725566]]],"type":"Polygon"},"id":"E02004726","properties":{"code":"E02004726","geography":"MSOA","name":"Eastleigh 015"},"type":"Feature"}],"type":"FeatureCollection"}
