{"features":[{"geometry":{"coordinates":[[[-1.5730271,52.3825421],[-1.6010776,52.3892839],[-1.610293,52.3824908],[-1.6080304,52.3763394],[-1.6153816,52.3744399],[-1.6181556,52.3762403],[-1.619033,52.3705411],[-1.6236858,52.3717625],[-1.6266263,52.3691788],[-1.6209771,52.3678679],[-1.6234114,52.3655357],[-1.6364691,52.3651531],[-1.6464784,52.3595197],[-1.6405843,52.3582082],[-1.6416692,52.3526285],[-1.6359924,52.3498872],[-1.6169674,52.3477149],[-1.6174584,52.3357272],[-1.6050905,52.3374],[-1.5912241,52.3347778],[-1.585303,52.3412883],[-1.5816163,52.3382427],[-1.5762486,52.3398317],[-1.5715413,52.3454435],[-1.5689485,52.3494439],[-1.5833808,52.3540508],[-1.5845087,52.3607493],[-1.5730004,52.3593562],[-1.5776951,52.3742874],[-1.5730271,52.3825421]]],"type":"Polygon"},"id":"E02006519","properties":{"code":"E02006519","geography":"MSOA","name":"Warwick 001"},"type":"Feature"},{"geometry":{"coordinates":[[[-1.5595367,52.3330966],[-1.5313025,52.3581986],[-1.5347845,52.3604088],[-1.5423473,52.3592283],[-1.5540667,52.3538356],[-1.5532646,52.3569351],[-1.5637599,52.358483],[-1.5620502,52.3614853],[-1.5730004,52.3593562],[-1.5845087,52.3607493],[-1.5833808,52.3540508],[-1.5689485,52.3494439],[-1.5715413,52.3454435],[-1.5642727,52.344396],[-1.564244,52.335971],[-1.5595367,52.3330966]]],"type":"Polygon"},"id":"E02006520","properties":{"code":"E02006520","geography":"MSOA","name":"Warwick 002"},"type":"Feature"},{"geometry":{"coordinates":[[[-1.5595367,52.3330966],[-1.564244,52.335971],[-1.5642727,52.344396],[-1.5715413,52.3454435],[-1.5762486,52.3398317],[-1.5816163,52.3382427],[-1.585303,52.3412883],[-1.5912241,52.3347778],[-1.6050905,52.3374],[-1.6174584,52.3357272],[-1.6115404,52.3275164],[-1.5974098,52.322978],[-1.5836934,52.324327],[-1.5757041,52.3309649],[-1.5636957,52.3317124],[-1.5595367,52.3330966]]],"type":"Polygon"},"id":"E02006521","properties":{"code":"E02006521","geography":"MSOA","name":"Warwick 003"},"type":"Feature"},{"geometry":{"coordinates":[[[-1.5636957,52.3317124],[-1.5757041,52.3309649],[-1.5836934,52.324327],[-1.5974098,52.322978],[-1.6115404,52.3275164],[-1.6174584,52.3357272],[-1.6169674,52.3477149],[-1.6359924,52.3498872],[-1.6416692,52.3526285],[-1.6405843,52.3582082],[-1.6464784,52.3595197],[-1.6513207,52.3564055],[-1.6608982,52.3656544],[-1.6843325,52.3632164],[-1.684941,52.3559954],[-1.6938949,52.350998],[-1.6981011,52.3557168],[-1.7102791,52.3550056],[-1.7183454,52.3586767],[-1.718556,52.3557221],[-1.7202766,52.3725568],[-1.73404,52.3707023],[-1.738332,52.3649566],[-1.741417,52.357157],[-1.7487828,52.3547557],[-1.75964,52.3583948],[-1.7628084,52.3642594],[-1.7757486,52.3659012],[-1.7801776,52.3638121],[-1.7777741,52.3560678],[-1.7718686,52.3558607],[-1.775761,52.3479487],[-1.7675375,52.328289],[-1.7690226,52.3193244],[-1.7616742,52.3079911],[-1.7398749,52.3016993],[-1.7338399,52.2935008],[-1.723774,52.2984442],[-1.7123032,52.2896679],[-1.6999806,52.2912367],[-1.6855003,52.2827867],[-1.6793391,52.2867284],[-1.6691013,52.2858017],[-1.6668898,52.31426],[-1.6616779,52.308269],[-1.6405585,52.3083368],[-1.6232394,52.3029087],[-1.6239561,52.3128988],[-1.6188325,52.3156325],[-1.6048683,52.3024714],[-1.5761835,52.3022725],[-1.5751603,52.2991526],[-1.5694468,52.2977976],[-1.5734597,52.2993833],[-1.5733735,52.3004061],[-1.5729021,52.305997],[-1.5632282,52.3091723],[-1.5501235,52.3084725],[-1.5413612,52.315306],[-1.5561969,52.3221564],[-1.5559668,52.3268126],[-1.5636957,52.3317124]]],"type":"Polygon"},"id":"E02006522","properties":{"code":"E02006522","geography":"MSOA","name":"Warwick 004"},"type":"Feature"},{"geometry":{"coordinates":[[[-1.5582649,52.3686391],[-1.555004,52.3744076],[-1.5626459,52.3768753],[-1.5678601,52.3847478],[-1.5730271,52.3825421],[-1.5776951,52.3742874],[-1.5730004,52.3593562],[-1.5620502,52.3614853],[-1.5637599,52.358483],[-1.5532646,52.3569351],[-1.5540667,52.3538356],[-1.5423473,52.3592283],[-1.5347845,52.3604088],[-1.5313025,52.3581986],[-1.5595367,52.3330966],[-1.5636957,52.3317124],[-1.5559668,52.3268126],[-1.5561969,52.3221564],[-1.5413612,52.315306],[-1.5501235,52.3084725],[-1.5632282,52.3091723],[-1.5729021,52.305997],[-1.5733735,52.3004061],[-1.5734597,52.2993833],[-1.5694468,52.2977976],[-1.5607481,52.2957718],[-1.5505181,52.3038524],[-1.5374519,52.3042942],[-1.5210678,52.3143138],[-1.5129296,52.3092624],[-1.5089046,52.3001904],[-1.500792,52.2988135],[-1.4907271,52.2817257],[-1.5055463,52.283163],[-1.5094073,52.2755519],[-1.5125004,52.2697759],[-1.5075142,52.2667658],[-1.5146343,52.2623282],[-1.4911484,52.2469926],[-1.4776687,52.2617253],[-1.465579,52.2636567],[-1.4534276,52.2719101],[-1.4352267,52.2727725],[-1.4484846,52.2940567],[-1.4247457,52.2942676],[-1.4218138,52.2979402],[-1.4265062,52.300735],[-1.4194193,52.3037379],[-1.4199986,52.3121602],[-1.4126686,52.3118391],[-1.4066466,52.3152748],[-1.4069847,52.3191044],[-1.4145681,52.3209816],[-1.4180487,52.3263112],[-1.4359868,52.3283999],[-1.4441466,52.3410505],[-1.4479762,52.3405625],[-1.4436533,52.3455192],[-1.4562093,52.3467607],[-1.4480623,52.3536609],[-1.4512099,52.3570314],[-1.4649236,52.3580607],[-1.4605805,52.3631424],[-1.4649936,52.3671215],[-1.4603827,52.3704222],[-1.4640236,52.3732501],[-1.4665523,52.3771796],[-1.4804199,52.3743016],[-1.482288,52.377102],[-1.5008539,52.3775764],[-1.5069428,52.3767006],[-1.5139279,52.3690469],[-1.519822,52.3755366],[-1.5245822,52.379391],[-1.535498,52.3775853],[-1.5456888,52.3692543],[-1.5419052,52.3666171],[-1.5524236,52.363876],[-1.5582649,52.3686391]]],"type":"Polygon"},"id":"E02006523","properties":{"code":"E02006523","geography":"MSOA","name":"Warwick 005"},"type":"Feature"},{"geometry":{"coordinates":[[[-1.5089046,52.3001904],[-1.5129296,52.3092624],[-1.5258015,52.3017406],[-1.5218724,52.2955684],[-1.5089046,52.3001904]]],"type":"Polygon"},"id":"E02006524","properties":{"code":"E02006524","geography":"MSOA","name":"Warwick 006"},"type":"Feature"},{"geometry":{"coordinates":[[[-1.5129296,52.3092624],[-1.5210678,52.3143138],[-1.5374519,52.3042942],[-1.5433693,52.2990799],[-1.5400867,52.2883309],[-1.533455,52.286654],[-1.530405,52.2927998],[-1.5218724,52.2955684],[-1.5258015,52.3017406],[-1.5129296,52.3092624]]],"type":"Polygon"},"id":"E02006525","properties":{"code":"E02006525","geography":"MSOA","name":"Warwick 007"},"type":"Feature"},{"geometry":{"coordinates":[[[-1.5607481,52.2957718],[-1.5694468,52.2977976],[-1.5751603,52.2991526],[-1.5761835,52.3022725],[-1.6048683,52.3024714],[-1.6116823,52.3022652],[-1.6141506,52.2991205],[-1.6070304,52.2961491],[-1.6093059,52.2901668],[-1.6043009,52.287985],[-1.5945858,52.2926107],[-1.5779325,52.291213],[-1.5651214,52.2874837],[-1.5600678,52.2892225],[-1.5607481,52.2957718]]],"type":"Polygon"},"id":"E02006526","properties":{"code":"E02006526","geography":"MSOA","name":"Warwick 008"},"type":"Feature"},{"geometry":{"coordinates":[[[-1.533455,52.286654],[-1.5400867,52.2883309],[-1.5433693,52.2990799],[-1.5374519,52.3042942],[-1.5505181,52.3038524],[-1.5607481,52.2957718],[-1.5600678,52.2892225],[-1.5502423,52.2847944],[-1.5321537,52.2840847],[-1.533455,52.286654]]],"type":"Polygon"},"id":"E02006527","properties":{"code":"E02006527","geography":"MSOA","name":"Warwick 009"},"type":"Feature"},{"geometry":{"coordinates":[[[-1.5094073,52.2755519],[-1.5055463,52.283163],[-1.4907271,52.2817257],[-1.500792,52.2988135],[-1.5089046,52.3001904],[-1.5218724,52.2955684],[-1.530405,52.2927998],[-1.533455,52.286654],[-1.5321537,52.2840847],[-1.5197879,52.2757519],[-1.5094073,52.2755519]]],"type":"Polygon"},"id":"E02006528","properties":{"code":"E02006528","geography":"MSOA","name":"Warwick 010"},"type":"Feature"},{"geometry":{"coordinates":[[[-1.5779325,52.291213],[-1.5945858,52.2926107],[-1.6043009,52.287985],[-1.6093059,52.2901668],[-1.6156399,52.2777707],[-1.6261552,52.2685988],[-1.6237593,52.2584102],[-1.6103736,52.2556458],[-1.6083233,52.2462576],[-1.5964129,52.2513415],[-1.600124,52.2609704],[-1.5949642,52.2640989],[-1.5958434,52.2742936],[-1.5807912,52.2836511],[-1.5779325,52.291213]]],"type":"Polygon"},"id":"E02006529","properties":{"code":"E02006529","geography":"MSOA","name":"Warwick 011"},"type":"Feature"},{"geometry":{"coordinates":[[[-1.5600678,52.2892225],[-1.5651214,52.2874837],[-1.5779325,52.291213],[-1.5807912,52.2836511],[-1.5958434,52.2742936],[-1.5949642,52.2640989],[-1.5704566,52.2692051],[-1.5509961,52.2576701],[-1.5432126,52.2647015],[-1.5384164,52.2641249],[-1.5361368,52.271929],[-1.5403497,52.2723123],[-1.5502423,52.2847944],[-1.5600678,52.2892225]]],"type":"Polygon"},"id":"E02006530","properties":{"code":"E02006530","geography":"MSOA","name":"Warwick 012"},"type":"Feature"},{"geometry":{"coordinates":[[[-1.5321537,52.2840847],[-1.5502423,52.2847944],[-1.5403497,52.2723123],[-1.5361368,52.271929],[-1.5276871,52.2745549],[-1.5184922,52.2725413],[-1.5197879,52.2757519],[-1.5321537,52.2840847]]],"type":"Polygon"},"id":"E02006531","properties":{"code":"E02006531","geography":"MSOA","name":"Warwick 013"},"type":"Feature"},{"geometry":{"coordinates":[[[-1.6048683,52.3024714],[-1.6188325,52.3156325],[-1.6239561,52.3128988],[-1.6232394,52.3029087],[-1.6405585,52.3083368],[-1.6616779,52.308269],[-1.6668898,52.31426],[-1.6691013,52.2858017],[-1.6658375,52.2837666],[-1.6760956,52.2681026],[-1.6692189,52.2579857],[-1.6603596,52.2557039],[-1.6459399,52.2582562],[-1.6359263,52.2473348],[-1.6225578,52.2451064],[-1.6277122,52.2420535],[-1.6249515,52.2384279],[-1.6066878,52.2375746],[-1.609391,52.2300557],[-1.6259076,52.2262705],[-1.6212378,52.2137923],[-1.6020342,52.2252422],[-1.5856148,52.2244027],[-1.5750421,52.2162728],[-1.5683128,52.2176897],[-1.5600706,52.2316321],[-1.5543087,52.230929],[-1.5550331,52.2282168],[-1.5396925,52.2283278],[-1.5282096,52.2251346],[-1.5163281,52.2407904],[-1.5021975,52.2414849],[-1.500117,52.2375483],[-1.4988745,52.2410063],[-1.5384164,52.2641249],[-1.5432126,52.2647015],[-1.5509961,52.2576701],[-1.5704566,52.2692051],[-1.5949642,52.2640989],[-1.600124,52.2609704],[-1.5964129,52.2513415],[-1.6083233,52.2462576],[-1.6103736,52.2556458],[-1.6237593,52.2584102],[-1.6261552,52.2685988],[-1.6156399,52.2777707],[-1.6093059,52.2901668],[-1.6070304,52.2961491],[-1.6141506,52.2991205],[-1.6116823,52.3022652],[-1.6048683,52.3024714]]],"type":"Polygon"},"id":"E02006532","properties":{"code":"E02006532","geography":"MSOA","name":"Warwick 014"},"type":"Feature"},{"geometry":{"coordinates":[[[-1.5094073,52.2755519],[-1.5197879,52.2757519],[-1.5184922,52.2725413],[-1.5276871,52.2745549],[-1.5361368,52.271929],[-1.5384164,52.2641249],[-1.4988745,52.2410063],[-1.4911484,52.2469926],[-1.5146343,52.2623282],[-1.5075142,52.2667658],[-1.5125004,52.2697759],[-1.5094073,52.2755519]]],"type":"Polygon"},"id":"E02006533","properties":{"code":"E02006533","geography":"MSOA","name":"Warwick 015"},"type":"Feature"}],"type":"FeatureCollection"}
