{"features":[{"geometry":{"coordinates":[[[0.9641458,51.9731068],[0.962458,51.9771532],[0.943263,51.9707197],[0.9301472,51.9712242],[0.9228067,51.9762024],[0.9076412,51.9729587],[0.8896568,51.9733742],[0.8802692,51.9664839],[0.8698543,51.9692283],[0.8608689,51.9664803],[0.8657318,51.9625983],[0.8609428,51.9612074],[0.8586151,51.9507553],[0.8536479,51.9473253],[0.8515143,51.9372801],[0.8562881,51.9350596],[0.8503389,51.9302023],[0.8576271,51.9215018],[0.871927,51.917237],[0.890351,51.922171],[0.8896445,51.9263997],[0.9117604,51.9289806],[0.929422,51.926321],[0.9352529,51.9224948],[0.9491962,51.9350066],[0.9692384,51.9397126],[0.9854975,51.9397248],[1.005703,51.9355929],[1.0227897,51.9464464],[1.024682,51.9548893],[1.0115316,51.9550574],[0.9986801,51.9639549],[0.9890543,51.961367],[0.9709519,51.9623959],[0.9712748,51.9697921],[0.9641458,51.9731068]]],"type":"Polygon"},"id":"E02004506","properties":{"code":"E02004506","geography":"MSOA","name":"Colchester 001"},"type":"Feature"},{"geometry":{"coordinates":[[[0.9352529,51.9224948],[0.929422,51.926321],[0.9117604,51.9289806],[0.9200039,51.9225055],[0.908845,51.9191176],[0.9110694,51.9043716],[0.9165369,51.8992034],[0.9232255,51.901851],[0.932211,51.9182023],[0.9352529,51.9224948]]],"type":"Polygon"},"id":"E02004507","properties":{"code":"E02004507","geography":"MSOA","name":"Colchester 002"},"type":"Feature"},{"geometry":{"coordinates":[[[0.8608689,51.9664803],[0.8581395,51.9628669],[0.8489669,51.960761],[0.8216101,51.9687071],[0.8151709,51.9669809],[0.8122846,51.9609243],[0.8076561,51.9617528],[0.7968175,51.9634308],[0.7928426,51.9627039],[0.7918194,51.9537598],[0.7879609,51.9531018],[0.7926118,51.9445932],[0.7889713,51.9431615],[0.7909783,51.9358358],[0.7849049,51.9312268],[0.7776973,51.9148461],[0.782493,51.9083628],[0.8029919,51.9091472],[0.8051942,51.9017756],[0.7954608,51.9011491],[0.7904146,51.8942221],[0.7922302,51.8882235],[0.7870068,51.8854311],[0.7920313,51.883623],[0.8233109,51.891412],[0.8446827,51.8967043],[0.8675343,51.9019284],[0.871927,51.917237],[0.8576271,51.9215018],[0.8503389,51.9302023],[0.8562881,51.9350596],[0.8515143,51.9372801],[0.8536479,51.9473253],[0.8586151,51.9507553],[0.8609428,51.9612074],[0.8657318,51.9625983],[0.8608689,51.9664803]]],"type":"Polygon"},"id":"E02004508","properties":{"code":"E02004508","geography":"MSOA","name":"Colchester 003"},"type":"Feature"},{"geometry":{"coordinates":[[[0.908952,51.8993066],[0.8797734,51.9020748],[0.8673016,51.9016663],[0.8873635,51.8949203],[0.8892433,51.8910284],[0.8823908,51.887536],[0.8952391,51.8868583],[0.917329,51.8876875],[0.9154838,51.8962985],[0.908952,51.8993066]]],"type":"Polygon"},"id":"E02004512","properties":{"code":"E02004512","geography":"MSOA","name":"Colchester 007"},"type":"Feature"},{"geometry":{"coordinates":[[[0.948474,51.8886355],[0.9348328,51.8971098],[0.9256289,51.8907224],[0.9297982,51.8858659],[0.9266851,51.884953],[0.9293745,51.8793439],[0.9355467,51.8764432],[0.936579,51.8823557],[0.948474,51.8886355]]],"type":"Polygon"},"id":"E02004513","properties":{"code":"E02004513","geography":"MSOA","name":"Colchester 008"},"type":"Feature"},{"geometry":{"coordinates":[[[0.8673016,51.9016663],[0.8675343,51.9019284],[0.8446827,51.8967043],[0.8485491,51.8822501],[0.8600206,51.8837241],[0.8622148,51.8864644],[0.8751472,51.8813026],[0.8823908,51.887536],[0.8892433,51.8910284],[0.8873635,51.8949203],[0.8673016,51.9016663]]],"type":"Polygon"},"id":"E02004514","properties":{"code":"E02004514","geography":"MSOA","name":"Colchester 009"},"type":"Feature"},{"geometry":{"coordinates":[[[0.7968175,51.9634308],[0.787129,51.9631226],[0.7850901,51.9674832],[0.781438,51.9665013],[0.7775428,51.9598738],[0.7684771,51.9618965],[0.7640182,51.9543131],[0.7496764,51.9547779],[0.7468892,51.9453595],[0.7402429,51.9399837],[0.7401119,51.9316275],[0.722197,51.9101646],[0.7289839,51.908042],[0.7225763,51.9035765],[0.6995689,51.9034572],[0.6999303,51.8997148],[0.7105267,51.8952672],[0.7118409,51.8865345],[0.7227298,51.8787822],[0.7181618,51.8779314],[0.723471,51.8739066],[0.7163741,51.8712519],[0.7304334,51.8675428],[0.7365785,51.8716687],[0.7517579,51.8645304],[0.7452077,51.8563751],[0.7503162,51.8535914],[0.7445866,51.851799],[0.7556391,51.8483424],[0.7844673,51.8578842],[0.8192026,51.8636193],[0.8131821,51.8705355],[0.8200257,51.8729187],[0.8175097,51.87908],[0.8336296,51.8797481],[0.8355739,51.8832947],[0.8256319,51.8852805],[0.8233109,51.891412],[0.7920313,51.883623],[0.7870068,51.8854311],[0.7922302,51.8882235],[0.7904146,51.8942221],[0.7954608,51.9011491],[0.8051942,51.9017756],[0.8029919,51.9091472],[0.782493,51.9083628],[0.7776973,51.9148461],[0.7849049,51.9312268],[0.7909783,51.9358358],[0.7889713,51.9431615],[0.7926118,51.9445932],[0.7879609,51.9531018],[0.7918194,51.9537598],[0.7928426,51.9627039],[0.7968175,51.9634308]]],"type":"Polygon"},"id":"E02004515","properties":{"code":"E02004515","geography":"MSOA","name":"Colchester 010"},"type":"Feature"},{"geometry":{"coordinates":[[[0.9266851,51.884953],[0.917329,51.8876875],[0.8952391,51.8868583],[0.8941557,51.8850002],[0.8997349,51.8853698],[0.9016469,51.8788277],[0.903957,51.8803712],[0.9082041,51.87717],[0.9293745,51.8793439],[0.9266851,51.884953]]],"type":"Polygon"},"id":"E02004516","properties":{"code":"E02004516","geography":"MSOA","name":"Colchester 011"},"type":"Feature"},{"geometry":{"coordinates":[[[0.8485491,51.8822501],[0.8446827,51.8967043],[0.8233109,51.891412],[0.8256319,51.8852805],[0.8355739,51.8832947],[0.8336296,51.8797481],[0.8175097,51.87908],[0.8200257,51.8729187],[0.8131821,51.8705355],[0.8192026,51.8636193],[0.8369274,51.8569633],[0.8667963,51.8525378],[0.8690026,51.861435],[0.8563674,51.8644903],[0.8546547,51.8695138],[0.8485491,51.8822501]]],"type":"Polygon"},"id":"E02004517","properties":{"code":"E02004517","geography":"MSOA","name":"Colchester 012"},"type":"Feature"},{"geometry":{"coordinates":[[[0.8952391,51.8868583],[0.8823908,51.887536],[0.8751472,51.8813026],[0.8746717,51.8787755],[0.8805596,51.8797326],[0.8762726,51.8746027],[0.8787509,51.8719858],[0.898146,51.8756272],[0.9016469,51.8788277],[0.8997349,51.8853698],[0.8941557,51.8850002],[0.8952391,51.8868583]]],"type":"Polygon"},"id":"E02004518","properties":{"code":"E02004518","geography":"MSOA","name":"Colchester 013"},"type":"Feature"},{"geometry":{"coordinates":[[[0.8751472,51.8813026],[0.8622148,51.8864644],[0.8600206,51.8837241],[0.8485491,51.8822501],[0.8546547,51.8695138],[0.8746717,51.8787755],[0.8751472,51.8813026]]],"type":"Polygon"},"id":"E02004519","properties":{"code":"E02004519","geography":"MSOA","name":"Colchester 014"},"type":"Feature"},{"geometry":{"coordinates":[[[0.898146,51.8756272],[0.8787509,51.8719858],[0.8762726,51.8746027],[0.8805596,51.8797326],[0.8746717,51.8787755],[0.8546547,51.8695138],[0.8563674,51.8644903],[0.8690026,51.861435],[0.8667963,51.8525378],[0.8811676,51.8479851],[0.883239,51.8617232],[0.8962601,51.8697993],[0.898146,51.8756272]]],"type":"Polygon"},"id":"E02004520","properties":{"code":"E02004520","geography":"MSOA","name":"Colchester 015"},"type":"Feature"},{"geometry":{"coordinates":[[[0.9355467,51.8764432],[0.9293745,51.8793439],[0.9082041,51.87717],[0.9136292,51.8634576],[0.8974648,51.8447846],[0.927628,51.8456346],[0.9302024,51.8429065],[0.937615,51.8477716],[0.9426385,51.8462978],[0.9522636,51.8487857],[0.9541691,51.8542082],[0.9492999,51.8565078],[0.9508216,51.8628632],[0.9355467,51.8764432]]],"type":"Polygon"},"id":"E02004521","properties":{"code":"E02004521","geography":"MSOA","name":"Colchester 016"},"type":"Feature"},{"geometry":{"coordinates":[[[0.966552,51.8516473],[0.9780751,51.8540325],[0.9739487,51.8604448],[0.9791437,51.8703363],[0.9528245,51.8802987],[0.9580912,51.8811051],[0.9626091,51.8907167],[0.953077,51.8916932],[0.948474,51.8886355],[0.936579,51.8823557],[0.9355467,51.8764432],[0.9508216,51.8628632],[0.9492999,51.8565078],[0.9541691,51.8542082],[0.9575636,51.8533054],[0.9554389,51.8541118],[0.9661713,51.8517648],[0.966552,51.8516473]]],"type":"Polygon"},"id":"E02004522","properties":{"code":"E02004522","geography":"MSOA","name":"Colchester 017"},"type":"Feature"},{"geometry":{"coordinates":[[[0.9082041,51.87717],[0.903957,51.8803712],[0.9016469,51.8788277],[0.898146,51.8756272],[0.8962601,51.8697993],[0.883239,51.8617232],[0.8811676,51.8479851],[0.8974648,51.8447846],[0.9136292,51.8634576],[0.9082041,51.87717]]],"type":"Polygon"},"id":"E02004523","properties":{"code":"E02004523","geography":"MSOA","name":"Colchester 018"},"type":"Feature"},{"geometry":{"coordinates":[[[0.7790612,51.8115541],[0.7742877,51.8156827],[0.7621709,51.8112468],[0.754338,51.8129927],[0.7572469,51.817009],[0.7501734,51.8205916],[0.7551567,51.8221405],[0.74998,51.8275328],[0.741294,51.8225222],[0.7329744,51.8241809],[0.7203151,51.8173316],[0.7107642,51.8173344],[0.7216359,51.8099964],[0.7133023,51.8084509],[0.7190086,51.8051533],[0.7181432,51.7973547],[0.7542028,51.8009604],[0.7790612,51.8115541]]],"type":"Polygon"},"id":"E02004525","properties":{"code":"E02004525","geography":"MSOA","name":"Colchester 020"},"type":"Feature"},{"geometry":{"coordinates":[[[[0.9187088,51.7990972],[0.9129634,51.8013463],[0.8996268,51.7888078],[0.9187088,51.7990972]]],[[[0.9134247,51.8013507],[0.9132392,51.8013691],[0.9132471,51.8013275],[0.9134247,51.8013507]]],[[[0.9542532,51.8077263],[0.945327,51.8068264],[0.944564,51.8057545],[0.9439562,51.8064798],[0.9257263,51.8007781],[0.9195077,51.7940512],[0.9018432,51.786147],[0.8980698,51.7797224],[0.9022177,51.7743632],[0.9457616,51.7747166],[0.9515913,51.7766132],[0.9563122,51.8019648],[0.9542532,51.8077263]]]],"type":"MultiPolygon"},"id":"E02004526","properties":{"code":"E02004526","geography":"MSOA","name":"Colchester 021"},"type":"Feature"},{"geometry":{"coordinates":[[[0.953077,51.8916932],[0.9487457,51.8969676],[0.957113,51.9036365],[0.944109,51.9062131],[0.947973,51.9100009],[0.9314799,51.9132179],[0.932211,51.9182023],[0.9232255,51.901851],[0.9165369,51.8992034],[0.908952,51.8993066],[0.9154838,51.8962985],[0.917329,51.8876875],[0.9266851,51.884953],[0.9297982,51.8858659],[0.9256289,51.8907224],[0.9348328,51.8971098],[0.948474,51.8886355],[0.953077,51.8916932]]],"type":"Polygon"},"id":"E02006922","properties":{"code":"E02006922","geography":"MSOA","name":"Colchester 022"},"type":"Feature"},{"geometry":{"coordinates":[[[0.908845,51.9191176],[0.9200039,51.9225055],[0.9117604,51.9289806],[0.8896445,51.9263997],[0.890351,51.922171],[0.871927,51.917237],[0.8675343,51.9019284],[0.8673016,51.9016663],[0.8797734,51.9020748],[0.8847821,51.9053815],[0.8937119,51.9057699],[0.8946583,51.9127073],[0.908845,51.9191176]]],"type":"Polygon"},"id":"E02007056","properties":{"code":"E02007056","geography":"MSOA","name":"Colchester 023"},"type":"Feature"},{"geometry":{"coordinates":[[[0.9165369,51.8992034],[0.9110694,51.9043716],[0.908845,51.9191176],[0.8946583,51.9127073],[0.8937119,51.9057699],[0.8847821,51.9053815],[0.8797734,51.9020748],[0.908952,51.8993066],[0.9165369,51.8992034]]],"type":"Polygon"},"id":"E02007057","properties":{"code":"E02007057","geography":"MSOA","name":"Colchester 024"},"type":"Feature"}],"type":"FeatureCollection"}
