{"features":[{"geometry":{"coordinates":[[[0.0849776,53.4969768],[0.078286,53.5072839],[0.0837682,53.5117492],[0.0896802,53.5105797],[0.0850052,53.5163314],[0.0794645,53.5166311],[0.0824963,53.5126632],[0.0778108,53.5112272],[0.0705759,53.5137621],[0.0699305,53.517541],[0.0565825,53.5212461],[0.0563515,53.5191257],[0.0377699,53.5266935],[0.0508948,53.5193956],[0.0473888,53.5146335],[0.0574972,53.517708],[0.051409,53.5143317],[0.0612519,53.5142972],[0.0523832,53.5138925],[0.0523228,53.51364],[0.049546,53.511797],[0.0382785,53.5138138],[0.0393914,53.5115593],[0.0323965,53.5179181],[0.0219852,53.5198774],[0.0172801,53.5253338],[0.0164259,53.5262977],[0.0163677,53.5263634],[0.004875,53.5195415],[-0.0174212,53.5150605],[-0.0195432,53.5179494],[-0.0286339,53.5173119],[-0.0396848,53.5130771],[-0.0424026,53.5163275],[-0.0466083,53.520073],[-0.0605399,53.519724],[-0.0670911,53.5168129],[-0.0752579,53.4893106],[-0.0954849,53.4859641],[-0.0898002,53.4776576],[-0.107861,53.4698693],[-0.0822062,53.4511261],[-0.1203371,53.4335752],[-0.1226325,53.4372308],[-0.1318051,53.435913],[-0.1609613,53.4365463],[-0.1805215,53.4406781],[-0.1986962,53.4310289],[-0.2148476,53.4282264],[-0.2170617,53.4240835],[-0.2081531,53.4093869],[-0.1840244,53.4091637],[-0.1773425,53.4056547],[-0.1744811,53.3969304],[-0.1408453,53.4033794],[-0.1478929,53.3908823],[-0.1459625,53.3748903],[-0.1186192,53.3631641],[-0.1127714,53.3638773],[-0.1065315,53.3784949],[-0.1121319,53.3857111],[-0.0947792,53.3896896],[-0.102029,53.4000716],[-0.0816889,53.4065365],[-0.0635431,53.4096658],[-0.056324,53.4006785],[-0.0471998,53.4014338],[-0.0253613,53.395461],[-0.0181228,53.3880429],[-0.0150823,53.3881258],[0.001581,53.3895905],[0.0204392,53.3977819],[0.0116762,53.4080125],[0.0176491,53.4107528],[0.01407,53.4202473],[0.002067,53.4171832],[-0.0133766,53.4381183],[0.0362923,53.452715],[0.0324552,53.457564],[0.0241223,53.4581182],[0.0193358,53.4726538],[0.055217,53.4834878],[0.0849776,53.4969768]]],"type":"Polygon"},"id":"E02005424","properties":{"code":"E02005424","geography":"MSOA","name":"East Lindsey 001"},"type":"Feature"},{"geometry":{"coordinates":[[[0.1847258,53.4446269],[0.183797,53.4479282],[0.1911017,53.4498712],[0.1820574,53.4524777],[0.1795325,53.4584061],[0.1850282,53.4570084],[0.1729179,53.4670153],[0.1786224,53.4648149],[0.1720933,53.4719049],[0.1667594,53.4710227],[0.159401,53.4771958],[0.1573636,53.4789046],[0.1582008,53.4812944],[0.1675605,53.4770478],[0.1681691,53.4767716],[0.1678877,53.4770418],[0.1539935,53.4903795],[0.147542,53.494089],[0.1441847,53.4927172],[0.1481387,53.4877599],[0.1434772,53.4817995],[0.1300943,53.4840104],[0.1275769,53.4904778],[0.1320475,53.4964468],[0.136313,53.495673],[0.1258126,53.4995993],[0.1218051,53.4981233],[0.1213544,53.5007528],[0.1093895,53.5040925],[0.1087917,53.5042593],[0.1093674,53.5036459],[0.1179185,53.4945323],[0.112384,53.491134],[0.1158519,53.4897259],[0.1100405,53.489416],[0.1215349,53.4838642],[0.1086757,53.4897017],[0.1041949,53.4917352],[0.1086563,53.4893106],[0.1187842,53.4838051],[0.1085624,53.4874157],[0.1084725,53.4874474],[0.1075921,53.4854586],[0.1056798,53.4885723],[0.1050615,53.4878378],[0.1049126,53.4877192],[0.102843,53.4915297],[0.0993114,53.4896769],[0.1018914,53.492192],[0.0972514,53.488254],[0.0925749,53.4891604],[0.1017758,53.4927523],[0.0965494,53.4912906],[0.0957633,53.4946982],[0.0900091,53.4926172],[0.0931337,53.49399],[0.0850009,53.4969409],[0.0849776,53.4969768],[0.055217,53.4834878],[0.0193358,53.4726538],[0.0241223,53.4581182],[0.0324552,53.457564],[0.0362923,53.452715],[-0.0133766,53.4381183],[0.002067,53.4171832],[0.01407,53.4202473],[0.0176491,53.4107528],[0.0116762,53.4080125],[0.0204392,53.3977819],[0.0374906,53.3891917],[0.0368358,53.3857344],[0.0494657,53.3827648],[0.0498535,53.3719624],[0.0568188,53.3684234],[0.0614188,53.3701809],[0.0730514,53.3559733],[0.1054812,53.3562378],[0.1109003,53.3523898],[0.1232899,53.3621122],[0.1344878,53.3598933],[0.1253054,53.3818236],[0.1509679,53.3976889],[0.1331749,53.40718],[0.1435043,53.4140356],[0.1754562,53.4220991],[0.1451613,53.4256348],[0.1436991,53.4293089],[0.1847258,53.4446269]]],"type":"Polygon"},"id":"E02005425","properties":{"code":"E02005425","geography":"MSOA","name":"East Lindsey 002"},"type":"Feature"},{"geometry":{"coordinates":[[[0.0129706,53.3478893],[0.0252181,53.3535277],[0.0290629,53.3616576],[0.0250834,53.3658988],[0.01581,53.3674591],[0.0229017,53.373582],[0.0158313,53.3737996],[0.0030174,53.3832688],[-0.0150823,53.3881258],[-0.0181228,53.3880429],[-0.0240641,53.3868417],[-0.0293505,53.3756968],[-0.0220622,53.3748616],[-0.0173776,53.366161],[0.003399,53.3739955],[0.0126051,53.3666385],[0.0024199,53.3616782],[0.0129706,53.3478893]]],"type":"Polygon"},"id":"E02005426","properties":{"code":"E02005426","geography":"MSOA","name":"East Lindsey 003"},"type":"Feature"},{"geometry":{"coordinates":[[[0.0129706,53.3478893],[0.0024199,53.3616782],[0.0126051,53.3666385],[0.003399,53.3739955],[-0.0173776,53.366161],[-0.027432,53.360079],[-0.0268248,53.3548421],[-0.0118749,53.3552159],[-0.0041034,53.3475173],[0.0089205,53.3459404],[0.0129706,53.3478893]]],"type":"Polygon"},"id":"E02005427","properties":{"code":"E02005427","geography":"MSOA","name":"East Lindsey 004"},"type":"Feature"},{"geometry":{"coordinates":[[[0.2683169,53.3375551],[0.2436696,53.3721907],[0.2435863,53.3723749],[0.234615,53.3921982],[0.2312764,53.3905965],[0.2270425,53.3966408],[0.2286679,53.4014636],[0.2328567,53.397398],[0.2289331,53.4020675],[0.2285418,53.4025331],[0.2176671,53.4133893],[0.2145901,53.4096291],[0.2081118,53.4104845],[0.2120462,53.415957],[0.2064538,53.4099632],[0.2076305,53.413276],[0.2038086,53.4119414],[0.2085094,53.4155712],[0.201372,53.4151384],[0.2105804,53.4169425],[0.189539,53.4172934],[0.2105931,53.4173028],[0.2048142,53.4182332],[0.2124746,53.4213676],[0.2043667,53.4299443],[0.1947775,53.4299727],[0.1878079,53.4376822],[0.1901757,53.4402486],[0.2004107,53.4368222],[0.1938485,53.4428272],[0.1850489,53.4434784],[0.1847258,53.4446269],[0.1436991,53.4293089],[0.1451613,53.4256348],[0.1754562,53.4220991],[0.1435043,53.4140356],[0.1331749,53.40718],[0.1509679,53.3976889],[0.1253054,53.3818236],[0.1344878,53.3598933],[0.1232899,53.3621122],[0.1109003,53.3523898],[0.1054812,53.3562378],[0.0730514,53.3559733],[0.082274,53.3420384],[0.0869596,53.3348618],[0.1023266,53.3416087],[0.1140436,53.3333552],[0.1200423,53.3343852],[0.1463495,53.352988],[0.1882614,53.3694714],[0.1892085,53.3621935],[0.176486,53.3559638],[0.1804547,53.3490198],[0.1881802,53.3420697],[0.2108357,53.34511],[0.2152825,53.3407113],[0.2057138,53.3370961],[0.2264858,53.3206919],[0.2661805,53.3349018],[0.2683169,53.3375551]]],"type":"Polygon"},"id":"E02005428","properties":{"code":"E02005428","geography":"MSOA","name":"East Lindsey 005"},"type":"Feature"},{"geometry":{"coordinates":[[[0.3000501,53.2943544],[0.3000274,53.294383],[0.2997392,53.2947634],[0.2812948,53.3192935],[0.2806224,53.3202401],[0.2683169,53.3375551],[0.2661805,53.3349018],[0.2264858,53.3206919],[0.2296092,53.3162924],[0.2258798,53.3095915],[0.2447798,53.2977382],[0.2557875,53.2956028],[0.2590081,53.2848994],[0.3000501,53.2943544]]],"type":"Polygon"},"id":"E02005429","properties":{"code":"E02005429","geography":"MSOA","name":"East Lindsey 006"},"type":"Feature"},{"geometry":{"coordinates":[[[-0.1127714,53.3638773],[-0.1186192,53.3631641],[-0.1459625,53.3748903],[-0.1478929,53.3908823],[-0.1408453,53.4033794],[-0.1744811,53.3969304],[-0.1773425,53.4056547],[-0.1840244,53.4091637],[-0.2081531,53.4093869],[-0.2185634,53.3997977],[-0.2293929,53.3980341],[-0.2234404,53.3858463],[-0.2048708,53.3718625],[-0.2316344,53.3513748],[-0.2558986,53.3441173],[-0.2497778,53.3335866],[-0.255252,53.3300159],[-0.2755294,53.3218094],[-0.2933126,53.3344528],[-0.2993271,53.3253616],[-0.3102609,53.3199784],[-0.2955734,53.3029579],[-0.317461,53.298227],[-0.3114562,53.2876392],[-0.316571,53.2795038],[-0.301874,53.2752365],[-0.3048317,53.2692941],[-0.2991105,53.2685876],[-0.3008265,53.2639494],[-0.289819,53.2639645],[-0.3004351,53.2620638],[-0.2917285,53.2609648],[-0.2871427,53.2575054],[-0.2909047,53.2547408],[-0.2802404,53.2497378],[-0.2824737,53.2400069],[-0.2760271,53.2342637],[-0.2798221,53.2266023],[-0.28913,53.222758],[-0.3021943,53.210405],[-0.2908966,53.1946433],[-0.2896543,53.1793419],[-0.2743885,53.1706275],[-0.2467309,53.1480552],[-0.2118945,53.1741865],[-0.1776244,53.1638349],[-0.1967455,53.1550122],[-0.1914396,53.1513365],[-0.1675851,53.162225],[-0.1377537,53.1582358],[-0.1464501,53.1520423],[-0.1383812,53.1478169],[-0.1126986,53.1452022],[-0.1072597,53.1614972],[-0.1247336,53.1683866],[-0.1188953,53.1846819],[-0.1244405,53.1862134],[-0.1149122,53.19144],[-0.1239045,53.2043643],[-0.1377068,53.2019782],[-0.1367328,53.2105313],[-0.1689992,53.2000162],[-0.1812691,53.2083815],[-0.1300966,53.2295271],[-0.1309812,53.2336299],[-0.1363716,53.2345216],[-0.1333476,53.2353363],[-0.1366997,53.2402625],[-0.1475769,53.2453227],[-0.1537772,53.2546228],[-0.1541789,53.2713706],[-0.1434014,53.2759562],[-0.0934093,53.2669691],[-0.0819675,53.2706611],[-0.0833819,53.2736363],[-0.0634116,53.2739224],[-0.0549032,53.2785234],[-0.0562941,53.2949316],[-0.1085954,53.3293604],[-0.1127714,53.3638773]]],"type":"Polygon"},"id":"E02005430","properties":{"code":"E02005430","geography":"MSOA","name":"East Lindsey 007"},"type":"Feature"},{"geometry":{"coordinates":[[[0.2264858,53.3206919],[0.2057138,53.3370961],[0.2152825,53.3407113],[0.2108357,53.34511],[0.1881802,53.3420697],[0.1804547,53.3490198],[0.176486,53.3559638],[0.1892085,53.3621935],[0.1882614,53.3694714],[0.1463495,53.352988],[0.1200423,53.3343852],[0.1140436,53.3333552],[0.1023266,53.3416087],[0.0869596,53.3348618],[0.082274,53.3420384],[0.0599338,53.3325066],[0.0804414,53.3174893],[0.0867464,53.3185532],[0.0910728,53.3160661],[0.0662119,53.2950045],[0.092581,53.2875294],[0.090254,53.2831775],[0.0953317,53.2771547],[0.0992254,53.2791143],[0.1198894,53.2747059],[0.1310128,53.2770058],[0.1320355,53.2733491],[0.1402554,53.2722975],[0.1273536,53.262956],[0.1300183,53.2557789],[0.1263697,53.250983],[0.144463,53.2413896],[0.1480946,53.2334035],[0.1566686,53.2334644],[0.1606459,53.2252819],[0.1487779,53.2238548],[0.1527726,53.2152462],[0.1576764,53.2150316],[0.1604513,53.2103142],[0.1725017,53.2131364],[0.1720378,53.2077354],[0.1606346,53.2032388],[0.172935,53.1967619],[0.1681126,53.195333],[0.1696164,53.1835694],[0.1629548,53.1751044],[0.1861301,53.1666031],[0.185238,53.1642108],[0.2096273,53.1676377],[0.2177712,53.1629987],[0.2219761,53.1691061],[0.208158,53.1791765],[0.2654952,53.1733246],[0.2863609,53.1775515],[0.2942656,53.1787178],[0.2926991,53.1814765],[0.3011166,53.1847568],[0.2971163,53.1914559],[0.2847313,53.1877581],[0.2801842,53.1903087],[0.2797804,53.1862604],[0.2721297,53.1838695],[0.2705599,53.1867861],[0.2622259,53.1833416],[0.2603072,53.1849343],[0.2703544,53.2006047],[0.2661604,53.2026191],[0.2700989,53.2023329],[0.2830962,53.2135703],[0.2589247,53.2199152],[0.2659051,53.2236158],[0.2743308,53.2231347],[0.2664659,53.2245448],[0.2745125,53.2260163],[0.2916575,53.2207876],[0.2908834,53.2275962],[0.2891783,53.2250907],[0.2891442,53.2291193],[0.2842329,53.2299876],[0.2890096,53.2335621],[0.2837925,53.237845],[0.2878321,53.2397006],[0.2884897,53.2358255],[0.2941051,53.2351669],[0.3013247,53.2394422],[0.309175,53.2375965],[0.3030696,53.2408133],[0.3024234,53.2483171],[0.2936646,53.253525],[0.2821513,53.2492887],[0.2674467,53.2551256],[0.2774777,53.2606848],[0.3218963,53.2668009],[0.3000501,53.2943544],[0.2590081,53.2848994],[0.2557875,53.2956028],[0.2447798,53.2977382],[0.2258798,53.3095915],[0.2296092,53.3162924],[0.2264858,53.3206919]]],"type":"Polygon"},"id":"E02005431","properties":{"code":"E02005431","geography":"MSOA","name":"East Lindsey 008"},"type":"Feature"},{"geometry":{"coordinates":[[[-0.0181228,53.3880429],[-0.0253613,53.395461],[-0.0471998,53.4014338],[-0.056324,53.4006785],[-0.0635431,53.4096658],[-0.0816889,53.4065365],[-0.102029,53.4000716],[-0.0947792,53.3896896],[-0.1121319,53.3857111],[-0.1065315,53.3784949],[-0.1127714,53.3638773],[-0.1085954,53.3293604],[-0.0562941,53.2949316],[-0.0549032,53.2785234],[-0.0634116,53.2739224],[-0.0833819,53.2736363],[-0.0819675,53.2706611],[-0.0934093,53.2669691],[-0.1434014,53.2759562],[-0.1541789,53.2713706],[-0.1537772,53.2546228],[-0.1475769,53.2453227],[-0.1366997,53.2402625],[-0.1333476,53.2353363],[-0.1363716,53.2345216],[-0.1309812,53.2336299],[-0.1300966,53.2295271],[-0.1140582,53.2200983],[-0.1070078,53.2218617],[-0.1016892,53.2090714],[-0.0977974,53.2100899],[-0.0952812,53.2044209],[-0.1025608,53.1891204],[-0.1139292,53.1885961],[-0.1149122,53.19144],[-0.1244405,53.1862134],[-0.1188953,53.1846819],[-0.1247336,53.1683866],[-0.1072597,53.1614972],[-0.0903022,53.1602095],[-0.0759689,53.1703017],[-0.0640765,53.171729],[-0.0146198,53.1699299],[-0.0172637,53.1657315],[-0.0074663,53.1649083],[-0.0083682,53.1628346],[-0.0301154,53.1436687],[-0.0258463,53.1268206],[-0.0368916,53.1255323],[-0.0342256,53.1175688],[-0.0225391,53.1192138],[-0.0214377,53.1143957],[0.0001148,53.117414],[0.0137153,53.1323795],[0.0350544,53.1217179],[0.0426622,53.1244062],[0.0759142,53.1236115],[0.0773686,53.1277974],[0.0672488,53.1280016],[0.0656994,53.1338148],[0.0752469,53.1583819],[0.0704527,53.162918],[0.0757185,53.1648433],[0.0745519,53.1673851],[0.0832294,53.167545],[0.0926362,53.1873435],[0.1029192,53.1859302],[0.1073127,53.1892324],[0.1140318,53.1874226],[0.1181227,53.1806626],[0.1308516,53.1734462],[0.1285719,53.1697685],[0.1345579,53.1634075],[0.1629548,53.1751044],[0.1696164,53.1835694],[0.1681126,53.195333],[0.172935,53.1967619],[0.1606346,53.2032388],[0.1720378,53.2077354],[0.1725017,53.2131364],[0.1604513,53.2103142],[0.1576764,53.2150316],[0.1527726,53.2152462],[0.1487779,53.2238548],[0.1606459,53.2252819],[0.1566686,53.2334644],[0.1480946,53.2334035],[0.144463,53.2413896],[0.1263697,53.250983],[0.1300183,53.2557789],[0.1273536,53.262956],[0.1402554,53.2722975],[0.1320355,53.2733491],[0.1310128,53.2770058],[0.1198894,53.2747059],[0.0992254,53.2791143],[0.0953317,53.2771547],[0.090254,53.2831775],[0.092581,53.2875294],[0.0662119,53.2950045],[0.0910728,53.3160661],[0.0867464,53.3185532],[0.0804414,53.3174893],[0.0599338,53.3325066],[0.082274,53.3420384],[0.0730514,53.3559733],[0.0614188,53.3701809],[0.0568188,53.3684234],[0.0498535,53.3719624],[0.0494657,53.3827648],[0.0368358,53.3857344],[0.0374906,53.3891917],[0.0204392,53.3977819],[0.001581,53.3895905],[-0.0150823,53.3881258],[0.0030174,53.3832688],[0.0158313,53.3737996],[0.0229017,53.373582],[0.01581,53.3674591],[0.0250834,53.3658988],[0.0290629,53.3616576],[0.0252181,53.3535277],[0.0129706,53.3478893],[0.0089205,53.3459404],[-0.0041034,53.3475173],[-0.0118749,53.3552159],[-0.0268248,53.3548421],[-0.027432,53.360079],[-0.0173776,53.366161],[-0.0220622,53.3748616],[-0.0293505,53.3756968],[-0.0240641,53.3868417],[-0.0181228,53.3880429]]],"type":"Polygon"},"id":"E02005432","properties":{"code":"E02005432","geography":"MSOA","name":"East Lindsey 009"},"type":"Feature"},{"geometry":{"coordinates":[[[0.3527427,53.1730378],[0.3556256,53.1920313],[0.3473979,53.2083316],[0.3470134,53.2095367],[0.3371829,53.2403244],[0.322179,53.2664441],[0.3218963,53.2668009],[0.2774777,53.2606848],[0.2674467,53.2551256],[0.2821513,53.2492887],[0.2936646,53.253525],[0.3024234,53.2483171],[0.3030696,53.2408133],[0.309175,53.2375965],[0.3013247,53.2394422],[0.2941051,53.2351669],[0.2884897,53.2358255],[0.2878321,53.2397006],[0.2837925,53.237845],[0.2890096,53.2335621],[0.2842329,53.2299876],[0.2891442,53.2291193],[0.2891783,53.2250907],[0.2908834,53.2275962],[0.2916575,53.2207876],[0.2745125,53.2260163],[0.2664659,53.2245448],[0.2743308,53.2231347],[0.2659051,53.2236158],[0.2589247,53.2199152],[0.2830962,53.2135703],[0.2700989,53.2023329],[0.2661604,53.2026191],[0.2703544,53.2006047],[0.2603072,53.1849343],[0.2622259,53.1833416],[0.2705599,53.1867861],[0.2721297,53.1838695],[0.2797804,53.1862604],[0.2801842,53.1903087],[0.2847313,53.1877581],[0.2971163,53.1914559],[0.3011166,53.1847568],[0.2926991,53.1814765],[0.2942656,53.1787178],[0.2863609,53.1775515],[0.2872369,53.1755299],[0.301053,53.1753563],[0.2944022,53.1736567],[0.2962979,53.1684333],[0.2884466,53.1680306],[0.299153,53.1675481],[0.308668,53.1714939],[0.3144053,53.1652938],[0.3154644,53.1734423],[0.324361,53.1736422],[0.3334134,53.1800436],[0.3527427,53.1730378]]],"type":"Polygon"},"id":"E02005433","properties":{"code":"E02005433","geography":"MSOA","name":"East Lindsey 010"},"type":"Feature"},{"geometry":{"coordinates":[[[-0.1149122,53.19144],[-0.1139292,53.1885961],[-0.1025608,53.1891204],[-0.0952812,53.2044209],[-0.0977974,53.2100899],[-0.1016892,53.2090714],[-0.1070078,53.2218617],[-0.1140582,53.2200983],[-0.1300966,53.2295271],[-0.1812691,53.2083815],[-0.1689992,53.2000162],[-0.1367328,53.2105313],[-0.1377068,53.2019782],[-0.1239045,53.2043643],[-0.1149122,53.19144]]],"type":"Polygon"},"id":"E02005434","properties":{"code":"E02005434","geography":"MSOA","name":"East Lindsey 011"},"type":"Feature"},{"geometry":{"coordinates":[[[0.3527427,53.1730378],[0.3334134,53.1800436],[0.324361,53.1736422],[0.3154644,53.1734423],[0.3144053,53.1652938],[0.308668,53.1714939],[0.299153,53.1675481],[0.3015713,53.1551731],[0.3135436,53.1543143],[0.3164158,53.1574885],[0.3342601,53.1507944],[0.3311424,53.1479826],[0.3372482,53.1473646],[0.344694,53.1521956],[0.3503141,53.1515489],[0.3525624,53.1718494],[0.3527427,53.1730378]]],"type":"Polygon"},"id":"E02005435","properties":{"code":"E02005435","geography":"MSOA","name":"East Lindsey 012"},"type":"Feature"},{"geometry":{"coordinates":[[[0.1629548,53.1751044],[0.1345579,53.1634075],[0.1285719,53.1697685],[0.1308516,53.1734462],[0.1181227,53.1806626],[0.1140318,53.1874226],[0.1073127,53.1892324],[0.1029192,53.1859302],[0.0926362,53.1873435],[0.0832294,53.167545],[0.0745519,53.1673851],[0.0757185,53.1648433],[0.0704527,53.162918],[0.0752469,53.1583819],[0.0656994,53.1338148],[0.0672488,53.1280016],[0.0773686,53.1277974],[0.0759142,53.1236115],[0.075029,53.1211413],[0.0900092,53.1209348],[0.0888866,53.1263571],[0.1039813,53.127376],[0.1052532,53.1204674],[0.1186989,53.1234898],[0.1450328,53.1295086],[0.1550499,53.124782],[0.1681879,53.1401134],[0.1837396,53.1308089],[0.2043726,53.1339502],[0.2197731,53.1312744],[0.2434514,53.1324784],[0.24701,53.135283],[0.2434357,53.141823],[0.2370006,53.1407474],[0.2282147,53.1480841],[0.2359564,53.1553457],[0.248876,53.1474998],[0.2552158,53.1505133],[0.2665594,53.1471184],[0.2645264,53.144575],[0.2687155,53.1432851],[0.2746948,53.1451434],[0.2761827,53.1417767],[0.3001649,53.138773],[0.3035173,53.1458695],[0.3099868,53.1484451],[0.3015713,53.1551731],[0.299153,53.1675481],[0.2884466,53.1680306],[0.2962979,53.1684333],[0.2944022,53.1736567],[0.301053,53.1753563],[0.2872369,53.1755299],[0.2863609,53.1775515],[0.2654952,53.1733246],[0.208158,53.1791765],[0.2219761,53.1691061],[0.2177712,53.1629987],[0.2096273,53.1676377],[0.185238,53.1642108],[0.1861301,53.1666031],[0.1629548,53.1751044]]],"type":"Polygon"},"id":"E02005436","properties":{"code":"E02005436","geography":"MSOA","name":"East Lindsey 013"},"type":"Feature"},{"geometry":{"coordinates":[[[0.3503141,53.1515489],[0.344694,53.1521956],[0.3372482,53.1473646],[0.3311424,53.1479826],[0.3254832,53.1471602],[0.3204525,53.1367539],[0.3350761,53.1434898],[0.3414317,53.1423749],[0.3389155,53.1320271],[0.3485699,53.129322],[0.3495375,53.1445314],[0.349562,53.1447535],[0.3503141,53.1515489]]],"type":"Polygon"},"id":"E02005437","properties":{"code":"E02005437","geography":"MSOA","name":"East Lindsey 014"},"type":"Feature"},{"geometry":{"coordinates":[[[0.3311424,53.1479826],[0.3342601,53.1507944],[0.3164158,53.1574885],[0.3135436,53.1543143],[0.3015713,53.1551731],[0.3099868,53.1484451],[0.3035173,53.1458695],[0.3001649,53.138773],[0.3242357,53.1262656],[0.3480376,53.1209495],[0.3480399,53.1209864],[0.3485699,53.129322],[0.3389155,53.1320271],[0.3414317,53.1423749],[0.3350761,53.1434898],[0.3204525,53.1367539],[0.3254832,53.1471602],[0.3311424,53.1479826]]],"type":"Polygon"},"id":"E02005438","properties":{"code":"E02005438","geography":"MSOA","name":"East Lindsey 015"},"type":"Feature"},{"geometry":{"coordinates":[[[-0.1383812,53.1478169],[-0.1464501,53.1520423],[-0.1377537,53.1582358],[-0.1675851,53.162225],[-0.1914396,53.1513365],[-0.1967455,53.1550122],[-0.1776244,53.1638349],[-0.2118945,53.1741865],[-0.2467309,53.1480552],[-0.2384501,53.133712],[-0.2258821,53.1243681],[-0.2246426,53.1092595],[-0.2190415,53.1050305],[-0.2145193,53.0895985],[-0.1957192,53.082112],[-0.1961242,53.0695335],[-0.1890815,53.062745],[-0.178824,53.0626469],[-0.1831374,53.0713263],[-0.1614265,53.072396],[-0.1626643,53.0835381],[-0.1408767,53.0811392],[-0.1424861,53.0858696],[-0.1249157,53.0932317],[-0.1443469,53.1096918],[-0.1567941,53.1133608],[-0.1602671,53.1179988],[-0.1384359,53.1429167],[-0.1383812,53.1478169]]],"type":"Polygon"},"id":"E02005439","properties":{"code":"E02005439","geography":"MSOA","name":"East Lindsey 016"},"type":"Feature"},{"geometry":{"coordinates":[[[0.3001649,53.138773],[0.2761827,53.1417767],[0.2746948,53.1451434],[0.2687155,53.1432851],[0.2645264,53.144575],[0.2665594,53.1471184],[0.2552158,53.1505133],[0.248876,53.1474998],[0.2359564,53.1553457],[0.2282147,53.1480841],[0.2370006,53.1407474],[0.2434357,53.141823],[0.24701,53.135283],[0.2434514,53.1324784],[0.2197731,53.1312744],[0.2043726,53.1339502],[0.1837396,53.1308089],[0.1681879,53.1401134],[0.1550499,53.124782],[0.1450328,53.1295086],[0.1186989,53.1234898],[0.1211846,53.1100567],[0.1371558,53.1125589],[0.1300323,53.1025668],[0.1370774,53.0866653],[0.1502207,53.056933],[0.1645579,53.0538445],[0.1932296,53.0374298],[0.1996428,53.0326463],[0.2391912,53.0459202],[0.2659166,53.0610588],[0.266343,53.0613002],[0.2944519,53.0803816],[0.3156688,53.0886846],[0.3138705,53.0916579],[0.3112925,53.0948333],[0.3192663,53.0913757],[0.318568,53.0921086],[0.326289,53.0924848],[0.3236803,53.0911646],[0.3301571,53.0904346],[0.33237,53.0866708],[0.3330297,53.0876849],[0.3373348,53.0943015],[0.3374316,53.0944503],[0.3389155,53.1017622],[0.3482089,53.1091571],[0.3481315,53.1140004],[0.348024,53.1207358],[0.3480376,53.1209495],[0.3242357,53.1262656],[0.3001649,53.138773]]],"type":"Polygon"},"id":"E02005440","properties":{"code":"E02005440","geography":"MSOA","name":"East Lindsey 017"},"type":"Feature"},{"geometry":{"coordinates":[[[0.0759142,53.1236115],[0.0426622,53.1244062],[0.0350544,53.1217179],[0.0137153,53.1323795],[0.0001148,53.117414],[-0.0214377,53.1143957],[-0.0225391,53.1192138],[-0.0342256,53.1175688],[-0.0368916,53.1255323],[-0.0258463,53.1268206],[-0.0301154,53.1436687],[-0.0083682,53.1628346],[-0.0074663,53.1649083],[-0.0172637,53.1657315],[-0.0146198,53.1699299],[-0.0640765,53.171729],[-0.0759689,53.1703017],[-0.0903022,53.1602095],[-0.1072597,53.1614972],[-0.1126986,53.1452022],[-0.1383812,53.1478169],[-0.1384359,53.1429167],[-0.1602671,53.1179988],[-0.1567941,53.1133608],[-0.1443469,53.1096918],[-0.1249157,53.0932317],[-0.1424861,53.0858696],[-0.1408767,53.0811392],[-0.1626643,53.0835381],[-0.1614265,53.072396],[-0.1831374,53.0713263],[-0.178824,53.0626469],[-0.1890815,53.062745],[-0.1642411,53.0500582],[-0.1167344,53.0109552],[-0.0639293,53.0082012],[-0.0515102,53.0048775],[-0.0149972,53.0047097],[-0.0070679,53.0010958],[0.0004963,53.0088274],[0.0176942,53.015999],[0.0455719,53.0299602],[0.0361967,53.0694699],[0.0874807,53.0716187],[0.1370774,53.0866653],[0.1300323,53.1025668],[0.1371558,53.1125589],[0.1211846,53.1100567],[0.1186989,53.1234898],[0.1052532,53.1204674],[0.1039813,53.127376],[0.0888866,53.1263571],[0.0900092,53.1209348],[0.075029,53.1211413],[0.0759142,53.1236115]]],"type":"Polygon"},"id":"E02005441","properties":{"code":"E02005441","geography":"MSOA","name":"East Lindsey 018"},"type":"Feature"}],"type":"FeatureCollection"}
