{"features":[{"geometry":{"coordinates":[[[-2.1964856,52.2236534],[-2.2091615,52.2248157],[-2.2224783,52.2313696],[-2.2284425,52.2247904],[-2.2334839,52.226782],[-2.2355363,52.2221003],[-2.243276,52.2218409],[-2.2435425,52.2174512],[-2.2348903,52.2114435],[-2.2353861,52.2078185],[-2.2272282,52.2058136],[-2.2208013,52.2150228],[-2.2151314,52.2155919],[-2.2151277,52.2120922],[-2.2104259,52.2115646],[-2.1997659,52.216417],[-2.1964856,52.2236534]]],"type":"Polygon"},"id":"E02006734","properties":{"code":"E02006734","geography":"MSOA","name":"Worcester 001"},"type":"Feature"},{"geometry":{"coordinates":[[[-2.1846816,52.2040754],[-2.1801729,52.2105088],[-2.1831286,52.2143744],[-2.192378,52.2156982],[-2.1940977,52.2121395],[-2.1877441,52.209043],[-2.1919066,52.2036914],[-2.1846816,52.2040754]]],"type":"Polygon"},"id":"E02006735","properties":{"code":"E02006735","geography":"MSOA","name":"Worcester 002"},"type":"Feature"},{"geometry":{"coordinates":[[[-2.1577932,52.2133772],[-2.1964856,52.2236534],[-2.1997659,52.216417],[-2.2025905,52.2102421],[-2.1973328,52.2077865],[-2.1940977,52.2121395],[-2.192378,52.2156982],[-2.1831286,52.2143744],[-2.1801729,52.2105088],[-2.1846816,52.2040754],[-2.1853937,52.2034337],[-2.1745898,52.2044626],[-2.1649785,52.2001177],[-2.1577932,52.2133772]]],"type":"Polygon"},"id":"E02006736","properties":{"code":"E02006736","geography":"MSOA","name":"Worcester 003"},"type":"Feature"},{"geometry":{"coordinates":[[[-2.2025905,52.2102421],[-2.1997659,52.216417],[-2.2104259,52.2115646],[-2.2151277,52.2120922],[-2.2151314,52.2155919],[-2.2208013,52.2150228],[-2.2272282,52.2058136],[-2.2150761,52.2021673],[-2.2137532,52.1975846],[-2.211436,52.1973353],[-2.2102542,52.2055004],[-2.2043489,52.2065272],[-2.2025905,52.2102421]]],"type":"Polygon"},"id":"E02006737","properties":{"code":"E02006737","geography":"MSOA","name":"Worcester 004"},"type":"Feature"},{"geometry":{"coordinates":[[[-2.1846816,52.2040754],[-2.1919066,52.2036914],[-2.1877441,52.209043],[-2.1940977,52.2121395],[-2.1973328,52.2077865],[-2.2025905,52.2102421],[-2.2043489,52.2065272],[-2.2102542,52.2055004],[-2.211436,52.1973353],[-2.2098,52.1959951],[-2.200676,52.198063],[-2.1961707,52.1958894],[-2.1853937,52.2034337],[-2.1846816,52.2040754]]],"type":"Polygon"},"id":"E02006738","properties":{"code":"E02006738","geography":"MSOA","name":"Worcester 005"},"type":"Feature"},{"geometry":{"coordinates":[[[-2.2353861,52.2078185],[-2.2348903,52.2114435],[-2.2484645,52.2099026],[-2.2502484,52.197413],[-2.2391644,52.194954],[-2.2364085,52.1905725],[-2.2296739,52.1932149],[-2.2390034,52.2017571],[-2.2353861,52.2078185]]],"type":"Polygon"},"id":"E02006739","properties":{"code":"E02006739","geography":"MSOA","name":"Worcester 006"},"type":"Feature"},{"geometry":{"coordinates":[[[-2.2272282,52.2058136],[-2.2353861,52.2078185],[-2.2390034,52.2017571],[-2.2296739,52.1932149],[-2.2260293,52.1911264],[-2.2234538,52.1897138],[-2.2202996,52.1954196],[-2.2137532,52.1975846],[-2.2150761,52.2021673],[-2.2272282,52.2058136]]],"type":"Polygon"},"id":"E02006740","properties":{"code":"E02006740","geography":"MSOA","name":"Worcester 007"},"type":"Feature"},{"geometry":{"coordinates":[[[-2.1649785,52.2001177],[-2.1745898,52.2044626],[-2.1853937,52.2034337],[-2.1961707,52.1958894],[-2.1807078,52.1930997],[-2.1758948,52.1857089],[-2.1799635,52.1840839],[-2.1798227,52.1840451],[-2.1711573,52.184548],[-2.1649785,52.2001177]]],"type":"Polygon"},"id":"E02006741","properties":{"code":"E02006741","geography":"MSOA","name":"Worcester 008"},"type":"Feature"},{"geometry":{"coordinates":[[[-2.2296739,52.1932149],[-2.2364085,52.1905725],[-2.2391644,52.194954],[-2.2502484,52.197413],[-2.2605354,52.1963307],[-2.257362,52.1921095],[-2.2618448,52.1897898],[-2.243192,52.1858859],[-2.2260293,52.1911264],[-2.2296739,52.1932149]]],"type":"Polygon"},"id":"E02006742","properties":{"code":"E02006742","geography":"MSOA","name":"Worcester 009"},"type":"Feature"},{"geometry":{"coordinates":[[[-2.1961707,52.1958894],[-2.200676,52.198063],[-2.2098,52.1959951],[-2.1992417,52.1826059],[-2.193261,52.1861875],[-2.1803629,52.186009],[-2.1799635,52.1840839],[-2.1758948,52.1857089],[-2.1807078,52.1930997],[-2.1961707,52.1958894]]],"type":"Polygon"},"id":"E02006743","properties":{"code":"E02006743","geography":"MSOA","name":"Worcester 010"},"type":"Feature"},{"geometry":{"coordinates":[[[-2.211436,52.1973353],[-2.2137532,52.1975846],[-2.2202996,52.1954196],[-2.2234538,52.1897138],[-2.2229931,52.1870304],[-2.2154948,52.1863473],[-2.2153905,52.1795071],[-2.2051902,52.1847867],[-2.1992417,52.1826059],[-2.2098,52.1959951],[-2.211436,52.1973353]]],"type":"Polygon"},"id":"E02006744","properties":{"code":"E02006744","geography":"MSOA","name":"Worcester 011"},"type":"Feature"},{"geometry":{"coordinates":[[[-2.2234538,52.1897138],[-2.2260293,52.1911264],[-2.243192,52.1858859],[-2.2618448,52.1897898],[-2.2618089,52.1818821],[-2.2526112,52.1834827],[-2.2465802,52.1770278],[-2.2473147,52.1697116],[-2.2327648,52.1696881],[-2.2276283,52.1636548],[-2.2257357,52.1680998],[-2.2204812,52.1673429],[-2.2192478,52.1695217],[-2.226101,52.1785117],[-2.2229931,52.1870304],[-2.2234538,52.1897138]]],"type":"Polygon"},"id":"E02006745","properties":{"code":"E02006745","geography":"MSOA","name":"Worcester 012"},"type":"Feature"},{"geometry":{"coordinates":[[[-2.1992417,52.1826059],[-2.2051902,52.1847867],[-2.2153905,52.1795071],[-2.2154948,52.1863473],[-2.2229931,52.1870304],[-2.226101,52.1785117],[-2.2192478,52.1695217],[-2.2137801,52.1690022],[-2.2081492,52.1749656],[-2.1873815,52.1781554],[-2.1798227,52.1840451],[-2.1799635,52.1840839],[-2.1803629,52.186009],[-2.193261,52.1861875],[-2.1992417,52.1826059]]],"type":"Polygon"},"id":"E02006746","properties":{"code":"E02006746","geography":"MSOA","name":"Worcester 013"},"type":"Feature"},{"geometry":{"coordinates":[[[-2.2033766,52.1673054],[-2.1886235,52.1710005],[-2.1873815,52.1781554],[-2.2081492,52.1749656],[-2.2137801,52.1690022],[-2.2192478,52.1695217],[-2.2204812,52.1673429],[-2.2176057,52.1619836],[-2.2033766,52.1673054]]],"type":"Polygon"},"id":"E02006747","properties":{"code":"E02006747","geography":"MSOA","name":"Worcester 014"},"type":"Feature"}],"type":"FeatureCollection"}
