{"features":[{"geometry":{"coordinates":[[[-2.1677117,52.4237661],[-2.185814,52.4261958],[-2.192901,52.4232824],[-2.1970007,52.4277411],[-2.2104324,52.4299388],[-2.2178818,52.4353541],[-2.2613972,52.4372732],[-2.2627356,52.4406909],[-2.2695091,52.4386018],[-2.2871912,52.4456398],[-2.2881485,52.4346724],[-2.2948837,52.4307934],[-2.2977862,52.4226187],[-2.281349,52.4131458],[-2.276829,52.4043209],[-2.2717873,52.4026812],[-2.2655023,52.4048874],[-2.2509856,52.4015864],[-2.2356244,52.4034768],[-2.2228631,52.401731],[-2.2200637,52.4038696],[-2.2179482,52.3919168],[-2.2130147,52.3844424],[-2.2215009,52.3750894],[-2.2261755,52.3735539],[-2.2228191,52.3687786],[-2.2334912,52.3610633],[-2.2191008,52.3591105],[-2.207874,52.3532566],[-2.205027,52.345619],[-2.1919871,52.3374634],[-2.1904693,52.3289217],[-2.170885,52.3316263],[-2.1746239,52.3166403],[-2.1668047,52.3183741],[-2.1676464,52.3244441],[-2.1560738,52.3310372],[-2.1488644,52.3462938],[-2.1371745,52.3499656],[-2.1307648,52.3579153],[-2.119219,52.3578746],[-2.1231406,52.3729793],[-2.1325262,52.3861818],[-2.1299012,52.3887829],[-2.1377061,52.3938849],[-2.1262531,52.4032898],[-2.1340411,52.4102861],[-2.1392636,52.4107351],[-2.1582688,52.40927],[-2.1677117,52.4237661]]],"type":"Polygon"},"id":"E02006767","properties":{"code":"E02006767","geography":"MSOA","name":"Wyre Forest 001"},"type":"Feature"},{"geometry":{"coordinates":[[[-2.2509856,52.4015864],[-2.2655023,52.4048874],[-2.2717873,52.4026812],[-2.2775831,52.3936237],[-2.2648459,52.3954616],[-2.2518386,52.3887253],[-2.2542415,52.3972428],[-2.2509856,52.4015864]]],"type":"Polygon"},"id":"E02006768","properties":{"code":"E02006768","geography":"MSOA","name":"Wyre Forest 002"},"type":"Feature"},{"geometry":{"coordinates":[[[-2.2179482,52.3919168],[-2.2200637,52.4038696],[-2.2228631,52.401731],[-2.2356244,52.4034768],[-2.2402852,52.3969741],[-2.2355617,52.3952434],[-2.2445302,52.389026],[-2.2393117,52.3881593],[-2.2179482,52.3919168]]],"type":"Polygon"},"id":"E02006769","properties":{"code":"E02006769","geography":"MSOA","name":"Wyre Forest 003"},"type":"Feature"},{"geometry":{"coordinates":[[[-2.2393117,52.3881593],[-2.2445302,52.389026],[-2.2355617,52.3952434],[-2.2402852,52.3969741],[-2.2356244,52.4034768],[-2.2509856,52.4015864],[-2.2542415,52.3972428],[-2.2518386,52.3887253],[-2.2518727,52.3859768],[-2.2537852,52.3800167],[-2.2425212,52.3765568],[-2.2353273,52.3848009],[-2.2418263,52.3855348],[-2.2393117,52.3881593]]],"type":"Polygon"},"id":"E02006770","properties":{"code":"E02006770","geography":"MSOA","name":"Wyre Forest 004"},"type":"Feature"},{"geometry":{"coordinates":[[[-2.2871912,52.4456398],[-2.2949682,52.4489335],[-2.2873862,52.4553027],[-2.3061887,52.4459317],[-2.3117541,52.4375171],[-2.3215547,52.4362053],[-2.3259591,52.438287],[-2.3331228,52.4353408],[-2.3451125,52.4393185],[-2.3635311,52.4394117],[-2.3657973,52.4084473],[-2.3729488,52.4019503],[-2.3421851,52.393164],[-2.3340401,52.3887684],[-2.3355362,52.3853336],[-2.3244426,52.381055],[-2.3277942,52.3800795],[-2.3231421,52.3742888],[-2.31558,52.3774977],[-2.3053907,52.3697214],[-2.3053286,52.3650509],[-2.3138093,52.3589164],[-2.3116633,52.3523422],[-2.3039968,52.3564338],[-2.3058506,52.3597194],[-2.2784577,52.362604],[-2.2773273,52.3663977],[-2.284404,52.3727009],[-2.2793791,52.3760076],[-2.2827496,52.3772089],[-2.2801731,52.381445],[-2.284478,52.3894898],[-2.2775831,52.3936237],[-2.2717873,52.4026812],[-2.276829,52.4043209],[-2.281349,52.4131458],[-2.2977862,52.4226187],[-2.2948837,52.4307934],[-2.2881485,52.4346724],[-2.2871912,52.4456398]]],"type":"Polygon"},"id":"E02006771","properties":{"code":"E02006771","geography":"MSOA","name":"Wyre Forest 005"},"type":"Feature"},{"geometry":{"coordinates":[[[-2.2518386,52.3887253],[-2.2648459,52.3954616],[-2.2775831,52.3936237],[-2.284478,52.3894898],[-2.2801731,52.381445],[-2.2547139,52.3886955],[-2.2518727,52.3859768],[-2.2518386,52.3887253]]],"type":"Polygon"},"id":"E02006772","properties":{"code":"E02006772","geography":"MSOA","name":"Wyre Forest 006"},"type":"Feature"},{"geometry":{"coordinates":[[[-2.2215009,52.3750894],[-2.2130147,52.3844424],[-2.2179482,52.3919168],[-2.2393117,52.3881593],[-2.2418263,52.3855348],[-2.2353273,52.3848009],[-2.2425212,52.3765568],[-2.2424238,52.3720866],[-2.2215009,52.3750894]]],"type":"Polygon"},"id":"E02006773","properties":{"code":"E02006773","geography":"MSOA","name":"Wyre Forest 007"},"type":"Feature"},{"geometry":{"coordinates":[[[-2.2518727,52.3859768],[-2.2547139,52.3886955],[-2.2801731,52.381445],[-2.2827496,52.3772089],[-2.2793791,52.3760076],[-2.2767243,52.3735157],[-2.2547745,52.3760137],[-2.2537852,52.3800167],[-2.2518727,52.3859768]]],"type":"Polygon"},"id":"E02006774","properties":{"code":"E02006774","geography":"MSOA","name":"Wyre Forest 008"},"type":"Feature"},{"geometry":{"coordinates":[[[-2.2547745,52.3760137],[-2.2767243,52.3735157],[-2.2793791,52.3760076],[-2.284404,52.3727009],[-2.2773273,52.3663977],[-2.2784577,52.362604],[-2.2645457,52.3575591],[-2.2581637,52.3572369],[-2.2575381,52.3614647],[-2.2520843,52.3710016],[-2.2547745,52.3760137]]],"type":"Polygon"},"id":"E02006775","properties":{"code":"E02006775","geography":"MSOA","name":"Wyre Forest 009"},"type":"Feature"},{"geometry":{"coordinates":[[[-2.2425212,52.3765568],[-2.2537852,52.3800167],[-2.2547745,52.3760137],[-2.2520843,52.3710016],[-2.2575381,52.3614647],[-2.2456879,52.3610222],[-2.2334912,52.3610633],[-2.2228191,52.3687786],[-2.2261755,52.3735539],[-2.2215009,52.3750894],[-2.2424238,52.3720866],[-2.2425212,52.3765568]]],"type":"Polygon"},"id":"E02006776","properties":{"code":"E02006776","geography":"MSOA","name":"Wyre Forest 010"},"type":"Feature"},{"geometry":{"coordinates":[[[-2.3355362,52.3853336],[-2.3501492,52.3857111],[-2.3526363,52.3889231],[-2.367355,52.3880494],[-2.3778736,52.3831441],[-2.3874452,52.3844743],[-2.3906759,52.3815143],[-2.3935974,52.384357],[-2.4044465,52.3828154],[-2.4109903,52.386415],[-2.4151621,52.37897],[-2.4099241,52.370605],[-2.4149265,52.3682411],[-2.4117563,52.3577696],[-2.422072,52.3490144],[-2.4249526,52.3366768],[-2.4209954,52.3330471],[-2.4330717,52.3298919],[-2.4365136,52.324014],[-2.4271686,52.3218672],[-2.4155719,52.3224867],[-2.4133672,52.325462],[-2.4034156,52.3240213],[-2.4030132,52.3267169],[-2.3895402,52.3212135],[-2.3698198,52.3267932],[-2.372761,52.3190083],[-2.3609664,52.3150999],[-2.3473551,52.3201871],[-2.3289476,52.3202606],[-2.3196846,52.3315165],[-2.3238333,52.3353187],[-2.3109358,52.3405365],[-2.3052645,52.3377615],[-2.2996799,52.3373182],[-2.2973713,52.3406162],[-2.2982922,52.3409395],[-2.3116633,52.3523422],[-2.3138093,52.3589164],[-2.3053286,52.3650509],[-2.3053907,52.3697214],[-2.31558,52.3774977],[-2.3231421,52.3742888],[-2.3277942,52.3800795],[-2.3244426,52.381055],[-2.3355362,52.3853336]]],"type":"Polygon"},"id":"E02006777","properties":{"code":"E02006777","geography":"MSOA","name":"Wyre Forest 011"},"type":"Feature"},{"geometry":{"coordinates":[[[-2.2645457,52.3575591],[-2.2784577,52.362604],[-2.3058506,52.3597194],[-2.3039968,52.3564338],[-2.3116633,52.3523422],[-2.2982922,52.3409395],[-2.2946881,52.3474574],[-2.284748,52.3426442],[-2.279104,52.3458172],[-2.2691385,52.3447655],[-2.2645457,52.3575591]]],"type":"Polygon"},"id":"E02006778","properties":{"code":"E02006778","geography":"MSOA","name":"Wyre Forest 012"},"type":"Feature"},{"geometry":{"coordinates":[[[-2.2456879,52.3610222],[-2.2575381,52.3614647],[-2.2581637,52.3572369],[-2.2645457,52.3575591],[-2.2691385,52.3447655],[-2.279104,52.3458172],[-2.284748,52.3426442],[-2.2946881,52.3474574],[-2.2982922,52.3409395],[-2.2973713,52.3406162],[-2.2779129,52.3352534],[-2.2738937,52.3289183],[-2.2664182,52.3235916],[-2.2603722,52.3282926],[-2.2717799,52.3326182],[-2.249517,52.3456615],[-2.2456879,52.3610222]]],"type":"Polygon"},"id":"E02006779","properties":{"code":"E02006779","geography":"MSOA","name":"Wyre Forest 013"},"type":"Feature"},{"geometry":{"coordinates":[[[-2.2738937,52.3289183],[-2.2779129,52.3352534],[-2.2973713,52.3406162],[-2.2996799,52.3373182],[-2.3052645,52.3377615],[-2.3086438,52.3352774],[-2.2991678,52.3223463],[-2.2738937,52.3289183]]],"type":"Polygon"},"id":"E02006780","properties":{"code":"E02006780","geography":"MSOA","name":"Wyre Forest 014"},"type":"Feature"}],"type":"FeatureCollection"}
