{"features":[{"geometry":{"coordinates":[[[0.5462439,50.8921075],[0.5369203,50.8948289],[0.5290639,50.8922872],[0.5199975,50.8773906],[0.5213888,50.8703285],[0.5230695,50.8706225],[0.5265082,50.8769258],[0.5424214,50.886181],[0.5521044,50.8753364],[0.5575717,50.8776814],[0.5664142,50.8815129],[0.5623026,50.8842217],[0.5687668,50.8874924],[0.5573635,50.8904283],[0.556284,50.8940866],[0.5462439,50.8921075]]],"type":"Polygon"},"id":"E02004368","properties":{"code":"E02004368","geography":"MSOA","name":"Hastings 001"},"type":"Feature"},{"geometry":{"coordinates":[[[0.5943225,50.8843061],[0.5890766,50.8825971],[0.5687668,50.8874924],[0.5623026,50.8842217],[0.5664142,50.8815129],[0.5575717,50.8776814],[0.5626353,50.8768064],[0.5708358,50.8655649],[0.5816868,50.8679537],[0.584821,50.872784],[0.5886311,50.8703759],[0.5987237,50.8763394],[0.5942092,50.8787867],[0.5943225,50.8843061]]],"type":"Polygon"},"id":"E02004369","properties":{"code":"E02004369","geography":"MSOA","name":"Hastings 002"},"type":"Feature"},{"geometry":{"coordinates":[[[0.5521044,50.8753364],[0.5424214,50.886181],[0.5265082,50.8769258],[0.5230695,50.8706225],[0.5332963,50.868096],[0.5400248,50.8742763],[0.5475167,50.8748063],[0.5472092,50.8711109],[0.5503063,50.8712201],[0.5459264,50.8688722],[0.5527143,50.8689245],[0.5521044,50.8753364]]],"type":"Polygon"},"id":"E02004370","properties":{"code":"E02004370","geography":"MSOA","name":"Hastings 003"},"type":"Feature"},{"geometry":{"coordinates":[[[0.6585461,50.8699399],[0.6558502,50.8727226],[0.6464556,50.8712744],[0.6385743,50.877324],[0.6158415,50.8852233],[0.6131807,50.8807654],[0.603699,50.8785528],[0.6001481,50.8766481],[0.6012153,50.868615],[0.6096963,50.8704123],[0.6088393,50.8597652],[0.6585461,50.8699399]]],"type":"Polygon"},"id":"E02004371","properties":{"code":"E02004371","geography":"MSOA","name":"Hastings 004"},"type":"Feature"},{"geometry":{"coordinates":[[[0.603699,50.8785528],[0.5991562,50.883906],[0.5943225,50.8843061],[0.5942092,50.8787867],[0.5987237,50.8763394],[0.5886311,50.8703759],[0.584821,50.872784],[0.5816868,50.8679537],[0.5861323,50.864118],[0.5887213,50.8656831],[0.5965404,50.8647517],[0.6012153,50.868615],[0.6001481,50.8766481],[0.603699,50.8785528]]],"type":"Polygon"},"id":"E02004372","properties":{"code":"E02004372","geography":"MSOA","name":"Hastings 005"},"type":"Feature"},{"geometry":{"coordinates":[[[0.5708358,50.8655649],[0.5626353,50.8768064],[0.5575717,50.8776814],[0.5521044,50.8753364],[0.5527143,50.8689245],[0.5459264,50.8688722],[0.5503063,50.8712201],[0.5472092,50.8711109],[0.5475167,50.8748063],[0.5400248,50.8742763],[0.5332963,50.868096],[0.5508534,50.8632147],[0.5708358,50.8655649]]],"type":"Polygon"},"id":"E02004373","properties":{"code":"E02004373","geography":"MSOA","name":"Hastings 006"},"type":"Feature"},{"geometry":{"coordinates":[[[0.6088393,50.8597652],[0.6096963,50.8704123],[0.6012153,50.868615],[0.5965404,50.8647517],[0.5887213,50.8656831],[0.5927515,50.8618466],[0.5871137,50.8540659],[0.5894008,50.8542197],[0.6059569,50.85851],[0.6088393,50.8597652]]],"type":"Polygon"},"id":"E02004374","properties":{"code":"E02004374","geography":"MSOA","name":"Hastings 007"},"type":"Feature"},{"geometry":{"coordinates":[[[0.5861323,50.864118],[0.5816868,50.8679537],[0.5708358,50.8655649],[0.5508534,50.8632147],[0.5529588,50.8556777],[0.556094,50.8589986],[0.5690418,50.8565744],[0.5861323,50.864118]]],"type":"Polygon"},"id":"E02004375","properties":{"code":"E02004375","geography":"MSOA","name":"Hastings 008"},"type":"Feature"},{"geometry":{"coordinates":[[[0.5871137,50.8540659],[0.5927515,50.8618466],[0.5887213,50.8656831],[0.5861323,50.864118],[0.5690418,50.8565744],[0.5716105,50.8530507],[0.5716548,50.8530552],[0.5867529,50.8540416],[0.5871137,50.8540659]]],"type":"Polygon"},"id":"E02004376","properties":{"code":"E02004376","geography":"MSOA","name":"Hastings 009"},"type":"Feature"},{"geometry":{"coordinates":[[[0.5332963,50.868096],[0.5230695,50.8706225],[0.5213888,50.8703285],[0.5180829,50.8622653],[0.5211589,50.8517477],[0.5121606,50.8489858],[0.508544,50.850874],[0.503179,50.843151],[0.5131139,50.8448787],[0.5190887,50.8468657],[0.5354142,50.8487502],[0.5434208,50.850139],[0.5435956,50.8501693],[0.5433337,50.8516528],[0.5547288,50.8515848],[0.5529588,50.8556777],[0.5508534,50.8632147],[0.5332963,50.868096]]],"type":"Polygon"},"id":"E02004377","properties":{"code":"E02004377","geography":"MSOA","name":"Hastings 010"},"type":"Feature"},{"geometry":{"coordinates":[[[0.5690418,50.8565744],[0.556094,50.8589986],[0.5529588,50.8556777],[0.5547288,50.8515848],[0.5433337,50.8516528],[0.5435956,50.8501693],[0.5437041,50.8501881],[0.5557832,50.851428],[0.5716105,50.8530507],[0.5690418,50.8565744]]],"type":"Polygon"},"id":"E02004378","properties":{"code":"E02004378","geography":"MSOA","name":"Hastings 011"},"type":"Feature"}],"type":"FeatureCollection"}
