{"features":[{"geometry":{"coordinates":[[[-2.8600419,53.7328553],[-2.866092,53.7336921],[-2.8841456,53.7309497],[-2.8861238,53.7268445],[-2.888782,53.7307105],[-2.8911446,53.7256711],[-2.8893896,53.7306295],[-2.8945795,53.7300498],[-2.9005661,53.7263251],[-2.8962785,53.7229857],[-2.9052908,53.7258381],[-2.904303,53.728908],[-2.9074511,53.7284098],[-2.8818533,53.6919925],[-2.8882321,53.6823662],[-2.8467376,53.6940276],[-2.8417751,53.6814646],[-2.8504285,53.6802043],[-2.8533742,53.687447],[-2.8625459,53.6849994],[-2.8566867,53.6805562],[-2.8642047,53.6789239],[-2.8676896,53.6741963],[-2.8571059,53.6759554],[-2.8566463,53.6735023],[-2.8367216,53.6782114],[-2.8353156,53.6708375],[-2.8473528,53.6650906],[-2.8458564,53.6598969],[-2.8616953,53.6608203],[-2.841763,53.652067],[-2.8167467,53.6546998],[-2.8123545,53.656369],[-2.8233366,53.6681629],[-2.8163565,53.6729434],[-2.8183439,53.6788082],[-2.8242318,53.6806554],[-2.8201287,53.6871221],[-2.8257525,53.6874286],[-2.8331344,53.6954985],[-2.8322936,53.700455],[-2.8239837,53.7028379],[-2.8308495,53.7177045],[-2.8327306,53.7195775],[-2.8366733,53.7235025],[-2.8378615,53.7241701],[-2.8407441,53.7256207],[-2.8510662,53.7308135],[-2.8600419,53.7328553]]],"type":"Polygon"},"id":"E02005304","properties":{"code":"E02005304","geography":"MSOA","name":"West Lancashire 001"},"type":"Feature"},{"geometry":{"coordinates":[[[-2.8167467,53.6546998],[-2.841763,53.652067],[-2.8616953,53.6608203],[-2.8458564,53.6598969],[-2.8473528,53.6650906],[-2.8353156,53.6708375],[-2.8367216,53.6782114],[-2.8566463,53.6735023],[-2.8571059,53.6759554],[-2.8676896,53.6741963],[-2.8642047,53.6789239],[-2.8566867,53.6805562],[-2.8625459,53.6849994],[-2.8533742,53.687447],[-2.8504285,53.6802043],[-2.8417751,53.6814646],[-2.8467376,53.6940276],[-2.8882321,53.6823662],[-2.8818533,53.6919925],[-2.9074511,53.7284098],[-2.910835,53.7257674],[-2.9120775,53.7247872],[-2.9108009,53.7241909],[-2.9087217,53.7232196],[-2.9107755,53.7230157],[-2.913216,53.7227733],[-2.9107213,53.7205111],[-2.9094905,53.7193948],[-2.9106609,53.7177147],[-2.9113367,53.7167447],[-2.9150959,53.7260838],[-2.9293503,53.7241467],[-2.9157913,53.7168635],[-2.9195045,53.7170346],[-2.9155083,53.7133251],[-2.9271799,53.7206958],[-2.9282564,53.7161151],[-2.9284161,53.7220587],[-2.9328716,53.7245157],[-2.9323131,53.718728],[-2.9359045,53.7254133],[-2.9482453,53.7117671],[-2.9414032,53.7132583],[-2.9467484,53.7102869],[-2.9403224,53.7114152],[-2.9380281,53.7054082],[-2.9288443,53.7044911],[-2.9371203,53.7045048],[-2.9437837,53.708136],[-2.9551076,53.704423],[-2.9473197,53.704155],[-2.9536474,53.7023529],[-2.9425991,53.7001447],[-2.951129,53.6996988],[-2.9415307,53.6965235],[-2.9527212,53.6997779],[-2.956218,53.6974732],[-2.9554633,53.6967269],[-2.9552321,53.6964809],[-2.9467873,53.6880024],[-2.9524953,53.6822638],[-2.9443094,53.6791141],[-2.9474395,53.6673335],[-2.9418422,53.6627588],[-2.9401454,53.6585949],[-2.9499693,53.652319],[-2.9583456,53.6429667],[-2.9603526,53.6387206],[-2.9495909,53.6367611],[-2.9419892,53.6418814],[-2.9296606,53.6437504],[-2.9310614,53.6473519],[-2.8989534,53.6497001],[-2.8566193,53.6327004],[-2.8484359,53.6246207],[-2.8436116,53.6243119],[-2.8092266,53.6218563],[-2.8076089,53.628243],[-2.8062153,53.6412948],[-2.8144078,53.6484314],[-2.8121129,53.6531707],[-2.8167467,53.6546998]]],"type":"Polygon"},"id":"E02005305","properties":{"code":"E02005305","geography":"MSOA","name":"West Lancashire 002"},"type":"Feature"},{"geometry":{"coordinates":[[[-2.8436116,53.6243119],[-2.8484359,53.6246207],[-2.8566193,53.6327004],[-2.8989534,53.6497001],[-2.9310614,53.6473519],[-2.9296606,53.6437504],[-2.9419892,53.6418814],[-2.9495909,53.6367611],[-2.9603526,53.6387206],[-2.9677703,53.6310474],[-2.9818252,53.6221893],[-2.9937231,53.6282554],[-3.0004865,53.6247952],[-3.0140998,53.611262],[-3.0288248,53.602304],[-3.035466,53.58702],[-3.0333482,53.5850869],[-3.0207119,53.5836591],[-3.0226228,53.5695819],[-3.0377805,53.5665356],[-3.0392816,53.5591708],[-3.0444971,53.5406369],[-3.0405906,53.5417162],[-3.0390513,53.5384273],[-3.0319349,53.5372466],[-3.0250931,53.5389897],[-2.9915247,53.5229753],[-2.9729449,53.5154303],[-2.9656597,53.5184447],[-2.9632496,53.5248209],[-2.977616,53.5459072],[-2.9658987,53.5478854],[-2.9419878,53.5409995],[-2.9371964,53.5451439],[-2.9409596,53.5515135],[-2.9390157,53.5696521],[-2.9320135,53.5729659],[-2.9376641,53.577088],[-2.923256,53.5773655],[-2.9090371,53.5735955],[-2.9024806,53.5820693],[-2.891379,53.5850918],[-2.886051,53.5908109],[-2.8800899,53.5905156],[-2.8915969,53.6029257],[-2.8762877,53.6064356],[-2.8576498,53.6054269],[-2.8499125,53.6127463],[-2.8539898,53.6198083],[-2.8495463,53.6183406],[-2.8436116,53.6243119]]],"type":"Polygon"},"id":"E02005306","properties":{"code":"E02005306","geography":"MSOA","name":"West Lancashire 003"},"type":"Feature"},{"geometry":{"coordinates":[[[-2.8092266,53.6218563],[-2.8436116,53.6243119],[-2.8495463,53.6183406],[-2.8539898,53.6198083],[-2.8499125,53.6127463],[-2.8576498,53.6054269],[-2.8762877,53.6064356],[-2.8915969,53.6029257],[-2.8800899,53.5905156],[-2.886051,53.5908109],[-2.8619628,53.587333],[-2.8586329,53.5840024],[-2.8535662,53.5874176],[-2.8371729,53.5873819],[-2.8280212,53.5906402],[-2.8310559,53.5970072],[-2.8222094,53.6073661],[-2.8235318,53.6112468],[-2.8156961,53.6139956],[-2.8092266,53.6218563]]],"type":"Polygon"},"id":"E02005307","properties":{"code":"E02005307","geography":"MSOA","name":"West Lancashire 004"},"type":"Feature"},{"geometry":{"coordinates":[[[-2.694754,53.6157489],[-2.6909491,53.6202924],[-2.6944455,53.626609],[-2.6956427,53.6234316],[-2.7099572,53.6177675],[-2.7361698,53.6236687],[-2.7587364,53.6146362],[-2.7662009,53.6191387],[-2.7795025,53.6197674],[-2.7810031,53.6234555],[-2.7929778,53.6230665],[-2.7872792,53.6173027],[-2.7908013,53.6145298],[-2.7959539,53.6159451],[-2.7939424,53.607543],[-2.7771169,53.5978142],[-2.7728207,53.5868148],[-2.7787507,53.5836728],[-2.7654387,53.5673746],[-2.7494448,53.5582054],[-2.7441001,53.5533832],[-2.7301122,53.5712086],[-2.7210496,53.5687954],[-2.7163888,53.5712896],[-2.7192235,53.5760975],[-2.7103446,53.5851006],[-2.7000685,53.5911899],[-2.6932712,53.5896461],[-2.6893139,53.6042864],[-2.6963032,53.6049021],[-2.6994501,53.6142831],[-2.694754,53.6157489]]],"type":"Polygon"},"id":"E02005308","properties":{"code":"E02005308","geography":"MSOA","name":"West Lancashire 005"},"type":"Feature"},{"geometry":{"coordinates":[[[-2.8586329,53.5840024],[-2.8619628,53.587333],[-2.886051,53.5908109],[-2.891379,53.5850918],[-2.9024806,53.5820693],[-2.9090371,53.5735955],[-2.9045916,53.5591393],[-2.89086,53.5557843],[-2.8925435,53.5615002],[-2.89792,53.5625272],[-2.891208,53.5730923],[-2.8844733,53.5752333],[-2.883185,53.5702507],[-2.8732448,53.5753138],[-2.8586329,53.5840024]]],"type":"Polygon"},"id":"E02005309","properties":{"code":"E02005309","geography":"MSOA","name":"West Lancashire 006"},"type":"Feature"},{"geometry":{"coordinates":[[[-2.8732448,53.5753138],[-2.883185,53.5702507],[-2.8844733,53.5752333],[-2.891208,53.5730923],[-2.89792,53.5625272],[-2.8925435,53.5615002],[-2.89086,53.5557843],[-2.8864544,53.5523029],[-2.8785923,53.5543823],[-2.8789917,53.5585796],[-2.8743523,53.5581365],[-2.8736576,53.5612007],[-2.8690734,53.5587536],[-2.8640137,53.5599321],[-2.8634757,53.5659394],[-2.8660743,53.5689929],[-2.8725959,53.5689576],[-2.8697637,53.5728302],[-2.8732448,53.5753138]]],"type":"Polygon"},"id":"E02005310","properties":{"code":"E02005310","geography":"MSOA","name":"West Lancashire 007"},"type":"Feature"},{"geometry":{"coordinates":[[[-2.7959539,53.6159451],[-2.8005076,53.6247959],[-2.8076089,53.628243],[-2.8092266,53.6218563],[-2.8156961,53.6139956],[-2.8235318,53.6112468],[-2.8222094,53.6073661],[-2.8310559,53.5970072],[-2.8280212,53.5906402],[-2.8371729,53.5873819],[-2.8535662,53.5874176],[-2.8586329,53.5840024],[-2.8732448,53.5753138],[-2.8697637,53.5728302],[-2.8725959,53.5689576],[-2.8660743,53.5689929],[-2.8634757,53.5659394],[-2.8640137,53.5599321],[-2.8690734,53.5587536],[-2.8736576,53.5612007],[-2.8743523,53.5581365],[-2.8789917,53.5585796],[-2.8785923,53.5543823],[-2.8864544,53.5523029],[-2.8760044,53.5444709],[-2.8790038,53.5392173],[-2.8919691,53.5322702],[-2.8916639,53.5221354],[-2.881209,53.5199867],[-2.8923903,53.5111303],[-2.8879905,53.503816],[-2.8816682,53.5027406],[-2.8733353,53.5000239],[-2.8655017,53.4921768],[-2.8502678,53.4932373],[-2.8434916,53.488265],[-2.8444218,53.4841145],[-2.8255751,53.4827659],[-2.8249646,53.4851931],[-2.8199166,53.4965109],[-2.8225909,53.5051045],[-2.8167413,53.5121583],[-2.7945921,53.5212856],[-2.7824679,53.5314024],[-2.8231645,53.5451794],[-2.8224618,53.5489601],[-2.814877,53.5488323],[-2.8098283,53.5538158],[-2.8003074,53.561238],[-2.8047858,53.5634056],[-2.7810806,53.5719002],[-2.7654387,53.5673746],[-2.7787507,53.5836728],[-2.7728207,53.5868148],[-2.7771169,53.5978142],[-2.7939424,53.607543],[-2.7959539,53.6159451]]],"type":"Polygon"},"id":"E02005311","properties":{"code":"E02005311","geography":"MSOA","name":"West Lancashire 008"},"type":"Feature"},{"geometry":{"coordinates":[[[-2.7654387,53.5673746],[-2.7810806,53.5719002],[-2.8047858,53.5634056],[-2.8003074,53.561238],[-2.8098283,53.5538158],[-2.7970904,53.5561315],[-2.796051,53.5536301],[-2.7845378,53.5536559],[-2.7861024,53.5585014],[-2.7737187,53.5592603],[-2.7678674,53.5625187],[-2.7631994,53.555776],[-2.7601867,53.5568409],[-2.7494448,53.5582054],[-2.7654387,53.5673746]]],"type":"Polygon"},"id":"E02005312","properties":{"code":"E02005312","geography":"MSOA","name":"West Lancashire 009"},"type":"Feature"},{"geometry":{"coordinates":[[[-2.7601867,53.5568409],[-2.7631994,53.555776],[-2.7678674,53.5625187],[-2.7737187,53.5592603],[-2.7861024,53.5585014],[-2.7845378,53.5536559],[-2.796051,53.5536301],[-2.7892438,53.5406845],[-2.7736055,53.537066],[-2.7740272,53.5397464],[-2.7751099,53.5490276],[-2.7604382,53.5516903],[-2.7601867,53.5568409]]],"type":"Polygon"},"id":"E02005313","properties":{"code":"E02005313","geography":"MSOA","name":"West Lancashire 010"},"type":"Feature"},{"geometry":{"coordinates":[[[-2.796051,53.5536301],[-2.7970904,53.5561315],[-2.8098283,53.5538158],[-2.814877,53.5488323],[-2.8224618,53.5489601],[-2.8231645,53.5451794],[-2.7824679,53.5314024],[-2.7722227,53.5338927],[-2.7718845,53.5367074],[-2.7736055,53.537066],[-2.7892438,53.5406845],[-2.796051,53.5536301]]],"type":"Polygon"},"id":"E02005314","properties":{"code":"E02005314","geography":"MSOA","name":"West Lancashire 011"},"type":"Feature"},{"geometry":{"coordinates":[[[-2.9090371,53.5735955],[-2.923256,53.5773655],[-2.9376641,53.577088],[-2.9320135,53.5729659],[-2.9390157,53.5696521],[-2.9409596,53.5515135],[-2.9371964,53.5451439],[-2.9419878,53.5409995],[-2.9297291,53.5308895],[-2.9167447,53.5232425],[-2.8916639,53.5221354],[-2.8919691,53.5322702],[-2.8790038,53.5392173],[-2.8760044,53.5444709],[-2.8864544,53.5523029],[-2.89086,53.5557843],[-2.9045916,53.5591393],[-2.9090371,53.5735955]]],"type":"Polygon"},"id":"E02005315","properties":{"code":"E02005315","geography":"MSOA","name":"West Lancashire 012"},"type":"Feature"},{"geometry":{"coordinates":[[[-2.7441001,53.5533832],[-2.7494448,53.5582054],[-2.7601867,53.5568409],[-2.7604382,53.5516903],[-2.7751099,53.5490276],[-2.7740272,53.5397464],[-2.7676362,53.5407513],[-2.7665314,53.5443676],[-2.7476509,53.5431757],[-2.739161,53.5486041],[-2.7441001,53.5533832]]],"type":"Polygon"},"id":"E02005316","properties":{"code":"E02005316","geography":"MSOA","name":"West Lancashire 013"},"type":"Feature"},{"geometry":{"coordinates":[[[-2.7476509,53.5431757],[-2.7665314,53.5443676],[-2.7676362,53.5407513],[-2.7740272,53.5397464],[-2.7736055,53.537066],[-2.7718845,53.5367074],[-2.7492862,53.532921],[-2.7476509,53.5431757]]],"type":"Polygon"},"id":"E02005317","properties":{"code":"E02005317","geography":"MSOA","name":"West Lancashire 014"},"type":"Feature"},{"geometry":{"coordinates":[[[-2.7163888,53.5712896],[-2.7210496,53.5687954],[-2.7301122,53.5712086],[-2.7441001,53.5533832],[-2.739161,53.5486041],[-2.7476509,53.5431757],[-2.7492862,53.532921],[-2.7718845,53.5367074],[-2.7722227,53.5338927],[-2.7824679,53.5314024],[-2.768873,53.5135556],[-2.7598473,53.5125219],[-2.7305245,53.5205815],[-2.7179256,53.5272942],[-2.7145592,53.5382641],[-2.7186082,53.5435435],[-2.7047386,53.5618445],[-2.7163888,53.5712896]]],"type":"Polygon"},"id":"E02005318","properties":{"code":"E02005318","geography":"MSOA","name":"West Lancashire 015"},"type":"Feature"}],"type":"FeatureCollection"}
