{"features":[{"geometry":{"coordinates":[[[1.299638,52.6742391],[1.2923071,52.6849094],[1.2829226,52.6773096],[1.2628367,52.67738],[1.2646151,52.6748898],[1.2710014,52.6687474],[1.2849715,52.6601914],[1.277164,52.6564925],[1.283527,52.6460599],[1.2894813,52.6478364],[1.3020789,52.6498352],[1.3058395,52.64823],[1.30279,52.64587],[1.313324,52.6410647],[1.3229534,52.6449994],[1.3105845,52.6516811],[1.3023229,52.6530459],[1.2925759,52.6549866],[1.2916831,52.661315],[1.2920434,52.67164],[1.299638,52.6742391]]],"type":"Polygon"},"id":"E02005584","properties":{"code":"E02005584","geography":"MSOA","name":"Norwich 001"},"type":"Feature"},{"geometry":{"coordinates":[[[1.2894813,52.6478364],[1.283527,52.6460599],[1.277164,52.6564925],[1.2615638,52.6520659],[1.2592782,52.6385181],[1.2735369,52.6411888],[1.2916299,52.6388451],[1.2894813,52.6478364]]],"type":"Polygon"},"id":"E02005585","properties":{"code":"E02005585","geography":"MSOA","name":"Norwich 002"},"type":"Feature"},{"geometry":{"coordinates":[[[1.313324,52.6410647],[1.30279,52.64587],[1.3058395,52.64823],[1.3020789,52.6498352],[1.2894813,52.6478364],[1.2916299,52.6388451],[1.3022843,52.6367234],[1.3029569,52.6395411],[1.3120437,52.6387489],[1.313324,52.6410647]]],"type":"Polygon"},"id":"E02005586","properties":{"code":"E02005586","geography":"MSOA","name":"Norwich 003"},"type":"Feature"},{"geometry":{"coordinates":[[[1.3411133,52.6470686],[1.3405483,52.6496828],[1.3229534,52.6449994],[1.313324,52.6410647],[1.3120437,52.6387489],[1.3155321,52.6338577],[1.3283189,52.6297019],[1.3287439,52.6306148],[1.3298418,52.6375597],[1.3422206,52.641294],[1.3411133,52.6470686]]],"type":"Polygon"},"id":"E02005587","properties":{"code":"E02005587","geography":"MSOA","name":"Norwich 004"},"type":"Feature"},{"geometry":{"coordinates":[[[1.2354324,52.6409087],[1.2050223,52.6450773],[1.205063,52.6394587],[1.2140468,52.6343908],[1.2128028,52.6273309],[1.2162508,52.6255762],[1.2253388,52.6320901],[1.2310717,52.630153],[1.2445903,52.6333849],[1.2389439,52.6358871],[1.2410704,52.6393175],[1.2354324,52.6409087]]],"type":"Polygon"},"id":"E02005588","properties":{"code":"E02005588","geography":"MSOA","name":"Norwich 005"},"type":"Feature"},{"geometry":{"coordinates":[[[1.2735369,52.6411888],[1.2592782,52.6385181],[1.2615638,52.6520659],[1.2484865,52.6477182],[1.2480729,52.6476006],[1.2354324,52.6409087],[1.2410704,52.6393175],[1.2389439,52.6358871],[1.2445903,52.6333849],[1.2483783,52.6288359],[1.2654042,52.6294717],[1.2707646,52.6305538],[1.2713998,52.6348198],[1.2751561,52.6341547],[1.2735369,52.6411888]]],"type":"Polygon"},"id":"E02005589","properties":{"code":"E02005589","geography":"MSOA","name":"Norwich 006"},"type":"Feature"},{"geometry":{"coordinates":[[[1.2751561,52.6341547],[1.2713998,52.6348198],[1.2707646,52.6305538],[1.2654042,52.6294717],[1.2687308,52.6224],[1.2651426,52.6208177],[1.27086,52.620694],[1.2849404,52.6292245],[1.2829656,52.62984],[1.2751561,52.6341547]]],"type":"Polygon"},"id":"E02005592","properties":{"code":"E02005592","geography":"MSOA","name":"Norwich 009"},"type":"Feature"},{"geometry":{"coordinates":[[[1.2654042,52.6294717],[1.2483783,52.6288359],[1.2445903,52.6333849],[1.2310717,52.630153],[1.2314322,52.6180801],[1.2435246,52.617111],[1.2544603,52.6218453],[1.2651426,52.6208177],[1.2687308,52.6224],[1.2654042,52.6294717]]],"type":"Polygon"},"id":"E02005593","properties":{"code":"E02005593","geography":"MSOA","name":"Norwich 010"},"type":"Feature"},{"geometry":{"coordinates":[[[1.2995411,52.6209957],[1.2849404,52.6292245],[1.27086,52.620694],[1.2821979,52.6125598],[1.2860704,52.6150816],[1.2934446,52.6132763],[1.2995411,52.6209957]]],"type":"Polygon"},"id":"E02005594","properties":{"code":"E02005594","geography":"MSOA","name":"Norwich 011"},"type":"Feature"},{"geometry":{"coordinates":[[[1.2651426,52.6208177],[1.2544603,52.6218453],[1.2435246,52.617111],[1.2416639,52.6099709],[1.2508315,52.6060902],[1.2577637,52.5981229],[1.2688012,52.6017496],[1.2768662,52.5980911],[1.2821979,52.6125598],[1.27086,52.620694],[1.2651426,52.6208177]]],"type":"Polygon"},"id":"E02005595","properties":{"code":"E02005595","geography":"MSOA","name":"Norwich 012"},"type":"Feature"},{"geometry":{"coordinates":[[[1.3054588,52.6203451],[1.2995411,52.6209957],[1.2934446,52.6132763],[1.2860704,52.6150816],[1.2821979,52.6125598],[1.2768662,52.5980911],[1.2778579,52.597378],[1.2866342,52.5962968],[1.3091973,52.6107049],[1.3064512,52.6119982],[1.3101972,52.616032],[1.3054588,52.6203451]]],"type":"Polygon"},"id":"E02005596","properties":{"code":"E02005596","geography":"MSOA","name":"Norwich 013"},"type":"Feature"},{"geometry":{"coordinates":[[[1.324508,52.6238226],[1.3160741,52.6233731],[1.3109985,52.6331597],[1.3024628,52.6353523],[1.2949043,52.6318275],[1.3054588,52.6203451],[1.3101972,52.616032],[1.3064512,52.6119982],[1.3091973,52.6107049],[1.3203316,52.6159006],[1.3196044,52.6203165],[1.3287129,52.6243568],[1.3321066,52.6258617],[1.3392557,52.6256954],[1.3414252,52.6256448],[1.3489235,52.6211538],[1.3506437,52.6208811],[1.3695056,52.6235429],[1.3759938,52.6202478],[1.3811383,52.6056495],[1.3875242,52.6040155],[1.3992642,52.6077763],[1.401755,52.6132091],[1.4077634,52.6135219],[1.4147529,52.6209633],[1.4218122,52.621944],[1.4289747,52.6177811],[1.4340711,52.6197162],[1.4325473,52.6119806],[1.4534995,52.6005233],[1.4536353,52.5943441],[1.4628527,52.5932256],[1.4687376,52.5863995],[1.4849802,52.5867027],[1.4978276,52.570768],[1.5183702,52.575211],[1.5237964,52.5703219],[1.5217785,52.5623709],[1.5288324,52.5590416],[1.5360151,52.5618868],[1.5403125,52.5553947],[1.5405598,52.555568],[1.5363697,52.5621792],[1.5284466,52.559509],[1.522382,52.562684],[1.5248523,52.5699607],[1.5184133,52.5758059],[1.4977689,52.5712943],[1.4846472,52.5877594],[1.4689784,52.5870175],[1.4624806,52.5941845],[1.4545152,52.5945351],[1.4536441,52.6013511],[1.4334649,52.6124254],[1.4376568,52.6175525],[1.4346739,52.6200315],[1.4293963,52.6182888],[1.4220712,52.6223045],[1.4136802,52.6211724],[1.4070498,52.6139407],[1.40077,52.613214],[1.39894,52.6085122],[1.3876248,52.6045899],[1.3813712,52.6063714],[1.3766087,52.6206538],[1.3676739,52.6244205],[1.3514302,52.621445],[1.3504533,52.6212659],[1.3503476,52.6213192],[1.3411742,52.6259389],[1.3374496,52.6261552],[1.3319229,52.6262376],[1.324508,52.6238226]]],"type":"Polygon"},"id":"E02006907","properties":{"code":"E02006907","geography":"MSOA","name":"Norwich 014"},"type":"Feature"},{"geometry":{"coordinates":[[[1.3120437,52.6387489],[1.3029569,52.6395411],[1.3022843,52.6367234],[1.3019446,52.6363308],[1.3024628,52.6353523],[1.3109985,52.6331597],[1.3160741,52.6233731],[1.324508,52.6238226],[1.3225013,52.6258918],[1.3283189,52.6297019],[1.3155321,52.6338577],[1.3120437,52.6387489]]],"type":"Polygon"},"id":"E02006908","properties":{"code":"E02006908","geography":"MSOA","name":"Norwich 015"},"type":"Feature"},{"geometry":{"coordinates":[[[1.2916299,52.6388451],[1.2735369,52.6411888],[1.2751561,52.6341547],[1.2829656,52.62984],[1.2876156,52.6365411],[1.2948638,52.6334439],[1.297185,52.6371106],[1.3019446,52.6363308],[1.3022843,52.6367234],[1.2916299,52.6388451]]],"type":"Polygon"},"id":"E02007052","properties":{"code":"E02007052","geography":"MSOA","name":"Norwich 016"},"type":"Feature"},{"geometry":{"coordinates":[[[1.3019446,52.6363308],[1.297185,52.6371106],[1.2948638,52.6334439],[1.2876156,52.6365411],[1.2829656,52.62984],[1.2849404,52.6292245],[1.2995411,52.6209957],[1.3054588,52.6203451],[1.2949043,52.6318275],[1.3024628,52.6353523],[1.3019446,52.6363308]]],"type":"Polygon"},"id":"E02007053","properties":{"code":"E02007053","geography":"MSOA","name":"Norwich 017"},"type":"Feature"}],"type":"FeatureCollection"}
