{"features":[{"geometry":{"coordinates":[[[-2.7185437,53.7535075],[-2.7251803,53.7569225],[-2.7668683,53.7547093],[-2.7744133,53.7533836],[-2.7743677,53.7526035],[-2.7736533,53.7446258],[-2.7518831,53.7387897],[-2.7496201,53.7387466],[-2.73953,53.7462526],[-2.7377373,53.744321],[-2.7341283,53.7468372],[-2.735373,53.7432733],[-2.7318322,53.7434449],[-2.7295203,53.7499745],[-2.7185437,53.7535075]]],"type":"Polygon"},"id":"E02005287","properties":{"code":"E02005287","geography":"MSOA","name":"South Ribble 001"},"type":"Feature"},{"geometry":{"coordinates":[[[-2.5994894,53.7814562],[-2.6118755,53.7785609],[-2.6319209,53.782779],[-2.6349972,53.7801442],[-2.6217907,53.7712017],[-2.6280309,53.7672989],[-2.6438891,53.7649511],[-2.6450226,53.7601996],[-2.6569343,53.7603045],[-2.6619221,53.7501834],[-2.6413166,53.7527991],[-2.6501501,53.744531],[-2.6442838,53.7431989],[-2.6509454,53.7417128],[-2.6476654,53.7336336],[-2.6336258,53.7257179],[-2.6241527,53.7265897],[-2.6118577,53.7385549],[-2.5874561,53.7430878],[-2.5772395,53.7511307],[-2.5616036,53.7468859],[-2.553989,53.7496923],[-2.5513,53.7563733],[-2.5636365,53.757258],[-2.5642743,53.7619966],[-2.545545,53.7691897],[-2.5475073,53.7758562],[-2.5668399,53.7771929],[-2.5774407,53.7749427],[-2.5852977,53.7827038],[-2.5929487,53.7790023],[-2.5994894,53.7814562]]],"type":"Polygon"},"id":"E02005288","properties":{"code":"E02005288","geography":"MSOA","name":"South Ribble 002"},"type":"Feature"},{"geometry":{"coordinates":[[[-2.7166688,53.7501527],[-2.7185437,53.7535075],[-2.7295203,53.7499745],[-2.7318322,53.7434449],[-2.735373,53.7432733],[-2.7341283,53.7468372],[-2.7377373,53.744321],[-2.73953,53.7462526],[-2.7496201,53.7387466],[-2.7275272,53.7329699],[-2.7237246,53.740047],[-2.7165943,53.7426777],[-2.7129829,53.7449155],[-2.7192979,53.7442605],[-2.7166688,53.7501527]]],"type":"Polygon"},"id":"E02005289","properties":{"code":"E02005289","geography":"MSOA","name":"South Ribble 003"},"type":"Feature"},{"geometry":{"coordinates":[[[-2.6619221,53.7501834],[-2.6687403,53.7485037],[-2.6789902,53.7530191],[-2.6889329,53.7489654],[-2.6960924,53.7519221],[-2.7055369,53.7502568],[-2.699751,53.749749],[-2.7013714,53.7458324],[-2.6953528,53.7387075],[-2.6902132,53.7353579],[-2.6867848,53.7377857],[-2.6777469,53.7367628],[-2.6674955,53.737255],[-2.6637694,53.7344187],[-2.658423,53.7429778],[-2.6509454,53.7417128],[-2.6442838,53.7431989],[-2.6501501,53.744531],[-2.6413166,53.7527991],[-2.6619221,53.7501834]]],"type":"Polygon"},"id":"E02005290","properties":{"code":"E02005290","geography":"MSOA","name":"South Ribble 004"},"type":"Feature"},{"geometry":{"coordinates":[[[-2.6953528,53.7387075],[-2.7013714,53.7458324],[-2.699751,53.749749],[-2.7055369,53.7502568],[-2.7099092,53.7480183],[-2.7166688,53.7501527],[-2.7192979,53.7442605],[-2.7129829,53.7449155],[-2.7165943,53.7426777],[-2.7161128,53.7375248],[-2.7090272,53.7371552],[-2.6951253,53.7265047],[-2.6930595,53.7266889],[-2.7004999,53.7385916],[-2.6953528,53.7387075]]],"type":"Polygon"},"id":"E02005291","properties":{"code":"E02005291","geography":"MSOA","name":"South Ribble 005"},"type":"Feature"},{"geometry":{"coordinates":[[[-2.6951253,53.7265047],[-2.7090272,53.7371552],[-2.7161128,53.7375248],[-2.7165943,53.7426777],[-2.7237246,53.740047],[-2.7275272,53.7329699],[-2.7169505,53.7254478],[-2.6951253,53.7265047]]],"type":"Polygon"},"id":"E02005292","properties":{"code":"E02005292","geography":"MSOA","name":"South Ribble 006"},"type":"Feature"},{"geometry":{"coordinates":[[[-2.6637694,53.7344187],[-2.6674955,53.737255],[-2.6777469,53.7367628],[-2.6733828,53.7213897],[-2.6647597,53.7205949],[-2.6604665,53.7260445],[-2.6637694,53.7344187]]],"type":"Polygon"},"id":"E02005293","properties":{"code":"E02005293","geography":"MSOA","name":"South Ribble 007"},"type":"Feature"},{"geometry":{"coordinates":[[[-2.6509454,53.7417128],[-2.658423,53.7429778],[-2.6637694,53.7344187],[-2.6604665,53.7260445],[-2.6647597,53.7205949],[-2.6584313,53.7177076],[-2.6556917,53.7126642],[-2.6398884,53.7177617],[-2.6297579,53.7172758],[-2.6241527,53.7265897],[-2.6336258,53.7257179],[-2.6476654,53.7336336],[-2.6509454,53.7417128]]],"type":"Polygon"},"id":"E02005294","properties":{"code":"E02005294","geography":"MSOA","name":"South Ribble 008"},"type":"Feature"},{"geometry":{"coordinates":[[[-2.6777469,53.7367628],[-2.6867848,53.7377857],[-2.6902132,53.7353579],[-2.6953528,53.7387075],[-2.7004999,53.7385916],[-2.6930595,53.7266889],[-2.6901801,53.7218302],[-2.6948231,53.7171919],[-2.6733828,53.7213897],[-2.6777469,53.7367628]]],"type":"Polygon"},"id":"E02005295","properties":{"code":"E02005295","geography":"MSOA","name":"South Ribble 009"},"type":"Feature"},{"geometry":{"coordinates":[[[-2.7496201,53.7387466],[-2.7518831,53.7387897],[-2.768233,53.734995],[-2.7767636,53.7381245],[-2.7922983,53.7318558],[-2.7834927,53.7338065],[-2.7826344,53.7269307],[-2.7779588,53.7261536],[-2.7785057,53.7207189],[-2.7917267,53.7195814],[-2.7898255,53.7149161],[-2.7775337,53.7143991],[-2.7817289,53.7108245],[-2.7744353,53.7090259],[-2.7519784,53.7099226],[-2.732194,53.7109112],[-2.7284127,53.7265685],[-2.7169505,53.7254478],[-2.7275272,53.7329699],[-2.7496201,53.7387466]]],"type":"Polygon"},"id":"E02005296","properties":{"code":"E02005296","geography":"MSOA","name":"South Ribble 010"},"type":"Feature"},{"geometry":{"coordinates":[[[[-2.8368147,53.7236433],[-2.8378615,53.7241701],[-2.8366733,53.7235025],[-2.8368147,53.7236433]]],[[[-2.8646705,53.7339079],[-2.866092,53.7336921],[-2.8600419,53.7328553],[-2.8646705,53.7339079]]],[[[-2.7761392,53.7534624],[-2.8200717,53.7443145],[-2.8223338,53.7436869],[-2.854835,53.735315],[-2.8446884,53.7300893],[-2.8429908,53.7289534],[-2.8358061,53.7247477],[-2.8354355,53.7243261],[-2.8267293,53.7201171],[-2.8299489,53.7195438],[-2.8267624,53.7160088],[-2.8266307,53.7158626],[-2.8263115,53.7131854],[-2.8270591,53.7139301],[-2.8308495,53.7177045],[-2.8239837,53.7028379],[-2.8322936,53.700455],[-2.8331344,53.6954985],[-2.8257525,53.6874286],[-2.8201287,53.6871221],[-2.7958753,53.6874672],[-2.7874627,53.6912909],[-2.757626,53.6928639],[-2.7519784,53.7099226],[-2.7744353,53.7090259],[-2.7817289,53.7108245],[-2.7775337,53.7143991],[-2.7898255,53.7149161],[-2.7917267,53.7195814],[-2.7785057,53.7207189],[-2.7779588,53.7261536],[-2.7826344,53.7269307],[-2.7834927,53.7338065],[-2.7922983,53.7318558],[-2.7767636,53.7381245],[-2.768233,53.734995],[-2.7518831,53.7387897],[-2.7736533,53.7446258],[-2.7743677,53.7526035],[-2.7741286,53.7485208],[-2.7761392,53.7534624]]]],"type":"MultiPolygon"},"id":"E02005297","properties":{"code":"E02005297","geography":"MSOA","name":"South Ribble 011"},"type":"Feature"},{"geometry":{"coordinates":[[[-2.7169505,53.7254478],[-2.7284127,53.7265685],[-2.732194,53.7109112],[-2.7129088,53.7023866],[-2.7058355,53.7013873],[-2.7019899,53.7038281],[-2.6809408,53.6995653],[-2.6768108,53.7047137],[-2.6584313,53.7177076],[-2.6647597,53.7205949],[-2.6733828,53.7213897],[-2.6948231,53.7171919],[-2.6901801,53.7218302],[-2.6930595,53.7266889],[-2.6951253,53.7265047],[-2.7169505,53.7254478]]],"type":"Polygon"},"id":"E02005298","properties":{"code":"E02005298","geography":"MSOA","name":"South Ribble 012"},"type":"Feature"},{"geometry":{"coordinates":[[[-2.6775823,53.6959661],[-2.6768108,53.7047137],[-2.6809408,53.6995653],[-2.7019899,53.7038281],[-2.7058355,53.7013873],[-2.7129088,53.7023866],[-2.7129961,53.7013615],[-2.712411,53.6958461],[-2.710993,53.6985861],[-2.7024528,53.6983032],[-2.7054451,53.692679],[-2.6951538,53.6925707],[-2.6775823,53.6959661]]],"type":"Polygon"},"id":"E02005299","properties":{"code":"E02005299","geography":"MSOA","name":"South Ribble 013"},"type":"Feature"},{"geometry":{"coordinates":[[[-2.7129088,53.7023866],[-2.732194,53.7109112],[-2.7519784,53.7099226],[-2.757626,53.6928639],[-2.7466055,53.6926913],[-2.744112,53.6877377],[-2.7344563,53.6872854],[-2.7298391,53.692485],[-2.7220135,53.6927376],[-2.7214959,53.6966792],[-2.7149784,53.6973369],[-2.7206912,53.6980266],[-2.718263,53.7022805],[-2.7129961,53.7013615],[-2.7129088,53.7023866]]],"type":"Polygon"},"id":"E02005300","properties":{"code":"E02005300","geography":"MSOA","name":"South Ribble 014"},"type":"Feature"},{"geometry":{"coordinates":[[[-2.7129961,53.7013615],[-2.718263,53.7022805],[-2.7206912,53.6980266],[-2.7149784,53.6973369],[-2.7214959,53.6966792],[-2.7220135,53.6927376],[-2.7120482,53.6939796],[-2.708106,53.6815255],[-2.6882386,53.6790783],[-2.6873479,53.6815582],[-2.6929001,53.6813015],[-2.6970995,53.686149],[-2.6867791,53.6881662],[-2.6875236,53.6902264],[-2.6953617,53.6890214],[-2.6951538,53.6925707],[-2.7054451,53.692679],[-2.7024528,53.6983032],[-2.710993,53.6985861],[-2.712411,53.6958461],[-2.7129961,53.7013615]]],"type":"Polygon"},"id":"E02005301","properties":{"code":"E02005301","geography":"MSOA","name":"South Ribble 015"},"type":"Feature"},{"geometry":{"coordinates":[[[-2.6559444,53.6884981],[-2.6774632,53.6936226],[-2.6775823,53.6959661],[-2.6951538,53.6925707],[-2.6953617,53.6890214],[-2.6875236,53.6902264],[-2.6867791,53.6881662],[-2.6970995,53.686149],[-2.6929001,53.6813015],[-2.6873479,53.6815582],[-2.6882386,53.6790783],[-2.6763477,53.6792357],[-2.6589204,53.680606],[-2.6559444,53.6884981]]],"type":"Polygon"},"id":"E02005302","properties":{"code":"E02005302","geography":"MSOA","name":"South Ribble 016"},"type":"Feature"},{"geometry":{"coordinates":[[[-2.708106,53.6815255],[-2.7120482,53.6939796],[-2.7220135,53.6927376],[-2.7298391,53.692485],[-2.7344563,53.6872854],[-2.7291104,53.6832914],[-2.733553,53.6742669],[-2.7124908,53.6713142],[-2.708106,53.6815255]]],"type":"Polygon"},"id":"E02005303","properties":{"code":"E02005303","geography":"MSOA","name":"South Ribble 017"},"type":"Feature"}],"type":"FeatureCollection"}
