{"features":[{"geometry":{"coordinates":[[[0.2375004,51.7798207],[0.2368121,51.7861266],[0.2408942,51.7883906],[0.2358125,51.7886037],[0.2315202,51.7951541],[0.2257693,51.7944968],[0.2186905,51.7981747],[0.207304,51.7920988],[0.1966333,51.7957843],[0.18841,51.8196493],[0.1662247,51.8221469],[0.1647086,51.8192332],[0.1730053,51.8188656],[0.1725592,51.8163066],[0.166981,51.813273],[0.1582919,51.8135148],[0.1507397,51.7970432],[0.1461142,51.7962373],[0.1473928,51.7934508],[0.1535426,51.7937937],[0.1550104,51.7857989],[0.1679911,51.7827774],[0.1546006,51.7670408],[0.1481082,51.7590617],[0.1265827,51.7521352],[0.1267977,51.7491195],[0.1183564,51.7482212],[0.0974089,51.7432578],[0.1000499,51.7393371],[0.1152016,51.7404615],[0.117018,51.7315794],[0.1218229,51.7340452],[0.13358,51.7282368],[0.1567566,51.7315611],[0.1525589,51.7215841],[0.1414418,51.7234608],[0.145964,51.7096834],[0.1783677,51.711142],[0.1790939,51.7165171],[0.1872482,51.7203818],[0.1850494,51.7259304],[0.1896862,51.7332855],[0.1798927,51.7382788],[0.1734789,51.7364663],[0.1692614,51.7488447],[0.1608173,51.7572542],[0.1642703,51.7607355],[0.1810101,51.7709458],[0.2129139,51.7730392],[0.2226727,51.776942],[0.234961,51.7755042],[0.2375004,51.7798207]]],"type":"Polygon"},"id":"E02004527","properties":{"code":"E02004527","geography":"MSOA","name":"Epping Forest 001"},"type":"Feature"},{"geometry":{"coordinates":[[[0.0653995,51.7615626],[0.0584328,51.7611411],[0.0548433,51.7663048],[0.0540421,51.7755301],[0.0612411,51.778001],[0.0576478,51.7796655],[0.0422887,51.7751252],[0.0267716,51.7741742],[0.0140014,51.7643743],[0.0129648,51.7574599],[0.0041025,51.7553561],[0.001503,51.7454573],[-0.0061624,51.7417222],[-0.0130059,51.7427462],[-0.0137729,51.7353956],[-0.0141464,51.7231163],[0.0141145,51.7206659],[0.0152056,51.7176293],[0.009723,51.7162115],[0.0155076,51.7136937],[0.0364149,51.7212355],[0.0526654,51.7220228],[0.0584023,51.7149192],[0.0582565,51.7061072],[0.0648598,51.7071534],[0.0679774,51.7045823],[0.0671554,51.6923032],[0.0809034,51.6815265],[0.093049,51.6819688],[0.0962987,51.6891787],[0.0942106,51.6895686],[0.0899318,51.6900799],[0.0990545,51.6960672],[0.0935947,51.7097666],[0.0984931,51.7119454],[0.1164899,51.708301],[0.1215266,51.7106309],[0.117018,51.7315794],[0.1152016,51.7404615],[0.1000499,51.7393371],[0.0842668,51.7346829],[0.0726681,51.7459537],[0.0634372,51.7522125],[0.0653995,51.7615626]]],"type":"Polygon"},"id":"E02004528","properties":{"code":"E02004528","geography":"MSOA","name":"Epping Forest 002"},"type":"Feature"},{"geometry":{"coordinates":[[[0.3466738,51.7675896],[0.3216123,51.7699265],[0.3200549,51.772557],[0.3129392,51.768836],[0.2993386,51.7718535],[0.3028027,51.7774008],[0.2964283,51.7805547],[0.2991719,51.785202],[0.2955891,51.7902585],[0.2776716,51.7890994],[0.2574714,51.7818639],[0.2375004,51.7798207],[0.234961,51.7755042],[0.2226727,51.776942],[0.2129139,51.7730392],[0.1810101,51.7709458],[0.1642703,51.7607355],[0.1608173,51.7572542],[0.1692614,51.7488447],[0.1734789,51.7364663],[0.1798927,51.7382788],[0.1896862,51.7332855],[0.1850494,51.7259304],[0.1872482,51.7203818],[0.1790939,51.7165171],[0.1783677,51.711142],[0.145964,51.7096834],[0.1355664,51.7072406],[0.1400056,51.7054637],[0.131954,51.6954259],[0.1350054,51.6880669],[0.1249525,51.6794665],[0.1135305,51.6813924],[0.1183607,51.6647781],[0.1218453,51.6615806],[0.1267383,51.6622838],[0.1280341,51.6576607],[0.1359785,51.65977],[0.1513034,51.6576725],[0.1606128,51.6610416],[0.1480857,51.6354524],[0.1510459,51.6232444],[0.1649573,51.6224941],[0.1969595,51.625565],[0.2002835,51.6249327],[0.1945951,51.6409761],[0.1756759,51.6557885],[0.1929632,51.6530954],[0.1908305,51.6598168],[0.20813,51.6609677],[0.2067609,51.6644825],[0.2132741,51.6655307],[0.2149992,51.6748479],[0.238975,51.6741061],[0.2321572,51.683354],[0.2401988,51.6827468],[0.2457746,51.6881138],[0.2277431,51.6997449],[0.1898671,51.7048759],[0.19838,51.711249],[0.2159566,51.7066499],[0.2339189,51.7077289],[0.2351091,51.7279607],[0.2435986,51.7302065],[0.2474396,51.7248913],[0.252612,51.7282298],[0.2660025,51.7228348],[0.2648223,51.7192842],[0.2521807,51.7170213],[0.2521084,51.7132187],[0.2578871,51.713325],[0.25749,51.6968471],[0.2657121,51.6997024],[0.2668416,51.6958148],[0.2834509,51.6941072],[0.3020979,51.6809614],[0.3074292,51.6942868],[0.3237993,51.7097903],[0.3230354,51.7141627],[0.3339725,51.7170078],[0.3474249,51.7304342],[0.3441098,51.7487139],[0.341186,51.7529026],[0.3466738,51.7675896]]],"type":"Polygon"},"id":"E02004529","properties":{"code":"E02004529","geography":"MSOA","name":"Epping Forest 003"},"type":"Feature"},{"geometry":{"coordinates":[[[0.25749,51.6968471],[0.2578871,51.713325],[0.2521084,51.7132187],[0.2521807,51.7170213],[0.2648223,51.7192842],[0.2660025,51.7228348],[0.252612,51.7282298],[0.2474396,51.7248913],[0.2435986,51.7302065],[0.2351091,51.7279607],[0.2339189,51.7077289],[0.2159566,51.7066499],[0.19838,51.711249],[0.1898671,51.7048759],[0.2277431,51.6997449],[0.2457746,51.6881138],[0.2550464,51.6902675],[0.25749,51.6968471]]],"type":"Polygon"},"id":"E02004530","properties":{"code":"E02004530","geography":"MSOA","name":"Epping Forest 004"},"type":"Feature"},{"geometry":{"coordinates":[[[0.145964,51.7096834],[0.1414418,51.7234608],[0.1525589,51.7215841],[0.1567566,51.7315611],[0.13358,51.7282368],[0.1218229,51.7340452],[0.117018,51.7315794],[0.1215266,51.7106309],[0.1164899,51.708301],[0.0984931,51.7119454],[0.0935947,51.7097666],[0.0990545,51.6960672],[0.0899318,51.6900799],[0.0942106,51.6895686],[0.1169107,51.7028978],[0.1228551,51.6986392],[0.1355664,51.7072406],[0.145964,51.7096834]]],"type":"Polygon"},"id":"E02004531","properties":{"code":"E02004531","geography":"MSOA","name":"Epping Forest 005"},"type":"Feature"},{"geometry":{"coordinates":[[[0.1135305,51.6813924],[0.1249525,51.6794665],[0.1350054,51.6880669],[0.131954,51.6954259],[0.1400056,51.7054637],[0.1355664,51.7072406],[0.1228551,51.6986392],[0.1169107,51.7028978],[0.0942106,51.6895686],[0.0962987,51.6891787],[0.1135305,51.6813924]]],"type":"Polygon"},"id":"E02004532","properties":{"code":"E02004532","geography":"MSOA","name":"Epping Forest 006"},"type":"Feature"},{"geometry":{"coordinates":[[[0.0304178,51.6850046],[0.03205,51.6887439],[0.0379732,51.6900235],[0.0343425,51.6983059],[0.0160014,51.6919452],[0.0155695,51.6990735],[0.0022677,51.6925058],[0.0015715,51.6860858],[0.0060687,51.6862937],[0.0074621,51.6831153],[0.0162195,51.6902975],[0.0186446,51.6858621],[0.0304178,51.6850046]]],"type":"Polygon"},"id":"E02004533","properties":{"code":"E02004533","geography":"MSOA","name":"Epping Forest 007"},"type":"Feature"},{"geometry":{"coordinates":[[[0.0304178,51.6850046],[0.0186446,51.6858621],[0.0162195,51.6902975],[0.0074621,51.6831153],[0.0060687,51.6862937],[0.001158,51.6829486],[-0.0017853,51.6861781],[-0.0116458,51.686736],[-0.0119449,51.6808751],[-0.0102876,51.6764839],[0.0260076,51.6742806],[0.0339352,51.6778053],[0.0304178,51.6850046]]],"type":"Polygon"},"id":"E02004534","properties":{"code":"E02004534","geography":"MSOA","name":"Epping Forest 008"},"type":"Feature"},{"geometry":{"coordinates":[[[0.0809034,51.6815265],[0.0671554,51.6923032],[0.0679774,51.7045823],[0.0648598,51.7071534],[0.0582565,51.7061072],[0.0584023,51.7149192],[0.0526654,51.7220228],[0.0364149,51.7212355],[0.0155076,51.7136937],[0.009723,51.7162115],[0.0152056,51.7176293],[0.0141145,51.7206659],[-0.0141464,51.7231163],[-0.0150642,51.7172387],[-0.017593,51.7074309],[-0.0188196,51.6996468],[-0.0163289,51.6901817],[-0.0116458,51.686736],[-0.0017853,51.6861781],[0.001158,51.6829486],[0.0060687,51.6862937],[0.0015715,51.6860858],[0.0022677,51.6925058],[0.0155695,51.6990735],[0.0160014,51.6919452],[0.0343425,51.6983059],[0.0379732,51.6900235],[0.03205,51.6887439],[0.0304178,51.6850046],[0.0339352,51.6778053],[0.0260076,51.6742806],[-0.0102876,51.6764839],[-0.0098578,51.6617685],[-0.0122855,51.6462287],[0.0043721,51.6415235],[0.0226933,51.641114],[0.0251326,51.6372879],[0.034902,51.644555],[0.0392567,51.6556544],[0.0446387,51.6657971],[0.0680349,51.6769607],[0.0809034,51.6815265]]],"type":"Polygon"},"id":"E02004535","properties":{"code":"E02004535","geography":"MSOA","name":"Epping Forest 009"},"type":"Feature"},{"geometry":{"coordinates":[[[0.1135305,51.6813924],[0.0962987,51.6891787],[0.093049,51.6819688],[0.0809034,51.6815265],[0.0680349,51.6769607],[0.0890573,51.6655588],[0.1019904,51.652861],[0.1026034,51.6494412],[0.1087956,51.6494893],[0.1046949,51.6449163],[0.1141063,51.639164],[0.1136241,51.6341953],[0.1291603,51.6214412],[0.1381564,51.6235426],[0.1510459,51.6232444],[0.1480857,51.6354524],[0.1606128,51.6610416],[0.1513034,51.6576725],[0.1359785,51.65977],[0.1280341,51.6576607],[0.1267383,51.6622838],[0.1218453,51.6615806],[0.1183607,51.6647781],[0.1135305,51.6813924]]],"type":"Polygon"},"id":"E02004536","properties":{"code":"E02004536","geography":"MSOA","name":"Epping Forest 010"},"type":"Feature"},{"geometry":{"coordinates":[[[0.1019904,51.652861],[0.0890573,51.6655588],[0.0755473,51.657124],[0.06873,51.6575152],[0.0804497,51.6472045],[0.0840428,51.6412623],[0.1019904,51.652861]]],"type":"Polygon"},"id":"E02004537","properties":{"code":"E02004537","geography":"MSOA","name":"Epping Forest 011"},"type":"Feature"},{"geometry":{"coordinates":[[[0.0890573,51.6655588],[0.0680349,51.6769607],[0.0446387,51.6657971],[0.0392567,51.6556544],[0.0531907,51.64827],[0.0574953,51.6420094],[0.0677382,51.6456215],[0.0668697,51.6479661],[0.0804497,51.6472045],[0.06873,51.6575152],[0.0755473,51.657124],[0.0890573,51.6655588]]],"type":"Polygon"},"id":"E02004538","properties":{"code":"E02004538","geography":"MSOA","name":"Epping Forest 012"},"type":"Feature"},{"geometry":{"coordinates":[[[0.0804497,51.6472045],[0.0668697,51.6479661],[0.0677382,51.6456215],[0.0574953,51.6420094],[0.0551361,51.6348916],[0.0614412,51.6365916],[0.0660934,51.6337756],[0.0716217,51.6392663],[0.0840428,51.6412623],[0.0804497,51.6472045]]],"type":"Polygon"},"id":"E02004539","properties":{"code":"E02004539","geography":"MSOA","name":"Epping Forest 013"},"type":"Feature"},{"geometry":{"coordinates":[[[0.0574953,51.6420094],[0.0531907,51.64827],[0.0392567,51.6556544],[0.034902,51.644555],[0.0251326,51.6372879],[0.025198,51.6352481],[0.0335884,51.6390909],[0.0595382,51.6306999],[0.0660934,51.6337756],[0.0614412,51.6365916],[0.0551361,51.6348916],[0.0574953,51.6420094]]],"type":"Polygon"},"id":"E02004540","properties":{"code":"E02004540","geography":"MSOA","name":"Epping Forest 014"},"type":"Feature"},{"geometry":{"coordinates":[[[0.0595382,51.6306999],[0.0335884,51.6390909],[0.025198,51.6352481],[0.0217929,51.6288314],[0.0407702,51.6157397],[0.0536838,51.6182787],[0.0509803,51.6229529],[0.0591657,51.6245339],[0.0595382,51.6306999]]],"type":"Polygon"},"id":"E02004541","properties":{"code":"E02004541","geography":"MSOA","name":"Epping Forest 015"},"type":"Feature"},{"geometry":{"coordinates":[[[0.1291603,51.6214412],[0.1136241,51.6341953],[0.1141063,51.639164],[0.1046949,51.6449163],[0.1087956,51.6494893],[0.1026034,51.6494412],[0.1019904,51.652861],[0.0840428,51.6412623],[0.0716217,51.6392663],[0.0660934,51.6337756],[0.0595382,51.6306999],[0.0591657,51.6245339],[0.0509803,51.6229529],[0.0536838,51.6182787],[0.0482867,51.6146051],[0.0520826,51.6122178],[0.0625383,51.6070683],[0.0800924,51.6109338],[0.0769257,51.6174017],[0.0841653,51.6158305],[0.0958918,51.619086],[0.098038,51.6154259],[0.1001414,51.6127232],[0.1072576,51.6133408],[0.1166881,51.6169205],[0.119901,51.6155765],[0.1291603,51.6214412]]],"type":"Polygon"},"id":"E02004542","properties":{"code":"E02004542","geography":"MSOA","name":"Epping Forest 016"},"type":"Feature"},{"geometry":{"coordinates":[[[0.098038,51.6154259],[0.0958918,51.619086],[0.0841653,51.6158305],[0.0769257,51.6174017],[0.0800924,51.6109338],[0.0625383,51.6070683],[0.0629719,51.6069101],[0.0871186,51.6044655],[0.0946405,51.610741],[0.092258,51.6135726],[0.098038,51.6154259]]],"type":"Polygon"},"id":"E02004543","properties":{"code":"E02004543","geography":"MSOA","name":"Epping Forest 017"},"type":"Feature"}],"type":"FeatureCollection"}
