{"features":[{"geometry":{"coordinates":[[[0.1231437,51.1091259],[0.1251353,51.1184954],[0.1198946,51.1345085],[0.1259066,51.1469491],[0.0781614,51.1399491],[0.0499891,51.1426534],[0.0273341,51.139854],[0.0281253,51.1177232],[0.044543,51.1106582],[0.0254229,51.109023],[0.0185917,51.1035791],[0.0094777,51.1103955],[0.0050034,51.1052629],[0.0113386,51.1026086],[0.0029127,51.1022956],[-0.0108924,51.0965025],[-0.0213441,51.0967601],[-0.0261972,51.0917534],[-0.036224,51.0934609],[-0.0328286,51.0923922],[-0.0268793,51.0751167],[-0.0132836,51.0739708],[-0.0149969,51.0693558],[-0.0097895,51.0635427],[-0.0014575,51.0640087],[0.0058856,51.0697442],[0.0262201,51.0676877],[0.0325327,51.0722333],[0.0423296,51.0723524],[0.0509558,51.0776346],[0.0578111,51.0749865],[0.0719105,51.0819336],[0.074175,51.0705655],[0.0783926,51.0715951],[0.0792151,51.0830664],[0.0919859,51.0852738],[0.0844815,51.0868454],[0.088469,51.0914271],[0.1050055,51.0924164],[0.111552,51.1038941],[0.1154482,51.1021223],[0.1231437,51.1091259]]],"type":"Polygon"},"id":"E02004403","properties":{"code":"E02004403","geography":"MSOA","name":"Wealden 001"},"type":"Feature"},{"geometry":{"coordinates":[[[0.1607209,51.1373219],[0.1609408,51.1406374],[0.1445438,51.1432543],[0.1395705,51.1467184],[0.1259066,51.1469491],[0.1198946,51.1345085],[0.1251353,51.1184954],[0.1231437,51.1091259],[0.1320085,51.1030343],[0.1216964,51.0939181],[0.1245782,51.0903651],[0.1163846,51.0696184],[0.1001139,51.0516447],[0.1007735,51.0449565],[0.1138485,51.0484349],[0.1176518,51.0452838],[0.1191455,51.0470708],[0.1241098,51.0537588],[0.132376,51.0552798],[0.1465503,51.0526246],[0.1436377,51.0603716],[0.1467985,51.0600355],[0.1520841,51.0691879],[0.1601984,51.0665222],[0.1631528,51.0691699],[0.1742609,51.0650994],[0.1904908,51.0649241],[0.1880364,51.0579374],[0.1909355,51.0592283],[0.1979207,51.0463947],[0.2085179,51.0463816],[0.2121102,51.0507447],[0.2230905,51.0517507],[0.2267343,51.0497956],[0.2171732,51.0466268],[0.2214715,51.0446423],[0.2327415,51.049663],[0.2328603,51.0455939],[0.2231622,51.0375622],[0.2148064,51.0353165],[0.2221689,51.0276441],[0.2366519,51.0326032],[0.2425538,51.0399464],[0.2557119,51.0457849],[0.257133,51.0505109],[0.2679342,51.0524807],[0.2603327,51.0568109],[0.2649423,51.0598757],[0.2618891,51.0621365],[0.2688841,51.0731504],[0.2846032,51.079342],[0.2961361,51.0790398],[0.302664,51.0885001],[0.3124755,51.09342],[0.3507577,51.0990112],[0.3589043,51.1045188],[0.3346764,51.1055671],[0.3245443,51.1121334],[0.3300518,51.1178051],[0.3261997,51.122441],[0.3252385,51.1228826],[0.2986917,51.1181617],[0.2796221,51.1178503],[0.2758996,51.1204081],[0.2724342,51.1186048],[0.278915,51.1146789],[0.2756444,51.1123583],[0.2427597,51.1165898],[0.2274329,51.1242519],[0.1995337,51.1169164],[0.1625719,51.1164013],[0.1534119,51.1205866],[0.1500365,51.1311785],[0.1545822,51.1375389],[0.1607209,51.1373219]]],"type":"Polygon"},"id":"E02004404","properties":{"code":"E02004404","geography":"MSOA","name":"Wealden 002"},"type":"Feature"},{"geometry":{"coordinates":[[[0.1880364,51.0579374],[0.1904908,51.0649241],[0.1742609,51.0650994],[0.1631528,51.0691699],[0.1601984,51.0665222],[0.1609473,51.0556632],[0.1681727,51.0559373],[0.1648456,51.0528126],[0.1830618,51.0489783],[0.1797135,51.0541296],[0.1880364,51.0579374]]],"type":"Polygon"},"id":"E02004405","properties":{"code":"E02004405","geography":"MSOA","name":"Wealden 003"},"type":"Feature"},{"geometry":{"coordinates":[[[0.1601984,51.0665222],[0.1520841,51.0691879],[0.1467985,51.0600355],[0.1436377,51.0603716],[0.1465503,51.0526246],[0.132376,51.0552798],[0.1241098,51.0537588],[0.1191455,51.0470708],[0.136784,51.0417355],[0.1338849,51.0393977],[0.1428199,51.0296739],[0.1495187,51.0336246],[0.1629342,51.0355216],[0.1648456,51.0528126],[0.1681727,51.0559373],[0.1609473,51.0556632],[0.1601984,51.0665222]]],"type":"Polygon"},"id":"E02004406","properties":{"code":"E02004406","geography":"MSOA","name":"Wealden 004"},"type":"Feature"},{"geometry":{"coordinates":[[[0.3964464,51.083099],[0.3908174,51.0813357],[0.3916193,51.0857785],[0.3738762,51.0884672],[0.3646613,51.0881612],[0.3567433,51.0830635],[0.3507848,51.0840774],[0.3539507,51.0936219],[0.3507577,51.0990112],[0.3124755,51.09342],[0.302664,51.0885001],[0.2961361,51.0790398],[0.2846032,51.079342],[0.2688841,51.0731504],[0.2618891,51.0621365],[0.2649423,51.0598757],[0.2603327,51.0568109],[0.2679342,51.0524807],[0.257133,51.0505109],[0.2557119,51.0457849],[0.2425538,51.0399464],[0.2366519,51.0326032],[0.2221689,51.0276441],[0.2272097,51.0209453],[0.2275488,51.0084788],[0.2325813,51.0093178],[0.2422474,51.0043435],[0.2403789,50.999049],[0.2486709,50.9965165],[0.2483081,50.9923464],[0.2534508,50.9938898],[0.2541102,50.9878121],[0.2649242,50.9852631],[0.2670659,50.9914401],[0.278602,50.991047],[0.2777394,50.9979308],[0.2847377,51.005698],[0.3135539,51.0066986],[0.3180605,50.9962476],[0.3215573,50.9966879],[0.3300578,51.0040289],[0.3286305,51.0128851],[0.3539631,51.0175189],[0.3465737,51.0241035],[0.3554661,51.0318565],[0.3566821,51.05787],[0.3613261,51.0652794],[0.3760787,51.0725107],[0.3957446,51.073916],[0.3922252,51.0773696],[0.3964464,51.083099]]],"type":"Polygon"},"id":"E02004407","properties":{"code":"E02004407","geography":"MSOA","name":"Wealden 005"},"type":"Feature"},{"geometry":{"coordinates":[[[0.1979207,51.0463947],[0.1909355,51.0592283],[0.1880364,51.0579374],[0.1797135,51.0541296],[0.1830618,51.0489783],[0.1648456,51.0528126],[0.1629342,51.0355216],[0.1749668,51.0348984],[0.1979207,51.0463947]]],"type":"Polygon"},"id":"E02004408","properties":{"code":"E02004408","geography":"MSOA","name":"Wealden 006"},"type":"Feature"},{"geometry":{"coordinates":[[[0.1176518,51.0452838],[0.1138485,51.0484349],[0.1007735,51.0449565],[0.1001139,51.0516447],[0.1163846,51.0696184],[0.1245782,51.0903651],[0.1216964,51.0939181],[0.1320085,51.1030343],[0.1231437,51.1091259],[0.1154482,51.1021223],[0.111552,51.1038941],[0.1050055,51.0924164],[0.088469,51.0914271],[0.0844815,51.0868454],[0.0919859,51.0852738],[0.0792151,51.0830664],[0.0783926,51.0715951],[0.074175,51.0705655],[0.0719105,51.0819336],[0.0578111,51.0749865],[0.0509558,51.0776346],[0.0423296,51.0723524],[0.0325327,51.0722333],[0.0262201,51.0676877],[0.0058856,51.0697442],[-0.0014575,51.0640087],[-0.0097895,51.0635427],[-0.0082379,51.0563355],[0.0136986,51.0570162],[0.0076935,51.0509106],[-0.003029,51.047567],[-0.0020431,51.0430716],[-0.0079306,51.0389921],[-0.0015919,51.0357586],[-0.0219398,51.0265167],[-0.022199,51.0167898],[-0.0160343,51.0148065],[-0.0201223,51.0034715],[-0.0164306,51.0025234],[-0.0093382,51.0019186],[-0.0077531,50.998331],[0.0037646,50.9936629],[0.0111397,50.9776219],[0.0261461,50.9804866],[0.023962,50.9850097],[0.0276581,50.9876626],[0.022677,50.9868388],[0.0194676,50.9904896],[0.0292278,50.992227],[0.0353143,50.9853169],[0.04154,50.9886436],[0.036509,50.9952664],[0.046333,50.9953103],[0.051027,50.989597],[0.064388,50.9882656],[0.0699199,51.0030309],[0.062587,51.0100775],[0.0701721,51.0151384],[0.0950429,51.0042566],[0.1113216,51.0065657],[0.106039,51.0169618],[0.119859,51.0386242],[0.1176518,51.0452838]]],"type":"Polygon"},"id":"E02004409","properties":{"code":"E02004409","geography":"MSOA","name":"Wealden 007"},"type":"Feature"},{"geometry":{"coordinates":[[[0.2221689,51.0276441],[0.2148064,51.0353165],[0.2231622,51.0375622],[0.2328603,51.0455939],[0.2327415,51.049663],[0.2214715,51.0446423],[0.2171732,51.0466268],[0.2267343,51.0497956],[0.2230905,51.0517507],[0.2121102,51.0507447],[0.2085179,51.0463816],[0.1979207,51.0463947],[0.1749668,51.0348984],[0.1629342,51.0355216],[0.1495187,51.0336246],[0.1428199,51.0296739],[0.1338849,51.0393977],[0.136784,51.0417355],[0.1191455,51.0470708],[0.1176518,51.0452838],[0.119859,51.0386242],[0.106039,51.0169618],[0.1113216,51.0065657],[0.1087752,51.0032525],[0.1136151,50.999018],[0.1079288,50.9952553],[0.1042327,50.9968628],[0.1009884,50.9924143],[0.1040639,50.989993],[0.0964119,50.9907138],[0.1049886,50.9812459],[0.1119839,50.9790493],[0.1186806,50.98212],[0.1240521,50.9808783],[0.1069439,50.9711145],[0.1050425,50.9680279],[0.1136434,50.959918],[0.1065815,50.9496457],[0.1005796,50.9488252],[0.1186835,50.9405719],[0.121976,50.9431866],[0.1318782,50.940495],[0.1326171,50.9357436],[0.1419595,50.9327846],[0.1488993,50.9363478],[0.1467532,50.9404153],[0.1720485,50.9454325],[0.1746328,50.9554416],[0.1869006,50.9504518],[0.1830445,50.9472167],[0.1918706,50.9296668],[0.202634,50.9236985],[0.2059067,50.9263641],[0.2162956,50.9249395],[0.2210914,50.928138],[0.22604,50.9322304],[0.2244796,50.9373169],[0.2353975,50.9479358],[0.2359024,50.9499276],[0.2305476,50.948206],[0.226954,50.9572067],[0.2200754,50.9576955],[0.2198866,50.9623029],[0.2157512,50.9620789],[0.212195,50.9663407],[0.209179,50.9683671],[0.2124173,50.9707599],[0.2078527,50.9728756],[0.2035841,50.9662422],[0.1981551,50.9693175],[0.1843226,50.9664849],[0.1766795,50.9756977],[0.1916208,50.9809824],[0.1999313,50.9806967],[0.2026945,50.977224],[0.2129769,50.98122],[0.2183969,50.978957],[0.2185134,50.9857892],[0.2101484,50.9976286],[0.2146197,51.0016103],[0.2113182,51.0085205],[0.2170392,51.0113052],[0.208579,51.0156776],[0.2135535,51.0238983],[0.2221689,51.0276441]]],"type":"Polygon"},"id":"E02004410","properties":{"code":"E02004410","geography":"MSOA","name":"Wealden 008"},"type":"Feature"},{"geometry":{"coordinates":[[[0.0964119,50.9907138],[0.0945416,50.9922385],[0.0806427,50.977014],[0.0820882,50.9651686],[0.1069439,50.9711145],[0.1240521,50.9808783],[0.1186806,50.98212],[0.1119839,50.9790493],[0.1049886,50.9812459],[0.0964119,50.9907138]]],"type":"Polygon"},"id":"E02004411","properties":{"code":"E02004411","geography":"MSOA","name":"Wealden 009"},"type":"Feature"},{"geometry":{"coordinates":[[[0.2353975,50.9479358],[0.2436287,50.9468544],[0.2394048,50.953204],[0.2467083,50.9592355],[0.265543,50.9577112],[0.2571228,50.9680348],[0.2643163,50.970956],[0.2628097,50.9727727],[0.2548903,50.9735379],[0.2534374,50.979746],[0.2418516,50.9764142],[0.2257519,50.9773732],[0.2230052,50.9739898],[0.2311499,50.9702574],[0.2222007,50.9716856],[0.2173714,50.9663314],[0.212195,50.9663407],[0.2157512,50.9620789],[0.2198866,50.9623029],[0.2200754,50.9576955],[0.226954,50.9572067],[0.2305476,50.948206],[0.2359024,50.9499276],[0.2353975,50.9479358]]],"type":"Polygon"},"id":"E02004412","properties":{"code":"E02004412","geography":"MSOA","name":"Wealden 010"},"type":"Feature"},{"geometry":{"coordinates":[[[0.3215573,50.9966879],[0.3180605,50.9962476],[0.3135539,51.0066986],[0.2847377,51.005698],[0.2777394,50.9979308],[0.278602,50.991047],[0.2670659,50.9914401],[0.2649242,50.9852631],[0.2541102,50.9878121],[0.2534508,50.9938898],[0.2483081,50.9923464],[0.2486709,50.9965165],[0.2403789,50.999049],[0.2422474,51.0043435],[0.2325813,51.0093178],[0.2275488,51.0084788],[0.2272097,51.0209453],[0.2221689,51.0276441],[0.2135535,51.0238983],[0.208579,51.0156776],[0.2170392,51.0113052],[0.2113182,51.0085205],[0.2146197,51.0016103],[0.2101484,50.9976286],[0.2185134,50.9857892],[0.2183969,50.978957],[0.2129769,50.98122],[0.2026945,50.977224],[0.1999313,50.9806967],[0.1916208,50.9809824],[0.1766795,50.9756977],[0.1843226,50.9664849],[0.1981551,50.9693175],[0.2035841,50.9662422],[0.2078527,50.9728756],[0.2124173,50.9707599],[0.209179,50.9683671],[0.212195,50.9663407],[0.2173714,50.9663314],[0.2222007,50.9716856],[0.2311499,50.9702574],[0.2230052,50.9739898],[0.2257519,50.9773732],[0.2418516,50.9764142],[0.2534374,50.979746],[0.2548903,50.9735379],[0.2628097,50.9727727],[0.2643163,50.970956],[0.2571228,50.9680348],[0.265543,50.9577112],[0.2467083,50.9592355],[0.2394048,50.953204],[0.2436287,50.9468544],[0.2353975,50.9479358],[0.2244796,50.9373169],[0.22604,50.9322304],[0.2210914,50.928138],[0.2359891,50.920933],[0.2326763,50.9189422],[0.2412881,50.9163916],[0.2535513,50.9202584],[0.261796,50.9150701],[0.268897,50.9198937],[0.2793318,50.9142695],[0.271974,50.9380386],[0.2742391,50.9422332],[0.2885316,50.948286],[0.2949925,50.9569668],[0.3040861,50.9568543],[0.3235166,50.9638844],[0.3302425,50.9748773],[0.3215573,50.9966879]]],"type":"Polygon"},"id":"E02004413","properties":{"code":"E02004413","geography":"MSOA","name":"Wealden 011"},"type":"Feature"},{"geometry":{"coordinates":[[[0.1005796,50.9488252],[0.1065815,50.9496457],[0.1136434,50.959918],[0.1050425,50.9680279],[0.1069439,50.9711145],[0.0820882,50.9651686],[0.1005796,50.9488252]]],"type":"Polygon"},"id":"E02004414","properties":{"code":"E02004414","geography":"MSOA","name":"Wealden 012"},"type":"Feature"},{"geometry":{"coordinates":[[[0.1113216,51.0065657],[0.0950429,51.0042566],[0.0701721,51.0151384],[0.062587,51.0100775],[0.0699199,51.0030309],[0.064388,50.9882656],[0.051027,50.989597],[0.046333,50.9953103],[0.036509,50.9952664],[0.04154,50.9886436],[0.0353143,50.9853169],[0.0292278,50.992227],[0.0194676,50.9904896],[0.022677,50.9868388],[0.0276581,50.9876626],[0.023962,50.9850097],[0.0261461,50.9804866],[0.0379189,50.9740397],[0.0389866,50.9666239],[0.0516534,50.9692899],[0.0537468,50.9676066],[0.0486173,50.9603954],[0.0482036,50.946516],[0.055186,50.938818],[0.0572773,50.9260958],[0.0884959,50.9187982],[0.0955422,50.9231104],[0.1109252,50.9156516],[0.1218865,50.9152857],[0.0918541,50.8849526],[0.0980204,50.8815187],[0.0984696,50.8699988],[0.1146111,50.870685],[0.12511,50.8706981],[0.1353775,50.8821308],[0.1509003,50.8844027],[0.1595395,50.8818013],[0.1645221,50.8930942],[0.1755521,50.8855934],[0.181511,50.8850921],[0.1846972,50.8783262],[0.1926803,50.8775873],[0.2119553,50.8902621],[0.2112356,50.8947483],[0.2165542,50.8972574],[0.2129723,50.9015349],[0.2173583,50.9033157],[0.2261629,50.8977474],[0.2412881,50.9163916],[0.2326763,50.9189422],[0.2359891,50.920933],[0.2210914,50.928138],[0.2162956,50.9249395],[0.2059067,50.9263641],[0.202634,50.9236985],[0.1918706,50.9296668],[0.1830445,50.9472167],[0.1869006,50.9504518],[0.1746328,50.9554416],[0.1720485,50.9454325],[0.1467532,50.9404153],[0.1488993,50.9363478],[0.1419595,50.9327846],[0.1326171,50.9357436],[0.1318782,50.940495],[0.121976,50.9431866],[0.1186835,50.9405719],[0.1005796,50.9488252],[0.0820882,50.9651686],[0.0806427,50.977014],[0.0945416,50.9922385],[0.0964119,50.9907138],[0.1040639,50.989993],[0.1009884,50.9924143],[0.1042327,50.9968628],[0.1079288,50.9952553],[0.1136151,50.999018],[0.1087752,51.0032525],[0.1113216,51.0065657]]],"type":"Polygon"},"id":"E02004415","properties":{"code":"E02004415","geography":"MSOA","name":"Wealden 013"},"type":"Feature"},{"geometry":{"coordinates":[[[0.366816,50.9328727],[0.3426615,50.9394456],[0.3434883,50.9443348],[0.3359041,50.953048],[0.3435556,50.9591504],[0.3267041,50.960997],[0.3235166,50.9638844],[0.3040861,50.9568543],[0.2949925,50.9569668],[0.2885316,50.948286],[0.2742391,50.9422332],[0.271974,50.9380386],[0.2793318,50.9142695],[0.2879659,50.8895967],[0.2934289,50.8853756],[0.289602,50.8719985],[0.3086449,50.8647652],[0.3194826,50.863106],[0.3209298,50.8478208],[0.3301367,50.8480359],[0.3331011,50.8531524],[0.3386486,50.8482715],[0.3506407,50.8510559],[0.3727955,50.8318936],[0.3772601,50.8330225],[0.3738258,50.8381622],[0.3778105,50.8423101],[0.4080586,50.8509128],[0.4241516,50.86288],[0.4411676,50.8678345],[0.4500913,50.8737628],[0.4452472,50.8745468],[0.4490559,50.8789555],[0.4395239,50.8892929],[0.4295822,50.8918382],[0.4355358,50.8938684],[0.4199133,50.8930302],[0.4160549,50.8969158],[0.3790874,50.8835567],[0.3729144,50.8839965],[0.3666848,50.8891082],[0.3742741,50.8983978],[0.3686005,50.9038518],[0.3672711,50.9020013],[0.3619173,50.903801],[0.3582004,50.913488],[0.3639061,50.914261],[0.3643164,50.9167757],[0.3577336,50.9173073],[0.3583619,50.9214156],[0.3637539,50.9238357],[0.366816,50.9328727]]],"type":"Polygon"},"id":"E02004416","properties":{"code":"E02004416","geography":"MSOA","name":"Wealden 014"},"type":"Feature"},{"geometry":{"coordinates":[[[0.3086449,50.8647652],[0.289602,50.8719985],[0.2934289,50.8853756],[0.2879659,50.8895967],[0.2689913,50.8784088],[0.2551276,50.8786752],[0.2506677,50.8704418],[0.2567359,50.861656],[0.2577854,50.8592513],[0.2638746,50.8597685],[0.26419,50.8665347],[0.2792337,50.8681197],[0.2914826,50.8639379],[0.3085068,50.8645416],[0.3086449,50.8647652]]],"type":"Polygon"},"id":"E02004417","properties":{"code":"E02004417","geography":"MSOA","name":"Wealden 015"},"type":"Feature"},{"geometry":{"coordinates":[[[0.2506677,50.8704418],[0.2388321,50.8712717],[0.2325817,50.8651781],[0.2391815,50.8623968],[0.2311186,50.8518479],[0.2434886,50.8510976],[0.2409974,50.8419182],[0.2513302,50.8373938],[0.2549632,50.8457348],[0.2517029,50.8519931],[0.2547032,50.8522893],[0.2503078,50.853501],[0.2567359,50.861656],[0.2506677,50.8704418]]],"type":"Polygon"},"id":"E02004418","properties":{"code":"E02004418","geography":"MSOA","name":"Wealden 016"},"type":"Feature"},{"geometry":{"coordinates":[[[0.3085068,50.8645416],[0.2914826,50.8639379],[0.2792337,50.8681197],[0.26419,50.8665347],[0.2638746,50.8597685],[0.2577854,50.8592513],[0.2567359,50.861656],[0.2503078,50.853501],[0.2547032,50.8522893],[0.2517029,50.8519931],[0.2549632,50.8457348],[0.2513302,50.8373938],[0.2665215,50.8361992],[0.2723593,50.8382531],[0.2724098,50.8425256],[0.2900591,50.8384203],[0.3008525,50.8398164],[0.2926944,50.8446242],[0.293665,50.8550433],[0.3032662,50.8570625],[0.3015441,50.860739],[0.3085068,50.8645416]]],"type":"Polygon"},"id":"E02004419","properties":{"code":"E02004419","geography":"MSOA","name":"Wealden 017"},"type":"Feature"},{"geometry":{"coordinates":[[[0.2793318,50.9142695],[0.268897,50.9198937],[0.261796,50.9150701],[0.2535513,50.9202584],[0.2412881,50.9163916],[0.2261629,50.8977474],[0.2173583,50.9033157],[0.2129723,50.9015349],[0.2165542,50.8972574],[0.2112356,50.8947483],[0.2119553,50.8902621],[0.1926803,50.8775873],[0.1846972,50.8783262],[0.181511,50.8850921],[0.1755521,50.8855934],[0.1645221,50.8930942],[0.1595395,50.8818013],[0.1509003,50.8844027],[0.1353775,50.8821308],[0.12511,50.8706981],[0.1146111,50.870685],[0.1272997,50.8567657],[0.1150144,50.8496443],[0.1244967,50.8463058],[0.116133,50.8390245],[0.119005,50.8374237],[0.1112602,50.8308224],[0.1075682,50.8314402],[0.0979058,50.8203256],[0.1088819,50.8129286],[0.1115544,50.8022107],[0.1218221,50.7930929],[0.1437009,50.7926863],[0.1478259,50.7854952],[0.1419455,50.7768482],[0.1463631,50.7733216],[0.1519796,50.7751125],[0.1544274,50.7716231],[0.1488458,50.7706459],[0.150133,50.7587455],[0.1887405,50.7478408],[0.2098998,50.7384118],[0.2111717,50.7429824],[0.2154609,50.7397267],[0.2093531,50.7513392],[0.2174558,50.7571412],[0.2135852,50.7601261],[0.217178,50.7620635],[0.2164023,50.7747345],[0.2008657,50.7808266],[0.2050913,50.7910754],[0.200268,50.7987075],[0.214667,50.8112162],[0.2304968,50.8132689],[0.2304113,50.8182713],[0.2243216,50.818892],[0.2258561,50.8294384],[0.2409974,50.8419182],[0.2434886,50.8510976],[0.2311186,50.8518479],[0.2391815,50.8623968],[0.2325817,50.8651781],[0.2388321,50.8712717],[0.2506677,50.8704418],[0.2551276,50.8786752],[0.2689913,50.8784088],[0.2879659,50.8895967],[0.2793318,50.9142695]]],"type":"Polygon"},"id":"E02004420","properties":{"code":"E02004420","geography":"MSOA","name":"Wealden 018"},"type":"Feature"},{"geometry":{"coordinates":[[[0.2513302,50.8373938],[0.2409974,50.8419182],[0.2258561,50.8294384],[0.2243216,50.818892],[0.2304113,50.8182713],[0.2304968,50.8132689],[0.2305138,50.8110739],[0.2438227,50.8167351],[0.2532386,50.81483],[0.2636008,50.8176113],[0.2737799,50.8213271],[0.2612014,50.8242572],[0.2702981,50.8326455],[0.2665215,50.8361992],[0.2513302,50.8373938]]],"type":"Polygon"},"id":"E02004421","properties":{"code":"E02004421","geography":"MSOA","name":"Wealden 019"},"type":"Feature"},{"geometry":{"coordinates":[[[0.3727955,50.8318936],[0.3506407,50.8510559],[0.3386486,50.8482715],[0.3331011,50.8531524],[0.3301367,50.8480359],[0.3209298,50.8478208],[0.3194826,50.863106],[0.3086449,50.8647652],[0.3085068,50.8645416],[0.3015441,50.860739],[0.3032662,50.8570625],[0.293665,50.8550433],[0.2926944,50.8446242],[0.3008525,50.8398164],[0.2900591,50.8384203],[0.2724098,50.8425256],[0.2723593,50.8382531],[0.2665215,50.8361992],[0.2702981,50.8326455],[0.2612014,50.8242572],[0.2737799,50.8213271],[0.2636008,50.8176113],[0.2817968,50.8107163],[0.3000454,50.8128374],[0.302359,50.8084789],[0.3240396,50.8078656],[0.3329036,50.8021642],[0.3391599,50.7991519],[0.3499346,50.8098273],[0.3580789,50.8129257],[0.3583161,50.81311],[0.3595231,50.8134751],[0.3774831,50.8203038],[0.3779035,50.8204038],[0.3727955,50.8318936]]],"type":"Polygon"},"id":"E02004422","properties":{"code":"E02004422","geography":"MSOA","name":"Wealden 020"},"type":"Feature"},{"geometry":{"coordinates":[[[0.2817968,50.8107163],[0.2636008,50.8176113],[0.2532386,50.81483],[0.2438227,50.8167351],[0.2305138,50.8110739],[0.2304968,50.8132689],[0.214667,50.8112162],[0.200268,50.7987075],[0.2050913,50.7910754],[0.2008657,50.7808266],[0.2164023,50.7747345],[0.2275997,50.7832937],[0.2338002,50.7952524],[0.2276952,50.8008768],[0.2458495,50.8054945],[0.250456,50.7988433],[0.2584879,50.799342],[0.2615552,50.8051838],[0.2673219,50.8105672],[0.2758309,50.804869],[0.2798284,50.8093142],[0.2817968,50.8107163]]],"type":"Polygon"},"id":"E02004423","properties":{"code":"E02004423","geography":"MSOA","name":"Wealden 021"},"type":"Feature"}],"type":"FeatureCollection"}
