{"features":[{"geometry":{"coordinates":[[[-2.0739315,51.9309597],[-2.089674,51.9319589],[-2.1065587,51.9388654],[-2.1033215,51.923348],[-2.1107347,51.9161115],[-2.1062839,51.9156534],[-2.0956586,51.9113818],[-2.0879639,51.9072895],[-2.0872153,51.9126385],[-2.0801894,51.9159545],[-2.067219,51.9296231],[-2.0739315,51.9309597]]],"type":"Polygon"},"id":"E02004600","properties":{"code":"E02004600","geography":"MSOA","name":"Cheltenham 001"},"type":"Feature"},{"geometry":{"coordinates":[[[-2.0375489,51.9075682],[-2.0326867,51.9117864],[-2.0403745,51.9144283],[-2.0399111,51.922391],[-2.067219,51.9296231],[-2.0801894,51.9159545],[-2.0603973,51.9125755],[-2.0549031,51.9107416],[-2.0375489,51.9075682]]],"type":"Polygon"},"id":"E02004601","properties":{"code":"E02004601","geography":"MSOA","name":"Cheltenham 002"},"type":"Feature"},{"geometry":{"coordinates":[[[-2.1107347,51.9161115],[-2.1249727,51.9189919],[-2.1314515,51.9084305],[-2.1279985,51.9023135],[-2.119452,51.9029583],[-2.1139864,51.9062655],[-2.1181555,51.9085319],[-2.112108,51.9096269],[-2.1113884,51.9126713],[-2.1079075,51.911696],[-2.1062839,51.9156534],[-2.1107347,51.9161115]]],"type":"Polygon"},"id":"E02004602","properties":{"code":"E02004602","geography":"MSOA","name":"Cheltenham 003"},"type":"Feature"},{"geometry":{"coordinates":[[[-2.0603973,51.9125755],[-2.0801894,51.9159545],[-2.0872153,51.9126385],[-2.0879639,51.9072895],[-2.0789741,51.9030441],[-2.0748844,51.9011814],[-2.0720571,51.9045156],[-2.0765418,51.909051],[-2.0693092,51.9118018],[-2.0616584,51.9103826],[-2.0603973,51.9125755]]],"type":"Polygon"},"id":"E02004603","properties":{"code":"E02004603","geography":"MSOA","name":"Cheltenham 004"},"type":"Feature"},{"geometry":{"coordinates":[[[-2.0956586,51.9113818],[-2.1062839,51.9156534],[-2.1079075,51.911696],[-2.1113884,51.9126713],[-2.112108,51.9096269],[-2.1181555,51.9085319],[-2.1139864,51.9062655],[-2.119452,51.9029583],[-2.118327,51.8974021],[-2.1137289,51.8964829],[-2.1157919,51.9002234],[-2.1079044,51.9001767],[-2.1077764,51.9043083],[-2.1110524,51.9036941],[-2.0956586,51.9113818]]],"type":"Polygon"},"id":"E02004604","properties":{"code":"E02004604","geography":"MSOA","name":"Cheltenham 005"},"type":"Feature"},{"geometry":{"coordinates":[[[-2.0375489,51.9075682],[-2.0549031,51.9107416],[-2.0647825,51.9053761],[-2.054098,51.9008209],[-2.050268,51.9030976],[-2.034618,51.9021769],[-2.033773,51.9044091],[-2.0375489,51.9075682]]],"type":"Polygon"},"id":"E02004605","properties":{"code":"E02004605","geography":"MSOA","name":"Cheltenham 006"},"type":"Feature"},{"geometry":{"coordinates":[[[-2.0879639,51.9072895],[-2.0956586,51.9113818],[-2.1110524,51.9036941],[-2.1077764,51.9043083],[-2.1079044,51.9001767],[-2.1157919,51.9002234],[-2.1137289,51.8964829],[-2.1036346,51.8948237],[-2.1030559,51.8947727],[-2.0789741,51.9030441],[-2.0879639,51.9072895]]],"type":"Polygon"},"id":"E02004606","properties":{"code":"E02004606","geography":"MSOA","name":"Cheltenham 007"},"type":"Feature"},{"geometry":{"coordinates":[[[-2.0549031,51.9107416],[-2.0603973,51.9125755],[-2.0616584,51.9103826],[-2.0693092,51.9118018],[-2.0765418,51.909051],[-2.0720571,51.9045156],[-2.0748844,51.9011814],[-2.0690509,51.8965179],[-2.0645269,51.8937736],[-2.054098,51.9008209],[-2.0647825,51.9053761],[-2.0549031,51.9107416]]],"type":"Polygon"},"id":"E02004607","properties":{"code":"E02004607","geography":"MSOA","name":"Cheltenham 008"},"type":"Feature"},{"geometry":{"coordinates":[[[-2.0748844,51.9011814],[-2.0789741,51.9030441],[-2.1030559,51.8947727],[-2.0835378,51.8944291],[-2.0772529,51.8913745],[-2.0803993,51.8875221],[-2.0767632,51.8845133],[-2.0779487,51.8874861],[-2.0735964,51.8863454],[-2.070806,51.8912758],[-2.0671403,51.8894166],[-2.0690509,51.8965179],[-2.0748844,51.9011814]]],"type":"Polygon"},"id":"E02004608","properties":{"code":"E02004608","geography":"MSOA","name":"Cheltenham 009"},"type":"Feature"},{"geometry":{"coordinates":[[[-2.119452,51.9029583],[-2.1279985,51.9023135],[-2.1314515,51.9084305],[-2.1423963,51.8845044],[-2.1260876,51.8873809],[-2.1123644,51.89143],[-2.1036346,51.8948237],[-2.1137289,51.8964829],[-2.118327,51.8974021],[-2.119452,51.9029583]]],"type":"Polygon"},"id":"E02004609","properties":{"code":"E02004609","geography":"MSOA","name":"Cheltenham 010"},"type":"Feature"},{"geometry":{"coordinates":[[[-2.1030559,51.8947727],[-2.1036346,51.8948237],[-2.1123644,51.89143],[-2.102271,51.8882919],[-2.1108337,51.8855402],[-2.10746,51.8831543],[-2.0901973,51.8827753],[-2.0803993,51.8875221],[-2.0772529,51.8913745],[-2.0835378,51.8944291],[-2.1030559,51.8947727]]],"type":"Polygon"},"id":"E02004610","properties":{"code":"E02004610","geography":"MSOA","name":"Cheltenham 011"},"type":"Feature"},{"geometry":{"coordinates":[[[-2.0102252,51.9029121],[-2.033773,51.9044091],[-2.034618,51.9021769],[-2.050268,51.9030976],[-2.054098,51.9008209],[-2.0645269,51.8937736],[-2.0578127,51.888505],[-2.0472801,51.8583168],[-2.0364152,51.8642193],[-2.0253076,51.8642719],[-2.0102252,51.9029121]]],"type":"Polygon"},"id":"E02004611","properties":{"code":"E02004611","geography":"MSOA","name":"Cheltenham 012"},"type":"Feature"},{"geometry":{"coordinates":[[[-2.0901973,51.8827753],[-2.10746,51.8831543],[-2.1108337,51.8855402],[-2.102271,51.8882919],[-2.1123644,51.89143],[-2.1260876,51.8873809],[-2.1277344,51.8796916],[-2.1232098,51.8830784],[-2.1023361,51.8759919],[-2.0975269,51.8788566],[-2.0901973,51.8827753]]],"type":"Polygon"},"id":"E02004612","properties":{"code":"E02004612","geography":"MSOA","name":"Cheltenham 013"},"type":"Feature"},{"geometry":{"coordinates":[[[-2.0645269,51.8937736],[-2.0690509,51.8965179],[-2.0671403,51.8894166],[-2.070806,51.8912758],[-2.0735964,51.8863454],[-2.0779487,51.8874861],[-2.0767632,51.8845133],[-2.0706143,51.8801081],[-2.074127,51.870722],[-2.0695538,51.8684799],[-2.0707155,51.865007],[-2.0594918,51.8644572],[-2.0472801,51.8583168],[-2.0578127,51.888505],[-2.0645269,51.8937736]]],"type":"Polygon"},"id":"E02004613","properties":{"code":"E02004613","geography":"MSOA","name":"Cheltenham 014"},"type":"Feature"},{"geometry":{"coordinates":[[[-2.0767632,51.8845133],[-2.0803993,51.8875221],[-2.0901973,51.8827753],[-2.0975269,51.8788566],[-2.0923291,51.8711645],[-2.0856889,51.8730997],[-2.0807117,51.8708519],[-2.0779309,51.8730652],[-2.0762495,51.8689546],[-2.0695538,51.8684799],[-2.074127,51.870722],[-2.0706143,51.8801081],[-2.0767632,51.8845133]]],"type":"Polygon"},"id":"E02004614","properties":{"code":"E02004614","geography":"MSOA","name":"Cheltenham 015"},"type":"Feature"}],"type":"FeatureCollection"}
