{"features":[{"geometry":{"coordinates":[[[0.3449424,51.6955153],[0.3339725,51.7170078],[0.3230354,51.7141627],[0.3237993,51.7097903],[0.3074292,51.6942868],[0.3020979,51.6809614],[0.2834509,51.6941072],[0.2668416,51.6958148],[0.2657121,51.6997024],[0.25749,51.6968471],[0.2550464,51.6902675],[0.2457746,51.6881138],[0.2401988,51.6827468],[0.2321572,51.683354],[0.238975,51.6741061],[0.2149992,51.6748479],[0.2132741,51.6655307],[0.2067609,51.6644825],[0.20813,51.6609677],[0.1908305,51.6598168],[0.1929632,51.6530954],[0.1756759,51.6557885],[0.1945951,51.6409761],[0.2002835,51.6249327],[0.2240595,51.6317341],[0.2399952,51.6428388],[0.263278,51.6486118],[0.2680191,51.6552998],[0.2766035,51.6544046],[0.2935536,51.6430025],[0.2978803,51.6450843],[0.296536,51.6479973],[0.31081,51.6455436],[0.3121398,51.6537425],[0.3270497,51.6567525],[0.3319435,51.6638228],[0.329819,51.6668031],[0.3458356,51.6692387],[0.343606,51.6721489],[0.3328914,51.66995],[0.3324643,51.6787947],[0.3233474,51.6878321],[0.3281186,51.6932328],[0.3449424,51.6955153]]],"type":"Polygon"},"id":"E02004464","properties":{"code":"E02004464","geography":"MSOA","name":"Brentwood 001"},"type":"Feature"},{"geometry":{"coordinates":[[[0.4023012,51.6509922],[0.3969686,51.653752],[0.4027349,51.6596523],[0.4002241,51.6622439],[0.4125336,51.6708925],[0.4048701,51.6786885],[0.3977999,51.6794563],[0.4014713,51.6824174],[0.3919995,51.6914525],[0.3818011,51.6936419],[0.3766717,51.6984986],[0.3605253,51.6903799],[0.3449424,51.6955153],[0.3281186,51.6932328],[0.3233474,51.6878321],[0.3324643,51.6787947],[0.3328914,51.66995],[0.343606,51.6721489],[0.3458356,51.6692387],[0.329819,51.6668031],[0.3319435,51.6638228],[0.3270497,51.6567525],[0.3492546,51.6454154],[0.3583405,51.639966],[0.3860484,51.6343408],[0.3948885,51.6444382],[0.4030184,51.6458421],[0.4023012,51.6509922]]],"type":"Polygon"},"id":"E02004465","properties":{"code":"E02004465","geography":"MSOA","name":"Brentwood 002"},"type":"Feature"},{"geometry":{"coordinates":[[[0.3860484,51.6343408],[0.3583405,51.639966],[0.3492546,51.6454154],[0.33968,51.6359455],[0.3457045,51.6379361],[0.3452387,51.6288119],[0.3583806,51.6256676],[0.3601462,51.6213212],[0.355917,51.6176835],[0.3611011,51.6165116],[0.3750985,51.61517],[0.3812671,51.6180398],[0.3871256,51.6265389],[0.3860484,51.6343408]]],"type":"Polygon"},"id":"E02004466","properties":{"code":"E02004466","geography":"MSOA","name":"Brentwood 003"},"type":"Feature"},{"geometry":{"coordinates":[[[0.3032483,51.6340328],[0.2963054,51.6318188],[0.2937261,51.6382814],[0.2832724,51.6353549],[0.289853,51.6293881],[0.2871586,51.6225097],[0.2979078,51.619684],[0.3007441,51.6218323],[0.2971001,51.6255612],[0.3094523,51.6288699],[0.3032483,51.6340328]]],"type":"Polygon"},"id":"E02004467","properties":{"code":"E02004467","geography":"MSOA","name":"Brentwood 004"},"type":"Feature"},{"geometry":{"coordinates":[[[0.3492546,51.6454154],[0.3270497,51.6567525],[0.3121398,51.6537425],[0.31081,51.6455436],[0.3144873,51.6431389],[0.3032483,51.6340328],[0.3094523,51.6288699],[0.3109886,51.6219933],[0.3145844,51.6232442],[0.3175233,51.6182418],[0.3225434,51.6177129],[0.3261408,51.62251],[0.3306694,51.6207312],[0.3378204,51.625721],[0.3424101,51.6234546],[0.3389875,51.619944],[0.3424589,51.6195121],[0.3429476,51.6139441],[0.3611011,51.6165116],[0.355917,51.6176835],[0.3601462,51.6213212],[0.3583806,51.6256676],[0.3452387,51.6288119],[0.3457045,51.6379361],[0.33968,51.6359455],[0.3492546,51.6454154]]],"type":"Polygon"},"id":"E02004468","properties":{"code":"E02004468","geography":"MSOA","name":"Brentwood 005"},"type":"Feature"},{"geometry":{"coordinates":[[[0.31081,51.6455436],[0.296536,51.6479973],[0.2978803,51.6450843],[0.2935536,51.6430025],[0.2766035,51.6544046],[0.2680191,51.6552998],[0.263278,51.6486118],[0.2399952,51.6428388],[0.2240595,51.6317341],[0.2527352,51.6174438],[0.2632311,51.6091896],[0.2538907,51.6019179],[0.2608481,51.600388],[0.2843867,51.6123678],[0.291284,51.6137532],[0.2930443,51.6179402],[0.2871586,51.6225097],[0.289853,51.6293881],[0.2832724,51.6353549],[0.2937261,51.6382814],[0.2963054,51.6318188],[0.3032483,51.6340328],[0.3144873,51.6431389],[0.31081,51.6455436]]],"type":"Polygon"},"id":"E02004469","properties":{"code":"E02004469","geography":"MSOA","name":"Brentwood 006"},"type":"Feature"},{"geometry":{"coordinates":[[[0.3109886,51.6219933],[0.3094523,51.6288699],[0.2971001,51.6255612],[0.3007441,51.6218323],[0.2979078,51.619684],[0.2871586,51.6225097],[0.2930443,51.6179402],[0.291284,51.6137532],[0.2843867,51.6123678],[0.2877879,51.6052518],[0.2927048,51.6059378],[0.2933041,51.6111477],[0.3022723,51.6053223],[0.30684,51.608533],[0.3018734,51.6121962],[0.3108477,51.6133071],[0.3109886,51.6219933]]],"type":"Polygon"},"id":"E02004470","properties":{"code":"E02004470","geography":"MSOA","name":"Brentwood 007"},"type":"Feature"},{"geometry":{"coordinates":[[[0.3225434,51.6177129],[0.3175233,51.6182418],[0.3145844,51.6232442],[0.3109886,51.6219933],[0.3108477,51.6133071],[0.3018734,51.6121962],[0.30684,51.608533],[0.3022723,51.6053223],[0.2933041,51.6111477],[0.2927048,51.6059378],[0.2877879,51.6052518],[0.2843867,51.6123678],[0.2608481,51.600388],[0.269851,51.5995716],[0.2708981,51.5902917],[0.286725,51.5734619],[0.290262,51.5642976],[0.3130071,51.5658163],[0.3129801,51.5659401],[0.3108042,51.5748366],[0.3411701,51.5778218],[0.3301358,51.5927189],[0.3333769,51.600917],[0.3241467,51.6083251],[0.3343247,51.6138686],[0.3235824,51.6149513],[0.3225434,51.6177129]]],"type":"Polygon"},"id":"E02004471","properties":{"code":"E02004471","geography":"MSOA","name":"Brentwood 008"},"type":"Feature"},{"geometry":{"coordinates":[[[0.3611011,51.6165116],[0.3429476,51.6139441],[0.3424589,51.6195121],[0.3389875,51.619944],[0.3424101,51.6234546],[0.3378204,51.625721],[0.3306694,51.6207312],[0.3261408,51.62251],[0.3225434,51.6177129],[0.3235824,51.6149513],[0.3343247,51.6138686],[0.3241467,51.6083251],[0.3333769,51.600917],[0.3301358,51.5927189],[0.3411701,51.5778218],[0.3108042,51.5748366],[0.3129801,51.5659401],[0.3437552,51.5678192],[0.3825757,51.5658219],[0.3820018,51.582082],[0.3851826,51.5895873],[0.3750985,51.61517],[0.3611011,51.6165116]]],"type":"Polygon"},"id":"E02004472","properties":{"code":"E02004472","geography":"MSOA","name":"Brentwood 009"},"type":"Feature"}],"type":"FeatureCollection"}
