{"features":[{"geometry":{"coordinates":[[[-2.7365142,54.1767967],[-2.7343876,54.1841004],[-2.7493019,54.1889447],[-2.7682327,54.1859539],[-2.7989825,54.1977309],[-2.816334,54.1897995],[-2.8159713,54.1818903],[-2.8372178,54.1741623],[-2.8694773,54.1766579],[-2.8619222,54.1672382],[-2.8659905,54.160275],[-2.8629855,54.1554774],[-2.8367014,54.1507161],[-2.8370073,54.1506223],[-2.8418617,54.1496475],[-2.8369907,54.1422108],[-2.8280064,54.1435097],[-2.830512,54.1346233],[-2.8209086,54.1231941],[-2.8055832,54.1228821],[-2.8018435,54.1259558],[-2.8047789,54.1313531],[-2.7946368,54.1277428],[-2.7935415,54.1285777],[-2.7850759,54.1350298],[-2.7929097,54.1276114],[-2.7938232,54.1267693],[-2.7982012,54.1227311],[-2.7909727,54.1225828],[-2.7805447,54.119854],[-2.7806113,54.114164],[-2.7685771,54.1124263],[-2.7608516,54.1131893],[-2.7571491,54.125165],[-2.7327374,54.1426932],[-2.7393835,54.1509892],[-2.7364889,54.168971],[-2.7365142,54.1767967]]],"type":"Polygon"},"id":"E02005221","properties":{"code":"E02005221","geography":"MSOA","name":"Lancaster 001"},"type":"Feature"},{"geometry":{"coordinates":[[[-2.4608591,54.226705],[-2.4595818,54.2395576],[-2.4996,54.2195443],[-2.5200673,54.2164356],[-2.550749,54.2002819],[-2.5760763,54.1955843],[-2.6249564,54.1955582],[-2.6398328,54.2019776],[-2.6477412,54.1872715],[-2.6726409,54.1747361],[-2.6781797,54.1614966],[-2.6879644,54.1646362],[-2.7087884,54.1638503],[-2.7364889,54.168971],[-2.7393835,54.1509892],[-2.7327374,54.1426932],[-2.7571491,54.125165],[-2.7608516,54.1131893],[-2.7685771,54.1124263],[-2.7745588,54.1099646],[-2.7849469,54.0922894],[-2.7642284,54.0935994],[-2.7517112,54.0982193],[-2.7421751,54.0970756],[-2.7253343,54.1015151],[-2.6981185,54.1144915],[-2.672854,54.1058381],[-2.6953727,54.0841828],[-2.694725,54.086703],[-2.6987769,54.0847677],[-2.7079498,54.0872846],[-2.7095606,54.0777237],[-2.701986,54.0760619],[-2.6963345,54.0804827],[-2.6927737,54.0781767],[-2.7006937,54.0761067],[-2.6972449,54.0715549],[-2.7036262,54.0730416],[-2.7104906,54.0707156],[-2.7130917,54.0739361],[-2.7211052,54.0648894],[-2.7060972,54.0568577],[-2.7093637,54.0499808],[-2.7152853,54.0495197],[-2.7061115,54.0359818],[-2.6978378,54.0293682],[-2.6790514,54.025256],[-2.6834686,54.0211043],[-2.6795331,54.0237869],[-2.6607093,54.0241033],[-2.6308137,54.0210781],[-2.6095212,54.0269859],[-2.5900519,54.0249142],[-2.5839914,54.0190256],[-2.5714242,54.0146523],[-2.5471048,54.0140649],[-2.544144,54.0196789],[-2.5273091,54.0262332],[-2.5186773,54.0212335],[-2.5014164,54.0207408],[-2.4910724,54.0407267],[-2.4695477,54.0462002],[-2.4643453,54.0752674],[-2.4707219,54.076552],[-2.4807489,54.0853671],[-2.5063032,54.0914629],[-2.5095245,54.0954139],[-2.5240073,54.0946108],[-2.5241067,54.1021175],[-2.5367636,54.104087],[-2.5361988,54.1086145],[-2.5458333,54.1143556],[-2.5447662,54.117121],[-2.5633275,54.1226946],[-2.564739,54.1270267],[-2.5613865,54.1298884],[-2.5634091,54.1403939],[-2.5578718,54.1433527],[-2.5605027,54.1530409],[-2.54722,54.1532978],[-2.5436141,54.1576062],[-2.5339768,54.1576813],[-2.528719,54.1695004],[-2.4799561,54.2023017],[-2.4736957,54.2152709],[-2.4608591,54.226705]]],"type":"Polygon"},"id":"E02005222","properties":{"code":"E02005222","geography":"MSOA","name":"Lancaster 002"},"type":"Feature"},{"geometry":{"coordinates":[[[[-2.8006465,54.1224451],[-2.8013232,54.1224626],[-2.8038757,54.1225263],[-2.8045192,54.1202397],[-2.8006465,54.1224451]]],[[[-2.7745588,54.1099646],[-2.7685771,54.1124263],[-2.7806113,54.114164],[-2.7805447,54.119854],[-2.7909727,54.1225828],[-2.7982012,54.1227311],[-2.7985657,54.1223948],[-2.8085813,54.1081375],[-2.8269489,54.0999667],[-2.8275833,54.0944277],[-2.8212625,54.0941775],[-2.8292977,54.0934461],[-2.8256126,54.0875862],[-2.8261773,54.0869147],[-2.8250097,54.0862494],[-2.8232034,54.0724025],[-2.8210658,54.0694625],[-2.8258914,54.0652905],[-2.8130666,54.0664107],[-2.7928383,54.0693485],[-2.7913413,54.0781111],[-2.7837444,54.0785341],[-2.780331,54.0860052],[-2.7677334,54.0848157],[-2.7642284,54.0935994],[-2.7849469,54.0922894],[-2.7745588,54.1099646]]],[[[-2.8055832,54.1228821],[-2.8209086,54.1231941],[-2.8207221,54.1229722],[-2.8059281,54.1225986],[-2.8055832,54.1228821]]]],"type":"MultiPolygon"},"id":"E02005223","properties":{"code":"E02005223","geography":"MSOA","name":"Lancaster 003"},"type":"Feature"},{"geometry":{"coordinates":[[[-2.8232034,54.0724025],[-2.8250097,54.0862494],[-2.8261773,54.0869147],[-2.8261982,54.0868898],[-2.8471833,54.077532],[-2.8574615,54.0793435],[-2.8520709,54.0716422],[-2.8383068,54.074022],[-2.8354844,54.0692529],[-2.8343505,54.0717395],[-2.8232034,54.0724025]]],"type":"Polygon"},"id":"E02005224","properties":{"code":"E02005224","geography":"MSOA","name":"Lancaster 004"},"type":"Feature"},{"geometry":{"coordinates":[[[-2.6834686,54.0211043],[-2.6790514,54.025256],[-2.6978378,54.0293682],[-2.7061115,54.0359818],[-2.7152853,54.0495197],[-2.7093637,54.0499808],[-2.7060972,54.0568577],[-2.7211052,54.0648894],[-2.7130917,54.0739361],[-2.7104906,54.0707156],[-2.7036262,54.0730416],[-2.6972449,54.0715549],[-2.7006937,54.0761067],[-2.6927737,54.0781767],[-2.6963345,54.0804827],[-2.701986,54.0760619],[-2.7095606,54.0777237],[-2.7079498,54.0872846],[-2.6987769,54.0847677],[-2.694725,54.086703],[-2.6953727,54.0841828],[-2.672854,54.1058381],[-2.6981185,54.1144915],[-2.7253343,54.1015151],[-2.7421751,54.0970756],[-2.7517112,54.0982193],[-2.7642284,54.0935994],[-2.7677334,54.0848157],[-2.780331,54.0860052],[-2.7837444,54.0785341],[-2.7913413,54.0781111],[-2.7928383,54.0693485],[-2.7894116,54.0683934],[-2.7852785,54.0650966],[-2.7733205,54.0651545],[-2.7647412,54.0558839],[-2.77584,54.0413247],[-2.7673646,54.039274],[-2.741384,54.0338738],[-2.7621719,54.0187765],[-2.7652732,54.0125277],[-2.7572662,54.0126228],[-2.7518739,54.0084041],[-2.7300892,54.0095132],[-2.7327247,54.0027043],[-2.7239483,54.0064074],[-2.701875,54.0090209],[-2.6834686,54.0211043]]],"type":"Polygon"},"id":"E02005225","properties":{"code":"E02005225","geography":"MSOA","name":"Lancaster 005"},"type":"Feature"},{"geometry":{"coordinates":[[[-2.8520709,54.0716422],[-2.8574615,54.0793435],[-2.8577626,54.0791742],[-2.8676133,54.0732507],[-2.8762477,54.0749637],[-2.8789979,54.0743251],[-2.8772721,54.0718688],[-2.8767819,54.071171],[-2.8768615,54.0711],[-2.8755556,54.0708372],[-2.8753067,54.0645507],[-2.8649541,54.0703655],[-2.8600336,54.0687514],[-2.8609894,54.0651226],[-2.8495121,54.0664898],[-2.8496763,54.071677],[-2.8554012,54.0710637],[-2.8520709,54.0716422]]],"type":"Polygon"},"id":"E02005226","properties":{"code":"E02005226","geography":"MSOA","name":"Lancaster 006"},"type":"Feature"},{"geometry":{"coordinates":[[[-2.8609894,54.0651226],[-2.8600336,54.0687514],[-2.8649541,54.0703655],[-2.8753067,54.0645507],[-2.8874357,54.0604333],[-2.8847883,54.0570998],[-2.8803486,54.0529892],[-2.8733108,54.0600747],[-2.8609894,54.0651226]]],"type":"Polygon"},"id":"E02005228","properties":{"code":"E02005228","geography":"MSOA","name":"Lancaster 008"},"type":"Feature"},{"geometry":{"coordinates":[[[-2.8753067,54.0645507],[-2.8755556,54.0708372],[-2.8768615,54.0711],[-2.8827555,54.0658469],[-2.8880323,54.0663129],[-2.8894808,54.0664408],[-2.8927628,54.0581737],[-2.8929447,54.0578038],[-2.8940108,54.0556351],[-2.8847883,54.0570998],[-2.8874357,54.0604333],[-2.8753067,54.0645507]]],"type":"Polygon"},"id":"E02005229","properties":{"code":"E02005229","geography":"MSOA","name":"Lancaster 009"},"type":"Feature"},{"geometry":{"coordinates":[[[-2.8314186,54.0550282],[-2.8238076,54.0553244],[-2.8441974,54.063738],[-2.8382494,54.0662468],[-2.8495121,54.0664898],[-2.8609894,54.0651226],[-2.8733108,54.0600747],[-2.8803486,54.0529892],[-2.8728808,54.0497842],[-2.8694999,54.0565106],[-2.8314186,54.0550282]]],"type":"Polygon"},"id":"E02005230","properties":{"code":"E02005230","geography":"MSOA","name":"Lancaster 010"},"type":"Feature"},{"geometry":{"coordinates":[[[-2.7894116,54.0683934],[-2.7928383,54.0693485],[-2.8130666,54.0664107],[-2.8089288,54.0555211],[-2.8086839,54.0555748],[-2.8016413,54.0535174],[-2.8007668,54.0532632],[-2.800278,54.0531211],[-2.7996741,54.0535199],[-2.7991819,54.0542447],[-2.7933004,54.0629029],[-2.7950448,54.0570444],[-2.7952179,54.0564628],[-2.7944799,54.0569501],[-2.7894116,54.0683934]]],"type":"Polygon"},"id":"E02005231","properties":{"code":"E02005231","geography":"MSOA","name":"Lancaster 011"},"type":"Feature"},{"geometry":{"coordinates":[[[-2.7673646,54.039274],[-2.77584,54.0413247],[-2.7647412,54.0558839],[-2.7733205,54.0651545],[-2.7852785,54.0650966],[-2.7894116,54.0683934],[-2.7944799,54.0569501],[-2.789016,54.0470112],[-2.7827111,54.0455779],[-2.7882006,54.0456067],[-2.7892565,54.0371526],[-2.7811311,54.0359081],[-2.7778978,54.0390202],[-2.775157,54.0354269],[-2.7673646,54.039274]]],"type":"Polygon"},"id":"E02005233","properties":{"code":"E02005233","geography":"MSOA","name":"Lancaster 013"},"type":"Feature"},{"geometry":{"coordinates":[[[[-2.7997245,54.0534458],[-2.7996741,54.0535199],[-2.800278,54.0531211],[-2.7999999,54.0530403],[-2.7997245,54.0534458]]],[[[-2.7944799,54.0569501],[-2.7952179,54.0564628],[-2.7959175,54.0541127],[-2.7996326,54.0519696],[-2.8027963,54.0525439],[-2.8038156,54.052729],[-2.8087242,54.0546375],[-2.8126158,54.0535744],[-2.8132198,54.0505643],[-2.8067741,54.049686],[-2.8111617,54.047571],[-2.8075533,54.0460256],[-2.8051359,54.0483195],[-2.8054552,54.0416692],[-2.8012825,54.0380778],[-2.799506,54.0402963],[-2.7941356,54.0421403],[-2.7946226,54.0472999],[-2.789016,54.0470112],[-2.7944799,54.0569501]]]],"type":"MultiPolygon"},"id":"E02005234","properties":{"code":"E02005234","geography":"MSOA","name":"Lancaster 014"},"type":"Feature"},{"geometry":{"coordinates":[[[-2.789016,54.0470112],[-2.7946226,54.0472999],[-2.7941356,54.0421403],[-2.799506,54.0402963],[-2.7946297,54.0333356],[-2.7920148,54.0415543],[-2.7892565,54.0371526],[-2.7882006,54.0456067],[-2.7827111,54.0455779],[-2.789016,54.0470112]]],"type":"Polygon"},"id":"E02005235","properties":{"code":"E02005235","geography":"MSOA","name":"Lancaster 015"},"type":"Feature"},{"geometry":{"coordinates":[[[[-2.8933333,53.9895653],[-2.9000654,53.9905469],[-2.8982959,53.9877748],[-2.8933333,53.9895653]]],[[[-2.8395954,54.0461992],[-2.8397888,54.0461463],[-2.8415138,54.0456745],[-2.8416602,54.0445981],[-2.8417026,54.0442863],[-2.8395954,54.0461992]]],[[[-2.8803486,54.0529892],[-2.8847883,54.0570998],[-2.8940108,54.0556351],[-2.8971343,54.0492799],[-2.9055172,54.0483938],[-2.9057217,54.0460939],[-2.9057454,54.0455953],[-2.9060279,54.0396474],[-2.9116704,54.0385667],[-2.9125545,54.0383973],[-2.9176055,54.0360261],[-2.9213741,54.0342567],[-2.91758,54.0348698],[-2.913462,54.0355351],[-2.9125014,54.0337459],[-2.9125925,54.0337284],[-2.9175326,54.0327206],[-2.9187611,54.0324703],[-2.9244269,54.0313157],[-2.9174229,54.0277274],[-2.9034225,54.0205515],[-2.906953,54.0070168],[-2.9006784,53.9998692],[-2.8969439,54.0007222],[-2.9037517,53.9984242],[-2.9002329,53.9920215],[-2.8861148,53.9910119],[-2.8842249,53.9943154],[-2.8889982,53.9959115],[-2.8839818,53.9947235],[-2.8810452,53.9894412],[-2.8763532,54.0013945],[-2.8719245,54.0027875],[-2.875468,54.0048689],[-2.8726424,54.0076358],[-2.8703246,54.0039118],[-2.8648111,54.0049619],[-2.8687587,54.006012],[-2.8653571,54.0073757],[-2.870005,54.0084091],[-2.8668483,54.0102392],[-2.8607864,54.0038628],[-2.8450028,54.0148511],[-2.8532929,54.0055466],[-2.8422466,54.0059373],[-2.8381327,54.0084216],[-2.8415418,54.0097235],[-2.8352284,54.0108345],[-2.8352932,54.0153612],[-2.839159,54.0139268],[-2.8354581,54.0159721],[-2.8368927,54.0166434],[-2.837757,54.0189636],[-2.835303,54.0171434],[-2.8340299,54.0223949],[-2.8382764,54.0229298],[-2.8410574,54.0214112],[-2.8395591,54.0203001],[-2.8437542,54.0214004],[-2.8424789,54.0253586],[-2.8396135,54.0231587],[-2.8420862,54.0260993],[-2.8338477,54.0232833],[-2.8334638,54.0285106],[-2.8369672,54.0317713],[-2.8412178,54.0285267],[-2.8366144,54.0324479],[-2.837377,54.0330645],[-2.8404698,54.035565],[-2.8417572,54.0330339],[-2.8405848,54.0359696],[-2.8487969,54.0389938],[-2.8480298,54.0414394],[-2.8442175,54.0395195],[-2.8455594,54.0429659],[-2.8503362,54.0410906],[-2.8390705,54.0488004],[-2.8385919,54.0490203],[-2.8363922,54.0494925],[-2.8314186,54.0550282],[-2.8694999,54.0565106],[-2.8728808,54.0497842],[-2.8803486,54.0529892]]]],"type":"MultiPolygon"},"id":"E02005236","properties":{"code":"E02005236","geography":"MSOA","name":"Lancaster 016"},"type":"Feature"},{"geometry":{"coordinates":[[[-2.799506,54.0402963],[-2.8012825,54.0380778],[-2.8054552,54.0416692],[-2.8051359,54.0483195],[-2.8075533,54.0460256],[-2.8111617,54.047571],[-2.8067741,54.049686],[-2.8132198,54.0505643],[-2.8126158,54.0535744],[-2.8395954,54.0461992],[-2.8417026,54.0442863],[-2.84214,54.0410692],[-2.8377061,54.0420169],[-2.8413421,54.040051],[-2.8369587,54.0408447],[-2.8399325,54.0386767],[-2.8355535,54.0405282],[-2.8383992,54.037457],[-2.8332053,54.0397815],[-2.8377986,54.0369768],[-2.8328469,54.0395017],[-2.8303961,54.0372834],[-2.8363311,54.0371964],[-2.8349396,54.0351164],[-2.8336026,54.0354234],[-2.8331211,54.0354803],[-2.8315652,54.033105],[-2.8311649,54.0324938],[-2.8312505,54.0331072],[-2.8316295,54.0358202],[-2.8314365,54.0359197],[-2.8306974,54.0360893],[-2.8302796,54.0361849],[-2.8287518,54.0365351],[-2.8286748,54.0363816],[-2.8288,54.0331242],[-2.8294742,54.0155861],[-2.80899,54.0203206],[-2.7962308,54.0193127],[-2.7951196,54.0232898],[-2.7946297,54.0333356],[-2.799506,54.0402963]]],"type":"Polygon"},"id":"E02005237","properties":{"code":"E02005237","geography":"MSOA","name":"Lancaster 017"},"type":"Feature"},{"geometry":{"coordinates":[[[-2.7892565,54.0371526],[-2.7920148,54.0415543],[-2.7946297,54.0333356],[-2.7951196,54.0232898],[-2.7877122,54.023768],[-2.788401,54.0294354],[-2.7790849,54.0311649],[-2.775157,54.0354269],[-2.7778978,54.0390202],[-2.7811311,54.0359081],[-2.7892565,54.0371526]]],"type":"Polygon"},"id":"E02005238","properties":{"code":"E02005238","geography":"MSOA","name":"Lancaster 018"},"type":"Feature"},{"geometry":{"coordinates":[[[[-2.8833964,53.9463165],[-2.8889135,53.9479205],[-2.8876507,53.9463033],[-2.8835288,53.9458624],[-2.8833964,53.9463165]]],[[[-2.741384,54.0338738],[-2.7673646,54.039274],[-2.775157,54.0354269],[-2.7790849,54.0311649],[-2.788401,54.0294354],[-2.7877122,54.023768],[-2.7951196,54.0232898],[-2.7962308,54.0193127],[-2.80899,54.0203206],[-2.8294742,54.0155861],[-2.8294761,54.0155361],[-2.8327467,53.9985067],[-2.8232447,53.9947388],[-2.8303996,53.9972359],[-2.832327,53.9948264],[-2.8340601,53.9986585],[-2.840252,53.9969796],[-2.8560921,53.9995686],[-2.8623405,53.9953454],[-2.8570472,53.9935596],[-2.8611212,53.9925904],[-2.8629828,53.9953525],[-2.8681459,53.9931375],[-2.8696921,53.9836018],[-2.8792595,53.9791011],[-2.8669867,53.9684729],[-2.8562684,53.9663855],[-2.8522775,53.9672564],[-2.8496788,53.9657196],[-2.8439973,53.9681909],[-2.8464009,53.9656888],[-2.8412322,53.9659309],[-2.8485707,53.9651031],[-2.8541722,53.9653336],[-2.8542525,53.9650822],[-2.8573728,53.9625649],[-2.8619371,53.9645968],[-2.8647985,53.9632128],[-2.8655829,53.9625986],[-2.8693738,53.9598299],[-2.8698105,53.9597198],[-2.8711975,53.9565037],[-2.8867834,53.9583787],[-2.8803123,53.9540365],[-2.8724909,53.9537808],[-2.8744765,53.9517404],[-2.8762174,53.9512721],[-2.8784027,53.947438],[-2.8744473,53.9457968],[-2.8824742,53.9462945],[-2.8828161,53.9457862],[-2.8796542,53.9454479],[-2.8766164,53.939856],[-2.8852493,53.9368257],[-2.8732768,53.9311683],[-2.8643721,53.9180661],[-2.8259243,53.9333538],[-2.8048514,53.9352537],[-2.8023252,53.9420599],[-2.8136494,53.9458363],[-2.802935,53.951199],[-2.807384,53.9620177],[-2.798623,53.9751046],[-2.7867244,53.9673622],[-2.7578721,53.9630961],[-2.7573853,53.9592068],[-2.7507827,53.9566041],[-2.7553789,53.9523185],[-2.7414797,53.9568442],[-2.7331064,53.9671353],[-2.7352405,53.9745144],[-2.7156585,53.9802321],[-2.7093359,53.9604201],[-2.700554,53.9491598],[-2.7020518,53.9435437],[-2.6879188,53.9496898],[-2.6734759,53.9501902],[-2.6641559,53.9472541],[-2.648219,53.9489093],[-2.6508338,53.9522429],[-2.6430435,53.9575762],[-2.6307424,53.9577945],[-2.6169019,53.9522004],[-2.6114585,53.9568494],[-2.5888468,53.9602039],[-2.577423,53.9719989],[-2.5575258,53.9749],[-2.5738245,53.9851617],[-2.5713143,53.9893943],[-2.580652,54.0001062],[-2.5792596,54.0075695],[-2.5714242,54.0146523],[-2.5839914,54.0190256],[-2.5900519,54.0249142],[-2.6095212,54.0269859],[-2.6308137,54.0210781],[-2.6607093,54.0241033],[-2.6795331,54.0237869],[-2.6834686,54.0211043],[-2.701875,54.0090209],[-2.7239483,54.0064074],[-2.7327247,54.0027043],[-2.7300892,54.0095132],[-2.7518739,54.0084041],[-2.7572662,54.0126228],[-2.7652732,54.0125277],[-2.7621719,54.0187765],[-2.741384,54.0338738]]]],"type":"MultiPolygon"},"id":"E02005239","properties":{"code":"E02005239","geography":"MSOA","name":"Lancaster 019"},"type":"Feature"},{"geometry":{"coordinates":[[[-2.8232034,54.0724025],[-2.8343505,54.0717395],[-2.8354844,54.0692529],[-2.8383068,54.074022],[-2.8520709,54.0716422],[-2.8554012,54.0710637],[-2.8496763,54.071677],[-2.8495121,54.0664898],[-2.8382494,54.0662468],[-2.8441974,54.063738],[-2.8238076,54.0553244],[-2.8314186,54.0550282],[-2.8363922,54.0494925],[-2.8089288,54.0555211],[-2.8130666,54.0664107],[-2.8258914,54.0652905],[-2.8210658,54.0694625],[-2.8232034,54.0724025]]],"type":"Polygon"},"id":"E02006871","properties":{"code":"E02006871","geography":"MSOA","name":"Lancaster 020"},"type":"Feature"}],"type":"FeatureCollection"}
