{"features":[{"geometry":{"coordinates":[[[-2.3862023,53.8024988],[-2.3988773,53.8035659],[-2.3993868,53.8098342],[-2.3934036,53.8143125],[-2.3967363,53.8166053],[-2.4414009,53.7937972],[-2.4474798,53.7874652],[-2.4465334,53.7809718],[-2.4305615,53.7803393],[-2.4239171,53.7744241],[-2.3913763,53.7828726],[-2.3697455,53.7941135],[-2.3698058,53.8014646],[-2.3862023,53.8024988]]],"type":"Polygon"},"id":"E02005212","properties":{"code":"E02005212","geography":"MSOA","name":"Hyndburn 001"},"type":"Feature"},{"geometry":{"coordinates":[[[-2.3423047,53.7948137],[-2.3446314,53.7932679],[-2.3560314,53.7978232],[-2.3593006,53.7972023],[-2.3566439,53.7929089],[-2.3697455,53.7941135],[-2.3913763,53.7828726],[-2.4015697,53.7727487],[-2.4020673,53.7658324],[-2.3976759,53.7644376],[-2.3944757,53.7672191],[-2.3835217,53.7675043],[-2.3857535,53.7654085],[-2.3768042,53.7602402],[-2.3751495,53.7648709],[-2.362496,53.7653758],[-2.3536679,53.7702026],[-2.3499652,53.7671127],[-2.3400291,53.7691813],[-2.3399519,53.7665621],[-2.3311743,53.7693873],[-2.329187,53.7800708],[-2.3357971,53.7824806],[-2.3386599,53.7921525],[-2.3423047,53.7948137]]],"type":"Polygon"},"id":"E02005213","properties":{"code":"E02005213","geography":"MSOA","name":"Hyndburn 002"},"type":"Feature"},{"geometry":{"coordinates":[[[-2.3913763,53.7828726],[-2.4239171,53.7744241],[-2.4305615,53.7803393],[-2.4465334,53.7809718],[-2.4474798,53.7874652],[-2.4658088,53.780799],[-2.4463179,53.7665751],[-2.4520083,53.7600153],[-2.4517809,53.7564397],[-2.4457461,53.7547118],[-2.4396522,53.7482847],[-2.4181887,53.7510158],[-2.401904,53.7547928],[-2.3976759,53.7644376],[-2.4020673,53.7658324],[-2.4015697,53.7727487],[-2.3913763,53.7828726]]],"type":"Polygon"},"id":"E02005214","properties":{"code":"E02005214","geography":"MSOA","name":"Hyndburn 003"},"type":"Feature"},{"geometry":{"coordinates":[[[-2.3311743,53.7693873],[-2.3399519,53.7665621],[-2.3400291,53.7691813],[-2.3499652,53.7671127],[-2.3536679,53.7702026],[-2.362496,53.7653758],[-2.3751495,53.7648709],[-2.3768042,53.7602402],[-2.3763843,53.7583465],[-2.3648294,53.7558181],[-2.3610657,53.7515697],[-2.345008,53.7541975],[-2.3387367,53.7584872],[-2.319917,53.7555546],[-2.3281908,53.7603471],[-2.3311743,53.7693873]]],"type":"Polygon"},"id":"E02005215","properties":{"code":"E02005215","geography":"MSOA","name":"Hyndburn 004"},"type":"Feature"},{"geometry":{"coordinates":[[[-2.3768042,53.7602402],[-2.3857535,53.7654085],[-2.3835217,53.7675043],[-2.3944757,53.7672191],[-2.3976759,53.7644376],[-2.401904,53.7547928],[-2.4181887,53.7510158],[-2.4241734,53.7408882],[-2.4089239,53.7415959],[-2.4079142,53.7451419],[-2.4143944,53.7454616],[-2.4090489,53.7499889],[-2.4125287,53.7507968],[-2.3889322,53.7505059],[-2.3763843,53.7583465],[-2.3768042,53.7602402]]],"type":"Polygon"},"id":"E02005216","properties":{"code":"E02005216","geography":"MSOA","name":"Hyndburn 005"},"type":"Feature"},{"geometry":{"coordinates":[[[-2.3648294,53.7558181],[-2.3763843,53.7583465],[-2.3889322,53.7505059],[-2.3846456,53.743486],[-2.3751935,53.7381295],[-2.3665602,53.7415727],[-2.3628624,53.7399123],[-2.3684228,53.7506436],[-2.3648294,53.7558181]]],"type":"Polygon"},"id":"E02005217","properties":{"code":"E02005217","geography":"MSOA","name":"Hyndburn 006"},"type":"Feature"},{"geometry":{"coordinates":[[[-2.3889322,53.7505059],[-2.4125287,53.7507968],[-2.4090489,53.7499889],[-2.4143944,53.7454616],[-2.4079142,53.7451419],[-2.3998665,53.7367853],[-2.3946864,53.7413621],[-2.3846456,53.743486],[-2.3889322,53.7505059]]],"type":"Polygon"},"id":"E02005218","properties":{"code":"E02005218","geography":"MSOA","name":"Hyndburn 007"},"type":"Feature"},{"geometry":{"coordinates":[[[-2.319917,53.7555546],[-2.3387367,53.7584872],[-2.345008,53.7541975],[-2.3610657,53.7515697],[-2.3648294,53.7558181],[-2.3684228,53.7506436],[-2.3628624,53.7399123],[-2.355246,53.7355086],[-2.36557,53.7280495],[-2.3552859,53.7221552],[-2.3441855,53.7224343],[-2.3381667,53.7296784],[-2.3257724,53.7343384],[-2.3261486,53.7473208],[-2.3141095,53.7470241],[-2.3137244,53.7515604],[-2.319917,53.7555546]]],"type":"Polygon"},"id":"E02005219","properties":{"code":"E02005219","geography":"MSOA","name":"Hyndburn 008"},"type":"Feature"},{"geometry":{"coordinates":[[[-2.4079142,53.7451419],[-2.4089239,53.7415959],[-2.4241734,53.7408882],[-2.4181887,53.7510158],[-2.4396522,53.7482847],[-2.4398858,53.7359413],[-2.4385876,53.7322681],[-2.4335538,53.727608],[-2.4338704,53.7191661],[-2.4109908,53.7051214],[-2.4045918,53.7064896],[-2.3608014,53.7164826],[-2.3552859,53.7221552],[-2.36557,53.7280495],[-2.355246,53.7355086],[-2.3628624,53.7399123],[-2.3665602,53.7415727],[-2.3751935,53.7381295],[-2.3846456,53.743486],[-2.3946864,53.7413621],[-2.3998665,53.7367853],[-2.4079142,53.7451419]]],"type":"Polygon"},"id":"E02005220","properties":{"code":"E02005220","geography":"MSOA","name":"Hyndburn 009"},"type":"Feature"}],"type":"FeatureCollection"}
