{"features":[{"geometry":{"coordinates":[[[0.3842264,51.1982636],[0.3691394,51.2016189],[0.3674854,51.1948735],[0.3523454,51.196321],[0.341648,51.1927928],[0.3291047,51.1990893],[0.3094309,51.1999448],[0.29966,51.1969999],[0.2839686,51.1803471],[0.2792904,51.1759146],[0.2761281,51.1659203],[0.2889236,51.1636539],[0.289831,51.1612172],[0.3048028,51.1636986],[0.3053897,51.1670417],[0.3245096,51.1703097],[0.3465457,51.1701031],[0.356225,51.1632803],[0.3648611,51.1709123],[0.3824206,51.1647672],[0.3851646,51.1671111],[0.4004623,51.1664806],[0.4215664,51.1605473],[0.4286903,51.1645649],[0.4266251,51.1689584],[0.4334668,51.1715085],[0.4373395,51.1776821],[0.4163714,51.1805493],[0.4093737,51.1884425],[0.3835164,51.1954618],[0.3842264,51.1982636]]],"type":"Polygon"},"id":"E02005162","properties":{"code":"E02005162","geography":"MSOA","name":"Tunbridge Wells 001"},"type":"Feature"},{"geometry":{"coordinates":[[[0.2792904,51.1759146],[0.2649255,51.1797756],[0.2561038,51.1785939],[0.2588383,51.1774568],[0.2531303,51.1709054],[0.2461863,51.1698689],[0.2367068,51.1592355],[0.24057,51.1473325],[0.2412718,51.1436493],[0.2606413,51.1468151],[0.262849,51.143132],[0.2704516,51.1474038],[0.2678924,51.1507621],[0.2619234,51.1512245],[0.2561809,51.1639103],[0.2610944,51.1649167],[0.2672708,51.1578498],[0.2761281,51.1659203],[0.2792904,51.1759146]]],"type":"Polygon"},"id":"E02005163","properties":{"code":"E02005163","geography":"MSOA","name":"Tunbridge Wells 002"},"type":"Feature"},{"geometry":{"coordinates":[[[0.3048028,51.1636986],[0.289831,51.1612172],[0.2889236,51.1636539],[0.2761281,51.1659203],[0.2672708,51.1578498],[0.2610944,51.1649167],[0.2561809,51.1639103],[0.2619234,51.1512245],[0.2678924,51.1507621],[0.2704516,51.1474038],[0.2744717,51.1466051],[0.2709857,51.1420896],[0.2757199,51.1474299],[0.2720559,51.1523755],[0.2817078,51.1593798],[0.2838438,51.1472073],[0.2906312,51.1488668],[0.2941129,51.1433816],[0.2999249,51.1443601],[0.3030684,51.1411531],[0.3082659,51.1433875],[0.3030153,51.1492408],[0.3048028,51.1636986]]],"type":"Polygon"},"id":"E02005164","properties":{"code":"E02005164","geography":"MSOA","name":"Tunbridge Wells 003"},"type":"Feature"},{"geometry":{"coordinates":[[[0.4004623,51.1664806],[0.3851646,51.1671111],[0.3824206,51.1647672],[0.3648611,51.1709123],[0.356225,51.1632803],[0.3465457,51.1701031],[0.3245096,51.1703097],[0.3053897,51.1670417],[0.3048028,51.1636986],[0.3030153,51.1492408],[0.3082659,51.1433875],[0.3142453,51.1411819],[0.3135419,51.1341014],[0.3230079,51.134304],[0.3210244,51.1264461],[0.3252385,51.1228826],[0.3261997,51.122441],[0.3339718,51.1216086],[0.3440273,51.1276046],[0.3602196,51.1286156],[0.3686401,51.1325637],[0.3716174,51.1279023],[0.3764861,51.1305257],[0.367613,51.1411219],[0.3831304,51.141355],[0.3827964,51.1479421],[0.3942825,51.1489693],[0.3881246,51.1557308],[0.3975745,51.154852],[0.4009483,51.1573749],[0.4004623,51.1664806]]],"type":"Polygon"},"id":"E02005165","properties":{"code":"E02005165","geography":"MSOA","name":"Tunbridge Wells 004"},"type":"Feature"},{"geometry":{"coordinates":[[[0.3030684,51.1411531],[0.2999249,51.1443601],[0.2941129,51.1433816],[0.2906312,51.1488668],[0.2838438,51.1472073],[0.2817078,51.1593798],[0.2720559,51.1523755],[0.2757199,51.1474299],[0.2788974,51.1476855],[0.2854352,51.135959],[0.3030684,51.1411531]]],"type":"Polygon"},"id":"E02005166","properties":{"code":"E02005166","geography":"MSOA","name":"Tunbridge Wells 005"},"type":"Feature"},{"geometry":{"coordinates":[[[0.2561038,51.1785939],[0.2336062,51.1851457],[0.226934,51.1841568],[0.20343,51.1712326],[0.197666,51.1752422],[0.1909455,51.1713804],[0.1989857,51.161748],[0.2154278,51.1543626],[0.2121214,51.1516175],[0.1964335,51.1464083],[0.1934547,51.1394233],[0.1803458,51.1317928],[0.1644474,51.1327781],[0.1607209,51.1373219],[0.1545822,51.1375389],[0.1500365,51.1311785],[0.1534119,51.1205866],[0.1625719,51.1164013],[0.1995337,51.1169164],[0.2274329,51.1242519],[0.2311222,51.1306721],[0.2236332,51.1333064],[0.2208582,51.1384048],[0.2255066,51.140378],[0.229818,51.1388528],[0.2264966,51.1360136],[0.2314611,51.1354055],[0.2331007,51.1385871],[0.2356245,51.1368482],[0.2368975,51.1412973],[0.2334288,51.141854],[0.24057,51.1473325],[0.2367068,51.1592355],[0.2461863,51.1698689],[0.2531303,51.1709054],[0.2588383,51.1774568],[0.2561038,51.1785939]]],"type":"Polygon"},"id":"E02005167","properties":{"code":"E02005167","geography":"MSOA","name":"Tunbridge Wells 006"},"type":"Feature"},{"geometry":{"coordinates":[[[0.2709857,51.1420896],[0.2744717,51.1466051],[0.2704516,51.1474038],[0.262849,51.143132],[0.2606413,51.1468151],[0.2412718,51.1436493],[0.2481591,51.1307902],[0.2553155,51.132208],[0.2536103,51.1362017],[0.2587519,51.1341481],[0.2607886,51.1406596],[0.270544,51.1417208],[0.2709857,51.1420896]]],"type":"Polygon"},"id":"E02005168","properties":{"code":"E02005168","geography":"MSOA","name":"Tunbridge Wells 007"},"type":"Feature"},{"geometry":{"coordinates":[[[0.2683979,51.128731],[0.2702719,51.130825],[0.2659283,51.1331898],[0.272522,51.1315247],[0.2798943,51.1357392],[0.2675499,51.1363821],[0.2726233,51.1371114],[0.270544,51.1417208],[0.2607886,51.1406596],[0.2587519,51.1341481],[0.2536103,51.1362017],[0.2553155,51.132208],[0.2609019,51.1286535],[0.2683979,51.128731]]],"type":"Polygon"},"id":"E02005169","properties":{"code":"E02005169","geography":"MSOA","name":"Tunbridge Wells 008"},"type":"Feature"},{"geometry":{"coordinates":[[[0.3030684,51.1411531],[0.2854352,51.135959],[0.2788974,51.1476855],[0.2757199,51.1474299],[0.2709857,51.1420896],[0.270544,51.1417208],[0.2726233,51.1371114],[0.2675499,51.1363821],[0.2798943,51.1357392],[0.272522,51.1315247],[0.2659283,51.1331898],[0.2702719,51.130825],[0.2683979,51.128731],[0.2788689,51.1243042],[0.2724342,51.1186048],[0.2758996,51.1204081],[0.2796221,51.1178503],[0.2986917,51.1181617],[0.3252385,51.1228826],[0.3210244,51.1264461],[0.3230079,51.134304],[0.3135419,51.1341014],[0.3142453,51.1411819],[0.3082659,51.1433875],[0.3030684,51.1411531]]],"type":"Polygon"},"id":"E02005170","properties":{"code":"E02005170","geography":"MSOA","name":"Tunbridge Wells 009"},"type":"Feature"},{"geometry":{"coordinates":[[[0.2412718,51.1436493],[0.24057,51.1473325],[0.2334288,51.141854],[0.2368975,51.1412973],[0.2356245,51.1368482],[0.2331007,51.1385871],[0.2314611,51.1354055],[0.2264966,51.1360136],[0.229818,51.1388528],[0.2255066,51.140378],[0.2208582,51.1384048],[0.2236332,51.1333064],[0.2311222,51.1306721],[0.2274329,51.1242519],[0.2427597,51.1165898],[0.2456222,51.1210094],[0.2515537,51.1186791],[0.2609019,51.1286535],[0.2553155,51.132208],[0.2481591,51.1307902],[0.2412718,51.1436493]]],"type":"Polygon"},"id":"E02005171","properties":{"code":"E02005171","geography":"MSOA","name":"Tunbridge Wells 010"},"type":"Feature"},{"geometry":{"coordinates":[[[0.4968746,51.1447715],[0.481278,51.1413478],[0.4688971,51.1432621],[0.4676673,51.1562076],[0.4373395,51.1776821],[0.4334668,51.1715085],[0.4266251,51.1689584],[0.4286903,51.1645649],[0.4215664,51.1605473],[0.4004623,51.1664806],[0.4009483,51.1573749],[0.3975745,51.154852],[0.3881246,51.1557308],[0.3942825,51.1489693],[0.3827964,51.1479421],[0.3831304,51.141355],[0.367613,51.1411219],[0.3764861,51.1305257],[0.3716174,51.1279023],[0.3686401,51.1325637],[0.3602196,51.1286156],[0.3440273,51.1276046],[0.3339718,51.1216086],[0.3261997,51.122441],[0.3300518,51.1178051],[0.3245443,51.1121334],[0.3346764,51.1055671],[0.3589043,51.1045188],[0.3507577,51.0990112],[0.3539507,51.0936219],[0.3507848,51.0840774],[0.3567433,51.0830635],[0.3646613,51.0881612],[0.3738762,51.0884672],[0.3916193,51.0857785],[0.3908174,51.0813357],[0.3964464,51.083099],[0.4065834,51.0796791],[0.4008915,51.0711793],[0.4089827,51.0693879],[0.4112713,51.065897],[0.4177536,51.067887],[0.4182554,51.0626252],[0.4255333,51.0640681],[0.4407889,51.0579196],[0.4536892,51.0569567],[0.4655794,51.074946],[0.47397,51.0743015],[0.4816955,51.0826919],[0.4825536,51.0924993],[0.4774572,51.0945296],[0.4896177,51.1047922],[0.4983954,51.1063802],[0.5130289,51.1239185],[0.5075323,51.131922],[0.5146761,51.1360877],[0.4968746,51.1447715]]],"type":"Polygon"},"id":"E02005172","properties":{"code":"E02005172","geography":"MSOA","name":"Tunbridge Wells 011"},"type":"Feature"},{"geometry":{"coordinates":[[[0.2724342,51.1186048],[0.2788689,51.1243042],[0.2683979,51.128731],[0.2609019,51.1286535],[0.2515537,51.1186791],[0.2456222,51.1210094],[0.2427597,51.1165898],[0.2756444,51.1123583],[0.278915,51.1146789],[0.2724342,51.1186048]]],"type":"Polygon"},"id":"E02005173","properties":{"code":"E02005173","geography":"MSOA","name":"Tunbridge Wells 012"},"type":"Feature"},{"geometry":{"coordinates":[[[0.6394441,51.1412949],[0.6325149,51.1452966],[0.6364818,51.1452157],[0.6403092,51.152476],[0.6260881,51.1528419],[0.6171848,51.1482775],[0.6125067,51.1524325],[0.6050396,51.1509205],[0.6018254,51.1590175],[0.5932112,51.1539769],[0.5756422,51.1561144],[0.5792757,51.1446378],[0.5638878,51.1348946],[0.5590357,51.133946],[0.5655822,51.141137],[0.56192,51.1432608],[0.5418826,51.1344324],[0.5146761,51.1360877],[0.5075323,51.131922],[0.5130289,51.1239185],[0.4983954,51.1063802],[0.4896177,51.1047922],[0.4774572,51.0945296],[0.4825536,51.0924993],[0.4816955,51.0826919],[0.4909855,51.0831855],[0.4972237,51.0797393],[0.489209,51.0636266],[0.4955279,51.0594722],[0.5017793,51.0632989],[0.507389,51.0744454],[0.5184936,51.0747777],[0.5255527,51.0714394],[0.5302115,51.0735282],[0.533618,51.069862],[0.5587591,51.0842028],[0.5648681,51.0816558],[0.577797,51.0830567],[0.596593,51.0902523],[0.5955682,51.1083404],[0.5903382,51.1113417],[0.6089939,51.1178711],[0.6036184,51.1316753],[0.6198795,51.1321539],[0.6262411,51.1390133],[0.6364227,51.1368407],[0.6421336,51.1404644],[0.6394441,51.1412949]]],"type":"Polygon"},"id":"E02005174","properties":{"code":"E02005174","geography":"MSOA","name":"Tunbridge Wells 013"},"type":"Feature"},{"geometry":{"coordinates":[[[0.6466437,51.083284],[0.6425508,51.0827974],[0.6293472,51.0914238],[0.596593,51.0902523],[0.577797,51.0830567],[0.5648681,51.0816558],[0.5587591,51.0842028],[0.533618,51.069862],[0.5302115,51.0735282],[0.5255527,51.0714394],[0.5184936,51.0747777],[0.507389,51.0744454],[0.5017793,51.0632989],[0.4955279,51.0594722],[0.489209,51.0636266],[0.4972237,51.0797393],[0.4909855,51.0831855],[0.4816955,51.0826919],[0.47397,51.0743015],[0.4655794,51.074946],[0.4536892,51.0569567],[0.4713724,51.0490801],[0.4660344,51.0426049],[0.466376,51.0343143],[0.4713939,51.0307726],[0.477989,51.0290571],[0.4933117,51.0310725],[0.5095901,51.0236756],[0.5375704,51.0216763],[0.5418773,51.0110093],[0.5719837,51.0034579],[0.5780457,51.004471],[0.6053615,51.0120725],[0.6060348,51.0199637],[0.5972255,51.0208201],[0.5958189,51.0249482],[0.6024266,51.0267645],[0.593303,51.0314519],[0.5934704,51.0418544],[0.6116865,51.0635487],[0.6272633,51.0665806],[0.6446797,51.0778907],[0.6466437,51.083284]]],"type":"Polygon"},"id":"E02005175","properties":{"code":"E02005175","geography":"MSOA","name":"Tunbridge Wells 014"},"type":"Feature"}],"type":"FeatureCollection"}
