{"features":[{"geometry":{"coordinates":[[[-2.1528515,51.8231471],[-2.1600896,51.8245571],[-2.1885237,51.808609],[-2.2054786,51.81134],[-2.2157923,51.8075683],[-2.2245177,51.7946025],[-2.2225604,51.7869953],[-2.2334591,51.7715452],[-2.2273003,51.7639818],[-2.2214699,51.7627939],[-2.2227233,51.7585633],[-2.204912,51.7602279],[-2.1953561,51.7561218],[-2.1948569,51.75217],[-2.1814151,51.7444111],[-2.189037,51.7391714],[-2.1749268,51.7352837],[-2.15464,51.7328721],[-2.152841,51.7355986],[-2.1332247,51.7300739],[-2.128258,51.7247041],[-2.0846985,51.7283122],[-2.0815781,51.7296405],[-2.0835238,51.7358097],[-2.0725044,51.7353306],[-2.0689176,51.7391927],[-2.0799558,51.7392812],[-2.080262,51.7436276],[-2.0896398,51.7469892],[-2.1013551,51.7407356],[-2.1071688,51.7475374],[-2.1026582,51.7672736],[-2.0903474,51.765636],[-2.0735084,51.7686318],[-2.0827607,51.7784495],[-2.0838167,51.7889441],[-2.1156417,51.7994516],[-2.1195086,51.8033551],[-2.1175989,51.8091565],[-2.1237013,51.8101943],[-2.1342604,51.819912],[-2.1528515,51.8231471]]],"type":"Polygon"},"id":"E02004652","properties":{"code":"E02004652","geography":"MSOA","name":"Stroud 002"},"type":"Feature"},{"geometry":{"coordinates":[[[[-2.3897688,51.8006926],[-2.3898902,51.8007168],[-2.389577,51.8005976],[-2.3897688,51.8006926]]],[[[-2.4126093,51.8053116],[-2.4245979,51.815043],[-2.4348644,51.809948],[-2.4441184,51.7997553],[-2.4470241,51.7926791],[-2.4407727,51.7882962],[-2.4130395,51.7860529],[-2.38372,51.7757506],[-2.3793285,51.7662729],[-2.3820377,51.7591674],[-2.3832172,51.7586329],[-2.4281302,51.7382599],[-2.4281174,51.7377605],[-2.4166797,51.7293646],[-2.4185208,51.7196237],[-2.4099063,51.718032],[-2.4092677,51.7141301],[-2.4049882,51.7161931],[-2.4037282,51.7134803],[-2.3913285,51.7078135],[-2.380205,51.7088655],[-2.3620733,51.7203764],[-2.3529197,51.7245726],[-2.364257,51.7317795],[-2.3541234,51.7415078],[-2.3308458,51.7412514],[-2.3103979,51.7336097],[-2.3044647,51.7413637],[-2.3072559,51.742444],[-2.3023985,51.7430965],[-2.3049428,51.7509141],[-2.297139,51.7526541],[-2.2928613,51.7575293],[-2.2668267,51.7549667],[-2.2599044,51.7545489],[-2.256072,51.7608514],[-2.2363978,51.7710922],[-2.2512081,51.7783493],[-2.2579044,51.7788621],[-2.2636227,51.7757743],[-2.2692348,51.7785128],[-2.2668874,51.780247],[-2.3099107,51.790735],[-2.3005631,51.8025685],[-2.3155053,51.8018046],[-2.3202813,51.8059762],[-2.3325363,51.8067889],[-2.3403618,51.7983957],[-2.336124,51.7909895],[-2.3492691,51.7848626],[-2.3543027,51.7940274],[-2.3748838,51.7927956],[-2.4126093,51.8053116]]],[[[-2.4326764,51.8157835],[-2.4327445,51.8157743],[-2.4327725,51.8157448],[-2.4326764,51.8157835]]]],"type":"MultiPolygon"},"id":"E02004653","properties":{"code":"E02004653","geography":"MSOA","name":"Stroud 003"},"type":"Feature"},{"geometry":{"coordinates":[[[-2.2227233,51.7585633],[-2.2214699,51.7627939],[-2.2273003,51.7639818],[-2.2334591,51.7715452],[-2.2363978,51.7710922],[-2.256072,51.7608514],[-2.2599044,51.7545489],[-2.2668267,51.7549667],[-2.2683512,51.7466897],[-2.2603079,51.7440341],[-2.2601641,51.7383797],[-2.2408862,51.7380669],[-2.2356721,51.7416766],[-2.2405664,51.7459926],[-2.2312411,51.7491023],[-2.2284289,51.7585573],[-2.2227233,51.7585633]]],"type":"Polygon"},"id":"E02004654","properties":{"code":"E02004654","geography":"MSOA","name":"Stroud 004"},"type":"Feature"},{"geometry":{"coordinates":[[[-2.2668267,51.7549667],[-2.2928613,51.7575293],[-2.297139,51.7526541],[-2.3049428,51.7509141],[-2.3023985,51.7430965],[-2.2893833,51.738069],[-2.2601641,51.7383797],[-2.2603079,51.7440341],[-2.2683512,51.7466897],[-2.2668267,51.7549667]]],"type":"Polygon"},"id":"E02004655","properties":{"code":"E02004655","geography":"MSOA","name":"Stroud 005"},"type":"Feature"},{"geometry":{"coordinates":[[[-2.189037,51.7391714],[-2.1814151,51.7444111],[-2.1948569,51.75217],[-2.1953561,51.7561218],[-2.204912,51.7602279],[-2.2227233,51.7585633],[-2.2284289,51.7585573],[-2.2312411,51.7491023],[-2.2405664,51.7459926],[-2.2356721,51.7416766],[-2.2218186,51.7437757],[-2.2092603,51.7374902],[-2.206396,51.7315073],[-2.2049379,51.7354288],[-2.2008553,51.7337574],[-2.189037,51.7391714]]],"type":"Polygon"},"id":"E02004656","properties":{"code":"E02004656","geography":"MSOA","name":"Stroud 006"},"type":"Feature"},{"geometry":{"coordinates":[[[-2.189037,51.7391714],[-2.2008553,51.7337574],[-2.2049379,51.7354288],[-2.206396,51.7315073],[-2.2092603,51.7374902],[-2.2218186,51.7437757],[-2.2356721,51.7416766],[-2.2408862,51.7380669],[-2.2329916,51.729765],[-2.2236262,51.7193061],[-2.2149463,51.7190485],[-2.2123169,51.7214296],[-2.2048936,51.716583],[-2.1981674,51.7172211],[-2.1963634,51.7206607],[-2.1812433,51.7177982],[-2.1749268,51.7352837],[-2.189037,51.7391714]]],"type":"Polygon"},"id":"E02004657","properties":{"code":"E02004657","geography":"MSOA","name":"Stroud 007"},"type":"Feature"},{"geometry":{"coordinates":[[[-2.128258,51.7247041],[-2.1332247,51.7300739],[-2.152841,51.7355986],[-2.15464,51.7328721],[-2.1749268,51.7352837],[-2.1812433,51.7177982],[-2.1340057,51.7220469],[-2.128258,51.7247041]]],"type":"Polygon"},"id":"E02004658","properties":{"code":"E02004658","geography":"MSOA","name":"Stroud 008"},"type":"Feature"},{"geometry":{"coordinates":[[[-2.2601641,51.7383797],[-2.2893833,51.738069],[-2.3023985,51.7430965],[-2.3072559,51.742444],[-2.3044647,51.7413637],[-2.3103979,51.7336097],[-2.3308458,51.7412514],[-2.3541234,51.7415078],[-2.364257,51.7317795],[-2.3529197,51.7245726],[-2.3620733,51.7203764],[-2.3500249,51.7056329],[-2.3379379,51.7024548],[-2.3375733,51.6994671],[-2.3313337,51.7053944],[-2.3203291,51.7011689],[-2.3156158,51.6915244],[-2.3350477,51.6874634],[-2.3383888,51.6816656],[-2.3210927,51.6754752],[-2.32613,51.6705768],[-2.3001261,51.6717083],[-2.2921281,51.6672166],[-2.2843027,51.6670038],[-2.2897001,51.6694551],[-2.2838509,51.670047],[-2.2818012,51.6736409],[-2.2861475,51.6742698],[-2.2871668,51.680633],[-2.2715325,51.682884],[-2.2708079,51.6877764],[-2.2523239,51.6958983],[-2.2613905,51.7032598],[-2.2574732,51.7088652],[-2.2685909,51.7120227],[-2.2770687,51.710267],[-2.2906265,51.7145321],[-2.2681953,51.7157873],[-2.2329916,51.729765],[-2.2408862,51.7380669],[-2.2601641,51.7383797]]],"type":"Polygon"},"id":"E02004659","properties":{"code":"E02004659","geography":"MSOA","name":"Stroud 009"},"type":"Feature"},{"geometry":{"coordinates":[[[-2.1812433,51.7177982],[-2.1963634,51.7206607],[-2.1981674,51.7172211],[-2.2048936,51.716583],[-2.2123169,51.7214296],[-2.2149463,51.7190485],[-2.2236262,51.7193061],[-2.2329916,51.729765],[-2.2681953,51.7157873],[-2.2906265,51.7145321],[-2.2770687,51.710267],[-2.2685909,51.7120227],[-2.2574732,51.7088652],[-2.2393602,51.7052251],[-2.2253898,51.7068039],[-2.2193413,51.7005963],[-2.2107479,51.7005684],[-2.2076624,51.69894],[-2.2104572,51.69621],[-2.2026697,51.6959261],[-2.2006501,51.6928763],[-2.1807949,51.6876243],[-2.1752015,51.690745],[-2.1641736,51.6905367],[-2.1589587,51.6863752],[-2.1498807,51.689334],[-2.1406609,51.6993472],[-2.1299139,51.6972791],[-2.1237438,51.7061675],[-2.133234,51.7085972],[-2.1340057,51.7220469],[-2.1812433,51.7177982]]],"type":"Polygon"},"id":"E02004660","properties":{"code":"E02004660","geography":"MSOA","name":"Stroud 010"},"type":"Feature"},{"geometry":{"coordinates":[[[-2.3383888,51.6816656],[-2.3350477,51.6874634],[-2.3156158,51.6915244],[-2.3203291,51.7011689],[-2.3313337,51.7053944],[-2.3375733,51.6994671],[-2.3379379,51.7024548],[-2.3500249,51.7056329],[-2.3620733,51.7203764],[-2.380205,51.7088655],[-2.3913285,51.7078135],[-2.4037282,51.7134803],[-2.4046481,51.7101273],[-2.397336,51.7061356],[-2.4067343,51.6994175],[-2.3841623,51.700211],[-2.3733706,51.6864038],[-2.3788933,51.6826046],[-2.3725651,51.6847294],[-2.3673125,51.6805349],[-2.3629452,51.6839555],[-2.3676067,51.6857763],[-2.3666786,51.6905001],[-2.3575249,51.6939605],[-2.3478323,51.6842258],[-2.3383888,51.6816656]]],"type":"Polygon"},"id":"E02004661","properties":{"code":"E02004661","geography":"MSOA","name":"Stroud 011"},"type":"Feature"},{"geometry":{"coordinates":[[[-2.4281302,51.7382599],[-2.4326224,51.7362202],[-2.4494549,51.7398165],[-2.4723014,51.7259838],[-2.4818548,51.7256465],[-2.4890029,51.6996608],[-2.4900471,51.7001468],[-2.4933134,51.6977094],[-2.5086484,51.6862616],[-2.5323918,51.6780552],[-2.5090053,51.6659982],[-2.4896405,51.6639584],[-2.4930347,51.6518987],[-2.4849712,51.6484166],[-2.4906759,51.6448316],[-2.4855723,51.6450676],[-2.470336,51.6474721],[-2.4604427,51.6525994],[-2.4456566,51.6493315],[-2.4429845,51.6524894],[-2.4308357,51.6465599],[-2.4072065,51.6411975],[-2.398838,51.6458082],[-2.3991898,51.6515379],[-2.404504,51.6530617],[-2.4051057,51.6687139],[-2.4039089,51.666513],[-2.3986454,51.6673267],[-2.3937644,51.6773669],[-2.3871667,51.6690391],[-2.3829705,51.6721207],[-2.373209,51.6700448],[-2.3704603,51.6785051],[-2.3662246,51.6782509],[-2.3673125,51.6805349],[-2.3725651,51.6847294],[-2.3788933,51.6826046],[-2.3733706,51.6864038],[-2.3841623,51.700211],[-2.4067343,51.6994175],[-2.397336,51.7061356],[-2.4046481,51.7101273],[-2.4037282,51.7134803],[-2.4049882,51.7161931],[-2.4092677,51.7141301],[-2.4099063,51.718032],[-2.4185208,51.7196237],[-2.4166797,51.7293646],[-2.4281174,51.7377605],[-2.4281302,51.7382599]]],"type":"Polygon"},"id":"E02004662","properties":{"code":"E02004662","geography":"MSOA","name":"Stroud 012"},"type":"Feature"},{"geometry":{"coordinates":[[[-2.2006501,51.6928763],[-2.2026697,51.6959261],[-2.2104572,51.69621],[-2.2076624,51.69894],[-2.2107479,51.7005684],[-2.2193413,51.7005963],[-2.2253898,51.7068039],[-2.2393602,51.7052251],[-2.2574732,51.7088652],[-2.2613905,51.7032598],[-2.2523239,51.6958983],[-2.2708079,51.6877764],[-2.2715325,51.682884],[-2.2653611,51.6782867],[-2.2425232,51.6740316],[-2.232726,51.6609181],[-2.1921128,51.6597589],[-2.187555,51.6702946],[-2.2005883,51.674638],[-2.2046367,51.681545],[-2.2118482,51.6822419],[-2.2006501,51.6928763]]],"type":"Polygon"},"id":"E02004663","properties":{"code":"E02004663","geography":"MSOA","name":"Stroud 013"},"type":"Feature"},{"geometry":{"coordinates":[[[-2.3383888,51.6816656],[-2.3478323,51.6842258],[-2.3575249,51.6939605],[-2.3666786,51.6905001],[-2.3676067,51.6857763],[-2.3629452,51.6839555],[-2.3673125,51.6805349],[-2.3662246,51.6782509],[-2.3517486,51.669185],[-2.32613,51.6705768],[-2.3210927,51.6754752],[-2.3383888,51.6816656]]],"type":"Polygon"},"id":"E02004664","properties":{"code":"E02004664","geography":"MSOA","name":"Stroud 014"},"type":"Feature"},{"geometry":{"coordinates":[[[-2.3662246,51.6782509],[-2.3704603,51.6785051],[-2.373209,51.6700448],[-2.3829705,51.6721207],[-2.3871667,51.6690391],[-2.3937644,51.6773669],[-2.3986454,51.6673267],[-2.4039089,51.666513],[-2.4051057,51.6687139],[-2.404504,51.6530617],[-2.3991898,51.6515379],[-2.398838,51.6458082],[-2.3957849,51.6387415],[-2.3853672,51.6393201],[-2.400561,51.6346748],[-2.3889105,51.6275284],[-2.3902621,51.6121087],[-2.3964872,51.6004441],[-2.3906765,51.5971333],[-2.3705795,51.5976129],[-2.3655843,51.6037337],[-2.352789,51.5966949],[-2.3440227,51.5964979],[-2.3441153,51.5942287],[-2.3352561,51.594253],[-2.3341796,51.5966324],[-2.3310721,51.5916034],[-2.3198505,51.5939147],[-2.316574,51.5898334],[-2.3082572,51.5928641],[-2.300102,51.5914811],[-2.2965535,51.5949938],[-2.2916413,51.5936952],[-2.2808267,51.6115312],[-2.2743286,51.6145859],[-2.2772337,51.6196282],[-2.2937643,51.6325126],[-2.3143437,51.6250541],[-2.3236037,51.6330841],[-2.3075289,51.6424732],[-2.3153642,51.6458427],[-2.2928549,51.6561907],[-2.2843027,51.6670038],[-2.2921281,51.6672166],[-2.3001261,51.6717083],[-2.32613,51.6705768],[-2.3517486,51.669185],[-2.3662246,51.6782509]]],"type":"Polygon"},"id":"E02004665","properties":{"code":"E02004665","geography":"MSOA","name":"Stroud 015"},"type":"Feature"}],"type":"FeatureCollection"}
