{"features":[{"geometry":{"coordinates":[[[1.157808,52.0887373],[1.1422619,52.0944549],[1.1385029,52.0883782],[1.1157041,52.0892167],[1.1167094,52.0829975],[1.1259688,52.0786581],[1.1391224,52.0805382],[1.1465041,52.0771676],[1.1518067,52.0785836],[1.1655599,52.0809997],[1.157808,52.0887373]]],"type":"Polygon"},"id":"E02006245","properties":{"code":"E02006245","geography":"MSOA","name":"Ipswich 001"},"type":"Feature"},{"geometry":{"coordinates":[[[1.1518067,52.0785836],[1.1465041,52.0771676],[1.1391224,52.0805382],[1.1259688,52.0786581],[1.124899,52.0737677],[1.1331006,52.0713533],[1.1374288,52.0673006],[1.1543431,52.0720413],[1.15629,52.0757549],[1.1518067,52.0785836]]],"type":"Polygon"},"id":"E02006246","properties":{"code":"E02006246","geography":"MSOA","name":"Ipswich 002"},"type":"Feature"},{"geometry":{"coordinates":[[[1.1259688,52.0786581],[1.1167094,52.0829975],[1.1157041,52.0892167],[1.1091057,52.0880516],[1.1091673,52.0709896],[1.1219929,52.0615002],[1.1261026,52.0639589],[1.1331006,52.0713533],[1.124899,52.0737677],[1.1259688,52.0786581]]],"type":"Polygon"},"id":"E02006247","properties":{"code":"E02006247","geography":"MSOA","name":"Ipswich 003"},"type":"Feature"},{"geometry":{"coordinates":[[[1.18821,52.0787077],[1.189863,52.080435],[1.1709561,52.0808046],[1.1767856,52.0730051],[1.1716324,52.0626738],[1.1724467,52.061151],[1.1820968,52.061805],[1.2001841,52.0685207],[1.18821,52.0787077]]],"type":"Polygon"},"id":"E02006248","properties":{"code":"E02006248","geography":"MSOA","name":"Ipswich 004"},"type":"Feature"},{"geometry":{"coordinates":[[[1.1709561,52.0808046],[1.1655599,52.0809997],[1.1518067,52.0785836],[1.15629,52.0757549],[1.1543431,52.0720413],[1.1374288,52.0673006],[1.1561848,52.0593254],[1.1633874,52.0578172],[1.1716324,52.0626738],[1.1767856,52.0730051],[1.1709561,52.0808046]]],"type":"Polygon"},"id":"E02006249","properties":{"code":"E02006249","geography":"MSOA","name":"Ipswich 005"},"type":"Feature"},{"geometry":{"coordinates":[[[1.1374288,52.0673006],[1.1331006,52.0713533],[1.1261026,52.0639589],[1.1351286,52.0577748],[1.1479577,52.0597677],[1.1561848,52.0593254],[1.1374288,52.0673006]]],"type":"Polygon"},"id":"E02006250","properties":{"code":"E02006250","geography":"MSOA","name":"Ipswich 006"},"type":"Feature"},{"geometry":{"coordinates":[[[1.1724467,52.061151],[1.1716324,52.0626738],[1.1633874,52.0578172],[1.1561848,52.0593254],[1.1479577,52.0597677],[1.1495218,52.0553522],[1.1450841,52.0512556],[1.1536741,52.0516347],[1.182819,52.0523689],[1.1827907,52.0590723],[1.1748404,52.0576183],[1.1724467,52.061151]]],"type":"Polygon"},"id":"E02006251","properties":{"code":"E02006251","geography":"MSOA","name":"Ipswich 007"},"type":"Feature"},{"geometry":{"coordinates":[[[1.1956303,52.0429023],[1.1936196,52.0535762],[1.1997332,52.0532423],[1.1994951,52.0553191],[1.1947428,52.0604574],[1.1820968,52.061805],[1.1724467,52.061151],[1.1748404,52.0576183],[1.1827907,52.0590723],[1.182819,52.0523689],[1.1837087,52.0496239],[1.1956303,52.0429023]]],"type":"Polygon"},"id":"E02006252","properties":{"code":"E02006252","geography":"MSOA","name":"Ipswich 008"},"type":"Feature"},{"geometry":{"coordinates":[[[1.205479,52.0647572],[1.2001841,52.0685207],[1.1820968,52.061805],[1.1947428,52.0604574],[1.1994951,52.0553191],[1.1997332,52.0532423],[1.1936196,52.0535762],[1.1956303,52.0429023],[1.2019134,52.0373914],[1.2091824,52.0484629],[1.2038275,52.0494641],[1.205479,52.0647572]]],"type":"Polygon"},"id":"E02006253","properties":{"code":"E02006253","geography":"MSOA","name":"Ipswich 009"},"type":"Feature"},{"geometry":{"coordinates":[[[1.1479577,52.0597677],[1.1351286,52.0577748],[1.1261026,52.0639589],[1.1219929,52.0615002],[1.1219738,52.0574105],[1.1102207,52.0534872],[1.1142835,52.0485829],[1.119129,52.0502182],[1.1225701,52.0463139],[1.1280093,52.0471018],[1.1266899,52.0439396],[1.1429671,52.0468031],[1.1499943,52.049595],[1.1450841,52.0512556],[1.1495218,52.0553522],[1.1479577,52.0597677]]],"type":"Polygon"},"id":"E02006254","properties":{"code":"E02006254","geography":"MSOA","name":"Ipswich 010"},"type":"Feature"},{"geometry":{"coordinates":[[[1.1837087,52.0496239],[1.182819,52.0523689],[1.1536741,52.0516347],[1.1599363,52.0488101],[1.1598949,52.0479435],[1.1630286,52.0460343],[1.1610441,52.0420047],[1.1808409,52.0396356],[1.1804972,52.044575],[1.1837087,52.0496239]]],"type":"Polygon"},"id":"E02006255","properties":{"code":"E02006255","geography":"MSOA","name":"Ipswich 011"},"type":"Feature"},{"geometry":{"coordinates":[[[1.1598949,52.0479435],[1.1599363,52.0488101],[1.1536741,52.0516347],[1.1450841,52.0512556],[1.1499943,52.049595],[1.1429671,52.0468031],[1.1375078,52.0439513],[1.1382072,52.0403279],[1.1466824,52.0338637],[1.1504956,52.0342182],[1.1554673,52.0365201],[1.1598949,52.0479435]]],"type":"Polygon"},"id":"E02006256","properties":{"code":"E02006256","geography":"MSOA","name":"Ipswich 012"},"type":"Feature"},{"geometry":{"coordinates":[[[1.1266899,52.0439396],[1.1280093,52.0471018],[1.1225701,52.0463139],[1.119129,52.0502182],[1.1142835,52.0485829],[1.1072454,52.0461715],[1.1129125,52.034565],[1.1176088,52.0353176],[1.1170408,52.0383267],[1.1266899,52.0439396]]],"type":"Polygon"},"id":"E02006257","properties":{"code":"E02006257","geography":"MSOA","name":"Ipswich 013"},"type":"Feature"},{"geometry":{"coordinates":[[[1.1956303,52.0429023],[1.1837087,52.0496239],[1.1804972,52.044575],[1.1910187,52.0359389],[1.1847923,52.0242906],[1.1865803,52.0219796],[1.2016487,52.0243167],[1.2094469,52.0207551],[1.2150023,52.0256068],[1.2193388,52.0228693],[1.22358,52.0294205],[1.2019134,52.0373914],[1.1956303,52.0429023]]],"type":"Polygon"},"id":"E02006258","properties":{"code":"E02006258","geography":"MSOA","name":"Ipswich 014"},"type":"Feature"},{"geometry":{"coordinates":[[[1.1466824,52.0338637],[1.1382072,52.0403279],[1.1375078,52.0439513],[1.1429671,52.0468031],[1.1266899,52.0439396],[1.1170408,52.0383267],[1.1176088,52.0353176],[1.1256282,52.0341773],[1.1295465,52.0299408],[1.1466824,52.0338637]]],"type":"Polygon"},"id":"E02006259","properties":{"code":"E02006259","geography":"MSOA","name":"Ipswich 015"},"type":"Feature"},{"geometry":{"coordinates":[[[1.1847923,52.0242906],[1.1910187,52.0359389],[1.1804972,52.044575],[1.1808409,52.0396356],[1.1610441,52.0420047],[1.1609613,52.0418365],[1.1606459,52.0326263],[1.1661964,52.0298503],[1.1696897,52.0303297],[1.1776522,52.0224257],[1.1847923,52.0242906]]],"type":"Polygon"},"id":"E02006260","properties":{"code":"E02006260","geography":"MSOA","name":"Ipswich 016"},"type":"Feature"}],"type":"FeatureCollection"}
