{"features":[{"geometry":{"coordinates":[[[-0.587408,51.0547345],[-0.5874978,51.0591878],[-0.599942,51.0579303],[-0.6059024,51.066727],[-0.6284167,51.0657561],[-0.6330215,51.0742576],[-0.6311609,51.0883651],[-0.6641128,51.0817293],[-0.6690813,51.0773976],[-0.6874445,51.0755193],[-0.6967601,51.0714986],[-0.7067028,51.0787659],[-0.7234343,51.077823],[-0.729986,51.0805552],[-0.7355991,51.0847068],[-0.7535002,51.086461],[-0.780806,51.0793805],[-0.796954,51.0638944],[-0.7873497,51.0669327],[-0.7768185,51.0650308],[-0.7736226,51.0534526],[-0.7639539,51.044038],[-0.7617506,51.0313854],[-0.7529923,51.0238681],[-0.7302692,51.0268499],[-0.7146784,51.0211919],[-0.7034297,51.0199524],[-0.7044201,51.0257893],[-0.6919918,51.0281103],[-0.6948619,51.035752],[-0.6854563,51.0378435],[-0.673674,51.0186378],[-0.635363,51.0182101],[-0.6336388,51.0228905],[-0.6466448,51.0359797],[-0.6318735,51.0367852],[-0.6252712,51.0441169],[-0.6169853,51.0426072],[-0.6137516,51.0461327],[-0.6086854,51.0456759],[-0.6136759,51.0506857],[-0.6100163,51.0535019],[-0.587408,51.0547345]]],"type":"Polygon"},"id":"E02006561","properties":{"code":"E02006561","geography":"MSOA","name":"Chichester 001"},"type":"Feature"},{"geometry":{"coordinates":[[[-0.4776299,51.0500019],[-0.4756789,51.0564126],[-0.4838295,51.0564881],[-0.4845616,51.0624733],[-0.4784474,51.0665395],[-0.4865033,51.0702016],[-0.4921514,51.0944886],[-0.5054013,51.0882667],[-0.5231952,51.0916115],[-0.5269697,51.0896105],[-0.5264124,51.0918716],[-0.5350035,51.0935837],[-0.5326432,51.0860955],[-0.5392406,51.0820298],[-0.5776161,51.0866586],[-0.6011623,51.0797045],[-0.6211461,51.0881989],[-0.6311609,51.0883651],[-0.6330215,51.0742576],[-0.6284167,51.0657561],[-0.6059024,51.066727],[-0.599942,51.0579303],[-0.5874978,51.0591878],[-0.587408,51.0547345],[-0.5864645,51.0377457],[-0.5741808,51.0297836],[-0.5748708,51.0235636],[-0.5663325,51.0198729],[-0.5670464,51.0150696],[-0.5732117,51.0122987],[-0.5704651,51.0019028],[-0.5652781,51.0037232],[-0.5637589,50.997387],[-0.5542621,50.9938599],[-0.5384945,50.9962734],[-0.5517854,50.9864434],[-0.528838,50.9791062],[-0.5232951,50.981941],[-0.5212152,50.9903186],[-0.5073855,50.9904007],[-0.5088303,50.9961],[-0.5176697,50.99856],[-0.5105614,51.0079495],[-0.5051558,51.0060558],[-0.4969212,51.011139],[-0.4862459,51.0101119],[-0.4865942,51.0167522],[-0.4759187,51.0208896],[-0.4732199,51.0338553],[-0.4760867,51.0387732],[-0.4811895,51.0381336],[-0.4839532,51.0409968],[-0.4776299,51.0500019]]],"type":"Polygon"},"id":"E02006562","properties":{"code":"E02006562","geography":"MSOA","name":"Chichester 002"},"type":"Feature"},{"geometry":{"coordinates":[[[-0.796954,51.0638944],[-0.8115818,51.0629856],[-0.8145231,51.0666854],[-0.8173127,51.0612329],[-0.8263871,51.0613305],[-0.8291614,51.0677744],[-0.8373088,51.0692081],[-0.8501305,51.0593415],[-0.8528288,51.0448487],[-0.8826746,51.0268677],[-0.8945228,51.0235011],[-0.8985249,51.017673],[-0.893365,51.0027483],[-0.8997268,51.0012828],[-0.90564,50.9968232],[-0.9177096,50.9786708],[-0.9155574,50.9706117],[-0.9292907,50.9583544],[-0.9265392,50.9525329],[-0.9318642,50.9455878],[-0.9421161,50.9428923],[-0.9353356,50.9411105],[-0.9312021,50.9352904],[-0.9065204,50.939892],[-0.890609,50.9375306],[-0.8863807,50.9413321],[-0.8682637,50.9430069],[-0.8652918,50.9471595],[-0.8554203,50.9479482],[-0.8524286,50.9531714],[-0.8466987,50.9479208],[-0.8498815,50.9434352],[-0.8448183,50.9415453],[-0.8489788,50.9311556],[-0.8351809,50.9300279],[-0.8301619,50.9326989],[-0.8272627,50.9460708],[-0.8201048,50.9525013],[-0.8149247,50.9506855],[-0.8149169,50.9470209],[-0.8110919,50.9475727],[-0.8105858,50.9420371],[-0.8057663,50.9416399],[-0.8045392,50.9376445],[-0.798062,50.9410168],[-0.7843931,50.9396173],[-0.7834336,50.9476998],[-0.7721102,50.9496578],[-0.76672,50.9678671],[-0.7568177,50.9726685],[-0.7524492,50.9795391],[-0.7626224,50.9793946],[-0.7524876,50.9920772],[-0.7569612,50.9942363],[-0.7495656,50.9987922],[-0.7536102,51.0042104],[-0.7529923,51.0238681],[-0.7617506,51.0313854],[-0.7639539,51.044038],[-0.7736226,51.0534526],[-0.7768185,51.0650308],[-0.7873497,51.0669327],[-0.796954,51.0638944]]],"type":"Polygon"},"id":"E02006563","properties":{"code":"E02006563","geography":"MSOA","name":"Chichester 003"},"type":"Feature"},{"geometry":{"coordinates":[[[-0.7146784,51.0211919],[-0.7302692,51.0268499],[-0.7529923,51.0238681],[-0.7536102,51.0042104],[-0.7495656,50.9987922],[-0.7569612,50.9942363],[-0.7524876,50.9920772],[-0.7626224,50.9793946],[-0.7524492,50.9795391],[-0.7568177,50.9726685],[-0.76672,50.9678671],[-0.7721102,50.9496578],[-0.7834336,50.9476998],[-0.7843931,50.9396173],[-0.7847869,50.9359236],[-0.7599607,50.9316861],[-0.7496559,50.9348504],[-0.7358215,50.9346358],[-0.7286095,50.9409406],[-0.7062035,50.9395426],[-0.7010737,50.9521574],[-0.7052366,50.9638492],[-0.6968833,50.9762051],[-0.710118,50.9688924],[-0.7187194,50.9736604],[-0.7248969,50.9683659],[-0.7253811,50.9788891],[-0.7169824,50.9848303],[-0.7214571,50.9879486],[-0.7336147,50.9851754],[-0.7335573,50.9895881],[-0.7277074,50.9927223],[-0.7307374,50.9952038],[-0.7184998,51.0045851],[-0.7256738,51.0075322],[-0.7301164,51.0061327],[-0.7278345,51.0186887],[-0.7169422,51.0171308],[-0.7146784,51.0211919]]],"type":"Polygon"},"id":"E02006564","properties":{"code":"E02006564","geography":"MSOA","name":"Chichester 004"},"type":"Feature"},{"geometry":{"coordinates":[[[-0.528838,50.9791062],[-0.5517854,50.9864434],[-0.5384945,50.9962734],[-0.5542621,50.9938599],[-0.5637589,50.997387],[-0.5652781,51.0037232],[-0.5704651,51.0019028],[-0.5732117,51.0122987],[-0.5670464,51.0150696],[-0.5663325,51.0198729],[-0.5748708,51.0235636],[-0.5741808,51.0297836],[-0.5864645,51.0377457],[-0.587408,51.0547345],[-0.6100163,51.0535019],[-0.6136759,51.0506857],[-0.6086854,51.0456759],[-0.6137516,51.0461327],[-0.6169853,51.0426072],[-0.6252712,51.0441169],[-0.6318735,51.0367852],[-0.6466448,51.0359797],[-0.6336388,51.0228905],[-0.635363,51.0182101],[-0.673674,51.0186378],[-0.6854563,51.0378435],[-0.6948619,51.035752],[-0.6919918,51.0281103],[-0.7044201,51.0257893],[-0.7034297,51.0199524],[-0.7146784,51.0211919],[-0.7169422,51.0171308],[-0.7278345,51.0186887],[-0.7301164,51.0061327],[-0.7256738,51.0075322],[-0.7184998,51.0045851],[-0.7307374,50.9952038],[-0.7277074,50.9927223],[-0.7335573,50.9895881],[-0.7336147,50.9851754],[-0.7214571,50.9879486],[-0.7169824,50.9848303],[-0.7253811,50.9788891],[-0.7248969,50.9683659],[-0.7187194,50.9736604],[-0.710118,50.9688924],[-0.6968833,50.9762051],[-0.7052366,50.9638492],[-0.7010737,50.9521574],[-0.7062035,50.9395426],[-0.6920871,50.9380644],[-0.68457,50.9315869],[-0.6721989,50.9312509],[-0.6647685,50.9255123],[-0.6595324,50.9275413],[-0.6515081,50.9177637],[-0.6485982,50.9053963],[-0.6492231,50.9000195],[-0.6336745,50.9048512],[-0.6174071,50.9055698],[-0.6049823,50.9014767],[-0.5937195,50.9028111],[-0.5795958,50.8992615],[-0.5531259,50.9015246],[-0.5559188,50.9051663],[-0.5515218,50.9132576],[-0.5364233,50.9133814],[-0.5369916,50.9167609],[-0.5560886,50.9234843],[-0.5576432,50.9290737],[-0.5683887,50.9342555],[-0.5687883,50.9424206],[-0.5595481,50.9514761],[-0.5469158,50.9544932],[-0.5443489,50.9481465],[-0.5379427,50.948205],[-0.5323319,50.9532726],[-0.5352136,50.9572554],[-0.5268224,50.9639314],[-0.5307485,50.9670888],[-0.5266784,50.9740276],[-0.528838,50.9791062]]],"type":"Polygon"},"id":"E02006565","properties":{"code":"E02006565","geography":"MSOA","name":"Chichester 005"},"type":"Feature"},{"geometry":{"coordinates":[[[-0.7843931,50.9396173],[-0.798062,50.9410168],[-0.8045392,50.9376445],[-0.8057663,50.9416399],[-0.8105858,50.9420371],[-0.8110919,50.9475727],[-0.8149169,50.9470209],[-0.8149247,50.9506855],[-0.8201048,50.9525013],[-0.8272627,50.9460708],[-0.8301619,50.9326989],[-0.8351809,50.9300279],[-0.8317015,50.9231632],[-0.823173,50.9186054],[-0.8299408,50.9133749],[-0.822452,50.9065874],[-0.8271261,50.8947991],[-0.8233994,50.8908309],[-0.8322419,50.8934213],[-0.833428,50.8871626],[-0.8146839,50.880124],[-0.8089205,50.8636966],[-0.8131969,50.8613813],[-0.8063851,50.8535313],[-0.7939872,50.8522527],[-0.7890838,50.8473527],[-0.7868667,50.8456236],[-0.7794654,50.8478462],[-0.7807343,50.8539514],[-0.7770622,50.8548288],[-0.7738326,50.8509358],[-0.7752326,50.8541168],[-0.7712413,50.854966],[-0.7566166,50.8469883],[-0.7549595,50.84285],[-0.7411229,50.845958],[-0.7281956,50.8536264],[-0.686134,50.8547172],[-0.6811455,50.8632941],[-0.6505572,50.8667997],[-0.654034,50.8793517],[-0.6498141,50.8857887],[-0.6582239,50.8875458],[-0.6577877,50.9024159],[-0.6549659,50.9056865],[-0.6485982,50.9053963],[-0.6515081,50.9177637],[-0.6595324,50.9275413],[-0.6647685,50.9255123],[-0.6721989,50.9312509],[-0.68457,50.9315869],[-0.6920871,50.9380644],[-0.7062035,50.9395426],[-0.7286095,50.9409406],[-0.7358215,50.9346358],[-0.7496559,50.9348504],[-0.7599607,50.9316861],[-0.7847869,50.9359236],[-0.7843931,50.9396173]]],"type":"Polygon"},"id":"E02006566","properties":{"code":"E02006566","geography":"MSOA","name":"Chichester 006"},"type":"Feature"},{"geometry":{"coordinates":[[[-0.8351809,50.9300279],[-0.8489788,50.9311556],[-0.8448183,50.9415453],[-0.8498815,50.9434352],[-0.8466987,50.9479208],[-0.8524286,50.9531714],[-0.8554203,50.9479482],[-0.8652918,50.9471595],[-0.8682637,50.9430069],[-0.8863807,50.9413321],[-0.890609,50.9375306],[-0.9065204,50.939892],[-0.9312021,50.9352904],[-0.9240308,50.9242066],[-0.9394171,50.9188107],[-0.9496604,50.9040635],[-0.9575977,50.8906386],[-0.9386237,50.8737304],[-0.9264657,50.8641012],[-0.9327889,50.853217],[-0.9202481,50.8563177],[-0.9192328,50.8514913],[-0.9129201,50.8496115],[-0.917816,50.8493677],[-0.9144149,50.8453419],[-0.9084936,50.8483489],[-0.9073435,50.8453441],[-0.9074738,50.8488351],[-0.895566,50.8499199],[-0.8961098,50.8583044],[-0.8842227,50.858214],[-0.8680224,50.8525815],[-0.8649706,50.8443351],[-0.8487361,50.8428354],[-0.8369114,50.8499743],[-0.811058,50.8444593],[-0.8063851,50.8535313],[-0.8131969,50.8613813],[-0.8089205,50.8636966],[-0.8146839,50.880124],[-0.833428,50.8871626],[-0.8322419,50.8934213],[-0.8233994,50.8908309],[-0.8271261,50.8947991],[-0.822452,50.9065874],[-0.8299408,50.9133749],[-0.823173,50.9186054],[-0.8317015,50.9231632],[-0.8351809,50.9300279]]],"type":"Polygon"},"id":"E02006567","properties":{"code":"E02006567","geography":"MSOA","name":"Chichester 007"},"type":"Feature"},{"geometry":{"coordinates":[[[-0.7549595,50.84285],[-0.7566166,50.8469883],[-0.7712413,50.854966],[-0.7752326,50.8541168],[-0.7738326,50.8509358],[-0.7770622,50.8548288],[-0.7807343,50.8539514],[-0.7794654,50.8478462],[-0.7868667,50.8456236],[-0.7890838,50.8473527],[-0.7991491,50.8385235],[-0.7859476,50.8426165],[-0.7869665,50.836796],[-0.7785051,50.8402931],[-0.779083,50.8364843],[-0.7744137,50.8360954],[-0.7750313,50.8407665],[-0.7684974,50.8425444],[-0.7591598,50.8352159],[-0.7548073,50.8374418],[-0.7549595,50.84285]]],"type":"Polygon"},"id":"E02006568","properties":{"code":"E02006568","geography":"MSOA","name":"Chichester 008"},"type":"Feature"},{"geometry":{"coordinates":[[[[-0.8166413,50.8196849],[-0.8168798,50.8194247],[-0.8168465,50.8193539],[-0.8166413,50.8196849]]],[[[-0.8680224,50.8525815],[-0.8842227,50.858214],[-0.8961098,50.8583044],[-0.895566,50.8499199],[-0.9074738,50.8488351],[-0.9073435,50.8453441],[-0.9084936,50.8483489],[-0.9144149,50.8453419],[-0.917816,50.8493677],[-0.9129201,50.8496115],[-0.9192328,50.8514913],[-0.9202481,50.8563177],[-0.9327889,50.853217],[-0.932135,50.8454238],[-0.9300676,50.8417566],[-0.9329782,50.842919],[-0.9380897,50.8316041],[-0.9424056,50.8243537],[-0.9386239,50.8178158],[-0.9425921,50.8154076],[-0.9316771,50.8136787],[-0.9110425,50.8001291],[-0.9080197,50.7986143],[-0.906908,50.8010157],[-0.9083203,50.8226838],[-0.9124155,50.827722],[-0.9173183,50.8366282],[-0.9132203,50.8400884],[-0.9087299,50.8377559],[-0.8950496,50.8385859],[-0.892558,50.8347506],[-0.8970508,50.8288817],[-0.8923289,50.8185232],[-0.8768948,50.8114916],[-0.8714038,50.8240071],[-0.8657795,50.8269678],[-0.8740849,50.8325465],[-0.8689603,50.8342973],[-0.8709114,50.8404835],[-0.8652231,50.8388684],[-0.8619165,50.8379294],[-0.8580806,50.839498],[-0.8612629,50.8280749],[-0.8511719,50.8278376],[-0.8631497,50.8235843],[-0.8656564,50.8209666],[-0.8699558,50.8164759],[-0.8658562,50.8127143],[-0.8647733,50.8117205],[-0.8487961,50.8107564],[-0.8558699,50.8103054],[-0.8569874,50.8075573],[-0.8445925,50.8048641],[-0.8197633,50.8168792],[-0.817611,50.8285272],[-0.8177166,50.8286257],[-0.8309966,50.8286885],[-0.8336465,50.8333553],[-0.8411574,50.8332358],[-0.8355938,50.8270653],[-0.8400781,50.8234384],[-0.8480803,50.8256178],[-0.8511967,50.8306951],[-0.8467019,50.8337757],[-0.8487361,50.8428354],[-0.8649706,50.8443351],[-0.8680224,50.8525815]]]],"type":"MultiPolygon"},"id":"E02006569","properties":{"code":"E02006569","geography":"MSOA","name":"Chichester 009"},"type":"Feature"},{"geometry":{"coordinates":[[[-0.7548073,50.8374418],[-0.7591598,50.8352159],[-0.7684974,50.8425444],[-0.7750313,50.8407665],[-0.7744137,50.8360954],[-0.779083,50.8364843],[-0.7785051,50.8402931],[-0.7869665,50.836796],[-0.7995234,50.8332136],[-0.7814343,50.8267544],[-0.7843148,50.8311252],[-0.7670271,50.8302935],[-0.7686565,50.8337655],[-0.7548846,50.8301405],[-0.7548073,50.8374418]]],"type":"Polygon"},"id":"E02006570","properties":{"code":"E02006570","geography":"MSOA","name":"Chichester 010"},"type":"Feature"},{"geometry":{"coordinates":[[[-0.7890838,50.8473527],[-0.7939872,50.8522527],[-0.8063851,50.8535313],[-0.811058,50.8444593],[-0.8369114,50.8499743],[-0.8487361,50.8428354],[-0.8467019,50.8337757],[-0.8511967,50.8306951],[-0.8480803,50.8256178],[-0.8400781,50.8234384],[-0.8355938,50.8270653],[-0.8411574,50.8332358],[-0.8336465,50.8333553],[-0.8309966,50.8286885],[-0.8177166,50.8286257],[-0.817611,50.8285272],[-0.8176045,50.8285625],[-0.8120313,50.8339358],[-0.8129455,50.830535],[-0.810765,50.8333033],[-0.811497,50.8304825],[-0.8078075,50.8305519],[-0.8097427,50.8272092],[-0.8166413,50.8196849],[-0.8168465,50.8193539],[-0.8145131,50.8143827],[-0.8248175,50.8100705],[-0.825138,50.805699],[-0.8251407,50.8056616],[-0.8196713,50.8037505],[-0.8040523,50.8049088],[-0.8042159,50.8010022],[-0.8096452,50.8007754],[-0.8147432,50.7926716],[-0.8050731,50.7924182],[-0.7941857,50.796917],[-0.7873463,50.802025],[-0.7913444,50.8030468],[-0.7849667,50.8105554],[-0.7741556,50.8132993],[-0.7814343,50.8267544],[-0.7995234,50.8332136],[-0.7869665,50.836796],[-0.7859476,50.8426165],[-0.7991491,50.8385235],[-0.7890838,50.8473527]]],"type":"Polygon"},"id":"E02006571","properties":{"code":"E02006571","geography":"MSOA","name":"Chichester 011"},"type":"Feature"},{"geometry":{"coordinates":[[[-0.6941903,50.8448137],[-0.686134,50.8547172],[-0.7281956,50.8536264],[-0.7411229,50.845958],[-0.7549595,50.84285],[-0.7548073,50.8374418],[-0.7548846,50.8301405],[-0.7686565,50.8337655],[-0.7670271,50.8302935],[-0.7843148,50.8311252],[-0.7814343,50.8267544],[-0.7741556,50.8132993],[-0.7849667,50.8105554],[-0.7913444,50.8030468],[-0.7873463,50.802025],[-0.7941857,50.796917],[-0.7857363,50.7921907],[-0.7718577,50.7940338],[-0.7715751,50.7899795],[-0.7652987,50.7896524],[-0.7722634,50.7841135],[-0.7659745,50.7801999],[-0.7707355,50.7728129],[-0.7655798,50.7723211],[-0.7631108,50.7729302],[-0.7622978,50.7728246],[-0.7636519,50.7776896],[-0.7590114,50.776875],[-0.7560612,50.7837744],[-0.7496007,50.7819779],[-0.755111,50.7906961],[-0.7347251,50.7937333],[-0.7393951,50.7971373],[-0.7339915,50.8022434],[-0.7347605,50.8094525],[-0.7194387,50.8052492],[-0.71332,50.8083106],[-0.7009454,50.8133606],[-0.689917,50.8128246],[-0.6866283,50.8211277],[-0.6941903,50.8448137]]],"type":"Polygon"},"id":"E02006572","properties":{"code":"E02006572","geography":"MSOA","name":"Chichester 012"},"type":"Feature"},{"geometry":{"coordinates":[[[-0.8251407,50.8056616],[-0.8251993,50.8048629],[-0.8350015,50.8047562],[-0.8447452,50.7993035],[-0.8603475,50.8028563],[-0.8660084,50.8064276],[-0.8687248,50.8081411],[-0.8778139,50.8077226],[-0.8907726,50.7998419],[-0.8929106,50.79431],[-0.8944919,50.7902179],[-0.9012863,50.7899134],[-0.905292,50.782049],[-0.9156399,50.7804532],[-0.9084299,50.7865488],[-0.9125022,50.7888989],[-0.9168413,50.7803924],[-0.9020572,50.7728053],[-0.8758315,50.7657686],[-0.8687047,50.7631329],[-0.8670701,50.762527],[-0.8428772,50.7535702],[-0.8352847,50.7492913],[-0.8341665,50.7488278],[-0.8304505,50.7465662],[-0.8215557,50.7415508],[-0.8190425,50.740249],[-0.8194316,50.7405756],[-0.8071981,50.7400046],[-0.8052575,50.7449803],[-0.7962916,50.7481086],[-0.7939359,50.7590632],[-0.7847641,50.7609161],[-0.7771917,50.7670281],[-0.7816534,50.7684822],[-0.7623503,50.7682637],[-0.7630168,50.7708046],[-0.763344,50.7720511],[-0.7668204,50.77188],[-0.7675046,50.7718462],[-0.7670756,50.7719521],[-0.7655798,50.7723211],[-0.7707355,50.7728129],[-0.7659745,50.7801999],[-0.7722634,50.7841135],[-0.7652987,50.7896524],[-0.7715751,50.7899795],[-0.7718577,50.7940338],[-0.7857363,50.7921907],[-0.7941857,50.796917],[-0.8050731,50.7924182],[-0.8147432,50.7926716],[-0.8096452,50.8007754],[-0.8042159,50.8010022],[-0.8040523,50.8049088],[-0.8196713,50.8037505],[-0.8251407,50.8056616]]],"type":"Polygon"},"id":"E02006573","properties":{"code":"E02006573","geography":"MSOA","name":"Chichester 013"},"type":"Feature"},{"geometry":{"coordinates":[[[[-0.7525454,50.7606335],[-0.7542645,50.7600911],[-0.753758,50.7594775],[-0.7525454,50.7606335]]],[[[-0.7728186,50.761652],[-0.7868737,50.7599123],[-0.785715,50.7601485],[-0.7847641,50.7609161],[-0.7939359,50.7590632],[-0.7962916,50.7481086],[-0.8052575,50.7449803],[-0.8071981,50.7400046],[-0.8194316,50.7405756],[-0.8190425,50.740249],[-0.8188625,50.7401557],[-0.8179037,50.7395264],[-0.8045578,50.7307651],[-0.7898773,50.722749],[-0.7887981,50.722596],[-0.7797855,50.7278046],[-0.7593957,50.74818],[-0.75911,50.7500904],[-0.7576555,50.7499189],[-0.7563746,50.751199],[-0.7570752,50.7519708],[-0.753613,50.7539582],[-0.7505633,50.7570048],[-0.7509434,50.7572031],[-0.7615055,50.7539073],[-0.7618206,50.7511506],[-0.7728186,50.761652]]],[[[-0.75045,50.7626185],[-0.7517793,50.7632527],[-0.7517109,50.763194],[-0.7507306,50.7623527],[-0.75045,50.7626185]]]],"type":"MultiPolygon"},"id":"E02006574","properties":{"code":"E02006574","geography":"MSOA","name":"Chichester 014"},"type":"Feature"}],"type":"FeatureCollection"}
