{"features":[{"geometry":{"coordinates":[[[-0.534619,51.437412],[-0.5504634,51.4434727],[-0.5555853,51.4414857],[-0.5582785,51.4387214],[-0.5528631,51.4332201],[-0.5580832,51.4298869],[-0.5594142,51.4165533],[-0.5598764,51.4142984],[-0.5543511,51.419609],[-0.5473886,51.4263288],[-0.5406611,51.4252849],[-0.534619,51.437412]]],"type":"Polygon"},"id":"E02006393","properties":{"code":"E02006393","geography":"MSOA","name":"Runnymede 001"},"type":"Feature"},{"geometry":{"coordinates":[[[-0.5555853,51.4414857],[-0.5716931,51.4510071],[-0.5796932,51.4447468],[-0.5942371,51.4414673],[-0.6051419,51.4313114],[-0.604979,51.4212751],[-0.5912066,51.4194802],[-0.5908698,51.416416],[-0.5779706,51.418805],[-0.5670655,51.4156226],[-0.5626391,51.4189723],[-0.5594142,51.4165533],[-0.5580832,51.4298869],[-0.5528631,51.4332201],[-0.5582785,51.4387214],[-0.5555853,51.4414857]]],"type":"Polygon"},"id":"E02006394","properties":{"code":"E02006394","geography":"MSOA","name":"Runnymede 002"},"type":"Feature"},{"geometry":{"coordinates":[[[-0.5227841,51.4353005],[-0.534619,51.437412],[-0.5406611,51.4252849],[-0.5473886,51.4263288],[-0.5543511,51.419609],[-0.5477097,51.4146305],[-0.5403035,51.4139215],[-0.5331706,51.4203019],[-0.5205621,51.4144739],[-0.5217482,51.4214162],[-0.5102257,51.4293586],[-0.5112204,51.4306757],[-0.5227841,51.4353005]]],"type":"Polygon"},"id":"E02006395","properties":{"code":"E02006395","geography":"MSOA","name":"Runnymede 003"},"type":"Feature"},{"geometry":{"coordinates":[[[-0.4948816,51.4130474],[-0.4997916,51.4140794],[-0.5032631,51.410803],[-0.5027003,51.4158867],[-0.5126151,51.4173771],[-0.5102257,51.4293586],[-0.5217482,51.4214162],[-0.5205621,51.4144739],[-0.5331706,51.4203019],[-0.5403035,51.4139215],[-0.5477097,51.4146305],[-0.5483764,51.3986189],[-0.5374662,51.4006908],[-0.5207421,51.3855262],[-0.5134116,51.3902783],[-0.5146937,51.3930977],[-0.5095673,51.3915406],[-0.5105594,51.3971332],[-0.5072787,51.3979051],[-0.4969913,51.3954036],[-0.5004726,51.3919499],[-0.4853473,51.3872526],[-0.486504,51.3940815],[-0.4948816,51.4130474]]],"type":"Polygon"},"id":"E02006396","properties":{"code":"E02006396","geography":"MSOA","name":"Runnymede 004"},"type":"Feature"},{"geometry":{"coordinates":[[[-0.5594142,51.4165533],[-0.5626391,51.4189723],[-0.5670655,51.4156226],[-0.5779706,51.418805],[-0.5908698,51.416416],[-0.5912066,51.4194802],[-0.604979,51.4212751],[-0.6085194,51.4120103],[-0.6183867,51.3990254],[-0.6145385,51.3973937],[-0.6185144,51.392388],[-0.5980195,51.3863009],[-0.5950753,51.3783703],[-0.5483764,51.3986189],[-0.5477097,51.4146305],[-0.5543511,51.419609],[-0.5598764,51.4142984],[-0.5594142,51.4165533]]],"type":"Polygon"},"id":"E02006397","properties":{"code":"E02006397","geography":"MSOA","name":"Runnymede 005"},"type":"Feature"},{"geometry":{"coordinates":[[[-0.4853473,51.3872526],[-0.5004726,51.3919499],[-0.4969913,51.3954036],[-0.5072787,51.3979051],[-0.5105594,51.3971332],[-0.5095673,51.3915406],[-0.5146937,51.3930977],[-0.5134116,51.3902783],[-0.5207421,51.3855262],[-0.5178969,51.3838965],[-0.508387,51.3863589],[-0.5029278,51.3816035],[-0.4991321,51.3839451],[-0.488546,51.3841987],[-0.479269,51.380747],[-0.4712384,51.3811164],[-0.4729408,51.384366],[-0.4710435,51.3825588],[-0.4701561,51.3858835],[-0.4767811,51.3902196],[-0.4853473,51.3872526]]],"type":"Polygon"},"id":"E02006398","properties":{"code":"E02006398","geography":"MSOA","name":"Runnymede 006"},"type":"Feature"},{"geometry":{"coordinates":[[[-0.4710435,51.3825588],[-0.4729408,51.384366],[-0.4712384,51.3811164],[-0.479269,51.380747],[-0.488546,51.3841987],[-0.4991321,51.3839451],[-0.5029278,51.3816035],[-0.508387,51.3863589],[-0.5178969,51.3838965],[-0.5250671,51.3745748],[-0.5183723,51.365784],[-0.5063163,51.3634281],[-0.5050215,51.3680108],[-0.4796221,51.3751444],[-0.4809821,51.3722482],[-0.4774226,51.3717761],[-0.4827789,51.36891],[-0.4792034,51.369855],[-0.4761273,51.3669405],[-0.4741409,51.363969],[-0.4675764,51.3656871],[-0.4676432,51.3746211],[-0.4580108,51.3805678],[-0.4628157,51.3784362],[-0.4616674,51.3820833],[-0.4710435,51.3825588]]],"type":"Polygon"},"id":"E02006399","properties":{"code":"E02006399","geography":"MSOA","name":"Runnymede 007"},"type":"Feature"},{"geometry":{"coordinates":[[[-0.5207421,51.3855262],[-0.5374662,51.4006908],[-0.5483764,51.3986189],[-0.5950753,51.3783703],[-0.5739744,51.3708225],[-0.5696527,51.3603457],[-0.5552543,51.3619358],[-0.5485691,51.3480216],[-0.5340581,51.3474561],[-0.5231989,51.348057],[-0.5177681,51.3537497],[-0.5216198,51.3541619],[-0.5176909,51.3548082],[-0.5183723,51.365784],[-0.5250671,51.3745748],[-0.5178969,51.3838965],[-0.5207421,51.3855262]]],"type":"Polygon"},"id":"E02006400","properties":{"code":"E02006400","geography":"MSOA","name":"Runnymede 008"},"type":"Feature"},{"geometry":{"coordinates":[[[-0.4761273,51.3669405],[-0.4792034,51.369855],[-0.4827789,51.36891],[-0.4774226,51.3717761],[-0.4809821,51.3722482],[-0.4796221,51.3751444],[-0.5050215,51.3680108],[-0.5063163,51.3634281],[-0.5183723,51.365784],[-0.5176909,51.3548082],[-0.5216198,51.3541619],[-0.5177681,51.3537497],[-0.4978869,51.3540321],[-0.4918359,51.3628081],[-0.4761273,51.3669405]]],"type":"Polygon"},"id":"E02006401","properties":{"code":"E02006401","geography":"MSOA","name":"Runnymede 009"},"type":"Feature"},{"geometry":{"coordinates":[[[-0.4741409,51.363969],[-0.4761273,51.3669405],[-0.4918359,51.3628081],[-0.4978869,51.3540321],[-0.5177681,51.3537497],[-0.5231989,51.348057],[-0.5340581,51.3474561],[-0.5207945,51.3448677],[-0.5161004,51.3393158],[-0.4864312,51.3473638],[-0.4811757,51.3493597],[-0.46703,51.3565878],[-0.4761061,51.3595487],[-0.4741409,51.363969]]],"type":"Polygon"},"id":"E02006402","properties":{"code":"E02006402","geography":"MSOA","name":"Runnymede 010"},"type":"Feature"}],"type":"FeatureCollection"}
