{"features":[{"geometry":{"coordinates":[[[0.2112257,51.4059152],[0.1997257,51.4179758],[0.1794304,51.4156251],[0.1650926,51.4110084],[0.1657244,51.4085965],[0.1797938,51.3976463],[0.1867071,51.3986061],[0.1789465,51.3962882],[0.1806822,51.394208],[0.1856235,51.3960511],[0.1865049,51.3918948],[0.1895077,51.3943617],[0.1872498,51.3915392],[0.1943683,51.3894812],[0.2031701,51.3980604],[0.206923,51.3972197],[0.2068309,51.4024143],[0.2127094,51.4027493],[0.2112257,51.4059152]]],"type":"Polygon"},"id":"E02005087","properties":{"code":"E02005087","geography":"MSOA","name":"Sevenoaks 001"},"type":"Feature"},{"geometry":{"coordinates":[[[0.1789465,51.3962882],[0.1867071,51.3986061],[0.1797938,51.3976463],[0.1657244,51.4085965],[0.1634611,51.4068038],[0.1529062,51.408709],[0.1488028,51.4085099],[0.1613518,51.3923764],[0.1789465,51.3962882]]],"type":"Polygon"},"id":"E02005088","properties":{"code":"E02005088","geography":"MSOA","name":"Sevenoaks 002"},"type":"Feature"},{"geometry":{"coordinates":[[[0.1943683,51.3894812],[0.1872498,51.3915392],[0.1895077,51.3943617],[0.1865049,51.3918948],[0.1856235,51.3960511],[0.1806822,51.394208],[0.1789465,51.3962882],[0.1613518,51.3923764],[0.1475077,51.3921564],[0.1532097,51.3780359],[0.151597,51.3683882],[0.1473097,51.3669941],[0.1413154,51.3496432],[0.1460862,51.3444166],[0.1569688,51.3434002],[0.157652,51.3462527],[0.1734461,51.3461328],[0.178322,51.3533746],[0.1670401,51.3547198],[0.1676385,51.362599],[0.1575715,51.3614459],[0.1847784,51.3779464],[0.1943683,51.3894812]]],"type":"Polygon"},"id":"E02005089","properties":{"code":"E02005089","geography":"MSOA","name":"Sevenoaks 003"},"type":"Feature"},{"geometry":{"coordinates":[[[0.3366502,51.3865446],[0.2966943,51.3970599],[0.2966385,51.3940444],[0.3002066,51.3942654],[0.2961824,51.3849364],[0.2998774,51.3796781],[0.2939578,51.3757753],[0.3010353,51.3713716],[0.312732,51.3721732],[0.3130494,51.364895],[0.3187732,51.3650696],[0.3110251,51.3508856],[0.3102474,51.3461337],[0.3140611,51.3446204],[0.308136,51.3427361],[0.3416178,51.3292815],[0.3446981,51.3375337],[0.3407777,51.3397394],[0.3417793,51.3521801],[0.3355414,51.3606359],[0.3366632,51.3697629],[0.332649,51.3682934],[0.3314179,51.3712796],[0.3366502,51.3865446]]],"type":"Polygon"},"id":"E02005090","properties":{"code":"E02005090","geography":"MSOA","name":"Sevenoaks 004"},"type":"Feature"},{"geometry":{"coordinates":[[[0.2797562,51.4028597],[0.2748668,51.4074573],[0.2469997,51.407706],[0.2382972,51.3963106],[0.206923,51.3972197],[0.2031701,51.3980604],[0.1943683,51.3894812],[0.1847784,51.3779464],[0.1575715,51.3614459],[0.1676385,51.362599],[0.1670401,51.3547198],[0.178322,51.3533746],[0.1967251,51.3516747],[0.2017615,51.3453625],[0.2303381,51.3348872],[0.2275987,51.3468067],[0.2314458,51.354128],[0.2446726,51.3518205],[0.2522899,51.357701],[0.2465826,51.3664595],[0.2539226,51.3680899],[0.2561426,51.3719922],[0.2615731,51.3699166],[0.2730928,51.3847532],[0.2932404,51.3979767],[0.27746,51.4015852],[0.2797562,51.4028597]]],"type":"Polygon"},"id":"E02005091","properties":{"code":"E02005091","geography":"MSOA","name":"Sevenoaks 005"},"type":"Feature"},{"geometry":{"coordinates":[[[0.2966943,51.3970599],[0.2932404,51.3979767],[0.2730928,51.3847532],[0.2615731,51.3699166],[0.2561426,51.3719922],[0.2539226,51.3680899],[0.2465826,51.3664595],[0.2522899,51.357701],[0.2446726,51.3518205],[0.2314458,51.354128],[0.2275987,51.3468067],[0.2303381,51.3348872],[0.2405791,51.3293879],[0.2325498,51.3253198],[0.2353026,51.3212508],[0.2409841,51.3172694],[0.2678015,51.3154393],[0.2771119,51.3188172],[0.2849811,51.3273664],[0.2883993,51.3371873],[0.2814388,51.3363732],[0.2745691,51.3397177],[0.2844124,51.3509921],[0.2831338,51.3698835],[0.2939578,51.3757753],[0.2998774,51.3796781],[0.2961824,51.3849364],[0.3002066,51.3942654],[0.2966385,51.3940444],[0.2966943,51.3970599]]],"type":"Polygon"},"id":"E02005093","properties":{"code":"E02005093","geography":"MSOA","name":"Sevenoaks 007"},"type":"Feature"},{"geometry":{"coordinates":[[[0.2303381,51.3348872],[0.2017615,51.3453625],[0.1967251,51.3516747],[0.178322,51.3533746],[0.1734461,51.3461328],[0.157652,51.3462527],[0.1569688,51.3434002],[0.1460862,51.3444166],[0.1413154,51.3496432],[0.1369307,51.3441743],[0.1184291,51.3441471],[0.1216559,51.3336357],[0.1178756,51.3296627],[0.1048668,51.3274424],[0.0937899,51.3202463],[0.0850013,51.3160229],[0.0828537,51.3056556],[0.0911579,51.2968293],[0.114995,51.3090063],[0.1315297,51.3114813],[0.1331448,51.3156748],[0.1462769,51.312668],[0.1653409,51.290885],[0.1619703,51.2890789],[0.1681607,51.2879466],[0.1631786,51.2839969],[0.171435,51.2822697],[0.170288,51.2893402],[0.1759909,51.2900519],[0.1860584,51.2989471],[0.1707569,51.3037457],[0.1678661,51.3084124],[0.1778483,51.3150654],[0.1858719,51.310454],[0.1912992,51.3128995],[0.1942572,51.3158279],[0.1882445,51.3236285],[0.2072687,51.3214182],[0.2129927,51.3165653],[0.2353026,51.3212508],[0.2325498,51.3253198],[0.2405791,51.3293879],[0.2303381,51.3348872]]],"type":"Polygon"},"id":"E02005094","properties":{"code":"E02005094","geography":"MSOA","name":"Sevenoaks 008"},"type":"Feature"},{"geometry":{"coordinates":[[[0.2353026,51.3212508],[0.2129927,51.3165653],[0.2072687,51.3214182],[0.1882445,51.3236285],[0.1942572,51.3158279],[0.1912992,51.3128995],[0.1858719,51.310454],[0.1778483,51.3150654],[0.1678661,51.3084124],[0.1707569,51.3037457],[0.1860584,51.2989471],[0.1940828,51.296087],[0.2004692,51.3001252],[0.2243268,51.298328],[0.2595154,51.29573],[0.2646385,51.2970615],[0.2630015,51.3067699],[0.2678015,51.3154393],[0.2409841,51.3172694],[0.2353026,51.3212508]]],"type":"Polygon"},"id":"E02005095","properties":{"code":"E02005095","geography":"MSOA","name":"Sevenoaks 009"},"type":"Feature"},{"geometry":{"coordinates":[[[0.2243268,51.298328],[0.2004692,51.3001252],[0.1940828,51.296087],[0.1860584,51.2989471],[0.1759909,51.2900519],[0.191521,51.28864],[0.1852812,51.2856307],[0.1856805,51.2825677],[0.19436,51.2817077],[0.193007,51.274321],[0.2093096,51.2753778],[0.2067829,51.2875032],[0.2097755,51.289474],[0.2246237,51.287629],[0.2275147,51.2913324],[0.2226657,51.2938986],[0.2243268,51.298328]]],"type":"Polygon"},"id":"E02005096","properties":{"code":"E02005096","geography":"MSOA","name":"Sevenoaks 010"},"type":"Feature"},{"geometry":{"coordinates":[[[0.1759909,51.2900519],[0.170288,51.2893402],[0.171435,51.2822697],[0.1631786,51.2839969],[0.1681607,51.2879466],[0.1619703,51.2890789],[0.1653409,51.290885],[0.1462769,51.312668],[0.1331448,51.3156748],[0.1315297,51.3114813],[0.114995,51.3090063],[0.1434563,51.2795963],[0.1442112,51.2564164],[0.1514909,51.2450369],[0.1526146,51.2240431],[0.1738118,51.2263207],[0.1636248,51.2411698],[0.1635068,51.2506578],[0.1851408,51.2500092],[0.1785846,51.2529862],[0.1847679,51.261975],[0.1913457,51.2580208],[0.1937377,51.2632292],[0.1879535,51.2635047],[0.1899381,51.2659395],[0.1806442,51.2787089],[0.1852812,51.2856307],[0.191521,51.28864],[0.1759909,51.2900519]]],"type":"Polygon"},"id":"E02005097","properties":{"code":"E02005097","geography":"MSOA","name":"Sevenoaks 011"},"type":"Feature"},{"geometry":{"coordinates":[[[0.2595154,51.29573],[0.2243268,51.298328],[0.2226657,51.2938986],[0.2275147,51.2913324],[0.2246237,51.287629],[0.2097755,51.289474],[0.2067829,51.2875032],[0.2093096,51.2753778],[0.193007,51.274321],[0.19436,51.2817077],[0.1856805,51.2825677],[0.1852812,51.2856307],[0.1806442,51.2787089],[0.1899381,51.2659395],[0.1879535,51.2635047],[0.1937377,51.2632292],[0.1913457,51.2580208],[0.1847679,51.261975],[0.1785846,51.2529862],[0.1851408,51.2500092],[0.1635068,51.2506578],[0.1636248,51.2411698],[0.1738118,51.2263207],[0.1742914,51.2201872],[0.1878948,51.218076],[0.1991339,51.2279811],[0.1974416,51.2339673],[0.200522,51.2337345],[0.2230561,51.2449079],[0.2309351,51.2322321],[0.2480467,51.2385632],[0.2473052,51.2552961],[0.2612589,51.2544518],[0.2646353,51.257303],[0.2648475,51.2677795],[0.2551438,51.2764127],[0.2613297,51.289143],[0.2595154,51.29573]]],"type":"Polygon"},"id":"E02005098","properties":{"code":"E02005098","geography":"MSOA","name":"Sevenoaks 012"},"type":"Feature"},{"geometry":{"coordinates":[[[0.1526146,51.2240431],[0.1514909,51.2450369],[0.1442112,51.2564164],[0.1434563,51.2795963],[0.114995,51.3090063],[0.0911579,51.2968293],[0.0814987,51.2918251],[0.0586292,51.2893646],[0.0508053,51.2939774],[0.0423704,51.2926788],[0.0481441,51.2856541],[0.0453693,51.2766618],[0.051777,51.2626887],[0.0575814,51.2449165],[0.0528333,51.2365291],[0.043783,51.2308899],[0.0428086,51.2246122],[0.071427,51.2195599],[0.0845857,51.2226108],[0.0895669,51.22095],[0.0879195,51.2270318],[0.105433,51.222368],[0.119063,51.2239392],[0.1269249,51.2294156],[0.1354532,51.2226745],[0.1526146,51.2240431]]],"type":"Polygon"},"id":"E02005099","properties":{"code":"E02005099","geography":"MSOA","name":"Sevenoaks 013"},"type":"Feature"},{"geometry":{"coordinates":[[[0.0895669,51.22095],[0.0845857,51.2226108],[0.071427,51.2195599],[0.0428086,51.2246122],[0.0411223,51.2166265],[0.0335655,51.2143392],[0.039567,51.1978972],[0.0477684,51.1917755],[0.0451552,51.1886537],[0.0525735,51.1806277],[0.0461491,51.1718341],[0.0514657,51.1572392],[0.0582348,51.1570003],[0.069297,51.1625814],[0.0828131,51.1624246],[0.085469,51.1720126],[0.0942841,51.1715624],[0.0893441,51.1818245],[0.0986974,51.1905426],[0.0961626,51.1970872],[0.0889896,51.1979746],[0.0931588,51.2046127],[0.0823095,51.2082504],[0.0824455,51.2160244],[0.0895669,51.22095]]],"type":"Polygon"},"id":"E02005100","properties":{"code":"E02005100","geography":"MSOA","name":"Sevenoaks 014"},"type":"Feature"},{"geometry":{"coordinates":[[[0.200522,51.2337345],[0.1974416,51.2339673],[0.1991339,51.2279811],[0.1878948,51.218076],[0.1742914,51.2201872],[0.1738118,51.2263207],[0.1526146,51.2240431],[0.1354532,51.2226745],[0.1269249,51.2294156],[0.119063,51.2239392],[0.105433,51.222368],[0.0879195,51.2270318],[0.0895669,51.22095],[0.0824455,51.2160244],[0.0823095,51.2082504],[0.0931588,51.2046127],[0.0889896,51.1979746],[0.0961626,51.1970872],[0.0986974,51.1905426],[0.0893441,51.1818245],[0.0942841,51.1715624],[0.085469,51.1720126],[0.0828131,51.1624246],[0.069297,51.1625814],[0.0582348,51.1570003],[0.0514657,51.1572392],[0.0547813,51.1495597],[0.0499891,51.1426534],[0.0781614,51.1399491],[0.1259066,51.1469491],[0.1395705,51.1467184],[0.1445438,51.1432543],[0.1609408,51.1406374],[0.1607209,51.1373219],[0.1644474,51.1327781],[0.1803458,51.1317928],[0.1934547,51.1394233],[0.1964335,51.1464083],[0.2121214,51.1516175],[0.2154278,51.1543626],[0.1989857,51.161748],[0.1909455,51.1713804],[0.197666,51.1752422],[0.20343,51.1712326],[0.226934,51.1841568],[0.2290392,51.1921245],[0.245283,51.19198],[0.2505322,51.1982217],[0.2495257,51.2018431],[0.2400075,51.1987211],[0.2363415,51.2021953],[0.2284514,51.2016885],[0.225327,51.2073098],[0.2182141,51.2058669],[0.2078856,51.2105948],[0.2019274,51.220558],[0.2113975,51.2218759],[0.212313,51.2245996],[0.2034198,51.2282921],[0.200522,51.2337345]]],"type":"Polygon"},"id":"E02005101","properties":{"code":"E02005101","geography":"MSOA","name":"Sevenoaks 015"},"type":"Feature"},{"geometry":{"coordinates":[[[0.308136,51.3427361],[0.3140611,51.3446204],[0.3102474,51.3461337],[0.3110251,51.3508856],[0.3187732,51.3650696],[0.3130494,51.364895],[0.312732,51.3721732],[0.3010353,51.3713716],[0.2939578,51.3757753],[0.2831338,51.3698835],[0.2844124,51.3509921],[0.2745691,51.3397177],[0.2814388,51.3363732],[0.2883993,51.3371873],[0.2857408,51.344997],[0.291504,51.3453689],[0.2962934,51.351878],[0.3080457,51.3491318],[0.308136,51.3427361]]],"type":"Polygon"},"id":"E02006832","properties":{"code":"E02006832","geography":"MSOA","name":"Sevenoaks 016"},"type":"Feature"}],"type":"FeatureCollection"}
