{"features":[{"geometry":{"coordinates":[[[-1.6639595,53.3668732],[-1.6632933,53.3742306],[-1.6535174,53.3850975],[-1.6538833,53.3918903],[-1.6618608,53.3914252],[-1.6637596,53.3808431],[-1.6733132,53.3693765],[-1.6709361,53.3495849],[-1.6855381,53.3355648],[-1.6968685,53.3347873],[-1.7004516,53.323608],[-1.7117223,53.3244418],[-1.7199651,53.3192657],[-1.727589,53.3191274],[-1.7249352,53.3314825],[-1.7352917,53.334748],[-1.7302072,53.3386135],[-1.7493557,53.3349594],[-1.760665,53.3382228],[-1.8061064,53.3170143],[-1.8226272,53.3027958],[-1.823895,53.2919969],[-1.8168603,53.2870063],[-1.8175193,53.2825478],[-1.8001877,53.2713133],[-1.7985658,53.2606552],[-1.7902878,53.2563957],[-1.7655058,53.2544968],[-1.7714622,53.2561993],[-1.771224,53.2654722],[-1.7682487,53.2704311],[-1.7598246,53.2722397],[-1.7621986,53.2946118],[-1.7404522,53.2822059],[-1.7066646,53.2720657],[-1.6969998,53.2782664],[-1.701374,53.2810082],[-1.6637895,53.2773151],[-1.6575417,53.2817525],[-1.6508524,53.2782589],[-1.6362522,53.2809749],[-1.6409894,53.2869485],[-1.6288583,53.296904],[-1.6163831,53.2941694],[-1.6075142,53.2978575],[-1.5974432,53.2957387],[-1.5990793,53.3113609],[-1.601526,53.3181882],[-1.6087827,53.3225248],[-1.6276941,53.3162429],[-1.6327732,53.3208105],[-1.6121914,53.3432155],[-1.6015766,53.3425916],[-1.5905877,53.3459415],[-1.6256051,53.3520446],[-1.6305939,53.3561438],[-1.6639595,53.3668732]]],"type":"Polygon"},"id":"E02004068","properties":{"code":"E02004068","geography":"MSOA","name":"Derbyshire Dales 001"},"type":"Feature"},{"geometry":{"coordinates":[[[-1.5974432,53.2957387],[-1.6075142,53.2978575],[-1.6163831,53.2941694],[-1.6288583,53.296904],[-1.6409894,53.2869485],[-1.6362522,53.2809749],[-1.6508524,53.2782589],[-1.6575417,53.2817525],[-1.6637895,53.2773151],[-1.701374,53.2810082],[-1.6969998,53.2782664],[-1.7066646,53.2720657],[-1.7404522,53.2822059],[-1.7621986,53.2946118],[-1.7598246,53.2722397],[-1.7682487,53.2704311],[-1.771224,53.2654722],[-1.7714622,53.2561993],[-1.7655058,53.2544968],[-1.7527906,53.2547444],[-1.7539454,53.2489069],[-1.736805,53.2432195],[-1.7477169,53.2415177],[-1.7501313,53.2384166],[-1.7439379,53.229702],[-1.7510407,53.2294507],[-1.7613384,53.2179239],[-1.7804717,53.2143174],[-1.7809246,53.2109189],[-1.7516728,53.1997736],[-1.7330287,53.2047474],[-1.7295163,53.1986083],[-1.7064787,53.2016179],[-1.6923752,53.2003905],[-1.6925086,53.2068539],[-1.6855075,53.2101579],[-1.6872304,53.2141849],[-1.6701129,53.2123058],[-1.6788884,53.2174639],[-1.6721472,53.2285518],[-1.664723,53.2241509],[-1.6581691,53.2244937],[-1.6608352,53.2185825],[-1.6202647,53.1965484],[-1.614463,53.1982174],[-1.5817348,53.1915713],[-1.5529932,53.1962694],[-1.5482966,53.1999003],[-1.5176465,53.20075],[-1.5172397,53.206047],[-1.5317963,53.2078636],[-1.5691534,53.2231276],[-1.5650652,53.2298446],[-1.57205,53.2410054],[-1.5572215,53.249487],[-1.565781,53.2614105],[-1.5849402,53.2626784],[-1.5824408,53.2712573],[-1.5893942,53.2787203],[-1.5788559,53.2869618],[-1.5974432,53.2957387]]],"type":"Polygon"},"id":"E02004069","properties":{"code":"E02004069","geography":"MSOA","name":"Derbyshire Dales 002"},"type":"Feature"},{"geometry":{"coordinates":[[[-1.5425125,53.1752691],[-1.5528776,53.1781508],[-1.5534544,53.1714915],[-1.5671206,53.1691009],[-1.5678341,53.1659279],[-1.5865018,53.1593055],[-1.5877667,53.1616449],[-1.5949582,53.1593139],[-1.597872,53.1575152],[-1.5896647,53.1534007],[-1.5854897,53.1547777],[-1.578766,53.148239],[-1.5830122,53.1462699],[-1.5730767,53.1444743],[-1.5716675,53.1393245],[-1.5590311,53.1360153],[-1.5534821,53.1432268],[-1.5476885,53.1437758],[-1.5452952,53.1411437],[-1.5522478,53.1366271],[-1.5414761,53.1414394],[-1.5340018,53.1401606],[-1.5341941,53.1313185],[-1.5277939,53.1323],[-1.5143726,53.1265425],[-1.5001019,53.1282696],[-1.4954357,53.1338932],[-1.5096044,53.1508066],[-1.5425125,53.1752691]]],"type":"Polygon"},"id":"E02004072","properties":{"code":"E02004072","geography":"MSOA","name":"Derbyshire Dales 005"},"type":"Feature"},{"geometry":{"coordinates":[[[-1.5896647,53.1534007],[-1.606418,53.1598922],[-1.6166872,53.1587908],[-1.6179958,53.1510104],[-1.6256753,53.1464027],[-1.6282761,53.1498196],[-1.6417706,53.1484779],[-1.6585398,53.1520374],[-1.6613204,53.1559257],[-1.6982815,53.1608139],[-1.7027736,53.1569897],[-1.6992662,53.1536558],[-1.7024179,53.1485426],[-1.7156792,53.137846],[-1.7009541,53.1338655],[-1.6967871,53.128766],[-1.6609526,53.1338472],[-1.6539068,53.12563],[-1.6353605,53.1264486],[-1.605805,53.1052525],[-1.5783875,53.1129962],[-1.5801812,53.1003722],[-1.5757384,53.0966224],[-1.5625941,53.0971952],[-1.5645782,53.093949],[-1.5604699,53.0926995],[-1.519115,53.094478],[-1.5234092,53.09563],[-1.5298277,53.095459],[-1.531107,53.1004631],[-1.520601,53.1143704],[-1.5235134,53.1204104],[-1.5143726,53.1265425],[-1.5277939,53.1323],[-1.5341941,53.1313185],[-1.5340018,53.1401606],[-1.5414761,53.1414394],[-1.5522478,53.1366271],[-1.5452952,53.1411437],[-1.5476885,53.1437758],[-1.5534821,53.1432268],[-1.5590311,53.1360153],[-1.5716675,53.1393245],[-1.5730767,53.1444743],[-1.5830122,53.1462699],[-1.578766,53.148239],[-1.5854897,53.1547777],[-1.5896647,53.1534007]]],"type":"Polygon"},"id":"E02004073","properties":{"code":"E02004073","geography":"MSOA","name":"Derbyshire Dales 006"},"type":"Feature"},{"geometry":{"coordinates":[[[-1.5234092,53.09563],[-1.519115,53.094478],[-1.5604699,53.0926995],[-1.5645782,53.093949],[-1.5625941,53.0971952],[-1.5757384,53.0966224],[-1.5801812,53.1003722],[-1.5783875,53.1129962],[-1.605805,53.1052525],[-1.612099,53.102456],[-1.6099833,53.0940928],[-1.602426,53.09118],[-1.6054832,53.0845594],[-1.5904571,53.0717514],[-1.5852976,53.0719032],[-1.5826117,53.0644088],[-1.5754202,53.0647968],[-1.5778494,53.0600353],[-1.5591658,53.0692441],[-1.5532481,53.0690423],[-1.547474,53.0738664],[-1.5496194,53.076973],[-1.5424858,53.0785065],[-1.5336161,53.0868956],[-1.519347,53.0862219],[-1.5120616,53.0933462],[-1.5174572,53.0965001],[-1.5234092,53.09563]]],"type":"Polygon"},"id":"E02004074","properties":{"code":"E02004074","geography":"MSOA","name":"Derbyshire Dales 007"},"type":"Feature"},{"geometry":{"coordinates":[[[-1.7156792,53.137846],[-1.7214586,53.1353846],[-1.7462614,53.152262],[-1.7662976,53.140358],[-1.7766566,53.1421815],[-1.7652272,53.1481007],[-1.7679571,53.1514379],[-1.7839011,53.1469366],[-1.7937773,53.1421961],[-1.7907872,53.1362292],[-1.7947217,53.1323837],[-1.7851416,53.121802],[-1.7919707,53.114658],[-1.7897589,53.1095459],[-1.7837286,53.1028099],[-1.7829749,53.0933164],[-1.7922987,53.0915082],[-1.7942436,53.0883764],[-1.7886085,53.0808872],[-1.7913594,53.0781823],[-1.7856386,53.0630866],[-1.7756566,53.0593368],[-1.7841492,53.0546901],[-1.7789854,53.0448265],[-1.7787379,53.0429961],[-1.7681981,53.0440197],[-1.7590415,53.0375347],[-1.7615475,53.0333817],[-1.757192,53.0287777],[-1.763735,53.0214102],[-1.7577227,53.0171266],[-1.7634932,53.0113534],[-1.7515499,53.0067691],[-1.7450662,53.0104184],[-1.7486973,53.0122453],[-1.7304494,53.0173893],[-1.7298839,53.0219003],[-1.7258334,53.0219283],[-1.7241165,53.0173484],[-1.7078201,53.013846],[-1.6874539,53.0138875],[-1.692097,53.0211493],[-1.672854,53.0262782],[-1.6656598,53.0273168],[-1.6595775,53.0230181],[-1.6398597,53.0288764],[-1.6469249,53.0219655],[-1.6470215,53.0089852],[-1.6242453,52.9960269],[-1.6140742,52.9944246],[-1.6107047,52.9872276],[-1.6021679,52.9857548],[-1.5993001,52.9983858],[-1.5767591,53.0020697],[-1.5787586,53.014669],[-1.5669264,53.0128978],[-1.5759212,53.0164464],[-1.5661369,53.0221923],[-1.5718933,53.0238187],[-1.5780518,53.0244729],[-1.5773428,53.0222779],[-1.5849061,53.0203609],[-1.5985066,53.0304358],[-1.5809478,53.0422466],[-1.5934525,53.0487414],[-1.5912584,53.0548914],[-1.5857342,53.0594989],[-1.5787679,53.0578716],[-1.5778494,53.0600353],[-1.5754202,53.0647968],[-1.5826117,53.0644088],[-1.5852976,53.0719032],[-1.5904571,53.0717514],[-1.6054832,53.0845594],[-1.602426,53.09118],[-1.6099833,53.0940928],[-1.612099,53.102456],[-1.605805,53.1052525],[-1.6353605,53.1264486],[-1.6539068,53.12563],[-1.6609526,53.1338472],[-1.6967871,53.128766],[-1.7009541,53.1338655],[-1.7156792,53.137846]]],"type":"Polygon"},"id":"E02004075","properties":{"code":"E02004075","geography":"MSOA","name":"Derbyshire Dales 008"},"type":"Feature"},{"geometry":{"coordinates":[[[-1.7078201,53.013846],[-1.7241165,53.0173484],[-1.7258334,53.0219283],[-1.7298839,53.0219003],[-1.7304494,53.0173893],[-1.7486973,53.0122453],[-1.7450662,53.0104184],[-1.7301072,53.0034776],[-1.7125854,53.0033028],[-1.7077559,53.0006744],[-1.7078201,53.013846]]],"type":"Polygon"},"id":"E02004076","properties":{"code":"E02004076","geography":"MSOA","name":"Derbyshire Dales 009"},"type":"Feature"},{"geometry":{"coordinates":[[[-1.6021679,52.9857548],[-1.6107047,52.9872276],[-1.6140742,52.9944246],[-1.6242453,52.9960269],[-1.6470215,53.0089852],[-1.6469249,53.0219655],[-1.6398597,53.0288764],[-1.6595775,53.0230181],[-1.6656598,53.0273168],[-1.672854,53.0262782],[-1.692097,53.0211493],[-1.6874539,53.0138875],[-1.7078201,53.013846],[-1.7077559,53.0006744],[-1.7125854,53.0033028],[-1.7301072,53.0034776],[-1.7450662,53.0104184],[-1.7515499,53.0067691],[-1.7634932,53.0113534],[-1.7662181,53.0070729],[-1.7625736,52.9996513],[-1.7893561,52.9927424],[-1.7875251,52.9894086],[-1.7933947,52.9896238],[-1.7967836,52.9850863],[-1.8048082,52.9854569],[-1.8015487,52.9829578],[-1.8057052,52.9804536],[-1.8270662,52.9767982],[-1.8301889,52.9713288],[-1.8255484,52.9618042],[-1.8344387,52.9548718],[-1.8298216,52.9456544],[-1.8355855,52.9452468],[-1.8331899,52.9411643],[-1.8391311,52.9414736],[-1.849125,52.9357091],[-1.855736,52.9270708],[-1.855474,52.9204319],[-1.8478445,52.920319],[-1.8489553,52.916617],[-1.8479655,52.9129704],[-1.8426107,52.9129713],[-1.8475368,52.9101191],[-1.844262,52.9072843],[-1.8333889,52.9021075],[-1.8300019,52.8965709],[-1.8341639,52.8955082],[-1.832673,52.887385],[-1.8265619,52.8840233],[-1.8220268,52.8860212],[-1.8236263,52.8828631],[-1.8110566,52.8806354],[-1.8013811,52.8861557],[-1.7882469,52.8800613],[-1.7837335,52.8839466],[-1.7772239,52.8837973],[-1.774236,52.8792425],[-1.7585883,52.8772031],[-1.7506733,52.8735731],[-1.7524546,52.8688608],[-1.7475903,52.8705613],[-1.7462491,52.8686713],[-1.7385477,52.8764525],[-1.7365651,52.8952025],[-1.7489005,52.9124922],[-1.7144714,52.9095685],[-1.7082321,52.9219875],[-1.683762,52.9183031],[-1.6781931,52.9215909],[-1.6742863,52.9164016],[-1.6705667,52.9167473],[-1.6680198,52.9071503],[-1.663034,52.9024348],[-1.6585033,52.9026744],[-1.6509155,52.9085132],[-1.6563524,52.9182799],[-1.6502397,52.944548],[-1.6412543,52.948134],[-1.6247853,52.9458688],[-1.6208815,52.9477509],[-1.6129701,52.9442367],[-1.6070493,52.9471004],[-1.6029414,52.9507622],[-1.6079923,52.9564291],[-1.5993619,52.9625512],[-1.58119,52.960982],[-1.5763612,52.9662849],[-1.5710717,52.9665852],[-1.5714727,52.9739892],[-1.6021679,52.9857548]]],"type":"Polygon"},"id":"E02004077","properties":{"code":"E02004077","geography":"MSOA","name":"Derbyshire Dales 010"},"type":"Feature"},{"geometry":{"coordinates":[[[-1.7902878,53.2563957],[-1.8159839,53.2581027],[-1.8135366,53.2545977],[-1.8206503,53.251978],[-1.8468781,53.2489705],[-1.8447227,53.2457319],[-1.8538803,53.2432626],[-1.8582403,53.2332147],[-1.8742681,53.2268293],[-1.853244,53.216561],[-1.831255,53.210631],[-1.8319571,53.2056756],[-1.8274902,53.2044287],[-1.832303,53.2029766],[-1.8316071,53.1975699],[-1.8424276,53.1947445],[-1.8413473,53.1971426],[-1.8628378,53.2052799],[-1.8727115,53.2156408],[-1.8731918,53.2072555],[-1.8784526,53.2069466],[-1.8766199,53.2033781],[-1.8826491,53.203287],[-1.8869223,53.2177491],[-1.895439,53.2186351],[-1.8976011,53.2104348],[-1.9107585,53.2216769],[-1.9185597,53.2179684],[-1.9105752,53.2164301],[-1.9111258,53.2121137],[-1.9000751,53.2083461],[-1.902497,53.2039471],[-1.8986364,53.1999387],[-1.8849376,53.196549],[-1.8739768,53.1953424],[-1.8366744,53.1753814],[-1.8160753,53.1586191],[-1.8120276,53.1527259],[-1.8214423,53.1357915],[-1.8128348,53.1327768],[-1.8096545,53.1237819],[-1.7897589,53.1095459],[-1.7919707,53.114658],[-1.7851416,53.121802],[-1.7947217,53.1323837],[-1.7907872,53.1362292],[-1.7937773,53.1421961],[-1.7839011,53.1469366],[-1.7679571,53.1514379],[-1.7652272,53.1481007],[-1.7766566,53.1421815],[-1.7662976,53.140358],[-1.7462614,53.152262],[-1.7214586,53.1353846],[-1.7156792,53.137846],[-1.7024179,53.1485426],[-1.6992662,53.1536558],[-1.7027736,53.1569897],[-1.6982815,53.1608139],[-1.6613204,53.1559257],[-1.6585398,53.1520374],[-1.6417706,53.1484779],[-1.6282761,53.1498196],[-1.6256753,53.1464027],[-1.6179958,53.1510104],[-1.6166872,53.1587908],[-1.606418,53.1598922],[-1.5896647,53.1534007],[-1.597872,53.1575152],[-1.5949582,53.1593139],[-1.5877667,53.1616449],[-1.5865018,53.1593055],[-1.5678341,53.1659279],[-1.5671206,53.1691009],[-1.5534544,53.1714915],[-1.5528776,53.1781508],[-1.5425125,53.1752691],[-1.5529932,53.1962694],[-1.5817348,53.1915713],[-1.614463,53.1982174],[-1.6202647,53.1965484],[-1.6608352,53.2185825],[-1.6581691,53.2244937],[-1.664723,53.2241509],[-1.6721472,53.2285518],[-1.6788884,53.2174639],[-1.6701129,53.2123058],[-1.6872304,53.2141849],[-1.6855075,53.2101579],[-1.6925086,53.2068539],[-1.6923752,53.2003905],[-1.7064787,53.2016179],[-1.7295163,53.1986083],[-1.7330287,53.2047474],[-1.7516728,53.1997736],[-1.7809246,53.2109189],[-1.7804717,53.2143174],[-1.7613384,53.2179239],[-1.7510407,53.2294507],[-1.7439379,53.229702],[-1.7501313,53.2384166],[-1.7477169,53.2415177],[-1.736805,53.2432195],[-1.7539454,53.2489069],[-1.7527906,53.2547444],[-1.7655058,53.2544968],[-1.7902878,53.2563957]]],"type":"Polygon"},"id":"E02007029","properties":{"code":"E02007029","geography":"MSOA","name":"Derbyshire Dales 011"},"type":"Feature"}],"type":"FeatureCollection"}
