{"features":[{"geometry":{"coordinates":[[[0.0031554,51.7771302],[0.0055469,51.780063],[-0.0178239,51.7805693],[-0.0217177,51.7735409],[-0.034385,51.7728781],[-0.0114208,51.765747],[-0.0142019,51.7724475],[-0.0052971,51.7723964],[0.0031554,51.7771302]]],"type":"Polygon"},"id":"E02004843","properties":{"code":"E02004843","geography":"MSOA","name":"Broxbourne 001"},"type":"Feature"},{"geometry":{"coordinates":[[[0.0140014,51.7643743],[0.0031554,51.7771302],[-0.0052971,51.7723964],[-0.0142019,51.7724475],[-0.0114208,51.765747],[0.0052121,51.7593713],[0.0041025,51.7553561],[0.0129648,51.7574599],[0.0140014,51.7643743]]],"type":"Polygon"},"id":"E02004844","properties":{"code":"E02004844","geography":"MSOA","name":"Broxbourne 002"},"type":"Feature"},{"geometry":{"coordinates":[[[-0.0114208,51.765747],[-0.034385,51.7728781],[-0.0479417,51.7687809],[-0.0499019,51.7508747],[-0.0277765,51.7500388],[-0.0252114,51.7537716],[-0.0149923,51.7528135],[-0.008067,51.7483737],[-0.0109634,51.7449939],[0.001503,51.7454573],[0.0041025,51.7553561],[0.0052121,51.7593713],[-0.0114208,51.765747]]],"type":"Polygon"},"id":"E02004845","properties":{"code":"E02004845","geography":"MSOA","name":"Broxbourne 003"},"type":"Feature"},{"geometry":{"coordinates":[[[0.001503,51.7454573],[-0.0109634,51.7449939],[-0.008067,51.7483737],[-0.0149923,51.7528135],[-0.0252114,51.7537716],[-0.0277765,51.7500388],[-0.0499019,51.7508747],[-0.0524269,51.7423722],[-0.0255421,51.735435],[-0.0217987,51.7397967],[-0.0166377,51.7381451],[-0.0185415,51.7339984],[-0.0137729,51.7353956],[-0.0130059,51.7427462],[-0.0061624,51.7417222],[0.001503,51.7454573]]],"type":"Polygon"},"id":"E02004846","properties":{"code":"E02004846","geography":"MSOA","name":"Broxbourne 004"},"type":"Feature"},{"geometry":{"coordinates":[[[-0.0137729,51.7353956],[-0.0185415,51.7339984],[-0.0166377,51.7381451],[-0.0217987,51.7397967],[-0.0255421,51.735435],[-0.0524269,51.7423722],[-0.0582599,51.7347218],[-0.0283001,51.7273249],[-0.0372767,51.721488],[-0.0246349,51.7168513],[-0.0150642,51.7172387],[-0.0141464,51.7231163],[-0.0137729,51.7353956]]],"type":"Polygon"},"id":"E02004847","properties":{"code":"E02004847","geography":"MSOA","name":"Broxbourne 005"},"type":"Feature"},{"geometry":{"coordinates":[[[-0.0582599,51.7347218],[-0.0986311,51.7359313],[-0.1074721,51.7254669],[-0.0850842,51.7247381],[-0.0645403,51.7182682],[-0.0512413,51.713417],[-0.049252,51.7094525],[-0.0423923,51.7085291],[-0.0372767,51.721488],[-0.0283001,51.7273249],[-0.0582599,51.7347218]]],"type":"Polygon"},"id":"E02004848","properties":{"code":"E02004848","geography":"MSOA","name":"Broxbourne 006"},"type":"Feature"},{"geometry":{"coordinates":[[[-0.0645403,51.7182682],[-0.0850842,51.7247381],[-0.1074721,51.7254669],[-0.1138977,51.7209517],[-0.1056076,51.7136197],[-0.1058047,51.6918728],[-0.0778694,51.6884263],[-0.0772035,51.6925742],[-0.0710111,51.6918019],[-0.0705184,51.700065],[-0.0635774,51.7026767],[-0.0739073,51.7065457],[-0.0652363,51.7096314],[-0.0694948,51.7151698],[-0.0645403,51.7182682]]],"type":"Polygon"},"id":"E02004849","properties":{"code":"E02004849","geography":"MSOA","name":"Broxbourne 007"},"type":"Feature"},{"geometry":{"coordinates":[[[-0.0150642,51.7172387],[-0.0246349,51.7168513],[-0.0372767,51.721488],[-0.0423923,51.7085291],[-0.0412925,51.7083552],[-0.0353697,51.7100295],[-0.017593,51.7074309],[-0.0150642,51.7172387]]],"type":"Polygon"},"id":"E02004850","properties":{"code":"E02004850","geography":"MSOA","name":"Broxbourne 008"},"type":"Feature"},{"geometry":{"coordinates":[[[-0.049252,51.7094525],[-0.0512413,51.713417],[-0.0645403,51.7182682],[-0.0694948,51.7151698],[-0.0652363,51.7096314],[-0.0739073,51.7065457],[-0.0635774,51.7026767],[-0.0610606,51.708988],[-0.049252,51.7094525]]],"type":"Polygon"},"id":"E02004851","properties":{"code":"E02004851","geography":"MSOA","name":"Broxbourne 009"},"type":"Feature"},{"geometry":{"coordinates":[[[-0.017593,51.7074309],[-0.0353697,51.7100295],[-0.0412925,51.7083552],[-0.0430654,51.7026162],[-0.0348822,51.702214],[-0.0345933,51.697385],[-0.0188196,51.6996468],[-0.017593,51.7074309]]],"type":"Polygon"},"id":"E02004852","properties":{"code":"E02004852","geography":"MSOA","name":"Broxbourne 010"},"type":"Feature"},{"geometry":{"coordinates":[[[-0.0423923,51.7085291],[-0.049252,51.7094525],[-0.0610606,51.708988],[-0.0635774,51.7026767],[-0.0705184,51.700065],[-0.0710111,51.6918019],[-0.0772035,51.6925742],[-0.0778694,51.6884263],[-0.0620444,51.6830053],[-0.0489558,51.6840464],[-0.0451236,51.6912966],[-0.0430654,51.7026162],[-0.0412925,51.7083552],[-0.0423923,51.7085291]]],"type":"Polygon"},"id":"E02004853","properties":{"code":"E02004853","geography":"MSOA","name":"Broxbourne 011"},"type":"Feature"},{"geometry":{"coordinates":[[[-0.0188196,51.6996468],[-0.0345933,51.697385],[-0.0348822,51.702214],[-0.0430654,51.7026162],[-0.0451236,51.6912966],[-0.0163289,51.6901817],[-0.0188196,51.6996468]]],"type":"Polygon"},"id":"E02004854","properties":{"code":"E02004854","geography":"MSOA","name":"Broxbourne 012"},"type":"Feature"},{"geometry":{"coordinates":[[[-0.0163289,51.6901817],[-0.0451236,51.6912966],[-0.0489558,51.6840464],[-0.0420436,51.6830941],[-0.026954,51.6821069],[-0.0119449,51.6808751],[-0.0116458,51.686736],[-0.0163289,51.6901817]]],"type":"Polygon"},"id":"E02004855","properties":{"code":"E02004855","geography":"MSOA","name":"Broxbourne 013"},"type":"Feature"}],"type":"FeatureCollection"}
