{"features":[{"geometry":{"coordinates":[[[0.3537,51.445933],[0.3251344,51.4503353],[0.3284535,51.450844],[0.3152896,51.46498],[0.3152503,51.4649945],[0.3106571,51.4530449],[0.3196786,51.4512372],[0.3216903,51.4468979],[0.3353004,51.4390838],[0.3460532,51.4374597],[0.3568588,51.439763],[0.3514447,51.4435636],[0.3537,51.445933]]],"type":"Polygon"},"id":"E02005055","properties":{"code":"E02005055","geography":"MSOA","name":"Gravesham 001"},"type":"Feature"},{"geometry":{"coordinates":[[[0.3813103,51.4446205],[0.3696635,51.4452301],[0.3558648,51.4455991],[0.3537,51.445933],[0.3514447,51.4435636],[0.3568588,51.439763],[0.3570232,51.4367061],[0.3735504,51.4363506],[0.3730707,51.4415551],[0.3794213,51.4400063],[0.3813103,51.4446205]]],"type":"Polygon"},"id":"E02005056","properties":{"code":"E02005056","geography":"MSOA","name":"Gravesham 002"},"type":"Feature"},{"geometry":{"coordinates":[[[0.4238577,51.4229837],[0.431292,51.4299104],[0.4270004,51.44654],[0.4065352,51.443296],[0.4054501,51.4433531],[0.3813103,51.4446205],[0.3794213,51.4400063],[0.3730707,51.4415551],[0.3735504,51.4363506],[0.3786701,51.4341458],[0.3866232,51.4387237],[0.3833522,51.4331254],[0.3866598,51.4323195],[0.3958944,51.4314066],[0.4135814,51.4285413],[0.4238577,51.4229837]]],"type":"Polygon"},"id":"E02005057","properties":{"code":"E02005057","geography":"MSOA","name":"Gravesham 003"},"type":"Feature"},{"geometry":{"coordinates":[[[0.3570232,51.4367061],[0.3568588,51.439763],[0.3460532,51.4374597],[0.3429194,51.4358428],[0.3496811,51.4330409],[0.3480052,51.4303719],[0.358646,51.4271474],[0.361597,51.4340179],[0.3570232,51.4367061]]],"type":"Polygon"},"id":"E02005058","properties":{"code":"E02005058","geography":"MSOA","name":"Gravesham 004"},"type":"Feature"},{"geometry":{"coordinates":[[[0.3866598,51.4323195],[0.3833522,51.4331254],[0.3866232,51.4387237],[0.3786701,51.4341458],[0.3735504,51.4363506],[0.3570232,51.4367061],[0.361597,51.4340179],[0.358646,51.4271474],[0.3671225,51.4282132],[0.3721176,51.4246481],[0.3754432,51.425699],[0.3866598,51.4323195]]],"type":"Polygon"},"id":"E02005059","properties":{"code":"E02005059","geography":"MSOA","name":"Gravesham 005"},"type":"Feature"},{"geometry":{"coordinates":[[[0.3460532,51.4374597],[0.3353004,51.4390838],[0.3216903,51.4468979],[0.3263346,51.4426532],[0.3238693,51.4316045],[0.3325752,51.4256115],[0.3441153,51.4222519],[0.3518091,51.4252074],[0.3480052,51.4303719],[0.3496811,51.4330409],[0.3429194,51.4358428],[0.3460532,51.4374597]]],"type":"Polygon"},"id":"E02005060","properties":{"code":"E02005060","geography":"MSOA","name":"Gravesham 006"},"type":"Feature"},{"geometry":{"coordinates":[[[0.3958944,51.4314066],[0.3866598,51.4323195],[0.3754432,51.425699],[0.3822375,51.4200137],[0.3902235,51.4204348],[0.3958259,51.4228636],[0.3923211,51.4281312],[0.3958944,51.4314066]]],"type":"Polygon"},"id":"E02005061","properties":{"code":"E02005061","geography":"MSOA","name":"Gravesham 007"},"type":"Feature"},{"geometry":{"coordinates":[[[0.4238577,51.4229837],[0.4135814,51.4285413],[0.3958944,51.4314066],[0.3923211,51.4281312],[0.3958259,51.4228636],[0.3902235,51.4204348],[0.3878568,51.4155475],[0.4099368,51.4155672],[0.4238577,51.4229837]]],"type":"Polygon"},"id":"E02005062","properties":{"code":"E02005062","geography":"MSOA","name":"Gravesham 008"},"type":"Feature"},{"geometry":{"coordinates":[[[0.358646,51.4271474],[0.3480052,51.4303719],[0.3518091,51.4252074],[0.3441153,51.4222519],[0.3725723,51.4125634],[0.3761442,51.4109854],[0.3721176,51.4246481],[0.3671225,51.4282132],[0.358646,51.4271474]]],"type":"Polygon"},"id":"E02005063","properties":{"code":"E02005063","geography":"MSOA","name":"Gravesham 009"},"type":"Feature"},{"geometry":{"coordinates":[[[[0.4775875,51.4071862],[0.4751125,51.4129473],[0.4892073,51.4153262],[0.4911675,51.4247751],[0.486329,51.4360253],[0.4909444,51.438677],[0.4879313,51.443284],[0.475736,51.4467664],[0.4669392,51.4546354],[0.4585363,51.4550212],[0.4584807,51.455242],[0.443214,51.4494983],[0.4283994,51.4467616],[0.4270004,51.44654],[0.431292,51.4299104],[0.4238577,51.4229837],[0.4099368,51.4155672],[0.3878568,51.4155475],[0.3895111,51.4074148],[0.3761442,51.4109854],[0.3725723,51.4125634],[0.3730838,51.3895909],[0.3730585,51.3952072],[0.3930873,51.3986931],[0.3935415,51.3951673],[0.4059922,51.3912198],[0.4034052,51.3895],[0.4089194,51.3844841],[0.4029472,51.3875471],[0.4016008,51.3813243],[0.3880352,51.383832],[0.3898645,51.379995],[0.4040306,51.3772616],[0.4205209,51.3802486],[0.4260318,51.3780304],[0.4310816,51.3880334],[0.4471155,51.3889583],[0.4566416,51.3942501],[0.4518244,51.398321],[0.4676868,51.3985374],[0.4681824,51.4031713],[0.4775875,51.4071862]]],[[[0.4571574,51.4605202],[0.4559007,51.4608855],[0.4578345,51.4578196],[0.4571574,51.4605202]]]],"type":"MultiPolygon"},"id":"E02005064","properties":{"code":"E02005064","geography":"MSOA","name":"Gravesham 010"},"type":"Feature"},{"geometry":{"coordinates":[[[0.3902235,51.4204348],[0.3822375,51.4200137],[0.3754432,51.425699],[0.3721176,51.4246481],[0.3761442,51.4109854],[0.3895111,51.4074148],[0.3878568,51.4155475],[0.3902235,51.4204348]]],"type":"Polygon"},"id":"E02005065","properties":{"code":"E02005065","geography":"MSOA","name":"Gravesham 011"},"type":"Feature"},{"geometry":{"coordinates":[[[0.3441153,51.4222519],[0.3325752,51.4256115],[0.335066,51.3993233],[0.3445941,51.3934116],[0.3345909,51.3894635],[0.3366502,51.3865446],[0.3314179,51.3712796],[0.332649,51.3682934],[0.3366632,51.3697629],[0.3355414,51.3606359],[0.3417793,51.3521801],[0.3465752,51.3583113],[0.3561941,51.357389],[0.3576981,51.3624101],[0.3863949,51.366669],[0.3787838,51.3811813],[0.3688461,51.3851316],[0.3744824,51.3874471],[0.3730838,51.3895909],[0.3725723,51.4125634],[0.3441153,51.4222519]]],"type":"Polygon"},"id":"E02005066","properties":{"code":"E02005066","geography":"MSOA","name":"Gravesham 012"},"type":"Feature"},{"geometry":{"coordinates":[[[0.4260318,51.3780304],[0.4205209,51.3802486],[0.4040306,51.3772616],[0.3898645,51.379995],[0.3880352,51.383832],[0.4016008,51.3813243],[0.4029472,51.3875471],[0.4089194,51.3844841],[0.4034052,51.3895],[0.4059922,51.3912198],[0.3935415,51.3951673],[0.3930873,51.3986931],[0.3730585,51.3952072],[0.3730838,51.3895909],[0.3744824,51.3874471],[0.3688461,51.3851316],[0.3787838,51.3811813],[0.3863949,51.366669],[0.3576981,51.3624101],[0.3561941,51.357389],[0.3465752,51.3583113],[0.3417793,51.3521801],[0.3407777,51.3397394],[0.3446981,51.3375337],[0.3416178,51.3292815],[0.3410527,51.3250072],[0.363276,51.3299939],[0.3795998,51.329627],[0.3834609,51.3357056],[0.3771107,51.3358534],[0.3806963,51.3393339],[0.3888491,51.3387703],[0.3901529,51.3418528],[0.3950258,51.3451219],[0.3915347,51.3474696],[0.4012027,51.3528658],[0.4196483,51.3755917],[0.4260318,51.3780304]]],"type":"Polygon"},"id":"E02005067","properties":{"code":"E02005067","geography":"MSOA","name":"Gravesham 013"},"type":"Feature"}],"type":"FeatureCollection"}
