{"features":[{"geometry":{"coordinates":[[[-1.8222296,53.5210753],[-1.8271525,53.523492],[-1.841822,53.5198926],[-1.8734939,53.5404136],[-1.8941108,53.5335957],[-1.8993236,53.5380963],[-1.9096224,53.538375],[-1.9224466,53.5307986],[-1.9267821,53.5209323],[-1.9167689,53.514479],[-1.9219747,53.5099383],[-1.9513356,53.5041818],[-1.9633888,53.50981],[-1.9727219,53.5024692],[-1.9746334,53.4879183],[-1.9869708,53.4815567],[-1.9884633,53.4700053],[-1.9815349,53.464488],[-1.9752685,53.4685583],[-1.9669776,53.4619353],[-1.9787644,53.4599448],[-1.9783554,53.4564805],[-1.9748604,53.4573529],[-1.9780059,53.4530519],[-1.96713,53.4568984],[-1.9652874,53.4544851],[-1.9580353,53.4556282],[-1.9564511,53.4589404],[-1.9427183,53.4592299],[-1.9399121,53.4671491],[-1.955958,53.4643592],[-1.9690378,53.4695776],[-1.9589679,53.4681349],[-1.9527539,53.4738018],[-1.9323418,53.4793064],[-1.9308178,53.4823858],[-1.9238003,53.4803339],[-1.903703,53.4829039],[-1.870185,53.494344],[-1.8662196,53.4922172],[-1.833222,53.4956743],[-1.8211881,53.4915972],[-1.8003102,53.4933734],[-1.7950085,53.495877],[-1.7962106,53.5031047],[-1.8102881,53.5063257],[-1.8007802,53.5113629],[-1.8195245,53.5134121],[-1.8222296,53.5210753]]],"type":"Polygon"},"id":"E02004093","properties":{"code":"E02004093","geography":"MSOA","name":"High Peak 001"},"type":"Feature"},{"geometry":{"coordinates":[[[-1.9652874,53.4544851],[-1.96713,53.4568984],[-1.9780059,53.4530519],[-1.9748604,53.4573529],[-1.9783554,53.4564805],[-1.9787644,53.4599448],[-1.9669776,53.4619353],[-1.9752685,53.4685583],[-1.9815349,53.464488],[-1.988101,53.4605134],[-1.9857349,53.4551968],[-1.9982161,53.4457819],[-1.9891822,53.4431262],[-1.9806891,53.4457191],[-1.9785584,53.4435514],[-1.9701618,53.4537173],[-1.9652874,53.4544851]]],"type":"Polygon"},"id":"E02004094","properties":{"code":"E02004094","geography":"MSOA","name":"High Peak 002"},"type":"Feature"},{"geometry":{"coordinates":[[[-1.9283877,53.4448433],[-1.9275728,53.4488134],[-1.9385395,53.4559384],[-1.9429883,53.4558886],[-1.9444607,53.4447498],[-1.9630414,53.4469234],[-1.9668618,53.4443704],[-1.945423,53.4288918],[-1.9313331,53.4337278],[-1.9347767,53.4407579],[-1.9286472,53.4422106],[-1.9323921,53.4445857],[-1.9283877,53.4448433]]],"type":"Polygon"},"id":"E02004095","properties":{"code":"E02004095","geography":"MSOA","name":"High Peak 003"},"type":"Feature"},{"geometry":{"coordinates":[[[-1.8003102,53.4933734],[-1.8211881,53.4915972],[-1.833222,53.4956743],[-1.8662196,53.4922172],[-1.870185,53.494344],[-1.903703,53.4829039],[-1.9238003,53.4803339],[-1.9308178,53.4823858],[-1.9323418,53.4793064],[-1.9527539,53.4738018],[-1.9589679,53.4681349],[-1.9690378,53.4695776],[-1.955958,53.4643592],[-1.9399121,53.4671491],[-1.9427183,53.4592299],[-1.9564511,53.4589404],[-1.9580353,53.4556282],[-1.9652874,53.4544851],[-1.9701618,53.4537173],[-1.9785584,53.4435514],[-1.9806891,53.4457191],[-1.9891822,53.4431262],[-1.9982161,53.4457819],[-2.0082809,53.4414017],[-2.0041611,53.4359063],[-2.0131138,53.4399282],[-2.0272571,53.432343],[-2.0262251,53.4297859],[-2.0197259,53.4251025],[-2.0237113,53.4205356],[-2.0136988,53.4158737],[-1.9923317,53.4151769],[-1.9813861,53.4157664],[-1.976506,53.4205652],[-1.9574088,53.4098675],[-1.9299911,53.4101493],[-1.9209282,53.4123172],[-1.9097164,53.4106183],[-1.8958112,53.4210778],[-1.8784358,53.4265035],[-1.8654609,53.4256587],[-1.8685722,53.4337456],[-1.852641,53.4470022],[-1.8640046,53.4526165],[-1.8627062,53.459952],[-1.8535437,53.4594802],[-1.8432285,53.463913],[-1.8276322,53.4634141],[-1.8141357,53.4690935],[-1.8129024,53.4795838],[-1.8014716,53.4809756],[-1.8003102,53.4933734]],[[-1.9283877,53.4448433],[-1.9323921,53.4445857],[-1.9286472,53.4422106],[-1.9347767,53.4407579],[-1.9313331,53.4337278],[-1.945423,53.4288918],[-1.9668618,53.4443704],[-1.9630414,53.4469234],[-1.9444607,53.4447498],[-1.9429883,53.4558886],[-1.9385395,53.4559384],[-1.9275728,53.4488134],[-1.9283877,53.4448433]]],"type":"Polygon"},"id":"E02004096","properties":{"code":"E02004096","geography":"MSOA","name":"High Peak 004"},"type":"Feature"},{"geometry":{"coordinates":[[[-1.9299911,53.4101493],[-1.9574088,53.4098675],[-1.976506,53.4205652],[-1.9813861,53.4157664],[-1.9923317,53.4151769],[-2.0050209,53.3928324],[-2.0046442,53.3863114],[-2.0197156,53.3805794],[-2.0170849,53.3778166],[-2.021473,53.3750432],[-2.0337761,53.3755256],[-2.0310596,53.3702461],[-2.0340878,53.3677367],[-2.0271295,53.3637515],[-2.0218176,53.366741],[-2.008999,53.3619948],[-2.0106729,53.3556857],[-2.0046607,53.3459939],[-2.0143198,53.3400426],[-2.0136504,53.332404],[-2.0092895,53.3313641],[-1.9985442,53.3282588],[-1.9955539,53.3323852],[-1.9892841,53.3328852],[-1.9923315,53.3375326],[-2.0019293,53.3389905],[-2.0005818,53.3437697],[-1.9923523,53.3390017],[-1.983754,53.3428315],[-1.9852959,53.3509009],[-1.9970679,53.3576971],[-1.9995695,53.3633723],[-1.9925959,53.3655418],[-1.9987171,53.3700837],[-1.9831204,53.377615],[-1.9773838,53.3777211],[-1.9763209,53.3750185],[-1.9593398,53.3753456],[-1.953639,53.3864355],[-1.9428551,53.3868564],[-1.9431347,53.391421],[-1.9288305,53.3956636],[-1.9334942,53.4041635],[-1.9299911,53.4101493]]],"type":"Polygon"},"id":"E02004097","properties":{"code":"E02004097","geography":"MSOA","name":"High Peak 005"},"type":"Feature"},{"geometry":{"coordinates":[[[-1.9097164,53.4106183],[-1.9209282,53.4123172],[-1.9299911,53.4101493],[-1.9334942,53.4041635],[-1.9288305,53.3956636],[-1.9431347,53.391421],[-1.9428551,53.3868564],[-1.953639,53.3864355],[-1.9593398,53.3753456],[-1.9763209,53.3750185],[-1.9773838,53.3777211],[-1.9831204,53.377615],[-1.9987171,53.3700837],[-1.9925959,53.3655418],[-1.9995695,53.3633723],[-1.9970679,53.3576971],[-1.9852959,53.3509009],[-1.983754,53.3428315],[-1.978602,53.3414239],[-1.9723399,53.3322699],[-1.9576093,53.3274998],[-1.9460567,53.3377821],[-1.9359891,53.3392807],[-1.9475237,53.3402156],[-1.9665452,53.3535138],[-1.9474656,53.3554782],[-1.944531,53.3613982],[-1.9263316,53.3619422],[-1.9082242,53.3585847],[-1.8895587,53.3603463],[-1.8788288,53.3649881],[-1.8767069,53.3698276],[-1.8854053,53.3716259],[-1.8833498,53.3798089],[-1.8575734,53.3897089],[-1.8683649,53.3974193],[-1.8894282,53.4003339],[-1.9097164,53.4106183]]],"type":"Polygon"},"id":"E02004098","properties":{"code":"E02004098","geography":"MSOA","name":"High Peak 006"},"type":"Feature"},{"geometry":{"coordinates":[[[-1.9079844,53.2890975],[-1.9106696,53.3041058],[-1.925425,53.3040794],[-1.9310415,53.309001],[-1.9263813,53.3160111],[-1.9299092,53.324885],[-1.9191188,53.325949],[-1.9181615,53.3329309],[-1.9077904,53.335564],[-1.9012548,53.3427013],[-1.8925716,53.3439504],[-1.8688319,53.3599504],[-1.8788288,53.3649881],[-1.8895587,53.3603463],[-1.9082242,53.3585847],[-1.9263316,53.3619422],[-1.944531,53.3613982],[-1.9474656,53.3554782],[-1.9665452,53.3535138],[-1.9475237,53.3402156],[-1.9359891,53.3392807],[-1.9460567,53.3377821],[-1.9576093,53.3274998],[-1.9723399,53.3322699],[-1.978602,53.3414239],[-1.983754,53.3428315],[-1.9923523,53.3390017],[-2.0005818,53.3437697],[-2.0019293,53.3389905],[-1.9923315,53.3375326],[-1.9892841,53.3328852],[-1.9955539,53.3323852],[-1.9985442,53.3282588],[-2.0092895,53.3313641],[-2.0115543,53.3259377],[-2.0015518,53.3189051],[-1.9957902,53.3025292],[-1.989264,53.2977232],[-1.9600332,53.3050116],[-1.9620197,53.2932368],[-1.9527402,53.2843259],[-1.9478777,53.2804515],[-1.9319997,53.2821761],[-1.9217284,53.2857667],[-1.9109311,53.2846095],[-1.9079844,53.2890975]]],"type":"Polygon"},"id":"E02004100","properties":{"code":"E02004100","geography":"MSOA","name":"High Peak 008"},"type":"Feature"},{"geometry":{"coordinates":[[[-1.8809114,53.2667738],[-1.8808463,53.2726615],[-1.8846415,53.2706489],[-1.8981173,53.2781768],[-1.892052,53.2885858],[-1.9079844,53.2890975],[-1.9109311,53.2846095],[-1.9217284,53.2857667],[-1.9319997,53.2821761],[-1.9364108,53.2780909],[-1.9486071,53.2760527],[-1.9509308,53.271307],[-1.9380306,53.2568229],[-1.9294125,53.2573004],[-1.9276947,53.2544492],[-1.9134306,53.2526279],[-1.9102131,53.252704],[-1.9132393,53.2551636],[-1.9101162,53.2587497],[-1.9035117,53.2570477],[-1.9046496,53.2607929],[-1.8809114,53.2667738]]],"type":"Polygon"},"id":"E02004102","properties":{"code":"E02004102","geography":"MSOA","name":"High Peak 010"},"type":"Feature"},{"geometry":{"coordinates":[[[-1.8748928,53.2496533],[-1.872459,53.2544873],[-1.8809114,53.2667738],[-1.9046496,53.2607929],[-1.9035117,53.2570477],[-1.9101162,53.2587497],[-1.9132393,53.2551636],[-1.9102131,53.252704],[-1.9134306,53.2526279],[-1.9068542,53.2454065],[-1.9015475,53.2495089],[-1.8978161,53.245469],[-1.8923824,53.2477313],[-1.8981214,53.2527268],[-1.8748928,53.2496533]]],"type":"Polygon"},"id":"E02004103","properties":{"code":"E02004103","geography":"MSOA","name":"High Peak 011"},"type":"Feature"},{"geometry":{"coordinates":[[[-1.9319997,53.2821761],[-1.9478777,53.2804515],[-1.9527402,53.2843259],[-1.9620197,53.2932368],[-1.9600332,53.3050116],[-1.989264,53.2977232],[-1.9957902,53.3025292],[-2.0015518,53.3189051],[-2.0093298,53.3022977],[-2.0051991,53.2690236],[-2.009484,53.2606357],[-2.0003349,53.255422],[-1.9997339,53.2450316],[-1.9818858,53.238562],[-1.9748616,53.2310435],[-1.9760681,53.227512],[-1.990268,53.2229808],[-1.9874111,53.2135673],[-1.9623679,53.2262239],[-1.9567109,53.2137293],[-1.9376967,53.2117602],[-1.9080479,53.1985215],[-1.8986364,53.1999387],[-1.902497,53.2039471],[-1.9000751,53.2083461],[-1.9111258,53.2121137],[-1.9105752,53.2164301],[-1.9185597,53.2179684],[-1.9107585,53.2216769],[-1.8976011,53.2104348],[-1.895439,53.2186351],[-1.8869223,53.2177491],[-1.8826491,53.203287],[-1.8766199,53.2033781],[-1.8784526,53.2069466],[-1.8731918,53.2072555],[-1.8727115,53.2156408],[-1.8628378,53.2052799],[-1.8413473,53.1971426],[-1.8424276,53.1947445],[-1.8316071,53.1975699],[-1.832303,53.2029766],[-1.8274902,53.2044287],[-1.8319571,53.2056756],[-1.831255,53.210631],[-1.853244,53.216561],[-1.8742681,53.2268293],[-1.8582403,53.2332147],[-1.8538803,53.2432626],[-1.8447227,53.2457319],[-1.8468781,53.2489705],[-1.8608396,53.2498128],[-1.8707193,53.246407],[-1.8748928,53.2496533],[-1.8981214,53.2527268],[-1.8923824,53.2477313],[-1.8978161,53.245469],[-1.9015475,53.2495089],[-1.9068542,53.2454065],[-1.9134306,53.2526279],[-1.9276947,53.2544492],[-1.9294125,53.2573004],[-1.9380306,53.2568229],[-1.9509308,53.271307],[-1.9486071,53.2760527],[-1.9364108,53.2780909],[-1.9319997,53.2821761]]],"type":"Polygon"},"id":"E02004104","properties":{"code":"E02004104","geography":"MSOA","name":"High Peak 012"},"type":"Feature"},{"geometry":{"coordinates":[[[-1.6538833,53.3918903],[-1.6680908,53.3930539],[-1.6818293,53.4017638],[-1.6945222,53.4011444],[-1.7049656,53.4050391],[-1.7032349,53.4137056],[-1.708775,53.4174232],[-1.7182085,53.4194638],[-1.729952,53.415969],[-1.7397796,53.4209607],[-1.7467376,53.4261772],[-1.7442732,53.4312802],[-1.7497284,53.4391028],[-1.7436813,53.4449387],[-1.7480829,53.4574174],[-1.745331,53.4621673],[-1.7524156,53.4649414],[-1.7683508,53.4647073],[-1.7802984,53.4748227],[-1.7911412,53.4758168],[-1.8014716,53.4809756],[-1.8129024,53.4795838],[-1.8141357,53.4690935],[-1.8276322,53.4634141],[-1.8432285,53.463913],[-1.8535437,53.4594802],[-1.8627062,53.459952],[-1.8640046,53.4526165],[-1.852641,53.4470022],[-1.8685722,53.4337456],[-1.8654609,53.4256587],[-1.8784358,53.4265035],[-1.8958112,53.4210778],[-1.9097164,53.4106183],[-1.8894282,53.4003339],[-1.8683649,53.3974193],[-1.8575734,53.3897089],[-1.8833498,53.3798089],[-1.8854053,53.3716259],[-1.8767069,53.3698276],[-1.8788288,53.3649881],[-1.8688319,53.3599504],[-1.8925716,53.3439504],[-1.9012548,53.3427013],[-1.9077904,53.335564],[-1.9181615,53.3329309],[-1.9191188,53.325949],[-1.9299092,53.324885],[-1.9263813,53.3160111],[-1.9310415,53.309001],[-1.925425,53.3040794],[-1.9106696,53.3041058],[-1.9079844,53.2890975],[-1.892052,53.2885858],[-1.8981173,53.2781768],[-1.8846415,53.2706489],[-1.8808463,53.2726615],[-1.8809114,53.2667738],[-1.872459,53.2544873],[-1.8748928,53.2496533],[-1.8707193,53.246407],[-1.8608396,53.2498128],[-1.8468781,53.2489705],[-1.8206503,53.251978],[-1.8135366,53.2545977],[-1.8159839,53.2581027],[-1.7902878,53.2563957],[-1.7985658,53.2606552],[-1.8001877,53.2713133],[-1.8175193,53.2825478],[-1.8168603,53.2870063],[-1.823895,53.2919969],[-1.8226272,53.3027958],[-1.8061064,53.3170143],[-1.760665,53.3382228],[-1.7493557,53.3349594],[-1.7302072,53.3386135],[-1.7352917,53.334748],[-1.7249352,53.3314825],[-1.727589,53.3191274],[-1.7199651,53.3192657],[-1.7117223,53.3244418],[-1.7004516,53.323608],[-1.6968685,53.3347873],[-1.6855381,53.3355648],[-1.6709361,53.3495849],[-1.6733132,53.3693765],[-1.6637596,53.3808431],[-1.6618608,53.3914252],[-1.6538833,53.3918903]]],"type":"Polygon"},"id":"E02006872","properties":{"code":"E02006872","geography":"MSOA","name":"High Peak 013"},"type":"Feature"}],"type":"FeatureCollection"}
