{"features":[{"geometry":{"coordinates":[[[0.8141381,52.1707167],[0.7868887,52.1778786],[0.7686577,52.1749838],[0.7650203,52.1738879],[0.7615112,52.1579227],[0.7575405,52.1496676],[0.7653631,52.1403049],[0.7730556,52.1352872],[0.7645971,52.1255924],[0.7708003,52.1189384],[0.7684822,52.1074516],[0.7854098,52.0969117],[0.7839434,52.0931792],[0.7896046,52.0894361],[0.8032495,52.0930819],[0.8116416,52.083514],[0.8140483,52.0861768],[0.821351,52.085772],[0.8225957,52.080919],[0.8285868,52.0822423],[0.8406295,52.0908457],[0.8552097,52.0893647],[0.8618081,52.0809182],[0.8604022,52.0670249],[0.8652175,52.0649593],[0.8769556,52.0665591],[0.8792848,52.0704669],[0.8738764,52.0728034],[0.8791445,52.0790729],[0.8842893,52.078274],[0.885509,52.0827437],[0.8913766,52.0818167],[0.891831,52.0853147],[0.8990117,52.0813479],[0.9117552,52.0977142],[0.9098473,52.1001022],[0.9139061,52.0987511],[0.9206911,52.1048495],[0.9376555,52.1080266],[0.9319392,52.1142285],[0.9343441,52.1165663],[0.9417769,52.1178213],[0.9511559,52.1146972],[0.9536232,52.1202662],[0.9447028,52.1276302],[0.9487913,52.1378012],[0.9465188,52.1454809],[0.9383841,52.1524504],[0.9416443,52.1537092],[0.9380176,52.1575248],[0.9272451,52.1530201],[0.9186969,52.1559593],[0.8923374,52.1504557],[0.893851,52.1576607],[0.8814898,52.154703],[0.8687909,52.1655611],[0.8618902,52.1638147],[0.8594085,52.1659205],[0.8595038,52.1633739],[0.8445747,52.1612413],[0.8259404,52.1625822],[0.8141381,52.1707167]]],"type":"Polygon"},"id":"E02006227","properties":{"code":"E02006227","geography":"MSOA","name":"Babergh 001"},"type":"Feature"},{"geometry":{"coordinates":[[[0.7159372,52.1776738],[0.7033248,52.181061],[0.6944125,52.1801944],[0.6972992,52.1701077],[0.6908425,52.1663264],[0.691919,52.1578025],[0.6861529,52.1592954],[0.682014,52.1559826],[0.6742242,52.1567164],[0.6755106,52.1592452],[0.6636811,52.1563172],[0.6633891,52.1606858],[0.6453444,52.1601624],[0.6463458,52.1569308],[0.6413576,52.1562698],[0.6375118,52.1502184],[0.6402319,52.145804],[0.6333443,52.1424761],[0.6371779,52.1333784],[0.6268863,52.1309863],[0.6333227,52.1276986],[0.6302575,52.1229445],[0.6357983,52.1229455],[0.6326465,52.1152215],[0.6372568,52.1146475],[0.650516,52.1011898],[0.6568703,52.0854278],[0.6608303,52.0836856],[0.6724122,52.0861564],[0.6789147,52.0838718],[0.6830863,52.0870266],[0.6882229,52.0847618],[0.6913169,52.0918592],[0.6984977,52.0949349],[0.7001732,52.1019431],[0.707397,52.1046961],[0.7074863,52.1116222],[0.7002428,52.1109342],[0.7056044,52.1179497],[0.6991114,52.1231358],[0.716119,52.1156739],[0.7220356,52.1163019],[0.7304316,52.1108806],[0.7346088,52.1150725],[0.7297815,52.1187224],[0.7313863,52.1289855],[0.7372571,52.1312263],[0.7379967,52.1282887],[0.7478975,52.1275969],[0.7653631,52.1403049],[0.7575405,52.1496676],[0.7615112,52.1579227],[0.7419621,52.1593155],[0.7383058,52.1699555],[0.7327463,52.1647391],[0.7281324,52.1680843],[0.7227694,52.1650887],[0.7159372,52.1776738]]],"type":"Polygon"},"id":"E02006228","properties":{"code":"E02006228","geography":"MSOA","name":"Babergh 002"},"type":"Feature"},{"geometry":{"coordinates":[[[0.7684822,52.1074516],[0.7708003,52.1189384],[0.7645971,52.1255924],[0.7730556,52.1352872],[0.7653631,52.1403049],[0.7478975,52.1275969],[0.7379967,52.1282887],[0.7372571,52.1312263],[0.7313863,52.1289855],[0.7297815,52.1187224],[0.7346088,52.1150725],[0.7304316,52.1108806],[0.7220356,52.1163019],[0.716119,52.1156739],[0.6991114,52.1231358],[0.7056044,52.1179497],[0.7002428,52.1109342],[0.7074863,52.1116222],[0.707397,52.1046961],[0.7001732,52.1019431],[0.6984977,52.0949349],[0.6913169,52.0918592],[0.6882229,52.0847618],[0.6923969,52.0787147],[0.7020506,52.0794811],[0.7120871,52.0722287],[0.7098488,52.0669734],[0.703147,52.0652596],[0.7162318,52.048674],[0.7270717,52.0466523],[0.7406431,52.0570708],[0.738273,52.0620734],[0.7421218,52.066488],[0.7348926,52.0750209],[0.7368497,52.0804133],[0.7446748,52.0826501],[0.7495375,52.0956767],[0.7572198,52.0969517],[0.7684822,52.1074516]]],"type":"Polygon"},"id":"E02006229","properties":{"code":"E02006229","geography":"MSOA","name":"Babergh 003"},"type":"Feature"},{"geometry":{"coordinates":[[[0.9511559,52.1146972],[0.9417769,52.1178213],[0.9343441,52.1165663],[0.9319392,52.1142285],[0.9376555,52.1080266],[0.9206911,52.1048495],[0.9139061,52.0987511],[0.9098473,52.1001022],[0.9117552,52.0977142],[0.8990117,52.0813479],[0.9024303,52.0789623],[0.9053404,52.0804648],[0.906202,52.0756259],[0.8957453,52.0728759],[0.9054972,52.0673746],[0.9068828,52.0598685],[0.8868638,52.0584614],[0.8872932,52.0492034],[0.8756623,52.0453016],[0.8770168,52.0406371],[0.8662081,52.0350017],[0.8748438,52.0342993],[0.8765758,52.0313252],[0.8850822,52.0327294],[0.8886795,52.0360734],[0.8854987,52.0382927],[0.8933226,52.0424146],[0.9077979,52.0419957],[0.912115,52.0367138],[0.9160206,52.0371792],[0.9140606,52.0350286],[0.9347931,52.0432549],[0.9378889,52.0384925],[0.9521019,52.0371889],[0.954726,52.031464],[0.9653153,52.0310838],[0.9671402,52.0272513],[0.9964285,52.0297355],[1.015856,52.0357038],[1.0041514,52.0466878],[0.9973844,52.059813],[1.0127044,52.0719469],[1.0259911,52.0708724],[1.0281756,52.0767326],[1.0202725,52.0868553],[1.0065798,52.0935113],[1.0037775,52.0985947],[0.9707481,52.0956556],[0.9753311,52.1014103],[0.9730893,52.1069081],[0.9592704,52.1048403],[0.9511559,52.1146972]]],"type":"Polygon"},"id":"E02006230","properties":{"code":"E02006230","geography":"MSOA","name":"Babergh 004"},"type":"Feature"},{"geometry":{"coordinates":[[[[1.1606459,52.0326263],[1.1606109,52.0316055],[1.1661964,52.0298503],[1.1606459,52.0326263]]],[[[1.0464279,52.0780968],[1.0414336,52.0745633],[1.041406,52.0686038],[1.0259911,52.0708724],[1.0127044,52.0719469],[0.9973844,52.059813],[1.0041514,52.0466878],[1.015856,52.0357038],[1.0176153,52.0346698],[1.0336484,52.0277325],[1.0390848,52.0293553],[1.0430492,52.024732],[1.0487868,52.0257469],[1.0603262,52.0067713],[1.07519,52.0176842],[1.0952179,52.0182304],[1.0947859,52.0150709],[1.1150546,52.0107802],[1.1110677,52.0073708],[1.1162241,52.0052744],[1.1208575,52.0069643],[1.1203962,52.0036342],[1.1344759,51.9994894],[1.1402706,52.0003598],[1.1370086,52.0102283],[1.1665802,52.0187107],[1.161859,52.0267907],[1.1500043,52.0339907],[1.1504956,52.0342182],[1.1466824,52.0338637],[1.1295465,52.0299408],[1.1256282,52.0341773],[1.1176088,52.0353176],[1.1129125,52.034565],[1.1072454,52.0461715],[1.1142835,52.0485829],[1.1102207,52.0534872],[1.1219738,52.0574105],[1.1219929,52.0615002],[1.1091673,52.0709896],[1.0912028,52.0653854],[1.0648333,52.0653731],[1.05816,52.0665202],[1.0464279,52.0780968]]]],"type":"MultiPolygon"},"id":"E02006231","properties":{"code":"E02006231","geography":"MSOA","name":"Babergh 005"},"type":"Feature"},{"geometry":{"coordinates":[[[0.8285868,52.0822423],[0.8225957,52.080919],[0.821351,52.085772],[0.8140483,52.0861768],[0.8116416,52.083514],[0.8032495,52.0930819],[0.7896046,52.0894361],[0.7839434,52.0931792],[0.7854098,52.0969117],[0.7684822,52.1074516],[0.7572198,52.0969517],[0.7495375,52.0956767],[0.7446748,52.0826501],[0.7368497,52.0804133],[0.7348926,52.0750209],[0.7421218,52.066488],[0.738273,52.0620734],[0.7406431,52.0570708],[0.7561549,52.0415721],[0.7534761,52.0405352],[0.766951,52.0418172],[0.7807919,52.0369561],[0.7837679,52.0305821],[0.7784591,52.028471],[0.7810223,52.0236693],[0.7857691,52.0251034],[0.7867646,52.0202328],[0.7847016,52.0170593],[0.7726921,52.0205788],[0.7579907,52.0181119],[0.7554925,52.0207315],[0.7423783,52.0163448],[0.7384952,52.0106863],[0.749127,52.0055382],[0.7498318,51.9998467],[0.7611174,51.9974714],[0.7596357,51.9854176],[0.7746011,51.9825802],[0.7722283,51.9704136],[0.781438,51.9665013],[0.7850901,51.9674832],[0.787129,51.9631226],[0.7968175,51.9634308],[0.8076561,51.9617528],[0.8070965,51.9689134],[0.8144708,51.9697806],[0.817314,51.9832977],[0.8136688,51.9870522],[0.8039705,51.9834938],[0.802918,51.991727],[0.7920542,51.9912876],[0.7905399,52.0061847],[0.7861768,52.0079145],[0.7946536,52.0085175],[0.8024324,52.013523],[0.8009383,52.0210971],[0.8068318,52.0252858],[0.8095629,52.0233431],[0.836208,52.0263273],[0.8350421,52.0315177],[0.8125693,52.0434978],[0.8096567,52.0494363],[0.8135851,52.0544985],[0.8203624,52.0552266],[0.8120813,52.0553669],[0.8157523,52.058989],[0.8299372,52.0584454],[0.8410227,52.0630341],[0.8374958,52.0735652],[0.8339573,52.0752296],[0.827359,52.0726526],[0.824418,52.0749023],[0.8353007,52.07891],[0.8300649,52.07915],[0.8285868,52.0822423]]],"type":"Polygon"},"id":"E02006232","properties":{"code":"E02006232","geography":"MSOA","name":"Babergh 006"},"type":"Feature"},{"geometry":{"coordinates":[[[0.7534761,52.0405352],[0.7561549,52.0415721],[0.7406431,52.0570708],[0.7270717,52.0466523],[0.7162318,52.048674],[0.6983606,52.0468464],[0.6986614,52.0367417],[0.7124759,52.0348566],[0.706498,52.0295127],[0.7143649,52.027306],[0.7391451,52.0322649],[0.7372515,52.0356779],[0.7419087,52.0347586],[0.7534761,52.0405352]]],"type":"Polygon"},"id":"E02006233","properties":{"code":"E02006233","geography":"MSOA","name":"Babergh 007"},"type":"Feature"},{"geometry":{"coordinates":[[[0.7423783,52.0163448],[0.7554925,52.0207315],[0.7579907,52.0181119],[0.7726921,52.0205788],[0.7847016,52.0170593],[0.7867646,52.0202328],[0.7857691,52.0251034],[0.7810223,52.0236693],[0.7784591,52.028471],[0.7837679,52.0305821],[0.7807919,52.0369561],[0.766951,52.0418172],[0.7534761,52.0405352],[0.7419087,52.0347586],[0.7372515,52.0356779],[0.7391451,52.0322649],[0.7423783,52.0163448]]],"type":"Polygon"},"id":"E02006234","properties":{"code":"E02006234","geography":"MSOA","name":"Babergh 008"},"type":"Feature"},{"geometry":{"coordinates":[[[0.8990117,52.0813479],[0.891831,52.0853147],[0.8913766,52.0818167],[0.885509,52.0827437],[0.8842893,52.078274],[0.8791445,52.0790729],[0.8738764,52.0728034],[0.8792848,52.0704669],[0.8769556,52.0665591],[0.8652175,52.0649593],[0.8604022,52.0670249],[0.8618081,52.0809182],[0.8552097,52.0893647],[0.8406295,52.0908457],[0.8285868,52.0822423],[0.8300649,52.07915],[0.8353007,52.07891],[0.824418,52.0749023],[0.827359,52.0726526],[0.8339573,52.0752296],[0.8374958,52.0735652],[0.8410227,52.0630341],[0.8299372,52.0584454],[0.8157523,52.058989],[0.8120813,52.0553669],[0.8203624,52.0552266],[0.8135851,52.0544985],[0.8096567,52.0494363],[0.8125693,52.0434978],[0.8350421,52.0315177],[0.836208,52.0263273],[0.8095629,52.0233431],[0.8068318,52.0252858],[0.8009383,52.0210971],[0.8024324,52.013523],[0.7946536,52.0085175],[0.7861768,52.0079145],[0.7905399,52.0061847],[0.7920542,51.9912876],[0.802918,51.991727],[0.8039705,51.9834938],[0.8136688,51.9870522],[0.817314,51.9832977],[0.8144708,51.9697806],[0.8070965,51.9689134],[0.8076561,51.9617528],[0.8122846,51.9609243],[0.8151709,51.9669809],[0.8216101,51.9687071],[0.8489669,51.960761],[0.8581395,51.9628669],[0.8608689,51.9664803],[0.8698543,51.9692283],[0.8802692,51.9664839],[0.8896568,51.9733742],[0.9076412,51.9729587],[0.9228067,51.9762024],[0.9301472,51.9712242],[0.943263,51.9707197],[0.962458,51.9771532],[0.9641458,51.9731068],[0.9716183,51.974702],[0.9756981,51.9871251],[0.9678031,51.9989975],[0.9783428,51.9948624],[0.9889406,52.0030205],[0.9917647,52.0006021],[1.0025776,52.0025787],[0.9991956,52.0077171],[0.9930629,52.0064221],[1.0037799,52.009231],[1.0083598,52.0150636],[1.006153,52.0225816],[1.0176153,52.0346698],[1.015856,52.0357038],[0.9964285,52.0297355],[0.9671402,52.0272513],[0.9653153,52.0310838],[0.954726,52.031464],[0.9521019,52.0371889],[0.9378889,52.0384925],[0.9347931,52.0432549],[0.9140606,52.0350286],[0.9160206,52.0371792],[0.912115,52.0367138],[0.9077979,52.0419957],[0.8933226,52.0424146],[0.8854987,52.0382927],[0.8886795,52.0360734],[0.8850822,52.0327294],[0.8765758,52.0313252],[0.8748438,52.0342993],[0.8662081,52.0350017],[0.8770168,52.0406371],[0.8756623,52.0453016],[0.8872932,52.0492034],[0.8868638,52.0584614],[0.9068828,52.0598685],[0.9054972,52.0673746],[0.8957453,52.0728759],[0.906202,52.0756259],[0.9053404,52.0804648],[0.9024303,52.0789623],[0.8990117,52.0813479]]],"type":"Polygon"},"id":"E02006235","properties":{"code":"E02006235","geography":"MSOA","name":"Babergh 009"},"type":"Feature"},{"geometry":{"coordinates":[[[[1.0853526,51.9455949],[1.0847712,51.9456791],[1.0795202,51.9464396],[1.0811877,51.9446698],[1.0853526,51.9455949]]],[[[1.0582091,51.949841],[1.058567,51.949513],[1.0587185,51.9494699],[1.0582091,51.949841]]],[[[1.0176153,52.0346698],[1.006153,52.0225816],[1.0083598,52.0150636],[1.0037799,52.009231],[0.9930629,52.0064221],[0.9991956,52.0077171],[1.0025776,52.0025787],[0.9917647,52.0006021],[0.9889406,52.0030205],[0.9783428,51.9948624],[0.9678031,51.9989975],[0.9756981,51.9871251],[0.9716183,51.974702],[0.9641458,51.9731068],[0.9712748,51.9697921],[0.9709519,51.9623959],[0.9890543,51.961367],[0.9986801,51.9639549],[1.0115316,51.9550574],[1.024682,51.9548893],[1.0331219,51.9577464],[1.0399253,51.9559398],[1.0476818,51.959486],[1.0556983,51.9521418],[1.0621238,51.9491385],[1.0636087,51.9484443],[1.0587834,51.9559187],[1.0660207,51.9489831],[1.0689519,51.9545423],[1.0728995,51.9541352],[1.0694192,51.9552442],[1.0861019,51.9589207],[1.0997712,51.9537046],[1.1024575,51.9540654],[1.1010969,51.96249],[1.10526,51.9711475],[1.0972111,51.9734058],[1.0979407,51.9757223],[1.0887198,51.9747231],[1.0858885,51.9823115],[1.0901722,51.9808786],[1.0917254,51.9860743],[1.086051,51.9871089],[1.090049,51.995691],[1.0997651,51.9981992],[1.1110677,52.0073708],[1.1150546,52.0107802],[1.0947859,52.0150709],[1.0952179,52.0182304],[1.07519,52.0176842],[1.0603262,52.0067713],[1.0487868,52.0257469],[1.0430492,52.024732],[1.0390848,52.0293553],[1.0336484,52.0277325],[1.0176153,52.0346698]]]],"type":"MultiPolygon"},"id":"E02006236","properties":{"code":"E02006236","geography":"MSOA","name":"Babergh 010"},"type":"Feature"},{"geometry":{"coordinates":[[[1.1024575,51.9540654],[1.1185109,51.9562205],[1.1302834,51.9535281],[1.1322134,51.9575537],[1.1532186,51.9647903],[1.1598975,51.9652281],[1.1635124,51.9705122],[1.1630184,51.9672822],[1.1778412,51.9648123],[1.1873051,51.9557448],[1.2003858,51.9558835],[1.2101494,51.9559862],[1.2119027,51.9554117],[1.2196917,51.952859],[1.2429466,51.9614005],[1.2693555,51.9544798],[1.2737073,51.9556528],[1.2763633,51.9574758],[1.2790573,51.9603744],[1.2675383,51.9763971],[1.2710783,51.9758104],[1.2701979,51.9841734],[1.267273,51.9878551],[1.2443689,51.991876],[1.246914,51.9899613],[1.2430165,51.9900353],[1.2428868,51.9927415],[1.2312026,51.995835],[1.2115021,51.9966082],[1.2038469,52.0043856],[1.2034642,52.0047744],[1.1851576,52.0074029],[1.1711586,52.0156962],[1.1668509,52.0182472],[1.1665802,52.0187107],[1.1370086,52.0102283],[1.1402706,52.0003598],[1.1344759,51.9994894],[1.1203962,52.0036342],[1.1208575,52.0069643],[1.1162241,52.0052744],[1.1110677,52.0073708],[1.0997651,51.9981992],[1.090049,51.995691],[1.086051,51.9871089],[1.0917254,51.9860743],[1.0901722,51.9808786],[1.0858885,51.9823115],[1.0887198,51.9747231],[1.0979407,51.9757223],[1.0972111,51.9734058],[1.10526,51.9711475],[1.1010969,51.96249],[1.1024575,51.9540654]]],"type":"Polygon"},"id":"E02006237","properties":{"code":"E02006237","geography":"MSOA","name":"Babergh 011"},"type":"Feature"}],"type":"FeatureCollection"}
