{"features":[{"geometry":{"coordinates":[[[-2.0597188,52.009967],[-2.0607799,52.0146689],[-2.0848808,52.0104686],[-2.1126214,52.0152896],[-2.1315308,52.0058973],[-2.1352246,51.9996935],[-2.1418302,51.999793],[-2.1509121,51.9907456],[-2.1462948,51.9722373],[-2.1291175,51.9699017],[-2.116272,51.9739364],[-2.0856145,51.9729958],[-2.0869311,51.9849765],[-2.0729898,51.9875866],[-2.0734268,51.9918239],[-2.0660581,51.9939284],[-2.0719235,51.9950836],[-2.073609,52.0046324],[-2.0597188,52.009967]]],"type":"Polygon"},"id":"E02004666","properties":{"code":"E02004666","geography":"MSOA","name":"Tewkesbury 001"},"type":"Feature"},{"geometry":{"coordinates":[[[-2.1418302,51.999793],[-2.139071,52.0039403],[-2.1507402,52.0066039],[-2.1496626,52.0112466],[-2.1394045,52.027882],[-2.1172274,52.0336045],[-2.1183915,52.0420986],[-2.1581409,52.0501958],[-2.1713881,52.0475636],[-2.1806862,52.0417182],[-2.1769131,52.0225495],[-2.1876901,52.0190704],[-2.1840727,52.0138916],[-2.1641349,52.0033909],[-2.1647343,51.9960639],[-2.1748816,51.9961102],[-2.1767606,51.9842472],[-2.1918972,51.9730813],[-2.1730734,51.9653576],[-2.148863,51.9646297],[-2.1462948,51.9722373],[-2.1509121,51.9907456],[-2.1418302,51.999793]]],"type":"Polygon"},"id":"E02004667","properties":{"code":"E02004667","geography":"MSOA","name":"Tewkesbury 002"},"type":"Feature"},{"geometry":{"coordinates":[[[-1.8390604,52.0067732],[-1.8615529,52.0126177],[-1.8622784,52.0174752],[-1.913455,52.0444509],[-1.9221662,52.0356049],[-1.9270535,52.0366507],[-1.9317388,52.0299494],[-1.9475297,52.0318849],[-1.9513963,52.0377151],[-1.9841444,52.0358693],[-1.995198,52.0265531],[-1.9985738,52.0296576],[-2.0236756,52.0169381],[-2.0292797,52.0128299],[-2.0270083,52.0105898],[-2.0382603,52.009553],[-2.038364,52.0045908],[-2.0495219,52.0037865],[-2.0486911,52.0071053],[-2.0597188,52.009967],[-2.073609,52.0046324],[-2.0719235,51.9950836],[-2.0660581,51.9939284],[-2.0550829,51.9885775],[-2.0419637,51.9873599],[-2.0367944,51.9832935],[-2.0358704,51.9721427],[-2.0301134,51.9724847],[-2.0211981,51.9678764],[-2.015347,51.9725359],[-2.0164087,51.9789167],[-1.9996043,51.9797065],[-2.0025639,51.9712461],[-1.9949767,51.9616175],[-1.9980895,51.9573644],[-2.0051242,51.9582288],[-2.0020533,51.949786],[-2.0083884,51.9439484],[-2.0019252,51.9433275],[-2.0082897,51.9380151],[-2.0029726,51.9298229],[-1.9952025,51.927434],[-1.9915889,51.931434],[-1.9933862,51.9267821],[-1.9783996,51.9215468],[-1.9811735,51.9089303],[-1.9605893,51.9024499],[-1.9388719,51.9068951],[-1.9294165,51.904687],[-1.9273267,51.8964222],[-1.912169,51.8875927],[-1.9016768,51.8870037],[-1.8960256,51.8942925],[-1.8821869,51.8942703],[-1.8828961,51.8915243],[-1.8747898,51.8899515],[-1.8733954,51.8936491],[-1.8620594,51.8897138],[-1.8536187,51.8934219],[-1.8570392,51.896773],[-1.8807443,51.8967826],[-1.8684145,51.9080596],[-1.8878701,51.9118799],[-1.8867998,51.9172801],[-1.8919862,51.919596],[-1.8872153,51.9261841],[-1.9183709,51.9357765],[-1.9231967,51.9348806],[-1.9316698,51.9573159],[-1.9228605,51.963025],[-1.9166419,51.9627215],[-1.9109399,51.9693758],[-1.9006273,51.9671397],[-1.9028269,51.962327],[-1.89708,51.9603161],[-1.8745087,51.9650889],[-1.8754211,51.9715015],[-1.8684741,51.9805818],[-1.8834354,51.9836038],[-1.8653654,51.9951483],[-1.8450233,51.988092],[-1.812209,51.9880092],[-1.8016896,51.996885],[-1.8068846,52.0026628],[-1.8179407,52.0013743],[-1.8390604,52.0067732]]],"type":"Polygon"},"id":"E02004668","properties":{"code":"E02004668","geography":"MSOA","name":"Tewkesbury 003"},"type":"Feature"},{"geometry":{"coordinates":[[[-2.1748816,51.9961102],[-2.1811135,51.9994743],[-2.1794326,51.9948382],[-2.1850909,51.9905515],[-2.2028928,51.9963538],[-2.2206199,51.9954874],[-2.2513653,51.9665566],[-2.2705608,51.9689307],[-2.2675479,51.9531851],[-2.28332,51.951837],[-2.2813707,51.9455962],[-2.287911,51.9454843],[-2.2953111,51.9332407],[-2.2836128,51.9232888],[-2.2816209,51.9140527],[-2.2718867,51.9135256],[-2.2633774,51.9241011],[-2.2519046,51.9228187],[-2.2237901,51.9309224],[-2.2288783,51.9393354],[-2.2267261,51.948919],[-2.2151767,51.9515356],[-2.2110734,51.9591587],[-2.2021197,51.9633167],[-2.2050804,51.9578962],[-2.2014227,51.9545305],[-2.1988422,51.9565767],[-2.2010026,51.9528939],[-2.2061831,51.9528306],[-2.1959903,51.9490292],[-2.2024409,51.9442359],[-2.2020671,51.9395163],[-2.1672542,51.9434174],[-2.1635104,51.9476385],[-2.1538155,51.9461438],[-2.1575549,51.9395449],[-2.1342961,51.9267781],[-2.1389204,51.9201353],[-2.1249727,51.9189919],[-2.1107347,51.9161115],[-2.1033215,51.923348],[-2.1065587,51.9388654],[-2.0949243,51.9433152],[-2.0975704,51.9480016],[-2.0904976,51.9576986],[-2.0696505,51.9557056],[-2.0548158,51.958918],[-2.0540407,51.9558063],[-2.0476049,51.9556778],[-2.0356786,51.9560918],[-2.0439434,51.938061],[-2.0517296,51.9364234],[-2.0654497,51.9395931],[-2.0725228,51.9363883],[-2.0739315,51.9309597],[-2.067219,51.9296231],[-2.0399111,51.922391],[-2.0403745,51.9144283],[-2.0326867,51.9117864],[-2.0375489,51.9075682],[-2.033773,51.9044091],[-2.0102252,51.9029121],[-2.0096777,51.9058602],[-2.0004289,51.9040669],[-1.9941772,51.9149687],[-1.9811735,51.9089303],[-1.9783996,51.9215468],[-1.9933862,51.9267821],[-1.9915889,51.931434],[-1.9952025,51.927434],[-2.0029726,51.9298229],[-2.0082897,51.9380151],[-2.0019252,51.9433275],[-2.0083884,51.9439484],[-2.0020533,51.949786],[-2.0051242,51.9582288],[-1.9980895,51.9573644],[-1.9949767,51.9616175],[-2.0025639,51.9712461],[-1.9996043,51.9797065],[-2.0164087,51.9789167],[-2.015347,51.9725359],[-2.0211981,51.9678764],[-2.0301134,51.9724847],[-2.0358704,51.9721427],[-2.0367944,51.9832935],[-2.0419637,51.9873599],[-2.0550829,51.9885775],[-2.0660581,51.9939284],[-2.0734268,51.9918239],[-2.0729898,51.9875866],[-2.0869311,51.9849765],[-2.0856145,51.9729958],[-2.116272,51.9739364],[-2.1291175,51.9699017],[-2.1462948,51.9722373],[-2.148863,51.9646297],[-2.1730734,51.9653576],[-2.1918972,51.9730813],[-2.1767606,51.9842472],[-2.1748816,51.9961102]]],"type":"Polygon"},"id":"E02004669","properties":{"code":"E02004669","geography":"MSOA","name":"Tewkesbury 004"},"type":"Feature"},{"geometry":{"coordinates":[[[-2.1575549,51.9395449],[-2.1538155,51.9461438],[-2.1635104,51.9476385],[-2.1672542,51.9434174],[-2.2020671,51.9395163],[-2.2024409,51.9442359],[-2.1959903,51.9490292],[-2.2061831,51.9528306],[-2.2010026,51.9528939],[-2.1988422,51.9565767],[-2.2014227,51.9545305],[-2.2050804,51.9578962],[-2.2021197,51.9633167],[-2.2110734,51.9591587],[-2.2151767,51.9515356],[-2.2267261,51.948919],[-2.2288783,51.9393354],[-2.2237901,51.9309224],[-2.2519046,51.9228187],[-2.2633774,51.9241011],[-2.2718867,51.9135256],[-2.2816209,51.9140527],[-2.2836128,51.9232888],[-2.2872972,51.920965],[-2.2848194,51.9112668],[-2.2972215,51.9027901],[-2.2959433,51.8965037],[-2.2898914,51.8943063],[-2.3095228,51.8877957],[-2.319868,51.8884707],[-2.3346414,51.8761386],[-2.324862,51.8686876],[-2.3174546,51.8684432],[-2.3159221,51.8609679],[-2.3232128,51.8562023],[-2.34685,51.8544809],[-2.352749,51.8493985],[-2.351776,51.846218],[-2.3330465,51.850456],[-2.3076452,51.8469155],[-2.2982277,51.8325994],[-2.2916516,51.8335357],[-2.2857568,51.8412658],[-2.279358,51.8456522],[-2.2879052,51.8598312],[-2.2739908,51.8633629],[-2.2678733,51.8751723],[-2.2552278,51.87639],[-2.2467997,51.8808177],[-2.2382972,51.8831711],[-2.2285294,51.8818933],[-2.2265523,51.8902245],[-2.2163263,51.8950543],[-2.2187111,51.9009705],[-2.2111977,51.9135449],[-2.2101238,51.9100734],[-2.1895591,51.9052454],[-2.19183,51.907876],[-2.1877476,51.911033],[-2.1824985,51.9068399],[-2.1787914,51.909568],[-2.1850787,51.9230571],[-2.1787858,51.9268017],[-2.171983,51.9253899],[-2.1575549,51.9395449]]],"type":"Polygon"},"id":"E02004671","properties":{"code":"E02004671","geography":"MSOA","name":"Tewkesbury 006"},"type":"Feature"},{"geometry":{"coordinates":[[[-2.1521445,51.8655571],[-2.1484178,51.8749628],[-2.1557524,51.8835153],[-2.1563424,51.8958474],[-2.1634638,51.8998653],[-2.2042866,51.8973515],[-2.2024922,51.8860802],[-2.2050362,51.8847748],[-2.2097109,51.8882525],[-2.209028,51.8844593],[-2.1991187,51.8806035],[-2.1996829,51.8779053],[-2.1976802,51.8719032],[-2.1942522,51.8730841],[-2.1894107,51.8692594],[-2.1867211,51.8720202],[-2.18023,51.8716913],[-2.1735296,51.865454],[-2.160449,51.8651253],[-2.1606105,51.8611556],[-2.1521445,51.8655571]]],"type":"Polygon"},"id":"E02004672","properties":{"code":"E02004672","geography":"MSOA","name":"Tewkesbury 007"},"type":"Feature"},{"geometry":{"coordinates":[[[-2.1249727,51.9189919],[-2.1389204,51.9201353],[-2.1342961,51.9267781],[-2.1575549,51.9395449],[-2.171983,51.9253899],[-2.1787858,51.9268017],[-2.1850787,51.9230571],[-2.1787914,51.909568],[-2.1824985,51.9068399],[-2.1877476,51.911033],[-2.19183,51.907876],[-2.1895591,51.9052454],[-2.2101238,51.9100734],[-2.2111977,51.9135449],[-2.2187111,51.9009705],[-2.2163263,51.8950543],[-2.2265523,51.8902245],[-2.2285294,51.8818933],[-2.2278951,51.8820381],[-2.209028,51.8844593],[-2.2097109,51.8882525],[-2.2050362,51.8847748],[-2.2024922,51.8860802],[-2.2042866,51.8973515],[-2.1634638,51.8998653],[-2.1563424,51.8958474],[-2.1557524,51.8835153],[-2.1484178,51.8749628],[-2.1521445,51.8655571],[-2.1408776,51.8469719],[-2.1451249,51.845011],[-2.1407342,51.835783],[-2.1528515,51.8231471],[-2.1342604,51.819912],[-2.1211832,51.8195536],[-2.1149009,51.8227832],[-2.1105315,51.8281474],[-2.1131422,51.8344433],[-2.1009928,51.8375643],[-2.0987396,51.8433527],[-2.1075364,51.8427707],[-2.0968885,51.8512172],[-2.0984191,51.8565527],[-2.0821446,51.8549147],[-2.0719333,51.8601855],[-2.0707155,51.865007],[-2.0695538,51.8684799],[-2.0762495,51.8689546],[-2.0779309,51.8730652],[-2.0807117,51.8708519],[-2.0856889,51.8730997],[-2.0923291,51.8711645],[-2.0975269,51.8788566],[-2.1023361,51.8759919],[-2.1232098,51.8830784],[-2.1277344,51.8796916],[-2.1260876,51.8873809],[-2.1423963,51.8845044],[-2.1314515,51.9084305],[-2.1249727,51.9189919]]],"type":"Polygon"},"id":"E02004673","properties":{"code":"E02004673","geography":"MSOA","name":"Tewkesbury 008"},"type":"Feature"},{"geometry":{"coordinates":[[[-2.1521445,51.8655571],[-2.1606105,51.8611556],[-2.160449,51.8651253],[-2.1735296,51.865454],[-2.18023,51.8716913],[-2.1867211,51.8720202],[-2.1894107,51.8692594],[-2.1942522,51.8730841],[-2.1976802,51.8719032],[-2.1976147,51.8716962],[-2.1963929,51.8655783],[-2.1920485,51.8643467],[-2.1772689,51.8559252],[-2.1825241,51.8514112],[-2.1877235,51.8449874],[-2.178659,51.8418209],[-2.1797508,51.8382931],[-2.1600896,51.8245571],[-2.1528515,51.8231471],[-2.1407342,51.835783],[-2.1451249,51.845011],[-2.1408776,51.8469719],[-2.1521445,51.8655571]]],"type":"Polygon"},"id":"E02004674","properties":{"code":"E02004674","geography":"MSOA","name":"Tewkesbury 009"},"type":"Feature"},{"geometry":{"coordinates":[[[-2.0476049,51.9556778],[-2.0540407,51.9558063],[-2.0548158,51.958918],[-2.0696505,51.9557056],[-2.0904976,51.9576986],[-2.0975704,51.9480016],[-2.0949243,51.9433152],[-2.0820487,51.9413416],[-2.0769146,51.9446044],[-2.0587864,51.9419849],[-2.0659869,51.9512427],[-2.0578541,51.9506266],[-2.0586767,51.9544287],[-2.0500359,51.9495733],[-2.0476049,51.9556778]]],"type":"Polygon"},"id":"E02007034","properties":{"code":"E02007034","geography":"MSOA","name":"Tewkesbury 010"},"type":"Feature"},{"geometry":{"coordinates":[[[-2.0739315,51.9309597],[-2.0725228,51.9363883],[-2.0654497,51.9395931],[-2.0517296,51.9364234],[-2.0439434,51.938061],[-2.0356786,51.9560918],[-2.0476049,51.9556778],[-2.0500359,51.9495733],[-2.0586767,51.9544287],[-2.0578541,51.9506266],[-2.0659869,51.9512427],[-2.0587864,51.9419849],[-2.0769146,51.9446044],[-2.0820487,51.9413416],[-2.0949243,51.9433152],[-2.1065587,51.9388654],[-2.089674,51.9319589],[-2.0739315,51.9309597]]],"type":"Polygon"},"id":"E02007035","properties":{"code":"E02007035","geography":"MSOA","name":"Tewkesbury 011"},"type":"Feature"}],"type":"FeatureCollection"}
