{"features":[{"geometry":{"coordinates":[[[-1.9272579,52.7649478],[-1.9439489,52.7737424],[-1.9705412,52.765009],[-1.9731359,52.7615414],[-1.9967816,52.7636273],[-2.0184314,52.758844],[-2.0147857,52.7534938],[-2.0170214,52.7425498],[-2.0268071,52.7363013],[-2.0254476,52.7351417],[-2.0092398,52.7428271],[-1.9912588,52.7358791],[-1.9655145,52.7335737],[-1.9612837,52.7256917],[-1.9530205,52.7214464],[-1.9571391,52.7200563],[-1.9485879,52.7169029],[-1.9358676,52.7208387],[-1.9339401,52.7276628],[-1.9424712,52.7295886],[-1.9454543,52.743275],[-1.9558315,52.7480164],[-1.9590471,52.7503807],[-1.9475257,52.7561054],[-1.9535239,52.7645749],[-1.9495636,52.7701044],[-1.9416035,52.7690945],[-1.9423256,52.7621733],[-1.9354332,52.7636071],[-1.9352587,52.7665038],[-1.9272579,52.7649478]]],"type":"Polygon"},"id":"E02006118","properties":{"code":"E02006118","geography":"MSOA","name":"Cannock Chase 001"},"type":"Feature"},{"geometry":{"coordinates":[[[-1.9272579,52.7649478],[-1.9352587,52.7665038],[-1.9354332,52.7636071],[-1.9423256,52.7621733],[-1.9416035,52.7690945],[-1.9495636,52.7701044],[-1.9535239,52.7645749],[-1.9475257,52.7561054],[-1.9590471,52.7503807],[-1.9558315,52.7480164],[-1.9411688,52.7522563],[-1.9414899,52.7502242],[-1.9346093,52.7500684],[-1.9385026,52.7541105],[-1.9281261,52.7588815],[-1.9254862,52.7637434],[-1.9272579,52.7649478]]],"type":"Polygon"},"id":"E02006119","properties":{"code":"E02006119","geography":"MSOA","name":"Cannock Chase 002"},"type":"Feature"},{"geometry":{"coordinates":[[[-1.91491,52.7404388],[-1.9108122,52.7511736],[-1.917204,52.7546389],[-1.91138,52.7590356],[-1.9254862,52.7637434],[-1.9281261,52.7588815],[-1.9385026,52.7541105],[-1.9346093,52.7500684],[-1.9414899,52.7502242],[-1.9411688,52.7522563],[-1.9558315,52.7480164],[-1.9454543,52.743275],[-1.9424712,52.7295886],[-1.9339401,52.7276628],[-1.91491,52.7404388]]],"type":"Polygon"},"id":"E02006120","properties":{"code":"E02006120","geography":"MSOA","name":"Cannock Chase 003"},"type":"Feature"},{"geometry":{"coordinates":[[[-1.9571391,52.7200563],[-1.9530205,52.7214464],[-1.9612837,52.7256917],[-1.9655145,52.7335737],[-1.9912588,52.7358791],[-2.0092398,52.7428271],[-2.0254476,52.7351417],[-2.0257303,52.7349754],[-2.0289823,52.716725],[-2.0155741,52.7122522],[-2.0177366,52.7165238],[-2.0133693,52.716087],[-2.0119331,52.7227951],[-1.9974215,52.7177917],[-2.0021209,52.7151473],[-1.9992934,52.7139741],[-1.9947768,52.7178738],[-1.9870532,52.7169307],[-1.9781453,52.7134479],[-1.9571391,52.7200563]]],"type":"Polygon"},"id":"E02006121","properties":{"code":"E02006121","geography":"MSOA","name":"Cannock Chase 004"},"type":"Feature"},{"geometry":{"coordinates":[[[-1.9870532,52.7169307],[-1.9947768,52.7178738],[-1.9992934,52.7139741],[-2.0021209,52.7151473],[-1.9974215,52.7177917],[-2.0119331,52.7227951],[-2.0133693,52.716087],[-2.0177366,52.7165238],[-2.0155741,52.7122522],[-2.0289823,52.716725],[-2.0298381,52.7140289],[-2.0184873,52.7102631],[-2.0014626,52.7067609],[-1.9919926,52.7113531],[-1.9907686,52.7071256],[-1.981234,52.7099894],[-1.991213,52.7144176],[-1.9870532,52.7169307]]],"type":"Polygon"},"id":"E02006122","properties":{"code":"E02006122","geography":"MSOA","name":"Cannock Chase 005"},"type":"Feature"},{"geometry":{"coordinates":[[[-1.9326265,52.6962965],[-1.9294159,52.7049886],[-1.9155169,52.7106219],[-1.9373911,52.7140658],[-1.9358676,52.7208387],[-1.9485879,52.7169029],[-1.9571391,52.7200563],[-1.9781453,52.7134479],[-1.9733127,52.7081857],[-1.9831422,52.7058988],[-1.980194,52.7012137],[-1.9845295,52.6978331],[-1.9706095,52.6960275],[-1.9746887,52.6867191],[-1.954594,52.6845087],[-1.9481676,52.6908165],[-1.9496388,52.6956515],[-1.9326265,52.6962965]]],"type":"Polygon"},"id":"E02006123","properties":{"code":"E02006123","geography":"MSOA","name":"Cannock Chase 006"},"type":"Feature"},{"geometry":{"coordinates":[[[-2.0184873,52.7102631],[-2.0298381,52.7140289],[-2.031096,52.7050871],[-2.0390557,52.7023226],[-2.0349951,52.6965338],[-2.0209809,52.6996469],[-2.0184873,52.7102631]]],"type":"Polygon"},"id":"E02006124","properties":{"code":"E02006124","geography":"MSOA","name":"Cannock Chase 007"},"type":"Feature"},{"geometry":{"coordinates":[[[-2.0014626,52.7067609],[-2.0184873,52.7102631],[-2.0209809,52.6996469],[-2.0213443,52.6965727],[-2.0158165,52.6961793],[-2.0105047,52.6996859],[-2.0086742,52.6950492],[-2.0000159,52.700135],[-1.9947248,52.702279],[-2.0021986,52.7045703],[-2.0014626,52.7067609]]],"type":"Polygon"},"id":"E02006125","properties":{"code":"E02006125","geography":"MSOA","name":"Cannock Chase 008"},"type":"Feature"},{"geometry":{"coordinates":[[[-1.9781453,52.7134479],[-1.9870532,52.7169307],[-1.991213,52.7144176],[-1.981234,52.7099894],[-1.9907686,52.7071256],[-1.9919926,52.7113531],[-2.0014626,52.7067609],[-2.0021986,52.7045703],[-1.9947248,52.702279],[-2.0000159,52.700135],[-1.9866466,52.6916903],[-1.9980081,52.6869227],[-1.9886546,52.6878379],[-1.9820033,52.6808938],[-1.9746887,52.6867191],[-1.9706095,52.6960275],[-1.9845295,52.6978331],[-1.980194,52.7012137],[-1.9831422,52.7058988],[-1.9733127,52.7081857],[-1.9781453,52.7134479]]],"type":"Polygon"},"id":"E02006126","properties":{"code":"E02006126","geography":"MSOA","name":"Cannock Chase 009"},"type":"Feature"},{"geometry":{"coordinates":[[[-1.9980081,52.6869227],[-1.9866466,52.6916903],[-2.0000159,52.700135],[-2.0086742,52.6950492],[-2.0144123,52.6861986],[-1.9980081,52.6869227]]],"type":"Polygon"},"id":"E02006127","properties":{"code":"E02006127","geography":"MSOA","name":"Cannock Chase 010"},"type":"Feature"},{"geometry":{"coordinates":[[[-2.0209809,52.6996469],[-2.0349951,52.6965338],[-2.0390557,52.7023226],[-2.05449,52.6901198],[-2.0508324,52.685323],[-2.0451861,52.6873961],[-2.0390727,52.6831567],[-2.0306902,52.6911488],[-2.0144123,52.6861986],[-2.0086742,52.6950492],[-2.0105047,52.6996859],[-2.0158165,52.6961793],[-2.0213443,52.6965727],[-2.0209809,52.6996469]]],"type":"Polygon"},"id":"E02006128","properties":{"code":"E02006128","geography":"MSOA","name":"Cannock Chase 011"},"type":"Feature"},{"geometry":{"coordinates":[[[-2.0144123,52.6861986],[-2.0306902,52.6911488],[-2.0390727,52.6831567],[-2.0451861,52.6873961],[-2.0508324,52.685323],[-2.0513202,52.677958],[-2.036454,52.6715542],[-2.0227302,52.6722488],[-2.0144123,52.6861986]]],"type":"Polygon"},"id":"E02006129","properties":{"code":"E02006129","geography":"MSOA","name":"Cannock Chase 012"},"type":"Feature"},{"geometry":{"coordinates":[[[-1.9746887,52.6867191],[-1.9820033,52.6808938],[-1.9886546,52.6878379],[-1.9980081,52.6869227],[-2.0144123,52.6861986],[-2.0227302,52.6722488],[-2.0057733,52.6694957],[-2.0009142,52.664423],[-1.995001,52.6542619],[-1.9928887,52.6453199],[-1.9837401,52.6435816],[-1.9865566,52.6403932],[-1.9639983,52.6417615],[-1.9602869,52.6441471],[-1.9605584,52.6536958],[-1.9550801,52.654121],[-1.9599516,52.662021],[-1.9545757,52.6626251],[-1.9632321,52.6746166],[-1.9620057,52.6782084],[-1.9583172,52.6768116],[-1.9592566,52.6841326],[-1.954594,52.6845087],[-1.9746887,52.6867191]]],"type":"Polygon"},"id":"E02006130","properties":{"code":"E02006130","geography":"MSOA","name":"Cannock Chase 013"},"type":"Feature"}],"type":"FeatureCollection"}
