{"features":[{"geometry":{"coordinates":[[[-0.5950753,51.3783703],[-0.5980195,51.3863009],[-0.6185144,51.392388],[-0.6235122,51.389543],[-0.6163634,51.3835394],[-0.6209407,51.3851715],[-0.6259487,51.3828726],[-0.6404789,51.3873718],[-0.6676521,51.3845707],[-0.6814986,51.3796411],[-0.6801123,51.3729133],[-0.6752183,51.3750503],[-0.6702989,51.3701468],[-0.6838614,51.3609887],[-0.6699994,51.3587276],[-0.6623867,51.3541196],[-0.655214,51.3553511],[-0.6483986,51.3500198],[-0.6352827,51.3523173],[-0.6316879,51.3606394],[-0.6279975,51.3542064],[-0.6143059,51.3483979],[-0.6224137,51.3499851],[-0.6279601,51.3364026],[-0.6246984,51.3348213],[-0.6224988,51.3344511],[-0.6152647,51.335943],[-0.6081643,51.3396958],[-0.594035,51.3399616],[-0.5769174,51.336265],[-0.5728348,51.3422994],[-0.5485691,51.3480216],[-0.5552543,51.3619358],[-0.5696527,51.3603457],[-0.5739744,51.3708225],[-0.5950753,51.3783703]]],"type":"Polygon"},"id":"E02006416","properties":{"code":"E02006416","geography":"MSOA","name":"Surrey Heath 001"},"type":"Feature"},{"geometry":{"coordinates":[[[-0.6699994,51.3587276],[-0.6838614,51.3609887],[-0.6702989,51.3701468],[-0.6752183,51.3750503],[-0.6801123,51.3729133],[-0.6814986,51.3796411],[-0.7352759,51.3650401],[-0.7297044,51.3640599],[-0.7118292,51.3497475],[-0.7042766,51.3445198],[-0.6699994,51.3587276]]],"type":"Polygon"},"id":"E02006417","properties":{"code":"E02006417","geography":"MSOA","name":"Surrey Heath 002"},"type":"Feature"},{"geometry":{"coordinates":[[[-0.6483986,51.3500198],[-0.655214,51.3553511],[-0.6623867,51.3541196],[-0.6699994,51.3587276],[-0.7042766,51.3445198],[-0.6999025,51.3390096],[-0.6483986,51.3500198]]],"type":"Polygon"},"id":"E02006418","properties":{"code":"E02006418","geography":"MSOA","name":"Surrey Heath 003"},"type":"Feature"},{"geometry":{"coordinates":[[[-0.7118292,51.3497475],[-0.7297044,51.3640599],[-0.7352759,51.3650401],[-0.7353521,51.3650096],[-0.7480703,51.3523485],[-0.7557955,51.3450013],[-0.7403156,51.3362844],[-0.7316238,51.3403479],[-0.7333854,51.3430786],[-0.7118292,51.3497475]]],"type":"Polygon"},"id":"E02006419","properties":{"code":"E02006419","geography":"MSOA","name":"Surrey Heath 004"},"type":"Feature"},{"geometry":{"coordinates":[[[-0.7042766,51.3445198],[-0.7118292,51.3497475],[-0.7333854,51.3430786],[-0.7316238,51.3403479],[-0.7403156,51.3362844],[-0.7557955,51.3450013],[-0.7582098,51.3405683],[-0.7486786,51.3393323],[-0.7371411,51.3251413],[-0.7042766,51.3445198]]],"type":"Polygon"},"id":"E02006420","properties":{"code":"E02006420","geography":"MSOA","name":"Surrey Heath 005"},"type":"Feature"},{"geometry":{"coordinates":[[[[-0.6152647,51.335943],[-0.6224988,51.3344511],[-0.6134012,51.3325701],[-0.6152647,51.335943]]],[[[-0.6279975,51.3542064],[-0.6316879,51.3606394],[-0.6352827,51.3523173],[-0.6483986,51.3500198],[-0.6999025,51.3390096],[-0.6989931,51.3376024],[-0.6948465,51.3203285],[-0.6875136,51.313813],[-0.6713804,51.3173655],[-0.6468097,51.3119039],[-0.6242235,51.3192927],[-0.6246984,51.3348213],[-0.6279601,51.3364026],[-0.6224137,51.3499851],[-0.6143059,51.3483979],[-0.6279975,51.3542064]]]],"type":"MultiPolygon"},"id":"E02006421","properties":{"code":"E02006421","geography":"MSOA","name":"Surrey Heath 006"},"type":"Feature"},{"geometry":{"coordinates":[[[-0.6948465,51.3203285],[-0.6989931,51.3376024],[-0.7214866,51.3223758],[-0.7075864,51.324792],[-0.6948465,51.3203285]]],"type":"Polygon"},"id":"E02006422","properties":{"code":"E02006422","geography":"MSOA","name":"Surrey Heath 007"},"type":"Feature"},{"geometry":{"coordinates":[[[-0.7371411,51.3251413],[-0.7486786,51.3393323],[-0.7582098,51.3405683],[-0.7754834,51.3319588],[-0.7651749,51.3249447],[-0.7629206,51.3187306],[-0.7583097,51.3159257],[-0.742585,51.3222831],[-0.7371411,51.3251413]]],"type":"Polygon"},"id":"E02006423","properties":{"code":"E02006423","geography":"MSOA","name":"Surrey Heath 008"},"type":"Feature"},{"geometry":{"coordinates":[[[-0.6999025,51.3390096],[-0.7042766,51.3445198],[-0.7371411,51.3251413],[-0.742585,51.3222831],[-0.7381814,51.3185731],[-0.7239477,51.3219454],[-0.7214866,51.3223758],[-0.6989931,51.3376024],[-0.6999025,51.3390096]]],"type":"Polygon"},"id":"E02006424","properties":{"code":"E02006424","geography":"MSOA","name":"Surrey Heath 009"},"type":"Feature"},{"geometry":{"coordinates":[[[-0.7239477,51.3219454],[-0.7381814,51.3185731],[-0.742585,51.3222831],[-0.7583097,51.3159257],[-0.749712,51.311498],[-0.7456302,51.3100295],[-0.7384646,51.3128786],[-0.734282,51.3103037],[-0.7229997,51.3131404],[-0.7239477,51.3219454]]],"type":"Polygon"},"id":"E02006425","properties":{"code":"E02006425","geography":"MSOA","name":"Surrey Heath 010"},"type":"Feature"},{"geometry":{"coordinates":[[[-0.7394178,51.2989392],[-0.7321215,51.299657],[-0.7264013,51.2961246],[-0.7155267,51.3028991],[-0.72165,51.30425],[-0.7193244,51.3106715],[-0.7229997,51.3131404],[-0.734282,51.3103037],[-0.7384646,51.3128786],[-0.7456302,51.3100295],[-0.7394178,51.2989392]]],"type":"Polygon"},"id":"E02006426","properties":{"code":"E02006426","geography":"MSOA","name":"Surrey Heath 011"},"type":"Feature"},{"geometry":{"coordinates":[[[-0.6948465,51.3203285],[-0.7075864,51.324792],[-0.7214866,51.3223758],[-0.7239477,51.3219454],[-0.7229997,51.3131404],[-0.7193244,51.3106715],[-0.72165,51.30425],[-0.7155267,51.3028991],[-0.7264013,51.2961246],[-0.7321215,51.299657],[-0.7394178,51.2989392],[-0.7357096,51.2855645],[-0.7311124,51.2803621],[-0.7202533,51.2792488],[-0.7065778,51.2833197],[-0.6977414,51.2887733],[-0.6999247,51.2978329],[-0.6875136,51.313813],[-0.6948465,51.3203285]]],"type":"Polygon"},"id":"E02006427","properties":{"code":"E02006427","geography":"MSOA","name":"Surrey Heath 012"},"type":"Feature"}],"type":"FeatureCollection"}
