{"features":[{"geometry":{"coordinates":[[[-1.2590194,52.6820538],[-1.2814285,52.6921658],[-1.2752949,52.6982702],[-1.2853789,52.7025656],[-1.2827232,52.7146234],[-1.2891617,52.7128835],[-1.2917444,52.7094237],[-1.3181288,52.701962],[-1.3511062,52.694139],[-1.3426101,52.6901842],[-1.349965,52.6893727],[-1.348451,52.6850195],[-1.3583477,52.6828007],[-1.3605968,52.6764579],[-1.360652,52.6624434],[-1.3454146,52.6546711],[-1.3362809,52.6499481],[-1.3196835,52.6474333],[-1.3204588,52.6360287],[-1.3173014,52.6396981],[-1.3046914,52.6417554],[-1.3069822,52.6457828],[-1.2898687,52.6526012],[-1.2825131,52.65187],[-1.2847212,52.6596838],[-1.2746216,52.6632751],[-1.2879777,52.6676279],[-1.2860711,52.6712925],[-1.2759314,52.6761726],[-1.2695198,52.6692706],[-1.2660012,52.6738776],[-1.2596152,52.6662577],[-1.2535036,52.6695709],[-1.2590194,52.6820538]]],"type":"Polygon"},"id":"E02005377","properties":{"code":"E02005377","geography":"MSOA","name":"Hinckley and Bosworth 001"},"type":"Feature"},{"geometry":{"coordinates":[[[-1.2137719,52.6746624],[-1.2166128,52.6709143],[-1.2266008,52.669909],[-1.244744,52.6846013],[-1.2566908,52.6845859],[-1.2590194,52.6820538],[-1.2535036,52.6695709],[-1.2596152,52.6662577],[-1.2660012,52.6738776],[-1.2695198,52.6692706],[-1.260482,52.6573876],[-1.2497238,52.665089],[-1.2351838,52.6605519],[-1.2234009,52.6608241],[-1.2238182,52.6572888],[-1.2298598,52.65708],[-1.2241678,52.6504785],[-1.2159544,52.6519969],[-1.1996883,52.6643833],[-1.2016271,52.6688265],[-1.2137719,52.6746624]]],"type":"Polygon"},"id":"E02005378","properties":{"code":"E02005378","geography":"MSOA","name":"Hinckley and Bosworth 002"},"type":"Feature"},{"geometry":{"coordinates":[[[-1.2695198,52.6692706],[-1.2759314,52.6761726],[-1.2860711,52.6712925],[-1.2879777,52.6676279],[-1.2746216,52.6632751],[-1.2847212,52.6596838],[-1.2825131,52.65187],[-1.2644082,52.6450776],[-1.260572,52.6374259],[-1.2416799,52.6418239],[-1.2340591,52.6401865],[-1.2231519,52.6462439],[-1.2286335,52.6490477],[-1.2241678,52.6504785],[-1.2298598,52.65708],[-1.2238182,52.6572888],[-1.2234009,52.6608241],[-1.2351838,52.6605519],[-1.2497238,52.665089],[-1.260482,52.6573876],[-1.2695198,52.6692706]]],"type":"Polygon"},"id":"E02005379","properties":{"code":"E02005379","geography":"MSOA","name":"Hinckley and Bosworth 003"},"type":"Feature"},{"geometry":{"coordinates":[[[-1.3605968,52.6764579],[-1.3653085,52.68018],[-1.4019249,52.6720621],[-1.4181982,52.6782137],[-1.4214642,52.6833297],[-1.4304018,52.6806184],[-1.4457506,52.6639404],[-1.467176,52.6680472],[-1.4770258,52.6776977],[-1.4940213,52.6690306],[-1.5023676,52.677616],[-1.5368312,52.6657184],[-1.5517776,52.667438],[-1.5472959,52.6559563],[-1.5424287,52.6536087],[-1.5428104,52.647603],[-1.5560547,52.6382584],[-1.5710075,52.6361026],[-1.5646176,52.6312246],[-1.5675907,52.6226243],[-1.5544679,52.6147179],[-1.5607577,52.5961305],[-1.5475151,52.591929],[-1.5372221,52.5888714],[-1.5108924,52.5970615],[-1.5097908,52.6035791],[-1.5051015,52.6053674],[-1.4963335,52.603728],[-1.4933041,52.6068894],[-1.4964868,52.619972],[-1.4894865,52.6204646],[-1.4607815,52.6362197],[-1.4377551,52.6278024],[-1.4443801,52.6128097],[-1.4277505,52.6037471],[-1.4222402,52.6024826],[-1.4203309,52.605305],[-1.4176347,52.6025904],[-1.4035896,52.6094902],[-1.3909542,52.6086458],[-1.3793009,52.6115338],[-1.366406,52.6066048],[-1.3592415,52.6058948],[-1.3517375,52.6224556],[-1.3547137,52.6207862],[-1.3640447,52.6253703],[-1.35959,52.6316176],[-1.350711,52.6326473],[-1.3640551,52.6403644],[-1.359078,52.6435911],[-1.3498426,52.640897],[-1.3454146,52.6546711],[-1.360652,52.6624434],[-1.3605968,52.6764579]]],"type":"Polygon"},"id":"E02005380","properties":{"code":"E02005380","geography":"MSOA","name":"Hinckley and Bosworth 004"},"type":"Feature"},{"geometry":{"coordinates":[[[-1.2825131,52.65187],[-1.2898687,52.6526012],[-1.3069822,52.6457828],[-1.3046914,52.6417554],[-1.3173014,52.6396981],[-1.3204588,52.6360287],[-1.3196835,52.6474333],[-1.3362809,52.6499481],[-1.3454146,52.6546711],[-1.3498426,52.640897],[-1.359078,52.6435911],[-1.3640551,52.6403644],[-1.350711,52.6326473],[-1.35959,52.6316176],[-1.3640447,52.6253703],[-1.3547137,52.6207862],[-1.3517375,52.6224556],[-1.3592415,52.6058948],[-1.366406,52.6066048],[-1.3759686,52.5876256],[-1.3836117,52.5844544],[-1.3822446,52.5772411],[-1.3650141,52.5746975],[-1.3521684,52.5845528],[-1.3326353,52.5877142],[-1.3343249,52.5905473],[-1.3202482,52.5884806],[-1.3072789,52.5872017],[-1.3063658,52.5904347],[-1.3000877,52.5873016],[-1.2924257,52.59151],[-1.2745938,52.6009658],[-1.2798459,52.6072504],[-1.2759008,52.6090109],[-1.2803358,52.6089749],[-1.2742697,52.609774],[-1.2772953,52.6114835],[-1.2733676,52.6112771],[-1.2744892,52.6161517],[-1.2646301,52.6143992],[-1.2574224,52.6162351],[-1.2618855,52.6281935],[-1.2407657,52.6335987],[-1.2484684,52.6365181],[-1.2561202,52.6343335],[-1.260572,52.6374259],[-1.2644082,52.6450776],[-1.2825131,52.65187]]],"type":"Polygon"},"id":"E02005381","properties":{"code":"E02005381","geography":"MSOA","name":"Hinckley and Bosworth 005"},"type":"Feature"},{"geometry":{"coordinates":[[[-1.2690375,52.5724037],[-1.2701817,52.5748687],[-1.2971003,52.579992],[-1.2983524,52.5859724],[-1.2924257,52.59151],[-1.3000877,52.5873016],[-1.3063658,52.5904347],[-1.3072789,52.5872017],[-1.3202482,52.5884806],[-1.3239102,52.5797516],[-1.3351999,52.5759141],[-1.3286152,52.5658259],[-1.3191526,52.5670476],[-1.3118407,52.5620681],[-1.3020327,52.5613705],[-1.2893402,52.5645991],[-1.2822843,52.563216],[-1.2729257,52.565954],[-1.2690375,52.5724037]]],"type":"Polygon"},"id":"E02005382","properties":{"code":"E02005382","geography":"MSOA","name":"Hinckley and Bosworth 006"},"type":"Feature"},{"geometry":{"coordinates":[[[-1.3202482,52.5884806],[-1.3343249,52.5905473],[-1.3326353,52.5877142],[-1.3521684,52.5845528],[-1.3650141,52.5746975],[-1.3822446,52.5772411],[-1.3834802,52.5715128],[-1.3885158,52.5699496],[-1.3855146,52.5659575],[-1.3824021,52.5671759],[-1.3651148,52.5650953],[-1.3673289,52.5625124],[-1.3602221,52.5631836],[-1.3534418,52.5605009],[-1.3541279,52.5576647],[-1.3379219,52.555494],[-1.3286152,52.5658259],[-1.3351999,52.5759141],[-1.3239102,52.5797516],[-1.3202482,52.5884806]]],"type":"Polygon"},"id":"E02005383","properties":{"code":"E02005383","geography":"MSOA","name":"Hinckley and Bosworth 007"},"type":"Feature"},{"geometry":{"coordinates":[[[-1.366406,52.6066048],[-1.3793009,52.6115338],[-1.3909542,52.6086458],[-1.4035896,52.6094902],[-1.4176347,52.6025904],[-1.4203309,52.605305],[-1.4222402,52.6024826],[-1.4277505,52.6037471],[-1.4443801,52.6128097],[-1.4377551,52.6278024],[-1.4607815,52.6362197],[-1.4894865,52.6204646],[-1.4964868,52.619972],[-1.4933041,52.6068894],[-1.4963335,52.603728],[-1.5051015,52.6053674],[-1.5097908,52.6035791],[-1.5108924,52.5970615],[-1.5372221,52.5888714],[-1.5255806,52.5812047],[-1.522877,52.570583],[-1.5027149,52.5644527],[-1.4600028,52.5515731],[-1.4240937,52.5395705],[-1.4189681,52.5377506],[-1.4118585,52.5507546],[-1.3822993,52.5495539],[-1.3770403,52.5514856],[-1.3806576,52.5553518],[-1.3744227,52.5574536],[-1.3824021,52.5671759],[-1.3855146,52.5659575],[-1.3885158,52.5699496],[-1.3834802,52.5715128],[-1.3822446,52.5772411],[-1.3836117,52.5844544],[-1.3759686,52.5876256],[-1.366406,52.6066048]]],"type":"Polygon"},"id":"E02005384","properties":{"code":"E02005384","geography":"MSOA","name":"Hinckley and Bosworth 008"},"type":"Feature"},{"geometry":{"coordinates":[[[-1.3379219,52.555494],[-1.3541279,52.5576647],[-1.3534418,52.5605009],[-1.3602221,52.5631836],[-1.3673289,52.5625124],[-1.3651148,52.5650953],[-1.3824021,52.5671759],[-1.3744227,52.5574536],[-1.3806576,52.5553518],[-1.3770403,52.5514856],[-1.3721048,52.5556007],[-1.369054,52.5544837],[-1.356675,52.5398673],[-1.3365763,52.5485939],[-1.3379219,52.555494]]],"type":"Polygon"},"id":"E02005385","properties":{"code":"E02005385","geography":"MSOA","name":"Hinckley and Bosworth 009"},"type":"Feature"},{"geometry":{"coordinates":[[[-1.356675,52.5398673],[-1.369054,52.5544837],[-1.3721048,52.5556007],[-1.3770403,52.5514856],[-1.3822993,52.5495539],[-1.3773624,52.5488654],[-1.3785908,52.5462779],[-1.3747815,52.540266],[-1.3786791,52.5373306],[-1.3690492,52.538314],[-1.3670249,52.5359708],[-1.356675,52.5398673]]],"type":"Polygon"},"id":"E02005386","properties":{"code":"E02005386","geography":"MSOA","name":"Hinckley and Bosworth 010"},"type":"Feature"},{"geometry":{"coordinates":[[[-1.3822993,52.5495539],[-1.4118585,52.5507546],[-1.4189681,52.5377506],[-1.4173553,52.5344378],[-1.3948972,52.5269403],[-1.391564,52.5291087],[-1.3944104,52.5322171],[-1.3945966,52.5394716],[-1.3865446,52.5397381],[-1.3831699,52.5457658],[-1.3785908,52.5462779],[-1.3773624,52.5488654],[-1.3822993,52.5495539]]],"type":"Polygon"},"id":"E02005387","properties":{"code":"E02005387","geography":"MSOA","name":"Hinckley and Bosworth 011"},"type":"Feature"},{"geometry":{"coordinates":[[[-1.3670249,52.5359708],[-1.3690492,52.538314],[-1.3786791,52.5373306],[-1.3747815,52.540266],[-1.3785908,52.5462779],[-1.3831699,52.5457658],[-1.3865446,52.5397381],[-1.3945966,52.5394716],[-1.3944104,52.5322171],[-1.3761361,52.5344162],[-1.3670249,52.5359708]]],"type":"Polygon"},"id":"E02005388","properties":{"code":"E02005388","geography":"MSOA","name":"Hinckley and Bosworth 012"},"type":"Feature"},{"geometry":{"coordinates":[[[-1.3345624,52.543773],[-1.3365763,52.5485939],[-1.356675,52.5398673],[-1.3670249,52.5359708],[-1.3761361,52.5344162],[-1.3715494,52.5298093],[-1.3533245,52.5325414],[-1.3530096,52.527131],[-1.344888,52.5299382],[-1.341409,52.5277553],[-1.3323868,52.5317523],[-1.3345624,52.543773]]],"type":"Polygon"},"id":"E02005389","properties":{"code":"E02005389","geography":"MSOA","name":"Hinckley and Bosworth 013"},"type":"Feature"},{"geometry":{"coordinates":[[[-1.3323868,52.5317523],[-1.341409,52.5277553],[-1.344888,52.5299382],[-1.3530096,52.527131],[-1.3533245,52.5325414],[-1.3715494,52.5298093],[-1.3761361,52.5344162],[-1.3944104,52.5322171],[-1.391564,52.5291087],[-1.3948972,52.5269403],[-1.3250989,52.5010246],[-1.3179767,52.5150993],[-1.3304153,52.5245987],[-1.3323868,52.5317523]]],"type":"Polygon"},"id":"E02005390","properties":{"code":"E02005390","geography":"MSOA","name":"Hinckley and Bosworth 014"},"type":"Feature"}],"type":"FeatureCollection"}
