{"features":[{"geometry":{"coordinates":[[[-2.1812064,53.08978],[-2.1892718,53.1014156],[-2.1993033,53.1052659],[-2.2113152,53.1158075],[-2.2114242,53.1157458],[-2.223074,53.1037781],[-2.2379515,53.1010299],[-2.2196528,53.0913501],[-2.2304457,53.0903916],[-2.2328436,53.0840128],[-2.2413483,53.0819489],[-2.2425839,53.0759761],[-2.2419041,53.0673067],[-2.2341396,53.0643762],[-2.2387613,53.0733221],[-2.215879,53.0852931],[-2.2013706,53.0866829],[-2.1986152,53.0927023],[-2.1812064,53.08978]]],"type":"Polygon"},"id":"E02006158","properties":{"code":"E02006158","geography":"MSOA","name":"Newcastle-under-Lyme 001"},"type":"Feature"},{"geometry":{"coordinates":[[[-2.2413483,53.0819489],[-2.2328436,53.0840128],[-2.2304457,53.0903916],[-2.2196528,53.0913501],[-2.2379515,53.1010299],[-2.2465653,53.0901743],[-2.2413483,53.0819489]]],"type":"Polygon"},"id":"E02006159","properties":{"code":"E02006159","geography":"MSOA","name":"Newcastle-under-Lyme 002"},"type":"Feature"},{"geometry":{"coordinates":[[[-2.2465653,53.0901743],[-2.2532487,53.0939603],[-2.2571258,53.0899997],[-2.2771057,53.0858889],[-2.2752885,53.0821725],[-2.2816901,53.0802995],[-2.2757306,53.0678085],[-2.2648165,53.0732842],[-2.2597876,53.0675045],[-2.2559117,53.0683024],[-2.257077,53.0713846],[-2.2524498,53.0707624],[-2.252483,53.0735572],[-2.2590806,53.0736122],[-2.2635414,53.0772919],[-2.2425839,53.0759761],[-2.2413483,53.0819489],[-2.2465653,53.0901743]]],"type":"Polygon"},"id":"E02006160","properties":{"code":"E02006160","geography":"MSOA","name":"Newcastle-under-Lyme 003"},"type":"Feature"},{"geometry":{"coordinates":[[[-2.2425839,53.0759761],[-2.2635414,53.0772919],[-2.2590806,53.0736122],[-2.252483,53.0735572],[-2.2524498,53.0707624],[-2.257077,53.0713846],[-2.2559117,53.0683024],[-2.2597876,53.0675045],[-2.2648165,53.0732842],[-2.2757306,53.0678085],[-2.2674163,53.0572606],[-2.2745352,53.0424698],[-2.2635468,53.0418269],[-2.2603738,53.0490982],[-2.2522435,53.0509202],[-2.2537303,53.0479785],[-2.242145,53.0432875],[-2.2442344,53.0482257],[-2.2341459,53.0452156],[-2.2329804,53.0470269],[-2.2302241,53.0438219],[-2.2206656,53.0464985],[-2.2249052,53.0563397],[-2.2279172,53.0637137],[-2.2341396,53.0643762],[-2.2419041,53.0673067],[-2.2425839,53.0759761]]],"type":"Polygon"},"id":"E02006161","properties":{"code":"E02006161","geography":"MSOA","name":"Newcastle-under-Lyme 004"},"type":"Feature"},{"geometry":{"coordinates":[[[-2.2816901,53.0802995],[-2.2948104,53.0783107],[-2.3033964,53.0829447],[-2.3167277,53.0810984],[-2.329009,53.0765633],[-2.3305147,53.0708441],[-2.3486085,53.0558103],[-2.3413452,53.053594],[-2.3434227,53.0454447],[-2.3497075,53.0409523],[-2.3458815,53.0399738],[-2.3466968,53.0313419],[-2.3396005,53.027383],[-2.343461,53.0228925],[-2.3235798,53.0192714],[-2.3218818,53.0237296],[-2.3095657,53.0293553],[-2.2951209,53.0192433],[-2.2783801,53.0262191],[-2.2719898,53.0230885],[-2.2664876,53.0263932],[-2.2607977,53.0202921],[-2.2564244,53.0260533],[-2.2651375,53.0303717],[-2.26519,53.0367019],[-2.2757634,53.0392016],[-2.2745352,53.0424698],[-2.2674163,53.0572606],[-2.2757306,53.0678085],[-2.2816901,53.0802995]]],"type":"Polygon"},"id":"E02006162","properties":{"code":"E02006162","geography":"MSOA","name":"Newcastle-under-Lyme 005"},"type":"Feature"},{"geometry":{"coordinates":[[[-2.2206656,53.0464985],[-2.2302241,53.0438219],[-2.2329804,53.0470269],[-2.2341459,53.0452156],[-2.2442344,53.0482257],[-2.242145,53.0432875],[-2.2473666,53.0367229],[-2.2454909,53.0346863],[-2.2404573,53.0359675],[-2.2373451,53.0291371],[-2.2337645,53.0254241],[-2.2364084,53.0226923],[-2.2310215,53.0223663],[-2.2255028,53.0252274],[-2.2304508,53.0340989],[-2.2283717,53.0393931],[-2.215012,53.0404503],[-2.2196285,53.0449458],[-2.2206656,53.0464985]]],"type":"Polygon"},"id":"E02006163","properties":{"code":"E02006163","geography":"MSOA","name":"Newcastle-under-Lyme 006"},"type":"Feature"},{"geometry":{"coordinates":[[[-2.242145,53.0432875],[-2.2537303,53.0479785],[-2.2522435,53.0509202],[-2.2603738,53.0490982],[-2.2635468,53.0418269],[-2.2745352,53.0424698],[-2.2757634,53.0392016],[-2.26519,53.0367019],[-2.2651375,53.0303717],[-2.2564244,53.0260533],[-2.2607977,53.0202921],[-2.2602498,53.020122],[-2.2476225,53.0189329],[-2.2438519,53.0208281],[-2.2456797,53.0257835],[-2.2395444,53.0245016],[-2.2373451,53.0291371],[-2.2404573,53.0359675],[-2.2454909,53.0346863],[-2.2473666,53.0367229],[-2.242145,53.0432875]]],"type":"Polygon"},"id":"E02006164","properties":{"code":"E02006164","geography":"MSOA","name":"Newcastle-under-Lyme 007"},"type":"Feature"},{"geometry":{"coordinates":[[[-2.2083295,53.0344491],[-2.215012,53.0404503],[-2.2283717,53.0393931],[-2.2304508,53.0340989],[-2.2255614,53.03236],[-2.2214319,53.0346498],[-2.2230146,53.0311529],[-2.2158958,53.0303818],[-2.2147826,53.0245692],[-2.2057415,53.0257861],[-2.2083295,53.0344491]]],"type":"Polygon"},"id":"E02006165","properties":{"code":"E02006165","geography":"MSOA","name":"Newcastle-under-Lyme 008"},"type":"Feature"},{"geometry":{"coordinates":[[[-2.2057415,53.0257861],[-2.2147826,53.0245692],[-2.2158958,53.0303818],[-2.2230146,53.0311529],[-2.2214319,53.0346498],[-2.2255614,53.03236],[-2.2304508,53.0340989],[-2.2255028,53.0252274],[-2.2238091,53.0204543],[-2.2194472,53.0235442],[-2.2148403,53.0216163],[-2.2136547,53.0159462],[-2.2025534,53.0200068],[-2.2057415,53.0257861]]],"type":"Polygon"},"id":"E02006166","properties":{"code":"E02006166","geography":"MSOA","name":"Newcastle-under-Lyme 009"},"type":"Feature"},{"geometry":{"coordinates":[[[-2.2310215,53.0223663],[-2.2364084,53.0226923],[-2.2337645,53.0254241],[-2.2373451,53.0291371],[-2.2395444,53.0245016],[-2.2456797,53.0257835],[-2.2438519,53.0208281],[-2.2476225,53.0189329],[-2.2602498,53.020122],[-2.2682363,53.0216118],[-2.2730352,53.019464],[-2.2694248,53.0151274],[-2.2548401,53.0145694],[-2.2472458,53.010096],[-2.250864,53.0046872],[-2.2419935,53.0028075],[-2.2411404,53.0051084],[-2.2466098,53.0074331],[-2.2350206,53.0076702],[-2.2350199,53.0040904],[-2.2294484,53.0083306],[-2.2418382,53.0173322],[-2.2256207,53.0209864],[-2.2310215,53.0223663]]],"type":"Polygon"},"id":"E02006167","properties":{"code":"E02006167","geography":"MSOA","name":"Newcastle-under-Lyme 010"},"type":"Feature"},{"geometry":{"coordinates":[[[-2.2136547,53.0159462],[-2.2148403,53.0216163],[-2.2194472,53.0235442],[-2.2238091,53.0204543],[-2.2255028,53.0252274],[-2.2310215,53.0223663],[-2.2256207,53.0209864],[-2.2418382,53.0173322],[-2.2294484,53.0083306],[-2.2171703,53.0016529],[-2.2159632,53.0024404],[-2.2114973,53.0070173],[-2.215711,53.0110186],[-2.2136547,53.0159462]]],"type":"Polygon"},"id":"E02006168","properties":{"code":"E02006168","geography":"MSOA","name":"Newcastle-under-Lyme 011"},"type":"Feature"},{"geometry":{"coordinates":[[[-2.2607977,53.0202921],[-2.2664876,53.0263932],[-2.2719898,53.0230885],[-2.2783801,53.0262191],[-2.2951209,53.0192433],[-2.3095657,53.0293553],[-2.3218818,53.0237296],[-2.3235798,53.0192714],[-2.3165703,53.0157723],[-2.3247524,53.0088496],[-2.3172971,53.0075777],[-2.3086468,53.0011648],[-2.3100117,52.9955343],[-2.3043197,52.9942033],[-2.2925217,52.9937212],[-2.2912135,52.9898759],[-2.28631,52.9933351],[-2.260799,52.9890794],[-2.2621685,52.9921544],[-2.2547746,52.995715],[-2.2575385,53.0061368],[-2.2526994,53.0068596],[-2.2581498,53.0103901],[-2.2548401,53.0145694],[-2.2694248,53.0151274],[-2.2730352,53.019464],[-2.2682363,53.0216118],[-2.2602498,53.020122],[-2.2607977,53.0202921]]],"type":"Polygon"},"id":"E02006169","properties":{"code":"E02006169","geography":"MSOA","name":"Newcastle-under-Lyme 012"},"type":"Feature"},{"geometry":{"coordinates":[[[-2.3486085,53.0558103],[-2.3544709,53.0587277],[-2.3575788,53.0547025],[-2.3810209,53.0526472],[-2.382886,53.0488018],[-2.3861705,53.0335479],[-2.379785,53.0275751],[-2.384227,53.0261513],[-2.3704674,53.0145593],[-2.3830447,53.0077705],[-2.3807937,52.9983947],[-2.3766086,52.9976276],[-2.3798064,52.9910491],[-2.3702694,52.9821459],[-2.3707368,52.9774503],[-2.3514995,52.9798785],[-2.350233,52.9764218],[-2.3403988,52.9753843],[-2.3277445,52.9809458],[-2.3235098,52.978148],[-2.3031637,52.9847976],[-2.3043197,52.9942033],[-2.3100117,52.9955343],[-2.3086468,53.0011648],[-2.3172971,53.0075777],[-2.3247524,53.0088496],[-2.3165703,53.0157723],[-2.3235798,53.0192714],[-2.343461,53.0228925],[-2.3396005,53.027383],[-2.3466968,53.0313419],[-2.3458815,53.0399738],[-2.3497075,53.0409523],[-2.3434227,53.0454447],[-2.3413452,53.053594],[-2.3486085,53.0558103]]],"type":"Polygon"},"id":"E02006170","properties":{"code":"E02006170","geography":"MSOA","name":"Newcastle-under-Lyme 013"},"type":"Feature"},{"geometry":{"coordinates":[[[-2.2171703,53.0016529],[-2.2294484,53.0083306],[-2.2350199,53.0040904],[-2.2350206,53.0076702],[-2.2466098,53.0074331],[-2.2411404,53.0051084],[-2.2392453,52.9997407],[-2.2343783,53.0020903],[-2.2355361,52.999455],[-2.2286026,52.9974128],[-2.2351518,52.9947567],[-2.2299195,52.9903619],[-2.2350188,52.9883738],[-2.2194642,52.9897734],[-2.2101173,52.9845735],[-2.2171703,53.0016529]]],"type":"Polygon"},"id":"E02006171","properties":{"code":"E02006171","geography":"MSOA","name":"Newcastle-under-Lyme 014"},"type":"Feature"},{"geometry":{"coordinates":[[[-2.2411404,53.0051084],[-2.2419935,53.0028075],[-2.250864,53.0046872],[-2.2472458,53.010096],[-2.2548401,53.0145694],[-2.2581498,53.0103901],[-2.2526994,53.0068596],[-2.2575385,53.0061368],[-2.2547746,52.995715],[-2.2621685,52.9921544],[-2.260799,52.9890794],[-2.2324796,52.9806184],[-2.2271044,52.9763581],[-2.2125142,52.9805623],[-2.2043408,52.9813812],[-2.2101173,52.9845735],[-2.2194642,52.9897734],[-2.2350188,52.9883738],[-2.2299195,52.9903619],[-2.2351518,52.9947567],[-2.2286026,52.9974128],[-2.2355361,52.999455],[-2.2343783,53.0020903],[-2.2392453,52.9997407],[-2.2411404,53.0051084]]],"type":"Polygon"},"id":"E02006172","properties":{"code":"E02006172","geography":"MSOA","name":"Newcastle-under-Lyme 015"},"type":"Feature"},{"geometry":{"coordinates":[[[-2.260799,52.9890794],[-2.28631,52.9933351],[-2.2912135,52.9898759],[-2.2925217,52.9937212],[-2.3043197,52.9942033],[-2.3031637,52.9847976],[-2.3235098,52.978148],[-2.3277445,52.9809458],[-2.3403988,52.9753843],[-2.350233,52.9764218],[-2.3514995,52.9798785],[-2.3707368,52.9774503],[-2.379764,52.9759805],[-2.3828319,52.970642],[-2.3771415,52.9649194],[-2.3847506,52.9598062],[-2.3871091,52.952717],[-2.3937665,52.9505635],[-2.399153,52.9606155],[-2.4134523,52.9613947],[-2.4071749,52.9578623],[-2.4054411,52.9474478],[-2.4135417,52.9465865],[-2.4252695,52.9499829],[-2.4371229,52.9435837],[-2.4468822,52.9286129],[-2.450648,52.9250727],[-2.4558764,52.9256334],[-2.4557135,52.9154857],[-2.4605208,52.910329],[-2.470841,52.905845],[-2.4652445,52.8921471],[-2.456347,52.8852189],[-2.4575949,52.8790895],[-2.4461424,52.8739937],[-2.440412,52.8812128],[-2.4258514,52.8819873],[-2.4118585,52.8878753],[-2.3855549,52.8879739],[-2.378939,52.8917043],[-2.3826996,52.8978815],[-2.3791726,52.9128719],[-2.3579174,52.9185817],[-2.3473717,52.9140954],[-2.3328579,52.9281187],[-2.3199133,52.9324166],[-2.3020523,52.930027],[-2.2964114,52.9319321],[-2.2854753,52.9266025],[-2.2641137,52.9236805],[-2.263265,52.9339491],[-2.2731536,52.9411573],[-2.2780207,52.9512308],[-2.2702257,52.9633556],[-2.2644046,52.9628327],[-2.2625664,52.9656732],[-2.2535755,52.9639145],[-2.2271044,52.9763581],[-2.2324796,52.9806184],[-2.260799,52.9890794]]],"type":"Polygon"},"id":"E02006173","properties":{"code":"E02006173","geography":"MSOA","name":"Newcastle-under-Lyme 016"},"type":"Feature"}],"type":"FeatureCollection"}
