{"features":[{"geometry":{"coordinates":[[[0.5192337,51.8504404],[0.4867701,51.8426406],[0.4863933,51.8399191],[0.4670863,51.8395797],[0.4618768,51.8345971],[0.4530261,51.834622],[0.4456521,51.8288652],[0.4394292,51.8324538],[0.4310324,51.8318189],[0.4314469,51.836089],[0.4225507,51.8449552],[0.4240031,51.8541509],[0.4131429,51.8566518],[0.4138932,51.8455576],[0.4119403,51.8437265],[0.4079626,51.8461798],[0.4034925,51.8402689],[0.4099575,51.83657],[0.4065361,51.8354801],[0.4110474,51.8333659],[0.4062962,51.8307934],[0.4070609,51.8254],[0.4146416,51.8160494],[0.4271919,51.815729],[0.4384698,51.7995142],[0.4116105,51.7971236],[0.406191,51.7928224],[0.4242624,51.7820687],[0.4367014,51.7790612],[0.4409873,51.778521],[0.4463678,51.7826403],[0.4605544,51.7829618],[0.4705027,51.774137],[0.4644419,51.7701195],[0.4764607,51.7684763],[0.4765361,51.7659381],[0.4816097,51.7682496],[0.4841996,51.7645034],[0.5007289,51.7630772],[0.500089,51.772104],[0.5099982,51.7726687],[0.5257774,51.789792],[0.5222489,51.7943288],[0.5291599,51.7969419],[0.5237638,51.8034206],[0.5247328,51.8096779],[0.534156,51.810911],[0.5325529,51.8159255],[0.5225125,51.8221596],[0.5301639,51.8231806],[0.5301525,51.8295843],[0.529801,51.8364705],[0.520338,51.844007],[0.5249143,51.8492459],[0.5192337,51.8504404]]],"type":"Polygon"},"id":"E02004485","properties":{"code":"E02004485","geography":"MSOA","name":"Chelmsford 001"},"type":"Feature"},{"geometry":{"coordinates":[[[0.4841996,51.7645034],[0.4816097,51.7682496],[0.4765361,51.7659381],[0.4764607,51.7684763],[0.4644419,51.7701195],[0.4705027,51.774137],[0.4605544,51.7829618],[0.4463678,51.7826403],[0.4409873,51.778521],[0.4367014,51.7790612],[0.4500181,51.7662709],[0.4462731,51.7597025],[0.4532015,51.7533944],[0.4629353,51.7527998],[0.4625202,51.757904],[0.4683327,51.7574192],[0.4724988,51.7545338],[0.4685309,51.7550443],[0.4692242,51.7512497],[0.4623813,51.7482458],[0.4664198,51.744471],[0.4670819,51.7471968],[0.4730395,51.7458311],[0.4758349,51.7487814],[0.4748543,51.7535551],[0.4841276,51.7544587],[0.4847707,51.7582378],[0.4803687,51.7600128],[0.4841996,51.7645034]]],"type":"Polygon"},"id":"E02004486","properties":{"code":"E02004486","geography":"MSOA","name":"Chelmsford 002"},"type":"Feature"},{"geometry":{"coordinates":[[[0.4367014,51.7790612],[0.4242624,51.7820687],[0.406191,51.7928224],[0.4116105,51.7971236],[0.4384698,51.7995142],[0.4271919,51.815729],[0.4146416,51.8160494],[0.4130253,51.8132093],[0.4049243,51.8124826],[0.4045874,51.8074154],[0.4035513,51.8128566],[0.400003,51.8127547],[0.39885,51.8074904],[0.3899787,51.8050794],[0.3841377,51.7970677],[0.37829,51.7979811],[0.3827595,51.7998124],[0.3615422,51.8011432],[0.3590182,51.7981226],[0.3625899,51.7949003],[0.3405542,51.7944716],[0.3376713,51.7902545],[0.3407372,51.7864264],[0.3349267,51.785704],[0.3326089,51.7809682],[0.3352376,51.7759155],[0.3480754,51.7731943],[0.3466738,51.7675896],[0.341186,51.7529026],[0.3441098,51.7487139],[0.3508869,51.752526],[0.3622759,51.7524767],[0.3687928,51.756643],[0.3695993,51.7528174],[0.3794741,51.7530747],[0.3825715,51.749011],[0.3871742,51.7515447],[0.3985035,51.7494851],[0.401199,51.7456702],[0.3965004,51.7456414],[0.4016451,51.7435239],[0.4107475,51.7543952],[0.4268429,51.7550681],[0.437849,51.7521243],[0.4348429,51.7479546],[0.4415296,51.741288],[0.4479342,51.7461289],[0.4532015,51.7533944],[0.4462731,51.7597025],[0.4500181,51.7662709],[0.4367014,51.7790612]]],"type":"Polygon"},"id":"E02004487","properties":{"code":"E02004487","geography":"MSOA","name":"Chelmsford 003"},"type":"Feature"},{"geometry":{"coordinates":[[[0.5028236,51.7559051],[0.5000194,51.7590935],[0.5085831,51.7619855],[0.5099982,51.7726687],[0.500089,51.772104],[0.5007289,51.7630772],[0.4841996,51.7645034],[0.4803687,51.7600128],[0.4847707,51.7582378],[0.4841276,51.7544587],[0.4748543,51.7535551],[0.4758349,51.7487814],[0.4763551,51.7486113],[0.4822728,51.7494931],[0.4882904,51.7463902],[0.4955559,51.7496516],[0.4992399,51.7482496],[0.5028236,51.7559051]]],"type":"Polygon"},"id":"E02004488","properties":{"code":"E02004488","geography":"MSOA","name":"Chelmsford 004"},"type":"Feature"},{"geometry":{"coordinates":[[[0.5933388,51.7554416],[0.5844999,51.7511448],[0.5720718,51.7518939],[0.5583719,51.7753908],[0.541878,51.7904454],[0.5291599,51.7969419],[0.5222489,51.7943288],[0.5257774,51.789792],[0.5099982,51.7726687],[0.5085831,51.7619855],[0.5000194,51.7590935],[0.5028236,51.7559051],[0.5094475,51.7516846],[0.501902,51.7472287],[0.5089878,51.7489953],[0.5191287,51.7468255],[0.5079134,51.7421529],[0.5216845,51.7361872],[0.5213831,51.7412145],[0.5247765,51.7332132],[0.5405974,51.7299439],[0.5672917,51.7270127],[0.5802604,51.721856],[0.5948352,51.7260089],[0.5891021,51.7318148],[0.5951305,51.7340541],[0.5933388,51.7554416]]],"type":"Polygon"},"id":"E02004489","properties":{"code":"E02004489","geography":"MSOA","name":"Chelmsford 005"},"type":"Feature"},{"geometry":{"coordinates":[[[0.4758349,51.7487814],[0.4730395,51.7458311],[0.4670819,51.7471968],[0.4664198,51.744471],[0.4623813,51.7482458],[0.4692242,51.7512497],[0.4685309,51.7550443],[0.4724988,51.7545338],[0.4683327,51.7574192],[0.4625202,51.757904],[0.4629353,51.7527998],[0.4532015,51.7533944],[0.4479342,51.7461289],[0.4616865,51.744965],[0.4665941,51.7407514],[0.4685952,51.7408179],[0.4734772,51.7430561],[0.4763551,51.7486113],[0.4758349,51.7487814]]],"type":"Polygon"},"id":"E02004490","properties":{"code":"E02004490","geography":"MSOA","name":"Chelmsford 006"},"type":"Feature"},{"geometry":{"coordinates":[[[0.501902,51.7472287],[0.5094475,51.7516846],[0.5028236,51.7559051],[0.4992399,51.7482496],[0.4955559,51.7496516],[0.4882904,51.7463902],[0.4822728,51.7494931],[0.4763551,51.7486113],[0.4734772,51.7430561],[0.4785875,51.7409099],[0.4829757,51.7440775],[0.4839596,51.7407438],[0.4884611,51.7420832],[0.4879645,51.7373168],[0.4966314,51.7370057],[0.501902,51.7472287]]],"type":"Polygon"},"id":"E02004491","properties":{"code":"E02004491","geography":"MSOA","name":"Chelmsford 007"},"type":"Feature"},{"geometry":{"coordinates":[[[0.5247765,51.7332132],[0.5213831,51.7412145],[0.5216845,51.7361872],[0.5079134,51.7421529],[0.5191287,51.7468255],[0.5089878,51.7489953],[0.501902,51.7472287],[0.4966314,51.7370057],[0.4879645,51.7373168],[0.4884611,51.7420832],[0.4839596,51.7407438],[0.4858937,51.735971],[0.4812371,51.7326903],[0.491918,51.7281742],[0.4982493,51.7308023],[0.5076688,51.7296513],[0.5074984,51.7332421],[0.5021348,51.7341566],[0.5069783,51.7370414],[0.5179307,51.728648],[0.5247765,51.7332132]]],"type":"Polygon"},"id":"E02004492","properties":{"code":"E02004492","geography":"MSOA","name":"Chelmsford 008"},"type":"Feature"},{"geometry":{"coordinates":[[[0.4665941,51.7407514],[0.4616865,51.744965],[0.4479342,51.7461289],[0.4415296,51.741288],[0.4443802,51.7365967],[0.4565923,51.7335364],[0.4512941,51.7303413],[0.4448403,51.7328619],[0.443165,51.719747],[0.4520767,51.7190894],[0.456509,51.721869],[0.4653162,51.7346307],[0.4637048,51.7411461],[0.4665941,51.7407514]]],"type":"Polygon"},"id":"E02004493","properties":{"code":"E02004493","geography":"MSOA","name":"Chelmsford 009"},"type":"Feature"},{"geometry":{"coordinates":[[[0.4415296,51.741288],[0.4348429,51.7479546],[0.437849,51.7521243],[0.4268429,51.7550681],[0.4107475,51.7543952],[0.4016451,51.7435239],[0.3965004,51.7456414],[0.401199,51.7456702],[0.3985035,51.7494851],[0.3871742,51.7515447],[0.3825715,51.749011],[0.3794741,51.7530747],[0.3695993,51.7528174],[0.3687928,51.756643],[0.3622759,51.7524767],[0.3508869,51.752526],[0.3441098,51.7487139],[0.3474249,51.7304342],[0.3339725,51.7170078],[0.3449424,51.6955153],[0.3605253,51.6903799],[0.3766717,51.6984986],[0.3855469,51.6974718],[0.3945652,51.7002066],[0.4046102,51.7086358],[0.4194262,51.7028656],[0.428676,51.7049142],[0.434982,51.7018941],[0.4472574,51.7139997],[0.443165,51.719747],[0.4448403,51.7328619],[0.4512941,51.7303413],[0.4565923,51.7335364],[0.4443802,51.7365967],[0.4415296,51.741288]]],"type":"Polygon"},"id":"E02004495","properties":{"code":"E02004495","geography":"MSOA","name":"Chelmsford 011"},"type":"Feature"},{"geometry":{"coordinates":[[[0.4820583,51.7265351],[0.4731781,51.7292755],[0.4710526,51.7272437],[0.464069,51.7251907],[0.4640087,51.7216295],[0.456509,51.721869],[0.4520767,51.7190894],[0.443165,51.719747],[0.4472574,51.7139997],[0.4481256,51.7106551],[0.4542284,51.7184386],[0.4648199,51.7146007],[0.4727231,51.7160313],[0.4740743,51.722399],[0.4838154,51.7221832],[0.4820583,51.7265351]]],"type":"Polygon"},"id":"E02004496","properties":{"code":"E02004496","geography":"MSOA","name":"Chelmsford 012"},"type":"Feature"},{"geometry":{"coordinates":[[[0.5247765,51.7332132],[0.5179307,51.728648],[0.5069783,51.7370414],[0.5021348,51.7341566],[0.5074984,51.7332421],[0.5076688,51.7296513],[0.4982493,51.7308023],[0.491918,51.7281742],[0.4911821,51.7258039],[0.495732,51.725768],[0.4953042,51.7234093],[0.4881603,51.7217046],[0.4950624,51.719779],[0.4973595,51.71563],[0.5031956,51.7178204],[0.5066812,51.7160378],[0.5030886,51.7131043],[0.5069578,51.7123661],[0.5038519,51.7074758],[0.5070655,51.702088],[0.5172589,51.7031142],[0.5260562,51.6951243],[0.5172596,51.6868961],[0.5271088,51.6864223],[0.5504208,51.6911252],[0.5536556,51.6944001],[0.5575517,51.6928833],[0.5619072,51.7042686],[0.5533443,51.7074228],[0.5534922,51.714545],[0.5395277,51.720035],[0.5405974,51.7299439],[0.5247765,51.7332132]]],"type":"Polygon"},"id":"E02004497","properties":{"code":"E02004497","geography":"MSOA","name":"Chelmsford 013"},"type":"Feature"},{"geometry":{"coordinates":[[[0.4911821,51.7258039],[0.4820583,51.7265351],[0.4838154,51.7221832],[0.4808335,51.7155203],[0.4690257,51.7087215],[0.4819014,51.7066843],[0.4884077,51.7103892],[0.4949281,51.7098771],[0.4972155,51.7032918],[0.5070655,51.702088],[0.5038519,51.7074758],[0.5069578,51.7123661],[0.5030886,51.7131043],[0.5066812,51.7160378],[0.5031956,51.7178204],[0.4973595,51.71563],[0.4950624,51.719779],[0.4881603,51.7217046],[0.4953042,51.7234093],[0.495732,51.725768],[0.4911821,51.7258039]]],"type":"Polygon"},"id":"E02004498","properties":{"code":"E02004498","geography":"MSOA","name":"Chelmsford 014"},"type":"Feature"},{"geometry":{"coordinates":[[[0.4838154,51.7221832],[0.4740743,51.722399],[0.4727231,51.7160313],[0.4648199,51.7146007],[0.4690257,51.7087215],[0.4808335,51.7155203],[0.4838154,51.7221832]]],"type":"Polygon"},"id":"E02004499","properties":{"code":"E02004499","geography":"MSOA","name":"Chelmsford 015"},"type":"Feature"},{"geometry":{"coordinates":[[[0.5948352,51.7260089],[0.5802604,51.721856],[0.5672917,51.7270127],[0.5405974,51.7299439],[0.5395277,51.720035],[0.5534922,51.714545],[0.5533443,51.7074228],[0.5619072,51.7042686],[0.5575517,51.6928833],[0.5536556,51.6944001],[0.5504208,51.6911252],[0.5271088,51.6864223],[0.5254501,51.6672625],[0.5306899,51.6542869],[0.5611736,51.6661644],[0.5618165,51.6701223],[0.5691831,51.6721568],[0.5796622,51.6672557],[0.5817432,51.6598534],[0.5896132,51.6580468],[0.6234894,51.6638866],[0.6197387,51.6753343],[0.6088095,51.6819413],[0.6125752,51.6987519],[0.6045371,51.7003821],[0.6019845,51.7088454],[0.6111253,51.7227805],[0.5948352,51.7260089]]],"type":"Polygon"},"id":"E02004500","properties":{"code":"E02004500","geography":"MSOA","name":"Chelmsford 016"},"type":"Feature"},{"geometry":{"coordinates":[[[0.4648199,51.7146007],[0.4542284,51.7184386],[0.4481256,51.7106551],[0.4492739,51.7055053],[0.4416925,51.7005245],[0.4456906,51.6946077],[0.4408307,51.689892],[0.4454818,51.6887198],[0.4525679,51.6932347],[0.4666147,51.6834797],[0.497194,51.6916372],[0.5098962,51.6852672],[0.5172596,51.6868961],[0.5260562,51.6951243],[0.5172589,51.7031142],[0.5070655,51.702088],[0.4972155,51.7032918],[0.4949281,51.7098771],[0.4884077,51.7103892],[0.4819014,51.7066843],[0.4690257,51.7087215],[0.4648199,51.7146007]]],"type":"Polygon"},"id":"E02004501","properties":{"code":"E02004501","geography":"MSOA","name":"Chelmsford 017"},"type":"Feature"},{"geometry":{"coordinates":[[[0.4481256,51.7106551],[0.4472574,51.7139997],[0.434982,51.7018941],[0.428676,51.7049142],[0.4194262,51.7028656],[0.4046102,51.7086358],[0.3945652,51.7002066],[0.3855469,51.6974718],[0.3766717,51.6984986],[0.3818011,51.6936419],[0.3919995,51.6914525],[0.4014713,51.6824174],[0.3977999,51.6794563],[0.4048701,51.6786885],[0.4125336,51.6708925],[0.4002241,51.6622439],[0.4027349,51.6596523],[0.3969686,51.653752],[0.4023012,51.6509922],[0.4308555,51.6496576],[0.4458251,51.6434808],[0.4428664,51.6369944],[0.446761,51.6267385],[0.4630469,51.6236145],[0.4675892,51.6238496],[0.4814372,51.6255547],[0.5048018,51.6217124],[0.5047937,51.6243681],[0.5128726,51.6266097],[0.5096847,51.6349011],[0.5162448,51.6358634],[0.5162226,51.6471898],[0.5302138,51.6493758],[0.5306899,51.6542869],[0.5254501,51.6672625],[0.5271088,51.6864223],[0.5172596,51.6868961],[0.5098962,51.6852672],[0.497194,51.6916372],[0.4666147,51.6834797],[0.4525679,51.6932347],[0.4454818,51.6887198],[0.4408307,51.689892],[0.4456906,51.6946077],[0.4416925,51.7005245],[0.4492739,51.7055053],[0.4481256,51.7106551]]],"type":"Polygon"},"id":"E02004502","properties":{"code":"E02004502","geography":"MSOA","name":"Chelmsford 018"},"type":"Feature"},{"geometry":{"coordinates":[[[0.6275758,51.649923],[0.6234894,51.6638866],[0.5896132,51.6580468],[0.5817432,51.6598534],[0.5832235,51.647679],[0.5957022,51.6494761],[0.5979993,51.647613],[0.6012965,51.648638],[0.6067031,51.6419479],[0.6166623,51.641996],[0.6234219,51.6499472],[0.6275758,51.649923]]],"type":"Polygon"},"id":"E02004503","properties":{"code":"E02004503","geography":"MSOA","name":"Chelmsford 019"},"type":"Feature"},{"geometry":{"coordinates":[[[0.6295798,51.6393317],[0.6287624,51.6394471],[0.6275758,51.649923],[0.6234219,51.6499472],[0.6166623,51.641996],[0.6067031,51.6419479],[0.6012965,51.648638],[0.5979993,51.647613],[0.5944907,51.6374831],[0.6028337,51.6378974],[0.6068913,51.6295402],[0.607731,51.6298112],[0.626883,51.6334455],[0.642583,51.6326416],[0.6466723,51.636627],[0.6303595,51.6374804],[0.6295798,51.6393317]]],"type":"Polygon"},"id":"E02004504","properties":{"code":"E02004504","geography":"MSOA","name":"Chelmsford 020"},"type":"Feature"},{"geometry":{"coordinates":[[[0.5817432,51.6598534],[0.5796622,51.6672557],[0.5691831,51.6721568],[0.5618165,51.6701223],[0.5611736,51.6661644],[0.5306899,51.6542869],[0.5302138,51.6493758],[0.5162226,51.6471898],[0.5162448,51.6358634],[0.5096847,51.6349011],[0.5128726,51.6266097],[0.5202328,51.6254064],[0.520795,51.6187871],[0.5371968,51.6197096],[0.5624498,51.6178483],[0.5662429,51.6225526],[0.578456,51.6250027],[0.5868944,51.6233852],[0.587878,51.6308459],[0.6051538,51.6297676],[0.6066516,51.6294628],[0.6068913,51.6295402],[0.6028337,51.6378974],[0.5944907,51.6374831],[0.5979993,51.647613],[0.5957022,51.6494761],[0.5832235,51.647679],[0.5817432,51.6598534]]],"type":"Polygon"},"id":"E02004505","properties":{"code":"E02004505","geography":"MSOA","name":"Chelmsford 021"},"type":"Feature"},{"geometry":{"coordinates":[[[0.4839596,51.7407438],[0.4829757,51.7440775],[0.4785875,51.7409099],[0.4734772,51.7430561],[0.4685952,51.7408179],[0.4666902,51.7374537],[0.4726648,51.7376974],[0.4741102,51.7330169],[0.4681705,51.7291585],[0.4710526,51.7272437],[0.4731781,51.7292755],[0.4820583,51.7265351],[0.4911821,51.7258039],[0.491918,51.7281742],[0.4812371,51.7326903],[0.4858937,51.735971],[0.4839596,51.7407438]]],"type":"Polygon"},"id":"E02006978","properties":{"code":"E02006978","geography":"MSOA","name":"Chelmsford 022"},"type":"Feature"},{"geometry":{"coordinates":[[[0.4665941,51.7407514],[0.4637048,51.7411461],[0.4653162,51.7346307],[0.456509,51.721869],[0.4640087,51.7216295],[0.464069,51.7251907],[0.4710526,51.7272437],[0.4681705,51.7291585],[0.4741102,51.7330169],[0.4726648,51.7376974],[0.4666902,51.7374537],[0.4685952,51.7408179],[0.4665941,51.7407514]]],"type":"Polygon"},"id":"E02006979","properties":{"code":"E02006979","geography":"MSOA","name":"Chelmsford 023"},"type":"Feature"}],"type":"FeatureCollection"}
