{"features":[{"geometry":{"coordinates":[[[-3.5027339,50.7552807],[-3.5127242,50.761465],[-3.5258319,50.7583588],[-3.526327,50.7553123],[-3.5347875,50.7560242],[-3.548172,50.7473352],[-3.550267,50.7487886],[-3.5520104,50.7451411],[-3.5452133,50.7314198],[-3.5397214,50.7312252],[-3.5316906,50.7351639],[-3.5166355,50.7344668],[-3.5141306,50.7379033],[-3.5097555,50.7358331],[-3.5119755,50.7422843],[-3.5027339,50.7552807]]],"type":"Polygon"},"id":"E02004149","properties":{"code":"E02004149","geography":"MSOA","name":"Exeter 001"},"type":"Feature"},{"geometry":{"coordinates":[[[-3.4858741,50.7507512],[-3.5027339,50.7552807],[-3.5119755,50.7422843],[-3.5097555,50.7358331],[-3.5141306,50.7379033],[-3.5166355,50.7344668],[-3.514074,50.7305185],[-3.5081933,50.7347241],[-3.5022041,50.73355],[-3.4996325,50.7368171],[-3.4969718,50.7353931],[-3.4979828,50.7381477],[-3.4927567,50.7372486],[-3.4929718,50.7433131],[-3.4858741,50.7507512]]],"type":"Polygon"},"id":"E02004150","properties":{"code":"E02004150","geography":"MSOA","name":"Exeter 002"},"type":"Feature"},{"geometry":{"coordinates":[[[-3.4623494,50.7321523],[-3.4604192,50.7392081],[-3.4659865,50.7421214],[-3.4650223,50.7449743],[-3.4810063,50.7469974],[-3.4858741,50.7507512],[-3.4929718,50.7433131],[-3.4927567,50.7372486],[-3.4979828,50.7381477],[-3.4969718,50.7353931],[-3.4996325,50.7368171],[-3.5022041,50.73355],[-3.5011432,50.7316023],[-3.4815969,50.7341759],[-3.4812465,50.7311614],[-3.4623494,50.7321523]]],"type":"Polygon"},"id":"E02004151","properties":{"code":"E02004151","geography":"MSOA","name":"Exeter 003"},"type":"Feature"},{"geometry":{"coordinates":[[[-3.5166355,50.7344668],[-3.5316906,50.7351639],[-3.5397214,50.7312252],[-3.5269333,50.7255687],[-3.5141655,50.7301228],[-3.514074,50.7305185],[-3.5166355,50.7344668]]],"type":"Polygon"},"id":"E02004152","properties":{"code":"E02004152","geography":"MSOA","name":"Exeter 004"},"type":"Feature"},{"geometry":{"coordinates":[[[-3.5520104,50.7451411],[-3.5696405,50.7450597],[-3.5605609,50.7301124],[-3.570203,50.7278076],[-3.5676553,50.7257033],[-3.5577794,50.7279292],[-3.5556465,50.7266529],[-3.5631358,50.7252226],[-3.5490343,50.720662],[-3.5398708,50.7226938],[-3.5452133,50.7314198],[-3.5520104,50.7451411]]],"type":"Polygon"},"id":"E02004153","properties":{"code":"E02004153","geography":"MSOA","name":"Exeter 005"},"type":"Feature"},{"geometry":{"coordinates":[[[-3.5022041,50.73355],[-3.5081933,50.7347241],[-3.514074,50.7305185],[-3.5141655,50.7301228],[-3.511629,50.7236695],[-3.5102181,50.7199548],[-3.5009108,50.7206974],[-3.5040427,50.7231086],[-3.4998716,50.7234941],[-3.5011432,50.7316023],[-3.5022041,50.73355]]],"type":"Polygon"},"id":"E02004154","properties":{"code":"E02004154","geography":"MSOA","name":"Exeter 006"},"type":"Feature"},{"geometry":{"coordinates":[[[-3.4812465,50.7311614],[-3.4815969,50.7341759],[-3.5011432,50.7316023],[-3.4998716,50.7234941],[-3.5040427,50.7231086],[-3.5009108,50.7206974],[-3.4925964,50.7197317],[-3.4886392,50.7251299],[-3.4850345,50.7230506],[-3.4820204,50.7248791],[-3.4812465,50.7311614]]],"type":"Polygon"},"id":"E02004155","properties":{"code":"E02004155","geography":"MSOA","name":"Exeter 007"},"type":"Feature"},{"geometry":{"coordinates":[[[-3.5397214,50.7312252],[-3.5452133,50.7314198],[-3.5398708,50.7226938],[-3.5362101,50.7179271],[-3.5280994,50.7164267],[-3.5233049,50.7245377],[-3.5194511,50.7213305],[-3.511629,50.7236695],[-3.5141655,50.7301228],[-3.5269333,50.7255687],[-3.5397214,50.7312252]]],"type":"Polygon"},"id":"E02004156","properties":{"code":"E02004156","geography":"MSOA","name":"Exeter 008"},"type":"Feature"},{"geometry":{"coordinates":[[[-3.511629,50.7236695],[-3.5194511,50.7213305],[-3.5233049,50.7245377],[-3.5280994,50.7164267],[-3.5169778,50.7088832],[-3.5106442,50.7135597],[-3.5102181,50.7199548],[-3.511629,50.7236695]]],"type":"Polygon"},"id":"E02004157","properties":{"code":"E02004157","geography":"MSOA","name":"Exeter 009"},"type":"Feature"},{"geometry":{"coordinates":[[[-3.5362101,50.7179271],[-3.5398708,50.7226938],[-3.5490343,50.720662],[-3.5551947,50.719273],[-3.5525189,50.7153868],[-3.5393842,50.7102626],[-3.5362101,50.7179271]]],"type":"Polygon"},"id":"E02004158","properties":{"code":"E02004158","geography":"MSOA","name":"Exeter 010"},"type":"Feature"},{"geometry":{"coordinates":[[[-3.4624162,50.728653],[-3.4623494,50.7321523],[-3.4812465,50.7311614],[-3.4820204,50.7248791],[-3.4850345,50.7230506],[-3.4886392,50.7251299],[-3.4925964,50.7197317],[-3.50276,50.705658],[-3.4849003,50.6965871],[-3.4738674,50.703003],[-3.4697343,50.7021285],[-3.4625702,50.7151819],[-3.4624162,50.728653]]],"type":"Polygon"},"id":"E02004159","properties":{"code":"E02004159","geography":"MSOA","name":"Exeter 011"},"type":"Feature"},{"geometry":{"coordinates":[[[-3.5490343,50.720662],[-3.5631358,50.7252226],[-3.5556465,50.7266529],[-3.5577794,50.7279292],[-3.5676553,50.7257033],[-3.5646123,50.7178632],[-3.5687199,50.7145855],[-3.5628059,50.7069596],[-3.5480694,50.7034351],[-3.5394395,50.7031355],[-3.5393842,50.7102626],[-3.5525189,50.7153868],[-3.5551947,50.719273],[-3.5490343,50.720662]]],"type":"Polygon"},"id":"E02004160","properties":{"code":"E02004160","geography":"MSOA","name":"Exeter 012"},"type":"Feature"},{"geometry":{"coordinates":[[[-3.4925964,50.7197317],[-3.5009108,50.7206974],[-3.5102181,50.7199548],[-3.5106442,50.7135597],[-3.5169778,50.7088832],[-3.5157208,50.7040763],[-3.5118133,50.7072721],[-3.5084369,50.7036767],[-3.50276,50.705658],[-3.4925964,50.7197317]]],"type":"Polygon"},"id":"E02004161","properties":{"code":"E02004161","geography":"MSOA","name":"Exeter 013"},"type":"Feature"},{"geometry":{"coordinates":[[[-3.5280994,50.7164267],[-3.5362101,50.7179271],[-3.5393842,50.7102626],[-3.5394395,50.7031355],[-3.5480694,50.7034351],[-3.539077,50.6929292],[-3.5293782,50.6927854],[-3.5268172,50.6953318],[-3.5228031,50.6925883],[-3.5076487,50.6913716],[-3.5017559,50.6943362],[-3.5017748,50.6996105],[-3.5157208,50.7040763],[-3.5169778,50.7088832],[-3.5280994,50.7164267]]],"type":"Polygon"},"id":"E02004162","properties":{"code":"E02004162","geography":"MSOA","name":"Exeter 014"},"type":"Feature"},{"geometry":{"coordinates":[[[[-3.4516307,50.6825424],[-3.4515688,50.6810285],[-3.4511538,50.6825486],[-3.4516307,50.6825424]]],[[[-3.4516307,50.6825424],[-3.4567295,50.6825015],[-3.4606331,50.6954711],[-3.4709083,50.6977361],[-3.4697343,50.7021285],[-3.4738674,50.703003],[-3.4849003,50.6965871],[-3.50276,50.705658],[-3.5084369,50.7036767],[-3.5118133,50.7072721],[-3.5157208,50.7040763],[-3.5017748,50.6996105],[-3.5017559,50.6943362],[-3.4943363,50.6927526],[-3.4927145,50.6886222],[-3.4776101,50.6850212],[-3.481016,50.6895609],[-3.4838663,50.690522],[-3.4798753,50.6907886],[-3.4572713,50.6755499],[-3.4565519,50.6750646],[-3.456083,50.6752822],[-3.4549096,50.6771947],[-3.4518146,50.6822384],[-3.4516307,50.6825424]]]],"type":"MultiPolygon"},"id":"E02004163","properties":{"code":"E02004163","geography":"MSOA","name":"Exeter 015"},"type":"Feature"}],"type":"FeatureCollection"}
