{"features":[{"geometry":{"coordinates":[[[1.7290267,52.6635727],[1.7167141,52.6845554],[1.7063849,52.7009859],[1.7000608,52.7183121],[1.6993071,52.7198709],[1.6975467,52.723512],[1.6751281,52.7426198],[1.6458123,52.7366008],[1.6371272,52.7310141],[1.6369971,52.7273855],[1.6475406,52.7236577],[1.6432352,52.7195294],[1.6540542,52.7061434],[1.6669047,52.7008602],[1.6636906,52.701155],[1.6646192,52.6970878],[1.6568113,52.6962911],[1.6373811,52.6699928],[1.6415249,52.6684036],[1.6514278,52.6728054],[1.6600855,52.6730013],[1.6622442,52.6693693],[1.6769221,52.6644806],[1.6928599,52.6637004],[1.7290267,52.6635727]]],"type":"Polygon"},"id":"E02005538","properties":{"code":"E02005538","geography":"MSOA","name":"Great Yarmouth 001"},"type":"Feature"},{"geometry":{"coordinates":[[[1.6928599,52.6637004],[1.6769221,52.6644806],[1.6622442,52.6693693],[1.6600855,52.6730013],[1.6514278,52.6728054],[1.6415249,52.6684036],[1.6373811,52.6699928],[1.6568113,52.6962911],[1.6646192,52.6970878],[1.6636906,52.701155],[1.6669047,52.7008602],[1.6540542,52.7061434],[1.6432352,52.7195294],[1.6475406,52.7236577],[1.6369971,52.7273855],[1.6371272,52.7310141],[1.6266253,52.7249304],[1.6192904,52.717559],[1.5856942,52.7115898],[1.5712635,52.7016976],[1.5595219,52.7019783],[1.5495156,52.6987538],[1.5446105,52.6939854],[1.5491909,52.6815153],[1.562108,52.6660908],[1.557172,52.6514473],[1.567666,52.6489439],[1.56781,52.6379836],[1.5905923,52.6381519],[1.5930437,52.6290938],[1.6004221,52.6250183],[1.6092866,52.6243668],[1.6175979,52.6288575],[1.6214353,52.6235127],[1.6333747,52.632678],[1.6441848,52.6303786],[1.6428538,52.6261031],[1.659322,52.6256318],[1.668053,52.6169262],[1.6767907,52.6143103],[1.6794451,52.6201625],[1.6935418,52.6214466],[1.6984325,52.625371],[1.6877332,52.6325967],[1.6902844,52.6382043],[1.6843962,52.6412014],[1.6957092,52.6487415],[1.6928599,52.6637004]]],"type":"Polygon"},"id":"E02005539","properties":{"code":"E02005539","geography":"MSOA","name":"Great Yarmouth 002"},"type":"Feature"},{"geometry":{"coordinates":[[[1.7416531,52.634388],[1.7318672,52.6547097],[1.7290267,52.6635727],[1.6928599,52.6637004],[1.6957092,52.6487415],[1.6843962,52.6412014],[1.6902844,52.6382043],[1.6877332,52.6325967],[1.6984325,52.625371],[1.7100038,52.6308221],[1.7211415,52.6302205],[1.7220709,52.6333079],[1.7416531,52.634388]]],"type":"Polygon"},"id":"E02005540","properties":{"code":"E02005540","geography":"MSOA","name":"Great Yarmouth 003"},"type":"Feature"},{"geometry":{"coordinates":[[[1.742087,52.6178228],[1.7421179,52.618033],[1.743038,52.6204776],[1.7418408,52.6339602],[1.7416531,52.634388],[1.7220709,52.6333079],[1.7211415,52.6302205],[1.7260952,52.6254593],[1.7269998,52.6149059],[1.7314143,52.616234],[1.7285653,52.6185095],[1.742087,52.6178228]]],"type":"Polygon"},"id":"E02005541","properties":{"code":"E02005541","geography":"MSOA","name":"Great Yarmouth 004"},"type":"Feature"},{"geometry":{"coordinates":[[[[1.6510753,52.5941632],[1.6501991,52.5939874],[1.650215,52.5931407],[1.6510753,52.5941632]]],[[[1.7188156,52.6096102],[1.7173266,52.6101357],[1.7201209,52.6082699],[1.7188156,52.6096102]]],[[[1.7260952,52.6254593],[1.7211415,52.6302205],[1.7100038,52.6308221],[1.6984325,52.625371],[1.6935418,52.6214466],[1.6794451,52.6201625],[1.6767907,52.6143103],[1.6751443,52.6095861],[1.6556588,52.6065029],[1.6506591,52.6019506],[1.6419529,52.6042022],[1.6347987,52.5928373],[1.630987,52.5924768],[1.6454442,52.5893572],[1.6578992,52.6038577],[1.6817353,52.6082803],[1.6949046,52.6179599],[1.7106773,52.6190026],[1.7160408,52.6167925],[1.7152865,52.6130195],[1.7207531,52.6121933],[1.7199778,52.610717],[1.7241924,52.6059541],[1.7242188,52.60592],[1.7406689,52.6080956],[1.7406961,52.6083528],[1.7420708,52.6177124],[1.742087,52.6178228],[1.7285653,52.6185095],[1.7314143,52.616234],[1.7269998,52.6149059],[1.7260952,52.6254593]]]],"type":"MultiPolygon"},"id":"E02005542","properties":{"code":"E02005542","geography":"MSOA","name":"Great Yarmouth 005"},"type":"Feature"},{"geometry":{"coordinates":[[[[1.7249471,52.6033134],[1.7242618,52.6040173],[1.725352,52.6002134],[1.7249471,52.6033134]]],[[[1.7433443,52.5798893],[1.7379547,52.5824328],[1.7406655,52.6080632],[1.7406689,52.6080956],[1.7242188,52.60592],[1.7256779,52.6040344],[1.7336559,52.5741333],[1.7397995,52.5730118],[1.7434239,52.5751563],[1.7434117,52.5758825],[1.7391058,52.5747643],[1.738802,52.5799505],[1.7433566,52.5791605],[1.7433443,52.5798893]]]],"type":"MultiPolygon"},"id":"E02005543","properties":{"code":"E02005543","geography":"MSOA","name":"Great Yarmouth 006"},"type":"Feature"},{"geometry":{"coordinates":[[[1.7173266,52.6101357],[1.7134183,52.6115149],[1.6975438,52.6069733],[1.697293,52.6068602],[1.6981193,52.6008702],[1.707667,52.6004106],[1.7128861,52.5875458],[1.7172748,52.5841922],[1.7238703,52.5855297],[1.7250431,52.5890817],[1.7275716,52.5881188],[1.7266138,52.5905514],[1.7265573,52.590984],[1.7257803,52.596934],[1.725352,52.6002134],[1.7242618,52.6040173],[1.7241182,52.6041648],[1.7201209,52.6082699],[1.7173266,52.6101357]]],"type":"Polygon"},"id":"E02005544","properties":{"code":"E02005544","geography":"MSOA","name":"Great Yarmouth 007"},"type":"Feature"},{"geometry":{"coordinates":[[[1.7128861,52.5875458],[1.707667,52.6004106],[1.6981193,52.6008702],[1.697293,52.6068602],[1.6848592,52.6012518],[1.6867821,52.599839],[1.6809631,52.5896639],[1.6815241,52.5866476],[1.6879683,52.5863614],[1.6858864,52.5802329],[1.6995604,52.5765991],[1.7102105,52.5815704],[1.7128861,52.5875458]]],"type":"Polygon"},"id":"E02005545","properties":{"code":"E02005545","geography":"MSOA","name":"Great Yarmouth 008"},"type":"Feature"},{"geometry":{"coordinates":[[[1.7275716,52.5881188],[1.7250431,52.5890817],[1.7238703,52.5855297],[1.7172748,52.5841922],[1.7128861,52.5875458],[1.7102105,52.5815704],[1.7086568,52.5751322],[1.7157611,52.5724508],[1.7219511,52.5743062],[1.7190192,52.5789003],[1.7259756,52.5803237],[1.7235583,52.5785968],[1.73087,52.5778914],[1.7288124,52.5849668],[1.7275716,52.5881188]]],"type":"Polygon"},"id":"E02005546","properties":{"code":"E02005546","geography":"MSOA","name":"Great Yarmouth 009"},"type":"Feature"},{"geometry":{"coordinates":[[[1.73087,52.5778914],[1.7235583,52.5785968],[1.7259756,52.5803237],[1.7190192,52.5789003],[1.7219511,52.5743062],[1.7269616,52.5631123],[1.7219393,52.5640455],[1.7204199,52.5601848],[1.7091975,52.5631837],[1.7053831,52.5620809],[1.7084223,52.5557846],[1.7173598,52.5555438],[1.7184735,52.5526173],[1.7254689,52.5549553],[1.7257747,52.5505233],[1.7293122,52.5501633],[1.7268264,52.5559533],[1.7328621,52.5567194],[1.7328281,52.55683],[1.7325469,52.5693201],[1.732936,52.5694884],[1.7386315,52.5719514],[1.7339404,52.5723108],[1.7337252,52.572319],[1.7324594,52.5724243],[1.73087,52.5778914]]],"type":"Polygon"},"id":"E02005547","properties":{"code":"E02005547","geography":"MSOA","name":"Great Yarmouth 010"},"type":"Feature"},{"geometry":{"coordinates":[[[1.7219511,52.5743062],[1.7157611,52.5724508],[1.7086568,52.5751322],[1.7047604,52.5682258],[1.7091975,52.5631837],[1.7204199,52.5601848],[1.7219393,52.5640455],[1.7269616,52.5631123],[1.7219511,52.5743062]]],"type":"Polygon"},"id":"E02005548","properties":{"code":"E02005548","geography":"MSOA","name":"Great Yarmouth 011"},"type":"Feature"},{"geometry":{"coordinates":[[[1.6858864,52.5802329],[1.6879683,52.5863614],[1.6815241,52.5866476],[1.6809631,52.5896639],[1.6867821,52.599839],[1.6848592,52.6012518],[1.6835985,52.600683],[1.6510753,52.5941632],[1.650215,52.5931407],[1.6505334,52.5761885],[1.64858,52.5767561],[1.6483371,52.5777297],[1.6485413,52.5762347],[1.6351045,52.5733314],[1.6330858,52.5608547],[1.6228149,52.5526512],[1.6095783,52.5502775],[1.6058006,52.5448451],[1.6085039,52.5408096],[1.6209368,52.539799],[1.6201174,52.5334765],[1.6285579,52.5259925],[1.6365125,52.5279139],[1.6312394,52.5322792],[1.638268,52.5337569],[1.6367156,52.5374106],[1.6591304,52.5422255],[1.6656537,52.5496292],[1.6860898,52.5493546],[1.6995637,52.5504334],[1.6935287,52.5622943],[1.6791036,52.5626962],[1.6799594,52.5747028],[1.6749963,52.576844],[1.6858864,52.5802329]]],"type":"Polygon"},"id":"E02005549","properties":{"code":"E02005549","geography":"MSOA","name":"Great Yarmouth 012"},"type":"Feature"},{"geometry":{"coordinates":[[[1.7086568,52.5751322],[1.7102105,52.5815704],[1.6995604,52.5765991],[1.6858864,52.5802329],[1.6749963,52.576844],[1.6799594,52.5747028],[1.6791036,52.5626962],[1.6935287,52.5622943],[1.6995637,52.5504334],[1.6860898,52.5493546],[1.6904011,52.5449411],[1.7025522,52.5443993],[1.7055703,52.5399488],[1.72598,52.5306163],[1.7403468,52.5320748],[1.7386688,52.5378297],[1.7383865,52.5387481],[1.7328621,52.5567194],[1.7268264,52.5559533],[1.7293122,52.5501633],[1.7257747,52.5505233],[1.7254689,52.5549553],[1.7184735,52.5526173],[1.7173598,52.5555438],[1.7084223,52.5557846],[1.7053831,52.5620809],[1.7091975,52.5631837],[1.7047604,52.5682258],[1.7086568,52.5751322]]],"type":"Polygon"},"id":"E02005550","properties":{"code":"E02005550","geography":"MSOA","name":"Great Yarmouth 013"},"type":"Feature"}],"type":"FeatureCollection"}
