{"features":[{"geometry":{"coordinates":[[[-0.2087654,52.9225295],[-0.2467138,52.9288098],[-0.2524328,52.9153336],[-0.2565046,52.9058612],[-0.2695279,52.8769352],[-0.2565627,52.8683386],[-0.2708961,52.8720859],[-0.2763015,52.8616662],[-0.2750434,52.8408448],[-0.2268637,52.8357135],[-0.2118731,52.8384412],[-0.1850115,52.8337034],[-0.1672922,52.8359946],[-0.1612259,52.8339993],[-0.1538463,52.8365909],[-0.1516087,52.8333891],[-0.1581582,52.8313416],[-0.1518858,52.8310051],[-0.1389063,52.8333969],[-0.1270204,52.8400653],[-0.1111042,52.8390554],[-0.1121449,52.8430366],[-0.0991887,52.8440893],[-0.0988359,52.844118],[-0.0972176,52.8466175],[-0.0902692,52.8533508],[-0.0847318,52.8550612],[-0.0803173,52.8531813],[-0.0656411,52.8628722],[-0.0804854,52.8669354],[-0.0848036,52.8645237],[-0.0894843,52.8677762],[-0.0944601,52.8665985],[-0.1032322,52.8766243],[-0.1196414,52.8825547],[-0.1276023,52.8797889],[-0.1335778,52.8855985],[-0.1426617,52.884885],[-0.1447451,52.8907461],[-0.1516445,52.8942153],[-0.146595,52.8986266],[-0.1506153,52.9059275],[-0.1565183,52.9120331],[-0.1673787,52.9123001],[-0.172364,52.9178431],[-0.1778796,52.9190067],[-0.1799053,52.9153598],[-0.1920906,52.9146179],[-0.2087654,52.9225295]]],"type":"Polygon"},"id":"E02005465","properties":{"code":"E02005465","geography":"MSOA","name":"South Holland 001"},"type":"Feature"},{"geometry":{"coordinates":[[[0.0691472,52.9081923],[0.0654488,52.9120733],[0.0685405,52.9187115],[0.0325119,52.9001694],[0.0280962,52.8990441],[0.0280442,52.8990229],[0.027114,52.8984705],[-0.0020871,52.8871444],[0.000983,52.874126],[-0.0038723,52.8736846],[0.0016904,52.8718427],[-0.0029086,52.8643971],[0.0028854,52.8530275],[-0.0012029,52.8518925],[0.0040684,52.849369],[-0.0048449,52.828199],[-0.0050902,52.8162435],[0.0096518,52.8109239],[0.0431193,52.8091954],[0.0528599,52.8093355],[0.051894,52.8124361],[0.0693093,52.8145674],[0.0768448,52.8193297],[0.0976898,52.8170876],[0.0909088,52.8154141],[0.0879455,52.8073647],[0.0810912,52.8106329],[0.0792319,52.8060685],[0.0717741,52.8032092],[0.06341,52.7749739],[0.0373959,52.7635635],[0.0264531,52.7618584],[0.0153133,52.7528981],[0.0214706,52.7451023],[0.0195764,52.7356572],[0.0389368,52.7496692],[0.0609341,52.7563498],[0.0811646,52.768147],[0.0916412,52.7704837],[0.0939254,52.7741559],[0.0990386,52.7704246],[0.1139718,52.7766897],[0.1086478,52.7800505],[0.117434,52.7860547],[0.1151719,52.7889861],[0.1239215,52.7869524],[0.127966,52.7919678],[0.1232091,52.798853],[0.1306562,52.8053161],[0.1267301,52.8087754],[0.1248906,52.8060926],[0.12135,52.8110304],[0.1294751,52.8224294],[0.1544598,52.8261908],[0.1644493,52.8244302],[0.1657531,52.8269186],[0.1817763,52.8254203],[0.1856228,52.829987],[0.2145928,52.8287968],[0.2012608,52.8383215],[0.1927938,52.8523049],[0.185234,52.8556793],[0.1763193,52.8740933],[0.1593598,52.8802903],[0.1513065,52.8798503],[0.150338,52.8822161],[0.1502749,52.8823703],[0.1497564,52.8820908],[0.1391377,52.8763662],[0.1358655,52.8746017],[0.1456814,52.8812123],[0.1467977,52.8819638],[0.1450026,52.8850694],[0.1161511,52.8936547],[0.088371,52.8951023],[0.0859009,52.8998237],[0.0798618,52.898624],[0.0769796,52.8980514],[0.0798814,52.8990325],[0.0825473,52.8999337],[0.0799624,52.9007231],[0.0719296,52.9031754],[0.073367,52.9060616],[0.0563656,52.9033695],[0.0691472,52.9081923]]],"type":"Polygon"},"id":"E02005466","properties":{"code":"E02005466","geography":"MSOA","name":"South Holland 002"},"type":"Feature"},{"geometry":{"coordinates":[[[0.0431193,52.8091954],[0.0096518,52.8109239],[-0.0050902,52.8162435],[-0.0105838,52.7977785],[0.0261269,52.7989112],[0.0291522,52.8012721],[0.0259011,52.8035978],[0.0431193,52.8091954]]],"type":"Polygon"},"id":"E02005467","properties":{"code":"E02005467","geography":"MSOA","name":"South Holland 003"},"type":"Feature"},{"geometry":{"coordinates":[[[-0.0012029,52.8518925],[0.0028854,52.8530275],[-0.0029086,52.8643971],[0.0016904,52.8718427],[-0.0038723,52.8736846],[0.000983,52.874126],[-0.0020871,52.8871444],[-0.0372104,52.8726147],[-0.0349654,52.870378],[-0.0656411,52.8628722],[-0.0803173,52.8531813],[-0.0847318,52.8550612],[-0.0902692,52.8533508],[-0.0972176,52.8466175],[-0.0963929,52.8452701],[-0.1129583,52.8264189],[-0.1216656,52.8233235],[-0.117504,52.821677],[-0.1177699,52.8194292],[-0.1086597,52.8180804],[-0.1115716,52.8008601],[-0.1037984,52.8016235],[-0.1045871,52.7853494],[-0.1135288,52.7664622],[-0.1108574,52.7621045],[-0.0975503,52.7612614],[-0.1012732,52.7488424],[-0.0946203,52.7499059],[-0.0938102,52.7423038],[-0.0703431,52.7527593],[-0.0720215,52.7466662],[-0.0803437,52.7447304],[-0.0847401,52.7330447],[-0.1047647,52.7273337],[-0.1106138,52.7139422],[-0.0650394,52.707397],[-0.0634112,52.7214718],[-0.0247537,52.7249286],[-0.0244232,52.743272],[-0.0093934,52.7621021],[-0.0133571,52.7643607],[-0.0088748,52.774769],[-0.0105838,52.7977785],[-0.0050902,52.8162435],[-0.0048449,52.828199],[0.0040684,52.849369],[-0.0012029,52.8518925]]],"type":"Polygon"},"id":"E02005468","properties":{"code":"E02005468","geography":"MSOA","name":"South Holland 004"},"type":"Feature"},{"geometry":{"coordinates":[[[-0.1216656,52.8233235],[-0.1129583,52.8264189],[-0.0963929,52.8452701],[-0.0972176,52.8466175],[-0.0988359,52.844118],[-0.0991887,52.8440893],[-0.1121449,52.8430366],[-0.1111042,52.8390554],[-0.1270204,52.8400653],[-0.1389063,52.8333969],[-0.1518858,52.8310051],[-0.1581582,52.8313416],[-0.1516087,52.8333891],[-0.1538463,52.8365909],[-0.1612259,52.8339993],[-0.1672922,52.8359946],[-0.1850115,52.8337034],[-0.2118731,52.8384412],[-0.2268637,52.8357135],[-0.2750434,52.8408448],[-0.2668126,52.7964868],[-0.2607595,52.7708499],[-0.3045208,52.7460103],[-0.3066913,52.7434162],[-0.2783329,52.7164806],[-0.2812896,52.7142437],[-0.2780198,52.7107394],[-0.2671932,52.6990665],[-0.2637032,52.7009799],[-0.2557787,52.692591],[-0.2487697,52.6930237],[-0.2232219,52.6667427],[-0.2142714,52.668206],[-0.2170137,52.6722643],[-0.2209192,52.6716649],[-0.2352876,52.6955272],[-0.2026662,52.705897],[-0.1706651,52.7069757],[-0.1371373,52.7180785],[-0.1420059,52.7205942],[-0.1399074,52.7268037],[-0.1487998,52.7394446],[-0.159061,52.7435494],[-0.1662979,52.75351],[-0.1769957,52.7498053],[-0.2098333,52.7732939],[-0.2014265,52.7827246],[-0.1902633,52.7876353],[-0.1597343,52.8008949],[-0.1443688,52.8008372],[-0.1295845,52.8104519],[-0.1216656,52.8233235]]],"type":"Polygon"},"id":"E02005469","properties":{"code":"E02005469","geography":"MSOA","name":"South Holland 005"},"type":"Feature"},{"geometry":{"coordinates":[[[-0.117504,52.821677],[-0.1216656,52.8233235],[-0.1295845,52.8104519],[-0.1443688,52.8008372],[-0.1597343,52.8008949],[-0.1902633,52.7876353],[-0.1637531,52.7885328],[-0.1562759,52.7778283],[-0.117504,52.821677]]],"type":"Polygon"},"id":"E02005470","properties":{"code":"E02005470","geography":"MSOA","name":"South Holland 006"},"type":"Feature"},{"geometry":{"coordinates":[[[-0.1135288,52.7664622],[-0.1045871,52.7853494],[-0.1037984,52.8016235],[-0.1115716,52.8008601],[-0.1086597,52.8180804],[-0.1177699,52.8194292],[-0.117504,52.821677],[-0.1562759,52.7778283],[-0.1620271,52.7702271],[-0.161326,52.7552366],[-0.1457388,52.7529505],[-0.1454277,52.7595538],[-0.1184326,52.7549479],[-0.1135288,52.7664622]]],"type":"Polygon"},"id":"E02005471","properties":{"code":"E02005471","geography":"MSOA","name":"South Holland 007"},"type":"Feature"},{"geometry":{"coordinates":[[[0.2145928,52.8287968],[0.1856228,52.829987],[0.1817763,52.8254203],[0.1657531,52.8269186],[0.1644493,52.8244302],[0.1544598,52.8261908],[0.1294751,52.8224294],[0.12135,52.8110304],[0.1248906,52.8060926],[0.1267301,52.8087754],[0.1306562,52.8053161],[0.1232091,52.798853],[0.127966,52.7919678],[0.1239215,52.7869524],[0.1151719,52.7889861],[0.117434,52.7860547],[0.1086478,52.7800505],[0.1139718,52.7766897],[0.0990386,52.7704246],[0.0939254,52.7741559],[0.0916412,52.7704837],[0.0811646,52.768147],[0.0609341,52.7563498],[0.0695138,52.7550118],[0.0881666,52.7580124],[0.099151,52.75038],[0.1001158,52.7462351],[0.0774322,52.745011],[0.0889709,52.723656],[0.098775,52.7303203],[0.1136709,52.7299701],[0.1329603,52.7392845],[0.1701665,52.7398749],[0.1716111,52.7380123],[0.1863089,52.7353291],[0.2175399,52.7532333],[0.248261,52.7651302],[0.2721933,52.7727855],[0.2450697,52.7845034],[0.2519831,52.7925427],[0.2608891,52.7960354],[0.2531634,52.7973343],[0.2626898,52.8035863],[0.2687922,52.8158146],[0.2607201,52.8152614],[0.2452353,52.8221586],[0.2343242,52.8233096],[0.2167992,52.8208617],[0.2148918,52.8226075],[0.2094307,52.8194967],[0.2109129,52.8218542],[0.2150663,52.8284584],[0.2145928,52.8287968]]],"type":"Polygon"},"id":"E02005472","properties":{"code":"E02005472","geography":"MSOA","name":"South Holland 008"},"type":"Feature"},{"geometry":{"coordinates":[[[-0.1562759,52.7778283],[-0.1637531,52.7885328],[-0.1902633,52.7876353],[-0.2014265,52.7827246],[-0.2098333,52.7732939],[-0.1769957,52.7498053],[-0.1662979,52.75351],[-0.161326,52.7552366],[-0.1620271,52.7702271],[-0.1562759,52.7778283]]],"type":"Polygon"},"id":"E02005473","properties":{"code":"E02005473","geography":"MSOA","name":"South Holland 009"},"type":"Feature"},{"geometry":{"coordinates":[[[0.0609341,52.7563498],[0.0389368,52.7496692],[0.0195764,52.7356572],[0.0214706,52.7451023],[0.0153133,52.7528981],[0.0264531,52.7618584],[0.0373959,52.7635635],[0.06341,52.7749739],[0.0717741,52.8032092],[0.0792319,52.8060685],[0.0810912,52.8106329],[0.0879455,52.8073647],[0.0909088,52.8154141],[0.0976898,52.8170876],[0.0768448,52.8193297],[0.0693093,52.8145674],[0.051894,52.8124361],[0.0528599,52.8093355],[0.0431193,52.8091954],[0.0259011,52.8035978],[0.0291522,52.8012721],[0.0261269,52.7989112],[-0.0105838,52.7977785],[-0.0088748,52.774769],[-0.0133571,52.7643607],[-0.0093934,52.7621021],[-0.0244232,52.743272],[-0.0247537,52.7249286],[-0.0634112,52.7214718],[-0.0650394,52.707397],[-0.0512504,52.7040388],[-0.0622972,52.6940115],[-0.0874246,52.6845321],[-0.1022133,52.6721877],[-0.0878531,52.6667613],[-0.0595063,52.6746675],[-0.0321197,52.6653417],[-0.0312872,52.6615141],[0.021484,52.6648681],[0.0479972,52.6810303],[0.044135,52.7143623],[0.0480042,52.7187653],[0.0638896,52.7274161],[0.0889709,52.723656],[0.0774322,52.745011],[0.1001158,52.7462351],[0.099151,52.75038],[0.0881666,52.7580124],[0.0695138,52.7550118],[0.0609341,52.7563498]]],"type":"Polygon"},"id":"E02005474","properties":{"code":"E02005474","geography":"MSOA","name":"South Holland 010"},"type":"Feature"},{"geometry":{"coordinates":[[[-0.0650394,52.707397],[-0.1106138,52.7139422],[-0.1047647,52.7273337],[-0.0847401,52.7330447],[-0.0803437,52.7447304],[-0.0720215,52.7466662],[-0.0703431,52.7527593],[-0.0938102,52.7423038],[-0.0946203,52.7499059],[-0.1012732,52.7488424],[-0.0975503,52.7612614],[-0.1108574,52.7621045],[-0.1135288,52.7664622],[-0.1184326,52.7549479],[-0.1454277,52.7595538],[-0.1457388,52.7529505],[-0.161326,52.7552366],[-0.1662979,52.75351],[-0.159061,52.7435494],[-0.1487998,52.7394446],[-0.1399074,52.7268037],[-0.1420059,52.7205942],[-0.1371373,52.7180785],[-0.1706651,52.7069757],[-0.2026662,52.705897],[-0.2352876,52.6955272],[-0.2209192,52.6716649],[-0.2170137,52.6722643],[-0.2142714,52.668206],[-0.2125154,52.6666601],[-0.2060523,52.6680536],[-0.1928822,52.6524192],[-0.1800349,52.6605417],[-0.1410776,52.6514883],[-0.1395169,52.6548427],[-0.1022133,52.6721877],[-0.0874246,52.6845321],[-0.0622972,52.6940115],[-0.0512504,52.7040388],[-0.0650394,52.707397]]],"type":"Polygon"},"id":"E02005475","properties":{"code":"E02005475","geography":"MSOA","name":"South Holland 011"},"type":"Feature"}],"type":"FeatureCollection"}
