{"features":[{"geometry":{"coordinates":[[[-1.4017401,53.281556],[-1.4154418,53.2876201],[-1.4232404,53.282696],[-1.4390179,53.2801956],[-1.4570701,53.283727],[-1.4597879,53.27992],[-1.4669388,53.2746254],[-1.4627291,53.2703332],[-1.4584735,53.273635],[-1.4430804,53.2699765],[-1.4258411,53.2587081],[-1.4225088,53.2534329],[-1.4203139,53.2551177],[-1.4118034,53.2656533],[-1.4026599,53.2698753],[-1.3980322,53.2690758],[-1.3994711,53.2726102],[-1.4107387,53.2719633],[-1.4131035,53.2743825],[-1.4121862,53.2792028],[-1.4008262,53.2765427],[-1.4017401,53.281556]]],"type":"Polygon"},"id":"E02004055","properties":{"code":"E02004055","geography":"MSOA","name":"Chesterfield 001"},"type":"Feature"},{"geometry":{"coordinates":[[[-1.316704,53.2816367],[-1.3225892,53.2813556],[-1.3336355,53.2897379],[-1.3390731,53.2898359],[-1.3427854,53.2856415],[-1.3531714,53.2864801],[-1.3560944,53.2689222],[-1.3561004,53.261034],[-1.3629283,53.2631564],[-1.3686107,53.2599789],[-1.3618496,53.2573305],[-1.3601862,53.2591491],[-1.3606284,53.25244],[-1.3444664,53.2547091],[-1.3439344,53.2505486],[-1.3420526,53.2538011],[-1.3260664,53.2543262],[-1.3312639,53.2572118],[-1.3166776,53.2624839],[-1.3013105,53.2638759],[-1.3070059,53.2752429],[-1.316704,53.2816367]]],"type":"Polygon"},"id":"E02004056","properties":{"code":"E02004056","geography":"MSOA","name":"Chesterfield 002"},"type":"Feature"},{"geometry":{"coordinates":[[[-1.3531714,53.2864801],[-1.366895,53.2891649],[-1.3715242,53.2972975],[-1.3770553,53.2990251],[-1.3859913,53.2948764],[-1.3871658,53.286086],[-1.3917651,53.2871208],[-1.4017401,53.281556],[-1.4008262,53.2765427],[-1.4121862,53.2792028],[-1.4131035,53.2743825],[-1.4107387,53.2719633],[-1.3994711,53.2726102],[-1.3980322,53.2690758],[-1.3982704,53.2573166],[-1.384604,53.2582873],[-1.3867879,53.261698],[-1.3792204,53.2635278],[-1.375148,53.2604057],[-1.376033,53.266126],[-1.365376,53.2652094],[-1.3560944,53.2689222],[-1.3531714,53.2864801]]],"type":"Polygon"},"id":"E02004057","properties":{"code":"E02004057","geography":"MSOA","name":"Chesterfield 003"},"type":"Feature"},{"geometry":{"coordinates":[[[-1.4258411,53.2587081],[-1.4430804,53.2699765],[-1.4584735,53.273635],[-1.4627291,53.2703332],[-1.4806015,53.2633272],[-1.4706894,53.2572508],[-1.4483424,53.2521048],[-1.4468481,53.2560601],[-1.4397453,53.2527569],[-1.4258411,53.2587081]]],"type":"Polygon"},"id":"E02004058","properties":{"code":"E02004058","geography":"MSOA","name":"Chesterfield 004"},"type":"Feature"},{"geometry":{"coordinates":[[[-1.3980322,53.2690758],[-1.4026599,53.2698753],[-1.4118034,53.2656533],[-1.4203139,53.2551177],[-1.4185091,53.2487794],[-1.4195079,53.2385437],[-1.4160749,53.2385986],[-1.3938508,53.2410444],[-1.3902738,53.2388369],[-1.380345,53.2437768],[-1.3790476,53.2513083],[-1.384604,53.2582873],[-1.3982704,53.2573166],[-1.3980322,53.2690758]]],"type":"Polygon"},"id":"E02004059","properties":{"code":"E02004059","geography":"MSOA","name":"Chesterfield 005"},"type":"Feature"},{"geometry":{"coordinates":[[[-1.3260664,53.2543262],[-1.3420526,53.2538011],[-1.3439344,53.2505486],[-1.3444664,53.2547091],[-1.3606284,53.25244],[-1.3601862,53.2591491],[-1.3618496,53.2573305],[-1.3686107,53.2599789],[-1.3629283,53.2631564],[-1.3561004,53.261034],[-1.3560944,53.2689222],[-1.365376,53.2652094],[-1.376033,53.266126],[-1.375148,53.2604057],[-1.3792204,53.2635278],[-1.3867879,53.261698],[-1.384604,53.2582873],[-1.3790476,53.2513083],[-1.380345,53.2437768],[-1.3750453,53.2408561],[-1.3508667,53.2463692],[-1.3470673,53.2395208],[-1.3319711,53.2415723],[-1.3321236,53.2366778],[-1.3263554,53.2360808],[-1.3192038,53.239564],[-1.3260664,53.2543262]]],"type":"Polygon"},"id":"E02004060","properties":{"code":"E02004060","geography":"MSOA","name":"Chesterfield 006"},"type":"Feature"},{"geometry":{"coordinates":[[[-1.4203139,53.2551177],[-1.4225088,53.2534329],[-1.4258411,53.2587081],[-1.4397453,53.2527569],[-1.4468481,53.2560601],[-1.4483424,53.2521048],[-1.4500838,53.2474555],[-1.4342615,53.2423745],[-1.4340248,53.244907],[-1.4267923,53.2432496],[-1.4271144,53.2485992],[-1.4185091,53.2487794],[-1.4203139,53.2551177]]],"type":"Polygon"},"id":"E02004061","properties":{"code":"E02004061","geography":"MSOA","name":"Chesterfield 007"},"type":"Feature"},{"geometry":{"coordinates":[[[-1.4483424,53.2521048],[-1.4706894,53.2572508],[-1.4787943,53.2522753],[-1.4739394,53.2491208],[-1.4817092,53.246465],[-1.4775462,53.2397017],[-1.4718644,53.2394747],[-1.4666391,53.2394377],[-1.4619697,53.242985],[-1.4500732,53.2406411],[-1.4500838,53.2474555],[-1.4483424,53.2521048]]],"type":"Polygon"},"id":"E02004062","properties":{"code":"E02004062","geography":"MSOA","name":"Chesterfield 008"},"type":"Feature"},{"geometry":{"coordinates":[[[-1.4342615,53.2423745],[-1.4500838,53.2474555],[-1.4500732,53.2406411],[-1.4619697,53.242985],[-1.4666391,53.2394377],[-1.4629005,53.2387964],[-1.4674424,53.2304248],[-1.4602753,53.2289496],[-1.4542634,53.2321237],[-1.45751,53.2315693],[-1.4389872,53.2392637],[-1.4396795,53.2427468],[-1.4363389,53.2403392],[-1.4342615,53.2423745]]],"type":"Polygon"},"id":"E02004063","properties":{"code":"E02004063","geography":"MSOA","name":"Chesterfield 009"},"type":"Feature"},{"geometry":{"coordinates":[[[-1.4160749,53.2385986],[-1.4195079,53.2385437],[-1.4185091,53.2487794],[-1.4271144,53.2485992],[-1.4267923,53.2432496],[-1.4340248,53.244907],[-1.4342615,53.2423745],[-1.4363389,53.2403392],[-1.4396795,53.2427468],[-1.4389872,53.2392637],[-1.45751,53.2315693],[-1.4542634,53.2321237],[-1.4498552,53.2331379],[-1.4466583,53.2270837],[-1.4361456,53.2301553],[-1.4265757,53.2242815],[-1.4147826,53.230721],[-1.4207312,53.2339756],[-1.4160749,53.2385986]]],"type":"Polygon"},"id":"E02004064","properties":{"code":"E02004064","geography":"MSOA","name":"Chesterfield 010"},"type":"Feature"},{"geometry":{"coordinates":[[[-1.4666391,53.2394377],[-1.4718644,53.2394747],[-1.471876,53.2333965],[-1.4839758,53.2324641],[-1.4819598,53.2262279],[-1.4758444,53.225065],[-1.4795281,53.2222097],[-1.4676003,53.2194975],[-1.4475275,53.221395],[-1.4392954,53.2187659],[-1.4466583,53.2270837],[-1.4498552,53.2331379],[-1.4542634,53.2321237],[-1.4602753,53.2289496],[-1.4674424,53.2304248],[-1.4629005,53.2387964],[-1.4666391,53.2394377]]],"type":"Polygon"},"id":"E02004065","properties":{"code":"E02004065","geography":"MSOA","name":"Chesterfield 011"},"type":"Feature"},{"geometry":{"coordinates":[[[-1.3902738,53.2388369],[-1.3938508,53.2410444],[-1.4160749,53.2385986],[-1.4207312,53.2339756],[-1.4147826,53.230721],[-1.4265757,53.2242815],[-1.4274327,53.2153304],[-1.4208445,53.2124227],[-1.41169,53.2155394],[-1.3996029,53.2151502],[-1.4015589,53.2178132],[-1.3955867,53.2226986],[-1.4010846,53.2336938],[-1.393621,53.233991],[-1.3902738,53.2388369]]],"type":"Polygon"},"id":"E02004066","properties":{"code":"E02004066","geography":"MSOA","name":"Chesterfield 012"},"type":"Feature"},{"geometry":{"coordinates":[[[-1.4265757,53.2242815],[-1.4361456,53.2301553],[-1.4466583,53.2270837],[-1.4392954,53.2187659],[-1.4400044,53.2135745],[-1.4361426,53.2133053],[-1.4274327,53.2153304],[-1.4265757,53.2242815]]],"type":"Polygon"},"id":"E02004067","properties":{"code":"E02004067","geography":"MSOA","name":"Chesterfield 013"},"type":"Feature"}],"type":"FeatureCollection"}
