{"features":[{"geometry":{"coordinates":[[[[0.7966608,51.7400138],[0.7952856,51.739585],[0.7953419,51.7394624],[0.7966608,51.7400138]]],[[[0.8080835,51.7933097],[0.8118265,51.7991101],[0.7790612,51.8115541],[0.7542028,51.8009604],[0.7181432,51.7973547],[0.7217555,51.7816427],[0.7357007,51.7782323],[0.7451444,51.7639911],[0.7379476,51.7618112],[0.7391861,51.7577016],[0.7320156,51.7540912],[0.7319459,51.7424392],[0.7371861,51.741101],[0.7330593,51.7397907],[0.731728,51.7424243],[0.7231959,51.743099],[0.7218276,51.7377343],[0.7335363,51.7382888],[0.7371267,51.7327295],[0.73749,51.7326603],[0.7374452,51.7327283],[0.7383807,51.7324907],[0.7442619,51.7313704],[0.7430868,51.7312952],[0.7443449,51.7309756],[0.7448938,51.7309664],[0.7515479,51.7326311],[0.7475455,51.7319294],[0.7476863,51.7320832],[0.7473547,51.7320319],[0.7479831,51.7341312],[0.7449883,51.7334421],[0.7449713,51.7364378],[0.7455267,51.7363756],[0.7456011,51.736684],[0.753117,51.7355244],[0.7551486,51.7352966],[0.7631494,51.7387043],[0.7604113,51.7424766],[0.7605391,51.7424445],[0.7605194,51.7424723],[0.7640609,51.741561],[0.7709796,51.7398248],[0.7721841,51.7406965],[0.7763682,51.7437241],[0.7767509,51.7439262],[0.7767886,51.7439485],[0.7768379,51.7438691],[0.7803097,51.7388371],[0.7807215,51.7387284],[0.7886047,51.7366457],[0.7947569,51.7394202],[0.7890173,51.7376305],[0.7922598,51.7451557],[0.8111875,51.7388432],[0.8225852,51.7408191],[0.8250368,51.7383876],[0.8348199,51.7387306],[0.852402,51.7416043],[0.8482729,51.7463936],[0.8474077,51.7473969],[0.848625,51.7468991],[0.8562199,51.7437932],[0.8826817,51.7576437],[0.8618046,51.7631016],[0.8503282,51.7571202],[0.8607054,51.764284],[0.8422431,51.7648249],[0.8453119,51.7675017],[0.8409362,51.7702077],[0.8561737,51.7677157],[0.8424526,51.7722395],[0.8388902,51.7710288],[0.8396225,51.7731998],[0.8345547,51.7704347],[0.8366963,51.7738635],[0.8398618,51.7736715],[0.8513399,51.7705043],[0.8512248,51.7740811],[0.8574046,51.7749922],[0.8603313,51.768844],[0.8830729,51.7638488],[0.8945798,51.7662936],[0.8849308,51.7682524],[0.8866035,51.7707952],[0.8906724,51.7697031],[0.8772044,51.7793449],[0.8579027,51.7840403],[0.8525598,51.7828405],[0.8458553,51.7813345],[0.8442471,51.7788235],[0.8369375,51.7795088],[0.8344639,51.7826785],[0.8039016,51.789696],[0.8057023,51.7919392],[0.8159014,51.7892394],[0.8080835,51.7933097]]]],"type":"MultiPolygon"},"id":"E02004555","properties":{"code":"E02004555","geography":"MSOA","name":"Maldon 001"},"type":"Feature"},{"geometry":{"coordinates":[[[0.7088818,51.8188957],[0.6972421,51.8291172],[0.6818249,51.8190875],[0.6787022,51.8106635],[0.6700309,51.8094437],[0.6666404,51.8052182],[0.6599335,51.8057857],[0.6566627,51.8015115],[0.6554181,51.7914234],[0.6511148,51.784848],[0.6333136,51.7761158],[0.6326547,51.7716152],[0.6474757,51.7615036],[0.6375104,51.7576412],[0.6349558,51.7614265],[0.6185792,51.7625577],[0.6186641,51.7585415],[0.6149855,51.7580856],[0.614352,51.7608159],[0.6067226,51.7589353],[0.5986754,51.7504091],[0.5933388,51.7554416],[0.5951305,51.7340541],[0.5891021,51.7318148],[0.5948352,51.7260089],[0.6111253,51.7227805],[0.6019845,51.7088454],[0.6221433,51.7045048],[0.6258559,51.6969106],[0.6411218,51.6986121],[0.6427994,51.7020685],[0.6585792,51.700012],[0.6579184,51.6959895],[0.6723813,51.6996921],[0.6713084,51.7025459],[0.6854669,51.7062138],[0.6859949,51.7092148],[0.6545208,51.7148962],[0.6449181,51.7268278],[0.6488576,51.7453911],[0.6625541,51.7432764],[0.6630382,51.7433186],[0.6643102,51.7390012],[0.6681236,51.7414257],[0.6666423,51.7481135],[0.68526,51.7467224],[0.6956995,51.7510514],[0.7218276,51.7377343],[0.7231959,51.743099],[0.731728,51.7424243],[0.7330593,51.7397907],[0.7371861,51.741101],[0.7319459,51.7424392],[0.7320156,51.7540912],[0.7391861,51.7577016],[0.7379476,51.7618112],[0.7451444,51.7639911],[0.7357007,51.7782323],[0.7217555,51.7816427],[0.7181432,51.7973547],[0.7190086,51.8051533],[0.7133023,51.8084509],[0.7216359,51.8099964],[0.7107642,51.8173344],[0.7088818,51.8188957]]],"type":"Polygon"},"id":"E02004556","properties":{"code":"E02004556","geography":"MSOA","name":"Maldon 002"},"type":"Feature"},{"geometry":{"coordinates":[[[[0.6893559,51.7283996],[0.6894178,51.7283062],[0.6899819,51.7282586],[0.6893559,51.7283996]]],[[[0.7877177,51.7223327],[0.7779331,51.7265604],[0.7562411,51.7267352],[0.7544812,51.724538],[0.7723009,51.7186542],[0.7877177,51.7223327]]],[[[0.7448938,51.7309664],[0.7443449,51.7309756],[0.7446343,51.7309021],[0.7448938,51.7309664]]],[[[0.7442619,51.7313704],[0.7383807,51.7324907],[0.7389276,51.7323518],[0.7429643,51.7313263],[0.7430868,51.7312952],[0.7442619,51.7313704]]],[[[0.7476863,51.7320832],[0.749981,51.7345903],[0.7479831,51.7341312],[0.7473547,51.7320319],[0.7476863,51.7320832]]],[[[0.7456011,51.736684],[0.7455267,51.7363756],[0.753117,51.7355244],[0.7456011,51.736684]]],[[[0.7953419,51.7394624],[0.7952856,51.739585],[0.7947569,51.7394202],[0.7886047,51.7366457],[0.7953419,51.7394624]]],[[[0.7605194,51.7424723],[0.7605391,51.7424445],[0.7640609,51.741561],[0.7605194,51.7424723]]],[[[0.7768379,51.7438691],[0.778537,51.7393054],[0.7803097,51.7388371],[0.7768379,51.7438691]]],[[[0.6956995,51.7510514],[0.68526,51.7467224],[0.6666423,51.7481135],[0.6681236,51.7414257],[0.6760386,51.737017],[0.686262,51.7401398],[0.6904847,51.7359493],[0.6859477,51.7335435],[0.6871314,51.7317575],[0.6864431,51.7332125],[0.6895302,51.7304178],[0.6900282,51.7323651],[0.7021477,51.7279158],[0.7053473,51.7238499],[0.7145771,51.7341134],[0.7128618,51.7374932],[0.7354885,51.7294714],[0.7393729,51.7298063],[0.7375379,51.7325878],[0.73749,51.7326603],[0.7371267,51.7327295],[0.7335363,51.7382888],[0.7218276,51.7377343],[0.6956995,51.7510514]]]],"type":"MultiPolygon"},"id":"E02004557","properties":{"code":"E02004557","geography":"MSOA","name":"Maldon 003"},"type":"Feature"},{"geometry":{"coordinates":[[[[0.7218696,51.7305182],[0.7104335,51.7185578],[0.7290393,51.7183409],[0.7283101,51.7229185],[0.7241565,51.7220661],[0.7285797,51.7257839],[0.7248993,51.7270735],[0.724372,51.7249264],[0.7218696,51.7305182]]],[[[0.6488576,51.7453911],[0.6449181,51.7268278],[0.6577986,51.7310694],[0.6626669,51.7250202],[0.6711543,51.728483],[0.674182,51.7261522],[0.6814495,51.7274293],[0.6962849,51.7077727],[0.7032463,51.7081577],[0.7026148,51.7123759],[0.7110108,51.7147455],[0.7110398,51.7147739],[0.7120346,51.7157464],[0.6973159,51.7228241],[0.6992901,51.7261612],[0.6899819,51.7282586],[0.6894178,51.7283062],[0.6893559,51.7283996],[0.6886437,51.7285601],[0.6871314,51.7317575],[0.6859477,51.7335435],[0.6904847,51.7359493],[0.686262,51.7401398],[0.6760386,51.737017],[0.6681236,51.7414257],[0.6643102,51.7390012],[0.6630382,51.7433186],[0.6625541,51.7432764],[0.6488576,51.7453911]]]],"type":"MultiPolygon"},"id":"E02004558","properties":{"code":"E02004558","geography":"MSOA","name":"Maldon 004"},"type":"Feature"},{"geometry":{"coordinates":[[[0.6962849,51.7077727],[0.6814495,51.7274293],[0.674182,51.7261522],[0.6711543,51.728483],[0.6626669,51.7250202],[0.6577986,51.7310694],[0.6449181,51.7268278],[0.6545208,51.7148962],[0.6859949,51.7092148],[0.6962849,51.7077727]]],"type":"Polygon"},"id":"E02004559","properties":{"code":"E02004559","geography":"MSOA","name":"Maldon 005"},"type":"Feature"},{"geometry":{"coordinates":[[[0.9506617,51.7228718],[0.9505425,51.7308235],[0.9427206,51.7397951],[0.9277183,51.7481071],[0.8994948,51.744877],[0.8955663,51.7432962],[0.8906752,51.7413278],[0.8862618,51.733002],[0.8752357,51.7251448],[0.8481501,51.7156977],[0.8341395,51.7149872],[0.8196982,51.7210737],[0.8058544,51.7177916],[0.8013099,51.7180931],[0.8010507,51.7181103],[0.7942585,51.7171887],[0.7907816,51.710294],[0.7975329,51.707938],[0.7907933,51.7090498],[0.7901895,51.7062978],[0.7853274,51.7081382],[0.7715541,51.7040546],[0.775309,51.7017043],[0.7753,51.7016493],[0.7754105,51.7015783],[0.7739653,51.6934996],[0.7797546,51.6927797],[0.7758805,51.6915465],[0.7770007,51.6912422],[0.7775829,51.6897643],[0.7771618,51.6886968],[0.7772303,51.6882315],[0.7777896,51.6850666],[0.7822773,51.6841463],[0.7794901,51.678004],[0.7841476,51.6799964],[0.7963699,51.6786221],[0.7971687,51.6568203],[0.7907161,51.6560387],[0.7912921,51.6525867],[0.8484039,51.6416647],[0.8675887,51.6463332],[0.8733469,51.643348],[0.8717312,51.6396695],[0.8788228,51.6366452],[0.8801747,51.6386057],[0.9302965,51.6345966],[0.9357386,51.6352825],[0.9370985,51.6362173],[0.9374135,51.6518859],[0.937938,51.6525284],[0.9394142,51.654337],[0.934209,51.6538251],[0.9395997,51.6544771],[0.9391914,51.6563896],[0.9347323,51.6550756],[0.9399318,51.6591816],[0.9364963,51.660015],[0.9418196,51.6602847],[0.9356253,51.6610819],[0.9421974,51.660581],[0.9422856,51.6618899],[0.9429858,51.6722731],[0.9500277,51.6834889],[0.9394877,51.6986095],[0.9506617,51.7228718]]],"type":"Polygon"},"id":"E02004560","properties":{"code":"E02004560","geography":"MSOA","name":"Maldon 006"},"type":"Feature"},{"geometry":{"coordinates":[[[[0.7463907,51.6354048],[0.7456063,51.6387062],[0.738706,51.6374113],[0.7458055,51.6353317],[0.7464532,51.635142],[0.7463907,51.6354048]]],[[[0.7594289,51.6414817],[0.751845,51.6421503],[0.7485787,51.6375241],[0.7523897,51.6414054],[0.7559946,51.6414446],[0.7585398,51.6410116],[0.7562728,51.6398129],[0.749659,51.6363152],[0.7627398,51.640297],[0.7594289,51.6414817]]],[[[0.7465039,51.6405481],[0.7499067,51.6424853],[0.741439,51.6401681],[0.7180914,51.6417893],[0.7126517,51.6382046],[0.7114333,51.6374016],[0.7123075,51.6374666],[0.7255057,51.638448],[0.7376261,51.6342585],[0.7325583,51.6395638],[0.7453579,51.6398955],[0.7465039,51.6405481]]],[[[0.7509428,51.7091476],[0.7479778,51.7102451],[0.7437846,51.7065839],[0.7448596,51.7082313],[0.7469687,51.7114492],[0.73857,51.7128278],[0.717771,51.7161769],[0.7158531,51.7160952],[0.7145674,51.7156051],[0.7101554,51.7139092],[0.7110108,51.7147455],[0.7026148,51.7123759],[0.7032463,51.7081577],[0.6962849,51.7077727],[0.6859949,51.7092148],[0.6854669,51.7062138],[0.6713084,51.7025459],[0.6723813,51.6996921],[0.6579184,51.6959895],[0.6585792,51.700012],[0.6427994,51.7020685],[0.6411218,51.6986121],[0.6258559,51.6969106],[0.6221433,51.7045048],[0.6019845,51.7088454],[0.6045371,51.7003821],[0.6125752,51.6987519],[0.6088095,51.6819413],[0.6197387,51.6753343],[0.6234894,51.6638866],[0.6275758,51.649923],[0.6287624,51.6394471],[0.6295798,51.6393317],[0.6295515,51.6395933],[0.6578469,51.6378557],[0.6584299,51.6434491],[0.6504432,51.6457234],[0.6503528,51.648436],[0.6666222,51.6425716],[0.664807,51.6408762],[0.6598899,51.6430536],[0.6620801,51.6369908],[0.69196,51.6370054],[0.6958881,51.6392427],[0.7090088,51.6366868],[0.7107059,51.6393909],[0.7110323,51.639911],[0.7169047,51.6429985],[0.7419807,51.6412354],[0.7462106,51.6456432],[0.7454395,51.6432905],[0.7618883,51.6441466],[0.7764101,51.6360289],[0.7771306,51.6356235],[0.7846404,51.6485384],[0.7912921,51.6525867],[0.7907161,51.6560387],[0.7971687,51.6568203],[0.7963699,51.6786221],[0.7841476,51.6799964],[0.7794901,51.678004],[0.7822773,51.6841463],[0.7777896,51.6850666],[0.7733749,51.687529],[0.7767109,51.688728],[0.7768897,51.6887923],[0.7766905,51.6887974],[0.773448,51.6888812],[0.776251,51.6892094],[0.7764263,51.6908654],[0.7742804,51.6913893],[0.7740551,51.6922004],[0.7721794,51.6940434],[0.7721754,51.6950636],[0.7732665,51.6982115],[0.7721499,51.7015815],[0.7717199,51.7016768],[0.7596553,51.6999245],[0.7591379,51.6997243],[0.7588937,51.699056],[0.7593345,51.693497],[0.7565122,51.6925368],[0.7562222,51.6917427],[0.7538961,51.6915652],[0.7569133,51.6907299],[0.7531176,51.6897365],[0.7512008,51.6884977],[0.7490575,51.6886737],[0.7428941,51.6870599],[0.7465907,51.6903272],[0.7421148,51.6889216],[0.7424173,51.6900084],[0.7402141,51.6895986],[0.7397851,51.689168],[0.7414526,51.6878148],[0.7378152,51.6871905],[0.737304,51.688881],[0.7396021,51.6900352],[0.7395741,51.6908435],[0.7420378,51.6914291],[0.7392495,51.6912165],[0.7380105,51.6920743],[0.7383839,51.6938256],[0.7400704,51.6932243],[0.7405101,51.6940011],[0.7482434,51.690954],[0.746913,51.6946085],[0.7542101,51.6953531],[0.7537185,51.6987502],[0.7497645,51.700294],[0.7498139,51.7003177],[0.7691487,51.7083487],[0.7546392,51.7099918],[0.7515236,51.7075313],[0.746031,51.7048447],[0.7509428,51.7091476]]]],"type":"MultiPolygon"},"id":"E02004561","properties":{"code":"E02004561","geography":"MSOA","name":"Maldon 007"},"type":"Feature"},{"geometry":{"coordinates":[[[0.9357386,51.6352825],[0.9302965,51.6345966],[0.8801747,51.6386057],[0.8788228,51.6366452],[0.8717312,51.6396695],[0.8733469,51.643348],[0.8675887,51.6463332],[0.8484039,51.6416647],[0.7912921,51.6525867],[0.7846404,51.6485384],[0.7771306,51.6356235],[0.7951546,51.6255135],[0.8028789,51.6258709],[0.8029541,51.6293622],[0.8043488,51.6261109],[0.8228492,51.6231077],[0.8383733,51.6240369],[0.8595514,51.6212225],[0.8879397,51.6236675],[0.8919668,51.6240138],[0.9018911,51.6227289],[0.9257098,51.6287051],[0.9265168,51.628942],[0.935138,51.6348696],[0.9357386,51.6352825]]],"type":"Polygon"},"id":"E02004562","properties":{"code":"E02004562","geography":"MSOA","name":"Maldon 008"},"type":"Feature"}],"type":"FeatureCollection"}
