{"features":[{"geometry":{"coordinates":[[[0.5623364,52.9761451],[0.5622935,52.9763532],[0.5622704,52.9765416],[0.534928,52.9746302],[0.5198376,52.968621],[0.5180228,52.9662164],[0.5160165,52.9635575],[0.5149244,52.9621101],[0.4984915,52.9526761],[0.4900096,52.9478042],[0.4804511,52.9314863],[0.477682,52.9267564],[0.477396,52.9260865],[0.4846787,52.9247139],[0.4908311,52.9264021],[0.493814,52.9228726],[0.4956263,52.9298649],[0.5014365,52.9266312],[0.5078799,52.9292901],[0.5267679,52.9277805],[0.5342107,52.9163868],[0.5616711,52.9177559],[0.5618958,52.9239509],[0.5732777,52.9229972],[0.5917218,52.9237443],[0.5654611,52.9470961],[0.5623364,52.9761451]]],"type":"Polygon"},"id":"E02005551","properties":{"code":"E02005551","geography":"MSOA","name":"King's Lynn and West Norfolk 001"},"type":"Feature"},{"geometry":{"coordinates":[[[[0.7813155,52.9766713],[0.7722177,52.9788208],[0.7516351,52.9771133],[0.7613208,52.9757987],[0.7542785,52.9746655],[0.75452,52.9705488],[0.7598225,52.9724858],[0.7578632,52.9693202],[0.7466903,52.9649203],[0.7354569,52.9642736],[0.7332629,52.9641472],[0.7346619,52.9667959],[0.7368143,52.9672946],[0.7436943,52.965351],[0.7521211,52.9728551],[0.7361712,52.9753132],[0.734703,52.9756405],[0.7344691,52.9756927],[0.7259042,52.9776015],[0.7144189,52.9768167],[0.7123208,52.9766732],[0.7117441,52.9769664],[0.7096729,52.9780193],[0.7058327,52.9776437],[0.7058579,52.9772956],[0.706091,52.9740779],[0.7104516,52.9753956],[0.7166413,52.9720151],[0.7116119,52.9736428],[0.7023331,52.9733208],[0.7031184,52.9766184],[0.6997485,52.9746789],[0.7004191,52.9775025],[0.6951307,52.9781495],[0.6846139,52.9720114],[0.6791374,52.9717148],[0.6752731,52.9715054],[0.679034,52.9700393],[0.6807911,52.9693543],[0.688398,52.9708446],[0.6814782,52.9671483],[0.6788969,52.9678192],[0.6715778,52.969721],[0.6660605,52.9664001],[0.6492618,52.966828],[0.649764,52.9696816],[0.6435303,52.9661366],[0.6356703,52.9682863],[0.6454628,52.9679288],[0.6397953,52.9700652],[0.6574003,52.9709668],[0.6561454,52.9732852],[0.6697751,52.9702947],[0.6750567,52.973742],[0.6701526,52.977816],[0.6198697,52.9737426],[0.6204292,52.9703116],[0.6260177,52.9709534],[0.6191547,52.9692146],[0.6178461,52.9736074],[0.5893116,52.9767332],[0.5858649,52.9746467],[0.5935134,52.973071],[0.5900845,52.9730954],[0.5938131,52.9704649],[0.5972119,52.9733178],[0.5950764,52.9679826],[0.5945699,52.9680062],[0.594375,52.9681085],[0.5885736,52.9708696],[0.5866637,52.9695549],[0.5864084,52.9731467],[0.5816526,52.9711775],[0.5849557,52.9673751],[0.5813701,52.9705866],[0.5707301,52.9694173],[0.5748421,52.9656039],[0.5835043,52.966315],[0.5755823,52.9639774],[0.5635517,52.9694753],[0.5682746,52.9707553],[0.5631102,52.9699677],[0.5632307,52.9720529],[0.5630456,52.9727259],[0.5692785,52.9710825],[0.565741,52.972692],[0.5697021,52.9721218],[0.5701588,52.9751223],[0.5623364,52.9761451],[0.5654611,52.9470961],[0.5917218,52.9237443],[0.5732777,52.9229972],[0.5818012,52.9077358],[0.5994898,52.9058328],[0.59593,52.8979692],[0.6083208,52.8811032],[0.602987,52.8791575],[0.6081373,52.8765149],[0.6028755,52.8707517],[0.5864009,52.859854],[0.5911765,52.852238],[0.6237711,52.7980151],[0.6707889,52.7891262],[0.6893942,52.7904126],[0.7019812,52.7866493],[0.7079218,52.7884471],[0.7361673,52.7992673],[0.7309227,52.8036321],[0.7466661,52.8152297],[0.7563196,52.816414],[0.7472748,52.8206422],[0.7447562,52.8280024],[0.7250684,52.842848],[0.7277585,52.8553133],[0.7315067,52.8576342],[0.7578409,52.8557699],[0.7909537,52.8598578],[0.7911267,52.8655306],[0.7977718,52.864428],[0.7948557,52.8834849],[0.7971617,52.8852433],[0.8068805,52.8794126],[0.8215533,52.892832],[0.8152171,52.8969957],[0.8169751,52.900042],[0.7898571,52.8998253],[0.7878617,52.907859],[0.7875155,52.924223],[0.7784314,52.9516132],[0.7813155,52.9766713]]],[[[0.6801579,52.9881938],[0.6784199,52.9883744],[0.663307,52.9869867],[0.6629809,52.9825115],[0.665158,52.9859525],[0.6722573,52.9840612],[0.6716507,52.986062],[0.6800922,52.9871325],[0.6840017,52.987628],[0.6798662,52.9834785],[0.6791655,52.9827754],[0.6797351,52.9813606],[0.6813167,52.9774324],[0.6858593,52.9809446],[0.6961032,52.9808717],[0.6945092,52.9839112],[0.6973336,52.980628],[0.6983649,52.9840755],[0.6995198,52.9796603],[0.7127832,52.9796316],[0.7140753,52.9776539],[0.7257459,52.9780697],[0.738805,52.9763028],[0.729413,52.9801382],[0.7401821,52.9771127],[0.7510793,52.978377],[0.737949,52.9821755],[0.6801579,52.9881938]]]],"type":"MultiPolygon"},"id":"E02005552","properties":{"code":"E02005552","geography":"MSOA","name":"King's Lynn and West Norfolk 002"},"type":"Feature"},{"geometry":{"coordinates":[[[0.5732777,52.9229972],[0.5618958,52.9239509],[0.5616711,52.9177559],[0.5342107,52.9163868],[0.5267679,52.9277805],[0.5078799,52.9292901],[0.5014365,52.9266312],[0.4956263,52.9298649],[0.493814,52.9228726],[0.4908311,52.9264021],[0.4846787,52.9247139],[0.477396,52.9260865],[0.4654447,52.898082],[0.4454453,52.8738781],[0.4448986,52.8574631],[0.4451095,52.8573684],[0.4448335,52.8555078],[0.4447595,52.8532853],[0.4445029,52.8532786],[0.4436698,52.8476602],[0.4490073,52.8424842],[0.4542556,52.8460983],[0.4507807,52.8508008],[0.4624288,52.8533724],[0.4648083,52.8578574],[0.4766968,52.8497969],[0.4795323,52.8528185],[0.4882942,52.8524887],[0.4898363,52.8568918],[0.5603085,52.8512948],[0.5911765,52.852238],[0.5864009,52.859854],[0.6028755,52.8707517],[0.6081373,52.8765149],[0.602987,52.8791575],[0.6083208,52.8811032],[0.59593,52.8979692],[0.5994898,52.9058328],[0.5818012,52.9077358],[0.5732777,52.9229972]]],"type":"Polygon"},"id":"E02005553","properties":{"code":"E02005553","geography":"MSOA","name":"King's Lynn and West Norfolk 003"},"type":"Feature"},{"geometry":{"coordinates":[[[[0.4451095,52.8573684],[0.4448986,52.8574631],[0.4448335,52.8555078],[0.4451095,52.8573684]]],[[[0.4648083,52.8578574],[0.4624288,52.8533724],[0.4507807,52.8508008],[0.4542556,52.8460983],[0.4490073,52.8424842],[0.4436698,52.8476602],[0.4445029,52.8532786],[0.4429564,52.8532378],[0.4326552,52.8529658],[0.4157587,52.8429331],[0.4192446,52.8396726],[0.4171465,52.8330436],[0.4310839,52.8286578],[0.431831,52.8178147],[0.438216,52.8141257],[0.4343818,52.8106932],[0.4504499,52.8099362],[0.462176,52.8021862],[0.4985719,52.8020456],[0.502339,52.7995474],[0.5165274,52.8024123],[0.4919141,52.796645],[0.4993456,52.7870004],[0.5268688,52.7844876],[0.5290294,52.7758403],[0.5381325,52.7750754],[0.6107138,52.7794839],[0.6038023,52.7726364],[0.6183486,52.7697095],[0.6336624,52.7443777],[0.6681166,52.7405337],[0.6733731,52.7459572],[0.6887082,52.7519479],[0.6900651,52.7700077],[0.7004702,52.7734203],[0.6958964,52.7805158],[0.7019812,52.7866493],[0.6893942,52.7904126],[0.6707889,52.7891262],[0.6237711,52.7980151],[0.5911765,52.852238],[0.5603085,52.8512948],[0.4898363,52.8568918],[0.4882942,52.8524887],[0.4795323,52.8528185],[0.4766968,52.8497969],[0.4648083,52.8578574]]]],"type":"MultiPolygon"},"id":"E02005554","properties":{"code":"E02005554","geography":"MSOA","name":"King's Lynn and West Norfolk 004"},"type":"Feature"},{"geometry":{"coordinates":[[[0.4993456,52.7870004],[0.4919141,52.796645],[0.5165274,52.8024123],[0.502339,52.7995474],[0.4985719,52.8020456],[0.462176,52.8021862],[0.4504499,52.8099362],[0.4343818,52.8106932],[0.438216,52.8141257],[0.431831,52.8178147],[0.4310839,52.8286578],[0.4171465,52.8330436],[0.4192446,52.8396726],[0.4157587,52.8429331],[0.4154319,52.842739],[0.3729681,52.8205039],[0.3577498,52.8125259],[0.3703048,52.7915664],[0.3712997,52.7898744],[0.3718878,52.7888741],[0.3731847,52.7874545],[0.375739,52.7861116],[0.3814234,52.7887443],[0.3809654,52.7853834],[0.3799016,52.7875196],[0.3761751,52.7858823],[0.3907965,52.7781922],[0.4017773,52.776555],[0.4056538,52.7717844],[0.4204551,52.7732816],[0.4636122,52.771296],[0.4814287,52.7733873],[0.4885093,52.7770405],[0.4890235,52.7847017],[0.4993456,52.7870004]]],"type":"Polygon"},"id":"E02005555","properties":{"code":"E02005555","geography":"MSOA","name":"King's Lynn and West Norfolk 005"},"type":"Feature"},{"geometry":{"coordinates":[[[0.4636122,52.771296],[0.4204551,52.7732816],[0.418356,52.7654694],[0.4292198,52.7654153],[0.4374758,52.7667436],[0.4552138,52.7626546],[0.4636122,52.771296]]],"type":"Polygon"},"id":"E02005556","properties":{"code":"E02005556","geography":"MSOA","name":"King's Lynn and West Norfolk 006"},"type":"Feature"},{"geometry":{"coordinates":[[[[0.3761751,52.7858823],[0.3749951,52.7853637],[0.3802478,52.7822903],[0.3745922,52.784282],[0.3888919,52.7618234],[0.3936577,52.7603888],[0.3894773,52.7609565],[0.3910484,52.7586252],[0.3957297,52.760056],[0.4057953,52.757867],[0.4164601,52.758855],[0.418356,52.7654694],[0.4204551,52.7732816],[0.4056538,52.7717844],[0.4017773,52.776555],[0.3907965,52.7781922],[0.3761751,52.7858823]]],[[[0.375739,52.7861116],[0.3731847,52.7874545],[0.3748062,52.7856795],[0.375739,52.7861116]]]],"type":"MultiPolygon"},"id":"E02005557","properties":{"code":"E02005557","geography":"MSOA","name":"King's Lynn and West Norfolk 007"},"type":"Feature"},{"geometry":{"coordinates":[[[0.3748894,52.7788781],[0.3748057,52.7789988],[0.3710206,52.7847418],[0.3688405,52.7880487],[0.3686136,52.7883929],[0.3519076,52.8094229],[0.3345108,52.8172276],[0.2875422,52.8192124],[0.2687922,52.8158146],[0.2626898,52.8035863],[0.2531634,52.7973343],[0.2608891,52.7960354],[0.2519831,52.7925427],[0.2450697,52.7845034],[0.2721933,52.7727855],[0.248261,52.7651302],[0.2611045,52.7470858],[0.2603049,52.7411029],[0.25194,52.7355194],[0.2555154,52.7298947],[0.2861033,52.7255863],[0.2903187,52.7258744],[0.2937985,52.7324718],[0.3071826,52.7259063],[0.3215894,52.7287361],[0.3424271,52.7255127],[0.3480119,52.7295383],[0.3654177,52.7255232],[0.3855555,52.7396174],[0.3662452,52.7469297],[0.3746442,52.7550908],[0.3714135,52.7676896],[0.3748894,52.7788781]]],"type":"Polygon"},"id":"E02005558","properties":{"code":"E02005558","geography":"MSOA","name":"King's Lynn and West Norfolk 008"},"type":"Feature"},{"geometry":{"coordinates":[[[0.4283154,52.7460053],[0.4260207,52.7588174],[0.4323077,52.7633702],[0.4292198,52.7654153],[0.418356,52.7654694],[0.4164601,52.758855],[0.4057953,52.757867],[0.4098197,52.7526581],[0.4044979,52.7529642],[0.4015075,52.7455115],[0.4161886,52.7466884],[0.4171324,52.7498357],[0.4283154,52.7460053]]],"type":"Polygon"},"id":"E02005559","properties":{"code":"E02005559","geography":"MSOA","name":"King's Lynn and West Norfolk 009"},"type":"Feature"},{"geometry":{"coordinates":[[[0.4552138,52.7626546],[0.4374758,52.7667436],[0.4292198,52.7654153],[0.4323077,52.7633702],[0.4260207,52.7588174],[0.4283154,52.7460053],[0.434253,52.7439866],[0.4446396,52.7498926],[0.4552138,52.7626546]]],"type":"Polygon"},"id":"E02005560","properties":{"code":"E02005560","geography":"MSOA","name":"King's Lynn and West Norfolk 010"},"type":"Feature"},{"geometry":{"coordinates":[[[0.3910484,52.7586252],[0.3911204,52.7585184],[0.3931497,52.7534476],[0.395506,52.7475461],[0.3915504,52.7534753],[0.3913968,52.7538051],[0.3755371,52.7779438],[0.3748894,52.7788781],[0.3714135,52.7676896],[0.3746442,52.7550908],[0.3662452,52.7469297],[0.3855555,52.7396174],[0.3654177,52.7255232],[0.3821563,52.7262191],[0.3844379,52.6925911],[0.3869168,52.6880667],[0.4020521,52.6883768],[0.3903213,52.7152027],[0.4041296,52.7143815],[0.4056665,52.723694],[0.4199559,52.7439817],[0.434253,52.7439866],[0.4283154,52.7460053],[0.4171324,52.7498357],[0.4161886,52.7466884],[0.4015075,52.7455115],[0.4044979,52.7529642],[0.4098197,52.7526581],[0.4057953,52.757867],[0.3957297,52.760056],[0.3910484,52.7586252]]],"type":"Polygon"},"id":"E02005561","properties":{"code":"E02005561","geography":"MSOA","name":"King's Lynn and West Norfolk 011"},"type":"Feature"},{"geometry":{"coordinates":[[[0.6681166,52.7405337],[0.6336624,52.7443777],[0.6183486,52.7697095],[0.6038023,52.7726364],[0.6107138,52.7794839],[0.5381325,52.7750754],[0.5290294,52.7758403],[0.5268688,52.7844876],[0.4993456,52.7870004],[0.4890235,52.7847017],[0.4885093,52.7770405],[0.4814287,52.7733873],[0.4636122,52.771296],[0.4552138,52.7626546],[0.4446396,52.7498926],[0.434253,52.7439866],[0.4844634,52.7295633],[0.4812708,52.7042498],[0.4836373,52.6982171],[0.4934856,52.6946841],[0.48704,52.6864787],[0.5074376,52.6806646],[0.5070606,52.6773428],[0.5509633,52.6804989],[0.5710193,52.6890799],[0.6226519,52.7016703],[0.6346115,52.6931334],[0.6477304,52.6906555],[0.65374,52.7040416],[0.6714956,52.7028379],[0.6746537,52.6983677],[0.6879606,52.6979326],[0.6989996,52.701389],[0.6996363,52.7077626],[0.7054471,52.7103008],[0.711039,52.7090023],[0.7082328,52.7124125],[0.7182094,52.7217707],[0.7011101,52.7361677],[0.6681166,52.7405337]]],"type":"Polygon"},"id":"E02005562","properties":{"code":"E02005562","geography":"MSOA","name":"King's Lynn and West Norfolk 012"},"type":"Feature"},{"geometry":{"coordinates":[[[0.2555154,52.7298947],[0.25194,52.7355194],[0.2603049,52.7411029],[0.2611045,52.7470858],[0.248261,52.7651302],[0.2175399,52.7532333],[0.1863089,52.7353291],[0.1716111,52.7380123],[0.1563382,52.7078151],[0.1536292,52.6821582],[0.1571291,52.6796728],[0.1847013,52.6778751],[0.1810629,52.6720799],[0.1844142,52.6721214],[0.1838263,52.6556432],[0.2123266,52.6528726],[0.2360973,52.6468427],[0.2378468,52.6438324],[0.248098,52.6432328],[0.2486547,52.6329955],[0.2608555,52.6330742],[0.260892,52.6269907],[0.2700753,52.6244188],[0.2939173,52.6230549],[0.3209358,52.6288505],[0.3163564,52.6442835],[0.3024998,52.6559764],[0.2939832,52.6762774],[0.2848466,52.6753724],[0.2733462,52.679859],[0.2568186,52.6775351],[0.2596262,52.6897252],[0.2555154,52.7298947]]],"type":"Polygon"},"id":"E02005563","properties":{"code":"E02005563","geography":"MSOA","name":"King's Lynn and West Norfolk 013"},"type":"Feature"},{"geometry":{"coordinates":[[[0.5509633,52.6804989],[0.5070606,52.6773428],[0.5074376,52.6806646],[0.48704,52.6864787],[0.4934856,52.6946841],[0.4836373,52.6982171],[0.4812708,52.7042498],[0.4844634,52.7295633],[0.434253,52.7439866],[0.4199559,52.7439817],[0.4056665,52.723694],[0.4041296,52.7143815],[0.3903213,52.7152027],[0.4020521,52.6883768],[0.4038891,52.6740204],[0.4177274,52.666333],[0.4189519,52.661725],[0.3880664,52.663765],[0.3745412,52.6704184],[0.3621561,52.6696966],[0.3606469,52.6647166],[0.3705852,52.6621166],[0.3646869,52.657556],[0.3655941,52.6471946],[0.3728179,52.6470799],[0.3820822,52.636994],[0.4245818,52.6317184],[0.4641787,52.6361029],[0.4760629,52.640778],[0.541465,52.6360173],[0.5502177,52.6373071],[0.5571721,52.6424069],[0.5754509,52.6451764],[0.5784876,52.6534933],[0.562157,52.6552738],[0.5647173,52.6715677],[0.5509633,52.6804989]]],"type":"Polygon"},"id":"E02005564","properties":{"code":"E02005564","geography":"MSOA","name":"King's Lynn and West Norfolk 014"},"type":"Feature"},{"geometry":{"coordinates":[[[0.3654177,52.7255232],[0.3480119,52.7295383],[0.3424271,52.7255127],[0.3215894,52.7287361],[0.3071826,52.7259063],[0.2937985,52.7324718],[0.2903187,52.7258744],[0.2861033,52.7255863],[0.2555154,52.7298947],[0.2596262,52.6897252],[0.2568186,52.6775351],[0.2733462,52.679859],[0.2848466,52.6753724],[0.2939832,52.6762774],[0.3024998,52.6559764],[0.3163564,52.6442835],[0.3209358,52.6288505],[0.3546232,52.6352833],[0.3681416,52.641024],[0.3655941,52.6471946],[0.3646869,52.657556],[0.3705852,52.6621166],[0.3606469,52.6647166],[0.3621561,52.6696966],[0.3745412,52.6704184],[0.3880664,52.663765],[0.4189519,52.661725],[0.4177274,52.666333],[0.4038891,52.6740204],[0.4020521,52.6883768],[0.3869168,52.6880667],[0.3844379,52.6925911],[0.3821563,52.7262191],[0.3654177,52.7255232]]],"type":"Polygon"},"id":"E02005565","properties":{"code":"E02005565","geography":"MSOA","name":"King's Lynn and West Norfolk 015"},"type":"Feature"},{"geometry":{"coordinates":[[[0.3209358,52.6288505],[0.2939173,52.6230549],[0.2700753,52.6244188],[0.260892,52.6269907],[0.2608555,52.6330742],[0.2486547,52.6329955],[0.248098,52.6432328],[0.2378468,52.6438324],[0.2360973,52.6468427],[0.2123266,52.6528726],[0.1838263,52.6556432],[0.1760889,52.655681],[0.1783243,52.6526171],[0.1695795,52.6527371],[0.1720438,52.6486756],[0.1920119,52.6342469],[0.2192832,52.6217943],[0.2108484,52.6179099],[0.2173696,52.614507],[0.2055986,52.6117853],[0.2015017,52.6031175],[0.1915831,52.6014986],[0.1938349,52.5920853],[0.1991305,52.5917738],[0.1995273,52.58274],[0.2025933,52.5800772],[0.2157627,52.5794276],[0.218394,52.5725807],[0.2056141,52.565551],[0.2172201,52.5605757],[0.2140794,52.5561811],[0.2046896,52.5546381],[0.2051207,52.547883],[0.2146071,52.5490883],[0.2112175,52.5452185],[0.2038534,52.5453867],[0.2131259,52.5381534],[0.2058283,52.5338325],[0.2081166,52.5300688],[0.2149215,52.5320336],[0.220273,52.5289033],[0.2255854,52.5325519],[0.2305715,52.527892],[0.2223669,52.5238922],[0.2231526,52.5213664],[0.2196867,52.5231287],[0.2061036,52.5196173],[0.2362984,52.507273],[0.2387646,52.5091694],[0.2460199,52.4998737],[0.2564553,52.5076967],[0.3093398,52.5136044],[0.301171,52.5161778],[0.2940597,52.5252717],[0.2983542,52.550335],[0.3050744,52.5517022],[0.3179151,52.5631513],[0.3034701,52.5601983],[0.3448994,52.5936541],[0.3552394,52.5959862],[0.3668732,52.6154787],[0.362817,52.6213043],[0.3681416,52.641024],[0.3546232,52.6352833],[0.3209358,52.6288505]]],"type":"Polygon"},"id":"E02005566","properties":{"code":"E02005566","geography":"MSOA","name":"King's Lynn and West Norfolk 016"},"type":"Feature"},{"geometry":{"coordinates":[[[0.3552394,52.5959862],[0.3650762,52.5970779],[0.3749066,52.5927359],[0.3917586,52.5927445],[0.398164,52.5989766],[0.4004101,52.6110864],[0.3907974,52.6133322],[0.3875134,52.6108776],[0.3668732,52.6154787],[0.3552394,52.5959862]]],"type":"Polygon"},"id":"E02005567","properties":{"code":"E02005567","geography":"MSOA","name":"King's Lynn and West Norfolk 017"},"type":"Feature"},{"geometry":{"coordinates":[[[0.5350503,52.5670001],[0.5304992,52.5761058],[0.5380578,52.5862382],[0.5591079,52.5907999],[0.5648571,52.5975932],[0.5670867,52.6140786],[0.5616293,52.6131647],[0.5754509,52.6451764],[0.5571721,52.6424069],[0.5502177,52.6373071],[0.541465,52.6360173],[0.4760629,52.640778],[0.4641787,52.6361029],[0.4245818,52.6317184],[0.3820822,52.636994],[0.3728179,52.6470799],[0.3655941,52.6471946],[0.3681416,52.641024],[0.362817,52.6213043],[0.3668732,52.6154787],[0.3875134,52.6108776],[0.3907974,52.6133322],[0.4004101,52.6110864],[0.398164,52.5989766],[0.3917586,52.5927445],[0.3749066,52.5927359],[0.3650762,52.5970779],[0.3552394,52.5959862],[0.3448994,52.5936541],[0.3034701,52.5601983],[0.3179151,52.5631513],[0.3050744,52.5517022],[0.2983542,52.550335],[0.2940597,52.5252717],[0.301171,52.5161778],[0.3093398,52.5136044],[0.3172727,52.5129898],[0.3182852,52.5076398],[0.3309171,52.509118],[0.3450124,52.5016678],[0.3620719,52.4989144],[0.3670415,52.5011557],[0.3752097,52.5148305],[0.3583018,52.5306952],[0.3599101,52.5413013],[0.4039109,52.5369925],[0.4177694,52.5460545],[0.4215451,52.5551391],[0.4361482,52.5505447],[0.4454665,52.5536976],[0.4809329,52.5460672],[0.4912679,52.5472705],[0.4927754,52.5503646],[0.5079025,52.5525249],[0.5116342,52.5680883],[0.5174395,52.5659976],[0.5350503,52.5670001]]],"type":"Polygon"},"id":"E02005568","properties":{"code":"E02005568","geography":"MSOA","name":"King's Lynn and West Norfolk 018"},"type":"Feature"},{"geometry":{"coordinates":[[[0.5350503,52.5670001],[0.5174395,52.5659976],[0.5116342,52.5680883],[0.5079025,52.5525249],[0.4927754,52.5503646],[0.4912679,52.5472705],[0.4809329,52.5460672],[0.4454665,52.5536976],[0.4361482,52.5505447],[0.4215451,52.5551391],[0.4177694,52.5460545],[0.4039109,52.5369925],[0.3599101,52.5413013],[0.3583018,52.5306952],[0.3752097,52.5148305],[0.3670415,52.5011557],[0.3671225,52.4959253],[0.3806853,52.4795215],[0.3918942,52.4755106],[0.4020675,52.4653306],[0.4285064,52.4546348],[0.4234475,52.451028],[0.4293209,52.436409],[0.4455153,52.4473539],[0.4781373,52.4455572],[0.4960182,52.4472616],[0.5009006,52.4502175],[0.523812,52.4481822],[0.530354,52.4535762],[0.5403477,52.4503242],[0.5444789,52.4515941],[0.5547969,52.4560096],[0.5824767,52.451843],[0.5836505,52.4680089],[0.612104,52.5347139],[0.6051132,52.5431454],[0.5929088,52.54572],[0.5769895,52.5610345],[0.5613259,52.5665863],[0.5563003,52.5646358],[0.5350503,52.5670001]]],"type":"Polygon"},"id":"E02005569","properties":{"code":"E02005569","geography":"MSOA","name":"King's Lynn and West Norfolk 019"},"type":"Feature"}],"type":"FeatureCollection"}
