{"features":[{"geometry":{"coordinates":[[[-0.4623651,51.3299623],[-0.4740001,51.3270007],[-0.4838183,51.331508],[-0.4892366,51.329703],[-0.4890759,51.325712],[-0.4784692,51.3225554],[-0.475342,51.3164544],[-0.4874717,51.316447],[-0.5008694,51.3065667],[-0.5103195,51.3131232],[-0.5136544,51.3094679],[-0.5108749,51.3060649],[-0.5253629,51.3027681],[-0.5298892,51.2975501],[-0.5396965,51.3012205],[-0.5453144,51.2933967],[-0.549212,51.284663],[-0.5342096,51.273849],[-0.5376924,51.2731595],[-0.5373817,51.2684526],[-0.524247,51.2579539],[-0.5246875,51.2472089],[-0.5106017,51.2485001],[-0.5096993,51.2371322],[-0.5049877,51.2369396],[-0.5034397,51.2400301],[-0.4710012,51.240699],[-0.4724391,51.2557558],[-0.4662986,51.2568662],[-0.4673758,51.2619799],[-0.4629871,51.2632632],[-0.4665988,51.2703771],[-0.463132,51.2818662],[-0.4482379,51.2894456],[-0.4398911,51.2834181],[-0.4246805,51.2882785],[-0.4247833,51.2943741],[-0.4118171,51.3035683],[-0.4404159,51.3049013],[-0.4457217,51.3241428],[-0.437186,51.3274482],[-0.4462884,51.3268033],[-0.451474,51.33094],[-0.4623651,51.3299623]]],"type":"Polygon"},"id":"E02006344","properties":{"code":"E02006344","geography":"MSOA","name":"Guildford 001"},"type":"Feature"},{"geometry":{"coordinates":[[[-0.6468097,51.3119039],[-0.6713804,51.3173655],[-0.6875136,51.313813],[-0.6999247,51.2978329],[-0.6977414,51.2887733],[-0.7065778,51.2833197],[-0.7121229,51.2795218],[-0.7021237,51.2700247],[-0.7057561,51.2557238],[-0.7041106,51.2462043],[-0.7056563,51.2423409],[-0.6998684,51.2362363],[-0.650625,51.24344],[-0.6539845,51.2512091],[-0.6494496,51.2508377],[-0.6484331,51.2555911],[-0.6546121,51.2593383],[-0.6426227,51.2679199],[-0.6332063,51.2685252],[-0.6331391,51.277024],[-0.6243311,51.2771304],[-0.6186221,51.2830419],[-0.6479082,51.3043567],[-0.6468097,51.3119039]]],"type":"Polygon"},"id":"E02006345","properties":{"code":"E02006345","geography":"MSOA","name":"Guildford 002"},"type":"Feature"},{"geometry":{"coordinates":[[[-0.394765,51.2979501],[-0.4053497,51.2948943],[-0.4118171,51.3035683],[-0.4247833,51.2943741],[-0.4246805,51.2882785],[-0.4398911,51.2834181],[-0.4482379,51.2894456],[-0.463132,51.2818662],[-0.4665988,51.2703771],[-0.4629871,51.2632632],[-0.4673758,51.2619799],[-0.4662986,51.2568662],[-0.4724391,51.2557558],[-0.4710012,51.240699],[-0.4564728,51.2424614],[-0.4523671,51.2375177],[-0.4410206,51.2354024],[-0.434671,51.2399085],[-0.4251764,51.2410904],[-0.4109772,51.2351624],[-0.3990165,51.2370422],[-0.3943715,51.2553214],[-0.3892975,51.2559308],[-0.3906606,51.2626034],[-0.3871652,51.265084],[-0.3920712,51.2752158],[-0.3973997,51.2796442],[-0.394765,51.2979501]]],"type":"Polygon"},"id":"E02006346","properties":{"code":"E02006346","geography":"MSOA","name":"Guildford 003"},"type":"Feature"},{"geometry":{"coordinates":[[[-0.7057561,51.2557238],[-0.7021237,51.2700247],[-0.7121229,51.2795218],[-0.7065778,51.2833197],[-0.7202533,51.2792488],[-0.7311124,51.2803621],[-0.7316506,51.2667988],[-0.7305081,51.2549019],[-0.7182075,51.2554403],[-0.7194342,51.2571866],[-0.7057561,51.2557238]]],"type":"Polygon"},"id":"E02006347","properties":{"code":"E02006347","geography":"MSOA","name":"Guildford 004"},"type":"Feature"},{"geometry":{"coordinates":[[[-0.5507799,51.2669617],[-0.5549967,51.2708826],[-0.5637508,51.270592],[-0.6007763,51.2861151],[-0.611669,51.2821577],[-0.6186221,51.2830419],[-0.6243311,51.2771304],[-0.6331391,51.277024],[-0.6332063,51.2685252],[-0.6426227,51.2679199],[-0.6546121,51.2593383],[-0.6484331,51.2555911],[-0.6494496,51.2508377],[-0.6539845,51.2512091],[-0.650625,51.24344],[-0.6393929,51.2369213],[-0.6276756,51.2369263],[-0.6218862,51.240336],[-0.6107349,51.2431053],[-0.6188905,51.2439834],[-0.6138433,51.249468],[-0.6027376,51.2498862],[-0.596057,51.2635044],[-0.5918233,51.2667066],[-0.5840305,51.2655395],[-0.5730489,51.2612794],[-0.5716184,51.2634599],[-0.5552454,51.2639532],[-0.5507799,51.2669617]]],"type":"Polygon"},"id":"E02006348","properties":{"code":"E02006348","geography":"MSOA","name":"Guildford 005"},"type":"Feature"},{"geometry":{"coordinates":[[[-0.5840305,51.2655395],[-0.5918233,51.2667066],[-0.596057,51.2635044],[-0.5916289,51.2616905],[-0.59532,51.2570855],[-0.588134,51.2475371],[-0.5842592,51.2485157],[-0.5840305,51.2655395]]],"type":"Polygon"},"id":"E02006349","properties":{"code":"E02006349","geography":"MSOA","name":"Guildford 006"},"type":"Feature"},{"geometry":{"coordinates":[[[-0.5552454,51.2639532],[-0.5716184,51.2634599],[-0.5730489,51.2612794],[-0.5840305,51.2655395],[-0.5842592,51.2485157],[-0.5714633,51.2490573],[-0.5629865,51.2512153],[-0.5543532,51.2607239],[-0.5552454,51.2639532]]],"type":"Polygon"},"id":"E02006350","properties":{"code":"E02006350","geography":"MSOA","name":"Guildford 007"},"type":"Feature"},{"geometry":{"coordinates":[[[-0.5246875,51.2472089],[-0.524247,51.2579539],[-0.5373817,51.2684526],[-0.5443912,51.2655068],[-0.5507799,51.2669617],[-0.5552454,51.2639532],[-0.5543532,51.2607239],[-0.5498725,51.2628435],[-0.5437638,51.2584148],[-0.546482,51.2507864],[-0.5435346,51.2526491],[-0.5309428,51.2456472],[-0.5246875,51.2472089]]],"type":"Polygon"},"id":"E02006351","properties":{"code":"E02006351","geography":"MSOA","name":"Guildford 008"},"type":"Feature"},{"geometry":{"coordinates":[[[-0.588134,51.2475371],[-0.59532,51.2570855],[-0.5916289,51.2616905],[-0.596057,51.2635044],[-0.6027376,51.2498862],[-0.5959476,51.2455142],[-0.588134,51.2475371]]],"type":"Polygon"},"id":"E02006352","properties":{"code":"E02006352","geography":"MSOA","name":"Guildford 009"},"type":"Feature"},{"geometry":{"coordinates":[[[-0.7057561,51.2557238],[-0.7194342,51.2571866],[-0.7182075,51.2554403],[-0.7305081,51.2549019],[-0.7350896,51.2457425],[-0.7372441,51.2430573],[-0.7305438,51.2417448],[-0.7272574,51.245169],[-0.7239793,51.2434683],[-0.7183351,51.2517939],[-0.7041106,51.2462043],[-0.7057561,51.2557238]]],"type":"Polygon"},"id":"E02006353","properties":{"code":"E02006353","geography":"MSOA","name":"Guildford 010"},"type":"Feature"},{"geometry":{"coordinates":[[[-0.5246875,51.2472089],[-0.5309428,51.2456472],[-0.5435346,51.2526491],[-0.546482,51.2507864],[-0.5437638,51.2584148],[-0.5498725,51.2628435],[-0.5543532,51.2607239],[-0.5629865,51.2512153],[-0.5714633,51.2490573],[-0.5629745,51.2476364],[-0.5516623,51.2505533],[-0.5555539,51.2469286],[-0.5516218,51.2400328],[-0.5553048,51.2386215],[-0.5593084,51.2419651],[-0.5544398,51.2367698],[-0.5282765,51.2374119],[-0.5261175,51.2330244],[-0.5096993,51.2371322],[-0.5106017,51.2485001],[-0.5246875,51.2472089]]],"type":"Polygon"},"id":"E02006354","properties":{"code":"E02006354","geography":"MSOA","name":"Guildford 011"},"type":"Feature"},{"geometry":{"coordinates":[[[-0.5959476,51.2455142],[-0.6027376,51.2498862],[-0.6138433,51.249468],[-0.6188905,51.2439834],[-0.6107349,51.2431053],[-0.6218862,51.240336],[-0.618715,51.2309047],[-0.5928149,51.2386729],[-0.5959476,51.2455142]]],"type":"Polygon"},"id":"E02006355","properties":{"code":"E02006355","geography":"MSOA","name":"Guildford 012"},"type":"Feature"},{"geometry":{"coordinates":[[[-0.5544398,51.2367698],[-0.5593084,51.2419651],[-0.5553048,51.2386215],[-0.5516218,51.2400328],[-0.5555539,51.2469286],[-0.5516623,51.2505533],[-0.5629745,51.2476364],[-0.5714633,51.2490573],[-0.5842592,51.2485157],[-0.5766091,51.2441653],[-0.5798772,51.2389921],[-0.5754792,51.2362528],[-0.5783474,51.2365378],[-0.5697715,51.2292857],[-0.5706284,51.2345783],[-0.5544398,51.2367698]]],"type":"Polygon"},"id":"E02006356","properties":{"code":"E02006356","geography":"MSOA","name":"Guildford 013"},"type":"Feature"},{"geometry":{"coordinates":[[[-0.7041106,51.2462043],[-0.7183351,51.2517939],[-0.7239793,51.2434683],[-0.7272574,51.245169],[-0.7305438,51.2417448],[-0.7372441,51.2430573],[-0.7358042,51.2376823],[-0.7455583,51.2304577],[-0.7421269,51.2275521],[-0.7416201,51.2241812],[-0.7483549,51.2234977],[-0.746143,51.2212926],[-0.7350468,51.224802],[-0.6963669,51.2267611],[-0.6969364,51.22927],[-0.7084048,51.2311781],[-0.7077894,51.2357464],[-0.6998684,51.2362363],[-0.7056563,51.2423409],[-0.7041106,51.2462043]]],"type":"Polygon"},"id":"E02006357","properties":{"code":"E02006357","geography":"MSOA","name":"Guildford 014"},"type":"Feature"},{"geometry":{"coordinates":[[[-0.5783474,51.2365378],[-0.5754792,51.2362528],[-0.5798772,51.2389921],[-0.5766091,51.2441653],[-0.5842592,51.2485157],[-0.588134,51.2475371],[-0.5959476,51.2455142],[-0.5928149,51.2386729],[-0.618715,51.2309047],[-0.6220829,51.2271653],[-0.6168673,51.2285121],[-0.5783474,51.2365378]]],"type":"Polygon"},"id":"E02006358","properties":{"code":"E02006358","geography":"MSOA","name":"Guildford 015"},"type":"Feature"},{"geometry":{"coordinates":[[[-0.5261175,51.2330244],[-0.5282765,51.2374119],[-0.5544398,51.2367698],[-0.5706284,51.2345783],[-0.5697715,51.2292857],[-0.5783474,51.2365378],[-0.6168673,51.2285121],[-0.6047513,51.228157],[-0.6032098,51.2228981],[-0.5779142,51.2253332],[-0.5596515,51.2156553],[-0.5377424,51.2169412],[-0.5373189,51.2221352],[-0.5261175,51.2330244]]],"type":"Polygon"},"id":"E02006359","properties":{"code":"E02006359","geography":"MSOA","name":"Guildford 016"},"type":"Feature"},{"geometry":{"coordinates":[[[-0.6218862,51.240336],[-0.6276756,51.2369263],[-0.6393929,51.2369213],[-0.650625,51.24344],[-0.6998684,51.2362363],[-0.7077894,51.2357464],[-0.7084048,51.2311781],[-0.6969364,51.22927],[-0.6963669,51.2267611],[-0.7350468,51.224802],[-0.746143,51.2212926],[-0.7418767,51.2195994],[-0.7476711,51.2143911],[-0.7472196,51.2089352],[-0.7316614,51.1968643],[-0.7065788,51.2027136],[-0.7025404,51.1926504],[-0.6882821,51.1887173],[-0.6830102,51.1946472],[-0.6709795,51.1960245],[-0.6634262,51.2002494],[-0.6481403,51.1758411],[-0.6409746,51.1788605],[-0.631175,51.1841326],[-0.6299367,51.1910431],[-0.6387369,51.1951538],[-0.6355204,51.201618],[-0.6212793,51.2028843],[-0.6141343,51.2080579],[-0.5925202,51.2028873],[-0.5848879,51.1986029],[-0.5932483,51.1938592],[-0.5909259,51.1904576],[-0.5867971,51.1895311],[-0.5771179,51.188171],[-0.5737898,51.1983182],[-0.5623678,51.2016809],[-0.5555799,51.199262],[-0.5476216,51.2096065],[-0.5324668,51.2134508],[-0.5377424,51.2169412],[-0.5596515,51.2156553],[-0.5779142,51.2253332],[-0.6032098,51.2228981],[-0.6047513,51.228157],[-0.6168673,51.2285121],[-0.6220829,51.2271653],[-0.618715,51.2309047],[-0.6218862,51.240336]]],"type":"Polygon"},"id":"E02006360","properties":{"code":"E02006360","geography":"MSOA","name":"Guildford 017"},"type":"Feature"},{"geometry":{"coordinates":[[[-0.434671,51.2399085],[-0.4410206,51.2354024],[-0.4523671,51.2375177],[-0.4564728,51.2424614],[-0.4710012,51.240699],[-0.5034397,51.2400301],[-0.5049877,51.2369396],[-0.5096993,51.2371322],[-0.5261175,51.2330244],[-0.5373189,51.2221352],[-0.5377424,51.2169412],[-0.5324668,51.2134508],[-0.5268575,51.2089648],[-0.5056598,51.2050225],[-0.5053664,51.1836065],[-0.4940669,51.1843996],[-0.4885231,51.1781277],[-0.4676247,51.1795248],[-0.4570821,51.1749598],[-0.4439409,51.1835953],[-0.4329094,51.1791163],[-0.4295423,51.1740757],[-0.4279178,51.1758749],[-0.4185892,51.1731854],[-0.4083612,51.1757112],[-0.4099025,51.1927027],[-0.4189767,51.201798],[-0.4384604,51.2096827],[-0.4257001,51.230326],[-0.434671,51.2399085]]],"type":"Polygon"},"id":"E02006361","properties":{"code":"E02006361","geography":"MSOA","name":"Guildford 018"},"type":"Feature"}],"type":"FeatureCollection"}
