{"features":[{"geometry":{"coordinates":[[[-1.8577074,52.7840304],[-1.8637179,52.7899246],[-1.8898843,52.800357],[-1.9019469,52.7953054],[-1.9307844,52.8055509],[-1.9513321,52.8074115],[-1.9526358,52.8006213],[-1.9581359,52.7984743],[-1.9480482,52.793407],[-1.9506976,52.7897595],[-1.9452811,52.7893355],[-1.9520701,52.7801466],[-1.9439489,52.7737424],[-1.9272579,52.7649478],[-1.9254862,52.7637434],[-1.91138,52.7590356],[-1.917204,52.7546389],[-1.9108122,52.7511736],[-1.91491,52.7404388],[-1.9073695,52.7336177],[-1.8840163,52.735899],[-1.8601983,52.7298524],[-1.8630391,52.7344194],[-1.8573724,52.7359387],[-1.8558809,52.745438],[-1.8426979,52.7526362],[-1.8511879,52.754626],[-1.854083,52.7658206],[-1.8666039,52.777033],[-1.8577074,52.7840304]]],"type":"Polygon"},"id":"E02006146","properties":{"code":"E02006146","geography":"MSOA","name":"Lichfield 001"},"type":"Feature"},{"geometry":{"coordinates":[[[-1.767213,52.7507931],[-1.7691003,52.7480268],[-1.7758512,52.7507535],[-1.7784885,52.7461738],[-1.7841743,52.745787],[-1.7905371,52.7537691],[-1.7953223,52.752339],[-1.8078621,52.7573804],[-1.817531,52.7551736],[-1.8234948,52.7691287],[-1.8284246,52.7690252],[-1.809509,52.7831259],[-1.8175823,52.7930108],[-1.8423604,52.7959153],[-1.8449472,52.7877177],[-1.8528842,52.7823965],[-1.8577074,52.7840304],[-1.8666039,52.777033],[-1.854083,52.7658206],[-1.8511879,52.754626],[-1.8426979,52.7526362],[-1.8558809,52.745438],[-1.8573724,52.7359387],[-1.8630391,52.7344194],[-1.8601983,52.7298524],[-1.8465523,52.7212482],[-1.853761,52.711282],[-1.8656134,52.707701],[-1.8538123,52.6986045],[-1.8494189,52.7006522],[-1.8464763,52.6972139],[-1.8360523,52.7018753],[-1.8298572,52.7003466],[-1.8208922,52.7032566],[-1.8172429,52.7011909],[-1.8038065,52.7069582],[-1.7800101,52.6997003],[-1.7828507,52.6973977],[-1.7762565,52.6954659],[-1.7591039,52.7025785],[-1.7440839,52.7006512],[-1.7324699,52.7061983],[-1.7306457,52.717934],[-1.7231209,52.7220607],[-1.726026,52.7287194],[-1.7176453,52.7312676],[-1.7235855,52.7392645],[-1.7506096,52.7391308],[-1.767213,52.7507931]]],"type":"Polygon"},"id":"E02006147","properties":{"code":"E02006147","geography":"MSOA","name":"Lichfield 002"},"type":"Feature"},{"geometry":{"coordinates":[[[-1.8601983,52.7298524],[-1.8840163,52.735899],[-1.9073695,52.7336177],[-1.91491,52.7404388],[-1.9339401,52.7276628],[-1.9358676,52.7208387],[-1.9373911,52.7140658],[-1.9155169,52.7106219],[-1.9294159,52.7049886],[-1.9326265,52.6962965],[-1.9235464,52.6933066],[-1.9293191,52.6916027],[-1.9227803,52.6905328],[-1.926633,52.6871955],[-1.9158156,52.6827065],[-1.9042679,52.6827557],[-1.9071363,52.6778816],[-1.8992912,52.6754149],[-1.8725762,52.6744149],[-1.8659743,52.6802524],[-1.8527066,52.6822793],[-1.8507902,52.6944659],[-1.8538123,52.6986045],[-1.8656134,52.707701],[-1.853761,52.711282],[-1.8465523,52.7212482],[-1.8601983,52.7298524]]],"type":"Polygon"},"id":"E02006148","properties":{"code":"E02006148","geography":"MSOA","name":"Lichfield 003"},"type":"Feature"},{"geometry":{"coordinates":[[[-1.8217154,52.6816404],[-1.8161637,52.6875946],[-1.822719,52.6906228],[-1.8202204,52.6963195],[-1.8237259,52.6986746],[-1.8275479,52.6956282],[-1.8339688,52.6970142],[-1.8360523,52.7018753],[-1.8464763,52.6972139],[-1.8494189,52.7006522],[-1.8538123,52.6986045],[-1.8507902,52.6944659],[-1.8488879,52.6925143],[-1.8398624,52.6957605],[-1.8353882,52.6931694],[-1.8375457,52.6902294],[-1.8336373,52.6912694],[-1.8307487,52.6880551],[-1.8343999,52.6864237],[-1.840844,52.6890089],[-1.8448463,52.6865471],[-1.8348865,52.6811754],[-1.8431207,52.6770567],[-1.8410041,52.6720762],[-1.8217154,52.6816404]]],"type":"Polygon"},"id":"E02006149","properties":{"code":"E02006149","geography":"MSOA","name":"Lichfield 004"},"type":"Feature"},{"geometry":{"coordinates":[[[-1.8172429,52.7011909],[-1.8208922,52.7032566],[-1.8298572,52.7003466],[-1.8360523,52.7018753],[-1.8339688,52.6970142],[-1.8275479,52.6956282],[-1.8237259,52.6986746],[-1.8202204,52.6963195],[-1.822719,52.6906228],[-1.8161637,52.6875946],[-1.8217154,52.6816404],[-1.8178736,52.6819217],[-1.8151885,52.6763606],[-1.8193645,52.6731178],[-1.813979,52.672755],[-1.8190652,52.6679724],[-1.8113385,52.668071],[-1.8050263,52.6724632],[-1.7927212,52.6846816],[-1.8123713,52.6946514],[-1.8172429,52.7011909]]],"type":"Polygon"},"id":"E02006150","properties":{"code":"E02006150","geography":"MSOA","name":"Lichfield 005"},"type":"Feature"},{"geometry":{"coordinates":[[[-1.926633,52.6871955],[-1.9227803,52.6905328],[-1.9293191,52.6916027],[-1.9235464,52.6933066],[-1.9326265,52.6962965],[-1.9496388,52.6956515],[-1.9481676,52.6908165],[-1.954594,52.6845087],[-1.9592566,52.6841326],[-1.9583172,52.6768116],[-1.9620057,52.6782084],[-1.9632321,52.6746166],[-1.9545757,52.6626251],[-1.9454082,52.6562824],[-1.9354988,52.6597053],[-1.9335755,52.6615937],[-1.9223962,52.6560301],[-1.9218572,52.6666531],[-1.9310412,52.6692639],[-1.9274946,52.6708508],[-1.9299583,52.6729143],[-1.933494,52.6707554],[-1.9383891,52.6746464],[-1.9259586,52.68057],[-1.9338724,52.6816732],[-1.9337087,52.6881289],[-1.926633,52.6871955]]],"type":"Polygon"},"id":"E02006151","properties":{"code":"E02006151","geography":"MSOA","name":"Lichfield 006"},"type":"Feature"},{"geometry":{"coordinates":[[[-1.8217154,52.6816404],[-1.8410041,52.6720762],[-1.8431207,52.6770567],[-1.8348865,52.6811754],[-1.8448463,52.6865471],[-1.840844,52.6890089],[-1.8343999,52.6864237],[-1.8307487,52.6880551],[-1.8336373,52.6912694],[-1.8375457,52.6902294],[-1.8353882,52.6931694],[-1.8398624,52.6957605],[-1.8488879,52.6925143],[-1.8507902,52.6944659],[-1.8527066,52.6822793],[-1.8640905,52.67242],[-1.8527455,52.6686319],[-1.8519229,52.6656491],[-1.8409537,52.6646182],[-1.8420868,52.6610446],[-1.8361687,52.6579066],[-1.8334811,52.6594004],[-1.8179086,52.6648574],[-1.8159954,52.6620152],[-1.8113385,52.668071],[-1.8190652,52.6679724],[-1.813979,52.672755],[-1.8193645,52.6731178],[-1.8151885,52.6763606],[-1.8178736,52.6819217],[-1.8217154,52.6816404]]],"type":"Polygon"},"id":"E02006152","properties":{"code":"E02006152","geography":"MSOA","name":"Lichfield 007"},"type":"Feature"},{"geometry":{"coordinates":[[[-1.5975475,52.7004044],[-1.6055008,52.6965218],[-1.6153813,52.7006903],[-1.6252573,52.6974056],[-1.6353471,52.7024662],[-1.6376595,52.6996584],[-1.6550481,52.6987815],[-1.6543079,52.7081915],[-1.6592977,52.7140663],[-1.6566142,52.7217312],[-1.6756013,52.7248527],[-1.6779509,52.7274868],[-1.6969583,52.7271773],[-1.7041645,52.7320613],[-1.7108023,52.7298387],[-1.7176453,52.7312676],[-1.726026,52.7287194],[-1.7231209,52.7220607],[-1.7306457,52.717934],[-1.7324699,52.7061983],[-1.7440839,52.7006512],[-1.7591039,52.7025785],[-1.7762565,52.6954659],[-1.7828507,52.6973977],[-1.7800101,52.6997003],[-1.8038065,52.7069582],[-1.8172429,52.7011909],[-1.8123713,52.6946514],[-1.7927212,52.6846816],[-1.8050263,52.6724632],[-1.7944574,52.6697547],[-1.7737178,52.6555618],[-1.7607677,52.6615171],[-1.7519486,52.6563018],[-1.7613205,52.6470189],[-1.7500271,52.6424781],[-1.7552598,52.6311864],[-1.7518159,52.6279962],[-1.7426027,52.6258587],[-1.7312355,52.632716],[-1.7357784,52.6366848],[-1.7341361,52.6435826],[-1.7214141,52.6476643],[-1.7224456,52.6513677],[-1.689667,52.6509634],[-1.6843181,52.6472308],[-1.6449503,52.6574999],[-1.6155965,52.6686984],[-1.6155508,52.6719621],[-1.6042716,52.6737044],[-1.6042892,52.6789814],[-1.5896516,52.6872435],[-1.5862915,52.6944814],[-1.5975475,52.7004044]]],"type":"Polygon"},"id":"E02006153","properties":{"code":"E02006153","geography":"MSOA","name":"Lichfield 008"},"type":"Feature"},{"geometry":{"coordinates":[[[-1.926633,52.6871955],[-1.9337087,52.6881289],[-1.9338724,52.6816732],[-1.9259586,52.68057],[-1.9152749,52.6790849],[-1.9134128,52.6741035],[-1.9274946,52.6708508],[-1.9310412,52.6692639],[-1.9218572,52.6666531],[-1.9223962,52.6560301],[-1.9128489,52.6582174],[-1.9086665,52.6539837],[-1.9180214,52.6498789],[-1.9050903,52.6431914],[-1.8628774,52.6708066],[-1.8725762,52.6744149],[-1.8992912,52.6754149],[-1.9071363,52.6778816],[-1.9042679,52.6827557],[-1.9158156,52.6827065],[-1.926633,52.6871955]]],"type":"Polygon"},"id":"E02006154","properties":{"code":"E02006154","geography":"MSOA","name":"Lichfield 009"},"type":"Feature"},{"geometry":{"coordinates":[[[-1.9274946,52.6708508],[-1.9134128,52.6741035],[-1.9152749,52.6790849],[-1.9259586,52.68057],[-1.9383891,52.6746464],[-1.933494,52.6707554],[-1.9299583,52.6729143],[-1.9274946,52.6708508]]],"type":"Polygon"},"id":"E02006155","properties":{"code":"E02006155","geography":"MSOA","name":"Lichfield 010"},"type":"Feature"},{"geometry":{"coordinates":[[[-1.8334811,52.6594004],[-1.8361687,52.6579066],[-1.8420868,52.6610446],[-1.8409537,52.6646182],[-1.8519229,52.6656491],[-1.8527455,52.6686319],[-1.8640905,52.67242],[-1.8527066,52.6822793],[-1.8659743,52.6802524],[-1.8725762,52.6744149],[-1.8628774,52.6708066],[-1.9050903,52.6431914],[-1.9159821,52.635275],[-1.8943345,52.6226463],[-1.8851493,52.6126553],[-1.8903952,52.5982741],[-1.8725712,52.584929],[-1.8559544,52.5996895],[-1.8487088,52.6045922],[-1.8278209,52.6086535],[-1.8204179,52.6065044],[-1.8190702,52.6061447],[-1.816677,52.6305058],[-1.8230013,52.636135],[-1.8119453,52.6403494],[-1.8093557,52.646578],[-1.825306,52.6522722],[-1.824033,52.6545672],[-1.8334811,52.6594004]]],"type":"Polygon"},"id":"E02006156","properties":{"code":"E02006156","geography":"MSOA","name":"Lichfield 011"},"type":"Feature"},{"geometry":{"coordinates":[[[-1.7312355,52.632716],[-1.7426027,52.6258587],[-1.7518159,52.6279962],[-1.7552598,52.6311864],[-1.7500271,52.6424781],[-1.7613205,52.6470189],[-1.7519486,52.6563018],[-1.7607677,52.6615171],[-1.7737178,52.6555618],[-1.7944574,52.6697547],[-1.8050263,52.6724632],[-1.8113385,52.668071],[-1.8159954,52.6620152],[-1.8179086,52.6648574],[-1.8334811,52.6594004],[-1.824033,52.6545672],[-1.825306,52.6522722],[-1.8093557,52.646578],[-1.8119453,52.6403494],[-1.8230013,52.636135],[-1.816677,52.6305058],[-1.8190702,52.6061447],[-1.7965369,52.5991071],[-1.7880886,52.5878464],[-1.7763254,52.5922036],[-1.7684798,52.5891],[-1.7424147,52.5943089],[-1.7390081,52.5892835],[-1.7293182,52.5879174],[-1.7047927,52.5874895],[-1.7003994,52.5908955],[-1.7037512,52.5960458],[-1.6951325,52.5987574],[-1.6887548,52.6055773],[-1.6914598,52.6173747],[-1.7022128,52.6158324],[-1.718859,52.6277717],[-1.7312355,52.632716]]],"type":"Polygon"},"id":"E02006157","properties":{"code":"E02006157","geography":"MSOA","name":"Lichfield 012"},"type":"Feature"}],"type":"FeatureCollection"}
