{"features":[{"geometry":{"coordinates":[[[0.9732491,51.268592],[0.9550028,51.2702434],[0.951082,51.2575772],[0.9418928,51.2534394],[0.9236981,51.2594123],[0.9194998,51.2511007],[0.9052907,51.2501844],[0.9049428,51.2455935],[0.8920267,51.2476342],[0.8800211,51.2390249],[0.8887405,51.223058],[0.8980267,51.2258388],[0.9079079,51.2135603],[0.8930082,51.2100693],[0.8828344,51.1976079],[0.8675912,51.1986063],[0.8644798,51.1929231],[0.861162,51.1939969],[0.86563,51.1865047],[0.8619034,51.1804114],[0.8661369,51.1756079],[0.8626868,51.1736145],[0.8639403,51.16657],[0.8785835,51.169602],[0.8921358,51.1779032],[0.9147481,51.1717779],[0.9105921,51.167824],[0.9063157,51.1610895],[0.9094993,51.158121],[0.9060536,51.1565364],[0.9072236,51.1501395],[0.912699,51.1442334],[0.918954,51.1449294],[0.9247326,51.14008],[0.9306665,51.1385203],[0.9466244,51.1437841],[0.9354021,51.1485803],[0.9414091,51.1527239],[0.9381603,51.1565835],[0.9434133,51.1608821],[0.9408545,51.1636627],[0.9489113,51.1695937],[0.9531578,51.1666285],[0.9608689,51.1673826],[0.9605736,51.1621048],[0.9729921,51.1609955],[0.978039,51.1552384],[0.9848768,51.1576371],[0.9824843,51.1645173],[0.9860829,51.1704247],[0.968459,51.1769087],[0.972584,51.1826701],[0.9849284,51.1791427],[0.9903547,51.1836053],[0.9951895,51.1808797],[0.9916562,51.1705168],[0.999496,51.1721176],[1.0039394,51.1800508],[0.9893695,51.1902315],[0.9971633,51.1917904],[1.0028844,51.1973869],[1.0053679,51.2084842],[0.9971971,51.2212831],[0.9902968,51.2243045],[0.9913061,51.2304088],[0.986144,51.2358655],[0.9903818,51.2457941],[0.9981717,51.251363],[0.9738678,51.26706],[0.9732491,51.268592]]],"type":"Polygon"},"id":"E02004996","properties":{"code":"E02004996","geography":"MSOA","name":"Ashford 001"},"type":"Feature"},{"geometry":{"coordinates":[[[0.8661369,51.1756079],[0.8619034,51.1804114],[0.86563,51.1865047],[0.861162,51.1939969],[0.8644798,51.1929231],[0.8675912,51.1986063],[0.8828344,51.1976079],[0.8930082,51.2100693],[0.9079079,51.2135603],[0.8980267,51.2258388],[0.8887405,51.223058],[0.8800211,51.2390249],[0.863464,51.2388711],[0.8598438,51.2308366],[0.852212,51.2312604],[0.8417371,51.2371015],[0.8221388,51.2243478],[0.8039184,51.2296502],[0.7950872,51.2285348],[0.791215,51.2308263],[0.7957337,51.2368777],[0.7926265,51.2380736],[0.7824249,51.2393653],[0.7712565,51.2270979],[0.7445535,51.2146618],[0.7469899,51.2105907],[0.743861,51.2087072],[0.7260694,51.2089358],[0.7238478,51.2114153],[0.7167964,51.2111421],[0.7097521,51.1996186],[0.6993812,51.1999538],[0.7018077,51.1973398],[0.6837157,51.191127],[0.6849172,51.1786966],[0.6884462,51.1744251],[0.7233447,51.1705216],[0.7340015,51.1618329],[0.7296074,51.1557297],[0.7417187,51.1511001],[0.7550957,51.150409],[0.7637362,51.1554349],[0.7742514,51.1562778],[0.7733696,51.1520677],[0.7795106,51.1491571],[0.788108,51.1535823],[0.7971017,51.1512738],[0.8022514,51.1555883],[0.826067,51.1560921],[0.8302741,51.1637249],[0.8365397,51.1638225],[0.8409649,51.1626381],[0.8473523,51.1671437],[0.8661369,51.1756079]]],"type":"Polygon"},"id":"E02004997","properties":{"code":"E02004997","geography":"MSOA","name":"Ashford 002"},"type":"Feature"},{"geometry":{"coordinates":[[[0.9105921,51.167824],[0.9147481,51.1717779],[0.8921358,51.1779032],[0.8785835,51.169602],[0.8841342,51.1670453],[0.8795566,51.1576078],[0.8744637,51.1578683],[0.8818272,51.1547988],[0.8933641,51.1499624],[0.9105921,51.167824]]],"type":"Polygon"},"id":"E02004998","properties":{"code":"E02004998","geography":"MSOA","name":"Ashford 003"},"type":"Feature"},{"geometry":{"coordinates":[[[0.8933641,51.1499624],[0.8818272,51.1547988],[0.8809617,51.14915],[0.8669007,51.1517959],[0.8660849,51.1466856],[0.8592538,51.1476393],[0.8607392,51.1377399],[0.8634572,51.1358052],[0.8748159,51.1352833],[0.8780977,51.1398474],[0.8792798,51.1338871],[0.8898019,51.1355024],[0.8931016,51.136979],[0.8888745,51.1416554],[0.8933641,51.1499624]]],"type":"Polygon"},"id":"E02005000","properties":{"code":"E02005000","geography":"MSOA","name":"Ashford 005"},"type":"Feature"},{"geometry":{"coordinates":[[[0.9247326,51.14008],[0.918954,51.1449294],[0.912699,51.1442334],[0.9072236,51.1501395],[0.9060536,51.1565364],[0.9094993,51.158121],[0.9063157,51.1610895],[0.9105921,51.167824],[0.8933641,51.1499624],[0.8888745,51.1416554],[0.8931016,51.136979],[0.8898019,51.1355024],[0.9016347,51.1349683],[0.88695,51.1258351],[0.9027432,51.1276853],[0.9091517,51.1344691],[0.9208772,51.1350224],[0.9247326,51.14008]]],"type":"Polygon"},"id":"E02005001","properties":{"code":"E02005001","geography":"MSOA","name":"Ashford 006"},"type":"Feature"},{"geometry":{"coordinates":[[[0.8592538,51.1476393],[0.8480484,51.148391],[0.8434906,51.1408247],[0.8394362,51.1410876],[0.8326318,51.1350231],[0.8383224,51.1330399],[0.8474327,51.1320486],[0.8607392,51.1377399],[0.8592538,51.1476393]]],"type":"Polygon"},"id":"E02005002","properties":{"code":"E02005002","geography":"MSOA","name":"Ashford 007"},"type":"Feature"},{"geometry":{"coordinates":[[[0.8634572,51.1358052],[0.8607392,51.1377399],[0.8474327,51.1320486],[0.8383224,51.1330399],[0.8396238,51.128492],[0.8319165,51.1267521],[0.8428134,51.1217495],[0.8486912,51.1232617],[0.8498018,51.1249487],[0.8593531,51.127118],[0.8634572,51.1358052]]],"type":"Polygon"},"id":"E02005003","properties":{"code":"E02005003","geography":"MSOA","name":"Ashford 008"},"type":"Feature"},{"geometry":{"coordinates":[[[0.8898019,51.1355024],[0.8792798,51.1338871],[0.8780977,51.1398474],[0.8748159,51.1352833],[0.8634572,51.1358052],[0.8593531,51.127118],[0.8498018,51.1249487],[0.8560845,51.1202452],[0.8604463,51.1217381],[0.8688731,51.1189985],[0.8690874,51.1132753],[0.8798904,51.109043],[0.8796808,51.126464],[0.88695,51.1258351],[0.9016347,51.1349683],[0.8898019,51.1355024]]],"type":"Polygon"},"id":"E02005004","properties":{"code":"E02005004","geography":"MSOA","name":"Ashford 009"},"type":"Feature"},{"geometry":{"coordinates":[[[0.999496,51.1721176],[0.9916562,51.1705168],[0.9951895,51.1808797],[0.9903547,51.1836053],[0.9849284,51.1791427],[0.972584,51.1826701],[0.968459,51.1769087],[0.9860829,51.1704247],[0.9824843,51.1645173],[0.9848768,51.1576371],[0.978039,51.1552384],[0.9729921,51.1609955],[0.9605736,51.1621048],[0.9608689,51.1673826],[0.9531578,51.1666285],[0.9489113,51.1695937],[0.9408545,51.1636627],[0.9434133,51.1608821],[0.9381603,51.1565835],[0.9414091,51.1527239],[0.9354021,51.1485803],[0.9466244,51.1437841],[0.9306665,51.1385203],[0.9247326,51.14008],[0.9208772,51.1350224],[0.9091517,51.1344691],[0.9027432,51.1276853],[0.88695,51.1258351],[0.8796808,51.126464],[0.8798904,51.109043],[0.8690874,51.1132753],[0.8688731,51.1189985],[0.8604463,51.1217381],[0.8560845,51.1202452],[0.8498018,51.1249487],[0.8486912,51.1232617],[0.8472517,51.1208301],[0.8582297,51.1183315],[0.8563016,51.1157648],[0.8504692,51.1165385],[0.8547882,51.1125372],[0.8515176,51.1039914],[0.8590771,51.1006106],[0.8401382,51.0950813],[0.8621889,51.0796774],[0.8668916,51.068483],[0.8597855,51.0612412],[0.8663806,51.0604173],[0.8726588,51.0528035],[0.8814154,51.0483381],[0.8820961,51.0427126],[0.894448,51.0369865],[0.9000884,51.0386576],[0.89794,51.0449188],[0.9032904,51.0504627],[0.9144052,51.0498124],[0.9153495,51.0534255],[0.9227597,51.0520746],[0.9213021,51.0561167],[0.9342401,51.0611465],[0.9440942,51.0549055],[0.9534729,51.0572812],[0.9688949,51.0629252],[0.9665434,51.0702161],[0.9674142,51.0770651],[0.9755069,51.0790171],[0.9834331,51.0910848],[0.9853828,51.1001197],[0.9779409,51.1051604],[0.9833554,51.1083273],[0.9797351,51.1121863],[0.9953876,51.1181668],[0.9955576,51.1223694],[1.0088002,51.1164552],[1.0168415,51.1194021],[1.0175502,51.1254221],[1.0220986,51.1238406],[1.0292085,51.132537],[1.0205378,51.1346624],[1.0179821,51.1412897],[1.008591,51.1450012],[1.013252,51.1510805],[1.0094662,51.154095],[1.0168924,51.1611993],[0.9984063,51.1647392],[0.999496,51.1721176]]],"type":"Polygon"},"id":"E02005005","properties":{"code":"E02005005","geography":"MSOA","name":"Ashford 010"},"type":"Feature"},{"geometry":{"coordinates":[[[0.6849172,51.1786966],[0.6783721,51.1791947],[0.6766907,51.1722651],[0.6645206,51.1713491],[0.6666018,51.1681505],[0.6586475,51.1638389],[0.6575745,51.1581296],[0.6476141,51.1526731],[0.649972,51.1453929],[0.6394441,51.1412949],[0.6421336,51.1404644],[0.6364227,51.1368407],[0.6262411,51.1390133],[0.6198795,51.1321539],[0.6036184,51.1316753],[0.6089939,51.1178711],[0.5903382,51.1113417],[0.5955682,51.1083404],[0.596593,51.0902523],[0.6293472,51.0914238],[0.6425508,51.0827974],[0.6466437,51.083284],[0.6663556,51.1000034],[0.6846526,51.0993553],[0.6940679,51.0867965],[0.7040086,51.0914375],[0.7134431,51.0916092],[0.7206648,51.0831143],[0.7294927,51.0837565],[0.7276251,51.0910117],[0.7428123,51.0938015],[0.7501063,51.098581],[0.7485093,51.106769],[0.7198044,51.1190307],[0.7238411,51.1225893],[0.7139849,51.1229237],[0.7072229,51.1278061],[0.7161039,51.1426212],[0.7136159,51.1484217],[0.7293227,51.1515136],[0.7296074,51.1557297],[0.7340015,51.1618329],[0.7233447,51.1705216],[0.6884462,51.1744251],[0.6849172,51.1786966]]],"type":"Polygon"},"id":"E02005006","properties":{"code":"E02005006","geography":"MSOA","name":"Ashford 011"},"type":"Feature"},{"geometry":{"coordinates":[[[0.8480484,51.148391],[0.836714,51.1529992],[0.83969,51.154679],[0.8365397,51.1638225],[0.8302741,51.1637249],[0.826067,51.1560921],[0.8022514,51.1555883],[0.7971017,51.1512738],[0.788108,51.1535823],[0.7795106,51.1491571],[0.7733696,51.1520677],[0.7742514,51.1562778],[0.7637362,51.1554349],[0.7550957,51.150409],[0.7417187,51.1511001],[0.7296074,51.1557297],[0.7293227,51.1515136],[0.7136159,51.1484217],[0.7161039,51.1426212],[0.7072229,51.1278061],[0.7139849,51.1229237],[0.7238411,51.1225893],[0.7198044,51.1190307],[0.7485093,51.106769],[0.7501063,51.098581],[0.7428123,51.0938015],[0.7276251,51.0910117],[0.7294927,51.0837565],[0.7340743,51.0812517],[0.7288836,51.0739408],[0.7380678,51.062406],[0.7422604,51.0640467],[0.7467662,51.0570067],[0.7557447,51.055471],[0.7570308,51.0485799],[0.7528619,51.0443766],[0.7616416,51.0412518],[0.7669128,51.0470802],[0.7637452,51.0556612],[0.770118,51.0604227],[0.7933907,51.0628368],[0.802169,51.0684474],[0.8113933,51.0886764],[0.8141956,51.083245],[0.8193137,51.0872869],[0.8230043,51.0854384],[0.8295154,51.0886988],[0.8269876,51.0908071],[0.8350811,51.0965221],[0.8401382,51.0950813],[0.8590771,51.1006106],[0.8515176,51.1039914],[0.8547882,51.1125372],[0.8504692,51.1165385],[0.8563016,51.1157648],[0.8582297,51.1183315],[0.8472517,51.1208301],[0.8486912,51.1232617],[0.8428134,51.1217495],[0.8319165,51.1267521],[0.8396238,51.128492],[0.8383224,51.1330399],[0.8326318,51.1350231],[0.8394362,51.1410876],[0.8434906,51.1408247],[0.8480484,51.148391]]],"type":"Polygon"},"id":"E02005007","properties":{"code":"E02005007","geography":"MSOA","name":"Ashford 012"},"type":"Feature"},{"geometry":{"coordinates":[[[0.7294927,51.0837565],[0.7206648,51.0831143],[0.7134431,51.0916092],[0.7040086,51.0914375],[0.6940679,51.0867965],[0.6846526,51.0993553],[0.6663556,51.1000034],[0.6466437,51.083284],[0.6446797,51.0778907],[0.6272633,51.0665806],[0.6116865,51.0635487],[0.5934704,51.0418544],[0.593303,51.0314519],[0.6024266,51.0267645],[0.5958189,51.0249482],[0.5972255,51.0208201],[0.6060348,51.0199637],[0.6053615,51.0120725],[0.6276317,51.0178543],[0.6371324,51.0118791],[0.6466557,51.0168403],[0.6549665,51.0147227],[0.662075,51.0174758],[0.6844896,51.0331734],[0.7003584,51.0378931],[0.7144826,51.0372258],[0.718375,51.041546],[0.7008764,51.0571395],[0.7033051,51.0619909],[0.69994,51.0645588],[0.7039828,51.0675569],[0.697689,51.0687427],[0.6939873,51.0748897],[0.7016514,51.074077],[0.7083319,51.0788556],[0.7288836,51.0739408],[0.7340743,51.0812517],[0.7294927,51.0837565]]],"type":"Polygon"},"id":"E02005008","properties":{"code":"E02005008","geography":"MSOA","name":"Ashford 013"},"type":"Feature"},{"geometry":{"coordinates":[[[0.8401382,51.0950813],[0.8350811,51.0965221],[0.8269876,51.0908071],[0.8295154,51.0886988],[0.8230043,51.0854384],[0.8193137,51.0872869],[0.8141956,51.083245],[0.8113933,51.0886764],[0.802169,51.0684474],[0.7933907,51.0628368],[0.770118,51.0604227],[0.7637452,51.0556612],[0.7669128,51.0470802],[0.7616416,51.0412518],[0.7528619,51.0443766],[0.7570308,51.0485799],[0.7557447,51.055471],[0.7467662,51.0570067],[0.7422604,51.0640467],[0.7380678,51.062406],[0.7288836,51.0739408],[0.7083319,51.0788556],[0.7016514,51.074077],[0.6939873,51.0748897],[0.697689,51.0687427],[0.7039828,51.0675569],[0.69994,51.0645588],[0.7033051,51.0619909],[0.7008764,51.0571395],[0.718375,51.041546],[0.7144826,51.0372258],[0.7003584,51.0378931],[0.6844896,51.0331734],[0.662075,51.0174758],[0.676925,51.0033021],[0.6991892,50.9984937],[0.7067399,50.9936053],[0.7112236,50.998475],[0.7405797,51.0006791],[0.7789237,50.9894943],[0.8308386,51.049373],[0.8376174,51.0458417],[0.8310596,51.0417238],[0.8400828,51.0389423],[0.8390598,51.0313552],[0.8547754,51.0317645],[0.8534068,51.04315],[0.86965,51.0441142],[0.8689699,51.0516124],[0.8726588,51.0528035],[0.8663806,51.0604173],[0.8597855,51.0612412],[0.8668916,51.068483],[0.8621889,51.0796774],[0.8401382,51.0950813]]],"type":"Polygon"},"id":"E02005009","properties":{"code":"E02005009","geography":"MSOA","name":"Ashford 014"},"type":"Feature"},{"geometry":{"coordinates":[[[0.8785835,51.169602],[0.8639403,51.16657],[0.8626868,51.1736145],[0.8661369,51.1756079],[0.8473523,51.1671437],[0.8669007,51.1517959],[0.8809617,51.14915],[0.8818272,51.1547988],[0.8744637,51.1578683],[0.8795566,51.1576078],[0.8841342,51.1670453],[0.8785835,51.169602]]],"type":"Polygon"},"id":"E02007046","properties":{"code":"E02007046","geography":"MSOA","name":"Ashford 015"},"type":"Feature"},{"geometry":{"coordinates":[[[0.8669007,51.1517959],[0.8473523,51.1671437],[0.8409649,51.1626381],[0.8365397,51.1638225],[0.83969,51.154679],[0.836714,51.1529992],[0.8480484,51.148391],[0.8592538,51.1476393],[0.8660849,51.1466856],[0.8669007,51.1517959]]],"type":"Polygon"},"id":"E02007047","properties":{"code":"E02007047","geography":"MSOA","name":"Ashford 016"},"type":"Feature"}],"type":"FeatureCollection"}
