{"features":[{"geometry":{"coordinates":[[[-1.4240937,52.5395705],[-1.4600028,52.5515731],[-1.4866622,52.5403723],[-1.4927043,52.5404034],[-1.4812097,52.5339881],[-1.4696287,52.5301229],[-1.4561415,52.5277763],[-1.4514912,52.5358565],[-1.4389034,52.532826],[-1.4383774,52.5361155],[-1.4246304,52.5366699],[-1.4240937,52.5395705]]],"type":"Polygon"},"id":"E02006475","properties":{"code":"E02006475","geography":"MSOA","name":"Nuneaton and Bedworth 001"},"type":"Feature"},{"geometry":{"coordinates":[[[-1.4927043,52.5404034],[-1.4970994,52.5423931],[-1.5017225,52.5387218],[-1.5183379,52.5373353],[-1.5151095,52.5291393],[-1.5097062,52.5269016],[-1.5023301,52.5254841],[-1.4916244,52.5286646],[-1.4869947,52.5261952],[-1.4805724,52.5296238],[-1.4812097,52.5339881],[-1.4927043,52.5404034]]],"type":"Polygon"},"id":"E02006476","properties":{"code":"E02006476","geography":"MSOA","name":"Nuneaton and Bedworth 002"},"type":"Feature"},{"geometry":{"coordinates":[[[-1.4189681,52.5377506],[-1.4240937,52.5395705],[-1.4246304,52.5366699],[-1.4383774,52.5361155],[-1.4389034,52.532826],[-1.4514912,52.5358565],[-1.4561415,52.5277763],[-1.4696287,52.5301229],[-1.4616246,52.5250448],[-1.4546617,52.5195614],[-1.4432941,52.5215111],[-1.4383581,52.5175329],[-1.4282487,52.5167933],[-1.4226754,52.5315532],[-1.4173553,52.5344378],[-1.4189681,52.5377506]]],"type":"Polygon"},"id":"E02006477","properties":{"code":"E02006477","geography":"MSOA","name":"Nuneaton and Bedworth 003"},"type":"Feature"},{"geometry":{"coordinates":[[[-1.5097062,52.5269016],[-1.5151095,52.5291393],[-1.5183379,52.5373353],[-1.5537367,52.5335715],[-1.5539033,52.5185778],[-1.5079293,52.5234159],[-1.5050466,52.5242329],[-1.5097062,52.5269016]]],"type":"Polygon"},"id":"E02006478","properties":{"code":"E02006478","geography":"MSOA","name":"Nuneaton and Bedworth 004"},"type":"Feature"},{"geometry":{"coordinates":[[[-1.4696287,52.5301229],[-1.4812097,52.5339881],[-1.4805724,52.5296238],[-1.4869947,52.5261952],[-1.4767133,52.5179592],[-1.4662251,52.5209858],[-1.462421,52.5181653],[-1.4589678,52.5216018],[-1.4616246,52.5250448],[-1.4696287,52.5301229]]],"type":"Polygon"},"id":"E02006479","properties":{"code":"E02006479","geography":"MSOA","name":"Nuneaton and Bedworth 005"},"type":"Feature"},{"geometry":{"coordinates":[[[-1.4869947,52.5261952],[-1.4916244,52.5286646],[-1.5023301,52.5254841],[-1.5097062,52.5269016],[-1.5050466,52.5242329],[-1.5079293,52.5234159],[-1.5012507,52.5213806],[-1.5010858,52.5154542],[-1.486224,52.5192634],[-1.4834436,52.5152504],[-1.4730635,52.5140151],[-1.4767133,52.5179592],[-1.4869947,52.5261952]]],"type":"Polygon"},"id":"E02006480","properties":{"code":"E02006480","geography":"MSOA","name":"Nuneaton and Bedworth 006"},"type":"Feature"},{"geometry":{"coordinates":[[[-1.5010858,52.5154542],[-1.5012507,52.5213806],[-1.5079293,52.5234159],[-1.5539033,52.5185778],[-1.5552317,52.5173707],[-1.5010858,52.5154542]]],"type":"Polygon"},"id":"E02006481","properties":{"code":"E02006481","geography":"MSOA","name":"Nuneaton and Bedworth 007"},"type":"Feature"},{"geometry":{"coordinates":[[[-1.4730635,52.5140151],[-1.4834436,52.5152504],[-1.486224,52.5192634],[-1.5010858,52.5154542],[-1.5552317,52.5173707],[-1.5294895,52.49597],[-1.5212849,52.493405],[-1.4862976,52.4882804],[-1.4729938,52.498084],[-1.4763863,52.5058825],[-1.4730635,52.5140151]]],"type":"Polygon"},"id":"E02006482","properties":{"code":"E02006482","geography":"MSOA","name":"Nuneaton and Bedworth 008"},"type":"Feature"},{"geometry":{"coordinates":[[[-1.462421,52.5181653],[-1.4662251,52.5209858],[-1.4767133,52.5179592],[-1.4730635,52.5140151],[-1.4763863,52.5058825],[-1.4729938,52.498084],[-1.4700684,52.4914172],[-1.463637,52.4907955],[-1.457211,52.4983563],[-1.4501591,52.5004766],[-1.4523712,52.5109922],[-1.4579982,52.5107917],[-1.462421,52.5181653]]],"type":"Polygon"},"id":"E02006483","properties":{"code":"E02006483","geography":"MSOA","name":"Nuneaton and Bedworth 009"},"type":"Feature"},{"geometry":{"coordinates":[[[-1.4546617,52.5195614],[-1.4616246,52.5250448],[-1.4589678,52.5216018],[-1.462421,52.5181653],[-1.4579982,52.5107917],[-1.4523712,52.5109922],[-1.4501591,52.5004766],[-1.4438494,52.496219],[-1.4341116,52.4972651],[-1.435304,52.5056641],[-1.4474678,52.5104393],[-1.4546617,52.5195614]]],"type":"Polygon"},"id":"E02006484","properties":{"code":"E02006484","geography":"MSOA","name":"Nuneaton and Bedworth 010"},"type":"Feature"},{"geometry":{"coordinates":[[[-1.4282487,52.5167933],[-1.4383581,52.5175329],[-1.4432941,52.5215111],[-1.4546617,52.5195614],[-1.4474678,52.5104393],[-1.435304,52.5056641],[-1.4341116,52.4972651],[-1.4129933,52.4968184],[-1.4096039,52.5016079],[-1.4038981,52.5023637],[-1.4075159,52.5037028],[-1.4075575,52.5153184],[-1.4167672,52.5167697],[-1.4241513,52.5144288],[-1.4282487,52.5167933]]],"type":"Polygon"},"id":"E02006485","properties":{"code":"E02006485","geography":"MSOA","name":"Nuneaton and Bedworth 011"},"type":"Feature"},{"geometry":{"coordinates":[[[-1.4700684,52.4914172],[-1.4729938,52.498084],[-1.4862976,52.4882804],[-1.5212849,52.493405],[-1.5233096,52.4882884],[-1.5158285,52.4852974],[-1.5137814,52.4798399],[-1.4888316,52.4746911],[-1.4891218,52.4792273],[-1.4731376,52.4817683],[-1.4734047,52.4905424],[-1.4700684,52.4914172]]],"type":"Polygon"},"id":"E02006486","properties":{"code":"E02006486","geography":"MSOA","name":"Nuneaton and Bedworth 012"},"type":"Feature"},{"geometry":{"coordinates":[[[-1.463637,52.4907955],[-1.4700684,52.4914172],[-1.4734047,52.4905424],[-1.4731376,52.4817683],[-1.4891218,52.4792273],[-1.4888316,52.4746911],[-1.4770189,52.4738872],[-1.4700276,52.4813271],[-1.4599215,52.4849135],[-1.4584346,52.4894356],[-1.463637,52.4907955]]],"type":"Polygon"},"id":"E02006487","properties":{"code":"E02006487","geography":"MSOA","name":"Nuneaton and Bedworth 013"},"type":"Feature"},{"geometry":{"coordinates":[[[-1.4590611,52.45514],[-1.4376311,52.4680296],[-1.4212189,52.4630113],[-1.4104197,52.4665485],[-1.4048006,52.4830837],[-1.4117835,52.488621],[-1.4038981,52.5023637],[-1.4096039,52.5016079],[-1.4129933,52.4968184],[-1.4341116,52.4972651],[-1.4438494,52.496219],[-1.4501591,52.5004766],[-1.457211,52.4983563],[-1.463637,52.4907955],[-1.4584346,52.4894356],[-1.4599215,52.4849135],[-1.4536605,52.478999],[-1.4657582,52.4713497],[-1.4642508,52.4628459],[-1.4708232,52.4569207],[-1.4639293,52.4583002],[-1.4603332,52.4552146],[-1.4590611,52.45514]]],"type":"Polygon"},"id":"E02006488","properties":{"code":"E02006488","geography":"MSOA","name":"Nuneaton and Bedworth 014"},"type":"Feature"},{"geometry":{"coordinates":[[[-1.4708232,52.4569207],[-1.4642508,52.4628459],[-1.4657582,52.4713497],[-1.4536605,52.478999],[-1.4599215,52.4849135],[-1.4700276,52.4813271],[-1.4770189,52.4738872],[-1.4830251,52.4580702],[-1.4708232,52.4569207]]],"type":"Polygon"},"id":"E02006489","properties":{"code":"E02006489","geography":"MSOA","name":"Nuneaton and Bedworth 015"},"type":"Feature"},{"geometry":{"coordinates":[[[-1.4888316,52.4746911],[-1.5137814,52.4798399],[-1.5148221,52.4762571],[-1.545238,52.472585],[-1.5308217,52.4696187],[-1.4939843,52.4630836],[-1.4888316,52.4746911]]],"type":"Polygon"},"id":"E02006490","properties":{"code":"E02006490","geography":"MSOA","name":"Nuneaton and Bedworth 016"},"type":"Feature"},{"geometry":{"coordinates":[[[-1.4770189,52.4738872],[-1.4888316,52.4746911],[-1.4939843,52.4630836],[-1.5308217,52.4696187],[-1.5397895,52.4647873],[-1.529686,52.4570712],[-1.5175785,52.4567672],[-1.5173468,52.4528573],[-1.5037659,52.4505204],[-1.4943077,52.4526702],[-1.492815,52.4584247],[-1.4830251,52.4580702],[-1.4770189,52.4738872]]],"type":"Polygon"},"id":"E02006806","properties":{"code":"E02006806","geography":"MSOA","name":"Nuneaton and Bedworth 018"},"type":"Feature"}],"type":"FeatureCollection"}
