{"features":[{"geometry":{"coordinates":[[[-0.6442934,53.0525595],[-0.6898931,53.0597415],[-0.6952016,53.0591274],[-0.6982946,53.0532903],[-0.7059341,53.0519819],[-0.716208,53.0590377],[-0.7226021,53.0599007],[-0.7309818,53.0543769],[-0.7454312,53.0540987],[-0.7496918,53.0551019],[-0.7497428,53.0550059],[-0.753442,53.0480347],[-0.7608317,53.0293888],[-0.7448482,53.0214598],[-0.6823621,53.0239367],[-0.6884929,53.0115328],[-0.6745447,53.0113818],[-0.6631262,53.002864],[-0.6561776,53.0026193],[-0.6555093,52.9965931],[-0.6380716,52.9911364],[-0.6351915,52.9768233],[-0.6454815,52.9744481],[-0.6577569,52.9537024],[-0.6393821,52.9487711],[-0.6451649,52.9340289],[-0.6376542,52.9308102],[-0.6404921,52.9293548],[-0.6295682,52.9266743],[-0.6222855,52.9421859],[-0.5900776,52.9368117],[-0.565778,52.9363883],[-0.5541051,52.954409],[-0.5431626,52.9717205],[-0.5403937,52.9673121],[-0.5261793,52.9693651],[-0.5310654,52.9757293],[-0.5267546,52.9769283],[-0.5283109,52.9836773],[-0.5235386,52.9881579],[-0.5319484,52.9897944],[-0.5264078,53.0267681],[-0.5228195,53.049619],[-0.5736006,53.049597],[-0.5740977,53.0469726],[-0.5849448,53.0456545],[-0.6041469,53.052132],[-0.63735,53.0546573],[-0.6360135,53.0523291],[-0.6442934,53.0525595]]],"type":"Polygon"},"id":"E02005476","properties":{"code":"E02005476","geography":"MSOA","name":"South Kesteven 001"},"type":"Feature"},{"geometry":{"coordinates":[[[-0.6451649,52.9340289],[-0.6393821,52.9487711],[-0.6577569,52.9537024],[-0.6454815,52.9744481],[-0.6351915,52.9768233],[-0.6380716,52.9911364],[-0.6555093,52.9965931],[-0.6561776,53.0026193],[-0.6631262,53.002864],[-0.6745447,53.0113818],[-0.6884929,53.0115328],[-0.6823621,53.0239367],[-0.7448482,53.0214598],[-0.7608317,53.0293888],[-0.7766783,53.0246895],[-0.788419,53.0258319],[-0.7958306,53.0105761],[-0.8042156,53.0122609],[-0.8001951,53.0021716],[-0.7775598,52.9837846],[-0.7782844,52.9769013],[-0.7784428,52.9592921],[-0.7553181,52.951357],[-0.7661114,52.9280041],[-0.763102,52.9236714],[-0.7394872,52.9233455],[-0.7363753,52.9061141],[-0.7292024,52.9038273],[-0.7172371,52.9039521],[-0.7169256,52.9005738],[-0.7140645,52.9042485],[-0.6943136,52.9083269],[-0.6769246,52.9003375],[-0.6761689,52.9102522],[-0.6712362,52.9120525],[-0.6717583,52.922631],[-0.6652898,52.9221877],[-0.6546968,52.9361726],[-0.6460088,52.9343606],[-0.6451649,52.9340289]]],"type":"Polygon"},"id":"E02005477","properties":{"code":"E02005477","geography":"MSOA","name":"South Kesteven 002"},"type":"Feature"},{"geometry":{"coordinates":[[[-0.6451649,52.9340289],[-0.6460088,52.9343606],[-0.6478868,52.9199511],[-0.6431025,52.9135247],[-0.638457,52.9139951],[-0.6385788,52.9187071],[-0.6204175,52.9131384],[-0.6129516,52.9157779],[-0.6113153,52.9228809],[-0.6295682,52.9266743],[-0.6404921,52.9293548],[-0.6376542,52.9308102],[-0.6451649,52.9340289]]],"type":"Polygon"},"id":"E02005478","properties":{"code":"E02005478","geography":"MSOA","name":"South Kesteven 003"},"type":"Feature"},{"geometry":{"coordinates":[[[-0.6460088,52.9343606],[-0.6546968,52.9361726],[-0.6652898,52.9221877],[-0.6717583,52.922631],[-0.6712362,52.9120525],[-0.6496204,52.9126989],[-0.6505011,52.910891],[-0.6398096,52.9095106],[-0.638457,52.9139951],[-0.6431025,52.9135247],[-0.6478868,52.9199511],[-0.6460088,52.9343606]]],"type":"Polygon"},"id":"E02005479","properties":{"code":"E02005479","geography":"MSOA","name":"South Kesteven 004"},"type":"Feature"},{"geometry":{"coordinates":[[[-0.6505011,52.910891],[-0.6496204,52.9126989],[-0.6712362,52.9120525],[-0.6761689,52.9102522],[-0.6769246,52.9003375],[-0.6697164,52.8960949],[-0.6555228,52.9012597],[-0.6549078,52.9103045],[-0.6505011,52.910891]]],"type":"Polygon"},"id":"E02005480","properties":{"code":"E02005480","geography":"MSOA","name":"South Kesteven 005"},"type":"Feature"},{"geometry":{"coordinates":[[[-0.6129516,52.9157779],[-0.6204175,52.9131384],[-0.6385788,52.9187071],[-0.638457,52.9139951],[-0.6398096,52.9095106],[-0.6505011,52.910891],[-0.6549078,52.9103045],[-0.6555228,52.9012597],[-0.6697164,52.8960949],[-0.6485249,52.8833674],[-0.6279037,52.8894707],[-0.6303523,52.89752],[-0.6217755,52.9015395],[-0.6240876,52.9074201],[-0.6111855,52.9140521],[-0.6129516,52.9157779]]],"type":"Polygon"},"id":"E02005481","properties":{"code":"E02005481","geography":"MSOA","name":"South Kesteven 006"},"type":"Feature"},{"geometry":{"coordinates":[[[-0.4373491,52.8869747],[-0.44534,52.9005504],[-0.4697636,52.901167],[-0.4720721,52.9054131],[-0.4798913,52.9064006],[-0.4892148,52.9134484],[-0.4939825,52.9207162],[-0.4876169,52.9205598],[-0.4868725,52.9280312],[-0.481664,52.9279979],[-0.4794944,52.9314027],[-0.4828769,52.9393671],[-0.4871857,52.9394903],[-0.4891531,52.9464933],[-0.4941414,52.9483108],[-0.4941596,52.9538257],[-0.5100129,52.9475515],[-0.5178523,52.9602662],[-0.5267179,52.9557134],[-0.5541051,52.954409],[-0.565778,52.9363883],[-0.5900776,52.9368117],[-0.6222855,52.9421859],[-0.6295682,52.9266743],[-0.6113153,52.9228809],[-0.6129516,52.9157779],[-0.6111855,52.9140521],[-0.6240876,52.9074201],[-0.6217755,52.9015395],[-0.6303523,52.89752],[-0.6279037,52.8894707],[-0.5957122,52.8891414],[-0.5831588,52.8811133],[-0.588902,52.8722877],[-0.5850721,52.8622362],[-0.5903809,52.8614129],[-0.5925238,52.8466855],[-0.5799884,52.8384946],[-0.5823615,52.8335419],[-0.5769824,52.8318966],[-0.5895337,52.8281669],[-0.5874545,52.8087506],[-0.5764166,52.8044313],[-0.5823836,52.802442],[-0.5825241,52.7967512],[-0.5654139,52.7899934],[-0.5624966,52.7832722],[-0.5509755,52.7823679],[-0.5455378,52.7861545],[-0.5222871,52.7826937],[-0.5087251,52.7849747],[-0.5044988,52.781819],[-0.4864125,52.7789617],[-0.4855045,52.7667701],[-0.4929387,52.7638544],[-0.4944114,52.7589341],[-0.4858568,52.7517003],[-0.4651482,52.751764],[-0.4498255,52.7628361],[-0.4352516,52.7582055],[-0.4072984,52.761328],[-0.4041287,52.7815854],[-0.4082793,52.7914007],[-0.4137276,52.7924851],[-0.4172822,52.799344],[-0.4130719,52.8145738],[-0.4189381,52.8193316],[-0.4255183,52.8173648],[-0.4284453,52.822484],[-0.4234032,52.8234392],[-0.4311374,52.8300705],[-0.433078,52.840248],[-0.442192,52.8417614],[-0.4361878,52.852873],[-0.4365474,52.8637323],[-0.4238225,52.8656186],[-0.4288061,52.8665341],[-0.4303282,52.8726883],[-0.4410028,52.8810415],[-0.4352905,52.88169],[-0.4373491,52.8869747]]],"type":"Polygon"},"id":"E02005482","properties":{"code":"E02005482","geography":"MSOA","name":"South Kesteven 007"},"type":"Feature"},{"geometry":{"coordinates":[[[-0.2565046,52.9058612],[-0.3228385,52.9175074],[-0.3579012,52.9156276],[-0.3608332,52.9019173],[-0.3660765,52.9011419],[-0.3658325,52.8979091],[-0.3834663,52.8986286],[-0.4373491,52.8869747],[-0.4352905,52.88169],[-0.4410028,52.8810415],[-0.4303282,52.8726883],[-0.4288061,52.8665341],[-0.4238225,52.8656186],[-0.4365474,52.8637323],[-0.4361878,52.852873],[-0.442192,52.8417614],[-0.433078,52.840248],[-0.4311374,52.8300705],[-0.4234032,52.8234392],[-0.4284453,52.822484],[-0.4255183,52.8173648],[-0.4189381,52.8193316],[-0.4130719,52.8145738],[-0.4172822,52.799344],[-0.4137276,52.7924851],[-0.4082793,52.7914007],[-0.3947214,52.7947872],[-0.3761953,52.7940236],[-0.2773373,52.7896186],[-0.2668126,52.7964868],[-0.2750434,52.8408448],[-0.2763015,52.8616662],[-0.2708961,52.8720859],[-0.2565627,52.8683386],[-0.2695279,52.8769352],[-0.2565046,52.9058612]]],"type":"Polygon"},"id":"E02005483","properties":{"code":"E02005483","geography":"MSOA","name":"South Kesteven 008"},"type":"Feature"},{"geometry":{"coordinates":[[[-0.6769246,52.9003375],[-0.6943136,52.9083269],[-0.7140645,52.9042485],[-0.7169256,52.9005738],[-0.7172371,52.9039521],[-0.7292024,52.9038273],[-0.7363753,52.9061141],[-0.7394872,52.9233455],[-0.763102,52.9236714],[-0.7674879,52.922443],[-0.7768641,52.9047877],[-0.7584733,52.9004686],[-0.7665971,52.8867774],[-0.7427284,52.8831358],[-0.7336793,52.8669012],[-0.7090333,52.8445761],[-0.6924135,52.8217642],[-0.6820495,52.8117752],[-0.6831155,52.7946629],[-0.6741184,52.7877479],[-0.6756685,52.7775201],[-0.6641109,52.7566907],[-0.6086038,52.7596937],[-0.6054542,52.7504732],[-0.5895763,52.7537548],[-0.5726469,52.7530894],[-0.5661212,52.744968],[-0.5600447,52.7454526],[-0.5399845,52.7383817],[-0.5180815,52.7405693],[-0.5213767,52.7575364],[-0.5182571,52.7612546],[-0.5316501,52.7662731],[-0.5428973,52.7804565],[-0.552748,52.7800141],[-0.5624966,52.7832722],[-0.5654139,52.7899934],[-0.5825241,52.7967512],[-0.5823836,52.802442],[-0.5764166,52.8044313],[-0.5874545,52.8087506],[-0.5895337,52.8281669],[-0.5769824,52.8318966],[-0.5823615,52.8335419],[-0.5799884,52.8384946],[-0.5925238,52.8466855],[-0.5903809,52.8614129],[-0.5850721,52.8622362],[-0.588902,52.8722877],[-0.5831588,52.8811133],[-0.5957122,52.8891414],[-0.6279037,52.8894707],[-0.6485249,52.8833674],[-0.6697164,52.8960949],[-0.6769246,52.9003375]]],"type":"Polygon"},"id":"E02005484","properties":{"code":"E02005484","geography":"MSOA","name":"South Kesteven 009"},"type":"Feature"},{"geometry":{"coordinates":[[[-0.3761953,52.7940236],[-0.3947214,52.7947872],[-0.4082793,52.7914007],[-0.4041287,52.7815854],[-0.4072984,52.761328],[-0.399406,52.7546722],[-0.3802302,52.7562191],[-0.379189,52.7625962],[-0.374446,52.7644911],[-0.3761953,52.7940236]]],"type":"Polygon"},"id":"E02005485","properties":{"code":"E02005485","geography":"MSOA","name":"South Kesteven 010"},"type":"Feature"},{"geometry":{"coordinates":[[[-0.3045208,52.7460103],[-0.2607595,52.7708499],[-0.2668126,52.7964868],[-0.2773373,52.7896186],[-0.3761953,52.7940236],[-0.374446,52.7644911],[-0.379189,52.7625962],[-0.3802302,52.7562191],[-0.3045208,52.7460103]]],"type":"Polygon"},"id":"E02005486","properties":{"code":"E02005486","geography":"MSOA","name":"South Kesteven 011"},"type":"Feature"},{"geometry":{"coordinates":[[[-0.4072984,52.761328],[-0.4352516,52.7582055],[-0.4498255,52.7628361],[-0.4651482,52.751764],[-0.4858568,52.7517003],[-0.4944114,52.7589341],[-0.4929387,52.7638544],[-0.4855045,52.7667701],[-0.4864125,52.7789617],[-0.5044988,52.781819],[-0.5087251,52.7849747],[-0.5222871,52.7826937],[-0.5455378,52.7861545],[-0.5509755,52.7823679],[-0.5624966,52.7832722],[-0.552748,52.7800141],[-0.5428973,52.7804565],[-0.5316501,52.7662731],[-0.5182571,52.7612546],[-0.5213767,52.7575364],[-0.5180815,52.7405693],[-0.5399845,52.7383817],[-0.5424445,52.7232616],[-0.5126519,52.7196605],[-0.5057329,52.713585],[-0.4945414,52.7096335],[-0.4511027,52.7095603],[-0.4447328,52.7061531],[-0.4304541,52.7054021],[-0.4340659,52.6836858],[-0.4616399,52.6690425],[-0.4619897,52.6614436],[-0.4632884,52.6588462],[-0.4529005,52.6579207],[-0.4504897,52.6541058],[-0.4175099,52.6467547],[-0.36282,52.6600873],[-0.3667157,52.6676735],[-0.3605445,52.6700338],[-0.3611497,52.6812551],[-0.3174201,52.6922395],[-0.2780198,52.7107394],[-0.2812896,52.7142437],[-0.2783329,52.7164806],[-0.3066913,52.7434162],[-0.3045208,52.7460103],[-0.3802302,52.7562191],[-0.399406,52.7546722],[-0.4072984,52.761328]]],"type":"Polygon"},"id":"E02005487","properties":{"code":"E02005487","geography":"MSOA","name":"South Kesteven 012"},"type":"Feature"},{"geometry":{"coordinates":[[[-0.2487697,52.6930237],[-0.2557787,52.692591],[-0.2637032,52.7009799],[-0.2671932,52.6990665],[-0.2780198,52.7107394],[-0.3174201,52.6922395],[-0.3611497,52.6812551],[-0.3605445,52.6700338],[-0.3667157,52.6676735],[-0.36282,52.6600873],[-0.3594368,52.660011],[-0.339964,52.6660476],[-0.3350493,52.6748471],[-0.309985,52.6734594],[-0.3109337,52.6869732],[-0.2704585,52.6913047],[-0.2687635,52.6955443],[-0.2586121,52.6895893],[-0.2487697,52.6930237]]],"type":"Polygon"},"id":"E02005488","properties":{"code":"E02005488","geography":"MSOA","name":"South Kesteven 013"},"type":"Feature"},{"geometry":{"coordinates":[[[-0.2487697,52.6930237],[-0.2586121,52.6895893],[-0.2687635,52.6955443],[-0.2704585,52.6913047],[-0.3109337,52.6869732],[-0.309985,52.6734594],[-0.2790966,52.6659849],[-0.2586781,52.6516259],[-0.2245121,52.6654441],[-0.2125154,52.6666601],[-0.2142714,52.668206],[-0.2232219,52.6667427],[-0.2487697,52.6930237]]],"type":"Polygon"},"id":"E02005489","properties":{"code":"E02005489","geography":"MSOA","name":"South Kesteven 014"},"type":"Feature"},{"geometry":{"coordinates":[[[-0.4619897,52.6614436],[-0.4616399,52.6690425],[-0.4947224,52.6646133],[-0.4938769,52.6606979],[-0.5066857,52.659507],[-0.4901728,52.6549932],[-0.4877194,52.657307],[-0.4728829,52.654269],[-0.4619897,52.6614436]]],"type":"Polygon"},"id":"E02005490","properties":{"code":"E02005490","geography":"MSOA","name":"South Kesteven 015"},"type":"Feature"},{"geometry":{"coordinates":[[[-0.5066857,52.659507],[-0.5190281,52.6665071],[-0.5235967,52.6652147],[-0.4950377,52.6402176],[-0.4947847,52.6402956],[-0.4843315,52.6461104],[-0.4752562,52.6450393],[-0.4758427,52.6486961],[-0.4530476,52.6492268],[-0.4504897,52.6541058],[-0.4529005,52.6579207],[-0.4632884,52.6588462],[-0.4619897,52.6614436],[-0.4728829,52.654269],[-0.4877194,52.657307],[-0.4901728,52.6549932],[-0.5066857,52.659507]]],"type":"Polygon"},"id":"E02005491","properties":{"code":"E02005491","geography":"MSOA","name":"South Kesteven 016"},"type":"Feature"}],"type":"FeatureCollection"}
