{"features":[{"geometry":{"coordinates":[[[-2.1996829,51.8779053],[-2.1991187,51.8806035],[-2.209028,51.8844593],[-2.2278951,51.8820381],[-2.2217466,51.8788564],[-2.2295386,51.8736742],[-2.2243187,51.8705125],[-2.1996829,51.8779053]]],"type":"Polygon"},"id":"E02004636","properties":{"code":"E02004636","geography":"MSOA","name":"Gloucester 001"},"type":"Feature"},{"geometry":{"coordinates":[[[-2.2285294,51.8818933],[-2.2382972,51.8831711],[-2.2467997,51.8808177],[-2.2430664,51.8762586],[-2.2482206,51.8704335],[-2.237847,51.8635355],[-2.2229043,51.8591432],[-2.2177113,51.8629658],[-2.2218713,51.8636127],[-2.2243187,51.8705125],[-2.2295386,51.8736742],[-2.2217466,51.8788564],[-2.2278951,51.8820381],[-2.2285294,51.8818933]]],"type":"Polygon"},"id":"E02004637","properties":{"code":"E02004637","geography":"MSOA","name":"Gloucester 002"},"type":"Feature"},{"geometry":{"coordinates":[[[-2.1976802,51.8719032],[-2.1996829,51.8779053],[-2.2243187,51.8705125],[-2.2218713,51.8636127],[-2.2177113,51.8629658],[-2.1976147,51.8716962],[-2.1976802,51.8719032]]],"type":"Polygon"},"id":"E02004638","properties":{"code":"E02004638","geography":"MSOA","name":"Gloucester 003"},"type":"Feature"},{"geometry":{"coordinates":[[[-2.237847,51.8635355],[-2.2482206,51.8704335],[-2.2430664,51.8762586],[-2.2467997,51.8808177],[-2.2552278,51.87639],[-2.2678733,51.8751723],[-2.2739908,51.8633629],[-2.2879052,51.8598312],[-2.279358,51.8456522],[-2.2857568,51.8412658],[-2.2779521,51.8379115],[-2.2711041,51.8385529],[-2.258357,51.8546286],[-2.2488069,51.8538669],[-2.241751,51.8592231],[-2.237847,51.8635355]]],"type":"Polygon"},"id":"E02004639","properties":{"code":"E02004639","geography":"MSOA","name":"Gloucester 004"},"type":"Feature"},{"geometry":{"coordinates":[[[-2.2229043,51.8591432],[-2.237847,51.8635355],[-2.241751,51.8592231],[-2.2386464,51.8544156],[-2.2285252,51.8538706],[-2.2229043,51.8591432]]],"type":"Polygon"},"id":"E02004640","properties":{"code":"E02004640","geography":"MSOA","name":"Gloucester 005"},"type":"Feature"},{"geometry":{"coordinates":[[[-2.1825241,51.8514112],[-2.1772689,51.8559252],[-2.1920485,51.8643467],[-2.2061457,51.8557485],[-2.2001215,51.8519745],[-2.1873441,51.8475561],[-2.1870522,51.851894],[-2.1825241,51.8514112]]],"type":"Polygon"},"id":"E02004641","properties":{"code":"E02004641","geography":"MSOA","name":"Gloucester 006"},"type":"Feature"},{"geometry":{"coordinates":[[[-2.1920485,51.8643467],[-2.1963929,51.8655783],[-2.1976147,51.8716962],[-2.2177113,51.8629658],[-2.2229043,51.8591432],[-2.2285252,51.8538706],[-2.2133396,51.8404651],[-2.2062926,51.840213],[-2.2001215,51.8519745],[-2.2061457,51.8557485],[-2.1920485,51.8643467]]],"type":"Polygon"},"id":"E02004642","properties":{"code":"E02004642","geography":"MSOA","name":"Gloucester 007"},"type":"Feature"},{"geometry":{"coordinates":[[[-2.2285252,51.8538706],[-2.2386464,51.8544156],[-2.241751,51.8592231],[-2.2488069,51.8538669],[-2.2503343,51.8510908],[-2.2458607,51.8493903],[-2.2416686,51.8524901],[-2.2445591,51.8454095],[-2.2405952,51.8472592],[-2.2397959,51.8449591],[-2.2362243,51.8427632],[-2.2289582,51.8450675],[-2.2336407,51.8497683],[-2.2285252,51.8538706]]],"type":"Polygon"},"id":"E02004643","properties":{"code":"E02004643","geography":"MSOA","name":"Gloucester 008"},"type":"Feature"},{"geometry":{"coordinates":[[[-2.2488069,51.8538669],[-2.258357,51.8546286],[-2.2711041,51.8385529],[-2.2779521,51.8379115],[-2.2725317,51.8359622],[-2.2567917,51.8379432],[-2.2473762,51.838889],[-2.2397959,51.8449591],[-2.2405952,51.8472592],[-2.2445591,51.8454095],[-2.2416686,51.8524901],[-2.2458607,51.8493903],[-2.2503343,51.8510908],[-2.2488069,51.8538669]]],"type":"Polygon"},"id":"E02004644","properties":{"code":"E02004644","geography":"MSOA","name":"Gloucester 009"},"type":"Feature"},{"geometry":{"coordinates":[[[-2.1825241,51.8514112],[-2.1870522,51.851894],[-2.1873441,51.8475561],[-2.2001215,51.8519745],[-2.2062926,51.840213],[-2.2133396,51.8404651],[-2.2069811,51.8314295],[-2.1877235,51.8449874],[-2.1825241,51.8514112]]],"type":"Polygon"},"id":"E02004645","properties":{"code":"E02004645","geography":"MSOA","name":"Gloucester 010"},"type":"Feature"},{"geometry":{"coordinates":[[[-2.2133396,51.8404651],[-2.2285252,51.8538706],[-2.2336407,51.8497683],[-2.2289582,51.8450675],[-2.2362243,51.8427632],[-2.2415383,51.8339098],[-2.2346269,51.8283566],[-2.236845,51.8255492],[-2.2274943,51.8282629],[-2.2233859,51.8211873],[-2.2069811,51.8314295],[-2.2133396,51.8404651]]],"type":"Polygon"},"id":"E02004646","properties":{"code":"E02004646","geography":"MSOA","name":"Gloucester 011"},"type":"Feature"},{"geometry":{"coordinates":[[[-2.2362243,51.8427632],[-2.2397959,51.8449591],[-2.2473762,51.838889],[-2.2567917,51.8379432],[-2.2513302,51.8334208],[-2.2569424,51.8215751],[-2.2566128,51.8214302],[-2.2462378,51.8260389],[-2.236845,51.8255492],[-2.2346269,51.8283566],[-2.2415383,51.8339098],[-2.2362243,51.8427632]]],"type":"Polygon"},"id":"E02004647","properties":{"code":"E02004647","geography":"MSOA","name":"Gloucester 012"},"type":"Feature"},{"geometry":{"coordinates":[[[-2.2569424,51.8215751],[-2.2513302,51.8334208],[-2.2567917,51.8379432],[-2.2725317,51.8359622],[-2.2679428,51.8283193],[-2.2569424,51.8215751]]],"type":"Polygon"},"id":"E02004648","properties":{"code":"E02004648","geography":"MSOA","name":"Gloucester 013"},"type":"Feature"},{"geometry":{"coordinates":[[[-2.2779521,51.8379115],[-2.2857568,51.8412658],[-2.2916516,51.8335357],[-2.2982277,51.8325994],[-2.3010947,51.826754],[-2.2960876,51.8239632],[-2.2820714,51.8263921],[-2.278888,51.8298059],[-2.2679428,51.8283193],[-2.2725317,51.8359622],[-2.2779521,51.8379115]]],"type":"Polygon"},"id":"E02004649","properties":{"code":"E02004649","geography":"MSOA","name":"Gloucester 014"},"type":"Feature"},{"geometry":{"coordinates":[[[-2.2679428,51.8283193],[-2.278888,51.8298059],[-2.2820714,51.8263921],[-2.2960876,51.8239632],[-2.2827776,51.814555],[-2.2628259,51.8076288],[-2.2566128,51.8214302],[-2.2569424,51.8215751],[-2.2679428,51.8283193]]],"type":"Polygon"},"id":"E02004650","properties":{"code":"E02004650","geography":"MSOA","name":"Gloucester 015"},"type":"Feature"},{"geometry":{"coordinates":[[[[-2.3514895,51.7977358],[-2.3507224,51.7978782],[-2.3502145,51.7988055],[-2.3515293,51.7977284],[-2.3514895,51.7977358]]],[[[-2.2827776,51.814555],[-2.2960876,51.8239632],[-2.3010947,51.826754],[-2.2982277,51.8325994],[-2.3076452,51.8469155],[-2.3330465,51.850456],[-2.351776,51.846218],[-2.3564725,51.8354263],[-2.349703,51.8297347],[-2.3532516,51.828791],[-2.3597649,51.8265997],[-2.361677,51.8222089],[-2.3593489,51.8111706],[-2.3458064,51.8039104],[-2.34616,51.8022691],[-2.3460443,51.8022212],[-2.3461974,51.8020958],[-2.3471479,51.7976839],[-2.3542055,51.7940332],[-2.3543027,51.7940274],[-2.3492691,51.7848626],[-2.336124,51.7909895],[-2.3403618,51.7983957],[-2.3325363,51.8067889],[-2.3202813,51.8059762],[-2.3155053,51.8018046],[-2.3005631,51.8025685],[-2.3099107,51.790735],[-2.2668874,51.780247],[-2.2692348,51.7785128],[-2.2636227,51.7757743],[-2.2579044,51.7788621],[-2.2512081,51.7783493],[-2.2363978,51.7710922],[-2.2334591,51.7715452],[-2.2225604,51.7869953],[-2.2245177,51.7946025],[-2.2157923,51.8075683],[-2.2054786,51.81134],[-2.1885237,51.808609],[-2.1600896,51.8245571],[-2.1797508,51.8382931],[-2.178659,51.8418209],[-2.1877235,51.8449874],[-2.2069811,51.8314295],[-2.2233859,51.8211873],[-2.2274943,51.8282629],[-2.236845,51.8255492],[-2.2462378,51.8260389],[-2.2566128,51.8214302],[-2.2628259,51.8076288],[-2.2827776,51.814555]]]],"type":"MultiPolygon"},"id":"E02004651","properties":{"code":"E02004651","geography":"MSOA","name":"Stroud 001"},"type":"Feature"}],"type":"FeatureCollection"}
