{"features":[{"geometry":{"coordinates":[[[-0.8200271,52.9604432],[-0.8360766,52.9678999],[-0.8254528,52.9733118],[-0.8151888,52.9856022],[-0.8204176,52.9877979],[-0.8229225,53.0009642],[-0.8333595,53.0077021],[-0.8357646,53.0056743],[-0.8489706,53.0096353],[-0.855083,53.0066529],[-0.8645583,53.0113232],[-0.8797857,53.0063323],[-0.8969634,53.0166027],[-0.9099576,53.0302068],[-0.9101252,53.0359077],[-0.9224469,53.0292169],[-0.9373303,53.0144935],[-0.9608188,53.0039678],[-0.9718792,52.9887926],[-0.9779006,52.9856934],[-0.987375,52.9862951],[-0.9589116,52.966732],[-0.9397501,52.9608827],[-0.9292225,52.9617877],[-0.9329359,52.9580484],[-0.9160486,52.9501023],[-0.9178386,52.946337],[-0.9222194,52.9462744],[-0.9172384,52.9406949],[-0.9213992,52.9345474],[-0.9232907,52.9307027],[-0.9073306,52.9251685],[-0.8968787,52.9272466],[-0.9005761,52.917159],[-0.8743244,52.8981968],[-0.857638,52.9056213],[-0.8637518,52.9113041],[-0.8618682,52.9143067],[-0.8413781,52.9283619],[-0.8348942,52.9393245],[-0.8243661,52.9417683],[-0.8225451,52.9441219],[-0.8339132,52.94586],[-0.8200271,52.9604432]]],"type":"Polygon"},"id":"E02005906","properties":{"code":"E02005906","geography":"MSOA","name":"Rushcliffe 001"},"type":"Feature"},{"geometry":{"coordinates":[[[-0.9213992,52.9345474],[-0.9172384,52.9406949],[-0.9222194,52.9462744],[-0.9178386,52.946337],[-0.9160486,52.9501023],[-0.9329359,52.9580484],[-0.9292225,52.9617877],[-0.9397501,52.9608827],[-0.9589116,52.966732],[-0.9687568,52.9581434],[-0.977639,52.9613105],[-0.9895111,52.958648],[-0.9898791,52.9558901],[-1.0054042,52.9550221],[-1.0025749,52.9518436],[-0.9781822,52.9500116],[-0.9859078,52.9425496],[-0.9724201,52.9283634],[-0.9336327,52.9372123],[-0.9303265,52.934184],[-0.9213992,52.9345474]]],"type":"Polygon"},"id":"E02005907","properties":{"code":"E02005907","geography":"MSOA","name":"Rushcliffe 002"},"type":"Feature"},{"geometry":{"coordinates":[[[-0.9589116,52.966732],[-0.987375,52.9862951],[-1.007089,52.9854371],[-1.0165567,52.9802239],[-1.0259455,52.9857991],[-1.0363904,52.9845428],[-1.0332468,52.9587485],[-1.0415614,52.9512412],[-1.0566839,52.9506981],[-1.0623556,52.9502945],[-1.05544,52.933833],[-1.0381936,52.934917],[-1.016783,52.9317942],[-0.9994144,52.9451765],[-1.0025749,52.9518436],[-1.0054042,52.9550221],[-0.9898791,52.9558901],[-0.9895111,52.958648],[-0.977639,52.9613105],[-0.9687568,52.9581434],[-0.9589116,52.966732]]],"type":"Polygon"},"id":"E02005908","properties":{"code":"E02005908","geography":"MSOA","name":"Rushcliffe 003"},"type":"Feature"},{"geometry":{"coordinates":[[[-1.1236185,52.9275507],[-1.1170788,52.9249928],[-1.1107042,52.9295395],[-1.1150037,52.9438894],[-1.1315851,52.9428424],[-1.1279352,52.9349083],[-1.1239139,52.9343908],[-1.1236185,52.9275507]]],"type":"Polygon"},"id":"E02005909","properties":{"code":"E02005909","geography":"MSOA","name":"Rushcliffe 004"},"type":"Feature"},{"geometry":{"coordinates":[[[-1.1236185,52.9275507],[-1.1239139,52.9343908],[-1.1279352,52.9349083],[-1.1315851,52.9428424],[-1.1317635,52.9427958],[-1.1392522,52.9332496],[-1.1360907,52.9220641],[-1.1302452,52.9248951],[-1.1271926,52.9204515],[-1.1236185,52.9275507]]],"type":"Polygon"},"id":"E02005910","properties":{"code":"E02005910","geography":"MSOA","name":"Rushcliffe 005"},"type":"Feature"},{"geometry":{"coordinates":[[[-1.0623556,52.9502945],[-1.0738336,52.9558356],[-1.086119,52.9485494],[-1.0996801,52.9419542],[-1.1150037,52.9438894],[-1.1107042,52.9295395],[-1.1170788,52.9249928],[-1.1236185,52.9275507],[-1.1271926,52.9204515],[-1.1217202,52.9183577],[-1.1081036,52.9225004],[-1.1048709,52.9183708],[-1.1097671,52.9168619],[-1.1040033,52.9146479],[-1.1063235,52.9079764],[-1.0983994,52.9242564],[-1.0778447,52.9284691],[-1.0702626,52.9251228],[-1.0708803,52.9291441],[-1.05544,52.933833],[-1.0623556,52.9502945]]],"type":"Polygon"},"id":"E02005911","properties":{"code":"E02005911","geography":"MSOA","name":"Rushcliffe 006"},"type":"Feature"},{"geometry":{"coordinates":[[[-1.1493979,52.9345126],[-1.152292,52.9370061],[-1.1588961,52.9127708],[-1.1391355,52.9052933],[-1.1360907,52.9220641],[-1.1392522,52.9332496],[-1.1454056,52.9319838],[-1.1493979,52.9345126]]],"type":"Polygon"},"id":"E02005912","properties":{"code":"E02005912","geography":"MSOA","name":"Rushcliffe 007"},"type":"Feature"},{"geometry":{"coordinates":[[[-1.1271926,52.9204515],[-1.1302452,52.9248951],[-1.1360907,52.9220641],[-1.1391355,52.9052933],[-1.1200892,52.9014798],[-1.1063235,52.9079764],[-1.1040033,52.9146479],[-1.1097671,52.9168619],[-1.1048709,52.9183708],[-1.1081036,52.9225004],[-1.1217202,52.9183577],[-1.1271926,52.9204515]]],"type":"Polygon"},"id":"E02005913","properties":{"code":"E02005913","geography":"MSOA","name":"Rushcliffe 008"},"type":"Feature"},{"geometry":{"coordinates":[[[-1.016783,52.9317942],[-1.0381936,52.934917],[-1.05544,52.933833],[-1.0708803,52.9291441],[-1.0702626,52.9251228],[-1.0328746,52.8785868],[-1.0272492,52.8775332],[-1.0212401,52.9046627],[-1.0016825,52.9255527],[-1.016783,52.9317942]]],"type":"Polygon"},"id":"E02005914","properties":{"code":"E02005914","geography":"MSOA","name":"Rushcliffe 009"},"type":"Feature"},{"geometry":{"coordinates":[[[-0.9213992,52.9345474],[-0.9303265,52.934184],[-0.9336327,52.9372123],[-0.9724201,52.9283634],[-0.9859078,52.9425496],[-0.9781822,52.9500116],[-1.0025749,52.9518436],[-0.9994144,52.9451765],[-1.016783,52.9317942],[-1.0016825,52.9255527],[-1.0212401,52.9046627],[-1.0272492,52.8775332],[-1.036655,52.8159368],[-1.0362964,52.8158566],[-1.0214941,52.8220534],[-0.9956828,52.8212497],[-0.9890108,52.8182295],[-0.9750554,52.8292144],[-0.9770806,52.840717],[-0.9706185,52.8449644],[-0.9608582,52.8433361],[-0.9527772,52.8503886],[-0.9411809,52.8539384],[-0.9408323,52.8615429],[-0.9281267,52.8660626],[-0.9405788,52.8768351],[-0.9169299,52.8789106],[-0.911981,52.8835396],[-0.8743244,52.8981968],[-0.9005761,52.917159],[-0.8968787,52.9272466],[-0.9073306,52.9251685],[-0.9232907,52.9307027],[-0.9213992,52.9345474]]],"type":"Polygon"},"id":"E02005915","properties":{"code":"E02005915","geography":"MSOA","name":"Rushcliffe 010"},"type":"Feature"},{"geometry":{"coordinates":[[[-1.1391355,52.9052933],[-1.1588961,52.9127708],[-1.1600129,52.9096701],[-1.1586077,52.9000421],[-1.1662777,52.8989182],[-1.1768176,52.8890093],[-1.1830578,52.8792012],[-1.181531,52.8740175],[-1.1632311,52.864876],[-1.1508176,52.8760603],[-1.1467418,52.8749492],[-1.1404337,52.8788932],[-1.1359952,52.8877151],[-1.1157112,52.8881584],[-1.1195452,52.8887782],[-1.1228361,52.8986998],[-1.1200892,52.9014798],[-1.1391355,52.9052933]]],"type":"Polygon"},"id":"E02005916","properties":{"code":"E02005916","geography":"MSOA","name":"Rushcliffe 011"},"type":"Feature"},{"geometry":{"coordinates":[[[-1.0702626,52.9251228],[-1.0778447,52.9284691],[-1.0983994,52.9242564],[-1.1063235,52.9079764],[-1.1200892,52.9014798],[-1.1228361,52.8986998],[-1.1195452,52.8887782],[-1.1157112,52.8881584],[-1.1077272,52.8870711],[-1.0987743,52.8772327],[-1.0792086,52.8775045],[-1.0718273,52.8721771],[-1.0699584,52.8573852],[-1.0880479,52.8508658],[-1.1045891,52.855066],[-1.1150437,52.8531334],[-1.1222178,52.8409473],[-1.125227,52.8303388],[-1.1129153,52.8324418],[-1.1169481,52.8195564],[-1.0941974,52.821948],[-1.0914914,52.8200588],[-1.0744421,52.8247058],[-1.0688192,52.8212151],[-1.0717458,52.8139906],[-1.0592135,52.8172283],[-1.049773,52.8134274],[-1.036655,52.8159368],[-1.0272492,52.8775332],[-1.0328746,52.8785868],[-1.0702626,52.9251228]]],"type":"Polygon"},"id":"E02005917","properties":{"code":"E02005917","geography":"MSOA","name":"Rushcliffe 012"},"type":"Feature"},{"geometry":{"coordinates":[[[-1.1045891,52.855066],[-1.0880479,52.8508658],[-1.0699584,52.8573852],[-1.0718273,52.8721771],[-1.0792086,52.8775045],[-1.0987743,52.8772327],[-1.1055359,52.8766193],[-1.1028735,52.8709287],[-1.1089812,52.8698266],[-1.1045891,52.855066]]],"type":"Polygon"},"id":"E02005918","properties":{"code":"E02005918","geography":"MSOA","name":"Rushcliffe 013"},"type":"Feature"},{"geometry":{"coordinates":[[[-1.1857561,52.8932601],[-1.2113072,52.902591],[-1.2165773,52.9001454],[-1.2139244,52.904395],[-1.2201686,52.902338],[-1.220498,52.8955439],[-1.2397108,52.8922694],[-1.2464035,52.8891185],[-1.2389914,52.883505],[-1.2400603,52.8800894],[-1.2535089,52.879292],[-1.267894,52.8733494],[-1.2752886,52.8603608],[-1.2714935,52.8590403],[-1.2645499,52.8580879],[-1.272242,52.8492572],[-1.26675,52.8376653],[-1.2741631,52.836286],[-1.2740298,52.8336773],[-1.2708908,52.8237299],[-1.2600822,52.8192062],[-1.261933,52.8104337],[-1.2553702,52.8041325],[-1.2453737,52.8061435],[-1.2288376,52.8166979],[-1.2162172,52.8182976],[-1.2173365,52.828249],[-1.2415729,52.8372563],[-1.2240708,52.8483994],[-1.2250228,52.8540128],[-1.1992386,52.8502525],[-1.1886157,52.8442799],[-1.1948509,52.8379971],[-1.1788779,52.8389788],[-1.1811745,52.8339561],[-1.1772773,52.8315033],[-1.1706805,52.8370924],[-1.1535695,52.8389896],[-1.1557902,52.8501828],[-1.1607945,52.851372],[-1.1677155,52.8608471],[-1.1632311,52.864876],[-1.181531,52.8740175],[-1.1830578,52.8792012],[-1.1768176,52.8890093],[-1.1857561,52.8932601]]],"type":"Polygon"},"id":"E02005919","properties":{"code":"E02005919","geography":"MSOA","name":"Rushcliffe 014"},"type":"Feature"},{"geometry":{"coordinates":[[[-1.0987743,52.8772327],[-1.1077272,52.8870711],[-1.1157112,52.8881584],[-1.1359952,52.8877151],[-1.1404337,52.8788932],[-1.1467418,52.8749492],[-1.1508176,52.8760603],[-1.1632311,52.864876],[-1.1677155,52.8608471],[-1.1607945,52.851372],[-1.1557902,52.8501828],[-1.1535695,52.8389896],[-1.1706805,52.8370924],[-1.1772773,52.8315033],[-1.1811745,52.8339561],[-1.1788779,52.8389788],[-1.1948509,52.8379971],[-1.1886157,52.8442799],[-1.1992386,52.8502525],[-1.2250228,52.8540128],[-1.2240708,52.8483994],[-1.2415729,52.8372563],[-1.2173365,52.828249],[-1.2162172,52.8182976],[-1.2288376,52.8166979],[-1.2453737,52.8061435],[-1.2318761,52.8006215],[-1.2284136,52.7930882],[-1.2219606,52.79175],[-1.2112522,52.7949104],[-1.2002945,52.7937674],[-1.1961434,52.7901448],[-1.1867526,52.7976771],[-1.1632822,52.8065019],[-1.1439696,52.803856],[-1.1308996,52.8058064],[-1.1169481,52.8195564],[-1.1129153,52.8324418],[-1.125227,52.8303388],[-1.1222178,52.8409473],[-1.1150437,52.8531334],[-1.1045891,52.855066],[-1.1089812,52.8698266],[-1.1028735,52.8709287],[-1.1055359,52.8766193],[-1.0987743,52.8772327]]],"type":"Polygon"},"id":"E02005920","properties":{"code":"E02005920","geography":"MSOA","name":"Rushcliffe 015"},"type":"Feature"}],"type":"FeatureCollection"}
