{"features":[{"geometry":{"coordinates":[[[-1.6070493,52.9471004],[-1.6129701,52.9442367],[-1.6208815,52.9477509],[-1.6247853,52.9458688],[-1.6412543,52.948134],[-1.6502397,52.944548],[-1.6563524,52.9182799],[-1.6509155,52.9085132],[-1.6585033,52.9026744],[-1.663034,52.9024348],[-1.6680198,52.9071503],[-1.6705667,52.9167473],[-1.6742863,52.9164016],[-1.6781931,52.9215909],[-1.683762,52.9183031],[-1.7082321,52.9219875],[-1.7144714,52.9095685],[-1.7489005,52.9124922],[-1.7365651,52.8952025],[-1.7385477,52.8764525],[-1.7462491,52.8686713],[-1.749656,52.8668118],[-1.7397888,52.867651],[-1.7390843,52.86476],[-1.7264273,52.8630373],[-1.7253268,52.8596455],[-1.7221733,52.8632426],[-1.716973,52.8607686],[-1.7176691,52.8645034],[-1.7120646,52.8659033],[-1.7034648,52.866376],[-1.7006128,52.8605656],[-1.690276,52.8644515],[-1.6649621,52.8584375],[-1.6612456,52.8758697],[-1.6457281,52.8826357],[-1.6461915,52.8895475],[-1.6310775,52.8928429],[-1.6104969,52.8845423],[-1.5988225,52.8891553],[-1.5862472,52.8881753],[-1.5877468,52.8921645],[-1.5814924,52.8933796],[-1.5723565,52.8793902],[-1.5819431,52.8726131],[-1.5693688,52.8651133],[-1.5386756,52.8885315],[-1.5422947,52.8967671],[-1.5526762,52.903302],[-1.5542682,52.9090064],[-1.5568569,52.9146606],[-1.5510732,52.9170355],[-1.5528808,52.92256],[-1.5440734,52.9241897],[-1.5585669,52.9329785],[-1.5671696,52.9330515],[-1.5701065,52.9357769],[-1.6040586,52.9367946],[-1.6099741,52.9407975],[-1.6070493,52.9471004]]],"type":"Polygon"},"id":"E02004118","properties":{"code":"E02004118","geography":"MSOA","name":"South Derbyshire 001"},"type":"Feature"},{"geometry":{"coordinates":[[[-1.5693688,52.8651133],[-1.5819431,52.8726131],[-1.5723565,52.8793902],[-1.5814924,52.8933796],[-1.5877468,52.8921645],[-1.5862472,52.8881753],[-1.5988225,52.8891553],[-1.6104969,52.8845423],[-1.6310775,52.8928429],[-1.6461915,52.8895475],[-1.6457281,52.8826357],[-1.6612456,52.8758697],[-1.6649621,52.8584375],[-1.6426365,52.8563091],[-1.6357773,52.8530175],[-1.6267587,52.8544194],[-1.6282393,52.8518441],[-1.6190864,52.8459978],[-1.6060743,52.8429107],[-1.5989817,52.8377358],[-1.5916837,52.8361802],[-1.5888416,52.8313593],[-1.5872432,52.8381122],[-1.5786476,52.83858],[-1.5857678,52.8522689],[-1.575363,52.8602458],[-1.5693688,52.8651133]]],"type":"Polygon"},"id":"E02004119","properties":{"code":"E02004119","geography":"MSOA","name":"South Derbyshire 002"},"type":"Feature"},{"geometry":{"coordinates":[[[-1.5232009,52.8873236],[-1.5263759,52.8908931],[-1.5386756,52.8885315],[-1.5693688,52.8651133],[-1.575363,52.8602458],[-1.5702926,52.8582902],[-1.5701245,52.8487749],[-1.5646422,52.8532986],[-1.5557661,52.8511582],[-1.5485398,52.8531849],[-1.5479133,52.8476247],[-1.5422892,52.8523242],[-1.535817,52.8494084],[-1.535579,52.853753],[-1.5179231,52.8528492],[-1.5127257,52.84777],[-1.4986441,52.8483951],[-1.4964191,52.8423603],[-1.4915242,52.8572041],[-1.503808,52.8591239],[-1.5084898,52.8625265],[-1.5082648,52.8686756],[-1.5056395,52.8717873],[-1.4951952,52.8703596],[-1.4935988,52.8736168],[-1.4998941,52.8772454],[-1.4994981,52.8826863],[-1.5019598,52.8815875],[-1.5031167,52.8848276],[-1.5232009,52.8873236]]],"type":"Polygon"},"id":"E02004120","properties":{"code":"E02004120","geography":"MSOA","name":"South Derbyshire 003"},"type":"Feature"},{"geometry":{"coordinates":[[[-1.3708305,52.894732],[-1.3781845,52.9010584],[-1.3882679,52.9014498],[-1.4027768,52.900444],[-1.4103184,52.8865758],[-1.4203821,52.8818988],[-1.4164702,52.87568],[-1.4297836,52.870192],[-1.4235731,52.86506],[-1.4443147,52.8610371],[-1.447533,52.8649195],[-1.4671695,52.8729056],[-1.4676663,52.8705181],[-1.4951952,52.8703596],[-1.5056395,52.8717873],[-1.5082648,52.8686756],[-1.5084898,52.8625265],[-1.503808,52.8591239],[-1.4915242,52.8572041],[-1.4964191,52.8423603],[-1.4775974,52.8426181],[-1.4729538,52.8397285],[-1.4703271,52.8425663],[-1.4752941,52.8459868],[-1.469809,52.8512292],[-1.4596092,52.8495087],[-1.453153,52.8529165],[-1.4403056,52.8489246],[-1.4386524,52.8450624],[-1.4329685,52.8422196],[-1.4245547,52.8441459],[-1.4173047,52.8412673],[-1.3882192,52.8393853],[-1.3815398,52.8457995],[-1.3692193,52.8489774],[-1.3607263,52.8553525],[-1.3511803,52.8532708],[-1.3519021,52.8576203],[-1.3434108,52.8627753],[-1.3448682,52.8675143],[-1.3392553,52.8645929],[-1.3328013,52.8671556],[-1.3253384,52.8659628],[-1.3193127,52.87285],[-1.3238846,52.872969],[-1.321979,52.8763843],[-1.3270155,52.8743107],[-1.3299785,52.8781443],[-1.33523,52.8763054],[-1.3499154,52.8806909],[-1.3481183,52.8857998],[-1.3417948,52.8853064],[-1.3393029,52.8896694],[-1.3543694,52.8887734],[-1.3576001,52.8951257],[-1.3614227,52.8923388],[-1.3623979,52.8963725],[-1.3708305,52.894732]]],"type":"Polygon"},"id":"E02004121","properties":{"code":"E02004121","geography":"MSOA","name":"South Derbyshire 004"},"type":"Feature"},{"geometry":{"coordinates":[[[-1.4964191,52.8423603],[-1.4986441,52.8483951],[-1.5127257,52.84777],[-1.5179231,52.8528492],[-1.535579,52.853753],[-1.535817,52.8494084],[-1.5422892,52.8523242],[-1.5479133,52.8476247],[-1.5485398,52.8531849],[-1.5557661,52.8511582],[-1.5646422,52.8532986],[-1.5701245,52.8487749],[-1.5702926,52.8582902],[-1.575363,52.8602458],[-1.5857678,52.8522689],[-1.5786476,52.83858],[-1.5872432,52.8381122],[-1.5888416,52.8313593],[-1.585467,52.8316119],[-1.5886475,52.8289612],[-1.6030979,52.8261178],[-1.6103443,52.8155996],[-1.5918317,52.8094728],[-1.5889509,52.7998048],[-1.5935177,52.7969141],[-1.5978548,52.7983268],[-1.6035541,52.7954378],[-1.6026629,52.7919677],[-1.6117284,52.7898449],[-1.6137253,52.7861374],[-1.6094108,52.7844323],[-1.6008206,52.7910875],[-1.5936964,52.7893753],[-1.5692689,52.7920794],[-1.5563487,52.7911958],[-1.5512798,52.7934721],[-1.5387208,52.8019116],[-1.5288505,52.7955236],[-1.520332,52.8012785],[-1.512089,52.8006789],[-1.5093894,52.8051797],[-1.500957,52.8060236],[-1.4954292,52.8131504],[-1.5013669,52.8201155],[-1.4798271,52.8290253],[-1.472149,52.8204707],[-1.4636545,52.8168964],[-1.4550143,52.8179052],[-1.4430654,52.8347244],[-1.4454656,52.8419031],[-1.4386524,52.8450624],[-1.4403056,52.8489246],[-1.453153,52.8529165],[-1.4596092,52.8495087],[-1.469809,52.8512292],[-1.4752941,52.8459868],[-1.4703271,52.8425663],[-1.4729538,52.8397285],[-1.4775974,52.8426181],[-1.4964191,52.8423603]]],"type":"Polygon"},"id":"E02004122","properties":{"code":"E02004122","geography":"MSOA","name":"South Derbyshire 005"},"type":"Feature"},{"geometry":{"coordinates":[[[-1.3882192,52.8393853],[-1.4173047,52.8412673],[-1.4245547,52.8441459],[-1.4329685,52.8422196],[-1.4386524,52.8450624],[-1.4454656,52.8419031],[-1.4430654,52.8347244],[-1.4550143,52.8179052],[-1.4636545,52.8168964],[-1.472149,52.8204707],[-1.4798271,52.8290253],[-1.5013669,52.8201155],[-1.4954292,52.8131504],[-1.500957,52.8060236],[-1.5093894,52.8051797],[-1.512089,52.8006789],[-1.520332,52.8012785],[-1.5288505,52.7955236],[-1.5387208,52.8019116],[-1.5512798,52.7934721],[-1.5303415,52.7840255],[-1.5195108,52.786806],[-1.5145191,52.7832719],[-1.5039542,52.7837276],[-1.5052499,52.7806586],[-1.490721,52.7749346],[-1.5037422,52.767372],[-1.4957645,52.7598735],[-1.4939992,52.7590266],[-1.4664599,52.7679546],[-1.4558898,52.7770769],[-1.459506,52.7770655],[-1.4576558,52.7843834],[-1.4627862,52.7868457],[-1.4548799,52.7889685],[-1.4418977,52.7935152],[-1.4435689,52.8027263],[-1.4239701,52.8012423],[-1.4177132,52.8015974],[-1.4052124,52.8186759],[-1.3879426,52.8330796],[-1.3943303,52.8367548],[-1.3882192,52.8393853]]],"type":"Polygon"},"id":"E02004123","properties":{"code":"E02004123","geography":"MSOA","name":"South Derbyshire 006"},"type":"Feature"},{"geometry":{"coordinates":[[[-1.5303415,52.7840255],[-1.5512798,52.7934721],[-1.5563487,52.7911958],[-1.5692689,52.7920794],[-1.5640744,52.7864658],[-1.5712596,52.7865235],[-1.562955,52.7809241],[-1.5556619,52.7828197],[-1.5516741,52.7765968],[-1.5419036,52.7780666],[-1.5371916,52.7745733],[-1.5277889,52.7778166],[-1.5303415,52.7840255]]],"type":"Polygon"},"id":"E02004124","properties":{"code":"E02004124","geography":"MSOA","name":"South Derbyshire 007"},"type":"Feature"},{"geometry":{"coordinates":[[[-1.562955,52.7809241],[-1.5712596,52.7865235],[-1.5640744,52.7864658],[-1.5692689,52.7920794],[-1.5936964,52.7893753],[-1.6008206,52.7910875],[-1.6094108,52.7844323],[-1.6124679,52.781201],[-1.6216611,52.7747755],[-1.618453,52.7706485],[-1.6007802,52.768552],[-1.5952789,52.7704782],[-1.5906031,52.7673613],[-1.5834721,52.7695741],[-1.5840374,52.7715948],[-1.5711228,52.7735858],[-1.562955,52.7809241]]],"type":"Polygon"},"id":"E02004125","properties":{"code":"E02004125","geography":"MSOA","name":"South Derbyshire 008"},"type":"Feature"},{"geometry":{"coordinates":[[[-1.5516741,52.7765968],[-1.5556619,52.7828197],[-1.562955,52.7809241],[-1.5711228,52.7735858],[-1.5840374,52.7715948],[-1.5834721,52.7695741],[-1.5754929,52.763804],[-1.5684588,52.7670197],[-1.5645573,52.7654398],[-1.5507712,52.7708333],[-1.5516741,52.7765968]]],"type":"Polygon"},"id":"E02004126","properties":{"code":"E02004126","geography":"MSOA","name":"South Derbyshire 009"},"type":"Feature"},{"geometry":{"coordinates":[[[-1.6124679,52.781201],[-1.6192942,52.7851505],[-1.6269631,52.779755],[-1.6382481,52.786711],[-1.6499361,52.779464],[-1.665609,52.7851447],[-1.670745,52.7810531],[-1.6700529,52.7735772],[-1.6820726,52.770174],[-1.6859738,52.7589952],[-1.6968687,52.7527238],[-1.6922416,52.7441052],[-1.6976258,52.743746],[-1.6978925,52.7353647],[-1.7041645,52.7320613],[-1.6969583,52.7271773],[-1.6779509,52.7274868],[-1.6756013,52.7248527],[-1.6566142,52.7217312],[-1.6592977,52.7140663],[-1.6543079,52.7081915],[-1.6550481,52.6987815],[-1.6376595,52.6996584],[-1.6353471,52.7024662],[-1.6252573,52.6974056],[-1.6153813,52.7006903],[-1.6055008,52.6965218],[-1.5975475,52.7004044],[-1.5771253,52.7117461],[-1.566936,52.7100533],[-1.5500864,52.7202613],[-1.5447563,52.7302465],[-1.562499,52.7505696],[-1.5828616,52.7578153],[-1.5906031,52.7673613],[-1.5952789,52.7704782],[-1.6007802,52.768552],[-1.618453,52.7706485],[-1.6216611,52.7747755],[-1.6124679,52.781201]]],"type":"Polygon"},"id":"E02004128","properties":{"code":"E02004128","geography":"MSOA","name":"South Derbyshire 011"},"type":"Feature"},{"geometry":{"coordinates":[[[-1.5474385,52.7641221],[-1.5364282,52.7711664],[-1.5434121,52.7728339],[-1.5419036,52.7780666],[-1.5516741,52.7765968],[-1.5507712,52.7708333],[-1.5645573,52.7654398],[-1.5684588,52.7670197],[-1.5754929,52.763804],[-1.5834721,52.7695741],[-1.5906031,52.7673613],[-1.5828616,52.7578153],[-1.562499,52.7505696],[-1.5548492,52.7620038],[-1.5474385,52.7641221]]],"type":"Polygon"},"id":"E02006919","properties":{"code":"E02006919","geography":"MSOA","name":"South Derbyshire 012"},"type":"Feature"},{"geometry":{"coordinates":[[[-1.5037422,52.767372],[-1.490721,52.7749346],[-1.5052499,52.7806586],[-1.5039542,52.7837276],[-1.5145191,52.7832719],[-1.5195108,52.786806],[-1.5303415,52.7840255],[-1.5277889,52.7778166],[-1.5371916,52.7745733],[-1.5419036,52.7780666],[-1.5434121,52.7728339],[-1.5364282,52.7711664],[-1.5474385,52.7641221],[-1.5391983,52.7600796],[-1.5329449,52.7625545],[-1.5295891,52.7610782],[-1.5253548,52.7655106],[-1.5037422,52.767372]]],"type":"Polygon"},"id":"E02006920","properties":{"code":"E02006920","geography":"MSOA","name":"South Derbyshire 013"},"type":"Feature"}],"type":"FeatureCollection"}
