{"features":[{"geometry":{"coordinates":[[[-1.1589005,50.8385246],[-1.1589659,50.838492],[-1.1665178,50.8347269],[-1.1664649,50.8376976],[-1.1761487,50.839273],[-1.1777935,50.8383584],[-1.1793866,50.8374504],[-1.1793528,50.8374939],[-1.1803902,50.8369188],[-1.1816775,50.8367079],[-1.1891265,50.8226812],[-1.1863133,50.819599],[-1.1787608,50.8160176],[-1.180493,50.8248875],[-1.1718001,50.8221854],[-1.173527,50.8240448],[-1.1700062,50.8237687],[-1.1589005,50.8385246]]],"type":"Polygon"},"id":"E02004741","properties":{"code":"E02004741","geography":"MSOA","name":"Gosport 001"},"type":"Feature"},{"geometry":{"coordinates":[[[-1.1515001,50.8261745],[-1.1502702,50.8267789],[-1.150107,50.8331139],[-1.1585322,50.8387082],[-1.1589005,50.8385246],[-1.1700062,50.8237687],[-1.173527,50.8240448],[-1.1718001,50.8221854],[-1.180493,50.8248875],[-1.1787608,50.8160176],[-1.1696304,50.8121027],[-1.1681925,50.8150155],[-1.1632359,50.8120774],[-1.1632411,50.8156772],[-1.1585077,50.8148892],[-1.1621545,50.8232716],[-1.1515001,50.8261745]]],"type":"Polygon"},"id":"E02004742","properties":{"code":"E02004742","geography":"MSOA","name":"Gosport 002"},"type":"Feature"},{"geometry":{"coordinates":[[[-1.1355999,50.8131483],[-1.1402031,50.8158714],[-1.1409564,50.8163169],[-1.1457924,50.8259827],[-1.1495133,50.8251369],[-1.1571405,50.8234025],[-1.1548061,50.8245498],[-1.1515001,50.8261745],[-1.1621545,50.8232716],[-1.1585077,50.8148892],[-1.1570562,50.8132723],[-1.1532643,50.8091853],[-1.1398865,50.8059309],[-1.1356646,50.8131591],[-1.1355999,50.8131483]]],"type":"Polygon"},"id":"E02004743","properties":{"code":"E02004743","geography":"MSOA","name":"Gosport 003"},"type":"Feature"},{"geometry":{"coordinates":[[[-1.1787608,50.8160176],[-1.1863133,50.819599],[-1.1788555,50.8143244],[-1.1870112,50.8114066],[-1.1818321,50.8101758],[-1.1705826,50.7917829],[-1.1681581,50.79262],[-1.1626331,50.8113899],[-1.1570562,50.8132723],[-1.1585077,50.8148892],[-1.1632411,50.8156772],[-1.1632359,50.8120774],[-1.1681925,50.8150155],[-1.1696304,50.8121027],[-1.1787608,50.8160176]]],"type":"Polygon"},"id":"E02004744","properties":{"code":"E02004744","geography":"MSOA","name":"Gosport 004"},"type":"Feature"},{"geometry":{"coordinates":[[[[-1.1346143,50.8023572],[-1.1355179,50.8037035],[-1.1366349,50.8019434],[-1.1346143,50.8023572]]],[[[-1.1238279,50.8061824],[-1.1355999,50.8131483],[-1.1356646,50.8131591],[-1.1398865,50.8059309],[-1.1532643,50.8091853],[-1.1515941,50.8015786],[-1.1472585,50.8005218],[-1.1410953,50.8004955],[-1.1402577,50.8043881],[-1.1359613,50.804364],[-1.1360776,50.8045373],[-1.1238279,50.8061824]]]],"type":"MultiPolygon"},"id":"E02004745","properties":{"code":"E02004745","geography":"MSOA","name":"Gosport 005"},"type":"Feature"},{"geometry":{"coordinates":[[[-1.1705826,50.7917829],[-1.1818321,50.8101758],[-1.1870112,50.8114066],[-1.2141581,50.8108022],[-1.214229,50.8093288],[-1.2141589,50.8093068],[-1.199036,50.7968128],[-1.1929791,50.7918063],[-1.180903,50.7878475],[-1.1759674,50.7864633],[-1.1758801,50.7864509],[-1.1705826,50.7917829]]],"type":"Polygon"},"id":"E02004746","properties":{"code":"E02004746","geography":"MSOA","name":"Gosport 006"},"type":"Feature"},{"geometry":{"coordinates":[[[-1.1532643,50.8091853],[-1.1570562,50.8132723],[-1.1626331,50.8113899],[-1.1681581,50.79262],[-1.1621276,50.7973216],[-1.1492069,50.7935034],[-1.1429861,50.7965914],[-1.1472585,50.8005218],[-1.1515941,50.8015786],[-1.1532643,50.8091853]]],"type":"Polygon"},"id":"E02004747","properties":{"code":"E02004747","geography":"MSOA","name":"Gosport 007"},"type":"Feature"},{"geometry":{"coordinates":[[[-1.1355179,50.8037035],[-1.1359613,50.804364],[-1.1402577,50.8043881],[-1.1410953,50.8004955],[-1.1472585,50.8005218],[-1.1429861,50.7965914],[-1.1342772,50.7976596],[-1.1398722,50.7916596],[-1.135669,50.7927534],[-1.1306781,50.7888101],[-1.1274561,50.7892311],[-1.1270388,50.7894433],[-1.1282939,50.7917807],[-1.1186978,50.791224],[-1.1165854,50.7957322],[-1.1172432,50.7962229],[-1.1214037,50.799326],[-1.1223284,50.8000156],[-1.1237513,50.804137],[-1.1338342,50.8022654],[-1.1344601,50.8021276],[-1.1346143,50.8023572],[-1.1366349,50.8019434],[-1.1355179,50.8037035]]],"type":"Polygon"},"id":"E02004748","properties":{"code":"E02004748","geography":"MSOA","name":"Gosport 008"},"type":"Feature"},{"geometry":{"coordinates":[[[-1.1492069,50.7935034],[-1.1621276,50.7973216],[-1.1681581,50.79262],[-1.1705826,50.7917829],[-1.1758801,50.7864509],[-1.1613855,50.7843866],[-1.1503575,50.7785873],[-1.1499865,50.7783922],[-1.1428276,50.7904496],[-1.1492069,50.7935034]]],"type":"Polygon"},"id":"E02004749","properties":{"code":"E02004749","geography":"MSOA","name":"Gosport 009"},"type":"Feature"},{"geometry":{"coordinates":[[[[-1.1269597,50.7892959],[-1.1270388,50.7894433],[-1.1274561,50.7892311],[-1.1269597,50.7892959]]],[[[-1.1342772,50.7976596],[-1.1429861,50.7965914],[-1.1492069,50.7935034],[-1.1428276,50.7904496],[-1.1499865,50.7783922],[-1.1498727,50.7783323],[-1.1381298,50.7738933],[-1.1248672,50.7821136],[-1.1247677,50.7821722],[-1.1122898,50.7893552],[-1.1131111,50.7913552],[-1.1164286,50.7880188],[-1.1232981,50.789392],[-1.1243718,50.7896066],[-1.126882,50.7883007],[-1.1329854,50.7851251],[-1.1371325,50.7851788],[-1.1386428,50.7851983],[-1.1318165,50.7872692],[-1.1362355,50.7903514],[-1.1306781,50.7888101],[-1.135669,50.7927534],[-1.1398722,50.7916596],[-1.1342772,50.7976596]]]],"type":"MultiPolygon"},"id":"E02004750","properties":{"code":"E02004750","geography":"MSOA","name":"Gosport 010"},"type":"Feature"}],"type":"FeatureCollection"}
