{"features":[{"geometry":{"coordinates":[[[1.4038819,51.3923457],[1.4029586,51.3922825],[1.3886554,51.3928251],[1.38766,51.3926697],[1.3873831,51.3926264],[1.3881294,51.3917978],[1.3824888,51.391736],[1.3794188,51.3882906],[1.3842308,51.3869003],[1.3838279,51.3839394],[1.3865098,51.3858359],[1.3893221,51.3897627],[1.3961582,51.3841869],[1.4026323,51.3839133],[1.4038819,51.3923457]]],"type":"Polygon"},"id":"E02005132","properties":{"code":"E02005132","geography":"MSOA","name":"Thanet 001"},"type":"Feature"},{"geometry":{"coordinates":[[[1.4459992,51.3681725],[1.4467594,51.3701619],[1.4495599,51.3774896],[1.4475086,51.3801303],[1.4446389,51.3838243],[1.4428882,51.3850652],[1.4431225,51.3857759],[1.4420275,51.3871851],[1.4351748,51.3891563],[1.4347137,51.3892889],[1.4248993,51.3937817],[1.4038819,51.3923457],[1.4026323,51.3839133],[1.405508,51.383117],[1.4173973,51.379859],[1.4264702,51.3809448],[1.4233841,51.3784531],[1.4290781,51.3750421],[1.4308876,51.3774494],[1.4374343,51.373682],[1.4337752,51.3717451],[1.4459992,51.3681725]]],"type":"Polygon"},"id":"E02005133","properties":{"code":"E02005133","geography":"MSOA","name":"Thanet 002"},"type":"Feature"},{"geometry":{"coordinates":[[[1.3865098,51.3858359],[1.3838279,51.3839394],[1.3842308,51.3869003],[1.3794188,51.3882906],[1.3824888,51.391736],[1.3881294,51.3917978],[1.3873831,51.3926264],[1.3785666,51.3912493],[1.378859,51.387785],[1.3746254,51.3874409],[1.374293,51.3874139],[1.3584224,51.3861705],[1.3613682,51.3832129],[1.3745026,51.3848927],[1.3761519,51.3784378],[1.3831363,51.3758083],[1.386015,51.3773858],[1.3839799,51.3810598],[1.3888014,51.3800697],[1.3930156,51.3829562],[1.3865098,51.3858359]]],"type":"Polygon"},"id":"E02005134","properties":{"code":"E02005134","geography":"MSOA","name":"Thanet 003"},"type":"Feature"},{"geometry":{"coordinates":[[[1.4026323,51.3839133],[1.3961582,51.3841869],[1.3893221,51.3897627],[1.3865098,51.3858359],[1.3930156,51.3829562],[1.3888014,51.3800697],[1.3839799,51.3810598],[1.386015,51.3773858],[1.3831363,51.3758083],[1.3761519,51.3784378],[1.3694459,51.3740057],[1.3847012,51.3689492],[1.3920652,51.3625234],[1.4074508,51.3736262],[1.3933883,51.3799607],[1.4044765,51.3808207],[1.405508,51.383117],[1.4026323,51.3839133]]],"type":"Polygon"},"id":"E02005135","properties":{"code":"E02005135","geography":"MSOA","name":"Thanet 004"},"type":"Feature"},{"geometry":{"coordinates":[[[1.3761519,51.3784378],[1.3745026,51.3848927],[1.3613682,51.3832129],[1.3584224,51.3861705],[1.3451828,51.3851316],[1.3448907,51.3851662],[1.3447868,51.3851785],[1.3412282,51.3697518],[1.3694459,51.3740057],[1.3761519,51.3784378]]],"type":"Polygon"},"id":"E02005136","properties":{"code":"E02005136","geography":"MSOA","name":"Thanet 005"},"type":"Feature"},{"geometry":{"coordinates":[[[1.4233841,51.3784531],[1.4264702,51.3809448],[1.4173973,51.379859],[1.405508,51.383117],[1.4044765,51.3808207],[1.3933883,51.3799607],[1.4074508,51.3736262],[1.4156103,51.3708008],[1.4229592,51.3682592],[1.4291792,51.3713636],[1.4232455,51.3745155],[1.4233841,51.3784531]]],"type":"Polygon"},"id":"E02005137","properties":{"code":"E02005137","geography":"MSOA","name":"Thanet 006"},"type":"Feature"},{"geometry":{"coordinates":[[[1.3447868,51.3851785],[1.3348767,51.3863513],[1.3311266,51.3824633],[1.3206883,51.3819693],[1.3231267,51.3792843],[1.3278995,51.3798884],[1.3242153,51.3781296],[1.3243358,51.3707103],[1.3146266,51.3718552],[1.312283,51.3755842],[1.304677,51.37139],[1.3117583,51.3615741],[1.3238483,51.3620746],[1.3412282,51.3697518],[1.3447868,51.3851785]]],"type":"Polygon"},"id":"E02005138","properties":{"code":"E02005138","geography":"MSOA","name":"Thanet 007"},"type":"Feature"},{"geometry":{"coordinates":[[[1.3117583,51.3615741],[1.304677,51.37139],[1.312283,51.3755842],[1.3146266,51.3718552],[1.3243358,51.3707103],[1.3242153,51.3781296],[1.3278995,51.3798884],[1.3231267,51.3792843],[1.3206883,51.3819693],[1.3197489,51.3819248],[1.2901342,51.3827761],[1.2801291,51.3781898],[1.2631714,51.3776757],[1.2630889,51.3776793],[1.2640698,51.3766856],[1.2606141,51.3717601],[1.2635779,51.3741799],[1.2731061,51.3694567],[1.2835811,51.3704092],[1.291868,51.3637826],[1.3117583,51.3615741]]],"type":"Polygon"},"id":"E02005139","properties":{"code":"E02005139","geography":"MSOA","name":"Thanet 008"},"type":"Feature"},{"geometry":{"coordinates":[[[1.4459992,51.3681725],[1.4337752,51.3717451],[1.4374343,51.373682],[1.4308876,51.3774494],[1.4290781,51.3750421],[1.4233841,51.3784531],[1.4232455,51.3745155],[1.4291792,51.3713636],[1.4229592,51.3682592],[1.4156103,51.3708008],[1.4187471,51.3625998],[1.4264823,51.3607405],[1.4435851,51.3629879],[1.4444846,51.3623621],[1.4457917,51.3676293],[1.4459873,51.3681411],[1.4459992,51.3681725]]],"type":"Polygon"},"id":"E02005140","properties":{"code":"E02005140","geography":"MSOA","name":"Thanet 009"},"type":"Feature"},{"geometry":{"coordinates":[[[1.4444846,51.3623621],[1.4435851,51.3629879],[1.4264823,51.3607405],[1.4238996,51.3555484],[1.430065,51.3518574],[1.4327871,51.3531319],[1.4269197,51.347742],[1.4363353,51.3426746],[1.4434289,51.358107],[1.4444846,51.3623621]]],"type":"Polygon"},"id":"E02005141","properties":{"code":"E02005141","geography":"MSOA","name":"Thanet 010"},"type":"Feature"},{"geometry":{"coordinates":[[[1.4156103,51.3708008],[1.4074508,51.3736262],[1.3920652,51.3625234],[1.3861351,51.3597203],[1.3858833,51.3486289],[1.4023571,51.350415],[1.407861,51.3458444],[1.4125558,51.3514109],[1.416579,51.3507321],[1.4213423,51.3497176],[1.4238996,51.3555484],[1.4264823,51.3607405],[1.4187471,51.3625998],[1.4156103,51.3708008]]],"type":"Polygon"},"id":"E02005142","properties":{"code":"E02005142","geography":"MSOA","name":"Thanet 011"},"type":"Feature"},{"geometry":{"coordinates":[[[1.4363353,51.3426746],[1.4269197,51.347742],[1.4327871,51.3531319],[1.430065,51.3518574],[1.4238996,51.3555484],[1.4213423,51.3497176],[1.416579,51.3507321],[1.416362,51.345164],[1.4215244,51.3379589],[1.4291032,51.3351498],[1.4299282,51.3361775],[1.4363117,51.3426232],[1.4363353,51.3426746]]],"type":"Polygon"},"id":"E02005143","properties":{"code":"E02005143","geography":"MSOA","name":"Thanet 012"},"type":"Feature"},{"geometry":{"coordinates":[[[1.416579,51.3507321],[1.4125558,51.3514109],[1.407861,51.3458444],[1.4023571,51.350415],[1.3858833,51.3486289],[1.3804406,51.3370439],[1.3960153,51.3396262],[1.401821,51.3371809],[1.4013732,51.3402671],[1.416362,51.345164],[1.416579,51.3507321]]],"type":"Polygon"},"id":"E02005144","properties":{"code":"E02005144","geography":"MSOA","name":"Thanet 013"},"type":"Feature"},{"geometry":{"coordinates":[[[1.2630889,51.3776793],[1.224814,51.379303],[1.2247654,51.3793051],[1.2290142,51.3646155],[1.2205296,51.3667401],[1.2107524,51.3636098],[1.2202732,51.349911],[1.2278908,51.3481764],[1.2315903,51.3390845],[1.2500694,51.3293307],[1.2578367,51.3233533],[1.2738911,51.3203732],[1.2900407,51.3213644],[1.3099636,51.3169363],[1.3254975,51.3167907],[1.3452764,51.3079659],[1.3516696,51.3130048],[1.3596577,51.3247073],[1.3613442,51.3377588],[1.3804406,51.3370439],[1.3858833,51.3486289],[1.3861351,51.3597203],[1.3920652,51.3625234],[1.3847012,51.3689492],[1.3694459,51.3740057],[1.3412282,51.3697518],[1.3238483,51.3620746],[1.3117583,51.3615741],[1.291868,51.3637826],[1.2835811,51.3704092],[1.2731061,51.3694567],[1.2635779,51.3741799],[1.2606141,51.3717601],[1.2640698,51.3766856],[1.2630889,51.3776793]]],"type":"Polygon"},"id":"E02005145","properties":{"code":"E02005145","geography":"MSOA","name":"Thanet 014"},"type":"Feature"},{"geometry":{"coordinates":[[[1.4215244,51.3379589],[1.416362,51.345164],[1.4013732,51.3402671],[1.401821,51.3371809],[1.3986929,51.3322072],[1.4071759,51.3313398],[1.4097614,51.3381701],[1.4145398,51.3386809],[1.4187257,51.3342535],[1.4206143,51.3369093],[1.4172192,51.3369919],[1.4215244,51.3379589]]],"type":"Polygon"},"id":"E02005146","properties":{"code":"E02005146","geography":"MSOA","name":"Thanet 015"},"type":"Feature"},{"geometry":{"coordinates":[[[1.4215244,51.3379589],[1.4172192,51.3369919],[1.4206143,51.3369093],[1.4187257,51.3342535],[1.4145398,51.3386809],[1.4097614,51.3381701],[1.4071759,51.3313398],[1.4114268,51.3239031],[1.4153611,51.323864],[1.4145569,51.3274771],[1.4216512,51.3276531],[1.4180812,51.3291679],[1.4231771,51.331369],[1.4246554,51.3259856],[1.424882,51.3298901],[1.4252155,51.3303057],[1.4291032,51.3351498],[1.4215244,51.3379589]]],"type":"Polygon"},"id":"E02005147","properties":{"code":"E02005147","geography":"MSOA","name":"Thanet 016"},"type":"Feature"},{"geometry":{"coordinates":[[[[1.3676923,51.3131277],[1.3675726,51.313386],[1.3665238,51.3132561],[1.3643146,51.3124171],[1.3676923,51.3131277]]],[[[1.401821,51.3371809],[1.3960153,51.3396262],[1.3804406,51.3370439],[1.3613442,51.3377588],[1.3596577,51.3247073],[1.3516696,51.3130048],[1.3578892,51.3114733],[1.3581738,51.3144415],[1.3624315,51.3133693],[1.360227,51.3161392],[1.3631261,51.3135643],[1.3616423,51.3196112],[1.3658192,51.3249745],[1.3768689,51.3295945],[1.4092355,51.3268713],[1.4114268,51.3239031],[1.4071759,51.3313398],[1.3986929,51.3322072],[1.401821,51.3371809]]]],"type":"MultiPolygon"},"id":"E02005148","properties":{"code":"E02005148","geography":"MSOA","name":"Thanet 017"},"type":"Feature"}],"type":"FeatureCollection"}
