{"features":[{"geometry":{"coordinates":[[[-0.4660996,51.4577573],[-0.4938809,51.4627215],[-0.5097197,51.469176],[-0.5156805,51.4682679],[-0.5189928,51.4575133],[-0.5129281,51.4562307],[-0.5089569,51.4494436],[-0.5120795,51.4406515],[-0.4999726,51.4372575],[-0.4959839,51.4461627],[-0.4958119,51.4391187],[-0.4849784,51.4408764],[-0.4763949,51.443732],[-0.4794271,51.447943],[-0.4754932,51.4514554],[-0.4794119,51.4508122],[-0.4806936,51.4546405],[-0.4711111,51.4532837],[-0.4660996,51.4577573]]],"type":"Polygon"},"id":"E02006403","properties":{"code":"E02006403","geography":"MSOA","name":"Spelthorne 001"},"type":"Feature"},{"geometry":{"coordinates":[[[-0.4586621,51.4563149],[-0.4660996,51.4577573],[-0.4711111,51.4532837],[-0.4806936,51.4546405],[-0.4794119,51.4508122],[-0.4754932,51.4514554],[-0.4794271,51.447943],[-0.4763949,51.443732],[-0.4647761,51.445044],[-0.4602439,51.4376751],[-0.4564959,51.438225],[-0.4574837,51.4490899],[-0.4615031,51.4489927],[-0.4586621,51.4563149]]],"type":"Polygon"},"id":"E02006404","properties":{"code":"E02006404","geography":"MSOA","name":"Spelthorne 002"},"type":"Feature"},{"geometry":{"coordinates":[[[-0.4602439,51.4376751],[-0.4647761,51.445044],[-0.4763949,51.443732],[-0.4849784,51.4408764],[-0.4829957,51.4348706],[-0.4915685,51.4331089],[-0.4864471,51.430927],[-0.4726794,51.4269068],[-0.4609198,51.4325371],[-0.4602439,51.4376751]]],"type":"Polygon"},"id":"E02006405","properties":{"code":"E02006405","geography":"MSOA","name":"Spelthorne 003"},"type":"Feature"},{"geometry":{"coordinates":[[[-0.5156805,51.4682679],[-0.5243776,51.4715275],[-0.529979,51.4701673],[-0.5353211,51.4605109],[-0.5405752,51.4583388],[-0.5346515,51.45295],[-0.5267515,51.4475097],[-0.5314556,51.4417126],[-0.5245595,51.4398801],[-0.5227841,51.4353005],[-0.5112204,51.4306757],[-0.505136,51.4250709],[-0.4974736,51.4255446],[-0.4968226,51.4298612],[-0.4942256,51.42855],[-0.4864471,51.430927],[-0.4915685,51.4331089],[-0.4829957,51.4348706],[-0.4849784,51.4408764],[-0.4958119,51.4391187],[-0.4959839,51.4461627],[-0.4999726,51.4372575],[-0.5120795,51.4406515],[-0.5089569,51.4494436],[-0.5129281,51.4562307],[-0.5189928,51.4575133],[-0.5156805,51.4682679]]],"type":"Polygon"},"id":"E02006406","properties":{"code":"E02006406","geography":"MSOA","name":"Spelthorne 004"},"type":"Feature"},{"geometry":{"coordinates":[[[-0.4400059,51.4306266],[-0.4397751,51.4346189],[-0.447738,51.4350036],[-0.4463094,51.439997],[-0.4564959,51.438225],[-0.4602439,51.4376751],[-0.4609198,51.4325371],[-0.4726794,51.4269068],[-0.4726269,51.426802],[-0.4488856,51.4230265],[-0.4506452,51.4263934],[-0.4462426,51.4254716],[-0.4451252,51.4305929],[-0.4400059,51.4306266]]],"type":"Polygon"},"id":"E02006407","properties":{"code":"E02006407","geography":"MSOA","name":"Spelthorne 005"},"type":"Feature"},{"geometry":{"coordinates":[[[-0.4278525,51.4292523],[-0.4400059,51.4306266],[-0.4451252,51.4305929],[-0.4462426,51.4254716],[-0.4506452,51.4263934],[-0.4488856,51.4230265],[-0.4430776,51.4151639],[-0.4307688,51.4141822],[-0.4278525,51.4292523]]],"type":"Polygon"},"id":"E02006408","properties":{"code":"E02006408","geography":"MSOA","name":"Spelthorne 006"},"type":"Feature"},{"geometry":{"coordinates":[[[-0.4726794,51.4269068],[-0.4864471,51.430927],[-0.4942256,51.42855],[-0.4942893,51.4244941],[-0.4883957,51.4227865],[-0.4960116,51.4161759],[-0.4901751,51.41422],[-0.484287,51.4145835],[-0.4726269,51.426802],[-0.4726794,51.4269068]]],"type":"Polygon"},"id":"E02006409","properties":{"code":"E02006409","geography":"MSOA","name":"Spelthorne 007"},"type":"Feature"},{"geometry":{"coordinates":[[[-0.4078429,51.4235941],[-0.4186042,51.4321086],[-0.4278525,51.4292523],[-0.4307688,51.4141822],[-0.430668,51.4139069],[-0.419747,51.4188297],[-0.4078429,51.4235941]]],"type":"Polygon"},"id":"E02006410","properties":{"code":"E02006410","geography":"MSOA","name":"Spelthorne 008"},"type":"Feature"},{"geometry":{"coordinates":[[[-0.4942256,51.42855],[-0.4968226,51.4298612],[-0.4974736,51.4255446],[-0.505136,51.4250709],[-0.5112204,51.4306757],[-0.5102257,51.4293586],[-0.5126151,51.4173771],[-0.5027003,51.4158867],[-0.5032631,51.410803],[-0.4997916,51.4140794],[-0.4948816,51.4130474],[-0.4901751,51.41422],[-0.4960116,51.4161759],[-0.4883957,51.4227865],[-0.4942893,51.4244941],[-0.4942256,51.42855]]],"type":"Polygon"},"id":"E02006411","properties":{"code":"E02006411","geography":"MSOA","name":"Spelthorne 009"},"type":"Feature"},{"geometry":{"coordinates":[[[-0.3913729,51.4223316],[-0.4078429,51.4235941],[-0.419747,51.4188297],[-0.4115574,51.4032548],[-0.3971498,51.4086484],[-0.3856892,51.4091449],[-0.3833722,51.4085386],[-0.3896726,51.4106925],[-0.3866632,51.4200805],[-0.3913729,51.4223316]]],"type":"Polygon"},"id":"E02006412","properties":{"code":"E02006412","geography":"MSOA","name":"Spelthorne 010"},"type":"Feature"},{"geometry":{"coordinates":[[[-0.4115574,51.4032548],[-0.419747,51.4188297],[-0.430668,51.4139069],[-0.4473957,51.4037759],[-0.4435538,51.3991054],[-0.4247981,51.3956005],[-0.4189689,51.397165],[-0.4129544,51.4014696],[-0.4115574,51.4032548]]],"type":"Polygon"},"id":"E02006413","properties":{"code":"E02006413","geography":"MSOA","name":"Spelthorne 011"},"type":"Feature"},{"geometry":{"coordinates":[[[-0.4488856,51.4230265],[-0.4726269,51.426802],[-0.484287,51.4145835],[-0.4901751,51.41422],[-0.4948816,51.4130474],[-0.486504,51.3940815],[-0.4595605,51.3949879],[-0.4473957,51.4037759],[-0.430668,51.4139069],[-0.4307688,51.4141822],[-0.4430776,51.4151639],[-0.4488856,51.4230265]]],"type":"Polygon"},"id":"E02006414","properties":{"code":"E02006414","geography":"MSOA","name":"Spelthorne 012"},"type":"Feature"},{"geometry":{"coordinates":[[[-0.4189689,51.397165],[-0.4247981,51.3956005],[-0.4435538,51.3991054],[-0.4473957,51.4037759],[-0.4595605,51.3949879],[-0.486504,51.3940815],[-0.4853473,51.3872526],[-0.4767811,51.3902196],[-0.4701561,51.3858835],[-0.4710435,51.3825588],[-0.4616674,51.3820833],[-0.4628157,51.3784362],[-0.4580108,51.3805678],[-0.4505433,51.3836606],[-0.4519109,51.3876339],[-0.4450242,51.3869016],[-0.4426486,51.3898028],[-0.4321095,51.3840424],[-0.4189689,51.397165]]],"type":"Polygon"},"id":"E02006415","properties":{"code":"E02006415","geography":"MSOA","name":"Spelthorne 013"},"type":"Feature"}],"type":"FeatureCollection"}
