{"features":[{"geometry":{"coordinates":[[[-2.9691641,50.8382043],[-2.9724815,50.8460469],[-2.9680171,50.8513072],[-2.9746461,50.8523618],[-2.9735752,50.8557215],[-2.9941646,50.8552069],[-2.9984978,50.8509952],[-3.0114347,50.857242],[-3.0367993,50.8510742],[-3.0326247,50.8616481],[-3.0384353,50.8683239],[-3.0437256,50.8681131],[-3.0547586,50.8745553],[-3.0518089,50.8826888],[-3.0553143,50.8931813],[-3.0498049,50.9037677],[-3.0523785,50.9082157],[-3.089643,50.9061273],[-3.122069,50.8981485],[-3.1263321,50.9017253],[-3.139177,50.8917122],[-3.1441684,50.8914024],[-3.1423199,50.8892503],[-3.1650376,50.8842581],[-3.1636385,50.882307],[-3.1761455,50.8770915],[-3.2073048,50.8770649],[-3.2179095,50.8844691],[-3.2175542,50.8928551],[-3.2331071,50.895038],[-3.2491499,50.8863934],[-3.2532389,50.8791042],[-3.2780055,50.867868],[-3.2831997,50.8634867],[-3.2758554,50.8590953],[-3.2812523,50.8558129],[-3.2553064,50.8528775],[-3.243019,50.848069],[-3.2375551,50.8379591],[-3.2377421,50.8266606],[-3.2319157,50.8253954],[-3.2311276,50.8277824],[-3.228312,50.8260527],[-3.2194059,50.8294837],[-3.2182317,50.8180288],[-3.2110674,50.8119166],[-3.1988907,50.8080532],[-3.1991696,50.8053655],[-3.1866818,50.8040583],[-3.1728917,50.8142747],[-3.1632136,50.8071212],[-3.1532657,50.805957],[-3.156885,50.8012827],[-3.1479213,50.797447],[-3.1389123,50.8028868],[-3.1191952,50.8030105],[-3.1157649,50.7974756],[-3.1050654,50.8027963],[-3.078888,50.7995897],[-3.0594543,50.8057763],[-3.0442665,50.808233],[-3.0427237,50.8064962],[-3.0337283,50.8043807],[-3.0299291,50.8083984],[-3.026595,50.8049793],[-3.0131434,50.8021293],[-3.0169993,50.8067837],[-2.9966408,50.8138668],[-3.0069465,50.8246532],[-3.0066711,50.8350728],[-3.0113122,50.8363934],[-2.9973292,50.8379608],[-2.991387,50.8303715],[-2.9796138,50.836626],[-2.9691641,50.8382043]]],"type":"Polygon"},"id":"E02004129","properties":{"code":"E02004129","geography":"MSOA","name":"East Devon 001"},"type":"Feature"},{"geometry":{"coordinates":[[[-3.156885,50.8012827],[-3.1532657,50.805957],[-3.1632136,50.8071212],[-3.1728917,50.8142747],[-3.1866818,50.8040583],[-3.1991696,50.8053655],[-3.2051226,50.8029317],[-3.2052687,50.7994251],[-3.1936365,50.7977373],[-3.1940055,50.7929736],[-3.1905821,50.7919091],[-3.1901163,50.7953667],[-3.1773877,50.7895013],[-3.1740151,50.7858906],[-3.1800526,50.7747083],[-3.1696883,50.7836863],[-3.1699292,50.7891282],[-3.1641133,50.7917665],[-3.1666658,50.7939392],[-3.156885,50.8012827]]],"type":"Polygon"},"id":"E02004130","properties":{"code":"E02004130","geography":"MSOA","name":"East Devon 002"},"type":"Feature"},{"geometry":{"coordinates":[[[-3.1800526,50.7747083],[-3.1740151,50.7858906],[-3.1773877,50.7895013],[-3.1901163,50.7953667],[-3.1905821,50.7919091],[-3.1940055,50.7929736],[-3.1936365,50.7977373],[-3.2052687,50.7994251],[-3.2128859,50.7979362],[-3.2167813,50.7917679],[-3.2015736,50.7799084],[-3.2071714,50.7692855],[-3.199532,50.7567683],[-3.1966734,50.7562072],[-3.1939859,50.7634113],[-3.1800526,50.7747083]]],"type":"Polygon"},"id":"E02004131","properties":{"code":"E02004131","geography":"MSOA","name":"East Devon 003"},"type":"Feature"},{"geometry":{"coordinates":[[[-3.2812523,50.8558129],[-3.2893728,50.8539367],[-3.3282903,50.8570369],[-3.3296751,50.8516794],[-3.3483177,50.8467048],[-3.3416346,50.8405178],[-3.343555,50.8258432],[-3.3569982,50.826912],[-3.355885,50.8339134],[-3.3676119,50.8295339],[-3.3669741,50.8205427],[-3.3617333,50.8210033],[-3.3599453,50.8118863],[-3.354022,50.807626],[-3.3393736,50.812886],[-3.338054,50.7986526],[-3.3469469,50.7844834],[-3.3611874,50.7853351],[-3.3649178,50.7788344],[-3.3717266,50.7787996],[-3.3686924,50.770705],[-3.3800091,50.7674847],[-3.3807647,50.7577029],[-3.3781111,50.7519239],[-3.3647032,50.7534315],[-3.363258,50.7454571],[-3.3591642,50.7435849],[-3.331529,50.7493032],[-3.3292308,50.7399642],[-3.3164055,50.7391529],[-3.2979122,50.7438092],[-3.299712,50.7398478],[-3.2919412,50.7390996],[-3.294324,50.7518164],[-3.2865556,50.7569223],[-3.2757481,50.7576176],[-3.2682103,50.7626436],[-3.2340202,50.7611251],[-3.2303676,50.762725],[-3.199532,50.7567683],[-3.2071714,50.7692855],[-3.2015736,50.7799084],[-3.2167813,50.7917679],[-3.2128859,50.7979362],[-3.2052687,50.7994251],[-3.2051226,50.8029317],[-3.1991696,50.8053655],[-3.1988907,50.8080532],[-3.2110674,50.8119166],[-3.2182317,50.8180288],[-3.2194059,50.8294837],[-3.228312,50.8260527],[-3.2311276,50.8277824],[-3.2319157,50.8253954],[-3.2377421,50.8266606],[-3.2375551,50.8379591],[-3.243019,50.848069],[-3.2553064,50.8528775],[-3.2812523,50.8558129]]],"type":"Polygon"},"id":"E02004132","properties":{"code":"E02004132","geography":"MSOA","name":"East Devon 004"},"type":"Feature"},{"geometry":{"coordinates":[[[-2.9543157,50.8211821],[-2.9698209,50.83419],[-2.9691641,50.8382043],[-2.9796138,50.836626],[-2.991387,50.8303715],[-2.9973292,50.8379608],[-3.0113122,50.8363934],[-3.0066711,50.8350728],[-3.0069465,50.8246532],[-2.9966408,50.8138668],[-3.0169993,50.8067837],[-3.0131434,50.8021293],[-3.026595,50.8049793],[-3.0299291,50.8083984],[-3.0337283,50.8043807],[-3.0427237,50.8064962],[-3.0319843,50.7931008],[-3.040082,50.7933844],[-3.0373294,50.7872376],[-3.0254768,50.7881157],[-3.017201,50.7721017],[-3.0277945,50.7621768],[-3.0143373,50.7602661],[-3.0105686,50.7541178],[-3.0037613,50.7523639],[-2.995596,50.7546992],[-2.9895157,50.7522734],[-2.9857622,50.7577666],[-2.9719881,50.7636835],[-2.9525851,50.761392],[-2.9543713,50.7677159],[-2.9366329,50.7797576],[-2.8977819,50.7860408],[-2.8866405,50.794817],[-2.8927668,50.8047676],[-2.9185514,50.8056403],[-2.9383966,50.8098446],[-2.9479554,50.8154354],[-2.9612973,50.8155647],[-2.9543157,50.8211821]]],"type":"Polygon"},"id":"E02004133","properties":{"code":"E02004133","geography":"MSOA","name":"East Devon 005"},"type":"Feature"},{"geometry":{"coordinates":[[[-3.0427237,50.8064962],[-3.0442665,50.808233],[-3.0594543,50.8057763],[-3.078888,50.7995897],[-3.1050654,50.8027963],[-3.1157649,50.7974756],[-3.096101,50.7853493],[-3.0920779,50.7789977],[-3.1105602,50.7756081],[-3.109716,50.7682365],[-3.1161227,50.7661375],[-3.1195009,50.7653857],[-3.1249538,50.7707937],[-3.1287075,50.7644938],[-3.1189343,50.7644065],[-3.1160314,50.7573595],[-3.1263828,50.7579038],[-3.1323371,50.765581],[-3.1416131,50.7560606],[-3.1415867,50.751898],[-3.1345442,50.7491987],[-3.1417325,50.749972],[-3.1367061,50.7483286],[-3.1409849,50.7458066],[-3.1346708,50.7414266],[-3.1281876,50.7495292],[-3.1198665,50.7514314],[-3.1261188,50.7415311],[-3.1155509,50.7413845],[-3.1099323,50.7345288],[-3.0974869,50.7357582],[-3.1202265,50.7191692],[-3.118355,50.7152338],[-3.1070611,50.7117885],[-3.0865997,50.7150925],[-3.0895407,50.7224826],[-3.0859323,50.7245011],[-3.0757325,50.7253475],[-3.0611573,50.7217391],[-3.0610253,50.7030425],[-3.0608678,50.7030488],[-3.0548454,50.7025334],[-3.0577702,50.7040676],[-3.0321641,50.6999352],[-3.0201574,50.698739],[-3.0116983,50.6997958],[-2.9990889,50.7037556],[-2.9951404,50.7054776],[-2.9853383,50.7047341],[-2.9836028,50.7046761],[-2.9477558,50.7182765],[-2.9473906,50.7182993],[-2.9530081,50.7283867],[-2.9377774,50.744063],[-2.9405447,50.7498736],[-2.935058,50.7542768],[-2.9525851,50.761392],[-2.9719881,50.7636835],[-2.9857622,50.7577666],[-2.9895157,50.7522734],[-2.995596,50.7546992],[-3.0037613,50.7523639],[-3.0105686,50.7541178],[-3.0143373,50.7602661],[-3.0277945,50.7621768],[-3.017201,50.7721017],[-3.0254768,50.7881157],[-3.0373294,50.7872376],[-3.040082,50.7933844],[-3.0319843,50.7931008],[-3.0427237,50.8064962]]],"type":"Polygon"},"id":"E02004135","properties":{"code":"E02004135","geography":"MSOA","name":"East Devon 007"},"type":"Feature"},{"geometry":{"coordinates":[[[-3.2340202,50.7611251],[-3.2682103,50.7626436],[-3.2757481,50.7576176],[-3.2865556,50.7569223],[-3.294324,50.7518164],[-3.2919412,50.7390996],[-3.299712,50.7398478],[-3.2979122,50.7438092],[-3.3164055,50.7391529],[-3.3292308,50.7399642],[-3.3296943,50.7369281],[-3.3485812,50.7364425],[-3.3570141,50.725853],[-3.3824363,50.7304098],[-3.4066726,50.7282466],[-3.4059515,50.7231873],[-3.3847898,50.7198499],[-3.3743577,50.7060347],[-3.3576443,50.7074637],[-3.3342307,50.6991697],[-3.3361308,50.7147017],[-3.3318502,50.7249057],[-3.3156417,50.7172918],[-3.293876,50.7173448],[-3.2904873,50.7116552],[-3.2690654,50.7089377],[-3.2599206,50.7141422],[-3.2539827,50.7247604],[-3.2340202,50.7611251]]],"type":"Polygon"},"id":"E02004136","properties":{"code":"E02004136","geography":"MSOA","name":"East Devon 008"},"type":"Feature"},{"geometry":{"coordinates":[[[-3.1157649,50.7974756],[-3.1191952,50.8030105],[-3.1389123,50.8028868],[-3.1479213,50.797447],[-3.156885,50.8012827],[-3.1666658,50.7939392],[-3.1641133,50.7917665],[-3.1699292,50.7891282],[-3.1696883,50.7836863],[-3.1800526,50.7747083],[-3.1939859,50.7634113],[-3.1966734,50.7562072],[-3.199532,50.7567683],[-3.2303676,50.762725],[-3.2340202,50.7611251],[-3.2539827,50.7247604],[-3.2273431,50.7078774],[-3.2275361,50.7051827],[-3.2167031,50.7021222],[-3.2229196,50.702881],[-3.2360266,50.6857289],[-3.2337777,50.6786954],[-3.1847456,50.6849586],[-3.133792,50.6851281],[-3.0961196,50.685235],[-3.0952835,50.6871623],[-3.0923451,50.6955943],[-3.0890027,50.6969855],[-3.085394,50.6993749],[-3.0894395,50.7017592],[-3.0865997,50.7150925],[-3.1070611,50.7117885],[-3.118355,50.7152338],[-3.1202265,50.7191692],[-3.0974869,50.7357582],[-3.1099323,50.7345288],[-3.1155509,50.7413845],[-3.1261188,50.7415311],[-3.1198665,50.7514314],[-3.1281876,50.7495292],[-3.1346708,50.7414266],[-3.1409849,50.7458066],[-3.1367061,50.7483286],[-3.1417325,50.749972],[-3.1345442,50.7491987],[-3.1415867,50.751898],[-3.1416131,50.7560606],[-3.1323371,50.765581],[-3.1263828,50.7579038],[-3.1160314,50.7573595],[-3.1189343,50.7644065],[-3.1287075,50.7644938],[-3.1249538,50.7707937],[-3.1195009,50.7653857],[-3.1161227,50.7661375],[-3.109716,50.7682365],[-3.1105602,50.7756081],[-3.0920779,50.7789977],[-3.096101,50.7853493],[-3.1157649,50.7974756]]],"type":"Polygon"},"id":"E02004137","properties":{"code":"E02004137","geography":"MSOA","name":"East Devon 009"},"type":"Feature"},{"geometry":{"coordinates":[[[-3.0610253,50.7030425],[-3.0611573,50.7217391],[-3.0757325,50.7253475],[-3.0859323,50.7245011],[-3.0895407,50.7224826],[-3.0865997,50.7150925],[-3.0894395,50.7017592],[-3.085394,50.6993749],[-3.0824302,50.7013371],[-3.0808307,50.7015847],[-3.0798663,50.7022854],[-3.0750419,50.7024805],[-3.072715,50.7028405],[-3.0667574,50.7028151],[-3.0610253,50.7030425]]],"type":"Polygon"},"id":"E02004138","properties":{"code":"E02004138","geography":"MSOA","name":"East Devon 010"},"type":"Feature"},{"geometry":{"coordinates":[[[-3.2360266,50.6857289],[-3.2229196,50.702881],[-3.2167031,50.7021222],[-3.2275361,50.7051827],[-3.2273431,50.7078774],[-3.2539827,50.7247604],[-3.2599206,50.7141422],[-3.2690654,50.7089377],[-3.2718025,50.7057541],[-3.2680807,50.7041673],[-3.2729528,50.6996618],[-3.263219,50.7028575],[-3.2558587,50.7012668],[-3.2372016,50.6920211],[-3.2360266,50.6857289]]],"type":"Polygon"},"id":"E02004139","properties":{"code":"E02004139","geography":"MSOA","name":"East Devon 011"},"type":"Feature"},{"geometry":{"coordinates":[[[-3.2360266,50.6857289],[-3.2372016,50.6920211],[-3.2558587,50.7012668],[-3.263219,50.7028575],[-3.2729528,50.6996618],[-3.2751804,50.6983089],[-3.2681569,50.6928369],[-3.271076,50.6856671],[-3.2647021,50.6821368],[-3.2616324,50.6719274],[-3.2340293,50.6786632],[-3.2337777,50.6786954],[-3.2360266,50.6857289]]],"type":"Polygon"},"id":"E02004140","properties":{"code":"E02004140","geography":"MSOA","name":"East Devon 012"},"type":"Feature"},{"geometry":{"coordinates":[[[-3.2690654,50.7089377],[-3.2904873,50.7116552],[-3.293876,50.7173448],[-3.3156417,50.7172918],[-3.3318502,50.7249057],[-3.3361308,50.7147017],[-3.3342307,50.6991697],[-3.3576443,50.7074637],[-3.3743577,50.7060347],[-3.4012845,50.7050145],[-3.4036944,50.6985587],[-3.4263943,50.698208],[-3.4297148,50.6902939],[-3.4262677,50.6837396],[-3.4245012,50.6859535],[-3.4059897,50.6864441],[-3.4114137,50.6807803],[-3.4073574,50.6768526],[-3.4132323,50.6723487],[-3.3975163,50.6718107],[-3.4004576,50.6698328],[-3.3971217,50.6676818],[-3.394714,50.6713265],[-3.3785705,50.6705006],[-3.3840223,50.6763035],[-3.3813228,50.6791729],[-3.3892606,50.6797164],[-3.3915624,50.6847031],[-3.3858587,50.6862119],[-3.368806,50.6826557],[-3.357804,50.6864882],[-3.3571559,50.6765994],[-3.3667204,50.6650261],[-3.3687368,50.6561456],[-3.3425139,50.6613973],[-3.3380584,50.6596282],[-3.3369899,50.6619219],[-3.3074827,50.659307],[-3.3145535,50.6405369],[-3.3090869,50.6333119],[-3.3097813,50.6350526],[-3.3093284,50.6343682],[-3.3087039,50.6334706],[-3.3074085,50.6314814],[-3.3062728,50.6298889],[-3.3060809,50.6294953],[-3.2888211,50.6409147],[-3.2846758,50.6533532],[-3.2806128,50.6566483],[-3.2797961,50.6582637],[-3.2703231,50.6649905],[-3.2618197,50.6718817],[-3.2616324,50.6719274],[-3.2647021,50.6821368],[-3.271076,50.6856671],[-3.2681569,50.6928369],[-3.2751804,50.6983089],[-3.2729528,50.6996618],[-3.2680807,50.7041673],[-3.2718025,50.7057541],[-3.2690654,50.7089377]]],"type":"Polygon"},"id":"E02004141","properties":{"code":"E02004141","geography":"MSOA","name":"East Devon 013"},"type":"Feature"},{"geometry":{"coordinates":[[[[-3.4643026,50.661428],[-3.46441,50.6610858],[-3.4633796,50.6608087],[-3.4643026,50.661428]]],[[[-3.456083,50.6752822],[-3.4565519,50.6750646],[-3.4563147,50.6749046],[-3.456083,50.6752822]]],[[[-3.4327004,50.7177948],[-3.4395338,50.7324739],[-3.4624162,50.728653],[-3.4625702,50.7151819],[-3.4697343,50.7021285],[-3.4709083,50.6977361],[-3.4606331,50.6954711],[-3.4567295,50.6825015],[-3.4516307,50.6825424],[-3.4511538,50.6825486],[-3.4515688,50.6810285],[-3.4514962,50.6792552],[-3.451487,50.6790317],[-3.4327805,50.646112],[-3.4231059,50.6388597],[-3.422584,50.638191],[-3.3999031,50.6448265],[-3.3712374,50.6557245],[-3.3687368,50.6561456],[-3.3667204,50.6650261],[-3.3571559,50.6765994],[-3.357804,50.6864882],[-3.368806,50.6826557],[-3.3858587,50.6862119],[-3.3915624,50.6847031],[-3.3892606,50.6797164],[-3.3813228,50.6791729],[-3.3840223,50.6763035],[-3.3785705,50.6705006],[-3.394714,50.6713265],[-3.3971217,50.6676818],[-3.4004576,50.6698328],[-3.3975163,50.6718107],[-3.4132323,50.6723487],[-3.4073574,50.6768526],[-3.4114137,50.6807803],[-3.4059897,50.6864441],[-3.4245012,50.6859535],[-3.4262677,50.6837396],[-3.4297148,50.6902939],[-3.4263943,50.698208],[-3.4036944,50.6985587],[-3.4012845,50.7050145],[-3.3743577,50.7060347],[-3.3847898,50.7198499],[-3.4059515,50.7231873],[-3.4066726,50.7282466],[-3.4220551,50.7279985],[-3.4104897,50.7127822],[-3.4201597,50.7074865],[-3.4327004,50.7177948]]]],"type":"MultiPolygon"},"id":"E02004142","properties":{"code":"E02004142","geography":"MSOA","name":"East Devon 014"},"type":"Feature"},{"geometry":{"coordinates":[[[-3.3630661,50.6505635],[-3.3712374,50.6557245],[-3.3999031,50.6448265],[-3.3927645,50.6428718],[-3.4000471,50.6392171],[-3.3991873,50.6367546],[-3.3916601,50.6312662],[-3.3818685,50.6359897],[-3.3738116,50.6474775],[-3.3630661,50.6505635]]],"type":"Polygon"},"id":"E02004143","properties":{"code":"E02004143","geography":"MSOA","name":"East Devon 015"},"type":"Feature"},{"geometry":{"coordinates":[[[-3.3991873,50.6367546],[-3.4000471,50.6392171],[-3.3927645,50.6428718],[-3.3999031,50.6448265],[-3.422584,50.638191],[-3.4158677,50.6295823],[-3.4158549,50.629428],[-3.4158233,50.6294084],[-3.4157727,50.6293789],[-3.4156589,50.6293123],[-3.4155626,50.6292405],[-3.4155077,50.6292013],[-3.4038945,50.6216211],[-3.4002159,50.6225481],[-3.4045752,50.6284969],[-3.3991873,50.6367546]]],"type":"Polygon"},"id":"E02004144","properties":{"code":"E02004144","geography":"MSOA","name":"East Devon 016"},"type":"Feature"},{"geometry":{"coordinates":[[[-3.3090869,50.6333119],[-3.3145535,50.6405369],[-3.3074827,50.659307],[-3.3369899,50.6619219],[-3.3380584,50.6596282],[-3.3425139,50.6613973],[-3.3687368,50.6561456],[-3.3712374,50.6557245],[-3.3630661,50.6505635],[-3.3653735,50.6429041],[-3.3577043,50.6381208],[-3.3566946,50.6329678],[-3.3491998,50.620107],[-3.3478598,50.6205113],[-3.3223927,50.6284147],[-3.3069728,50.6295851],[-3.3119741,50.6309139],[-3.3081948,50.6310751],[-3.3090869,50.6333119]]],"type":"Polygon"},"id":"E02004145","properties":{"code":"E02004145","geography":"MSOA","name":"East Devon 017"},"type":"Feature"},{"geometry":{"coordinates":[[[-3.3566946,50.6329678],[-3.3577043,50.6381208],[-3.3653735,50.6429041],[-3.3630661,50.6505635],[-3.3738116,50.6474775],[-3.3818685,50.6359897],[-3.3916601,50.6312662],[-3.3991873,50.6367546],[-3.4045752,50.6284969],[-3.4002159,50.6225481],[-3.3944578,50.6246879],[-3.3922186,50.6229882],[-3.3712386,50.6318844],[-3.3566946,50.6329678]]],"type":"Polygon"},"id":"E02004146","properties":{"code":"E02004146","geography":"MSOA","name":"East Devon 018"},"type":"Feature"},{"geometry":{"coordinates":[[[-3.4038945,50.6216211],[-3.4155077,50.6292013],[-3.4159096,50.6291236],[-3.4166019,50.6215503],[-3.4255235,50.618333],[-3.4142565,50.6142776],[-3.4122246,50.6136601],[-3.4115414,50.6179545],[-3.4038945,50.6216211]]],"type":"Polygon"},"id":"E02004147","properties":{"code":"E02004147","geography":"MSOA","name":"East Devon 019"},"type":"Feature"},{"geometry":{"coordinates":[[[-3.3491998,50.620107],[-3.3566946,50.6329678],[-3.3712386,50.6318844],[-3.3922186,50.6229882],[-3.3944578,50.6246879],[-3.4002159,50.6225481],[-3.4038945,50.6216211],[-3.4115414,50.6179545],[-3.4122246,50.6136601],[-3.412163,50.6136414],[-3.4029421,50.6112566],[-3.3854497,50.6067335],[-3.3659622,50.6098928],[-3.3598935,50.607281],[-3.3589879,50.6077663],[-3.3591141,50.6117759],[-3.3592093,50.6147977],[-3.358569,50.6151365],[-3.3586062,50.6153801],[-3.3491998,50.620107]]],"type":"Polygon"},"id":"E02004148","properties":{"code":"E02004148","geography":"MSOA","name":"East Devon 020"},"type":"Feature"},{"geometry":{"coordinates":[[[-3.3599453,50.8118863],[-3.3808536,50.8107449],[-3.4103774,50.8046789],[-3.4197769,50.8115043],[-3.4297195,50.8120916],[-3.443314,50.8004237],[-3.451007,50.7996879],[-3.4607,50.803353],[-3.469095,50.7950609],[-3.4724086,50.7972262],[-3.4832858,50.7920406],[-3.4779943,50.7956967],[-3.4807356,50.7993764],[-3.5025029,50.7990545],[-3.4967365,50.8169641],[-3.4994579,50.8251234],[-3.5073507,50.827406],[-3.5052953,50.8218154],[-3.5106294,50.8163194],[-3.5049832,50.8143993],[-3.5120301,50.8109466],[-3.5110377,50.804923],[-3.5183602,50.7974333],[-3.5259339,50.7954212],[-3.526669,50.7975442],[-3.5246964,50.7870129],[-3.5367437,50.7916138],[-3.5476417,50.7912647],[-3.5719963,50.7885437],[-3.5634027,50.774968],[-3.5472552,50.7729399],[-3.5519843,50.771176],[-3.5510945,50.7652451],[-3.5588026,50.7618625],[-3.5567437,50.7580134],[-3.5705156,50.7602753],[-3.5692938,50.7557521],[-3.5762204,50.7551855],[-3.5738681,50.7526625],[-3.5855596,50.7438336],[-3.5830133,50.7415891],[-3.5696405,50.7450597],[-3.5520104,50.7451411],[-3.550267,50.7487886],[-3.548172,50.7473352],[-3.5347875,50.7560242],[-3.526327,50.7553123],[-3.5258319,50.7583588],[-3.5127242,50.761465],[-3.5027339,50.7552807],[-3.4858741,50.7507512],[-3.4810063,50.7469974],[-3.4650223,50.7449743],[-3.4659865,50.7421214],[-3.4604192,50.7392081],[-3.4623494,50.7321523],[-3.4624162,50.728653],[-3.4395338,50.7324739],[-3.4327004,50.7177948],[-3.4201597,50.7074865],[-3.4104897,50.7127822],[-3.4220551,50.7279985],[-3.4066726,50.7282466],[-3.3824363,50.7304098],[-3.3570141,50.725853],[-3.3485812,50.7364425],[-3.3296943,50.7369281],[-3.3292308,50.7399642],[-3.331529,50.7493032],[-3.3591642,50.7435849],[-3.363258,50.7454571],[-3.3647032,50.7534315],[-3.3781111,50.7519239],[-3.3807647,50.7577029],[-3.3800091,50.7674847],[-3.3686924,50.770705],[-3.3717266,50.7787996],[-3.3649178,50.7788344],[-3.3611874,50.7853351],[-3.3469469,50.7844834],[-3.338054,50.7986526],[-3.3393736,50.812886],[-3.354022,50.807626],[-3.3599453,50.8118863]],[[-3.4059751,50.7487403],[-3.418894,50.7431546],[-3.416491,50.7516492],[-3.3993789,50.7535181],[-3.3992793,50.7557906],[-3.3909268,50.7587524],[-3.3863751,50.7514248],[-3.4059751,50.7487403]]],"type":"Polygon"},"id":"E02007027","properties":{"code":"E02007027","geography":"MSOA","name":"East Devon 021"},"type":"Feature"},{"geometry":{"coordinates":[[[-3.4059751,50.7487403],[-3.3863751,50.7514248],[-3.3909268,50.7587524],[-3.3992793,50.7557906],[-3.3993789,50.7535181],[-3.416491,50.7516492],[-3.418894,50.7431546],[-3.4059751,50.7487403]]],"type":"Polygon"},"id":"E02007028","properties":{"code":"E02007028","geography":"MSOA","name":"East Devon 022"},"type":"Feature"}],"type":"FeatureCollection"}
