{"features":[{"geometry":{"coordinates":[[[-1.2774642,53.0462217],[-1.2880195,53.0482389],[-1.2991049,53.046306],[-1.3035279,53.0418652],[-1.30514,53.0448329],[-1.3078473,53.0429916],[-1.3080976,53.0478309],[-1.3190028,53.0473095],[-1.3295549,53.0544496],[-1.3358709,53.0529462],[-1.3357417,53.0506899],[-1.3319875,53.0311319],[-1.3237055,53.0241269],[-1.3227052,53.0215797],[-1.2966963,53.0196293],[-1.2991498,53.014553],[-1.2923484,53.0138202],[-1.2900122,53.0189493],[-1.2848093,53.0183985],[-1.2779301,53.032414],[-1.2512597,53.0380111],[-1.2576967,53.0409376],[-1.2663977,53.0383975],[-1.2786952,53.0440356],[-1.2774642,53.0462217]]],"type":"Polygon"},"id":"E02005850","properties":{"code":"E02005850","geography":"MSOA","name":"Broxtowe 001"},"type":"Feature"},{"geometry":{"coordinates":[[[-1.2991498,53.014553],[-1.2966963,53.0196293],[-1.3227052,53.0215797],[-1.3190752,53.010035],[-1.3079885,53.0038538],[-1.3065969,53.0100842],[-1.2939833,53.0090126],[-1.3000249,53.010157],[-1.2991498,53.014553]]],"type":"Polygon"},"id":"E02005851","properties":{"code":"E02005851","geography":"MSOA","name":"Broxtowe 002"},"type":"Feature"},{"geometry":{"coordinates":[[[-1.2412619,53.0311324],[-1.2387796,53.0326115],[-1.2512597,53.0380111],[-1.2779301,53.032414],[-1.2848093,53.0183985],[-1.2900122,53.0189493],[-1.2923484,53.0138202],[-1.2991498,53.014553],[-1.3000249,53.010157],[-1.2939833,53.0090126],[-1.3065969,53.0100842],[-1.3079885,53.0038538],[-1.3074463,53.0036351],[-1.3007232,52.9918115],[-1.2892203,52.9972159],[-1.2807227,52.9972224],[-1.2786148,53.0019238],[-1.2733513,53.0024794],[-1.2770581,53.005964],[-1.2746512,53.0090858],[-1.2677056,53.0145302],[-1.2577877,53.0166452],[-1.2564022,53.0231322],[-1.2467687,53.0275129],[-1.2478713,53.0309235],[-1.2412619,53.0311324]]],"type":"Polygon"},"id":"E02005852","properties":{"code":"E02005852","geography":"MSOA","name":"Broxtowe 003"},"type":"Feature"},{"geometry":{"coordinates":[[[-1.2336898,53.0260471],[-1.2412619,53.0311324],[-1.2478713,53.0309235],[-1.2467687,53.0275129],[-1.2564022,53.0231322],[-1.2577877,53.0166452],[-1.2677056,53.0145302],[-1.2746512,53.0090858],[-1.2770581,53.005964],[-1.2733513,53.0024794],[-1.2668157,53.0032006],[-1.2705347,52.9995356],[-1.2654993,52.9964291],[-1.252488,52.9994944],[-1.2597434,52.9941815],[-1.2557691,52.9938786],[-1.2582989,52.9904749],[-1.2529258,52.9871853],[-1.2486094,52.9879186],[-1.2513014,52.9938098],[-1.2344694,52.9898895],[-1.2325989,53.0113488],[-1.2290674,53.0227256],[-1.2336898,53.0260471]]],"type":"Polygon"},"id":"E02005853","properties":{"code":"E02005853","geography":"MSOA","name":"Broxtowe 004"},"type":"Feature"},{"geometry":{"coordinates":[[[-1.2450745,52.9503732],[-1.2468256,52.9530795],[-1.2524419,52.9505413],[-1.2602818,52.9392276],[-1.257626,52.9284818],[-1.2585787,52.9245014],[-1.2412007,52.926901],[-1.2306873,52.9275218],[-1.2233723,52.9337152],[-1.2260923,52.9378019],[-1.2331331,52.9375517],[-1.2324314,52.9420281],[-1.2450745,52.9503732]]],"type":"Polygon"},"id":"E02005856","properties":{"code":"E02005856","geography":"MSOA","name":"Broxtowe 007"},"type":"Feature"},{"geometry":{"coordinates":[[[-1.2602818,52.9392276],[-1.2524419,52.9505413],[-1.2811374,52.9407859],[-1.278033,52.9332114],[-1.2824265,52.9284273],[-1.2743046,52.9295977],[-1.2724085,52.9342244],[-1.2602818,52.9392276]]],"type":"Polygon"},"id":"E02005857","properties":{"code":"E02005857","geography":"MSOA","name":"Broxtowe 008"},"type":"Feature"},{"geometry":{"coordinates":[[[-1.21713,52.9389118],[-1.2242641,52.9424427],[-1.2324314,52.9420281],[-1.2331331,52.9375517],[-1.2260923,52.9378019],[-1.2233723,52.9337152],[-1.2306873,52.9275218],[-1.227793,52.9258723],[-1.2201519,52.9308576],[-1.2126303,52.9285711],[-1.2060535,52.9327457],[-1.2152973,52.9339704],[-1.21713,52.9389118]]],"type":"Polygon"},"id":"E02005858","properties":{"code":"E02005858","geography":"MSOA","name":"Broxtowe 009"},"type":"Feature"},{"geometry":{"coordinates":[[[-1.257626,52.9284818],[-1.2602818,52.9392276],[-1.2724085,52.9342244],[-1.2743046,52.9295977],[-1.2824265,52.9284273],[-1.2857974,52.9259723],[-1.2827152,52.9199586],[-1.2828272,52.9192691],[-1.2652322,52.9202716],[-1.257626,52.9284818]]],"type":"Polygon"},"id":"E02005859","properties":{"code":"E02005859","geography":"MSOA","name":"Broxtowe 010"},"type":"Feature"},{"geometry":{"coordinates":[[[-1.2031158,52.9322699],[-1.2060535,52.9327457],[-1.2126303,52.9285711],[-1.2201519,52.9308576],[-1.227793,52.9258723],[-1.2291251,52.9227414],[-1.2177693,52.9200721],[-1.1957783,52.9278414],[-1.2031158,52.9322699]]],"type":"Polygon"},"id":"E02005860","properties":{"code":"E02005860","geography":"MSOA","name":"Broxtowe 011"},"type":"Feature"},{"geometry":{"coordinates":[[[-1.1823057,52.9173169],[-1.1957783,52.9278414],[-1.2177693,52.9200721],[-1.2105112,52.9122492],[-1.199015,52.9094595],[-1.1933894,52.912423],[-1.1823057,52.9173169]]],"type":"Polygon"},"id":"E02005861","properties":{"code":"E02005861","geography":"MSOA","name":"Broxtowe 012"},"type":"Feature"},{"geometry":{"coordinates":[[[-1.2369681,52.9060516],[-1.2346464,52.9150582],[-1.2412007,52.926901],[-1.2585787,52.9245014],[-1.2587752,52.9088387],[-1.2404504,52.9128315],[-1.2369681,52.9060516]]],"type":"Polygon"},"id":"E02005862","properties":{"code":"E02005862","geography":"MSOA","name":"Broxtowe 013"},"type":"Feature"},{"geometry":{"coordinates":[[[-1.227793,52.9258723],[-1.2306873,52.9275218],[-1.2412007,52.926901],[-1.2346464,52.9150582],[-1.2369681,52.9060516],[-1.2466222,52.9030807],[-1.2474302,52.8986792],[-1.2397108,52.8922694],[-1.220498,52.8955439],[-1.2201686,52.902338],[-1.2139244,52.904395],[-1.2105112,52.9122492],[-1.2177693,52.9200721],[-1.2291251,52.9227414],[-1.227793,52.9258723]]],"type":"Polygon"},"id":"E02005863","properties":{"code":"E02005863","geography":"MSOA","name":"Broxtowe 014"},"type":"Feature"},{"geometry":{"coordinates":[[[-1.2585787,52.9245014],[-1.257626,52.9284818],[-1.2652322,52.9202716],[-1.2828272,52.9192691],[-1.2804813,52.9089332],[-1.2744995,52.9052437],[-1.2623336,52.9041692],[-1.25648,52.9017665],[-1.2466222,52.9030807],[-1.2369681,52.9060516],[-1.2404504,52.9128315],[-1.2587752,52.9088387],[-1.2585787,52.9245014]]],"type":"Polygon"},"id":"E02005864","properties":{"code":"E02005864","geography":"MSOA","name":"Broxtowe 015"},"type":"Feature"},{"geometry":{"coordinates":[[[-1.2251502,53.0080768],[-1.2325989,53.0113488],[-1.2344694,52.9898895],[-1.2513014,52.9938098],[-1.2486094,52.9879186],[-1.2529258,52.9871853],[-1.2582989,52.9904749],[-1.2557691,52.9938786],[-1.2597434,52.9941815],[-1.252488,52.9994944],[-1.2654993,52.9964291],[-1.2705347,52.9995356],[-1.2668157,53.0032006],[-1.2733513,53.0024794],[-1.2786148,53.0019238],[-1.2807227,52.9972224],[-1.2892203,52.9972159],[-1.3007232,52.9918115],[-1.2946521,52.9857474],[-1.2974737,52.9846546],[-1.2906793,52.9706569],[-1.2877145,52.9676826],[-1.2925046,52.9555543],[-1.2824171,52.951216],[-1.2827761,52.9455377],[-1.2811374,52.9407859],[-1.2524419,52.9505413],[-1.2468256,52.9530795],[-1.2391689,52.9653783],[-1.2326635,52.9683876],[-1.2333115,52.9692076],[-1.2468408,52.9845237],[-1.2260918,52.9811466],[-1.2225319,52.9860081],[-1.2150538,52.9831245],[-1.2036147,52.9870047],[-1.2033551,52.98751],[-1.219111,52.9914793],[-1.21394,52.9973769],[-1.2205996,53.0033871],[-1.2187037,53.006466],[-1.2251502,53.0080768]]],"type":"Polygon"},"id":"E02006906","properties":{"code":"E02006906","geography":"MSOA","name":"Broxtowe 016"},"type":"Feature"}],"type":"FeatureCollection"}
