{"features":[{"geometry":{"coordinates":[[[-1.2413268,52.3832562],[-1.2318521,52.3903786],[-1.2353637,52.3921255],[-1.2317716,52.3949906],[-1.2430821,52.3971242],[-1.27194,52.3940185],[-1.2614314,52.3825002],[-1.2499554,52.3793128],[-1.2478729,52.3833761],[-1.2413268,52.3832562]]],"type":"Polygon"},"id":"E02006493","properties":{"code":"E02006493","geography":"MSOA","name":"Rugby 002"},"type":"Feature"},{"geometry":{"coordinates":[[[-1.2821878,52.3945424],[-1.2881664,52.3933379],[-1.2941029,52.3968489],[-1.2959387,52.389107],[-1.2747846,52.3806783],[-1.2662977,52.3710584],[-1.2578855,52.3721485],[-1.2499554,52.3793128],[-1.2614314,52.3825002],[-1.27194,52.3940185],[-1.2821878,52.3945424]]],"type":"Polygon"},"id":"E02006494","properties":{"code":"E02006494","geography":"MSOA","name":"Rugby 003"},"type":"Feature"},{"geometry":{"coordinates":[[[-1.3642359,52.3974639],[-1.4022306,52.3950232],[-1.4029993,52.4015764],[-1.4280982,52.4004056],[-1.4305757,52.4054701],[-1.4350909,52.4053388],[-1.4307782,52.3990885],[-1.4348444,52.3930428],[-1.446704,52.3854326],[-1.4631358,52.3796471],[-1.4630156,52.3763338],[-1.4604117,52.3747907],[-1.4640236,52.3732501],[-1.4603827,52.3704222],[-1.4649936,52.3671215],[-1.4605805,52.3631424],[-1.4649236,52.3580607],[-1.4512099,52.3570314],[-1.4480623,52.3536609],[-1.4562093,52.3467607],[-1.4436533,52.3455192],[-1.4323077,52.344519],[-1.4316456,52.3474898],[-1.410202,52.3552975],[-1.4033087,52.3614771],[-1.3956838,52.3563516],[-1.388856,52.3559204],[-1.3864081,52.3588779],[-1.3780663,52.3540919],[-1.367099,52.3551187],[-1.345554,52.3477066],[-1.3433141,52.3492937],[-1.3602176,52.3657514],[-1.3598636,52.3902434],[-1.3642359,52.3974639]]],"type":"Polygon"},"id":"E02006495","properties":{"code":"E02006495","geography":"MSOA","name":"Rugby 004"},"type":"Feature"},{"geometry":{"coordinates":[[[-1.2413268,52.3832562],[-1.2478729,52.3833761],[-1.2499554,52.3793128],[-1.2578855,52.3721485],[-1.2470026,52.3696662],[-1.2434061,52.3732163],[-1.2423032,52.3704378],[-1.2352904,52.3696576],[-1.2258954,52.3720936],[-1.2413268,52.3832562]]],"type":"Polygon"},"id":"E02006496","properties":{"code":"E02006496","geography":"MSOA","name":"Rugby 005"},"type":"Feature"},{"geometry":{"coordinates":[[[-1.2662977,52.3710584],[-1.2747846,52.3806783],[-1.2959387,52.389107],[-1.2959321,52.3886035],[-1.2928572,52.3842417],[-1.2968056,52.3813372],[-1.2929598,52.3793889],[-1.2980367,52.3741987],[-1.295976,52.3703059],[-1.2910076,52.3721249],[-1.2849679,52.3668315],[-1.268059,52.3657501],[-1.2662977,52.3710584]]],"type":"Polygon"},"id":"E02006497","properties":{"code":"E02006497","geography":"MSOA","name":"Rugby 006"},"type":"Feature"},{"geometry":{"coordinates":[[[-1.2959321,52.3886035],[-1.297753,52.3920374],[-1.3128553,52.3926551],[-1.3097183,52.3971348],[-1.3194557,52.3996252],[-1.3193165,52.40213],[-1.3484556,52.4057521],[-1.3534065,52.4013389],[-1.359964,52.4050273],[-1.3642359,52.3974639],[-1.3598636,52.3902434],[-1.3602176,52.3657514],[-1.3433141,52.3492937],[-1.3391664,52.3507746],[-1.3344379,52.3480078],[-1.3257996,52.3534232],[-1.3272062,52.3567262],[-1.3186905,52.3575032],[-1.3173085,52.3601926],[-1.307838,52.3552865],[-1.2989569,52.3541049],[-1.2962523,52.3563843],[-1.2901425,52.3654408],[-1.2849679,52.3668315],[-1.2910076,52.3721249],[-1.295976,52.3703059],[-1.2980367,52.3741987],[-1.2929598,52.3793889],[-1.2968056,52.3813372],[-1.2928572,52.3842417],[-1.2959321,52.3886035]]],"type":"Polygon"},"id":"E02006498","properties":{"code":"E02006498","geography":"MSOA","name":"Rugby 007"},"type":"Feature"},{"geometry":{"coordinates":[[[-1.2258954,52.3720936],[-1.2352904,52.3696576],[-1.2423032,52.3704378],[-1.2434061,52.3732163],[-1.2470026,52.3696662],[-1.2528133,52.3642811],[-1.2445928,52.3574733],[-1.2339955,52.3612411],[-1.2370687,52.3661275],[-1.2215276,52.3656868],[-1.2224345,52.3692913],[-1.2258954,52.3720936]]],"type":"Polygon"},"id":"E02006499","properties":{"code":"E02006499","geography":"MSOA","name":"Rugby 008"},"type":"Feature"},{"geometry":{"coordinates":[[[-1.2470026,52.3696662],[-1.2578855,52.3721485],[-1.2662977,52.3710584],[-1.268059,52.3657501],[-1.26575,52.3635592],[-1.2767381,52.3475032],[-1.2699989,52.3491018],[-1.2627454,52.346179],[-1.2557812,52.3380672],[-1.2381111,52.344177],[-1.2486303,52.3525019],[-1.2445928,52.3574733],[-1.2528133,52.3642811],[-1.2470026,52.3696662]]],"type":"Polygon"},"id":"E02006500","properties":{"code":"E02006500","geography":"MSOA","name":"Rugby 009"},"type":"Feature"},{"geometry":{"coordinates":[[[-1.183832,52.3546099],[-1.1984118,52.3581006],[-1.2144047,52.3684233],[-1.2224345,52.3692913],[-1.2215276,52.3656868],[-1.2370687,52.3661275],[-1.2339955,52.3612411],[-1.2445928,52.3574733],[-1.2486303,52.3525019],[-1.2381111,52.344177],[-1.2213733,52.3496181],[-1.2107929,52.3487566],[-1.1956864,52.3530658],[-1.1920332,52.3510285],[-1.183832,52.3546099]]],"type":"Polygon"},"id":"E02006501","properties":{"code":"E02006501","geography":"MSOA","name":"Rugby 010"},"type":"Feature"},{"geometry":{"coordinates":[[[-1.268059,52.3657501],[-1.2849679,52.3668315],[-1.2901425,52.3654408],[-1.2962523,52.3563843],[-1.2888328,52.3444545],[-1.2767381,52.3475032],[-1.26575,52.3635592],[-1.268059,52.3657501]]],"type":"Polygon"},"id":"E02006502","properties":{"code":"E02006502","geography":"MSOA","name":"Rugby 011"},"type":"Feature"},{"geometry":{"coordinates":[[[-1.3433141,52.3492937],[-1.345554,52.3477066],[-1.367099,52.3551187],[-1.3780663,52.3540919],[-1.3864081,52.3588779],[-1.388856,52.3559204],[-1.3956838,52.3563516],[-1.4033087,52.3614771],[-1.410202,52.3552975],[-1.4316456,52.3474898],[-1.4323077,52.344519],[-1.4436533,52.3455192],[-1.4479762,52.3405625],[-1.4441466,52.3410505],[-1.4359868,52.3283999],[-1.4180487,52.3263112],[-1.4145681,52.3209816],[-1.4069847,52.3191044],[-1.4066466,52.3152748],[-1.4126686,52.3118391],[-1.4199986,52.3121602],[-1.4194193,52.3037379],[-1.389281,52.3008846],[-1.3645756,52.2879777],[-1.3623627,52.283397],[-1.3352038,52.2712245],[-1.3157528,52.2670011],[-1.3090285,52.2574582],[-1.2933523,52.2653886],[-1.2878167,52.2736103],[-1.2594918,52.2564883],[-1.2330133,52.2532436],[-1.2179205,52.2617816],[-1.2169177,52.2674956],[-1.2235756,52.2868125],[-1.233797,52.2903118],[-1.2092479,52.3151875],[-1.2463974,52.3215957],[-1.2653675,52.3283442],[-1.2557812,52.3380672],[-1.2627454,52.346179],[-1.2699989,52.3491018],[-1.2767381,52.3475032],[-1.2888328,52.3444545],[-1.2962523,52.3563843],[-1.2989569,52.3541049],[-1.307838,52.3552865],[-1.3173085,52.3601926],[-1.3186905,52.3575032],[-1.3272062,52.3567262],[-1.3257996,52.3534232],[-1.3344379,52.3480078],[-1.3391664,52.3507746],[-1.3433141,52.3492937]]],"type":"Polygon"},"id":"E02006503","properties":{"code":"E02006503","geography":"MSOA","name":"Rugby 012"},"type":"Feature"},{"geometry":{"coordinates":[[[-1.3948972,52.5269403],[-1.4173553,52.5344378],[-1.4226754,52.5315532],[-1.4282487,52.5167933],[-1.4241513,52.5144288],[-1.4167672,52.5167697],[-1.4075575,52.5153184],[-1.4075159,52.5037028],[-1.4038981,52.5023637],[-1.4117835,52.488621],[-1.4048006,52.4830837],[-1.4104197,52.4665485],[-1.4212189,52.4630113],[-1.4376311,52.4680296],[-1.4590611,52.45514],[-1.4436555,52.4474042],[-1.4466635,52.4425842],[-1.442331,52.4410872],[-1.4287677,52.4357491],[-1.4243274,52.4309621],[-1.4373408,52.4080536],[-1.4350909,52.4053388],[-1.4305757,52.4054701],[-1.4280982,52.4004056],[-1.4029993,52.4015764],[-1.4022306,52.3950232],[-1.3642359,52.3974639],[-1.359964,52.4050273],[-1.3534065,52.4013389],[-1.3484556,52.4057521],[-1.3193165,52.40213],[-1.3194557,52.3996252],[-1.3097183,52.3971348],[-1.3128553,52.3926551],[-1.297753,52.3920374],[-1.2959321,52.3886035],[-1.2959387,52.389107],[-1.2941029,52.3968489],[-1.2881664,52.3933379],[-1.2821878,52.3945424],[-1.2807942,52.4093077],[-1.2572964,52.4096082],[-1.2605182,52.4035619],[-1.2467353,52.4002296],[-1.2464459,52.4031701],[-1.2311359,52.4029799],[-1.2301745,52.4111827],[-1.2129588,52.4096846],[-1.2364563,52.4357101],[-1.257842,52.4538751],[-1.3059587,52.4933777],[-1.3250989,52.5010246],[-1.3948972,52.5269403]]],"type":"Polygon"},"id":"E02007048","properties":{"code":"E02007048","geography":"MSOA","name":"Rugby 013"},"type":"Feature"},{"geometry":{"coordinates":[[[-1.2129588,52.4096846],[-1.2301745,52.4111827],[-1.2311359,52.4029799],[-1.2464459,52.4031701],[-1.2467353,52.4002296],[-1.2605182,52.4035619],[-1.2572964,52.4096082],[-1.2807942,52.4093077],[-1.2821878,52.3945424],[-1.27194,52.3940185],[-1.2430821,52.3971242],[-1.2317716,52.3949906],[-1.2353637,52.3921255],[-1.2318521,52.3903786],[-1.2413268,52.3832562],[-1.2258954,52.3720936],[-1.2224345,52.3692913],[-1.2144047,52.3684233],[-1.1984118,52.3581006],[-1.183832,52.3546099],[-1.1749871,52.3562735],[-1.1748206,52.3643491],[-1.2016268,52.3967151],[-1.2129588,52.4096846]]],"type":"Polygon"},"id":"E02007049","properties":{"code":"E02007049","geography":"MSOA","name":"Rugby 014"},"type":"Feature"}],"type":"FeatureCollection"}
