{"features":[{"geometry":{"coordinates":[[[-0.8157251,51.3463101],[-0.8280735,51.3528468],[-0.8373662,51.352871],[-0.8477188,51.3525299],[-0.8467071,51.3405443],[-0.8316648,51.339155],[-0.8323745,51.3357222],[-0.8253172,51.3326818],[-0.8253148,51.3233798],[-0.8103174,51.3246169],[-0.8045482,51.3416394],[-0.8142457,51.3416271],[-0.8157251,51.3463101]]],"type":"Polygon"},"id":"E02004751","properties":{"code":"E02004751","geography":"MSOA","name":"Hart 001"},"type":"Feature"},{"geometry":{"coordinates":[[[-0.8700928,51.3537041],[-0.8778743,51.3525906],[-0.9070832,51.359716],[-0.9092458,51.3412268],[-0.8911333,51.3288527],[-0.8733285,51.3252065],[-0.8689456,51.3209983],[-0.838981,51.3223096],[-0.8253148,51.3233798],[-0.8253172,51.3326818],[-0.8323745,51.3357222],[-0.8316648,51.339155],[-0.8467071,51.3405443],[-0.8477188,51.3525299],[-0.8700928,51.3537041]]],"type":"Polygon"},"id":"E02004752","properties":{"code":"E02004752","geography":"MSOA","name":"Hart 002"},"type":"Feature"},{"geometry":{"coordinates":[[[-0.7846609,51.3382284],[-0.8045482,51.3416394],[-0.8103174,51.3246169],[-0.8253148,51.3233798],[-0.838981,51.3223096],[-0.8335989,51.2989876],[-0.7970882,51.3023781],[-0.7965864,51.3046668],[-0.7914158,51.3035337],[-0.7891342,51.3067283],[-0.7930561,51.3080757],[-0.7807783,51.3161443],[-0.7678238,51.3200843],[-0.7629206,51.3187306],[-0.7651749,51.3249447],[-0.7754834,51.3319588],[-0.7846609,51.3382284]]],"type":"Polygon"},"id":"E02004753","properties":{"code":"E02004753","geography":"MSOA","name":"Hart 003"},"type":"Feature"},{"geometry":{"coordinates":[[[-0.9177672,51.3645557],[-0.936009,51.3663162],[-0.9391731,51.3631706],[-0.98676,51.3598547],[-0.9946243,51.34231],[-0.990756,51.3426515],[-0.9916924,51.3387031],[-0.98102,51.3372286],[-0.9825912,51.3261791],[-0.9870984,51.3228869],[-0.9839063,51.3100206],[-0.9658872,51.3141427],[-0.9422136,51.311278],[-0.9474678,51.3049195],[-0.9249376,51.2926919],[-0.915024,51.2933714],[-0.8934558,51.2882863],[-0.8848166,51.2900079],[-0.8759558,51.2871582],[-0.8701676,51.2938665],[-0.8335989,51.2989876],[-0.838981,51.3223096],[-0.8689456,51.3209983],[-0.8733285,51.3252065],[-0.8911333,51.3288527],[-0.9092458,51.3412268],[-0.9070832,51.359716],[-0.9159028,51.3610838],[-0.9177672,51.3645557]]],"type":"Polygon"},"id":"E02004754","properties":{"code":"E02004754","geography":"MSOA","name":"Hart 004"},"type":"Feature"},{"geometry":{"coordinates":[[[-0.7903106,51.2821972],[-0.7980065,51.2845837],[-0.7959658,51.2868144],[-0.8024076,51.2927597],[-0.7970882,51.3023781],[-0.8335989,51.2989876],[-0.8701676,51.2938665],[-0.8759558,51.2871582],[-0.8481959,51.2892414],[-0.8482437,51.2796296],[-0.8403285,51.2760264],[-0.8371539,51.2813245],[-0.8316287,51.2820906],[-0.8375095,51.2850665],[-0.8321267,51.2905755],[-0.8171405,51.2917963],[-0.8155221,51.2821305],[-0.8111678,51.2749823],[-0.8075412,51.2752925],[-0.7903106,51.2821972]]],"type":"Polygon"},"id":"E02004755","properties":{"code":"E02004755","geography":"MSOA","name":"Hart 005"},"type":"Feature"},{"geometry":{"coordinates":[[[-0.9249376,51.2926919],[-0.9474678,51.3049195],[-0.9422136,51.311278],[-0.9658872,51.3141427],[-0.9839063,51.3100206],[-0.9954148,51.2986953],[-1.001235,51.3002314],[-1.0016218,51.2959153],[-1.0002392,51.2892211],[-0.9817456,51.2866315],[-0.9799429,51.2675874],[-0.9659014,51.2697428],[-0.9287159,51.2785886],[-0.9294,51.2830207],[-0.9219697,51.2843922],[-0.9296034,51.2921038],[-0.9249376,51.2926919]]],"type":"Polygon"},"id":"E02004756","properties":{"code":"E02004756","geography":"MSOA","name":"Hart 006"},"type":"Feature"},{"geometry":{"coordinates":[[[-0.8155221,51.2821305],[-0.8171405,51.2917963],[-0.8321267,51.2905755],[-0.8375095,51.2850665],[-0.8316287,51.2820906],[-0.8371539,51.2813245],[-0.8403285,51.2760264],[-0.8465659,51.2713659],[-0.841803,51.2711884],[-0.845366,51.2670202],[-0.8380559,51.26579],[-0.8286465,51.2716687],[-0.8301964,51.2739844],[-0.8212812,51.2762954],[-0.8309653,51.278622],[-0.8179725,51.2793993],[-0.8155221,51.2821305]]],"type":"Polygon"},"id":"E02004757","properties":{"code":"E02004757","geography":"MSOA","name":"Hart 007"},"type":"Feature"},{"geometry":{"coordinates":[[[-0.8759558,51.2871582],[-0.8848166,51.2900079],[-0.8934558,51.2882863],[-0.915024,51.2933714],[-0.9249376,51.2926919],[-0.9296034,51.2921038],[-0.9219697,51.2843922],[-0.9294,51.2830207],[-0.9287159,51.2785886],[-0.9659014,51.2697428],[-0.9666463,51.2635986],[-0.9623897,51.2607829],[-0.9549687,51.2606833],[-0.9538266,51.2665198],[-0.9316495,51.2610861],[-0.9231423,51.2558221],[-0.9256597,51.24929],[-0.9406049,51.2454938],[-0.934879,51.2365512],[-0.9254152,51.2353555],[-0.9275467,51.2314869],[-0.9340401,51.2316688],[-0.9374544,51.2279302],[-0.9057759,51.2206012],[-0.9002548,51.225414],[-0.8909932,51.2400971],[-0.8823476,51.2432484],[-0.8842557,51.2466058],[-0.8766829,51.2462072],[-0.8788091,51.2490636],[-0.8721613,51.252357],[-0.8762687,51.2609032],[-0.8694828,51.2763765],[-0.8585243,51.2765178],[-0.857037,51.2698305],[-0.8471354,51.2656311],[-0.8435723,51.2632225],[-0.8380559,51.26579],[-0.845366,51.2670202],[-0.841803,51.2711884],[-0.8465659,51.2713659],[-0.8403285,51.2760264],[-0.8482437,51.2796296],[-0.8481959,51.2892414],[-0.8759558,51.2871582]]],"type":"Polygon"},"id":"E02004758","properties":{"code":"E02004758","geography":"MSOA","name":"Hart 008"},"type":"Feature"},{"geometry":{"coordinates":[[[-0.8075412,51.2752925],[-0.8111678,51.2749823],[-0.8155221,51.2821305],[-0.8179725,51.2793993],[-0.8309653,51.278622],[-0.8212812,51.2762954],[-0.8301964,51.2739844],[-0.8286465,51.2716687],[-0.8380559,51.26579],[-0.8435723,51.2632225],[-0.8471354,51.2656311],[-0.8455407,51.2613023],[-0.850808,51.2618342],[-0.8459974,51.2572161],[-0.8454464,51.2603757],[-0.8432854,51.2573914],[-0.8245282,51.2561914],[-0.8254447,51.2630265],[-0.8047432,51.2693606],[-0.8035102,51.272198],[-0.8075412,51.2752925]]],"type":"Polygon"},"id":"E02004759","properties":{"code":"E02004759","geography":"MSOA","name":"Hart 009"},"type":"Feature"},{"geometry":{"coordinates":[[[-0.8471354,51.2656311],[-0.857037,51.2698305],[-0.8585243,51.2765178],[-0.8694828,51.2763765],[-0.8762687,51.2609032],[-0.8721613,51.252357],[-0.8788091,51.2490636],[-0.8766829,51.2462072],[-0.8842557,51.2466058],[-0.8823476,51.2432484],[-0.8909932,51.2400971],[-0.9002548,51.225414],[-0.8937069,51.2155313],[-0.8960163,51.209944],[-0.8690695,51.2127379],[-0.848929,51.2107178],[-0.8401263,51.2152026],[-0.8285268,51.2289067],[-0.8266384,51.2343749],[-0.8208817,51.2344792],[-0.8207955,51.2392725],[-0.8047671,51.2450665],[-0.8047432,51.2693606],[-0.8254447,51.2630265],[-0.8245282,51.2561914],[-0.8432854,51.2573914],[-0.8454464,51.2603757],[-0.8459974,51.2572161],[-0.850808,51.2618342],[-0.8455407,51.2613023],[-0.8471354,51.2656311]]],"type":"Polygon"},"id":"E02004760","properties":{"code":"E02004760","geography":"MSOA","name":"Hart 010"},"type":"Feature"},{"geometry":{"coordinates":[[[-0.9002548,51.225414],[-0.9057759,51.2206012],[-0.9374544,51.2279302],[-0.9340401,51.2316688],[-0.9275467,51.2314869],[-0.9254152,51.2353555],[-0.934879,51.2365512],[-0.9406049,51.2454938],[-0.9256597,51.24929],[-0.9231423,51.2558221],[-0.9316495,51.2610861],[-0.9538266,51.2665198],[-0.9549687,51.2606833],[-0.9623897,51.2607829],[-0.9666463,51.2635986],[-0.9659014,51.2697428],[-0.9799429,51.2675874],[-0.9937244,51.2444175],[-0.9788353,51.2420849],[-0.9748133,51.2385203],[-0.9831262,51.235309],[-0.9754911,51.2259165],[-0.983299,51.2230794],[-0.9781175,51.2204857],[-0.9841769,51.2124295],[-0.9858986,51.1904376],[-0.9738362,51.1860098],[-0.9511912,51.2004484],[-0.9091931,51.2054995],[-0.9043237,51.2099103],[-0.8960163,51.209944],[-0.8937069,51.2155313],[-0.9002548,51.225414]]],"type":"Polygon"},"id":"E02004761","properties":{"code":"E02004761","geography":"MSOA","name":"Hart 011"},"type":"Feature"}],"type":"FeatureCollection"}
