{"features":[{"geometry":{"coordinates":[[[-0.012588,52.0616316],[-0.0244415,52.0633056],[-0.0300435,52.061949],[-0.0230006,52.0457094],[-0.012588,52.0616316]]],"type":"Polygon"},"id":"E02004909","properties":{"code":"E02004909","geography":"MSOA","name":"North Hertfordshire 001"},"type":"Feature"},{"geometry":{"coordinates":[[[-0.012588,52.0616316],[-0.0230006,52.0457094],[-0.0300435,52.061949],[-0.0542406,52.0466119],[-0.0298681,52.0480959],[-0.0373186,52.0338871],[-0.0110695,52.0338794],[0.0098264,52.0378391],[0.0071568,52.0495228],[-0.0014121,52.0516548],[-0.012588,52.0616316]]],"type":"Polygon"},"id":"E02004910","properties":{"code":"E02004910","geography":"MSOA","name":"North Hertfordshire 002"},"type":"Feature"},{"geometry":{"coordinates":[[[-0.1973343,52.0000815],[-0.2135245,52.0084417],[-0.2368946,51.9979379],[-0.2441055,51.9990143],[-0.2479166,51.9851643],[-0.2396889,51.9867418],[-0.2172034,51.9891606],[-0.2034363,51.9959487],[-0.1978565,51.9934277],[-0.1973343,52.0000815]]],"type":"Polygon"},"id":"E02004911","properties":{"code":"E02004911","geography":"MSOA","name":"North Hertfordshire 003"},"type":"Feature"},{"geometry":{"coordinates":[[[-0.1877237,51.9731492],[-0.1761929,51.9817051],[-0.1786981,51.9864089],[-0.1687325,51.9919704],[-0.1837671,51.9928587],[-0.1843222,51.9959919],[-0.1899791,51.9949586],[-0.1973343,52.0000815],[-0.1978565,51.9934277],[-0.1991978,51.9842163],[-0.1956686,51.9731411],[-0.1928933,51.9765541],[-0.1877237,51.9731492]]],"type":"Polygon"},"id":"E02004912","properties":{"code":"E02004912","geography":"MSOA","name":"North Hertfordshire 004"},"type":"Feature"},{"geometry":{"coordinates":[[[-0.1978565,51.9934277],[-0.2034363,51.9959487],[-0.2172034,51.9891606],[-0.2396889,51.9867418],[-0.2306367,51.9798842],[-0.2239921,51.9816745],[-0.2236784,51.9721648],[-0.2149286,51.9750754],[-0.1991978,51.9842163],[-0.1978565,51.9934277]]],"type":"Polygon"},"id":"E02004914","properties":{"code":"E02004914","geography":"MSOA","name":"North Hertfordshire 006"},"type":"Feature"},{"geometry":{"coordinates":[[[-0.2306367,51.9798842],[-0.2396889,51.9867418],[-0.2479166,51.9851643],[-0.2574892,51.9853339],[-0.2602826,51.9796963],[-0.2533928,51.9778983],[-0.2518731,51.9707323],[-0.246477,51.9738201],[-0.2306367,51.9798842]]],"type":"Polygon"},"id":"E02004915","properties":{"code":"E02004915","geography":"MSOA","name":"North Hertfordshire 007"},"type":"Feature"},{"geometry":{"coordinates":[[[-0.2149286,51.9750754],[-0.2236784,51.9721648],[-0.2239921,51.9816745],[-0.2306367,51.9798842],[-0.246477,51.9738201],[-0.2407384,51.9617667],[-0.2439948,51.9577871],[-0.2379278,51.9573665],[-0.2277813,51.9538504],[-0.2323013,51.9491562],[-0.2175329,51.9479796],[-0.221228,51.9602499],[-0.2251541,51.961204],[-0.2229182,51.967932],[-0.2134387,51.9704681],[-0.2149286,51.9750754]]],"type":"Polygon"},"id":"E02004916","properties":{"code":"E02004916","geography":"MSOA","name":"North Hertfordshire 008"},"type":"Feature"},{"geometry":{"coordinates":[[[-0.1877237,51.9731492],[-0.1928933,51.9765541],[-0.1956686,51.9731411],[-0.1991978,51.9842163],[-0.2149286,51.9750754],[-0.2134387,51.9704681],[-0.2229182,51.967932],[-0.2251541,51.961204],[-0.221228,51.9602499],[-0.2175329,51.9479796],[-0.2059299,51.9474778],[-0.1973028,51.9581776],[-0.1877237,51.9731492]]],"type":"Polygon"},"id":"E02004917","properties":{"code":"E02004917","geography":"MSOA","name":"North Hertfordshire 009"},"type":"Feature"},{"geometry":{"coordinates":[[[-0.2518731,51.9707323],[-0.2533928,51.9778983],[-0.2768791,51.9710152],[-0.2763288,51.9682008],[-0.286351,51.9648987],[-0.2847608,51.9538585],[-0.275173,51.9534204],[-0.2743064,51.9489973],[-0.2640755,51.9541223],[-0.2663459,51.9588683],[-0.2518731,51.9707323]]],"type":"Polygon"},"id":"E02004918","properties":{"code":"E02004918","geography":"MSOA","name":"North Hertfordshire 010"},"type":"Feature"},{"geometry":{"coordinates":[[[-0.2379278,51.9573665],[-0.2439948,51.9577871],[-0.2407384,51.9617667],[-0.246477,51.9738201],[-0.2518731,51.9707323],[-0.2663459,51.9588683],[-0.2640755,51.9541223],[-0.2497337,51.9449976],[-0.2379278,51.9573665]]],"type":"Polygon"},"id":"E02004919","properties":{"code":"E02004919","geography":"MSOA","name":"North Hertfordshire 011"},"type":"Feature"},{"geometry":{"coordinates":[[[-0.2743064,51.9489973],[-0.275173,51.9534204],[-0.2847608,51.9538585],[-0.286351,51.9648987],[-0.315147,51.954474],[-0.304286,51.9338591],[-0.2867212,51.9334259],[-0.2812003,51.93815],[-0.271498,51.9333732],[-0.2629494,51.9392456],[-0.2769592,51.9423543],[-0.2743064,51.9489973]]],"type":"Polygon"},"id":"E02004920","properties":{"code":"E02004920","geography":"MSOA","name":"North Hertfordshire 012"},"type":"Feature"},{"geometry":{"coordinates":[[[-0.2497337,51.9449976],[-0.2640755,51.9541223],[-0.2743064,51.9489973],[-0.2769592,51.9423543],[-0.2629494,51.9392456],[-0.2504678,51.9443472],[-0.2497337,51.9449976]]],"type":"Polygon"},"id":"E02004921","properties":{"code":"E02004921","geography":"MSOA","name":"North Hertfordshire 013"},"type":"Feature"},{"geometry":{"coordinates":[[[-0.2602826,51.9796963],[-0.2739281,51.9812011],[-0.2723087,51.9881272],[-0.2834026,51.9966513],[-0.2824433,52.0015548],[-0.3000809,52.0007714],[-0.2953526,51.9953953],[-0.3068426,51.9890599],[-0.3115832,51.982101],[-0.338702,51.9827459],[-0.3587479,51.9855372],[-0.3671836,51.9837516],[-0.3637583,51.9752002],[-0.3508256,51.9728878],[-0.3492,51.9637279],[-0.3502513,51.9575688],[-0.3726086,51.9480096],[-0.382938,51.9514045],[-0.3782311,51.9716266],[-0.380712,51.9794231],[-0.3902918,51.9777195],[-0.3934579,51.9685678],[-0.3994646,51.9676624],[-0.4063261,51.9412848],[-0.4025094,51.9334015],[-0.4056343,51.9324458],[-0.3892404,51.9257728],[-0.3835764,51.9182645],[-0.385641,51.9156726],[-0.3776027,51.8985908],[-0.3734421,51.8950639],[-0.3651583,51.8943699],[-0.3551566,51.8851031],[-0.3499236,51.8787006],[-0.3548583,51.8740067],[-0.3528961,51.8635353],[-0.3350158,51.8648068],[-0.3246714,51.8740267],[-0.3185633,51.8704958],[-0.3139547,51.8601144],[-0.2654977,51.8604504],[-0.2527065,51.8703374],[-0.2532594,51.8784534],[-0.2477919,51.8845101],[-0.2323094,51.8817544],[-0.224565,51.887728],[-0.2252984,51.8932036],[-0.230506,51.8988857],[-0.228888,51.9034571],[-0.2343809,51.9052348],[-0.2300098,51.9113621],[-0.2380939,51.9131733],[-0.2498424,51.9236659],[-0.2446697,51.9256317],[-0.2485148,51.9316547],[-0.2423165,51.9355407],[-0.2504678,51.9443472],[-0.2629494,51.9392456],[-0.271498,51.9333732],[-0.2812003,51.93815],[-0.2867212,51.9334259],[-0.304286,51.9338591],[-0.315147,51.954474],[-0.286351,51.9648987],[-0.2763288,51.9682008],[-0.2768791,51.9710152],[-0.2533928,51.9778983],[-0.2602826,51.9796963]]],"type":"Polygon"},"id":"E02004922","properties":{"code":"E02004922","geography":"MSOA","name":"North Hertfordshire 014"},"type":"Feature"},{"geometry":{"coordinates":[[[-0.2146072,51.8940606],[-0.2186233,51.8959557],[-0.2252984,51.8932036],[-0.224565,51.887728],[-0.2323094,51.8817544],[-0.2477919,51.8845101],[-0.2532594,51.8784534],[-0.2527065,51.8703374],[-0.2654977,51.8604504],[-0.3139547,51.8601144],[-0.3185633,51.8704958],[-0.3246714,51.8740267],[-0.3350158,51.8648068],[-0.3528961,51.8635353],[-0.3395104,51.8495979],[-0.323256,51.8448488],[-0.3194861,51.8366363],[-0.2735634,51.8353332],[-0.2726753,51.840451],[-0.2478146,51.8462229],[-0.241648,51.835292],[-0.2257041,51.8376387],[-0.2249338,51.8332275],[-0.2187059,51.8384073],[-0.2257813,51.8445375],[-0.2129495,51.8513893],[-0.2059876,51.8463924],[-0.215267,51.8400398],[-0.20997,51.8408906],[-0.2039722,51.8448926],[-0.1987537,51.8443506],[-0.1964392,51.8495423],[-0.2067141,51.8542564],[-0.196856,51.8593732],[-0.1918372,51.8573134],[-0.1835706,51.8604366],[-0.1728095,51.8565804],[-0.1645864,51.8619044],[-0.1735786,51.8753647],[-0.1754701,51.8757875],[-0.1919207,51.8828931],[-0.2041817,51.8801452],[-0.2146072,51.8940606]]],"type":"Polygon"},"id":"E02004923","properties":{"code":"E02004923","geography":"MSOA","name":"North Hertfordshire 015"},"type":"Feature"},{"geometry":{"coordinates":[[[-0.0542406,52.0466119],[-0.1069829,52.0286501],[-0.1210267,52.0195118],[-0.1265947,52.0209121],[-0.1223667,52.029626],[-0.1337576,52.0462229],[-0.1446033,52.0469806],[-0.1551476,52.0530509],[-0.1475362,52.0694394],[-0.1573724,52.0805049],[-0.164192,52.0770247],[-0.1726454,52.0601996],[-0.1950082,52.0624045],[-0.2195501,52.0366735],[-0.2012825,52.0098153],[-0.2135245,52.0084417],[-0.1973343,52.0000815],[-0.1899791,51.9949586],[-0.1843222,51.9959919],[-0.1837671,51.9928587],[-0.1687325,51.9919704],[-0.1786981,51.9864089],[-0.1761929,51.9817051],[-0.1877237,51.9731492],[-0.1973028,51.9581776],[-0.1880059,51.9532243],[-0.1809556,51.9381521],[-0.1625775,51.931379],[-0.159996,51.9247476],[-0.1552682,51.9239013],[-0.1548234,51.9295915],[-0.1452918,51.9340466],[-0.1193078,51.9282894],[-0.1167008,51.9361678],[-0.1201907,51.9421799],[-0.1101812,51.9418928],[-0.1070383,51.9539509],[-0.0925522,51.9562294],[-0.0746845,51.9711556],[-0.0707518,51.9712846],[-0.0655678,51.9568366],[-0.0402186,51.9676925],[-0.0408167,51.9748403],[-0.0482298,51.9794396],[-0.0306585,51.9838047],[-0.0237628,51.9971603],[-0.0030654,51.9934365],[0.0024403,51.9830443],[0.0232416,51.9843614],[0.0215424,51.9889338],[0.0322404,51.987029],[0.0349967,51.9896196],[0.0385114,51.9863909],[0.0445437,51.9869347],[0.0436846,51.9847977],[0.0668787,51.979798],[0.0690325,51.9840331],[0.0742933,52.0008512],[0.0680994,52.0057789],[0.0520699,52.0246208],[0.040277,52.0533167],[0.0071568,52.0495228],[0.0098264,52.0378391],[-0.0110695,52.0338794],[-0.0373186,52.0338871],[-0.0298681,52.0480959],[-0.0542406,52.0466119]]],"type":"Polygon"},"id":"E02007088","properties":{"code":"E02007088","geography":"MSOA","name":"North Hertfordshire 016"},"type":"Feature"},{"geometry":{"coordinates":[[[-0.1552682,51.9239013],[-0.159996,51.9247476],[-0.1625775,51.931379],[-0.1809556,51.9381521],[-0.1880059,51.9532243],[-0.1973028,51.9581776],[-0.2059299,51.9474778],[-0.2175329,51.9479796],[-0.2323013,51.9491562],[-0.2277813,51.9538504],[-0.2379278,51.9573665],[-0.2497337,51.9449976],[-0.2504678,51.9443472],[-0.2423165,51.9355407],[-0.2485148,51.9316547],[-0.2446697,51.9256317],[-0.2498424,51.9236659],[-0.2380939,51.9131733],[-0.2300098,51.9113621],[-0.2262181,51.9281936],[-0.2200685,51.9309882],[-0.2101039,51.9283667],[-0.1944079,51.9304267],[-0.1931182,51.9277282],[-0.1845643,51.9324315],[-0.1679606,51.9279571],[-0.1626039,51.9207638],[-0.1622187,51.920335],[-0.1552682,51.9239013]]],"type":"Polygon"},"id":"E02007089","properties":{"code":"E02007089","geography":"MSOA","name":"North Hertfordshire 017"},"type":"Feature"}],"type":"FeatureCollection"}
