{"features":[{"geometry":{"coordinates":[[[-1.2527232,51.7864948],[-1.2581956,51.7934708],[-1.2836258,51.7963011],[-1.3029941,51.7808985],[-1.3036961,51.7726322],[-1.3003246,51.76909],[-1.2950852,51.7817495],[-1.2822563,51.7777178],[-1.2721632,51.7784683],[-1.2740214,51.7855144],[-1.2704699,51.7882212],[-1.2541284,51.7860456],[-1.2539013,51.7862462],[-1.2527232,51.7864948]]],"type":"Polygon"},"id":"E02005940","properties":{"code":"E02005940","geography":"MSOA","name":"Oxford 001"},"type":"Feature"},{"geometry":{"coordinates":[[[-1.2541284,51.7860456],[-1.2704699,51.7882212],[-1.2740214,51.7855144],[-1.2721632,51.7784683],[-1.2822563,51.7777178],[-1.279871,51.7712541],[-1.251878,51.7793729],[-1.2590164,51.7818356],[-1.2541284,51.7860456]]],"type":"Polygon"},"id":"E02005941","properties":{"code":"E02005941","geography":"MSOA","name":"Oxford 002"},"type":"Feature"},{"geometry":{"coordinates":[[[-1.2534501,51.7696476],[-1.2483465,51.7760495],[-1.251878,51.7793729],[-1.279871,51.7712541],[-1.272635,51.7625251],[-1.2681983,51.7617784],[-1.2664354,51.7664029],[-1.261045,51.7656299],[-1.2534501,51.7696476]]],"type":"Polygon"},"id":"E02005942","properties":{"code":"E02005942","geography":"MSOA","name":"Oxford 003"},"type":"Feature"},{"geometry":{"coordinates":[[[-1.2208849,51.7722847],[-1.2539013,51.7862462],[-1.2541284,51.7860456],[-1.2590164,51.7818356],[-1.251878,51.7793729],[-1.2483465,51.7760495],[-1.2534501,51.7696476],[-1.2480783,51.7609198],[-1.2385102,51.7561924],[-1.2355456,51.7561971],[-1.2315841,51.7580333],[-1.2357887,51.7618268],[-1.2298156,51.7700678],[-1.2208849,51.7722847]]],"type":"Polygon"},"id":"E02005943","properties":{"code":"E02005943","geography":"MSOA","name":"Oxford 004"},"type":"Feature"},{"geometry":{"coordinates":[[[-1.1882894,51.7665293],[-1.2208849,51.7722847],[-1.2298156,51.7700678],[-1.2221136,51.7695773],[-1.2205386,51.7665157],[-1.2147385,51.7694762],[-1.2085962,51.7670586],[-1.2092648,51.7606213],[-1.192689,51.7626011],[-1.1882894,51.7665293]]],"type":"Polygon"},"id":"E02005944","properties":{"code":"E02005944","geography":"MSOA","name":"Oxford 005"},"type":"Feature"},{"geometry":{"coordinates":[[[-1.2092648,51.7606213],[-1.2085962,51.7670586],[-1.2147385,51.7694762],[-1.2205386,51.7665157],[-1.2221136,51.7695773],[-1.2298156,51.7700678],[-1.2357887,51.7618268],[-1.2315841,51.7580333],[-1.2355456,51.7561971],[-1.2370671,51.7519589],[-1.2337629,51.7530789],[-1.2198675,51.7573525],[-1.215623,51.7536107],[-1.203619,51.7533923],[-1.2092648,51.7606213]]],"type":"Polygon"},"id":"E02005945","properties":{"code":"E02005945","geography":"MSOA","name":"Oxford 006"},"type":"Feature"},{"geometry":{"coordinates":[[[-1.1951329,51.7513548],[-1.1943165,51.7571122],[-1.1879473,51.7554278],[-1.1797063,51.7628218],[-1.180237,51.7658394],[-1.1882894,51.7665293],[-1.192689,51.7626011],[-1.2092648,51.7606213],[-1.203619,51.7533923],[-1.1951329,51.7513548]]],"type":"Polygon"},"id":"E02005946","properties":{"code":"E02005946","geography":"MSOA","name":"Oxford 007"},"type":"Feature"},{"geometry":{"coordinates":[[[-1.2385102,51.7561924],[-1.2480783,51.7609198],[-1.2534501,51.7696476],[-1.261045,51.7656299],[-1.2664354,51.7664029],[-1.2681983,51.7617784],[-1.272635,51.7625251],[-1.2635664,51.7579733],[-1.2634964,51.7537323],[-1.270139,51.7526944],[-1.2670837,51.7470181],[-1.2635107,51.7461128],[-1.2621853,51.7486228],[-1.2516635,51.7440686],[-1.247144,51.7451629],[-1.2385102,51.7561924]]],"type":"Polygon"},"id":"E02005947","properties":{"code":"E02005947","geography":"MSOA","name":"Oxford 008"},"type":"Feature"},{"geometry":{"coordinates":[[[-1.2822563,51.7777178],[-1.2950852,51.7817495],[-1.3003246,51.76909],[-1.3036961,51.7726322],[-1.2887684,51.7490104],[-1.267886,51.7426627],[-1.2670837,51.7470181],[-1.270139,51.7526944],[-1.2634964,51.7537323],[-1.2635664,51.7579733],[-1.272635,51.7625251],[-1.279871,51.7712541],[-1.2822563,51.7777178]]],"type":"Polygon"},"id":"E02005948","properties":{"code":"E02005948","geography":"MSOA","name":"Oxford 009"},"type":"Feature"},{"geometry":{"coordinates":[[[-1.203619,51.7533923],[-1.215623,51.7536107],[-1.2198675,51.7573525],[-1.2337629,51.7530789],[-1.222229,51.752479],[-1.2246355,51.7504482],[-1.2198393,51.7476857],[-1.2087474,51.7479128],[-1.2051862,51.7506565],[-1.2001595,51.7436576],[-1.1952787,51.7451463],[-1.1951329,51.7513548],[-1.203619,51.7533923]]],"type":"Polygon"},"id":"E02005949","properties":{"code":"E02005949","geography":"MSOA","name":"Oxford 010"},"type":"Feature"},{"geometry":{"coordinates":[[[-1.2337629,51.7530789],[-1.2370671,51.7519589],[-1.2355456,51.7561971],[-1.2385102,51.7561924],[-1.247144,51.7451629],[-1.2365788,51.7407037],[-1.2296259,51.7441649],[-1.2198393,51.7476857],[-1.2246355,51.7504482],[-1.222229,51.752479],[-1.2337629,51.7530789]]],"type":"Polygon"},"id":"E02005950","properties":{"code":"E02005950","geography":"MSOA","name":"Oxford 011"},"type":"Feature"},{"geometry":{"coordinates":[[[-1.2516635,51.7440686],[-1.2621853,51.7486228],[-1.2635107,51.7461128],[-1.2670837,51.7470181],[-1.267886,51.7426627],[-1.2535274,51.7279671],[-1.2413278,51.7251548],[-1.2416153,51.7339519],[-1.2516635,51.7440686]]],"type":"Polygon"},"id":"E02005951","properties":{"code":"E02005951","geography":"MSOA","name":"Oxford 012"},"type":"Feature"},{"geometry":{"coordinates":[[[-1.2296259,51.7441649],[-1.2365788,51.7407037],[-1.247144,51.7451629],[-1.2516635,51.7440686],[-1.2416153,51.7339519],[-1.224478,51.7375371],[-1.2296259,51.7441649]]],"type":"Polygon"},"id":"E02005953","properties":{"code":"E02005953","geography":"MSOA","name":"Oxford 014"},"type":"Feature"},{"geometry":{"coordinates":[[[-1.2103785,51.7339073],[-1.224478,51.7375371],[-1.2416153,51.7339519],[-1.2413278,51.7251548],[-1.2410346,51.7252133],[-1.236007,51.7272033],[-1.2317818,51.7253957],[-1.2293796,51.7281282],[-1.2239514,51.7268115],[-1.2183214,51.7299047],[-1.2101932,51.7248524],[-1.2023352,51.729774],[-1.2103785,51.7339073]]],"type":"Polygon"},"id":"E02005954","properties":{"code":"E02005954","geography":"MSOA","name":"Oxford 015"},"type":"Feature"},{"geometry":{"coordinates":[[[-1.2101932,51.7248524],[-1.2183214,51.7299047],[-1.2239514,51.7268115],[-1.2293796,51.7281282],[-1.2317818,51.7253957],[-1.236007,51.7272033],[-1.2410346,51.7252133],[-1.2221221,51.7108715],[-1.2174768,51.7152359],[-1.2072991,51.7150666],[-1.206869,51.7172663],[-1.2137438,51.7182321],[-1.2101932,51.7248524]]],"type":"Polygon"},"id":"E02005955","properties":{"code":"E02005955","geography":"MSOA","name":"Oxford 016"},"type":"Feature"},{"geometry":{"coordinates":[[[-1.1891061,51.7243338],[-1.2023352,51.729774],[-1.2101932,51.7248524],[-1.2137438,51.7182321],[-1.206869,51.7172663],[-1.1961133,51.7231333],[-1.1876086,51.7183985],[-1.1842734,51.7215812],[-1.1891061,51.7243338]]],"type":"Polygon"},"id":"E02005956","properties":{"code":"E02005956","geography":"MSOA","name":"Oxford 017"},"type":"Feature"},{"geometry":{"coordinates":[[[-1.1876086,51.7183985],[-1.1961133,51.7231333],[-1.206869,51.7172663],[-1.2072991,51.7150666],[-1.1998703,51.7122021],[-1.1895806,51.714339],[-1.1876086,51.7183985]]],"type":"Polygon"},"id":"E02005957","properties":{"code":"E02005957","geography":"MSOA","name":"Oxford 018"},"type":"Feature"},{"geometry":{"coordinates":[[[-1.1952787,51.7451463],[-1.2001595,51.7436576],[-1.2051862,51.7506565],[-1.2087474,51.7479128],[-1.2085415,51.7423125],[-1.2030098,51.7427755],[-1.2103785,51.7339073],[-1.2023352,51.729774],[-1.1891061,51.7243338],[-1.19016,51.7272096],[-1.1759313,51.7325738],[-1.1792488,51.7362421],[-1.1939995,51.7364973],[-1.1952787,51.7451463]]],"type":"Polygon"},"id":"E02007021","properties":{"code":"E02007021","geography":"MSOA","name":"Oxford 020"},"type":"Feature"},{"geometry":{"coordinates":[[[-1.2103785,51.7339073],[-1.2030098,51.7427755],[-1.2085415,51.7423125],[-1.2087474,51.7479128],[-1.2198393,51.7476857],[-1.2296259,51.7441649],[-1.224478,51.7375371],[-1.2103785,51.7339073]]],"type":"Polygon"},"id":"E02007116","properties":{"code":"E02007116","geography":"MSOA","name":"Oxford 019"},"type":"Feature"}],"type":"FeatureCollection"}
