{"features":[{"geometry":{"coordinates":[[[-1.3205564,52.0821846],[-1.32084,52.0876175],[-1.3079785,52.0922617],[-1.2871409,52.0926276],[-1.2715915,52.0979161],[-1.2480343,52.0968425],[-1.2529433,52.1038628],[-1.2768448,52.1170647],[-1.3084475,52.1434961],[-1.3064445,52.1455403],[-1.3319106,52.1684714],[-1.3340184,52.1590696],[-1.3434723,52.1532219],[-1.3410547,52.1448437],[-1.3499507,52.1415787],[-1.3487235,52.1351247],[-1.3640624,52.1366946],[-1.3854765,52.1283902],[-1.3927653,52.1176135],[-1.3708558,52.1175214],[-1.3703812,52.1127055],[-1.3652062,52.1112948],[-1.3577844,52.1012986],[-1.3744385,52.0997139],[-1.3853439,52.0941724],[-1.4039078,52.1100773],[-1.4196431,52.1176288],[-1.4487539,52.1160534],[-1.4534766,52.1129863],[-1.4472011,52.0976122],[-1.4675721,52.0970434],[-1.4773139,52.1013377],[-1.480161,52.0934646],[-1.4878165,52.093944],[-1.48562,52.0877201],[-1.4943673,52.0822142],[-1.4908541,52.0775311],[-1.4856246,52.0776362],[-1.4881878,52.0745947],[-1.4809978,52.0720861],[-1.4481079,52.0728381],[-1.4479669,52.0700728],[-1.4560494,52.0691957],[-1.4774816,52.0568472],[-1.4492503,52.0477843],[-1.4444681,52.052371],[-1.4156983,52.0520979],[-1.4212713,52.0610702],[-1.4082719,52.0680377],[-1.4026231,52.0656695],[-1.3825355,52.0673821],[-1.3816716,52.0564244],[-1.3684242,52.0561066],[-1.3687545,52.0709828],[-1.3703956,52.0743064],[-1.3644889,52.0742625],[-1.368439,52.0799408],[-1.3645945,52.0798349],[-1.3660805,52.0835473],[-1.3551932,52.0802291],[-1.3433366,52.083234],[-1.341762,52.0922472],[-1.3205564,52.0821846]]],"type":"Polygon"},"id":"E02005921","properties":{"code":"E02005921","geography":"MSOA","name":"Cherwell 001"},"type":"Feature"},{"geometry":{"coordinates":[[[-1.3433366,52.083234],[-1.3551932,52.0802291],[-1.3660805,52.0835473],[-1.3645945,52.0798349],[-1.368439,52.0799408],[-1.3644889,52.0742625],[-1.3703956,52.0743064],[-1.3687545,52.0709828],[-1.3511365,52.0669246],[-1.3573538,52.0722539],[-1.3399802,52.0779715],[-1.3408568,52.0817],[-1.3433366,52.083234]]],"type":"Polygon"},"id":"E02005922","properties":{"code":"E02005922","geography":"MSOA","name":"Cherwell 002"},"type":"Feature"},{"geometry":{"coordinates":[[[-1.3397896,52.065445],[-1.3365215,52.0816311],[-1.3408568,52.0817],[-1.3399802,52.0779715],[-1.3573538,52.0722539],[-1.3511365,52.0669246],[-1.3528403,52.056814],[-1.3397896,52.065445]]],"type":"Polygon"},"id":"E02005923","properties":{"code":"E02005923","geography":"MSOA","name":"Cherwell 003"},"type":"Feature"},{"geometry":{"coordinates":[[[-1.3205564,52.0821846],[-1.341762,52.0922472],[-1.3433366,52.083234],[-1.3408568,52.0817],[-1.3365215,52.0816311],[-1.3397896,52.065445],[-1.3394973,52.0559128],[-1.3358821,52.0589178],[-1.3117717,52.0527709],[-1.3077841,52.0643412],[-1.3021913,52.0650082],[-1.3000826,52.0693525],[-1.3069187,52.0703028],[-1.2975245,52.0780454],[-1.2993761,52.0800906],[-1.3166305,52.0795948],[-1.3205564,52.0821846]]],"type":"Polygon"},"id":"E02005924","properties":{"code":"E02005924","geography":"MSOA","name":"Cherwell 004"},"type":"Feature"},{"geometry":{"coordinates":[[[-1.3511365,52.0669246],[-1.3687545,52.0709828],[-1.3684242,52.0561066],[-1.3676151,52.0546218],[-1.3528403,52.056814],[-1.3511365,52.0669246]]],"type":"Polygon"},"id":"E02005925","properties":{"code":"E02005925","geography":"MSOA","name":"Cherwell 005"},"type":"Feature"},{"geometry":{"coordinates":[[[-1.3394973,52.0559128],[-1.3397896,52.065445],[-1.3528403,52.056814],[-1.3676151,52.0546218],[-1.3750753,52.034292],[-1.341411,52.0313435],[-1.343389,52.0429456],[-1.3290612,52.0432947],[-1.3394973,52.0559128]]],"type":"Polygon"},"id":"E02005926","properties":{"code":"E02005926","geography":"MSOA","name":"Cherwell 006"},"type":"Feature"},{"geometry":{"coordinates":[[[-1.3117717,52.0527709],[-1.3358821,52.0589178],[-1.3394973,52.0559128],[-1.3290612,52.0432947],[-1.3128905,52.0511794],[-1.3117717,52.0527709]]],"type":"Polygon"},"id":"E02005927","properties":{"code":"E02005927","geography":"MSOA","name":"Cherwell 007"},"type":"Feature"},{"geometry":{"coordinates":[[[-1.2949688,52.0398008],[-1.3128905,52.0511794],[-1.3290612,52.0432947],[-1.343389,52.0429456],[-1.341411,52.0313435],[-1.3334314,52.0316092],[-1.3247276,52.0275643],[-1.3280399,52.0206834],[-1.3249623,52.0172945],[-1.3542568,52.017157],[-1.3614805,52.0278906],[-1.3761271,52.0292602],[-1.3789642,52.023379],[-1.3867505,52.0207797],[-1.3786166,52.0200297],[-1.3834577,52.0156693],[-1.3768892,52.0191838],[-1.3724535,52.0160873],[-1.3803314,52.0143182],[-1.3798523,52.0064042],[-1.3714697,52.0081933],[-1.3713137,52.0123614],[-1.3609881,52.0095401],[-1.3642023,52.0026069],[-1.3360614,52.0029146],[-1.3296401,51.9956152],[-1.3189473,51.998427],[-1.3118045,51.9964433],[-1.2963243,52.0017349],[-1.2834069,51.9994139],[-1.2770682,52.0053219],[-1.2845138,52.0107781],[-1.2786488,52.0113577],[-1.2781532,52.0141928],[-1.2853399,52.0264633],[-1.2943287,52.0280249],[-1.2949688,52.0398008]]],"type":"Polygon"},"id":"E02005928","properties":{"code":"E02005928","geography":"MSOA","name":"Cherwell 008"},"type":"Feature"},{"geometry":{"coordinates":[[[-1.3684242,52.0561066],[-1.3816716,52.0564244],[-1.3825355,52.0673821],[-1.4026231,52.0656695],[-1.4082719,52.0680377],[-1.4212713,52.0610702],[-1.4156983,52.0520979],[-1.4444681,52.052371],[-1.4492503,52.0477843],[-1.4774816,52.0568472],[-1.4560494,52.0691957],[-1.4479669,52.0700728],[-1.4481079,52.0728381],[-1.4809978,52.0720861],[-1.4881878,52.0745947],[-1.4856246,52.0776362],[-1.4908541,52.0775311],[-1.5018681,52.0716138],[-1.4992784,52.0635219],[-1.4986084,52.0550698],[-1.5228399,51.996833],[-1.5182475,51.9898186],[-1.5018943,51.9840685],[-1.4938383,51.9748602],[-1.4541512,51.9796511],[-1.4374753,51.9891393],[-1.4244991,51.9866248],[-1.4265944,51.9829203],[-1.412548,51.9785646],[-1.4100052,51.9727706],[-1.4066973,51.9779121],[-1.4003575,51.9795411],[-1.3886887,51.9970657],[-1.3642023,52.0026069],[-1.3609881,52.0095401],[-1.3713137,52.0123614],[-1.3714697,52.0081933],[-1.3798523,52.0064042],[-1.3803314,52.0143182],[-1.3724535,52.0160873],[-1.3768892,52.0191838],[-1.3834577,52.0156693],[-1.3786166,52.0200297],[-1.3867505,52.0207797],[-1.3789642,52.023379],[-1.3761271,52.0292602],[-1.3614805,52.0278906],[-1.3542568,52.017157],[-1.3249623,52.0172945],[-1.3280399,52.0206834],[-1.3247276,52.0275643],[-1.3334314,52.0316092],[-1.341411,52.0313435],[-1.3750753,52.034292],[-1.3676151,52.0546218],[-1.3684242,52.0561066]]],"type":"Polygon"},"id":"E02005929","properties":{"code":"E02005929","geography":"MSOA","name":"Cherwell 009"},"type":"Feature"},{"geometry":{"coordinates":[[[-1.2834069,51.9994139],[-1.2963243,52.0017349],[-1.3118045,51.9964433],[-1.3189473,51.998427],[-1.3296401,51.9956152],[-1.3360614,52.0029146],[-1.3642023,52.0026069],[-1.3886887,51.9970657],[-1.4003575,51.9795411],[-1.3773347,51.9796272],[-1.3649637,51.967454],[-1.3614126,51.9685272],[-1.3618748,51.9483658],[-1.3464332,51.9450813],[-1.3452842,51.9411522],[-1.3324818,51.9421402],[-1.3400086,51.9349514],[-1.3301907,51.9334789],[-1.3305571,51.9273421],[-1.3252467,51.926721],[-1.3247386,51.9224968],[-1.3064768,51.9198744],[-1.3064095,51.9163399],[-1.2989365,51.9131473],[-1.3039007,51.9039823],[-1.3014904,51.8994837],[-1.2835187,51.9052634],[-1.2637584,51.901684],[-1.24263,51.9271483],[-1.2412362,51.9379871],[-1.2351221,51.9394402],[-1.2346282,51.9490439],[-1.2264546,51.9474159],[-1.2273565,51.9562603],[-1.2191952,51.970571],[-1.2169172,51.9730724],[-1.2042343,51.9723499],[-1.2006603,51.9779351],[-1.2297183,51.9813574],[-1.2416302,51.9862834],[-1.2609334,51.9809161],[-1.2808824,51.9823543],[-1.2827438,51.9792179],[-1.2888757,51.9897156],[-1.2830135,51.991493],[-1.2834069,51.9994139]]],"type":"Polygon"},"id":"E02005930","properties":{"code":"E02005930","geography":"MSOA","name":"Cherwell 010"},"type":"Feature"},{"geometry":{"coordinates":[[[-1.0776253,51.8767235],[-1.0689955,51.8872551],[-1.0935391,51.8939295],[-1.0842747,51.8995375],[-1.0862996,51.9053122],[-1.0793769,51.9172143],[-1.0866938,51.9226381],[-1.0755552,51.9299303],[-1.0775696,51.9316353],[-1.062132,51.9351287],[-1.0546362,51.94795],[-1.0592858,51.9492923],[-1.0789709,51.943358],[-1.0819302,51.9509902],[-1.0952388,51.9572665],[-1.0782047,51.9810479],[-1.0531392,52.0024428],[-1.0608649,52.0086007],[-1.0739463,52.0063118],[-1.0771728,52.0088131],[-1.0880798,52.0057717],[-1.0959368,52.0149593],[-1.1028953,52.0120794],[-1.111997,52.0165818],[-1.1181037,52.0154156],[-1.1312705,52.0048743],[-1.1343468,51.9972862],[-1.156669,51.9922244],[-1.1638418,51.993402],[-1.176073,51.9820354],[-1.1907086,51.981513],[-1.1962784,51.9774216],[-1.2006603,51.9779351],[-1.2042343,51.9723499],[-1.2169172,51.9730724],[-1.2191952,51.970571],[-1.2273565,51.9562603],[-1.2264546,51.9474159],[-1.2346282,51.9490439],[-1.2351221,51.9394402],[-1.2412362,51.9379871],[-1.24263,51.9271483],[-1.2359385,51.9274189],[-1.2271832,51.9216783],[-1.209678,51.9221458],[-1.2076862,51.9178131],[-1.2179745,51.9125266],[-1.2189824,51.9084781],[-1.2058155,51.9056823],[-1.2052878,51.9029253],[-1.2019512,51.9027609],[-1.198637,51.9104575],[-1.1891402,51.9052503],[-1.1785875,51.9059277],[-1.1730031,51.9120083],[-1.1555072,51.9158811],[-1.1438694,51.9144464],[-1.1272529,51.9041084],[-1.1278636,51.8956299],[-1.1388184,51.8869182],[-1.1582611,51.887449],[-1.1637603,51.8799887],[-1.1380853,51.8697627],[-1.1340881,51.8658739],[-1.135421,51.8568733],[-1.1116046,51.8609563],[-1.1055721,51.8671225],[-1.0977281,51.8642153],[-1.0776253,51.8767235]]],"type":"Polygon"},"id":"E02005931","properties":{"code":"E02005931","geography":"MSOA","name":"Cherwell 011"},"type":"Feature"},{"geometry":{"coordinates":[[[-1.1438694,51.9144464],[-1.1555072,51.9158811],[-1.1730031,51.9120083],[-1.1524119,51.9043324],[-1.1438694,51.9144464]]],"type":"Polygon"},"id":"E02005932","properties":{"code":"E02005932","geography":"MSOA","name":"Cherwell 012"},"type":"Feature"},{"geometry":{"coordinates":[[[-1.1278636,51.8956299],[-1.1272529,51.9041084],[-1.1438694,51.9144464],[-1.1524119,51.9043324],[-1.1541977,51.9020886],[-1.1472018,51.8979162],[-1.1474239,51.8941649],[-1.1382535,51.8993362],[-1.1278636,51.8956299]]],"type":"Polygon"},"id":"E02005933","properties":{"code":"E02005933","geography":"MSOA","name":"Cherwell 013"},"type":"Feature"},{"geometry":{"coordinates":[[[-1.1524119,51.9043324],[-1.1730031,51.9120083],[-1.1785875,51.9059277],[-1.1816455,51.9004815],[-1.1691664,51.8976536],[-1.1603674,51.8958676],[-1.1541977,51.9020886],[-1.1524119,51.9043324]]],"type":"Polygon"},"id":"E02005934","properties":{"code":"E02005934","geography":"MSOA","name":"Cherwell 014"},"type":"Feature"},{"geometry":{"coordinates":[[[-1.1278636,51.8956299],[-1.1382535,51.8993362],[-1.1474239,51.8941649],[-1.1472018,51.8979162],[-1.1541977,51.9020886],[-1.1603674,51.8958676],[-1.1691664,51.8976536],[-1.1705605,51.8927295],[-1.1582611,51.887449],[-1.1388184,51.8869182],[-1.1278636,51.8956299]]],"type":"Polygon"},"id":"E02005935","properties":{"code":"E02005935","geography":"MSOA","name":"Cherwell 015"},"type":"Feature"},{"geometry":{"coordinates":[[[-1.1785875,51.9059277],[-1.1891402,51.9052503],[-1.198637,51.9104575],[-1.2019512,51.9027609],[-1.2052878,51.9029253],[-1.2058155,51.9056823],[-1.2189824,51.9084781],[-1.2179745,51.9125266],[-1.2076862,51.9178131],[-1.209678,51.9221458],[-1.2271832,51.9216783],[-1.2359385,51.9274189],[-1.24263,51.9271483],[-1.2637584,51.901684],[-1.2835187,51.9052634],[-1.3014904,51.8994837],[-1.2913506,51.8966723],[-1.2899988,51.8935656],[-1.2980094,51.8883852],[-1.2886897,51.8816767],[-1.2861732,51.8749892],[-1.3021315,51.8691082],[-1.2944271,51.8638221],[-1.2967628,51.8610923],[-1.3075196,51.8627433],[-1.3245783,51.8596462],[-1.3340117,51.8624717],[-1.3391926,51.8561662],[-1.3370124,51.8498913],[-1.3413788,51.840418],[-1.3367362,51.8378424],[-1.3297585,51.8422737],[-1.3253837,51.8410252],[-1.3242547,51.8450868],[-1.3096355,51.8433882],[-1.3047924,51.835174],[-1.2893477,51.8364333],[-1.2704386,51.8314191],[-1.2664986,51.8268122],[-1.2719637,51.8214332],[-1.2628698,51.8205792],[-1.262772,51.8152855],[-1.2425145,51.8195973],[-1.2419818,51.8099892],[-1.2245921,51.8069351],[-1.2213757,51.8015583],[-1.2103683,51.8024489],[-1.2083604,51.798149],[-1.2058316,51.8005538],[-1.1945386,51.7969885],[-1.1906987,51.7985311],[-1.1873213,51.812131],[-1.1674302,51.8137716],[-1.1671052,51.8096765],[-1.1516045,51.8026911],[-1.1540967,51.796628],[-1.1368277,51.7960103],[-1.1268387,51.7994971],[-1.1235615,51.7941756],[-1.1174263,51.7991613],[-1.1249104,51.8075053],[-1.1101172,51.817299],[-1.1406965,51.8346835],[-1.1216191,51.8453357],[-1.0784705,51.8292483],[-1.0686095,51.8346293],[-1.0619278,51.8323779],[-1.0471646,51.8397466],[-1.0620268,51.8441572],[-1.066052,51.85281],[-1.064663,51.86869],[-1.0691866,51.8746371],[-1.0776253,51.8767235],[-1.0977281,51.8642153],[-1.1055721,51.8671225],[-1.1116046,51.8609563],[-1.135421,51.8568733],[-1.1340881,51.8658739],[-1.1380853,51.8697627],[-1.1637603,51.8799887],[-1.1582611,51.887449],[-1.1705605,51.8927295],[-1.1691664,51.8976536],[-1.1816455,51.9004815],[-1.1785875,51.9059277]]],"type":"Polygon"},"id":"E02005936","properties":{"code":"E02005936","geography":"MSOA","name":"Cherwell 016"},"type":"Feature"},{"geometry":{"coordinates":[[[-1.2719637,51.8214332],[-1.2664986,51.8268122],[-1.2704386,51.8314191],[-1.2893477,51.8364333],[-1.3047924,51.835174],[-1.29247,51.8243996],[-1.299217,51.8230186],[-1.2982431,51.8200691],[-1.2886034,51.8146999],[-1.2891222,51.8211023],[-1.2821554,51.8198899],[-1.2781919,51.8221116],[-1.2827731,51.8258935],[-1.2719637,51.8214332]]],"type":"Polygon"},"id":"E02005937","properties":{"code":"E02005937","geography":"MSOA","name":"Cherwell 017"},"type":"Feature"},{"geometry":{"coordinates":[[[-1.2719637,51.8214332],[-1.2827731,51.8258935],[-1.2781919,51.8221116],[-1.2821554,51.8198899],[-1.2891222,51.8211023],[-1.2886034,51.8146999],[-1.2925424,51.802988],[-1.2852185,51.8026713],[-1.2763258,51.8035654],[-1.2817403,51.8171791],[-1.2725357,51.8194154],[-1.262772,51.8152855],[-1.2628698,51.8205792],[-1.2719637,51.8214332]]],"type":"Polygon"},"id":"E02005938","properties":{"code":"E02005938","geography":"MSOA","name":"Cherwell 018"},"type":"Feature"},{"geometry":{"coordinates":[[[-1.3047924,51.835174],[-1.3096355,51.8433882],[-1.3242547,51.8450868],[-1.3253837,51.8410252],[-1.3297585,51.8422737],[-1.3367362,51.8378424],[-1.342018,51.8301753],[-1.3325593,51.8310825],[-1.3262419,51.825488],[-1.331162,51.8204416],[-1.3383576,51.8199463],[-1.3323919,51.8169891],[-1.3373415,51.8117323],[-1.3256501,51.8053514],[-1.3223602,51.7878339],[-1.3050037,51.7897951],[-1.3029941,51.7808985],[-1.2836258,51.7963011],[-1.2581956,51.7934708],[-1.2527232,51.7864948],[-1.2441099,51.7894315],[-1.2538274,51.7978403],[-1.2451057,51.8019741],[-1.2419818,51.8099892],[-1.2425145,51.8195973],[-1.262772,51.8152855],[-1.2725357,51.8194154],[-1.2817403,51.8171791],[-1.2763258,51.8035654],[-1.2852185,51.8026713],[-1.2925424,51.802988],[-1.2886034,51.8146999],[-1.2982431,51.8200691],[-1.299217,51.8230186],[-1.29247,51.8243996],[-1.3047924,51.835174]]],"type":"Polygon"},"id":"E02005939","properties":{"code":"E02005939","geography":"MSOA","name":"Cherwell 019"},"type":"Feature"}],"type":"FeatureCollection"}
