{"features":[{"geometry":{"coordinates":[[[-0.1878672,52.5418444],[-0.2004148,52.5451981],[-0.2027726,52.5425361],[-0.21416,52.5417731],[-0.2176803,52.5379055],[-0.2231403,52.542423],[-0.2348525,52.5436496],[-0.2366727,52.5382163],[-0.2317425,52.5344588],[-0.2382823,52.5290819],[-0.2426946,52.5296566],[-0.2447978,52.5229809],[-0.2693127,52.5208067],[-0.274065,52.5189467],[-0.2708465,52.5155883],[-0.2755356,52.5110668],[-0.2846562,52.5060952],[-0.2878274,52.5087329],[-0.2933074,52.5068708],[-0.2915759,52.4977187],[-0.2790683,52.4939927],[-0.2668303,52.4991892],[-0.2410977,52.4938052],[-0.2287009,52.4977847],[-0.2272527,52.5014898],[-0.2140739,52.504182],[-0.2092685,52.5102486],[-0.1755488,52.4959142],[-0.143465,52.5111626],[-0.1706785,52.5312661],[-0.1883059,52.5370631],[-0.1878672,52.5418444]]],"type":"Polygon"},"id":"E02003753","properties":{"code":"E02003753","geography":"MSOA","name":"Huntingdonshire 001"},"type":"Feature"},{"geometry":{"coordinates":[[[-0.3949452,52.5820779],[-0.4075211,52.5829171],[-0.4153944,52.5787248],[-0.4157087,52.5700865],[-0.407305,52.5640374],[-0.4196078,52.5589438],[-0.4153537,52.5515353],[-0.4020758,52.5483033],[-0.4031983,52.5422382],[-0.4026585,52.5348936],[-0.4134831,52.525489],[-0.3907654,52.519422],[-0.3779433,52.5106399],[-0.354362,52.5064772],[-0.3521922,52.5033073],[-0.3592112,52.4973237],[-0.3594131,52.4898342],[-0.3500854,52.4825306],[-0.3497351,52.4728709],[-0.3416081,52.4669251],[-0.3315553,52.4698806],[-0.3124631,52.4698829],[-0.3007683,52.4749145],[-0.2776938,52.4749148],[-0.2673078,52.4779784],[-0.259729,52.4714042],[-0.2263875,52.4668338],[-0.2041241,52.4691707],[-0.1826746,52.4673714],[-0.1732963,52.4716726],[-0.1676182,52.4833897],[-0.1788133,52.4860031],[-0.1755488,52.4959142],[-0.2092685,52.5102486],[-0.2140739,52.504182],[-0.2272527,52.5014898],[-0.2287009,52.4977847],[-0.2410977,52.4938052],[-0.2668303,52.4991892],[-0.2790683,52.4939927],[-0.2915759,52.4977187],[-0.2933074,52.5068708],[-0.2957717,52.513826],[-0.3200752,52.5353871],[-0.3327512,52.5465276],[-0.3259402,52.5486315],[-0.3254737,52.5528711],[-0.3373304,52.5536297],[-0.3484925,52.5643524],[-0.3673979,52.5627473],[-0.3733964,52.5663767],[-0.385465,52.5671724],[-0.3949452,52.5820779]]],"type":"Polygon"},"id":"E02003754","properties":{"code":"E02003754","geography":"MSOA","name":"Huntingdonshire 002"},"type":"Feature"},{"geometry":{"coordinates":[[[-0.0186098,52.4676348],[-0.0388764,52.4732681],[-0.0385276,52.5018265],[-0.0527403,52.5020065],[-0.04799,52.5105203],[-0.0545882,52.513378],[-0.0696961,52.5168415],[-0.0709043,52.5058736],[-0.0904458,52.4961944],[-0.0976731,52.5016878],[-0.1144568,52.4890221],[-0.143465,52.5111626],[-0.1755488,52.4959142],[-0.1788133,52.4860031],[-0.1676182,52.4833897],[-0.1732963,52.4716726],[-0.1826746,52.4673714],[-0.1859932,52.44241],[-0.1804734,52.4418732],[-0.1815165,52.4376229],[-0.1707265,52.4371831],[-0.1671358,52.4414416],[-0.1711568,52.4454431],[-0.1600239,52.446466],[-0.1550329,52.4506486],[-0.1352961,52.4503992],[-0.1404946,52.4478443],[-0.1306528,52.4413711],[-0.1212486,52.4375798],[-0.1057141,52.4472589],[-0.1052554,52.443267],[-0.0726654,52.4429378],[-0.0533035,52.4352113],[-0.022663,52.4637772],[-0.0093448,52.4621638],[-0.0186098,52.4676348]]],"type":"Polygon"},"id":"E02003755","properties":{"code":"E02003755","geography":"MSOA","name":"Huntingdonshire 003"},"type":"Feature"},{"geometry":{"coordinates":[[[-0.2041241,52.4691707],[-0.2263875,52.4668338],[-0.259729,52.4714042],[-0.2673078,52.4779784],[-0.2776938,52.4749148],[-0.3007683,52.4749145],[-0.3124631,52.4698829],[-0.3315553,52.4698806],[-0.3416081,52.4669251],[-0.35291,52.4610431],[-0.3702343,52.4399135],[-0.3718841,52.436826],[-0.3624258,52.4335143],[-0.4108512,52.4127774],[-0.4121553,52.4069267],[-0.405038,52.4093854],[-0.3800847,52.3992702],[-0.3725965,52.4018808],[-0.3654778,52.3898135],[-0.3272723,52.3857695],[-0.30952,52.3993461],[-0.294604,52.3899534],[-0.2998655,52.385292],[-0.2902353,52.3833304],[-0.2741385,52.3870272],[-0.2676752,52.3931456],[-0.2378172,52.3990003],[-0.2272295,52.4027891],[-0.2425218,52.4235245],[-0.2340285,52.4282221],[-0.2372099,52.4335433],[-0.2296473,52.447184],[-0.2041241,52.4691707]]],"type":"Polygon"},"id":"E02003756","properties":{"code":"E02003756","geography":"MSOA","name":"Huntingdonshire 004"},"type":"Feature"},{"geometry":{"coordinates":[[[-0.0093448,52.4621638],[-0.022663,52.4637772],[-0.0533035,52.4352113],[-0.0726654,52.4429378],[-0.1052554,52.443267],[-0.1057141,52.4472589],[-0.1212486,52.4375798],[-0.1306528,52.4413711],[-0.1329884,52.434369],[-0.1269397,52.4326724],[-0.1411374,52.4279875],[-0.1427846,52.4210595],[-0.1404633,52.414864],[-0.1336089,52.4149153],[-0.1346733,52.4095547],[-0.1443732,52.4055071],[-0.1401312,52.3989279],[-0.1250494,52.401151],[-0.1198631,52.4002642],[-0.1225631,52.3959615],[-0.1183562,52.3955408],[-0.1180523,52.400221],[-0.1126831,52.3999033],[-0.1114472,52.3881167],[-0.1028721,52.3827046],[-0.0715989,52.3849416],[-0.0707003,52.3930597],[-0.0753644,52.3983912],[-0.0702861,52.3971004],[-0.0583635,52.4065434],[-0.0439541,52.4083033],[-0.0364797,52.4127931],[-0.0160264,52.4142513],[-0.0006161,52.4291423],[0.021617,52.4349807],[0.0231196,52.442444],[0.0120705,52.4483477],[0.0087881,52.4546371],[-0.0070016,52.4567545],[-0.0093448,52.4621638]]],"type":"Polygon"},"id":"E02003757","properties":{"code":"E02003757","geography":"MSOA","name":"Huntingdonshire 005"},"type":"Feature"},{"geometry":{"coordinates":[[[-0.1826746,52.4673714],[-0.2041241,52.4691707],[-0.2296473,52.447184],[-0.2372099,52.4335433],[-0.2340285,52.4282221],[-0.2425218,52.4235245],[-0.2272295,52.4027891],[-0.2378172,52.3990003],[-0.2232829,52.3804457],[-0.2104998,52.3829876],[-0.2071389,52.3723728],[-0.193855,52.3704113],[-0.1747242,52.3619039],[-0.1823705,52.3547014],[-0.1633104,52.3592802],[-0.1506205,52.3412196],[-0.1325964,52.3544332],[-0.0963492,52.3330989],[-0.0929218,52.3450149],[-0.0737439,52.3504085],[-0.0659517,52.3560841],[-0.045624,52.3565203],[-0.042725,52.3594401],[-0.0190071,52.3553814],[-0.0188526,52.3642219],[0.0047284,52.3600769],[0.0181851,52.3610294],[0.032327,52.3656015],[0.030598,52.3680912],[0.0390372,52.3726189],[0.031142,52.372448],[0.0277689,52.3755755],[0.0419245,52.3806727],[0.0343959,52.3857333],[0.0266857,52.3906405],[0.0268799,52.4056435],[0.0190039,52.4141828],[0.0340715,52.4284615],[0.021617,52.4349807],[-0.0006161,52.4291423],[-0.0160264,52.4142513],[-0.0364797,52.4127931],[-0.0439541,52.4083033],[-0.0583635,52.4065434],[-0.0702861,52.3971004],[-0.0753644,52.3983912],[-0.0707003,52.3930597],[-0.0715989,52.3849416],[-0.1028721,52.3827046],[-0.1114472,52.3881167],[-0.1126831,52.3999033],[-0.1180523,52.400221],[-0.1183562,52.3955408],[-0.1225631,52.3959615],[-0.1198631,52.4002642],[-0.1250494,52.401151],[-0.1401312,52.3989279],[-0.1443732,52.4055071],[-0.1346733,52.4095547],[-0.1336089,52.4149153],[-0.1404633,52.414864],[-0.1427846,52.4210595],[-0.1411374,52.4279875],[-0.1269397,52.4326724],[-0.1329884,52.434369],[-0.1306528,52.4413711],[-0.1404946,52.4478443],[-0.1352961,52.4503992],[-0.1550329,52.4506486],[-0.1600239,52.446466],[-0.1711568,52.4454431],[-0.1671358,52.4414416],[-0.1707265,52.4371831],[-0.1815165,52.4376229],[-0.1804734,52.4418732],[-0.1859932,52.44241],[-0.1826746,52.4673714]]],"type":"Polygon"},"id":"E02003758","properties":{"code":"E02003758","geography":"MSOA","name":"Huntingdonshire 006"},"type":"Feature"},{"geometry":{"coordinates":[[[0.0481586,52.3558311],[0.0514603,52.3581025],[0.0419245,52.3806727],[0.0277689,52.3755755],[0.031142,52.372448],[0.0390372,52.3726189],[0.030598,52.3680912],[0.032327,52.3656015],[0.0181851,52.3610294],[0.0047284,52.3600769],[-0.0188526,52.3642219],[-0.0190071,52.3553814],[-0.042725,52.3594401],[-0.045624,52.3565203],[-0.0614003,52.34132],[-0.0625195,52.3327818],[-0.0613047,52.3269135],[-0.0495355,52.3210854],[-0.0500403,52.3147342],[-0.0464885,52.3146441],[-0.0245422,52.3155654],[-0.014848,52.3126309],[-0.00476,52.3217401],[0.0082233,52.3344568],[0.0095637,52.3417031],[0.0269369,52.3514671],[0.0438423,52.3528703],[0.0481586,52.3558311]]],"type":"Polygon"},"id":"E02003759","properties":{"code":"E02003759","geography":"MSOA","name":"Huntingdonshire 007"},"type":"Feature"},{"geometry":{"coordinates":[[[-0.1506205,52.3412196],[-0.1633104,52.3592802],[-0.1823705,52.3547014],[-0.1877666,52.3441875],[-0.1810832,52.3422309],[-0.1854257,52.3346828],[-0.173829,52.3343845],[-0.1683261,52.3398728],[-0.1716514,52.3472854],[-0.1680174,52.3495994],[-0.1510255,52.3409447],[-0.1506205,52.3412196]]],"type":"Polygon"},"id":"E02003760","properties":{"code":"E02003760","geography":"MSOA","name":"Huntingdonshire 008"},"type":"Feature"},{"geometry":{"coordinates":[[[-0.1510255,52.3409447],[-0.1680174,52.3495994],[-0.1716514,52.3472854],[-0.1683261,52.3398728],[-0.173829,52.3343845],[-0.1705439,52.3318182],[-0.1501586,52.3363921],[-0.1510255,52.3409447]]],"type":"Polygon"},"id":"E02003761","properties":{"code":"E02003761","geography":"MSOA","name":"Huntingdonshire 009"},"type":"Feature"},{"geometry":{"coordinates":[[[-0.1823705,52.3547014],[-0.1747242,52.3619039],[-0.193855,52.3704113],[-0.2071389,52.3723728],[-0.2104998,52.3829876],[-0.2232829,52.3804457],[-0.2378172,52.3990003],[-0.2676752,52.3931456],[-0.2741385,52.3870272],[-0.2902353,52.3833304],[-0.2918769,52.378416],[-0.2818266,52.370754],[-0.2960227,52.3593571],[-0.2954496,52.3560285],[-0.2884332,52.3512632],[-0.2778235,52.3541658],[-0.2848937,52.3483117],[-0.2800186,52.3329274],[-0.2718205,52.3346004],[-0.2622502,52.3318188],[-0.2813178,52.3241992],[-0.2783293,52.3200809],[-0.2836426,52.3155543],[-0.2843546,52.3099659],[-0.2607406,52.3129411],[-0.2485551,52.3081207],[-0.2454161,52.3025754],[-0.2333089,52.3070353],[-0.2164704,52.3054737],[-0.210065,52.3183512],[-0.1992724,52.3203002],[-0.1822382,52.316561],[-0.1795071,52.3263752],[-0.2027851,52.3248625],[-0.2227887,52.330617],[-0.2082663,52.3410506],[-0.1877666,52.3441875],[-0.1823705,52.3547014]]],"type":"Polygon"},"id":"E02003762","properties":{"code":"E02003762","geography":"MSOA","name":"Huntingdonshire 010"},"type":"Feature"},{"geometry":{"coordinates":[[[-0.0625195,52.3327818],[-0.0614003,52.34132],[-0.045624,52.3565203],[-0.0659517,52.3560841],[-0.0737439,52.3504085],[-0.0929218,52.3450149],[-0.0963492,52.3330989],[-0.0789604,52.3329945],[-0.0767158,52.3350703],[-0.0734547,52.3329489],[-0.0716399,52.3358883],[-0.0625195,52.3327818]]],"type":"Polygon"},"id":"E02003763","properties":{"code":"E02003763","geography":"MSOA","name":"Huntingdonshire 011"},"type":"Feature"},{"geometry":{"coordinates":[[[-0.173829,52.3343845],[-0.1854257,52.3346828],[-0.1810832,52.3422309],[-0.1877666,52.3441875],[-0.2082663,52.3410506],[-0.2227887,52.330617],[-0.2027851,52.3248625],[-0.1795071,52.3263752],[-0.1705439,52.3318182],[-0.173829,52.3343845]]],"type":"Polygon"},"id":"E02003764","properties":{"code":"E02003764","geography":"MSOA","name":"Huntingdonshire 012"},"type":"Feature"},{"geometry":{"coordinates":[[[-0.0625195,52.3327818],[-0.0716399,52.3358883],[-0.0734547,52.3329489],[-0.0767158,52.3350703],[-0.0789604,52.3329945],[-0.0963492,52.3330989],[-0.0986531,52.3280109],[-0.0774946,52.3248137],[-0.0701575,52.3123931],[-0.0633326,52.3108264],[-0.0559879,52.3153107],[-0.0500403,52.3147342],[-0.0495355,52.3210854],[-0.0613047,52.3269135],[-0.0625195,52.3327818]]],"type":"Polygon"},"id":"E02003765","properties":{"code":"E02003765","geography":"MSOA","name":"Huntingdonshire 013"},"type":"Feature"},{"geometry":{"coordinates":[[[-0.1426777,52.2831785],[-0.1480449,52.2957809],[-0.1303318,52.3315419],[-0.1501586,52.3363921],[-0.1705439,52.3318182],[-0.1795071,52.3263752],[-0.1822382,52.316561],[-0.1992724,52.3203002],[-0.210065,52.3183512],[-0.2164704,52.3054737],[-0.1915789,52.2945272],[-0.1907451,52.2915995],[-0.1751914,52.2893571],[-0.1754977,52.2802139],[-0.151459,52.2843261],[-0.1426777,52.2831785]]],"type":"Polygon"},"id":"E02003766","properties":{"code":"E02003766","geography":"MSOA","name":"Huntingdonshire 014"},"type":"Feature"},{"geometry":{"coordinates":[[[-0.2902353,52.3833304],[-0.2998655,52.385292],[-0.294604,52.3899534],[-0.30952,52.3993461],[-0.3272723,52.3857695],[-0.3654778,52.3898135],[-0.3725965,52.4018808],[-0.3800847,52.3992702],[-0.405038,52.4093854],[-0.4121553,52.4069267],[-0.4108512,52.4127774],[-0.4170899,52.4115827],[-0.4196291,52.4073083],[-0.4161744,52.403573],[-0.4329367,52.3963134],[-0.4437785,52.3838418],[-0.454954,52.3856861],[-0.4568492,52.3823138],[-0.4683072,52.3828779],[-0.4699053,52.379881],[-0.4847773,52.3816156],[-0.4867541,52.3790156],[-0.4959627,52.3794998],[-0.4885353,52.374008],[-0.4995033,52.3669774],[-0.4987163,52.3600807],[-0.4773556,52.3483942],[-0.483286,52.3409378],[-0.4666736,52.3389125],[-0.4653831,52.3229384],[-0.4442012,52.3142171],[-0.4361067,52.3144564],[-0.4357797,52.2966439],[-0.4226611,52.2893611],[-0.4217861,52.2849336],[-0.4101781,52.2844829],[-0.406927,52.2874618],[-0.3989983,52.2787149],[-0.3926455,52.2824156],[-0.3750304,52.2804557],[-0.372195,52.273486],[-0.3810331,52.2731216],[-0.3819877,52.2686933],[-0.3743962,52.2329849],[-0.3590579,52.2347225],[-0.34103,52.2306347],[-0.3434891,52.2418609],[-0.3352705,52.242869],[-0.3200171,52.2426953],[-0.3137085,52.2389858],[-0.2932231,52.2404899],[-0.2794388,52.242047],[-0.2780923,52.2531688],[-0.2884791,52.2543474],[-0.2952666,52.2620973],[-0.3152983,52.2636827],[-0.3024296,52.2787165],[-0.3169926,52.2783073],[-0.3227551,52.2802828],[-0.3209325,52.2826166],[-0.3397717,52.2877737],[-0.3371171,52.2908433],[-0.3523922,52.2912572],[-0.350079,52.2989463],[-0.3383842,52.2987506],[-0.3453015,52.3029738],[-0.3432392,52.3091791],[-0.334742,52.3087733],[-0.3234417,52.3149419],[-0.3197794,52.3122439],[-0.3095479,52.3123803],[-0.2836426,52.3155543],[-0.2783293,52.3200809],[-0.2813178,52.3241992],[-0.2622502,52.3318188],[-0.2718205,52.3346004],[-0.2800186,52.3329274],[-0.2848937,52.3483117],[-0.2778235,52.3541658],[-0.2884332,52.3512632],[-0.2954496,52.3560285],[-0.2960227,52.3593571],[-0.2818266,52.370754],[-0.2918769,52.378416],[-0.2902353,52.3833304]]],"type":"Polygon"},"id":"E02003767","properties":{"code":"E02003767","geography":"MSOA","name":"Huntingdonshire 015"},"type":"Feature"},{"geometry":{"coordinates":[[[-0.0963492,52.3330989],[-0.1325964,52.3544332],[-0.1506205,52.3412196],[-0.1510255,52.3409447],[-0.1501586,52.3363921],[-0.1303318,52.3315419],[-0.1480449,52.2957809],[-0.1426777,52.2831785],[-0.1211727,52.2573247],[-0.1022942,52.2776568],[-0.0854118,52.2724881],[-0.0577526,52.2917419],[-0.0599229,52.2939619],[-0.0464885,52.3146441],[-0.0500403,52.3147342],[-0.0559879,52.3153107],[-0.0633326,52.3108264],[-0.0701575,52.3123931],[-0.0774946,52.3248137],[-0.0986531,52.3280109],[-0.0963492,52.3330989]]],"type":"Polygon"},"id":"E02003768","properties":{"code":"E02003768","geography":"MSOA","name":"Huntingdonshire 016"},"type":"Feature"},{"geometry":{"coordinates":[[[-0.2164704,52.3054737],[-0.2333089,52.3070353],[-0.2454161,52.3025754],[-0.2485551,52.3081207],[-0.2607406,52.3129411],[-0.2843546,52.3099659],[-0.2836426,52.3155543],[-0.3095479,52.3123803],[-0.3197794,52.3122439],[-0.3234417,52.3149419],[-0.334742,52.3087733],[-0.3432392,52.3091791],[-0.3453015,52.3029738],[-0.3383842,52.2987506],[-0.350079,52.2989463],[-0.3523922,52.2912572],[-0.3371171,52.2908433],[-0.3397717,52.2877737],[-0.3209325,52.2826166],[-0.3227551,52.2802828],[-0.3169926,52.2783073],[-0.3024296,52.2787165],[-0.3152983,52.2636827],[-0.2952666,52.2620973],[-0.2900032,52.2607848],[-0.2867348,52.26316],[-0.2791764,52.2581621],[-0.2381408,52.2551761],[-0.2280689,52.261131],[-0.2174958,52.256626],[-0.2221677,52.259868],[-0.2161588,52.264669],[-0.2091774,52.2605765],[-0.1826267,52.2567728],[-0.1754977,52.2802139],[-0.1751914,52.2893571],[-0.1907451,52.2915995],[-0.1915789,52.2945272],[-0.2164704,52.3054737]]],"type":"Polygon"},"id":"E02003769","properties":{"code":"E02003769","geography":"MSOA","name":"Huntingdonshire 017"},"type":"Feature"},{"geometry":{"coordinates":[[[-0.1826267,52.2567728],[-0.2091774,52.2605765],[-0.2161588,52.264669],[-0.2221677,52.259868],[-0.2174958,52.256626],[-0.2280689,52.261131],[-0.2381408,52.2551761],[-0.2791764,52.2581621],[-0.2867348,52.26316],[-0.2900032,52.2607848],[-0.2952666,52.2620973],[-0.2884791,52.2543474],[-0.2780923,52.2531688],[-0.2794388,52.242047],[-0.2693599,52.2395534],[-0.2512441,52.2461758],[-0.2424199,52.2424694],[-0.2493587,52.227695],[-0.2618811,52.2098528],[-0.2649338,52.2057085],[-0.2407451,52.1901807],[-0.2440243,52.1826723],[-0.2498073,52.1843587],[-0.2607155,52.1763895],[-0.2498433,52.1722982],[-0.2288854,52.1662306],[-0.2166473,52.1587237],[-0.1895583,52.1691936],[-0.156215,52.1672337],[-0.1506144,52.1712702],[-0.1533079,52.1754211],[-0.1430438,52.1833641],[-0.1109863,52.178912],[-0.1005655,52.1826528],[-0.1012438,52.1854024],[-0.1071292,52.1937934],[-0.1039742,52.2003726],[-0.1081513,52.2068709],[-0.1402689,52.2078832],[-0.1528309,52.2119845],[-0.1759085,52.1972438],[-0.1787532,52.2016161],[-0.1890747,52.2005664],[-0.1956316,52.2044775],[-0.1870394,52.2287811],[-0.175657,52.2304679],[-0.1490647,52.2259365],[-0.1481971,52.2291505],[-0.1376124,52.2301271],[-0.1322439,52.2432482],[-0.1571456,52.2542945],[-0.1737079,52.2557661],[-0.1775198,52.2502779],[-0.1826267,52.2567728]]],"type":"Polygon"},"id":"E02003770","properties":{"code":"E02003770","geography":"MSOA","name":"Huntingdonshire 018"},"type":"Feature"},{"geometry":{"coordinates":[[[-0.2493587,52.227695],[-0.2424199,52.2424694],[-0.2512441,52.2461758],[-0.2693599,52.2395534],[-0.2749018,52.233599],[-0.2719399,52.2263199],[-0.2493587,52.227695]]],"type":"Polygon"},"id":"E02003771","properties":{"code":"E02003771","geography":"MSOA","name":"Huntingdonshire 019"},"type":"Feature"},{"geometry":{"coordinates":[[[-0.2693599,52.2395534],[-0.2794388,52.242047],[-0.2932231,52.2404899],[-0.2856347,52.237264],[-0.2937794,52.2284263],[-0.2889697,52.2218751],[-0.2805255,52.2189977],[-0.2719399,52.2263199],[-0.2749018,52.233599],[-0.2693599,52.2395534]]],"type":"Polygon"},"id":"E02003772","properties":{"code":"E02003772","geography":"MSOA","name":"Huntingdonshire 020"},"type":"Feature"},{"geometry":{"coordinates":[[[-0.2618811,52.2098528],[-0.2493587,52.227695],[-0.2719399,52.2263199],[-0.2805255,52.2189977],[-0.2828232,52.2142224],[-0.2742269,52.2087082],[-0.2618811,52.2098528]]],"type":"Polygon"},"id":"E02003773","properties":{"code":"E02003773","geography":"MSOA","name":"Huntingdonshire 021"},"type":"Feature"},{"geometry":{"coordinates":[[[-0.2805255,52.2189977],[-0.2889697,52.2218751],[-0.2937794,52.2284263],[-0.2999863,52.2180454],[-0.2943786,52.2083406],[-0.2742269,52.2087082],[-0.2828232,52.2142224],[-0.2805255,52.2189977]]],"type":"Polygon"},"id":"E02003774","properties":{"code":"E02003774","geography":"MSOA","name":"Huntingdonshire 022"},"type":"Feature"}],"type":"FeatureCollection"}
