{"features":[{"geometry":{"coordinates":[[[[0.6052748,51.6289983],[0.6066516,51.6294628],[0.6051538,51.6297676],[0.6052748,51.6289983]]],[[[0.6052748,51.6289983],[0.607054,51.6172769],[0.6124065,51.6025655],[0.6170181,51.6012184],[0.6296268,51.6057369],[0.6270922,51.617211],[0.6651106,51.6213762],[0.6658986,51.6244751],[0.6578289,51.6284163],[0.6571006,51.6330547],[0.6515657,51.6359032],[0.6468728,51.6333957],[0.6474699,51.629911],[0.6371696,51.6316725],[0.6052748,51.6289983]]]],"type":"MultiPolygon"},"id":"E02004563","properties":{"code":"E02004563","geography":"MSOA","name":"Rochford 001"},"type":"Feature"},{"geometry":{"coordinates":[[[0.7101465,51.6337457],[0.6567621,51.635202],[0.6568161,51.6348595],[0.6571006,51.6330547],[0.6578289,51.6284163],[0.6658986,51.6244751],[0.6651106,51.6213762],[0.6642506,51.6122078],[0.6696681,51.6114354],[0.6728161,51.6051342],[0.6693686,51.6021733],[0.6864215,51.5959174],[0.6969263,51.5964743],[0.69992,51.5901954],[0.7071343,51.5903765],[0.7072662,51.5980926],[0.7124946,51.6012561],[0.7074894,51.6137361],[0.7014828,51.6135562],[0.6993343,51.6190818],[0.7101465,51.6337457]]],"type":"Polygon"},"id":"E02004564","properties":{"code":"E02004564","geography":"MSOA","name":"Rochford 002"},"type":"Feature"},{"geometry":{"coordinates":[[[0.7586436,51.5812285],[0.759733,51.5847303],[0.7510807,51.5863968],[0.754232,51.5881081],[0.7646133,51.5832195],[0.804215,51.589335],[0.8190803,51.5976047],[0.8162574,51.6022425],[0.8211403,51.5987334],[0.8624961,51.596047],[0.8661078,51.5992119],[0.8657168,51.6155642],[0.785054,51.6236143],[0.7794136,51.6188257],[0.7843889,51.6242911],[0.764065,51.6368726],[0.7494445,51.6311696],[0.7338879,51.6309593],[0.7219474,51.6357723],[0.7113476,51.6337126],[0.7101465,51.6337457],[0.6993343,51.6190818],[0.7014828,51.6135562],[0.7074894,51.6137361],[0.7124946,51.6012561],[0.7072662,51.5980926],[0.7071343,51.5903765],[0.69992,51.5901954],[0.700487,51.5878464],[0.7072677,51.5888068],[0.7069216,51.5862809],[0.7004452,51.5867643],[0.705776,51.5830628],[0.7027034,51.581109],[0.7081916,51.5797006],[0.713314,51.5914572],[0.7179538,51.5912955],[0.716901,51.5802399],[0.7231461,51.5788694],[0.7218054,51.5798344],[0.7507699,51.5803802],[0.7586436,51.5812285]]],"type":"Polygon"},"id":"E02004566","properties":{"code":"E02004566","geography":"MSOA","name":"Rochford 004"},"type":"Feature"},{"geometry":{"coordinates":[[[0.6170181,51.6012184],[0.6124065,51.6025655],[0.607054,51.6172769],[0.6049017,51.6026727],[0.6000621,51.6034131],[0.6049885,51.5992981],[0.5967653,51.5914806],[0.599787,51.5892953],[0.6059712,51.5928175],[0.6167015,51.5873106],[0.6241085,51.5876334],[0.64056,51.5825093],[0.6407465,51.5910586],[0.6375703,51.5941314],[0.6201446,51.5967797],[0.6170181,51.6012184]]],"type":"Polygon"},"id":"E02004567","properties":{"code":"E02004567","geography":"MSOA","name":"Rochford 005"},"type":"Feature"},{"geometry":{"coordinates":[[[0.6051538,51.6297676],[0.587878,51.6308459],[0.5868944,51.6233852],[0.578456,51.6250027],[0.5662429,51.6225526],[0.5624498,51.6178483],[0.5615951,51.6124715],[0.5566186,51.6083905],[0.5515177,51.6088438],[0.5490181,51.5965724],[0.5655394,51.5938538],[0.5637228,51.5915941],[0.5898527,51.5879768],[0.599787,51.5892953],[0.5967653,51.5914806],[0.6049885,51.5992981],[0.6000621,51.6034131],[0.6049017,51.6026727],[0.607054,51.6172769],[0.6052748,51.6289983],[0.6051538,51.6297676]]],"type":"Polygon"},"id":"E02004568","properties":{"code":"E02004568","geography":"MSOA","name":"Rochford 006"},"type":"Feature"},{"geometry":{"coordinates":[[[0.7069216,51.5862809],[0.7072677,51.5888068],[0.700487,51.5878464],[0.69992,51.5901954],[0.6969263,51.5964743],[0.6864215,51.5959174],[0.6987672,51.5848142],[0.6803739,51.5904332],[0.6407465,51.5910586],[0.64056,51.5825093],[0.6492582,51.5810946],[0.643927,51.5750801],[0.6678045,51.5722028],[0.7049878,51.5671136],[0.7085579,51.5664303],[0.7120995,51.5722567],[0.7255601,51.5771318],[0.723357,51.5787176],[0.7231461,51.5788694],[0.716901,51.5802399],[0.7179538,51.5912955],[0.713314,51.5914572],[0.7081916,51.5797006],[0.7027034,51.581109],[0.705776,51.5830628],[0.7004452,51.5867643],[0.7069216,51.5862809]]],"type":"Polygon"},"id":"E02004569","properties":{"code":"E02004569","geography":"MSOA","name":"Rochford 007"},"type":"Feature"},{"geometry":{"coordinates":[[[0.6241085,51.5876334],[0.6167015,51.5873106],[0.6059712,51.5928175],[0.599787,51.5892953],[0.5898527,51.5879768],[0.5637228,51.5915941],[0.5658918,51.5882408],[0.6009078,51.5766535],[0.6026073,51.5832528],[0.6139385,51.5791246],[0.6076764,51.5840356],[0.6114045,51.5849578],[0.6095321,51.5833068],[0.6265767,51.5801223],[0.6210367,51.5820418],[0.6241085,51.5876334]]],"type":"Polygon"},"id":"E02004570","properties":{"code":"E02004570","geography":"MSOA","name":"Rochford 008"},"type":"Feature"},{"geometry":{"coordinates":[[[0.64056,51.5825093],[0.6241085,51.5876334],[0.6210367,51.5820418],[0.6265767,51.5801223],[0.6095321,51.5833068],[0.6114045,51.5849578],[0.6076764,51.5840356],[0.6139385,51.5791246],[0.6026073,51.5832528],[0.6009078,51.5766535],[0.6139823,51.5752051],[0.6320494,51.5705246],[0.6321927,51.5707105],[0.6389223,51.5767961],[0.643927,51.5750801],[0.6492582,51.5810946],[0.64056,51.5825093]]],"type":"Polygon"},"id":"E02004571","properties":{"code":"E02004571","geography":"MSOA","name":"Rochford 009"},"type":"Feature"},{"geometry":{"coordinates":[[[[0.8402529,51.5608658],[0.833876,51.5700212],[0.8321548,51.5742773],[0.8288941,51.5722532],[0.8257492,51.5644621],[0.8313779,51.5602252],[0.8402529,51.5608658]]],[[[0.7510724,51.5803858],[0.7584242,51.5805232],[0.7586316,51.5811897],[0.7586436,51.5812285],[0.7507699,51.5803802],[0.7510724,51.5803858]]],[[[0.7934444,51.5763298],[0.8067488,51.5797105],[0.8059022,51.5861172],[0.764604,51.5805468],[0.7610125,51.5763576],[0.7597089,51.578902],[0.7530817,51.5791917],[0.7476975,51.5794269],[0.7441734,51.5787264],[0.7136299,51.5726499],[0.7255601,51.5771318],[0.7120995,51.5722567],[0.7085579,51.5664303],[0.7079109,51.5642834],[0.718362,51.5609413],[0.7390095,51.559345],[0.7490426,51.5593565],[0.7531241,51.5548628],[0.769831,51.5517791],[0.7866597,51.5529392],[0.786768,51.5472633],[0.7889561,51.5424433],[0.8108383,51.5401282],[0.814839,51.5437275],[0.8191377,51.5422021],[0.821122,51.5406005],[0.8211572,51.5406203],[0.8485892,51.5513874],[0.85047,51.5566175],[0.8400947,51.5601574],[0.8295769,51.5585472],[0.8245673,51.5635759],[0.8177925,51.5619923],[0.8209815,51.56437],[0.8143519,51.5764407],[0.8080321,51.5787273],[0.7956385,51.574594],[0.8098835,51.5698052],[0.8081903,51.5671314],[0.8037437,51.5672189],[0.8069916,51.5696451],[0.801853,51.5720722],[0.7991089,51.5709108],[0.7934444,51.5763298]]],[[[0.8374611,51.5851719],[0.8363232,51.5948984],[0.8301136,51.5959612],[0.8183093,51.5941094],[0.8082866,51.5858292],[0.8080358,51.5856219],[0.8081585,51.5850145],[0.8093506,51.5791113],[0.8155443,51.5769328],[0.8229192,51.5648774],[0.8374611,51.5851719]]],[[[0.9552863,51.6131587],[0.957486,51.620526],[0.9007384,51.6137439],[0.8874258,51.6155794],[0.8832122,51.61616],[0.8743443,51.6141453],[0.8667954,51.5951811],[0.8586264,51.5924899],[0.8379672,51.5936139],[0.8400478,51.5820181],[0.8464461,51.582667],[0.8484031,51.5782971],[0.8578845,51.577248],[0.8633699,51.5718573],[0.8572466,51.5764676],[0.8478236,51.5776186],[0.845516,51.5821068],[0.8386193,51.5814735],[0.8326947,51.5757644],[0.8401159,51.5616319],[0.8535862,51.5569356],[0.8663396,51.558936],[0.8791833,51.5688763],[0.8844965,51.5693873],[0.8865423,51.569584],[0.9298364,51.5924408],[0.9552863,51.6131587]]]],"type":"MultiPolygon"},"id":"E02004572","properties":{"code":"E02004572","geography":"MSOA","name":"Rochford 010"},"type":"Feature"},{"geometry":{"coordinates":[[[0.6693686,51.6021733],[0.6728161,51.6051342],[0.6696681,51.6114354],[0.6642506,51.6122078],[0.6651106,51.6213762],[0.6270922,51.617211],[0.6296268,51.6057369],[0.6170181,51.6012184],[0.6201446,51.5967797],[0.6375703,51.5941314],[0.6502771,51.5956679],[0.6475304,51.6059306],[0.6582392,51.6054529],[0.6650851,51.6005341],[0.6693686,51.6021733]]],"type":"Polygon"},"id":"E02006980","properties":{"code":"E02006980","geography":"MSOA","name":"Rochford 011"},"type":"Feature"},{"geometry":{"coordinates":[[[0.6693686,51.6021733],[0.6650851,51.6005341],[0.6582392,51.6054529],[0.6475304,51.6059306],[0.6502771,51.5956679],[0.6375703,51.5941314],[0.6407465,51.5910586],[0.6803739,51.5904332],[0.6987672,51.5848142],[0.6864215,51.5959174],[0.6693686,51.6021733]]],"type":"Polygon"},"id":"E02006981","properties":{"code":"E02006981","geography":"MSOA","name":"Rochford 012"},"type":"Feature"}],"type":"FeatureCollection"}
