{"features":[{"geometry":{"coordinates":[[[-0.767669,51.2360716],[-0.7758744,51.2419119],[-0.7869176,51.2418662],[-0.7985073,51.2394162],[-0.7958173,51.2368533],[-0.7869965,51.2382302],[-0.7817828,51.2324639],[-0.7839223,51.224957],[-0.7764307,51.2201809],[-0.7421269,51.2275521],[-0.7455583,51.2304577],[-0.7587398,51.2338831],[-0.767669,51.2360716]]],"type":"Polygon"},"id":"E02006439","properties":{"code":"E02006439","geography":"MSOA","name":"Waverley 001"},"type":"Feature"},{"geometry":{"coordinates":[[[-0.7985073,51.2394162],[-0.8017581,51.2390408],[-0.8047671,51.2450665],[-0.8207955,51.2392725],[-0.8208817,51.2344792],[-0.8266384,51.2343749],[-0.8285268,51.2289067],[-0.8058103,51.2272555],[-0.8029981,51.2239873],[-0.7839223,51.224957],[-0.7817828,51.2324639],[-0.7869965,51.2382302],[-0.7958173,51.2368533],[-0.7985073,51.2394162]]],"type":"Polygon"},"id":"E02006440","properties":{"code":"E02006440","geography":"MSOA","name":"Waverley 002"},"type":"Feature"},{"geometry":{"coordinates":[[[-0.7839223,51.224957],[-0.8029981,51.2239873],[-0.8058103,51.2272555],[-0.8285268,51.2289067],[-0.8401263,51.2152026],[-0.848929,51.2107178],[-0.8455487,51.2001366],[-0.8393207,51.1963493],[-0.8184211,51.206074],[-0.8096526,51.2069649],[-0.7967604,51.2100382],[-0.7864207,51.2167585],[-0.7828073,51.2153947],[-0.7865373,51.2136936],[-0.7766927,51.2106664],[-0.7759088,51.2152064],[-0.7800617,51.2163359],[-0.7764307,51.2201809],[-0.7839223,51.224957]]],"type":"Polygon"},"id":"E02006441","properties":{"code":"E02006441","geography":"MSOA","name":"Waverley 003"},"type":"Feature"},{"geometry":{"coordinates":[[[-0.746143,51.2212926],[-0.7483549,51.2234977],[-0.7416201,51.2241812],[-0.7421269,51.2275521],[-0.7764307,51.2201809],[-0.7800617,51.2163359],[-0.7759088,51.2152064],[-0.7766927,51.2106664],[-0.7865373,51.2136936],[-0.7828073,51.2153947],[-0.7864207,51.2167585],[-0.7967604,51.2100382],[-0.7900004,51.2058044],[-0.7949974,51.2024931],[-0.7884051,51.200669],[-0.7941348,51.1983107],[-0.7901595,51.1937826],[-0.7964397,51.1924054],[-0.803348,51.1948331],[-0.8059311,51.1900428],[-0.7962511,51.1787335],[-0.793401,51.1825215],[-0.763511,51.1946435],[-0.7669313,51.2005726],[-0.7551056,51.1978595],[-0.7555207,51.2025088],[-0.7472196,51.2089352],[-0.7476711,51.2143911],[-0.7418767,51.2195994],[-0.746143,51.2212926]]],"type":"Polygon"},"id":"E02006442","properties":{"code":"E02006442","geography":"MSOA","name":"Waverley 004"},"type":"Feature"},{"geometry":{"coordinates":[[[-0.5932483,51.1938592],[-0.5848879,51.1986029],[-0.5925202,51.2028873],[-0.6141343,51.2080579],[-0.6212793,51.2028843],[-0.6169804,51.1983063],[-0.6031799,51.1947659],[-0.6020673,51.1901389],[-0.5986306,51.1926746],[-0.5955952,51.189896],[-0.5932483,51.1938592]]],"type":"Polygon"},"id":"E02006443","properties":{"code":"E02006443","geography":"MSOA","name":"Waverley 005"},"type":"Feature"},{"geometry":{"coordinates":[[[-0.803348,51.1948331],[-0.7964397,51.1924054],[-0.7901595,51.1937826],[-0.7941348,51.1983107],[-0.7884051,51.200669],[-0.7949974,51.2024931],[-0.7900004,51.2058044],[-0.7967604,51.2100382],[-0.8096526,51.2069649],[-0.8151661,51.2001675],[-0.8086712,51.1928365],[-0.803348,51.1948331]]],"type":"Polygon"},"id":"E02006444","properties":{"code":"E02006444","geography":"MSOA","name":"Waverley 006"},"type":"Feature"},{"geometry":{"coordinates":[[[-0.5932483,51.1938592],[-0.5955952,51.189896],[-0.5986306,51.1926746],[-0.6020673,51.1901389],[-0.6031799,51.1947659],[-0.6169804,51.1983063],[-0.6212793,51.2028843],[-0.6355204,51.201618],[-0.6387369,51.1951538],[-0.6299367,51.1910431],[-0.6160981,51.1892678],[-0.6176844,51.1817566],[-0.6122662,51.1842545],[-0.609365,51.1812499],[-0.609524,51.1854632],[-0.606721,51.1828177],[-0.5989962,51.1841089],[-0.5909259,51.1904576],[-0.5932483,51.1938592]]],"type":"Polygon"},"id":"E02006445","properties":{"code":"E02006445","geography":"MSOA","name":"Waverley 007"},"type":"Feature"},{"geometry":{"coordinates":[[[-0.4570821,51.1749598],[-0.4676247,51.1795248],[-0.4885231,51.1781277],[-0.4940669,51.1843996],[-0.5053664,51.1836065],[-0.5056598,51.2050225],[-0.5268575,51.2089648],[-0.5324668,51.2134508],[-0.5476216,51.2096065],[-0.5555799,51.199262],[-0.5623678,51.2016809],[-0.5737898,51.1983182],[-0.5771179,51.188171],[-0.5867971,51.1895311],[-0.5803287,51.185112],[-0.5843737,51.1754905],[-0.5786563,51.1714627],[-0.5776905,51.1600762],[-0.5742396,51.1588922],[-0.5760256,51.1640423],[-0.571495,51.1643592],[-0.571933,51.1695985],[-0.5471198,51.1728117],[-0.5451473,51.1748904],[-0.5508692,51.179153],[-0.5435746,51.1825714],[-0.5288078,51.1703211],[-0.5330763,51.1566664],[-0.5262011,51.1539463],[-0.5284937,51.1497258],[-0.5247206,51.1499404],[-0.5208431,51.1514556],[-0.5179276,51.1527091],[-0.5210097,51.1619879],[-0.5102147,51.1633946],[-0.4902812,51.1561787],[-0.4932243,51.1531459],[-0.4898625,51.1534662],[-0.4867744,51.1477809],[-0.4815296,51.1513734],[-0.4636506,51.1524545],[-0.4638373,51.1719692],[-0.4570821,51.1749598]]],"type":"Polygon"},"id":"E02006446","properties":{"code":"E02006446","geography":"MSOA","name":"Waverley 008"},"type":"Feature"},{"geometry":{"coordinates":[[[-0.803348,51.1948331],[-0.8086712,51.1928365],[-0.8151661,51.2001675],[-0.8096526,51.2069649],[-0.8184211,51.206074],[-0.8393207,51.1963493],[-0.8271986,51.1846599],[-0.8265736,51.1785672],[-0.8094005,51.1754941],[-0.7962511,51.1787335],[-0.8059311,51.1900428],[-0.803348,51.1948331]]],"type":"Polygon"},"id":"E02006447","properties":{"code":"E02006447","geography":"MSOA","name":"Waverley 009"},"type":"Feature"},{"geometry":{"coordinates":[[[-0.606721,51.1828177],[-0.609524,51.1854632],[-0.609365,51.1812499],[-0.6122662,51.1842545],[-0.6176844,51.1817566],[-0.6160981,51.1892678],[-0.6299367,51.1910431],[-0.631175,51.1841326],[-0.6409746,51.1788605],[-0.6323277,51.1711824],[-0.6292831,51.1743059],[-0.6200736,51.1698554],[-0.6081562,51.1744446],[-0.5999224,51.1742591],[-0.5965955,51.1762622],[-0.606721,51.1828177]]],"type":"Polygon"},"id":"E02006448","properties":{"code":"E02006448","geography":"MSOA","name":"Waverley 010"},"type":"Feature"},{"geometry":{"coordinates":[[[-0.6409746,51.1788605],[-0.6481403,51.1758411],[-0.6634262,51.2002494],[-0.6709795,51.1960245],[-0.6830102,51.1946472],[-0.6882821,51.1887173],[-0.7025404,51.1926504],[-0.7065788,51.2027136],[-0.7316614,51.1968643],[-0.7241545,51.1894219],[-0.7297974,51.187815],[-0.7331967,51.1806883],[-0.742145,51.1793688],[-0.7459673,51.1735278],[-0.7186704,51.1584114],[-0.7155774,51.1657701],[-0.7037141,51.166561],[-0.7012498,51.1604061],[-0.6953438,51.1579108],[-0.6874379,51.1680117],[-0.6825311,51.1567876],[-0.6712212,51.1617206],[-0.655892,51.1567363],[-0.641658,51.1619681],[-0.6407819,51.1588984],[-0.6335413,51.1575567],[-0.6268228,51.1648167],[-0.6323277,51.1711824],[-0.6409746,51.1788605]]],"type":"Polygon"},"id":"E02006449","properties":{"code":"E02006449","geography":"MSOA","name":"Waverley 011"},"type":"Feature"},{"geometry":{"coordinates":[[[-0.5867971,51.1895311],[-0.5909259,51.1904576],[-0.5989962,51.1841089],[-0.606721,51.1828177],[-0.5965955,51.1762622],[-0.5999224,51.1742591],[-0.6081562,51.1744446],[-0.6200736,51.1698554],[-0.6292831,51.1743059],[-0.6323277,51.1711824],[-0.6268228,51.1648167],[-0.6335413,51.1575567],[-0.6407819,51.1588984],[-0.641658,51.1619681],[-0.655892,51.1567363],[-0.6712212,51.1617206],[-0.6825311,51.1567876],[-0.6874379,51.1680117],[-0.6953438,51.1579108],[-0.7012498,51.1604061],[-0.7037141,51.166561],[-0.7155774,51.1657701],[-0.7186704,51.1584114],[-0.7459673,51.1735278],[-0.749336,51.160839],[-0.7380434,51.1469044],[-0.7372883,51.1384229],[-0.7337586,51.1388463],[-0.7302676,51.1139463],[-0.7122666,51.1103792],[-0.6986556,51.1025609],[-0.686761,51.1091907],[-0.68542,51.1064684],[-0.67026,51.1118612],[-0.6543991,51.1251554],[-0.648548,51.1252376],[-0.6534157,51.1317302],[-0.6497757,51.1325403],[-0.6434092,51.1310071],[-0.6434456,51.1277983],[-0.6297542,51.1277159],[-0.6253355,51.1223944],[-0.6193982,51.1212453],[-0.6098995,51.1234079],[-0.5974231,51.1204514],[-0.5941036,51.1258226],[-0.5849976,51.1241237],[-0.581604,51.1311039],[-0.5710408,51.1330407],[-0.5658111,51.1294437],[-0.5479481,51.1307575],[-0.5410761,51.1252651],[-0.5364342,51.1296823],[-0.5381479,51.1371908],[-0.5328303,51.1376521],[-0.5343108,51.1411162],[-0.5247206,51.1499404],[-0.5284937,51.1497258],[-0.5262011,51.1539463],[-0.5330763,51.1566664],[-0.5288078,51.1703211],[-0.5435746,51.1825714],[-0.5508692,51.179153],[-0.5451473,51.1748904],[-0.5471198,51.1728117],[-0.571933,51.1695985],[-0.571495,51.1643592],[-0.5760256,51.1640423],[-0.5742396,51.1588922],[-0.5776905,51.1600762],[-0.5786563,51.1714627],[-0.5843737,51.1754905],[-0.5803287,51.185112],[-0.5867971,51.1895311]]],"type":"Polygon"},"id":"E02006450","properties":{"code":"E02006450","geography":"MSOA","name":"Waverley 012"},"type":"Feature"},{"geometry":{"coordinates":[[[-0.4636506,51.1524545],[-0.4815296,51.1513734],[-0.4867744,51.1477809],[-0.4898625,51.1534662],[-0.4932243,51.1531459],[-0.4902812,51.1561787],[-0.5102147,51.1633946],[-0.5210097,51.1619879],[-0.5179276,51.1527091],[-0.5208431,51.1514556],[-0.5119289,51.1331137],[-0.5168544,51.1273879],[-0.5080261,51.1207371],[-0.4953021,51.1205616],[-0.4931458,51.1104212],[-0.4874514,51.1133931],[-0.4773999,51.1131322],[-0.4775786,51.1226797],[-0.4712106,51.1248108],[-0.4634936,51.1215889],[-0.4541114,51.1237546],[-0.4497154,51.1429528],[-0.4636506,51.1524545]]],"type":"Polygon"},"id":"E02006451","properties":{"code":"E02006451","geography":"MSOA","name":"Waverley 013"},"type":"Feature"},{"geometry":{"coordinates":[[[-0.4185892,51.1731854],[-0.4279178,51.1758749],[-0.4295423,51.1740757],[-0.4329094,51.1791163],[-0.4439409,51.1835953],[-0.4570821,51.1749598],[-0.4638373,51.1719692],[-0.4636506,51.1524545],[-0.4497154,51.1429528],[-0.4541114,51.1237546],[-0.4634936,51.1215889],[-0.4712106,51.1248108],[-0.4775786,51.1226797],[-0.4773999,51.1131322],[-0.4874514,51.1133931],[-0.4931458,51.1104212],[-0.4953021,51.1205616],[-0.5080261,51.1207371],[-0.5168544,51.1273879],[-0.5119289,51.1331137],[-0.5208431,51.1514556],[-0.5247206,51.1499404],[-0.5343108,51.1411162],[-0.5328303,51.1376521],[-0.5381479,51.1371908],[-0.5364342,51.1296823],[-0.5410761,51.1252651],[-0.5479481,51.1307575],[-0.5658111,51.1294437],[-0.5710408,51.1330407],[-0.581604,51.1311039],[-0.5849976,51.1241237],[-0.5941036,51.1258226],[-0.5974231,51.1204514],[-0.6098995,51.1234079],[-0.6193982,51.1212453],[-0.6253355,51.1223944],[-0.6297542,51.1277159],[-0.6434456,51.1277983],[-0.6434092,51.1310071],[-0.6497757,51.1325403],[-0.6534157,51.1317302],[-0.648548,51.1252376],[-0.6543991,51.1251554],[-0.67026,51.1118612],[-0.68542,51.1064684],[-0.6790675,51.1023952],[-0.6833186,51.0992329],[-0.6747266,51.0929416],[-0.6857445,51.0893074],[-0.6892924,51.0839223],[-0.6874445,51.0755193],[-0.6690813,51.0773976],[-0.6641128,51.0817293],[-0.6311609,51.0883651],[-0.6211461,51.0881989],[-0.6011623,51.0797045],[-0.5776161,51.0866586],[-0.5392406,51.0820298],[-0.5326432,51.0860955],[-0.5350035,51.0935837],[-0.5264124,51.0918716],[-0.5269697,51.0896105],[-0.5231952,51.0916115],[-0.5054013,51.0882667],[-0.4921514,51.0944886],[-0.4885437,51.0973448],[-0.4448744,51.0995969],[-0.4414689,51.1033014],[-0.4388521,51.1003017],[-0.4425283,51.0981321],[-0.4384612,51.0979124],[-0.419229,51.1052085],[-0.4179057,51.1216747],[-0.4132615,51.126333],[-0.4185892,51.1731854]]],"type":"Polygon"},"id":"E02006453","properties":{"code":"E02006453","geography":"MSOA","name":"Waverley 015"},"type":"Feature"},{"geometry":{"coordinates":[[[-0.68542,51.1064684],[-0.686761,51.1091907],[-0.6986556,51.1025609],[-0.7122666,51.1103792],[-0.7285268,51.0983619],[-0.7265184,51.0889869],[-0.7197768,51.0882824],[-0.729986,51.0805552],[-0.7234343,51.077823],[-0.7067028,51.0787659],[-0.6967601,51.0714986],[-0.6874445,51.0755193],[-0.6892924,51.0839223],[-0.6857445,51.0893074],[-0.6747266,51.0929416],[-0.6833186,51.0992329],[-0.6790675,51.1023952],[-0.68542,51.1064684]]],"type":"Polygon"},"id":"E02006454","properties":{"code":"E02006454","geography":"MSOA","name":"Waverley 016"},"type":"Feature"},{"geometry":{"coordinates":[[[-0.7535002,51.086461],[-0.7355991,51.0847068],[-0.729986,51.0805552],[-0.7197768,51.0882824],[-0.7265184,51.0889869],[-0.7285268,51.0983619],[-0.7122666,51.1103792],[-0.7302676,51.1139463],[-0.7292907,51.1108071],[-0.7334943,51.1138253],[-0.744707,51.1064159],[-0.7493073,51.1032527],[-0.7598857,51.1048728],[-0.768906,51.1032545],[-0.7594664,51.103577],[-0.759251,51.103254],[-0.754334,51.0958813],[-0.7589079,51.0908467],[-0.7535002,51.086461]]],"type":"Polygon"},"id":"E02006455","properties":{"code":"E02006455","geography":"MSOA","name":"Waverley 017"},"type":"Feature"},{"geometry":{"coordinates":[[[-0.7316614,51.1968643],[-0.7472196,51.2089352],[-0.7555207,51.2025088],[-0.7551056,51.1978595],[-0.7669313,51.2005726],[-0.763511,51.1946435],[-0.793401,51.1825215],[-0.7962511,51.1787335],[-0.8094005,51.1754941],[-0.8265736,51.1785672],[-0.8339594,51.1492558],[-0.8342215,51.1475843],[-0.8283927,51.1452694],[-0.8174063,51.1477545],[-0.8047479,51.1553676],[-0.7944724,51.1494924],[-0.7913015,51.1394171],[-0.7810412,51.1352225],[-0.7806695,51.1278036],[-0.7692999,51.1171472],[-0.745553,51.1121934],[-0.744707,51.1064159],[-0.7334943,51.1138253],[-0.7292907,51.1108071],[-0.7302676,51.1139463],[-0.7337586,51.1388463],[-0.7372883,51.1384229],[-0.7380434,51.1469044],[-0.749336,51.160839],[-0.7459673,51.1735278],[-0.742145,51.1793688],[-0.7331967,51.1806883],[-0.7297974,51.187815],[-0.7241545,51.1894219],[-0.7316614,51.1968643]]],"type":"Polygon"},"id":"E02006839","properties":{"code":"E02006839","geography":"MSOA","name":"Waverley 018"},"type":"Feature"}],"type":"FeatureCollection"}
