{"features":[{"geometry":{"coordinates":[[[-1.831739,51.0038494],[-1.8358216,51.0094285],[-1.8523767,51.0052101],[-1.8739915,50.9844478],[-1.874245,50.9876907],[-1.8744896,51.0063373],[-1.8867489,50.999535],[-1.9278847,50.9977031],[-1.9499433,50.9823171],[-1.9568285,50.9898364],[-1.955473,50.9782727],[-1.9448374,50.9757549],[-1.9392277,50.9696635],[-1.9298965,50.9678023],[-1.9208488,50.9614138],[-1.9091912,50.9453334],[-1.8788113,50.924333],[-1.8737158,50.9172605],[-1.862732,50.9197953],[-1.8541921,50.9275188],[-1.8418419,50.931668],[-1.8262282,50.9268763],[-1.81138,50.92773],[-1.8204143,50.9121137],[-1.8165488,50.9039557],[-1.797918,50.9085574],[-1.7887198,50.8943439],[-1.7644403,50.8974215],[-1.750908,50.9048265],[-1.7384608,50.8942338],[-1.7407823,50.8901518],[-1.7222541,50.9017171],[-1.6964194,50.907609],[-1.690321,50.9195062],[-1.6937826,50.9261252],[-1.6899502,50.9266496],[-1.6872437,50.9472066],[-1.6768909,50.9496745],[-1.6894228,50.9547037],[-1.7196265,50.9767866],[-1.7544103,50.9778995],[-1.7543287,50.9804549],[-1.8003228,50.9914015],[-1.807592,50.9920527],[-1.8154301,50.9859294],[-1.831739,51.0038494]]],"type":"Polygon"},"id":"E02004779","properties":{"code":"E02004779","geography":"MSOA","name":"New Forest 001"},"type":"Feature"},{"geometry":{"coordinates":[[[-1.5091259,50.9299806],[-1.5163161,50.9293346],[-1.5156228,50.9325675],[-1.5191682,50.9288309],[-1.5077903,50.919706],[-1.5112873,50.9164797],[-1.5007677,50.9206742],[-1.4953256,50.9233699],[-1.4951967,50.9278549],[-1.504052,50.9275045],[-1.505201,50.9251375],[-1.5091259,50.9299806]]],"type":"Polygon"},"id":"E02004780","properties":{"code":"E02004780","geography":"MSOA","name":"New Forest 002"},"type":"Feature"},{"geometry":{"coordinates":[[[-1.4905414,50.9335351],[-1.5002773,50.9345317],[-1.5052249,50.9388251],[-1.5234104,50.9355405],[-1.5254533,50.9241067],[-1.5221802,50.9145298],[-1.5125295,50.9122367],[-1.5086705,50.9079908],[-1.5056244,50.9104926],[-1.5121323,50.9134793],[-1.5112873,50.9164797],[-1.5077903,50.919706],[-1.5191682,50.9288309],[-1.5156228,50.9325675],[-1.5163161,50.9293346],[-1.5091259,50.9299806],[-1.5073548,50.9322309],[-1.4986685,50.9289314],[-1.4905414,50.9335351]]],"type":"Polygon"},"id":"E02004781","properties":{"code":"E02004781","geography":"MSOA","name":"New Forest 003"},"type":"Feature"},{"geometry":{"coordinates":[[[-1.4773367,50.9284697],[-1.4821639,50.9312194],[-1.4829472,50.9283577],[-1.4850402,50.9327683],[-1.4905414,50.9335351],[-1.4986685,50.9289314],[-1.5073548,50.9322309],[-1.5091259,50.9299806],[-1.505201,50.9251375],[-1.504052,50.9275045],[-1.4951967,50.9278549],[-1.4953256,50.9233699],[-1.5007677,50.9206742],[-1.483078,50.9112716],[-1.4876318,50.9080917],[-1.4902743,50.9105786],[-1.493664,50.9072311],[-1.4963899,50.9083845],[-1.494087,50.9029498],[-1.4777602,50.8922778],[-1.4618227,50.903589],[-1.4782496,50.9119843],[-1.4784177,50.9125984],[-1.4790475,50.9164553],[-1.4740779,50.9117147],[-1.4767377,50.92035],[-1.4768544,50.9207287],[-1.4827394,50.9248851],[-1.4792714,50.9266106],[-1.4787998,50.9254109],[-1.4773367,50.9284697]]],"type":"Polygon"},"id":"E02004782","properties":{"code":"E02004782","geography":"MSOA","name":"New Forest 004"},"type":"Feature"},{"geometry":{"coordinates":[[[-1.494087,50.9029498],[-1.4963899,50.9083845],[-1.493664,50.9072311],[-1.4902743,50.9105786],[-1.4876318,50.9080917],[-1.483078,50.9112716],[-1.5007677,50.9206742],[-1.5112873,50.9164797],[-1.5121323,50.9134793],[-1.5056244,50.9104926],[-1.5086705,50.9079908],[-1.4954248,50.9025152],[-1.494087,50.9029498]]],"type":"Polygon"},"id":"E02004783","properties":{"code":"E02004783","geography":"MSOA","name":"New Forest 005"},"type":"Feature"},{"geometry":{"coordinates":[[[-1.5076677,50.9412579],[-1.5099778,50.9501148],[-1.5215501,50.9522345],[-1.5291122,50.9503698],[-1.5344072,50.9546421],[-1.5464356,50.9419323],[-1.5357367,50.9249373],[-1.5431211,50.9256287],[-1.5508253,50.9196127],[-1.5582343,50.9221253],[-1.56403,50.9194606],[-1.5764897,50.9272795],[-1.5891982,50.9207289],[-1.5780874,50.895488],[-1.5722981,50.8965031],[-1.5656545,50.8926927],[-1.5561057,50.8922137],[-1.5545568,50.9013615],[-1.546605,50.901199],[-1.5264111,50.8918968],[-1.5261881,50.8878661],[-1.4985918,50.897045],[-1.4954248,50.9025152],[-1.5086705,50.9079908],[-1.5125295,50.9122367],[-1.5221802,50.9145298],[-1.5254533,50.9241067],[-1.5234104,50.9355405],[-1.5052249,50.9388251],[-1.5076677,50.9412579]]],"type":"Polygon"},"id":"E02004784","properties":{"code":"E02004784","geography":"MSOA","name":"New Forest 006"},"type":"Feature"},{"geometry":{"coordinates":[[[-1.5344072,50.9546421],[-1.5342773,50.959064],[-1.5446817,50.9692397],[-1.5756924,50.9607831],[-1.5840853,50.962125],[-1.5900948,50.9512725],[-1.5965063,50.9560792],[-1.607756,50.9549691],[-1.6197614,50.9585744],[-1.6234113,50.9546448],[-1.6349753,50.9592496],[-1.6463868,50.9494725],[-1.6616695,50.9452857],[-1.6768909,50.9496745],[-1.6872437,50.9472066],[-1.6899502,50.9266496],[-1.6937826,50.9261252],[-1.690321,50.9195062],[-1.6964194,50.907609],[-1.683399,50.9113627],[-1.6773085,50.9051196],[-1.6880917,50.8834231],[-1.6719792,50.8653095],[-1.6362967,50.8585808],[-1.638973,50.855708],[-1.6354044,50.8462893],[-1.6184076,50.8568729],[-1.6012031,50.8613142],[-1.5893711,50.8455528],[-1.5833822,50.8480245],[-1.5729047,50.8410015],[-1.5664562,50.8521084],[-1.5561832,50.8501437],[-1.5444634,50.8546618],[-1.5408514,50.8602757],[-1.5479039,50.8667674],[-1.540775,50.8765718],[-1.5497692,50.8809702],[-1.5605664,50.8778344],[-1.5586303,50.8838987],[-1.5771972,50.8898169],[-1.5780874,50.895488],[-1.5891982,50.9207289],[-1.5764897,50.9272795],[-1.56403,50.9194606],[-1.5582343,50.9221253],[-1.5508253,50.9196127],[-1.5431211,50.9256287],[-1.5357367,50.9249373],[-1.5464356,50.9419323],[-1.5344072,50.9546421]]],"type":"Polygon"},"id":"E02004785","properties":{"code":"E02004785","geography":"MSOA","name":"New Forest 007"},"type":"Feature"},{"geometry":{"coordinates":[[[-1.4088516,50.8828884],[-1.4200804,50.8909149],[-1.4204122,50.8916841],[-1.4218578,50.8950351],[-1.4257107,50.8947993],[-1.4267853,50.8967293],[-1.4325748,50.8987629],[-1.4419717,50.9020626],[-1.4523347,50.9003572],[-1.4615495,50.9034493],[-1.4618227,50.903589],[-1.4777602,50.8922778],[-1.4713609,50.8888481],[-1.4696724,50.8769237],[-1.4625187,50.8720215],[-1.4527347,50.8673202],[-1.438334,50.8671914],[-1.4321862,50.8616855],[-1.4151181,50.8640998],[-1.4158392,50.873239],[-1.4200184,50.8747191],[-1.4088516,50.8828884]]],"type":"Polygon"},"id":"E02004786","properties":{"code":"E02004786","geography":"MSOA","name":"New Forest 008"},"type":"Feature"},{"geometry":{"coordinates":[[[-1.395142,50.8687519],[-1.3952554,50.8688249],[-1.3956992,50.8691104],[-1.4007772,50.8719557],[-1.3975105,50.8747778],[-1.4088516,50.8828884],[-1.4200184,50.8747191],[-1.4158392,50.873239],[-1.4151181,50.8640998],[-1.4321862,50.8616855],[-1.4248153,50.855531],[-1.4141747,50.8600136],[-1.4087762,50.8564191],[-1.4019407,50.8569801],[-1.3992261,50.8631931],[-1.3950666,50.8622008],[-1.3990055,50.8660791],[-1.395142,50.8687519]]],"type":"Polygon"},"id":"E02004787","properties":{"code":"E02004787","geography":"MSOA","name":"New Forest 009"},"type":"Feature"},{"geometry":{"coordinates":[[[-1.6719792,50.8653095],[-1.6880917,50.8834231],[-1.6773085,50.9051196],[-1.683399,50.9113627],[-1.6964194,50.907609],[-1.7222541,50.9017171],[-1.7407823,50.8901518],[-1.7384608,50.8942338],[-1.750908,50.9048265],[-1.7644403,50.8974215],[-1.7887198,50.8943439],[-1.797918,50.9085574],[-1.8165488,50.9039557],[-1.8249605,50.8957787],[-1.8398771,50.8978981],[-1.8485629,50.8898956],[-1.844059,50.8869177],[-1.8479846,50.8823475],[-1.8452797,50.8780058],[-1.8525997,50.8621998],[-1.8509512,50.8587335],[-1.8295256,50.8553272],[-1.8148394,50.8587098],[-1.8127971,50.8645814],[-1.8080347,50.8644684],[-1.8055419,50.8519369],[-1.8000424,50.8483477],[-1.803369,50.8444972],[-1.7910148,50.8497764],[-1.7809986,50.8493498],[-1.7731579,50.8557556],[-1.7726278,50.8519089],[-1.7664855,50.8506568],[-1.7715981,50.8488466],[-1.7698572,50.8429778],[-1.7671745,50.8374475],[-1.7576176,50.8405091],[-1.7406254,50.83703],[-1.7395503,50.85153],[-1.7071422,50.8662698],[-1.6719792,50.8653095]]],"type":"Polygon"},"id":"E02004788","properties":{"code":"E02004788","geography":"MSOA","name":"New Forest 010"},"type":"Feature"},{"geometry":{"coordinates":[[[-1.3841889,50.8629462],[-1.3879131,50.8642257],[-1.3883259,50.8643662],[-1.395142,50.8687519],[-1.3990055,50.8660791],[-1.3950666,50.8622008],[-1.3992261,50.8631931],[-1.4019407,50.8569801],[-1.4087762,50.8564191],[-1.4141747,50.8600136],[-1.4248153,50.855531],[-1.3957811,50.843842],[-1.3984508,50.8453599],[-1.3909068,50.8483528],[-1.3897993,50.8585108],[-1.3841889,50.8629462]]],"type":"Polygon"},"id":"E02004789","properties":{"code":"E02004789","geography":"MSOA","name":"New Forest 011"},"type":"Feature"},{"geometry":{"coordinates":[[[-1.7698572,50.8429778],[-1.7715981,50.8488466],[-1.7664855,50.8506568],[-1.7726278,50.8519089],[-1.7731579,50.8557556],[-1.7809986,50.8493498],[-1.7910148,50.8497764],[-1.803369,50.8444972],[-1.7907198,50.8363255],[-1.7960968,50.8303433],[-1.8037401,50.830003],[-1.8018306,50.8209016],[-1.8073636,50.8162521],[-1.8029633,50.813503],[-1.812019,50.8088359],[-1.8097436,50.804967],[-1.8002987,50.8034997],[-1.7967371,50.7995651],[-1.7878984,50.8004292],[-1.7864527,50.7962468],[-1.7763295,50.7965278],[-1.7743984,50.8001119],[-1.7668034,50.7984828],[-1.760175,50.8045621],[-1.7616056,50.8153278],[-1.76974,50.8221403],[-1.7698572,50.8429778]]],"type":"Polygon"},"id":"E02004790","properties":{"code":"E02004790","geography":"MSOA","name":"New Forest 012"},"type":"Feature"},{"geometry":{"coordinates":[[[-1.3961546,50.8264507],[-1.3750649,50.8238423],[-1.3725479,50.8181211],[-1.3657388,50.8184251],[-1.3620402,50.8224437],[-1.3792612,50.8312968],[-1.3854688,50.8281048],[-1.3856354,50.8316397],[-1.3903507,50.8304685],[-1.3999763,50.8381313],[-1.4089665,50.8351316],[-1.4032098,50.8275904],[-1.3961546,50.8264507]]],"type":"Polygon"},"id":"E02004791","properties":{"code":"E02004791","geography":"MSOA","name":"New Forest 013"},"type":"Feature"},{"geometry":{"coordinates":[[[-1.354395,50.784114],[-1.3543242,50.7841102],[-1.3525541,50.7840157],[-1.3420219,50.7860089],[-1.3322629,50.7976513],[-1.3278058,50.8029664],[-1.3085932,50.8148558],[-1.3072077,50.8191208],[-1.3074503,50.8192479],[-1.3115164,50.8134711],[-1.3139923,50.815857],[-1.3102414,50.8170633],[-1.3155285,50.8211771],[-1.3181928,50.8186765],[-1.3173756,50.8179383],[-1.3260429,50.8165648],[-1.3256364,50.8168969],[-1.326101,50.8166128],[-1.3251162,50.8173211],[-1.3210035,50.821129],[-1.3275234,50.8239311],[-1.3203933,50.8218952],[-1.3193125,50.8244608],[-1.3234699,50.8276747],[-1.3283995,50.8239227],[-1.3260656,50.8275602],[-1.3392566,50.8265062],[-1.3403464,50.8344132],[-1.3345773,50.8374676],[-1.3421508,50.8443477],[-1.3505605,50.8463102],[-1.3540854,50.8419207],[-1.3517081,50.8465162],[-1.3605226,50.8429219],[-1.3527167,50.848153],[-1.3723786,50.8552584],[-1.3767937,50.8538999],[-1.3733812,50.8569859],[-1.3815775,50.8590232],[-1.37917,50.8601471],[-1.3841889,50.8629462],[-1.3897993,50.8585108],[-1.3909068,50.8483528],[-1.3984508,50.8453599],[-1.3957811,50.843842],[-1.3999763,50.8381313],[-1.3903507,50.8304685],[-1.3856354,50.8316397],[-1.3854688,50.8281048],[-1.3792612,50.8312968],[-1.3620402,50.8224437],[-1.3657388,50.8184251],[-1.3725479,50.8181211],[-1.3750649,50.8238423],[-1.3961546,50.8264507],[-1.3951626,50.8186097],[-1.3916354,50.817514],[-1.3871629,50.8208134],[-1.3787739,50.804041],[-1.37095,50.8031232],[-1.3607927,50.7957831],[-1.3571653,50.785105],[-1.354395,50.784114]]],"type":"Polygon"},"id":"E02004792","properties":{"code":"E02004792","geography":"MSOA","name":"New Forest 014"},"type":"Feature"},{"geometry":{"coordinates":[[[-1.5729047,50.8410015],[-1.5833822,50.8480245],[-1.5893711,50.8455528],[-1.6012031,50.8613142],[-1.6184076,50.8568729],[-1.6354044,50.8462893],[-1.673157,50.7979991],[-1.6887679,50.7844855],[-1.6790852,50.7920056],[-1.6565754,50.7845661],[-1.6371467,50.784663],[-1.6209777,50.7626028],[-1.5900953,50.7660076],[-1.5634514,50.7734068],[-1.5455751,50.7729272],[-1.5455976,50.778122],[-1.5541993,50.7794883],[-1.5605177,50.7842607],[-1.5502692,50.7912849],[-1.5537069,50.7959677],[-1.5500213,50.7986471],[-1.5274874,50.8006318],[-1.5227342,50.8140433],[-1.5457376,50.8119818],[-1.5476691,50.8180179],[-1.5536983,50.8197723],[-1.5588986,50.8272513],[-1.5718157,50.8304189],[-1.5729047,50.8410015]]],"type":"Polygon"},"id":"E02004793","properties":{"code":"E02004793","geography":"MSOA","name":"New Forest 015"},"type":"Feature"},{"geometry":{"coordinates":[[[-1.6719792,50.8653095],[-1.7071422,50.8662698],[-1.7395503,50.85153],[-1.7406254,50.83703],[-1.7576176,50.8405091],[-1.7671745,50.8374475],[-1.7698572,50.8429778],[-1.76974,50.8221403],[-1.7616056,50.8153278],[-1.760175,50.8045621],[-1.7668034,50.7984828],[-1.7743984,50.8001119],[-1.7763295,50.7965278],[-1.7864527,50.7962468],[-1.7878984,50.8004292],[-1.7967371,50.7995651],[-1.8002987,50.8034997],[-1.8097436,50.804967],[-1.801538,50.7997825],[-1.8042994,50.7960382],[-1.8008985,50.7942533],[-1.8059443,50.7920851],[-1.8009724,50.7918952],[-1.7974815,50.7838709],[-1.7878756,50.7788656],[-1.790557,50.7716424],[-1.7856094,50.7647795],[-1.7761612,50.7663553],[-1.7573591,50.7781487],[-1.7487039,50.7793647],[-1.7390984,50.763508],[-1.7446917,50.7560544],[-1.7441757,50.7474663],[-1.7135932,50.7522659],[-1.6818132,50.7518299],[-1.6818432,50.7519991],[-1.6769378,50.7671256],[-1.6903712,50.7712619],[-1.676831,50.7772968],[-1.6810188,50.7838478],[-1.6887679,50.7844855],[-1.673157,50.7979991],[-1.6354044,50.8462893],[-1.638973,50.855708],[-1.6362967,50.8585808],[-1.6719792,50.8653095]]],"type":"Polygon"},"id":"E02004794","properties":{"code":"E02004794","geography":"MSOA","name":"New Forest 016"},"type":"Feature"},{"geometry":{"coordinates":[[[[-1.5368234,50.7630622],[-1.5500838,50.7600512],[-1.5510175,50.7627668],[-1.5553331,50.7622988],[-1.5515938,50.7547187],[-1.5473565,50.7559515],[-1.5452673,50.7516354],[-1.5464805,50.7546713],[-1.5425595,50.7555537],[-1.5435837,50.7525405],[-1.5368685,50.7506873],[-1.5372351,50.7481616],[-1.5329738,50.7510274],[-1.5299384,50.7506351],[-1.5275784,50.7532175],[-1.5366735,50.7589706],[-1.5367838,50.7629302],[-1.5368234,50.7630622]]],[[[-1.5368234,50.7630622],[-1.5368351,50.7631013],[-1.5335222,50.7625021],[-1.5353544,50.7594699],[-1.513795,50.75324],[-1.4675004,50.7598074],[-1.4649532,50.7648535],[-1.4621096,50.7608252],[-1.4341994,50.7645089],[-1.421932,50.7661257],[-1.4187686,50.7666557],[-1.3992496,50.7742675],[-1.4015762,50.7739278],[-1.3978867,50.7755364],[-1.393259,50.7766025],[-1.392394,50.7769396],[-1.3980273,50.7762917],[-1.4129807,50.7839604],[-1.4096974,50.7904517],[-1.411786,50.7980793],[-1.4123429,50.8001124],[-1.4228538,50.7999662],[-1.4203733,50.8057128],[-1.4336642,50.8088581],[-1.4399508,50.8103451],[-1.4394522,50.8140531],[-1.4456178,50.8136113],[-1.4470971,50.8186362],[-1.4512388,50.8191665],[-1.4486635,50.8201472],[-1.4381637,50.8154488],[-1.4359928,50.809951],[-1.4336461,50.8103574],[-1.4291515,50.8111354],[-1.426494,50.8075811],[-1.4191487,50.8070744],[-1.4200797,50.8003094],[-1.4121483,50.8048793],[-1.4140862,50.8026661],[-1.4090135,50.8007098],[-1.4078914,50.7980595],[-1.4050677,50.7913887],[-1.4087309,50.7866663],[-1.4005298,50.7843467],[-1.4073961,50.7853026],[-1.4035259,50.7834394],[-1.3883511,50.7859201],[-1.354395,50.784114],[-1.3571653,50.785105],[-1.3607927,50.7957831],[-1.37095,50.8031232],[-1.3787739,50.804041],[-1.3871629,50.8208134],[-1.3916354,50.817514],[-1.3951626,50.8186097],[-1.3961546,50.8264507],[-1.4032098,50.8275904],[-1.4089665,50.8351316],[-1.3999763,50.8381313],[-1.3957811,50.843842],[-1.4248153,50.855531],[-1.4321862,50.8616855],[-1.438334,50.8671914],[-1.4527347,50.8673202],[-1.4625187,50.8720215],[-1.4696724,50.8769237],[-1.4713609,50.8888481],[-1.4777602,50.8922778],[-1.494087,50.9029498],[-1.4954248,50.9025152],[-1.4985918,50.897045],[-1.5261881,50.8878661],[-1.5264111,50.8918968],[-1.546605,50.901199],[-1.5545568,50.9013615],[-1.5561057,50.8922137],[-1.5656545,50.8926927],[-1.5722981,50.8965031],[-1.5780874,50.895488],[-1.5771972,50.8898169],[-1.5586303,50.8838987],[-1.5605664,50.8778344],[-1.5497692,50.8809702],[-1.540775,50.8765718],[-1.5479039,50.8667674],[-1.5408514,50.8602757],[-1.5444634,50.8546618],[-1.5561832,50.8501437],[-1.5664562,50.8521084],[-1.5729047,50.8410015],[-1.5718157,50.8304189],[-1.5588986,50.8272513],[-1.5536983,50.8197723],[-1.5476691,50.8180179],[-1.5457376,50.8119818],[-1.5227342,50.8140433],[-1.5274874,50.8006318],[-1.5500213,50.7986471],[-1.5537069,50.7959677],[-1.5502692,50.7912849],[-1.5605177,50.7842607],[-1.5541993,50.7794883],[-1.5455976,50.778122],[-1.5455751,50.7729272],[-1.5426333,50.7655624],[-1.5368234,50.7630622]]]],"type":"MultiPolygon"},"id":"E02004795","properties":{"code":"E02004795","geography":"MSOA","name":"New Forest 017"},"type":"Feature"},{"geometry":{"coordinates":[[[-1.6790852,50.7920056],[-1.6887679,50.7844855],[-1.6810188,50.7838478],[-1.676831,50.7772968],[-1.6903712,50.7712619],[-1.6769378,50.7671256],[-1.6818432,50.7519991],[-1.6746373,50.7530403],[-1.6707435,50.7588706],[-1.6674755,50.7569653],[-1.6556211,50.7587879],[-1.6556451,50.7636335],[-1.6469356,50.7598785],[-1.6461026,50.7595193],[-1.6460258,50.7601722],[-1.6454196,50.7653216],[-1.6428944,50.7637451],[-1.6379621,50.7661851],[-1.6356725,50.7635138],[-1.625438,50.7517836],[-1.621426,50.7402324],[-1.5991351,50.7443784],[-1.5720046,50.7446886],[-1.5667249,50.7458484],[-1.5699609,50.7494908],[-1.5862057,50.75961],[-1.5900953,50.7660076],[-1.6209777,50.7626028],[-1.6371467,50.784663],[-1.6565754,50.7845661],[-1.6790852,50.7920056]]],"type":"Polygon"},"id":"E02004796","properties":{"code":"E02004796","geography":"MSOA","name":"New Forest 018"},"type":"Feature"},{"geometry":{"coordinates":[[[-1.5455751,50.7729272],[-1.5634514,50.7734068],[-1.5900953,50.7660076],[-1.5862057,50.75961],[-1.5699609,50.7494908],[-1.565859,50.7473189],[-1.5515938,50.7547187],[-1.5553331,50.7622988],[-1.5510175,50.7627668],[-1.5500838,50.7600512],[-1.5368234,50.7630622],[-1.5426333,50.7655624],[-1.5455751,50.7729272]]],"type":"Polygon"},"id":"E02004797","properties":{"code":"E02004797","geography":"MSOA","name":"New Forest 019"},"type":"Feature"},{"geometry":{"coordinates":[[[-1.6356725,50.7635138],[-1.6379621,50.7661851],[-1.6428944,50.7637451],[-1.6454196,50.7653216],[-1.6460258,50.7601722],[-1.6461026,50.7595193],[-1.6469356,50.7598785],[-1.6556451,50.7636335],[-1.6556211,50.7587879],[-1.6674755,50.7569653],[-1.6707435,50.7588706],[-1.6746373,50.7530403],[-1.6818432,50.7519991],[-1.6818132,50.7518299],[-1.6847146,50.7438235],[-1.664525,50.7474239],[-1.6620701,50.754991],[-1.6465498,50.7586963],[-1.6356725,50.7635138]]],"type":"Polygon"},"id":"E02004798","properties":{"code":"E02004798","geography":"MSOA","name":"New Forest 020"},"type":"Feature"},{"geometry":{"coordinates":[[[-1.625438,50.7517836],[-1.6356725,50.7635138],[-1.6465498,50.7586963],[-1.6620701,50.754991],[-1.664525,50.7474239],[-1.6537444,50.7460213],[-1.6408379,50.7499719],[-1.6353367,50.7479398],[-1.625438,50.7517836]]],"type":"Polygon"},"id":"E02004799","properties":{"code":"E02004799","geography":"MSOA","name":"New Forest 021"},"type":"Feature"},{"geometry":{"coordinates":[[[-1.621426,50.7402324],[-1.625438,50.7517836],[-1.6353367,50.7479398],[-1.6408379,50.7499719],[-1.6537444,50.7460213],[-1.664525,50.7474239],[-1.6847146,50.7438235],[-1.6918169,50.7372978],[-1.691755,50.7372924],[-1.6581951,50.7343426],[-1.6563659,50.7340155],[-1.6471474,50.7332747],[-1.6302584,50.7293497],[-1.6256261,50.7339191],[-1.6204351,50.734157],[-1.621426,50.7402324]]],"type":"Polygon"},"id":"E02004800","properties":{"code":"E02004800","geography":"MSOA","name":"New Forest 022"},"type":"Feature"},{"geometry":{"coordinates":[[[-1.5534558,50.7066133],[-1.5795512,50.7177324],[-1.571106,50.7181954],[-1.5649765,50.7209784],[-1.5674411,50.7224891],[-1.5603868,50.7211078],[-1.5545954,50.7233889],[-1.5543916,50.7238164],[-1.5525239,50.7277343],[-1.5455446,50.7270203],[-1.5310827,50.7370277],[-1.533427,50.7414102],[-1.5343823,50.7412269],[-1.5413605,50.7399129],[-1.5352455,50.7418141],[-1.5373358,50.7451353],[-1.5306601,50.7424504],[-1.5259338,50.7445311],[-1.5258753,50.7494822],[-1.5316688,50.7487413],[-1.5299384,50.7506351],[-1.5329738,50.7510274],[-1.5372351,50.7481616],[-1.5368685,50.7506873],[-1.5435837,50.7525405],[-1.5425595,50.7555537],[-1.5464805,50.7546713],[-1.5452673,50.7516354],[-1.5473565,50.7559515],[-1.5515938,50.7547187],[-1.565859,50.7473189],[-1.5699609,50.7494908],[-1.5667249,50.7458484],[-1.5720046,50.7446886],[-1.5991351,50.7443784],[-1.621426,50.7402324],[-1.6204351,50.734157],[-1.6256261,50.7339191],[-1.6302584,50.7293497],[-1.615834,50.7261336],[-1.5837061,50.7189784],[-1.5829413,50.7186509],[-1.5820475,50.7182544],[-1.5586574,50.7070818],[-1.5552416,50.7061368],[-1.551165,50.7061092],[-1.5485478,50.7081245],[-1.5513193,50.7108791],[-1.5546591,50.7132395],[-1.5534558,50.7066133]]],"type":"Polygon"},"id":"E02004801","properties":{"code":"E02004801","geography":"MSOA","name":"New Forest 023"},"type":"Feature"}],"type":"FeatureCollection"}
