{"features":[{"geometry":{"coordinates":[[[-0.2921102,53.6132454],[-0.2982323,53.6125397],[-0.3009254,53.6163661],[-0.3085503,53.6143068],[-0.3007386,53.5952616],[-0.3035133,53.5908091],[-0.3108634,53.5901323],[-0.3358247,53.5586639],[-0.3486554,53.5594915],[-0.3480267,53.5560612],[-0.3562811,53.5560331],[-0.4173445,53.5632433],[-0.4287704,53.5743946],[-0.4394039,53.5702721],[-0.4507034,53.5579775],[-0.4568492,53.5592798],[-0.465625,53.5560001],[-0.467015,53.54894],[-0.4764798,53.5458568],[-0.4909031,53.5458383],[-0.5012262,53.5374401],[-0.4306969,53.5463031],[-0.4218677,53.5344125],[-0.413492,53.5356827],[-0.4081418,53.5320875],[-0.4050542,53.5175737],[-0.4440251,53.5093501],[-0.475869,53.5089129],[-0.4883853,53.5048057],[-0.4806837,53.4962235],[-0.4877688,53.4877576],[-0.4865742,53.4804575],[-0.4717469,53.4748508],[-0.4650893,53.4538948],[-0.4487141,53.4541491],[-0.4021953,53.4664252],[-0.386175,53.45105],[-0.3692056,53.4562185],[-0.3575138,53.4546372],[-0.3587325,53.4442081],[-0.3501672,53.4450852],[-0.3397116,53.4279977],[-0.3236951,53.4216978],[-0.3074409,53.4193749],[-0.2920376,53.4273587],[-0.2902248,53.4358909],[-0.29493,53.4437342],[-0.2840499,53.448577],[-0.2936578,53.4592706],[-0.233936,53.4710397],[-0.2349184,53.4753825],[-0.2106013,53.4862644],[-0.2040234,53.5085978],[-0.2136196,53.5263351],[-0.2105852,53.531683],[-0.2198148,53.532592],[-0.187489,53.563551],[-0.1951806,53.571596],[-0.2226463,53.568012],[-0.2385263,53.587861],[-0.2513915,53.584631],[-0.2484897,53.5936112],[-0.2544892,53.5924174],[-0.2593447,53.5969426],[-0.2697004,53.5984874],[-0.2829982,53.6044762],[-0.2869566,53.6118097],[-0.2904135,53.61061],[-0.2921102,53.6132454]]],"type":"Polygon"},"id":"E02005492","properties":{"code":"E02005492","geography":"MSOA","name":"West Lindsey 001"},"type":"Feature"},{"geometry":{"coordinates":[[[-0.6288093,53.4888242],[-0.6244785,53.5127997],[-0.6757556,53.5124887],[-0.687378,53.5164111],[-0.7016273,53.5141487],[-0.7395889,53.5199151],[-0.7521107,53.5005094],[-0.768107,53.498905],[-0.775621,53.4890041],[-0.7715654,53.4791808],[-0.7843859,53.4766483],[-0.7843617,53.4633589],[-0.7974804,53.4550434],[-0.8095371,53.4435917],[-0.8205128,53.4407266],[-0.8181196,53.4270733],[-0.8046575,53.4175548],[-0.7884187,53.4143365],[-0.7669208,53.4119704],[-0.7704878,53.408271],[-0.7674436,53.4068872],[-0.7724745,53.4055595],[-0.769971,53.4028657],[-0.7471655,53.4054907],[-0.7491928,53.4090527],[-0.7339254,53.413632],[-0.7491008,53.4101872],[-0.7446412,53.4174099],[-0.7364007,53.4174769],[-0.7358529,53.4212994],[-0.7238846,53.4208946],[-0.718492,53.4274913],[-0.6775585,53.4282534],[-0.6761841,53.4427701],[-0.6565778,53.4400559],[-0.6370314,53.4413834],[-0.6394574,53.4438668],[-0.6297501,53.4581971],[-0.626703,53.461844],[-0.6348803,53.4723643],[-0.6339479,53.485412],[-0.6288093,53.4888242]]],"type":"Polygon"},"id":"E02005493","properties":{"code":"E02005493","geography":"MSOA","name":"West Lindsey 002"},"type":"Feature"},{"geometry":{"coordinates":[[[-0.1318051,53.435913],[-0.1342456,53.4407138],[-0.1444432,53.4409258],[-0.1492828,53.4468389],[-0.1585427,53.4615941],[-0.1537061,53.4657096],[-0.1817988,53.4686873],[-0.1885618,53.4845139],[-0.2106013,53.4862644],[-0.2349184,53.4753825],[-0.233936,53.4710397],[-0.2936578,53.4592706],[-0.2840499,53.448577],[-0.29493,53.4437342],[-0.2902248,53.4358909],[-0.2920376,53.4273587],[-0.3074409,53.4193749],[-0.3236951,53.4216978],[-0.3397116,53.4279977],[-0.3501672,53.4450852],[-0.3587325,53.4442081],[-0.3575138,53.4546372],[-0.3692056,53.4562185],[-0.386175,53.45105],[-0.4021953,53.4664252],[-0.4487141,53.4541491],[-0.4650893,53.4538948],[-0.4682896,53.4457833],[-0.4587941,53.4382222],[-0.4637183,53.4327127],[-0.4624691,53.4252002],[-0.4483007,53.4136678],[-0.4500934,53.4019803],[-0.4548008,53.4006255],[-0.458349,53.3931014],[-0.4541684,53.384457],[-0.4439359,53.384055],[-0.4059717,53.3866305],[-0.4032241,53.3725969],[-0.3966306,53.3648223],[-0.384785,53.3653912],[-0.3825309,53.3429618],[-0.3874627,53.3405699],[-0.3844996,53.3376584],[-0.38194,53.3400071],[-0.359984,53.3410736],[-0.3455357,53.3228379],[-0.312312,53.3322424],[-0.2993271,53.3253616],[-0.2933126,53.3344528],[-0.2755294,53.3218094],[-0.255252,53.3300159],[-0.2497778,53.3335866],[-0.2558986,53.3441173],[-0.2316344,53.3513748],[-0.2048708,53.3718625],[-0.2234404,53.3858463],[-0.2293929,53.3980341],[-0.2185634,53.3997977],[-0.2081531,53.4093869],[-0.2170617,53.4240835],[-0.2148476,53.4282264],[-0.1986962,53.4310289],[-0.1805215,53.4406781],[-0.1609613,53.4365463],[-0.1318051,53.435913]]],"type":"Polygon"},"id":"E02005494","properties":{"code":"E02005494","geography":"MSOA","name":"West Lindsey 003"},"type":"Feature"},{"geometry":{"coordinates":[[[-0.769971,53.4028657],[-0.7724745,53.4055595],[-0.7674436,53.4068872],[-0.7704878,53.408271],[-0.7669208,53.4119704],[-0.7884187,53.4143365],[-0.7905097,53.4082527],[-0.7775872,53.3974283],[-0.776456,53.3913147],[-0.7904269,53.3857619],[-0.7755682,53.3773814],[-0.7357416,53.3824254],[-0.7338411,53.3895671],[-0.7379109,53.3927656],[-0.7520783,53.3874471],[-0.7617318,53.3874541],[-0.7619811,53.3931692],[-0.7705056,53.3930326],[-0.769971,53.4028657]]],"type":"Polygon"},"id":"E02005495","properties":{"code":"E02005495","geography":"MSOA","name":"West Lindsey 004"},"type":"Feature"},{"geometry":{"coordinates":[[[-0.4650893,53.4538948],[-0.4717469,53.4748508],[-0.556964,53.4589872],[-0.5994774,53.45638],[-0.6297501,53.4581971],[-0.6394574,53.4438668],[-0.6370314,53.4413834],[-0.6565778,53.4400559],[-0.6761841,53.4427701],[-0.6775585,53.4282534],[-0.718492,53.4274913],[-0.7238846,53.4208946],[-0.7358529,53.4212994],[-0.7364007,53.4174769],[-0.7446412,53.4174099],[-0.7491008,53.4101872],[-0.7339254,53.413632],[-0.7491928,53.4090527],[-0.7471655,53.4054907],[-0.7448009,53.3962911],[-0.7393682,53.396407],[-0.7379109,53.3927656],[-0.7338411,53.3895671],[-0.7357416,53.3824254],[-0.7266417,53.3811415],[-0.6996649,53.3869021],[-0.7028555,53.3824476],[-0.6979594,53.3779384],[-0.646015,53.3813598],[-0.6484535,53.377097],[-0.6430066,53.3682534],[-0.6404236,53.3471916],[-0.606492,53.3495034],[-0.6162664,53.3322569],[-0.5437812,53.3348812],[-0.5445824,53.3462472],[-0.4538857,53.3584339],[-0.4583483,53.3697303],[-0.4454084,53.3781025],[-0.4439359,53.384055],[-0.4541684,53.384457],[-0.458349,53.3931014],[-0.4548008,53.4006255],[-0.4500934,53.4019803],[-0.4483007,53.4136678],[-0.4624691,53.4252002],[-0.4637183,53.4327127],[-0.4587941,53.4382222],[-0.4682896,53.4457833],[-0.4650893,53.4538948]]],"type":"Polygon"},"id":"E02005496","properties":{"code":"E02005496","geography":"MSOA","name":"West Lindsey 005"},"type":"Feature"},{"geometry":{"coordinates":[[[-0.7379109,53.3927656],[-0.7393682,53.396407],[-0.7448009,53.3962911],[-0.7471655,53.4054907],[-0.769971,53.4028657],[-0.7705056,53.3930326],[-0.7619811,53.3931692],[-0.7617318,53.3874541],[-0.7520783,53.3874471],[-0.7379109,53.3927656]]],"type":"Polygon"},"id":"E02005497","properties":{"code":"E02005497","geography":"MSOA","name":"West Lindsey 006"},"type":"Feature"},{"geometry":{"coordinates":[[[-0.6162664,53.3322569],[-0.606492,53.3495034],[-0.6404236,53.3471916],[-0.6430066,53.3682534],[-0.6484535,53.377097],[-0.646015,53.3813598],[-0.6979594,53.3779384],[-0.7028555,53.3824476],[-0.6996649,53.3869021],[-0.7266417,53.3811415],[-0.7357416,53.3824254],[-0.7755682,53.3773814],[-0.7860354,53.3745317],[-0.7911317,53.3635304],[-0.7806838,53.3612324],[-0.7744583,53.3644113],[-0.7586866,53.3539079],[-0.7647907,53.3460351],[-0.756719,53.3396544],[-0.7664733,53.3300862],[-0.7600174,53.3246291],[-0.7500516,53.3242959],[-0.7536857,53.3202306],[-0.7532946,53.3104192],[-0.7471376,53.3043122],[-0.750331,53.2942524],[-0.7578848,53.2927961],[-0.7592998,53.2985072],[-0.7635022,53.2994161],[-0.7662711,53.2925036],[-0.7781692,53.2837331],[-0.7642802,53.272718],[-0.7730993,53.260715],[-0.7701767,53.2530762],[-0.7784878,53.2519711],[-0.7770754,53.246887],[-0.7350854,53.2438526],[-0.7341518,53.2539828],[-0.7129761,53.2581162],[-0.691783,53.2578565],[-0.6811287,53.2632014],[-0.6774792,53.274974],[-0.6797016,53.2782284],[-0.6909957,53.2805724],[-0.6970887,53.2992441],[-0.6676356,53.301917],[-0.6441936,53.2978478],[-0.6383447,53.3100596],[-0.6440086,53.3180008],[-0.6369274,53.3254847],[-0.6441165,53.3306394],[-0.6162664,53.3322569]]],"type":"Polygon"},"id":"E02005498","properties":{"code":"E02005498","geography":"MSOA","name":"West Lindsey 007"},"type":"Feature"},{"geometry":{"coordinates":[[[-0.3455357,53.3228379],[-0.359984,53.3410736],[-0.38194,53.3400071],[-0.3844996,53.3376584],[-0.3874627,53.3405699],[-0.3825309,53.3429618],[-0.384785,53.3653912],[-0.3966306,53.3648223],[-0.4032241,53.3725969],[-0.4059717,53.3866305],[-0.4439359,53.384055],[-0.4454084,53.3781025],[-0.4583483,53.3697303],[-0.4538857,53.3584339],[-0.5445824,53.3462472],[-0.5437812,53.3348812],[-0.5408396,53.2908997],[-0.5109695,53.2936141],[-0.5106612,53.2885337],[-0.477467,53.289939],[-0.4152683,53.2982308],[-0.4230609,53.3007964],[-0.424114,53.3047096],[-0.3975753,53.3090283],[-0.3853243,53.3007455],[-0.3597891,53.3058008],[-0.3612153,53.310335],[-0.3416196,53.3125983],[-0.3455357,53.3228379]]],"type":"Polygon"},"id":"E02005499","properties":{"code":"E02005499","geography":"MSOA","name":"West Lindsey 008"},"type":"Feature"},{"geometry":{"coordinates":[[[-0.5408396,53.2908997],[-0.5437812,53.3348812],[-0.6162664,53.3322569],[-0.6441165,53.3306394],[-0.6369274,53.3254847],[-0.6440086,53.3180008],[-0.6383447,53.3100596],[-0.6441936,53.2978478],[-0.6676356,53.301917],[-0.6970887,53.2992441],[-0.6909957,53.2805724],[-0.6797016,53.2782284],[-0.6774792,53.274974],[-0.6811287,53.2632014],[-0.691783,53.2578565],[-0.6880279,53.2583701],[-0.6665782,53.2396808],[-0.6484643,53.2433923],[-0.6483781,53.2531462],[-0.6224813,53.2581091],[-0.6114744,53.2564029],[-0.5951121,53.2451487],[-0.5546635,53.252131],[-0.5385802,53.2545398],[-0.5408396,53.2908997]]],"type":"Polygon"},"id":"E02005500","properties":{"code":"E02005500","geography":"MSOA","name":"West Lindsey 009"},"type":"Feature"},{"geometry":{"coordinates":[[[-0.4756856,53.2271352],[-0.4769148,53.2531866],[-0.4042,53.2769358],[-0.4166334,53.2845703],[-0.4103647,53.2962853],[-0.4152683,53.2982308],[-0.477467,53.289939],[-0.5106612,53.2885337],[-0.5109695,53.2936141],[-0.5408396,53.2908997],[-0.5385802,53.2545398],[-0.5267075,53.2537974],[-0.5142728,53.2540025],[-0.4975986,53.2491844],[-0.495814,53.2438011],[-0.4950837,53.2252815],[-0.4756856,53.2271352]]],"type":"Polygon"},"id":"E02005501","properties":{"code":"E02005501","geography":"MSOA","name":"West Lindsey 010"},"type":"Feature"},{"geometry":{"coordinates":[[[-0.2993271,53.3253616],[-0.312312,53.3322424],[-0.3455357,53.3228379],[-0.3416196,53.3125983],[-0.3612153,53.310335],[-0.3597891,53.3058008],[-0.3853243,53.3007455],[-0.3975753,53.3090283],[-0.424114,53.3047096],[-0.4230609,53.3007964],[-0.4152683,53.2982308],[-0.4103647,53.2962853],[-0.4166334,53.2845703],[-0.4042,53.2769358],[-0.4769148,53.2531866],[-0.4756856,53.2271352],[-0.4711067,53.2272407],[-0.3818692,53.2319348],[-0.3669864,53.2254148],[-0.3524351,53.227898],[-0.3467411,53.214631],[-0.3368206,53.2084455],[-0.337122,53.2029794],[-0.3300631,53.2011096],[-0.3194075,53.1849251],[-0.2896543,53.1793419],[-0.2908966,53.1946433],[-0.3021943,53.210405],[-0.28913,53.222758],[-0.2798221,53.2266023],[-0.2760271,53.2342637],[-0.2824737,53.2400069],[-0.2802404,53.2497378],[-0.2909047,53.2547408],[-0.2871427,53.2575054],[-0.2917285,53.2609648],[-0.3004351,53.2620638],[-0.289819,53.2639645],[-0.3008265,53.2639494],[-0.2991105,53.2685876],[-0.3048317,53.2692941],[-0.301874,53.2752365],[-0.316571,53.2795038],[-0.3114562,53.2876392],[-0.317461,53.298227],[-0.2955734,53.3029579],[-0.3102609,53.3199784],[-0.2993271,53.3253616]]],"type":"Polygon"},"id":"E02005502","properties":{"code":"E02005502","geography":"MSOA","name":"West Lindsey 011"},"type":"Feature"}],"type":"FeatureCollection"}
