{"features":[{"geometry":{"coordinates":[[[-0.2117532,51.1313342],[-0.2003026,51.1390967],[-0.2408516,51.1431185],[-0.2546403,51.1390543],[-0.2732722,51.1308596],[-0.2864162,51.1304964],[-0.2968537,51.1256829],[-0.3193593,51.1246408],[-0.3298202,51.1073552],[-0.3195426,51.1113793],[-0.2969939,51.1074087],[-0.3012693,51.0901838],[-0.2874634,51.089726],[-0.2843008,51.0872084],[-0.2919902,51.0782881],[-0.2938448,51.0746411],[-0.3041728,51.0731766],[-0.3008088,51.0690498],[-0.2845942,51.0726783],[-0.2891193,51.0697716],[-0.285426,51.0557684],[-0.2923966,51.0553701],[-0.2912119,51.0514025],[-0.272752,51.055884],[-0.2722463,51.0519195],[-0.2621268,51.0470545],[-0.251637,51.0511733],[-0.2489487,51.0570046],[-0.2412189,51.0592195],[-0.2262872,51.072649],[-0.2125932,51.0753648],[-0.2120047,51.0865879],[-0.2118357,51.0919364],[-0.2177174,51.0919381],[-0.2193995,51.09957],[-0.2325186,51.0973555],[-0.2314526,51.1078107],[-0.2360274,51.1110748],[-0.2228145,51.1148714],[-0.2191023,51.1278725],[-0.2117532,51.1313342]]],"type":"Polygon"},"id":"E02006588","properties":{"code":"E02006588","geography":"MSOA","name":"Horsham 001"},"type":"Feature"},{"geometry":{"coordinates":[[[-0.2919902,51.0782881],[-0.2843008,51.0872084],[-0.2874634,51.089726],[-0.3012693,51.0901838],[-0.2969939,51.1074087],[-0.3195426,51.1113793],[-0.3298202,51.1073552],[-0.3305186,51.0948732],[-0.3239789,51.0847804],[-0.3129783,51.0863328],[-0.3163817,51.0802673],[-0.3240578,51.0791414],[-0.3190522,51.0755581],[-0.3222742,51.0742306],[-0.3172434,51.0690732],[-0.3100878,51.0785211],[-0.3100922,51.0751499],[-0.3074885,51.0779826],[-0.3042264,51.0754476],[-0.2977698,51.0794394],[-0.2919902,51.0782881]]],"type":"Polygon"},"id":"E02006589","properties":{"code":"E02006589","geography":"MSOA","name":"Horsham 002"},"type":"Feature"},{"geometry":{"coordinates":[[[-0.3193593,51.1246408],[-0.3264534,51.1258189],[-0.3505219,51.1182768],[-0.3580596,51.1210341],[-0.3846568,51.1147452],[-0.3980008,51.095418],[-0.3837929,51.0905264],[-0.368359,51.0724801],[-0.3611526,51.0714872],[-0.3659511,51.0694782],[-0.3564169,51.064528],[-0.3441428,51.0753172],[-0.3380644,51.0789832],[-0.3314725,51.0770458],[-0.3299943,51.0735396],[-0.3322912,51.0757287],[-0.3343315,51.0724374],[-0.3289263,51.0671989],[-0.3222742,51.0742306],[-0.3190522,51.0755581],[-0.3240578,51.0791414],[-0.3163817,51.0802673],[-0.3129783,51.0863328],[-0.3239789,51.0847804],[-0.3305186,51.0948732],[-0.3298202,51.1073552],[-0.3193593,51.1246408]]],"type":"Polygon"},"id":"E02006590","properties":{"code":"E02006590","geography":"MSOA","name":"Horsham 003"},"type":"Feature"},{"geometry":{"coordinates":[[[-0.2919902,51.0782881],[-0.2977698,51.0794394],[-0.3042264,51.0754476],[-0.3074885,51.0779826],[-0.3100922,51.0751499],[-0.3100878,51.0785211],[-0.3172434,51.0690732],[-0.3155821,51.0654166],[-0.3191971,51.0657299],[-0.320532,51.0621241],[-0.3069765,51.0607051],[-0.3008088,51.0690498],[-0.3041728,51.0731766],[-0.2938448,51.0746411],[-0.2919902,51.0782881]]],"type":"Polygon"},"id":"E02006591","properties":{"code":"E02006591","geography":"MSOA","name":"Horsham 004"},"type":"Feature"},{"geometry":{"coordinates":[[[-0.3846568,51.1147452],[-0.3915505,51.1165149],[-0.400244,51.1084237],[-0.419229,51.1052085],[-0.4384612,51.0979124],[-0.4425283,51.0981321],[-0.4388521,51.1003017],[-0.4414689,51.1033014],[-0.4448744,51.0995969],[-0.4885437,51.0973448],[-0.4921514,51.0944886],[-0.4865033,51.0702016],[-0.4784474,51.0665395],[-0.4845616,51.0624733],[-0.4838295,51.0564881],[-0.4756789,51.0564126],[-0.4776299,51.0500019],[-0.4600209,51.0494565],[-0.457581,51.0549576],[-0.4488478,51.0486648],[-0.4445883,51.0517907],[-0.4323508,51.0486696],[-0.4279932,51.0522621],[-0.4194829,51.0446639],[-0.4096218,51.0435171],[-0.4137923,51.0349379],[-0.4096518,51.0337387],[-0.4111071,51.0231239],[-0.3881771,51.020982],[-0.3879314,51.0245326],[-0.3812912,51.0228769],[-0.3816109,51.025813],[-0.378832,51.0353817],[-0.3621838,51.0519393],[-0.3755938,51.0661743],[-0.368359,51.0724801],[-0.3837929,51.0905264],[-0.3980008,51.095418],[-0.3846568,51.1147452]]],"type":"Polygon"},"id":"E02006592","properties":{"code":"E02006592","geography":"MSOA","name":"Horsham 005"},"type":"Feature"},{"geometry":{"coordinates":[[[-0.3222742,51.0742306],[-0.3289263,51.0671989],[-0.3343315,51.0724374],[-0.3322912,51.0757287],[-0.3299943,51.0735396],[-0.3314725,51.0770458],[-0.3380644,51.0789832],[-0.3441428,51.0753172],[-0.3377656,51.07194],[-0.3401471,51.0689336],[-0.3350577,51.0677824],[-0.3438441,51.0623247],[-0.3343099,51.0567123],[-0.3240767,51.0609064],[-0.3088575,51.0573319],[-0.3069765,51.0607051],[-0.320532,51.0621241],[-0.3191971,51.0657299],[-0.3155821,51.0654166],[-0.3172434,51.0690732],[-0.3222742,51.0742306]]],"type":"Polygon"},"id":"E02006593","properties":{"code":"E02006593","geography":"MSOA","name":"Horsham 006"},"type":"Feature"},{"geometry":{"coordinates":[[[-0.3343099,51.0567123],[-0.3438441,51.0623247],[-0.3350577,51.0677824],[-0.3401471,51.0689336],[-0.3377656,51.07194],[-0.3441428,51.0753172],[-0.3564169,51.064528],[-0.3659511,51.0694782],[-0.3611526,51.0714872],[-0.368359,51.0724801],[-0.3755938,51.0661743],[-0.3621838,51.0519393],[-0.3500299,51.056326],[-0.3343099,51.0567123]]],"type":"Polygon"},"id":"E02006594","properties":{"code":"E02006594","geography":"MSOA","name":"Horsham 007"},"type":"Feature"},{"geometry":{"coordinates":[[[-0.2455255,51.0141365],[-0.2366767,51.021088],[-0.2491086,51.0249513],[-0.2471132,51.0334324],[-0.2292642,51.0379116],[-0.2265497,51.0346205],[-0.2240853,51.0379391],[-0.2191862,51.0379263],[-0.226785,51.0415725],[-0.2194323,51.0517861],[-0.2226552,51.0602148],[-0.2118476,51.0644565],[-0.2125932,51.0753648],[-0.2262872,51.072649],[-0.2412189,51.0592195],[-0.2489487,51.0570046],[-0.251637,51.0511733],[-0.2621268,51.0470545],[-0.2722463,51.0519195],[-0.272752,51.055884],[-0.2912119,51.0514025],[-0.2923966,51.0553701],[-0.285426,51.0557684],[-0.2891193,51.0697716],[-0.2845942,51.0726783],[-0.3008088,51.0690498],[-0.3069765,51.0607051],[-0.3088575,51.0573319],[-0.3240767,51.0609064],[-0.3343099,51.0567123],[-0.3500299,51.056326],[-0.3621838,51.0519393],[-0.378832,51.0353817],[-0.3816109,51.025813],[-0.3735039,51.025134],[-0.372041,51.0204885],[-0.3596838,51.0185548],[-0.361193,51.0307889],[-0.3461997,51.0446524],[-0.3367606,51.0208355],[-0.3382213,51.0151526],[-0.3353305,51.0070834],[-0.3285767,51.0069519],[-0.327873,51.0021755],[-0.3167346,51.0035894],[-0.3140301,50.9986617],[-0.3053388,51.0001277],[-0.3048249,51.0035871],[-0.2951359,51.0032312],[-0.2831817,51.0114934],[-0.2658471,51.0113795],[-0.2637299,51.0059927],[-0.2546423,51.0049921],[-0.2455255,51.0141365]]],"type":"Polygon"},"id":"E02006595","properties":{"code":"E02006595","geography":"MSOA","name":"Horsham 008"},"type":"Feature"},{"geometry":{"coordinates":[[[-0.3382213,51.0151526],[-0.3367606,51.0208355],[-0.3461997,51.0446524],[-0.361193,51.0307889],[-0.3596838,51.0185548],[-0.3506445,51.0134988],[-0.3382213,51.0151526]]],"type":"Polygon"},"id":"E02006596","properties":{"code":"E02006596","geography":"MSOA","name":"Horsham 009"},"type":"Feature"},{"geometry":{"coordinates":[[[-0.457581,51.0549576],[-0.4600209,51.0494565],[-0.4776299,51.0500019],[-0.4839532,51.0409968],[-0.4811895,51.0381336],[-0.4760867,51.0387732],[-0.4732199,51.0338553],[-0.4759187,51.0208896],[-0.4865942,51.0167522],[-0.4862459,51.0101119],[-0.4969212,51.011139],[-0.5051558,51.0060558],[-0.5105614,51.0079495],[-0.5176697,50.99856],[-0.5088303,50.9961],[-0.501115,50.9956982],[-0.4958247,50.9992013],[-0.4740725,50.9945568],[-0.4626488,50.9937622],[-0.4607031,50.9965262],[-0.4483073,50.9934233],[-0.4426347,50.9876301],[-0.4308292,51.0027764],[-0.4241996,51.0025371],[-0.4207858,51.0066339],[-0.4170879,51.0032951],[-0.413803,51.0029079],[-0.4185771,50.9917317],[-0.4191724,50.9903377],[-0.4167667,50.9899048],[-0.4073849,50.9882161],[-0.4129099,50.9735194],[-0.404754,50.9743912],[-0.4046116,50.9644115],[-0.3912777,50.9641245],[-0.3951486,50.9521233],[-0.3876798,50.9486769],[-0.3890596,50.9455719],[-0.3828832,50.9407641],[-0.3667399,50.9484668],[-0.3733957,50.9526866],[-0.369396,50.959167],[-0.3778764,50.961724],[-0.3780234,50.9656452],[-0.3735448,50.9700704],[-0.3645291,50.9721083],[-0.3620225,50.9766704],[-0.3425406,50.9740538],[-0.3353305,51.0070834],[-0.3382213,51.0151526],[-0.3506445,51.0134988],[-0.3596838,51.0185548],[-0.372041,51.0204885],[-0.3735039,51.025134],[-0.3816109,51.025813],[-0.3812912,51.0228769],[-0.3879314,51.0245326],[-0.3881771,51.020982],[-0.4111071,51.0231239],[-0.4096518,51.0337387],[-0.4137923,51.0349379],[-0.4096218,51.0435171],[-0.4194829,51.0446639],[-0.4279932,51.0522621],[-0.4323508,51.0486696],[-0.4445883,51.0517907],[-0.4488478,51.0486648],[-0.457581,51.0549576]]],"type":"Polygon"},"id":"E02006597","properties":{"code":"E02006597","geography":"MSOA","name":"Horsham 010"},"type":"Feature"},{"geometry":{"coordinates":[[[-0.236276,50.9928372],[-0.2320426,51.0108513],[-0.2455255,51.0141365],[-0.2546423,51.0049921],[-0.2637299,51.0059927],[-0.2658471,51.0113795],[-0.2831817,51.0114934],[-0.2951359,51.0032312],[-0.3048249,51.0035871],[-0.3053388,51.0001277],[-0.3140301,50.9986617],[-0.3167346,51.0035894],[-0.327873,51.0021755],[-0.3285767,51.0069519],[-0.3353305,51.0070834],[-0.3425406,50.9740538],[-0.3620225,50.9766704],[-0.3645291,50.9721083],[-0.3735448,50.9700704],[-0.3780234,50.9656452],[-0.3778764,50.961724],[-0.369396,50.959167],[-0.3733957,50.9526866],[-0.3667399,50.9484668],[-0.365627,50.9511646],[-0.3570412,50.9515182],[-0.3507337,50.9421571],[-0.3398661,50.9438287],[-0.3327775,50.9486676],[-0.3130854,50.9478984],[-0.301216,50.9372573],[-0.2917067,50.9482171],[-0.2662366,50.956638],[-0.252028,50.9563298],[-0.2445935,50.9495311],[-0.238774,50.9500541],[-0.241103,50.9718095],[-0.2295741,50.9869102],[-0.2309916,50.9891825],[-0.2418475,50.9867592],[-0.2420238,50.9907305],[-0.236276,50.9928372]]],"type":"Polygon"},"id":"E02006598","properties":{"code":"E02006598","geography":"MSOA","name":"Horsham 011"},"type":"Feature"},{"geometry":{"coordinates":[[[-0.4170879,51.0032951],[-0.4207858,51.0066339],[-0.4241996,51.0025371],[-0.4308292,51.0027764],[-0.4426347,50.9876301],[-0.4483073,50.9934233],[-0.4607031,50.9965262],[-0.4626488,50.9937622],[-0.4740725,50.9945568],[-0.4958247,50.9992013],[-0.501115,50.9956982],[-0.5088303,50.9961],[-0.5073855,50.9904007],[-0.5212152,50.9903186],[-0.5232951,50.981941],[-0.528838,50.9791062],[-0.5266784,50.9740276],[-0.5307485,50.9670888],[-0.5268224,50.9639314],[-0.5352136,50.9572554],[-0.5323319,50.9532726],[-0.524258,50.9534448],[-0.5163963,50.9603003],[-0.5213991,50.9636327],[-0.4954495,50.9720729],[-0.4939534,50.9584708],[-0.4979174,50.9530195],[-0.4857588,50.9521791],[-0.4686667,50.9422461],[-0.4726398,50.9384241],[-0.4697966,50.9337426],[-0.4742316,50.9302221],[-0.4705667,50.9231627],[-0.4738303,50.9212541],[-0.469385,50.9219962],[-0.4663725,50.9179937],[-0.4671719,50.9200444],[-0.4606921,50.9192168],[-0.4602858,50.9246843],[-0.4509988,50.9189813],[-0.4504566,50.9228201],[-0.4439897,50.9219586],[-0.4464755,50.9257259],[-0.4580864,50.9258197],[-0.4590309,50.9306655],[-0.4572386,50.9351279],[-0.4462558,50.9363375],[-0.4478053,50.9404921],[-0.4418212,50.9404583],[-0.4369227,50.9538931],[-0.4222399,50.9719083],[-0.4154841,50.9886104],[-0.4182115,50.9895459],[-0.4199098,50.9904897],[-0.4191455,50.9938407],[-0.4239134,50.9971157],[-0.4170879,51.0032951]]],"type":"Polygon"},"id":"E02006599","properties":{"code":"E02006599","geography":"MSOA","name":"Horsham 012"},"type":"Feature"},{"geometry":{"coordinates":[[[-0.4439897,50.9219586],[-0.4504566,50.9228201],[-0.4509988,50.9189813],[-0.4602858,50.9246843],[-0.4606921,50.9192168],[-0.4671719,50.9200444],[-0.4663725,50.9179937],[-0.469385,50.9219962],[-0.4738303,50.9212541],[-0.4705667,50.9231627],[-0.4742316,50.9302221],[-0.4697966,50.9337426],[-0.4726398,50.9384241],[-0.4686667,50.9422461],[-0.4857588,50.9521791],[-0.4979174,50.9530195],[-0.4939534,50.9584708],[-0.4954495,50.9720729],[-0.5213991,50.9636327],[-0.5163963,50.9603003],[-0.524258,50.9534448],[-0.5323319,50.9532726],[-0.5379427,50.948205],[-0.5443489,50.9481465],[-0.5469158,50.9544932],[-0.5595481,50.9514761],[-0.5687883,50.9424206],[-0.5683887,50.9342555],[-0.5576432,50.9290737],[-0.5560886,50.9234843],[-0.5369916,50.9167609],[-0.5364233,50.9133814],[-0.5515218,50.9132576],[-0.5559188,50.9051663],[-0.5531259,50.9015246],[-0.5435787,50.8981055],[-0.5429873,50.8912238],[-0.5461995,50.8896191],[-0.5487027,50.8930245],[-0.5610605,50.887858],[-0.5492502,50.8801641],[-0.5438193,50.8813258],[-0.5471614,50.8845222],[-0.5382013,50.8862306],[-0.5328471,50.8811587],[-0.5248144,50.8829919],[-0.5193025,50.8898216],[-0.5149496,50.8889506],[-0.499941,50.8998903],[-0.49314,50.8852708],[-0.4929196,50.8925955],[-0.4802888,50.8984517],[-0.4820433,50.8943899],[-0.4753032,50.8943515],[-0.4766113,50.8850635],[-0.4692228,50.8847465],[-0.453798,50.9111133],[-0.4462799,50.9152362],[-0.4426788,50.9120395],[-0.4439897,50.9219586]]],"type":"Polygon"},"id":"E02006600","properties":{"code":"E02006600","geography":"MSOA","name":"Horsham 013"},"type":"Feature"},{"geometry":{"coordinates":[[[-0.238774,50.9500541],[-0.2445935,50.9495311],[-0.252028,50.9563298],[-0.2662366,50.956638],[-0.2917067,50.9482171],[-0.301216,50.9372573],[-0.3130854,50.9478984],[-0.3327775,50.9486676],[-0.3398661,50.9438287],[-0.3507337,50.9421571],[-0.3558093,50.9345037],[-0.3528596,50.9300919],[-0.3590337,50.9292979],[-0.3610239,50.9244957],[-0.3492359,50.9257712],[-0.3449273,50.9201138],[-0.3504375,50.9185902],[-0.3526379,50.9119528],[-0.3466295,50.8948699],[-0.3368444,50.8924816],[-0.3427084,50.8893945],[-0.3404307,50.8879108],[-0.3328885,50.8893559],[-0.335716,50.8923054],[-0.3319693,50.8939922],[-0.3261924,50.8905263],[-0.3245203,50.8941711],[-0.3213334,50.8916095],[-0.312766,50.8937882],[-0.3084449,50.8909277],[-0.3035453,50.8994417],[-0.292936,50.8992898],[-0.2912777,50.906093],[-0.2772395,50.9039242],[-0.2773374,50.8977288],[-0.2633908,50.8966046],[-0.2600261,50.9038997],[-0.2441818,50.9073691],[-0.2238108,50.9117897],[-0.2292604,50.9188045],[-0.2319704,50.9358202],[-0.224483,50.9429507],[-0.2248395,50.9484698],[-0.238774,50.9500541]]],"type":"Polygon"},"id":"E02006601","properties":{"code":"E02006601","geography":"MSOA","name":"Horsham 014"},"type":"Feature"},{"geometry":{"coordinates":[[[-0.4185771,50.9917317],[-0.413803,51.0029079],[-0.4170879,51.0032951],[-0.4239134,50.9971157],[-0.4191455,50.9938407],[-0.4199098,50.9904897],[-0.4182115,50.9895459],[-0.4154841,50.9886104],[-0.4222399,50.9719083],[-0.4369227,50.9538931],[-0.4418212,50.9404583],[-0.4478053,50.9404921],[-0.4462558,50.9363375],[-0.4572386,50.9351279],[-0.4590309,50.9306655],[-0.4580864,50.9258197],[-0.4464755,50.9257259],[-0.4439897,50.9219586],[-0.4426788,50.9120395],[-0.4462799,50.9152362],[-0.453798,50.9111133],[-0.4692228,50.8847465],[-0.4649453,50.8839789],[-0.4553813,50.8968883],[-0.4515264,50.8954748],[-0.4479583,50.8797318],[-0.440009,50.8775349],[-0.4305403,50.8929803],[-0.4271058,50.8930897],[-0.4246714,50.8862231],[-0.4117648,50.8865662],[-0.4131856,50.8795952],[-0.4086447,50.8799111],[-0.3927408,50.8933797],[-0.3800894,50.8856003],[-0.3639219,50.8884861],[-0.3466295,50.8948699],[-0.3526379,50.9119528],[-0.3504375,50.9185902],[-0.3449273,50.9201138],[-0.3492359,50.9257712],[-0.3610239,50.9244957],[-0.3590337,50.9292979],[-0.3528596,50.9300919],[-0.3558093,50.9345037],[-0.3507337,50.9421571],[-0.3570412,50.9515182],[-0.365627,50.9511646],[-0.3667399,50.9484668],[-0.3828832,50.9407641],[-0.3890596,50.9455719],[-0.3876798,50.9486769],[-0.3951486,50.9521233],[-0.3912777,50.9641245],[-0.4046116,50.9644115],[-0.404754,50.9743912],[-0.4129099,50.9735194],[-0.4073849,50.9882161],[-0.4167667,50.9899048],[-0.4191724,50.9903377],[-0.4185771,50.9917317]]],"type":"Polygon"},"id":"E02006602","properties":{"code":"E02006602","geography":"MSOA","name":"Horsham 015"},"type":"Feature"},{"geometry":{"coordinates":[[[-0.2392656,50.867892],[-0.2486869,50.8730772],[-0.2438179,50.8848949],[-0.2441818,50.9073691],[-0.2600261,50.9038997],[-0.2633908,50.8966046],[-0.2773374,50.8977288],[-0.2772395,50.9039242],[-0.2912777,50.906093],[-0.292936,50.8992898],[-0.3035453,50.8994417],[-0.3084449,50.8909277],[-0.312766,50.8937882],[-0.3213334,50.8916095],[-0.3245203,50.8941711],[-0.3261924,50.8905263],[-0.3319693,50.8939922],[-0.335716,50.8923054],[-0.3328885,50.8893559],[-0.3404307,50.8879108],[-0.3427084,50.8893945],[-0.3368444,50.8924816],[-0.3466295,50.8948699],[-0.3639219,50.8884861],[-0.3646235,50.8745327],[-0.3433623,50.8629139],[-0.3076251,50.8665114],[-0.300016,50.8648025],[-0.2760894,50.8634324],[-0.2566063,50.8623418],[-0.2589616,50.8712137],[-0.2553302,50.8715579],[-0.2490052,50.8706547],[-0.2485003,50.8641431],[-0.2449983,50.8638153],[-0.2392656,50.867892]]],"type":"Polygon"},"id":"E02006603","properties":{"code":"E02006603","geography":"MSOA","name":"Horsham 016"},"type":"Feature"}],"type":"FeatureCollection"}
