{"features":[{"geometry":{"coordinates":[[[-1.0129239,53.2416234],[-1.0235503,53.2477831],[-1.0274513,53.260817],[-1.052147,53.2521806],[-1.072485,53.2408866],[-1.1032985,53.235588],[-1.095601,53.2325427],[-1.0947652,53.2285943],[-1.0973212,53.2195236],[-1.1039424,53.2192297],[-1.1042405,53.2088365],[-1.0921726,53.210783],[-1.0575366,53.2093245],[-1.047481,53.2145781],[-1.0237021,53.2124577],[-1.0276026,53.201228],[-1.0348442,53.2037558],[-1.0367203,53.1988669],[-1.0273375,53.1980395],[-1.0331495,53.1932344],[-1.0330085,53.1834252],[-1.005966,53.1889245],[-0.9902228,53.1977311],[-0.9708175,53.2028401],[-0.9804819,53.2055816],[-0.9737016,53.211478],[-0.9776707,53.2172647],[-0.9700966,53.2186705],[-1.0044673,53.2246065],[-1.0066532,53.2360117],[-1.0136112,53.2375921],[-1.0129239,53.2416234]]],"type":"Polygon"},"id":"E02005893","properties":{"code":"E02005893","geography":"MSOA","name":"Newark and Sherwood 001"},"type":"Feature"},{"geometry":{"coordinates":[[[-1.0330085,53.1834252],[-1.0331495,53.1932344],[-1.0273375,53.1980395],[-1.0367203,53.1988669],[-1.0348442,53.2037558],[-1.0276026,53.201228],[-1.0237021,53.2124577],[-1.047481,53.2145781],[-1.0575366,53.2093245],[-1.0921726,53.210783],[-1.1042405,53.2088365],[-1.1150831,53.1950145],[-1.1361214,53.1886659],[-1.1529856,53.175306],[-1.1520017,53.1727321],[-1.1462583,53.169275],[-1.1189699,53.1544272],[-1.1110586,53.1534088],[-1.0810734,53.1584899],[-1.0729508,53.1669237],[-1.0330085,53.1834252]]],"type":"Polygon"},"id":"E02005894","properties":{"code":"E02005894","geography":"MSOA","name":"Newark and Sherwood 002"},"type":"Feature"},{"geometry":{"coordinates":[[[-0.7803667,53.1963767],[-0.7900791,53.1991256],[-0.7872942,53.2045443],[-0.8157255,53.2048976],[-0.8215742,53.2013281],[-0.8320626,53.2067088],[-0.8305226,53.2128097],[-0.8369582,53.2136365],[-0.8308002,53.2175442],[-0.8398228,53.2188979],[-0.848215,53.2186408],[-0.8484996,53.2152877],[-0.8578405,53.2121855],[-0.8794125,53.2210461],[-0.8943442,53.2235787],[-0.94768,53.2138137],[-0.9472203,53.2257434],[-0.9574523,53.2318337],[-0.9700048,53.235718],[-1.006589,53.2361031],[-1.0129239,53.2416234],[-1.0136112,53.2375921],[-1.0066532,53.2360117],[-1.0044673,53.2246065],[-0.9700966,53.2186705],[-0.9776707,53.2172647],[-0.9737016,53.211478],[-0.9804819,53.2055816],[-0.9708175,53.2028401],[-0.9902228,53.1977311],[-1.005966,53.1889245],[-1.0012837,53.1763203],[-0.9905826,53.176579],[-0.9716267,53.1690739],[-0.9572131,53.1676745],[-0.9673021,53.158769],[-0.9530764,53.1531671],[-0.9560936,53.1478],[-0.9651623,53.1389869],[-0.9721315,53.1402544],[-0.9824514,53.1336695],[-0.9878823,53.1336321],[-0.9759698,53.1270686],[-0.9774494,53.1202783],[-0.9587483,53.106552],[-0.9447439,53.102378],[-0.945889,53.0972391],[-0.9405655,53.0942818],[-0.9200391,53.0936231],[-0.9140788,53.0934133],[-0.9089978,53.0985816],[-0.9167612,53.1017923],[-0.9134186,53.104563],[-0.9193584,53.1075181],[-0.9047289,53.1150379],[-0.9002293,53.1146971],[-0.8970612,53.1096938],[-0.8676768,53.1050582],[-0.8629868,53.1065235],[-0.8354502,53.0995321],[-0.8208403,53.1072411],[-0.8033864,53.0972399],[-0.7989038,53.1014007],[-0.7930222,53.1079315],[-0.8042206,53.1104551],[-0.8018203,53.116929],[-0.8082984,53.1229425],[-0.8020425,53.1336112],[-0.7960565,53.1330596],[-0.7906555,53.1376712],[-0.7974853,53.151964],[-0.7866345,53.1584916],[-0.7905343,53.1604896],[-0.8002584,53.1581633],[-0.8007422,53.1681734],[-0.7928081,53.1708738],[-0.7885599,53.1677352],[-0.7846035,53.1692327],[-0.7859072,53.1781725],[-0.7953825,53.1810445],[-0.7779272,53.1865023],[-0.7803667,53.1963767]]],"type":"Polygon"},"id":"E02005895","properties":{"code":"E02005895","geography":"MSOA","name":"Newark and Sherwood 003"},"type":"Feature"},{"geometry":{"coordinates":[[[-0.6880279,53.2583701],[-0.691783,53.2578565],[-0.7129761,53.2581162],[-0.7341518,53.2539828],[-0.7350854,53.2438526],[-0.7770754,53.246887],[-0.7834445,53.2259243],[-0.7755752,53.2149373],[-0.7803667,53.1963767],[-0.7779272,53.1865023],[-0.7953825,53.1810445],[-0.7859072,53.1781725],[-0.7846035,53.1692327],[-0.7885599,53.1677352],[-0.7928081,53.1708738],[-0.8007422,53.1681734],[-0.8002584,53.1581633],[-0.7905343,53.1604896],[-0.7866345,53.1584916],[-0.7974853,53.151964],[-0.7906555,53.1376712],[-0.7960565,53.1330596],[-0.8020425,53.1336112],[-0.8082984,53.1229425],[-0.8018203,53.116929],[-0.8042206,53.1104551],[-0.7930222,53.1079315],[-0.7989038,53.1014007],[-0.7746543,53.0836518],[-0.7699321,53.0713161],[-0.7664651,53.0722393],[-0.7616644,53.0659805],[-0.7524438,53.0629226],[-0.7545781,53.056023],[-0.7481961,53.0551419],[-0.7454312,53.0540987],[-0.7309818,53.0543769],[-0.7226021,53.0599007],[-0.716208,53.0590377],[-0.7134706,53.0660255],[-0.7015437,53.063642],[-0.6951364,53.0662691],[-0.69881,53.0677253],[-0.6984863,53.0754464],[-0.7103623,53.0793567],[-0.7061535,53.0833576],[-0.7289228,53.0960883],[-0.7212542,53.1042471],[-0.716886,53.1194226],[-0.731095,53.1239821],[-0.7324104,53.1277805],[-0.7153783,53.1368621],[-0.7232348,53.1550825],[-0.7160302,53.170391],[-0.7181625,53.1772668],[-0.7641398,53.1815229],[-0.7621791,53.188098],[-0.7537067,53.1881313],[-0.7304261,53.2106961],[-0.7147549,53.207587],[-0.6975003,53.2202292],[-0.6758732,53.2176233],[-0.6665782,53.2396808],[-0.6880279,53.2583701]]],"type":"Polygon"},"id":"E02005896","properties":{"code":"E02005896","geography":"MSOA","name":"Newark and Sherwood 004"},"type":"Feature"},{"geometry":{"coordinates":[[[-0.9587483,53.106552],[-0.9774494,53.1202783],[-0.9759698,53.1270686],[-0.9878823,53.1336321],[-0.9824514,53.1336695],[-0.9721315,53.1402544],[-0.9651623,53.1389869],[-0.9560936,53.1478],[-0.9530764,53.1531671],[-0.9673021,53.158769],[-0.9572131,53.1676745],[-0.9716267,53.1690739],[-0.9905826,53.176579],[-1.0012837,53.1763203],[-1.005966,53.1889245],[-1.0330085,53.1834252],[-1.0729508,53.1669237],[-1.0810734,53.1584899],[-1.1110586,53.1534088],[-1.1110949,53.1532258],[-1.0968251,53.1264149],[-1.0976261,53.1161852],[-1.1021283,53.1127522],[-1.0882744,53.0967236],[-1.0836056,53.097002],[-1.0833266,53.0874284],[-1.0895048,53.0780014],[-1.0866766,53.0732142],[-1.0932584,53.0670467],[-1.080674,53.0523985],[-1.0651199,53.044739],[-1.0473359,53.0497224],[-1.0414517,53.0479862],[-1.0343809,53.0584776],[-1.0212489,53.0590005],[-1.0270035,53.0669639],[-1.014261,53.0706982],[-1.0150445,53.0650865],[-0.9984165,53.0753224],[-0.9847448,53.0785723],[-0.9651332,53.0954553],[-0.9678245,53.0971301],[-0.9587483,53.106552]]],"type":"Polygon"},"id":"E02005897","properties":{"code":"E02005897","geography":"MSOA","name":"Newark and Sherwood 005"},"type":"Feature"},{"geometry":{"coordinates":[[[-1.0895048,53.0780014],[-1.0833266,53.0874284],[-1.0836056,53.097002],[-1.0882744,53.0967236],[-1.1021283,53.1127522],[-1.0976261,53.1161852],[-1.0968251,53.1264149],[-1.1110949,53.1532258],[-1.1301449,53.1415995],[-1.1272447,53.1244797],[-1.120428,53.1189044],[-1.1362996,53.1185384],[-1.147126,53.1219368],[-1.1676047,53.1159508],[-1.1778927,53.114791],[-1.1642543,53.1032511],[-1.1599602,53.1039419],[-1.1576712,53.0989915],[-1.139228,53.0996403],[-1.1400648,53.0922872],[-1.1206462,53.0867309],[-1.1301843,53.0735873],[-1.1139634,53.0769931],[-1.0943198,53.0741314],[-1.0895048,53.0780014]]],"type":"Polygon"},"id":"E02005898","properties":{"code":"E02005898","geography":"MSOA","name":"Newark and Sherwood 006"},"type":"Feature"},{"geometry":{"coordinates":[[[-0.7746543,53.0836518],[-0.7989038,53.1014007],[-0.8033864,53.0972399],[-0.8069114,53.0900466],[-0.8194325,53.09302],[-0.8249865,53.0911961],[-0.8238552,53.0861356],[-0.8300903,53.0851006],[-0.8378305,53.0739409],[-0.8295409,53.0712842],[-0.8188464,53.0715092],[-0.8159294,53.0741661],[-0.8151595,53.0702591],[-0.8038726,53.0786776],[-0.8051783,53.0719418],[-0.7992213,53.0696585],[-0.7970199,53.0742719],[-0.7746543,53.0836518]]],"type":"Polygon"},"id":"E02005899","properties":{"code":"E02005899","geography":"MSOA","name":"Newark and Sherwood 007"},"type":"Feature"},{"geometry":{"coordinates":[[[-0.9200391,53.0936231],[-0.9405655,53.0942818],[-0.945889,53.0972391],[-0.9447439,53.102378],[-0.9587483,53.106552],[-0.9678245,53.0971301],[-0.9651332,53.0954553],[-0.9847448,53.0785723],[-0.9984165,53.0753224],[-1.0150445,53.0650865],[-1.014261,53.0706982],[-1.0270035,53.0669639],[-1.0212489,53.0590005],[-1.0023613,53.0564111],[-0.9848512,53.0462137],[-0.9451295,53.0558564],[-0.9285746,53.0633358],[-0.9126239,53.0636931],[-0.9144303,53.0661236],[-0.9064272,53.0720169],[-0.941191,53.0795977],[-0.9344262,53.0868259],[-0.9306183,53.0840013],[-0.9204386,53.0840083],[-0.9200391,53.0936231]]],"type":"Polygon"},"id":"E02005900","properties":{"code":"E02005900","geography":"MSOA","name":"Newark and Sherwood 008"},"type":"Feature"},{"geometry":{"coordinates":[[[-0.7699321,53.0713161],[-0.7746543,53.0836518],[-0.7970199,53.0742719],[-0.7992213,53.0696585],[-0.8051783,53.0719418],[-0.8038726,53.0786776],[-0.8151595,53.0702591],[-0.8083353,53.0677451],[-0.8056708,53.0578522],[-0.7977892,53.0576313],[-0.7954778,53.0643375],[-0.7889925,53.0675561],[-0.7699321,53.0713161]]],"type":"Polygon"},"id":"E02005901","properties":{"code":"E02005901","geography":"MSOA","name":"Newark and Sherwood 009"},"type":"Feature"},{"geometry":{"coordinates":[[[-0.8151595,53.0702591],[-0.8159294,53.0741661],[-0.8188464,53.0715092],[-0.8295409,53.0712842],[-0.8404528,53.0667894],[-0.8303158,53.0621081],[-0.8315401,53.0584717],[-0.8059727,53.0572383],[-0.8056708,53.0578522],[-0.8083353,53.0677451],[-0.8151595,53.0702591]]],"type":"Polygon"},"id":"E02005902","properties":{"code":"E02005902","geography":"MSOA","name":"Newark and Sherwood 010"},"type":"Feature"},{"geometry":{"coordinates":[[[-0.7454312,53.0540987],[-0.7481961,53.0551419],[-0.7545781,53.056023],[-0.7524438,53.0629226],[-0.7616644,53.0659805],[-0.7664651,53.0722393],[-0.7699321,53.0713161],[-0.7889925,53.0675561],[-0.7954778,53.0643375],[-0.7977892,53.0576313],[-0.8056708,53.0578522],[-0.8059727,53.0572383],[-0.8049725,53.0490483],[-0.7972044,53.0427801],[-0.7759281,53.0502846],[-0.7674665,53.0566699],[-0.753442,53.0480347],[-0.7497428,53.0550059],[-0.7496918,53.0551019],[-0.7454312,53.0540987]]],"type":"Polygon"},"id":"E02005903","properties":{"code":"E02005903","geography":"MSOA","name":"Newark and Sherwood 011"},"type":"Feature"},{"geometry":{"coordinates":[[[-0.8033864,53.0972399],[-0.8208403,53.1072411],[-0.8354502,53.0995321],[-0.8629868,53.1065235],[-0.8676768,53.1050582],[-0.8970612,53.1096938],[-0.9002293,53.1146971],[-0.9047289,53.1150379],[-0.9193584,53.1075181],[-0.9134186,53.104563],[-0.9167612,53.1017923],[-0.9089978,53.0985816],[-0.9140788,53.0934133],[-0.9200391,53.0936231],[-0.9204386,53.0840083],[-0.9306183,53.0840013],[-0.9344262,53.0868259],[-0.941191,53.0795977],[-0.9064272,53.0720169],[-0.9144303,53.0661236],[-0.9126239,53.0636931],[-0.9285746,53.0633358],[-0.9451295,53.0558564],[-0.9134682,53.0361668],[-0.9020951,53.0384617],[-0.9101252,53.0359077],[-0.9099576,53.0302068],[-0.8969634,53.0166027],[-0.8797857,53.0063323],[-0.8645583,53.0113232],[-0.855083,53.0066529],[-0.8489706,53.0096353],[-0.8357646,53.0056743],[-0.8333595,53.0077021],[-0.8229225,53.0009642],[-0.8204176,52.9877979],[-0.8151888,52.9856022],[-0.8254528,52.9733118],[-0.8360766,52.9678999],[-0.8200271,52.9604432],[-0.812885,52.9574231],[-0.8098176,52.965958],[-0.796108,52.9766773],[-0.7782844,52.9769013],[-0.7775598,52.9837846],[-0.8001951,53.0021716],[-0.8042156,53.0122609],[-0.7958306,53.0105761],[-0.788419,53.0258319],[-0.7766783,53.0246895],[-0.7608317,53.0293888],[-0.753442,53.0480347],[-0.7674665,53.0566699],[-0.7759281,53.0502846],[-0.7972044,53.0427801],[-0.8049725,53.0490483],[-0.8059727,53.0572383],[-0.8315401,53.0584717],[-0.8303158,53.0621081],[-0.8404528,53.0667894],[-0.8295409,53.0712842],[-0.8378305,53.0739409],[-0.8300903,53.0851006],[-0.8238552,53.0861356],[-0.8249865,53.0911961],[-0.8194325,53.09302],[-0.8069114,53.0900466],[-0.8033864,53.0972399]]],"type":"Polygon"},"id":"E02005904","properties":{"code":"E02005904","geography":"MSOA","name":"Newark and Sherwood 012"},"type":"Feature"},{"geometry":{"coordinates":[[[-0.9451295,53.0558564],[-0.9848512,53.0462137],[-1.0023613,53.0564111],[-1.0212489,53.0590005],[-1.0343809,53.0584776],[-1.0414517,53.0479862],[-1.0473359,53.0497224],[-1.0651199,53.044739],[-1.0567254,53.0353911],[-1.0297332,53.0242369],[-1.0302887,53.0210502],[-1.0530647,53.0147725],[-1.0525037,53.0120171],[-1.0465571,53.0071904],[-1.0342156,53.0049836],[-1.0381147,52.9956498],[-1.0215218,52.9927027],[-1.0168102,52.9887436],[-1.0087687,52.9891847],[-1.007089,52.9854371],[-0.987375,52.9862951],[-0.9779006,52.9856934],[-0.9718792,52.9887926],[-0.9608188,53.0039678],[-0.9373303,53.0144935],[-0.9224469,53.0292169],[-0.9101252,53.0359077],[-0.9020951,53.0384617],[-0.9134682,53.0361668],[-0.9451295,53.0558564]]],"type":"Polygon"},"id":"E02005905","properties":{"code":"E02005905","geography":"MSOA","name":"Newark and Sherwood 013"},"type":"Feature"}],"type":"FeatureCollection"}
