{"features":[{"geometry":{"coordinates":[[[0.3638061,52.0436083],[0.3438276,52.0510021],[0.3246444,52.072771],[0.2876564,52.0898297],[0.2762004,52.0926265],[0.2515435,52.0767747],[0.2351793,52.0889883],[0.2034301,52.0926629],[0.1939422,52.0754698],[0.1831661,52.0731717],[0.1898881,52.0621884],[0.1863454,52.0566505],[0.1938628,52.0597308],[0.203744,52.0513867],[0.2077226,52.0417259],[0.2153164,52.043386],[0.2206273,52.0339382],[0.2162215,52.0324813],[0.2203673,52.0247355],[0.2158756,52.0191468],[0.2196291,52.0165601],[0.2155839,52.0048375],[0.2251369,52.0043132],[0.2325171,52.0144929],[0.2384472,52.0134305],[0.2407422,52.0170119],[0.2458629,52.0168393],[0.2446023,52.0195234],[0.2363321,52.0182069],[0.2374292,52.0215412],[0.2340487,52.0218753],[0.2338206,52.0251511],[0.2425084,52.028741],[0.2346876,52.034411],[0.2391846,52.0371719],[0.2455745,52.0360085],[0.2434282,52.0288785],[0.2543385,52.0309028],[0.2509702,52.0252465],[0.2645166,52.0265728],[0.2687558,52.023416],[0.2650168,52.0193217],[0.2722297,52.0177038],[0.2714296,52.0118194],[0.2773394,52.0114525],[0.2791053,52.0170589],[0.3122225,52.0157426],[0.3090627,52.0234878],[0.3238351,52.0267554],[0.3407846,52.0386884],[0.3548078,52.0395267],[0.3638061,52.0436083]]],"type":"Polygon"},"id":"E02004591","properties":{"code":"E02004591","geography":"MSOA","name":"Uttlesford 001"},"type":"Feature"},{"geometry":{"coordinates":[[[0.2714296,52.0118194],[0.2722297,52.0177038],[0.2650168,52.0193217],[0.2687558,52.023416],[0.2645166,52.0265728],[0.2509702,52.0252465],[0.2543385,52.0309028],[0.2434282,52.0288785],[0.2455745,52.0360085],[0.2391846,52.0371719],[0.2346876,52.034411],[0.2425084,52.028741],[0.2338206,52.0251511],[0.2340487,52.0218753],[0.2374292,52.0215412],[0.2363321,52.0182069],[0.2446023,52.0195234],[0.2458629,52.0168393],[0.2407422,52.0170119],[0.2384472,52.0134305],[0.2325171,52.0144929],[0.2251369,52.0043132],[0.2323023,52.0040846],[0.2291812,51.996326],[0.2659425,51.9968301],[0.265372,52.0000646],[0.2529888,52.0022282],[0.2483053,52.0066737],[0.2634972,52.0074268],[0.2714296,52.0118194]]],"type":"Polygon"},"id":"E02004592","properties":{"code":"E02004592","geography":"MSOA","name":"Uttlesford 002"},"type":"Feature"},{"geometry":{"coordinates":[[[0.2251369,52.0043132],[0.2155839,52.0048375],[0.2196291,52.0165601],[0.2158756,52.0191468],[0.2203673,52.0247355],[0.2162215,52.0324813],[0.2206273,52.0339382],[0.2153164,52.043386],[0.2077226,52.0417259],[0.203744,52.0513867],[0.1938628,52.0597308],[0.1863454,52.0566505],[0.1675425,52.0549888],[0.1663686,52.0481803],[0.1607294,52.0484294],[0.1605495,52.052088],[0.1526068,52.0503074],[0.1510896,52.0528417],[0.1281077,52.0473121],[0.1190503,52.0599524],[0.105709,52.0602504],[0.1059482,52.0497289],[0.0941682,52.0328639],[0.0922266,52.0216443],[0.0804936,52.0081326],[0.0680994,52.0057789],[0.0742933,52.0008512],[0.0690325,51.9840331],[0.0768172,51.9808028],[0.0964322,51.9843166],[0.0978178,51.9772006],[0.106984,51.9718085],[0.1055815,51.9634773],[0.1147079,51.9558272],[0.1399304,51.9505603],[0.1558998,51.9506126],[0.1728802,51.9545484],[0.1752744,51.9488012],[0.189151,51.9459527],[0.190563,51.9356039],[0.1983348,51.9358578],[0.1991208,51.9411827],[0.2037526,51.9414335],[0.2100931,51.9545751],[0.2158413,51.9576808],[0.2180226,51.9511538],[0.2453803,51.9504811],[0.2599998,51.9450977],[0.2640904,51.9537435],[0.2712371,51.9529513],[0.2700147,51.9638647],[0.2578234,51.9624569],[0.2383109,51.9733154],[0.2420471,51.9813297],[0.2320466,51.9845042],[0.2339563,51.9903573],[0.2291812,51.996326],[0.2323023,52.0040846],[0.2251369,52.0043132]]],"type":"Polygon"},"id":"E02004593","properties":{"code":"E02004593","geography":"MSOA","name":"Uttlesford 003"},"type":"Feature"},{"geometry":{"coordinates":[[[0.3896654,52.0364558],[0.3716929,52.0373586],[0.3638061,52.0436083],[0.3548078,52.0395267],[0.3407846,52.0386884],[0.3238351,52.0267554],[0.3090627,52.0234878],[0.3122225,52.0157426],[0.2791053,52.0170589],[0.2773394,52.0114525],[0.2714296,52.0118194],[0.2634972,52.0074268],[0.2483053,52.0066737],[0.2529888,52.0022282],[0.265372,52.0000646],[0.2659425,51.9968301],[0.2291812,51.996326],[0.2339563,51.9903573],[0.2320466,51.9845042],[0.2420471,51.9813297],[0.2383109,51.9733154],[0.2578234,51.9624569],[0.2700147,51.9638647],[0.2712371,51.9529513],[0.2640904,51.9537435],[0.2599998,51.9450977],[0.2683262,51.9410546],[0.2779184,51.9477701],[0.2827403,51.9475002],[0.2978352,51.952194],[0.3046604,51.9508939],[0.3089094,51.9313373],[0.329962,51.9257902],[0.3299863,51.913604],[0.3548925,51.9160389],[0.3718832,51.9119067],[0.3740851,51.917401],[0.369164,51.9315976],[0.3784811,51.9389652],[0.4011791,51.9372857],[0.4080114,51.9343276],[0.4133843,51.9296383],[0.4115307,51.9232477],[0.421364,51.9262958],[0.4190886,51.9410999],[0.4251859,51.9520228],[0.4300236,51.9538122],[0.4255946,51.9581942],[0.4187289,51.958565],[0.4124464,51.9710522],[0.4141402,51.9740372],[0.4235935,51.9732079],[0.4269137,51.9867491],[0.4138096,52.0116717],[0.4209367,52.0148249],[0.4377251,52.0140369],[0.4304123,52.0205163],[0.4313598,52.0389217],[0.412811,52.038063],[0.394003,52.0318301],[0.3896654,52.0364558]]],"type":"Polygon"},"id":"E02004594","properties":{"code":"E02004594","geography":"MSOA","name":"Uttlesford 004"},"type":"Feature"},{"geometry":{"coordinates":[[[0.2599998,51.9450977],[0.2453803,51.9504811],[0.2180226,51.9511538],[0.2158413,51.9576808],[0.2100931,51.9545751],[0.2037526,51.9414335],[0.1991208,51.9411827],[0.1983348,51.9358578],[0.190563,51.9356039],[0.189151,51.9459527],[0.1752744,51.9488012],[0.1728802,51.9545484],[0.1558998,51.9506126],[0.1399304,51.9505603],[0.1147079,51.9558272],[0.1179847,51.9480589],[0.1202422,51.9265599],[0.1248315,51.9235305],[0.1217361,51.9111868],[0.1247345,51.8845776],[0.1570787,51.8900775],[0.1797831,51.8953784],[0.1838539,51.8931528],[0.1759573,51.8872859],[0.1766797,51.8815767],[0.1933826,51.8732453],[0.1908337,51.8718223],[0.195567,51.8680788],[0.1976431,51.8716127],[0.2202724,51.8699288],[0.200121,51.8808574],[0.1944598,51.8910775],[0.2001309,51.893966],[0.196052,51.9000651],[0.2226399,51.9070098],[0.2228587,51.8977868],[0.2352531,51.8930486],[0.2440299,51.885119],[0.2441818,51.8890602],[0.2599988,51.8948128],[0.2736541,51.9086264],[0.2732112,51.912937],[0.2648143,51.9131052],[0.2652065,51.9162214],[0.2722226,51.9165405],[0.2736141,51.9269913],[0.2959489,51.9259868],[0.2834474,51.9391269],[0.2827403,51.9475002],[0.2779184,51.9477701],[0.2683262,51.9410546],[0.2599998,51.9450977]]],"type":"Polygon"},"id":"E02004595","properties":{"code":"E02004595","geography":"MSOA","name":"Uttlesford 005"},"type":"Feature"},{"geometry":{"coordinates":[[[0.3718832,51.9119067],[0.3548925,51.9160389],[0.3299863,51.913604],[0.329962,51.9257902],[0.3089094,51.9313373],[0.3046604,51.9508939],[0.2978352,51.952194],[0.2827403,51.9475002],[0.2834474,51.9391269],[0.2959489,51.9259868],[0.2736141,51.9269913],[0.2722226,51.9165405],[0.2652065,51.9162214],[0.2648143,51.9131052],[0.2732112,51.912937],[0.2736541,51.9086264],[0.2599988,51.8948128],[0.2441818,51.8890602],[0.2440299,51.885119],[0.2352531,51.8930486],[0.2228587,51.8977868],[0.2226399,51.9070098],[0.196052,51.9000651],[0.2001309,51.893966],[0.1944598,51.8910775],[0.200121,51.8808574],[0.2202724,51.8699288],[0.2664608,51.8662174],[0.2680753,51.8614679],[0.2718847,51.8624538],[0.2736269,51.8598452],[0.2646444,51.8509104],[0.2833033,51.8441071],[0.2832241,51.8348142],[0.2946875,51.8338299],[0.2934719,51.8241196],[0.30043,51.8250528],[0.3165916,51.8383303],[0.3323142,51.8393696],[0.3362716,51.8439369],[0.3295187,51.8435931],[0.3271678,51.8476165],[0.3299446,51.8691689],[0.323278,51.8737683],[0.3382802,51.8769901],[0.3539759,51.886386],[0.3481883,51.8918201],[0.3555221,51.897126],[0.356167,51.9027474],[0.3730173,51.9089926],[0.3718832,51.9119067]]],"type":"Polygon"},"id":"E02004596","properties":{"code":"E02004596","geography":"MSOA","name":"Uttlesford 006"},"type":"Feature"},{"geometry":{"coordinates":[[[0.3595242,51.8408576],[0.3720501,51.8524656],[0.3779323,51.8532594],[0.3854525,51.8675909],[0.3706412,51.8725499],[0.3649942,51.8713561],[0.3644183,51.8751068],[0.3611893,51.8681566],[0.3579957,51.868858],[0.3596233,51.8745384],[0.3730819,51.8792595],[0.3768511,51.8757749],[0.3826631,51.8780497],[0.3880713,51.8755561],[0.404878,51.8854671],[0.3928659,51.8917327],[0.3827705,51.9059354],[0.3730173,51.9089926],[0.356167,51.9027474],[0.3555221,51.897126],[0.3481883,51.8918201],[0.3539759,51.886386],[0.3382802,51.8769901],[0.323278,51.8737683],[0.3299446,51.8691689],[0.3271678,51.8476165],[0.3295187,51.8435931],[0.3362716,51.8439369],[0.3323142,51.8393696],[0.3363964,51.8376906],[0.3595242,51.8408576]]],"type":"Polygon"},"id":"E02004597","properties":{"code":"E02004597","geography":"MSOA","name":"Uttlesford 007"},"type":"Feature"},{"geometry":{"coordinates":[[[0.421364,51.9262958],[0.4115307,51.9232477],[0.4133843,51.9296383],[0.4080114,51.9343276],[0.4011791,51.9372857],[0.3784811,51.9389652],[0.369164,51.9315976],[0.3740851,51.917401],[0.3718832,51.9119067],[0.3730173,51.9089926],[0.3827705,51.9059354],[0.3928659,51.8917327],[0.404878,51.8854671],[0.3880713,51.8755561],[0.3826631,51.8780497],[0.3768511,51.8757749],[0.3730819,51.8792595],[0.3596233,51.8745384],[0.3579957,51.868858],[0.3611893,51.8681566],[0.3644183,51.8751068],[0.3649942,51.8713561],[0.3706412,51.8725499],[0.3854525,51.8675909],[0.3779323,51.8532594],[0.3720501,51.8524656],[0.3595242,51.8408576],[0.3662224,51.8382604],[0.3524371,51.8302749],[0.3467495,51.8217107],[0.3290436,51.8110876],[0.3255828,51.8052453],[0.3231742,51.7871063],[0.3276261,51.7804246],[0.3326089,51.7809682],[0.3349267,51.785704],[0.3407372,51.7864264],[0.3376713,51.7902545],[0.3405542,51.7944716],[0.3625899,51.7949003],[0.3590182,51.7981226],[0.3615422,51.8011432],[0.3827595,51.7998124],[0.37829,51.7979811],[0.3841377,51.7970677],[0.3899787,51.8050794],[0.39885,51.8074904],[0.400003,51.8127547],[0.4035513,51.8128566],[0.4045874,51.8074154],[0.4049243,51.8124826],[0.4130253,51.8132093],[0.4146416,51.8160494],[0.4070609,51.8254],[0.4062962,51.8307934],[0.4110474,51.8333659],[0.4065361,51.8354801],[0.4099575,51.83657],[0.4034925,51.8402689],[0.4079626,51.8461798],[0.4119403,51.8437265],[0.4138932,51.8455576],[0.4131429,51.8566518],[0.4240031,51.8541509],[0.4225507,51.8449552],[0.4314469,51.836089],[0.4310324,51.8318189],[0.4394292,51.8324538],[0.4456521,51.8288652],[0.4530261,51.834622],[0.4618768,51.8345971],[0.4670863,51.8395797],[0.4863933,51.8399191],[0.4867701,51.8426406],[0.5192337,51.8504404],[0.5121052,51.8572641],[0.5134747,51.8643886],[0.5012436,51.8646243],[0.4907673,51.8703774],[0.4822727,51.8696253],[0.4826645,51.872683],[0.4671773,51.878648],[0.4706104,51.8781722],[0.4400051,51.9082692],[0.4329879,51.9247902],[0.421364,51.9262958]]],"type":"Polygon"},"id":"E02004598","properties":{"code":"E02004598","geography":"MSOA","name":"Uttlesford 008"},"type":"Feature"},{"geometry":{"coordinates":[[[0.2202724,51.8699288],[0.1976431,51.8716127],[0.195567,51.8680788],[0.1863447,51.8635062],[0.1828602,51.8650933],[0.1704409,51.8616146],[0.1733716,51.8497626],[0.166778,51.8507294],[0.1631377,51.844767],[0.1617927,51.8407461],[0.1616794,51.8321158],[0.1660967,51.8306997],[0.1611826,51.8259403],[0.1662247,51.8221469],[0.18841,51.8196493],[0.1966333,51.7957843],[0.207304,51.7920988],[0.2186905,51.7981747],[0.2257693,51.7944968],[0.2315202,51.7951541],[0.2358125,51.7886037],[0.2408942,51.7883906],[0.2368121,51.7861266],[0.2375004,51.7798207],[0.2574714,51.7818639],[0.2776716,51.7890994],[0.2955891,51.7902585],[0.2991719,51.785202],[0.2964283,51.7805547],[0.3028027,51.7774008],[0.2993386,51.7718535],[0.3129392,51.768836],[0.3200549,51.772557],[0.3216123,51.7699265],[0.3466738,51.7675896],[0.3480754,51.7731943],[0.3352376,51.7759155],[0.3326089,51.7809682],[0.3276261,51.7804246],[0.3231742,51.7871063],[0.3255828,51.8052453],[0.3290436,51.8110876],[0.3467495,51.8217107],[0.3524371,51.8302749],[0.3662224,51.8382604],[0.3595242,51.8408576],[0.3363964,51.8376906],[0.3323142,51.8393696],[0.3165916,51.8383303],[0.30043,51.8250528],[0.2934719,51.8241196],[0.2946875,51.8338299],[0.2832241,51.8348142],[0.2833033,51.8441071],[0.2646444,51.8509104],[0.2736269,51.8598452],[0.2718847,51.8624538],[0.2680753,51.8614679],[0.2664608,51.8662174],[0.2202724,51.8699288]]],"type":"Polygon"},"id":"E02004599","properties":{"code":"E02004599","geography":"MSOA","name":"Uttlesford 009"},"type":"Feature"}],"type":"FeatureCollection"}
