{"features":[{"geometry":{"coordinates":[[[0.2549684,51.4627866],[0.2396421,51.4685842],[0.2197355,51.479307],[0.2088424,51.471107],[0.2105853,51.4624809],[0.2121691,51.4548744],[0.2206325,51.447227],[0.2311865,51.4504694],[0.2356567,51.4479991],[0.2423758,51.4530417],[0.2549684,51.4627866]]],"type":"Polygon"},"id":"E02005028","properties":{"code":"E02005028","geography":"MSOA","name":"Dartford 001"},"type":"Feature"},{"geometry":{"coordinates":[[[0.3152503,51.4649945],[0.3099182,51.4669596],[0.3110155,51.4637418],[0.3072762,51.4647921],[0.3017681,51.4610271],[0.2942369,51.4558778],[0.2938648,51.4558294],[0.2955969,51.4507588],[0.29966,51.4512369],[0.3004664,51.4479667],[0.306968,51.4489954],[0.3023643,51.4459439],[0.3119117,51.4459045],[0.3149368,51.4402103],[0.3060637,51.4388023],[0.2954721,51.4415999],[0.2916309,51.4492492],[0.2825223,51.4456962],[0.2789847,51.4487435],[0.290227,51.4506135],[0.2935635,51.4557902],[0.2784512,51.4538242],[0.2770747,51.453645],[0.2771648,51.4509679],[0.2706671,51.4513281],[0.2703306,51.4470418],[0.2814548,51.4418107],[0.2784655,51.4341024],[0.3003271,51.4305824],[0.3238693,51.4316045],[0.3263346,51.4426532],[0.3216903,51.4468979],[0.3196786,51.4512372],[0.3106571,51.4530449],[0.3152503,51.4649945]]],"type":"Polygon"},"id":"E02005029","properties":{"code":"E02005029","geography":"MSOA","name":"Dartford 002"},"type":"Feature"},{"geometry":{"coordinates":[[[0.2206325,51.447227],[0.2121691,51.4548744],[0.2105853,51.4624809],[0.2025821,51.456233],[0.1990673,51.45238],[0.1967055,51.4440131],[0.2019305,51.444318],[0.2011387,51.4387387],[0.2199809,51.4411187],[0.2210109,51.4437316],[0.2206325,51.447227]]],"type":"Polygon"},"id":"E02005030","properties":{"code":"E02005030","geography":"MSOA","name":"Dartford 003"},"type":"Feature"},{"geometry":{"coordinates":[[[0.2935635,51.4557902],[0.290227,51.4506135],[0.2789847,51.4487435],[0.2825223,51.4456962],[0.2916309,51.4492492],[0.2954721,51.4415999],[0.3060637,51.4388023],[0.3149368,51.4402103],[0.3119117,51.4459045],[0.3023643,51.4459439],[0.306968,51.4489954],[0.3004664,51.4479667],[0.29966,51.4512369],[0.2955969,51.4507588],[0.2938648,51.4558294],[0.2935635,51.4557902]]],"type":"Polygon"},"id":"E02005031","properties":{"code":"E02005031","geography":"MSOA","name":"Dartford 004"},"type":"Feature"},{"geometry":{"coordinates":[[[0.2456806,51.4397612],[0.2436298,51.4455176],[0.2479613,51.450876],[0.2423758,51.4530417],[0.2356567,51.4479991],[0.2311865,51.4504694],[0.2206325,51.447227],[0.2210109,51.4437316],[0.2456806,51.4397612]]],"type":"Polygon"},"id":"E02005032","properties":{"code":"E02005032","geography":"MSOA","name":"Dartford 005"},"type":"Feature"},{"geometry":{"coordinates":[[[0.2770747,51.453645],[0.2764912,51.453569],[0.2556245,51.4625383],[0.2549684,51.4627866],[0.2423758,51.4530417],[0.2479613,51.450876],[0.2436298,51.4455176],[0.2456806,51.4397612],[0.2742662,51.4347612],[0.2784655,51.4341024],[0.2814548,51.4418107],[0.2703306,51.4470418],[0.2706671,51.4513281],[0.2771648,51.4509679],[0.2770747,51.453645]]],"type":"Polygon"},"id":"E02005033","properties":{"code":"E02005033","geography":"MSOA","name":"Dartford 006"},"type":"Feature"},{"geometry":{"coordinates":[[[0.2011387,51.4387387],[0.2019305,51.444318],[0.1967055,51.4440131],[0.1990673,51.45238],[0.1708768,51.4412068],[0.1880794,51.4333141],[0.1994791,51.4314855],[0.2052483,51.4352966],[0.2011387,51.4387387]]],"type":"Polygon"},"id":"E02005034","properties":{"code":"E02005034","geography":"MSOA","name":"Dartford 007"},"type":"Feature"},{"geometry":{"coordinates":[[[0.2456806,51.4397612],[0.2210109,51.4437316],[0.2199809,51.4411187],[0.2255403,51.4311435],[0.2340695,51.4258758],[0.2484054,51.4274331],[0.2495579,51.4197588],[0.2683927,51.4255101],[0.2742662,51.4347612],[0.2456806,51.4397612]]],"type":"Polygon"},"id":"E02005035","properties":{"code":"E02005035","geography":"MSOA","name":"Dartford 008"},"type":"Feature"},{"geometry":{"coordinates":[[[0.2255403,51.4311435],[0.2199809,51.4411187],[0.2011387,51.4387387],[0.2052483,51.4352966],[0.1994791,51.4314855],[0.2152467,51.4328135],[0.2239401,51.4286082],[0.2255403,51.4311435]]],"type":"Polygon"},"id":"E02005036","properties":{"code":"E02005036","geography":"MSOA","name":"Dartford 009"},"type":"Feature"},{"geometry":{"coordinates":[[[0.1880794,51.4333141],[0.1708768,51.4412068],[0.1643008,51.4285847],[0.1558485,51.4308768],[0.1511325,51.4204306],[0.1546067,51.4184798],[0.1491329,51.4124359],[0.1537445,51.411266],[0.1529062,51.408709],[0.1634611,51.4068038],[0.1657244,51.4085965],[0.1650926,51.4110084],[0.1794304,51.4156251],[0.1774932,51.4177376],[0.1843714,51.4203345],[0.1807276,51.4281275],[0.1880794,51.4333141]]],"type":"Polygon"},"id":"E02005037","properties":{"code":"E02005037","geography":"MSOA","name":"Dartford 010"},"type":"Feature"},{"geometry":{"coordinates":[[[0.2255403,51.4311435],[0.2239401,51.4286082],[0.2152467,51.4328135],[0.1994791,51.4314855],[0.1880794,51.4333141],[0.1807276,51.4281275],[0.1843714,51.4203345],[0.1774932,51.4177376],[0.1794304,51.4156251],[0.1997257,51.4179758],[0.2112257,51.4059152],[0.2205871,51.4138624],[0.2348632,51.4117024],[0.2393984,51.4136383],[0.2340695,51.4258758],[0.2255403,51.4311435]]],"type":"Polygon"},"id":"E02005038","properties":{"code":"E02005038","geography":"MSOA","name":"Dartford 011"},"type":"Feature"},{"geometry":{"coordinates":[[[0.2784655,51.4341024],[0.2742662,51.4347612],[0.2683927,51.4255101],[0.2495579,51.4197588],[0.2484054,51.4274331],[0.2340695,51.4258758],[0.2393984,51.4136383],[0.2348632,51.4117024],[0.2205871,51.4138624],[0.2112257,51.4059152],[0.2127094,51.4027493],[0.2068309,51.4024143],[0.206923,51.3972197],[0.2382972,51.3963106],[0.2469997,51.407706],[0.2748668,51.4074573],[0.2797562,51.4028597],[0.2841993,51.4059825],[0.2910932,51.404922],[0.2869891,51.4130281],[0.3003271,51.4305824],[0.2784655,51.4341024]]],"type":"Polygon"},"id":"E02005039","properties":{"code":"E02005039","geography":"MSOA","name":"Dartford 012"},"type":"Feature"},{"geometry":{"coordinates":[[[0.3325752,51.4256115],[0.3238693,51.4316045],[0.3003271,51.4305824],[0.2869891,51.4130281],[0.2910932,51.404922],[0.2841993,51.4059825],[0.2797562,51.4028597],[0.27746,51.4015852],[0.2932404,51.3979767],[0.2966943,51.3970599],[0.3366502,51.3865446],[0.3345909,51.3894635],[0.3445941,51.3934116],[0.335066,51.3993233],[0.3325752,51.4256115]]],"type":"Polygon"},"id":"E02005040","properties":{"code":"E02005040","geography":"MSOA","name":"Dartford 013"},"type":"Feature"}],"type":"FeatureCollection"}
