{"features":[{"geometry":{"coordinates":[[[-1.2989764,53.3324576],[-1.3123331,53.334149],[-1.3103273,53.3293768],[-1.3209123,53.3255587],[-1.324726,53.3288136],[-1.3283486,53.3266296],[-1.3362211,53.3185632],[-1.3403233,53.3155473],[-1.3411964,53.3075753],[-1.3218958,53.3090468],[-1.3046374,53.3129283],[-1.2820034,53.3094586],[-1.2957106,53.3150378],[-1.2951583,53.3217709],[-1.2885578,53.3261506],[-1.2989764,53.3324576]]],"type":"Polygon"},"id":"E02004105","properties":{"code":"E02004105","geography":"MSOA","name":"North East Derbyshire 001"},"type":"Feature"},{"geometry":{"coordinates":[[[-1.4069135,53.3409746],[-1.4110899,53.3419984],[-1.4208689,53.3345496],[-1.442218,53.3372757],[-1.4612126,53.3278049],[-1.4552433,53.3218259],[-1.467915,53.3171261],[-1.4688278,53.313915],[-1.4612466,53.3110802],[-1.464659,53.3062859],[-1.4541086,53.3033856],[-1.4453324,53.3038252],[-1.4417119,53.3085219],[-1.4253438,53.3093012],[-1.406789,53.3003741],[-1.3815544,53.2999375],[-1.3671925,53.3107649],[-1.3602135,53.3100967],[-1.3626434,53.3150954],[-1.3900189,53.3185234],[-1.3889635,53.3364235],[-1.4069135,53.3409746]]],"type":"Polygon"},"id":"E02004106","properties":{"code":"E02004106","geography":"MSOA","name":"North East Derbyshire 002"},"type":"Feature"},{"geometry":{"coordinates":[[[-1.467915,53.3171261],[-1.4745049,53.3184505],[-1.4787985,53.3082067],[-1.4765263,53.2984623],[-1.4675113,53.2956256],[-1.4576626,53.2972735],[-1.447162,53.292634],[-1.4621034,53.2892437],[-1.4675437,53.2830638],[-1.4597879,53.27992],[-1.4570701,53.283727],[-1.4390179,53.2801956],[-1.4232404,53.282696],[-1.4154418,53.2876201],[-1.4017401,53.281556],[-1.3917651,53.2871208],[-1.3871658,53.286086],[-1.3859913,53.2948764],[-1.3770553,53.2990251],[-1.3815544,53.2999375],[-1.406789,53.3003741],[-1.4253438,53.3093012],[-1.4417119,53.3085219],[-1.4453324,53.3038252],[-1.4541086,53.3033856],[-1.464659,53.3062859],[-1.4612466,53.3110802],[-1.4688278,53.313915],[-1.467915,53.3171261]]],"type":"Polygon"},"id":"E02004108","properties":{"code":"E02004108","geography":"MSOA","name":"North East Derbyshire 004"},"type":"Feature"},{"geometry":{"coordinates":[[[-1.5331032,53.3074413],[-1.5369966,53.3047039],[-1.5490936,53.3069647],[-1.558461,53.305367],[-1.5618495,53.3066711],[-1.5558234,53.3116889],[-1.5613174,53.3158565],[-1.580535,53.3117202],[-1.583079,53.3156804],[-1.5789968,53.3166749],[-1.5850326,53.3215719],[-1.5990793,53.3113609],[-1.5974432,53.2957387],[-1.5788559,53.2869618],[-1.5893942,53.2787203],[-1.5824408,53.2712573],[-1.5849402,53.2626784],[-1.565781,53.2614105],[-1.5572215,53.249487],[-1.5513038,53.2543521],[-1.5312186,53.2588067],[-1.4806015,53.2633272],[-1.4627291,53.2703332],[-1.4669388,53.2746254],[-1.4597879,53.27992],[-1.4675437,53.2830638],[-1.4852782,53.2871257],[-1.4823334,53.2956601],[-1.4898665,53.2973286],[-1.4853826,53.2993993],[-1.4900282,53.3013156],[-1.4964642,53.2991968],[-1.4948334,53.3051657],[-1.4787985,53.3082067],[-1.4745049,53.3184505],[-1.4821463,53.3187797],[-1.4897224,53.3176519],[-1.5107187,53.3159348],[-1.5174269,53.3121464],[-1.5312782,53.3106156],[-1.5331032,53.3074413]]],"type":"Polygon"},"id":"E02004109","properties":{"code":"E02004109","geography":"MSOA","name":"North East Derbyshire 005"},"type":"Feature"},{"geometry":{"coordinates":[[[-1.4675437,53.2830638],[-1.4621034,53.2892437],[-1.447162,53.292634],[-1.4576626,53.2972735],[-1.4675113,53.2956256],[-1.4765263,53.2984623],[-1.4787985,53.3082067],[-1.4948334,53.3051657],[-1.4964642,53.2991968],[-1.4900282,53.3013156],[-1.4853826,53.2993993],[-1.4898665,53.2973286],[-1.4823334,53.2956601],[-1.4852782,53.2871257],[-1.4675437,53.2830638]]],"type":"Polygon"},"id":"E02004110","properties":{"code":"E02004110","geography":"MSOA","name":"North East Derbyshire 006"},"type":"Feature"},{"geometry":{"coordinates":[[[-1.3192038,53.239564],[-1.3263554,53.2360808],[-1.3321236,53.2366778],[-1.3319711,53.2415723],[-1.3470673,53.2395208],[-1.3508667,53.2463692],[-1.3750453,53.2408561],[-1.380345,53.2437768],[-1.3902738,53.2388369],[-1.393621,53.233991],[-1.4010846,53.2336938],[-1.3955867,53.2226986],[-1.4015589,53.2178132],[-1.3996029,53.2151502],[-1.41169,53.2155394],[-1.4208445,53.2124227],[-1.4081308,53.2056231],[-1.4027482,53.2074838],[-1.3991736,53.2031599],[-1.402145,53.2021716],[-1.3966323,53.1992079],[-1.3931199,53.2020226],[-1.3899794,53.1967012],[-1.3829946,53.1958781],[-1.3811533,53.1992406],[-1.3684834,53.1946019],[-1.3530952,53.2066272],[-1.3378415,53.2103375],[-1.3137458,53.2084537],[-1.3125432,53.2222496],[-1.3115361,53.23255],[-1.3192038,53.239564]]],"type":"Polygon"},"id":"E02004111","properties":{"code":"E02004111","geography":"MSOA","name":"North East Derbyshire 007"},"type":"Feature"},{"geometry":{"coordinates":[[[-1.4706894,53.2572508],[-1.4806015,53.2633272],[-1.5312186,53.2588067],[-1.5513038,53.2543521],[-1.5572215,53.249487],[-1.57205,53.2410054],[-1.5650652,53.2298446],[-1.5691534,53.2231276],[-1.5317963,53.2078636],[-1.5172397,53.206047],[-1.5176465,53.20075],[-1.4709451,53.1965477],[-1.4427859,53.1845226],[-1.4356037,53.1860726],[-1.4313552,53.191643],[-1.4437691,53.1982464],[-1.438219,53.1992215],[-1.4323889,53.1956085],[-1.428133,53.1987598],[-1.4366224,53.200107],[-1.4293346,53.2030217],[-1.4361426,53.2133053],[-1.4400044,53.2135745],[-1.4392954,53.2187659],[-1.4475275,53.221395],[-1.4676003,53.2194975],[-1.4795281,53.2222097],[-1.4758444,53.225065],[-1.4819598,53.2262279],[-1.4839758,53.2324641],[-1.471876,53.2333965],[-1.4718644,53.2394747],[-1.4775462,53.2397017],[-1.4817092,53.246465],[-1.4739394,53.2491208],[-1.4787943,53.2522753],[-1.4706894,53.2572508]]],"type":"Polygon"},"id":"E02004112","properties":{"code":"E02004112","geography":"MSOA","name":"North East Derbyshire 008"},"type":"Feature"},{"geometry":{"coordinates":[[[-1.3137458,53.2084537],[-1.3378415,53.2103375],[-1.3530952,53.2066272],[-1.3684834,53.1946019],[-1.3811533,53.1992406],[-1.3829946,53.1958781],[-1.3899794,53.1967012],[-1.3931199,53.2020226],[-1.3966323,53.1992079],[-1.402145,53.2021716],[-1.3991736,53.2031599],[-1.4027482,53.2074838],[-1.4081308,53.2056231],[-1.4042649,53.1977296],[-1.4125874,53.1944241],[-1.4108551,53.1883514],[-1.4154116,53.1841953],[-1.4073897,53.1831612],[-1.4065671,53.1904907],[-1.3985718,53.1937998],[-1.3898476,53.1824796],[-1.3791944,53.1835301],[-1.3752111,53.1874033],[-1.3638894,53.1823201],[-1.3567841,53.1854556],[-1.3456452,53.1834182],[-1.3442653,53.1879546],[-1.3187945,53.1858043],[-1.3116133,53.1989691],[-1.3137458,53.2084537]]],"type":"Polygon"},"id":"E02004113","properties":{"code":"E02004113","geography":"MSOA","name":"North East Derbyshire 009"},"type":"Feature"},{"geometry":{"coordinates":[[[-1.4208445,53.2124227],[-1.4274327,53.2153304],[-1.4361426,53.2133053],[-1.4293346,53.2030217],[-1.4366224,53.200107],[-1.428133,53.1987598],[-1.4323889,53.1956085],[-1.438219,53.1992215],[-1.4437691,53.1982464],[-1.4313552,53.191643],[-1.4356037,53.1860726],[-1.4427859,53.1845226],[-1.4709451,53.1965477],[-1.5176465,53.20075],[-1.5482966,53.1999003],[-1.5529932,53.1962694],[-1.5425125,53.1752691],[-1.5096044,53.1508066],[-1.4954357,53.1338932],[-1.4866915,53.1228244],[-1.4698209,53.1197249],[-1.4658923,53.1372119],[-1.4581721,53.136848],[-1.4562647,53.1410049],[-1.4552549,53.1624543],[-1.4526688,53.163879],[-1.4489139,53.1589471],[-1.4374966,53.154553],[-1.428993,53.1554069],[-1.4226281,53.1631786],[-1.4153869,53.1634122],[-1.415945,53.1670144],[-1.4263104,53.1705166],[-1.4328618,53.1693703],[-1.4271243,53.1755992],[-1.4204855,53.1747798],[-1.4190334,53.1808726],[-1.4171401,53.1915808],[-1.4108551,53.1883514],[-1.4125874,53.1944241],[-1.4042649,53.1977296],[-1.4081308,53.2056231],[-1.4208445,53.2124227]]],"type":"Polygon"},"id":"E02004114","properties":{"code":"E02004114","geography":"MSOA","name":"North East Derbyshire 010"},"type":"Feature"},{"geometry":{"coordinates":[[[-1.3638894,53.1823201],[-1.3752111,53.1874033],[-1.3791944,53.1835301],[-1.3898476,53.1824796],[-1.3985718,53.1937998],[-1.4065671,53.1904907],[-1.4073897,53.1831612],[-1.4154116,53.1841953],[-1.4108551,53.1883514],[-1.4171401,53.1915808],[-1.4190334,53.1808726],[-1.4110901,53.1781153],[-1.4055928,53.1802813],[-1.3922616,53.1697643],[-1.3963589,53.1665384],[-1.3922399,53.1649118],[-1.3932814,53.1582065],[-1.4002582,53.1577503],[-1.4012119,53.1522289],[-1.3822374,53.1552682],[-1.3819812,53.1518574],[-1.3732629,53.1511611],[-1.3734512,53.1454155],[-1.3676976,53.141189],[-1.3549599,53.1517044],[-1.3529414,53.1591929],[-1.3666649,53.1709643],[-1.3782667,53.1737057],[-1.3711713,53.1806333],[-1.3638894,53.1823201]]],"type":"Polygon"},"id":"E02004115","properties":{"code":"E02004115","geography":"MSOA","name":"North East Derbyshire 011"},"type":"Feature"},{"geometry":{"coordinates":[[[-1.4012119,53.1522289],[-1.4002582,53.1577503],[-1.3932814,53.1582065],[-1.3922399,53.1649118],[-1.3963589,53.1665384],[-1.3922616,53.1697643],[-1.4055928,53.1802813],[-1.4110901,53.1781153],[-1.4190334,53.1808726],[-1.4204855,53.1747798],[-1.4271243,53.1755992],[-1.4328618,53.1693703],[-1.4263104,53.1705166],[-1.415945,53.1670144],[-1.4153869,53.1634122],[-1.4226281,53.1631786],[-1.428993,53.1554069],[-1.4236397,53.1510218],[-1.413968,53.155847],[-1.4090798,53.1517036],[-1.4012119,53.1522289]]],"type":"Polygon"},"id":"E02004116","properties":{"code":"E02004116","geography":"MSOA","name":"North East Derbyshire 012"},"type":"Feature"},{"geometry":{"coordinates":[[[-1.428993,53.1554069],[-1.4374966,53.154553],[-1.4489139,53.1589471],[-1.4526688,53.163879],[-1.4552549,53.1624543],[-1.4562647,53.1410049],[-1.4581721,53.136848],[-1.4658923,53.1372119],[-1.4698209,53.1197249],[-1.4630176,53.1141807],[-1.4653715,53.1107824],[-1.4600071,53.1082924],[-1.4555479,53.1095971],[-1.4482545,53.1036552],[-1.4325478,53.105878],[-1.4237365,53.1033413],[-1.4196657,53.1065461],[-1.4042371,53.1065941],[-1.3949089,53.1047428],[-1.3736522,53.1078372],[-1.3709011,53.1092644],[-1.3754884,53.1162883],[-1.3727755,53.1316165],[-1.3778232,53.1360929],[-1.3676976,53.141189],[-1.3734512,53.1454155],[-1.3732629,53.1511611],[-1.3819812,53.1518574],[-1.3822374,53.1552682],[-1.4012119,53.1522289],[-1.4090798,53.1517036],[-1.413968,53.155847],[-1.4236397,53.1510218],[-1.428993,53.1554069]]],"type":"Polygon"},"id":"E02004117","properties":{"code":"E02004117","geography":"MSOA","name":"North East Derbyshire 013"},"type":"Feature"},{"geometry":{"coordinates":[[[-1.3403233,53.3155473],[-1.3534728,53.3190897],[-1.361828,53.3184988],[-1.3626434,53.3150954],[-1.3602135,53.3100967],[-1.3671925,53.3107649],[-1.3815544,53.2999375],[-1.3770553,53.2990251],[-1.3715242,53.2972975],[-1.366895,53.2891649],[-1.3531714,53.2864801],[-1.3427854,53.2856415],[-1.3390731,53.2898359],[-1.3336355,53.2897379],[-1.3225892,53.2813556],[-1.316704,53.2816367],[-1.3241417,53.2950886],[-1.3106756,53.2979276],[-1.3218958,53.3090468],[-1.3411964,53.3075753],[-1.3403233,53.3155473]]],"type":"Polygon"},"id":"E02006804","properties":{"code":"E02006804","geography":"MSOA","name":"North East Derbyshire 014"},"type":"Feature"}],"type":"FeatureCollection"}
