{"features":[{"geometry":{"coordinates":[[[0.3670415,52.5011557],[0.3620719,52.4989144],[0.3450124,52.5016678],[0.3309171,52.509118],[0.3182852,52.5076398],[0.3172727,52.5129898],[0.3093398,52.5136044],[0.2564553,52.5076967],[0.2460199,52.4998737],[0.252824,52.4909182],[0.2416275,52.4839441],[0.2541884,52.4739131],[0.2814496,52.4608054],[0.2717597,52.4522291],[0.2694578,52.4370499],[0.2768891,52.4394658],[0.2821246,52.4334035],[0.3089045,52.4302595],[0.3122858,52.435563],[0.3346879,52.4399866],[0.3487808,52.438721],[0.357595,52.4346877],[0.3677933,52.4348248],[0.3813963,52.4402404],[0.3920151,52.4331074],[0.4231849,52.4339479],[0.4293209,52.436409],[0.4234475,52.451028],[0.4285064,52.4546348],[0.4020675,52.4653306],[0.3918942,52.4755106],[0.3806853,52.4795215],[0.3671225,52.4959253],[0.3670415,52.5011557]]],"type":"Polygon"},"id":"E02003732","properties":{"code":"E02003732","geography":"MSOA","name":"East Cambridgeshire 001"},"type":"Feature"},{"geometry":{"coordinates":[[[0.2460199,52.4998737],[0.2387646,52.5091694],[0.2362984,52.507273],[0.1706934,52.45754],[0.1770636,52.4609604],[0.1792946,52.4587429],[0.1663801,52.4487199],[0.1553213,52.4401575],[0.1510199,52.4422473],[0.1238175,52.4209533],[0.1186636,52.423444],[0.1208146,52.4311042],[0.1298162,52.4357119],[0.1264475,52.4378386],[0.1066155,52.4253208],[0.0873434,52.4297488],[0.0800998,52.4213926],[0.0701881,52.4214705],[0.0552533,52.4144179],[0.045358,52.4190856],[0.0416634,52.4133426],[0.0525662,52.4088207],[0.050182,52.4066305],[0.0561749,52.3978181],[0.0343959,52.3857333],[0.0419245,52.3806727],[0.0514603,52.3581025],[0.0481586,52.3558311],[0.0598215,52.3564888],[0.062078,52.3647198],[0.0830217,52.3751631],[0.0910924,52.3729739],[0.1404428,52.3799346],[0.1438941,52.3906151],[0.1747104,52.3885871],[0.1850619,52.4020009],[0.2013639,52.4120695],[0.1981472,52.4142649],[0.2016388,52.4178272],[0.2200821,52.4093175],[0.2211441,52.4137549],[0.2416093,52.4053231],[0.2447974,52.4056223],[0.245528,52.4219392],[0.2584913,52.4241751],[0.2682968,52.4314366],[0.2821246,52.4334035],[0.2768891,52.4394658],[0.2694578,52.4370499],[0.2717597,52.4522291],[0.2814496,52.4608054],[0.2541884,52.4739131],[0.2416275,52.4839441],[0.252824,52.4909182],[0.2460199,52.4998737]]],"type":"Polygon"},"id":"E02003733","properties":{"code":"E02003733","geography":"MSOA","name":"East Cambridgeshire 002"},"type":"Feature"},{"geometry":{"coordinates":[[[0.3089045,52.4302595],[0.2821246,52.4334035],[0.2682968,52.4314366],[0.2584913,52.4241751],[0.245528,52.4219392],[0.2447974,52.4056223],[0.2493331,52.4033485],[0.2469121,52.4003668],[0.2552593,52.3980461],[0.2806489,52.40338],[0.2942332,52.4175097],[0.3058415,52.4227122],[0.3089045,52.4302595]]],"type":"Polygon"},"id":"E02003734","properties":{"code":"E02003734","geography":"MSOA","name":"East Cambridgeshire 003"},"type":"Feature"},{"geometry":{"coordinates":[[[0.4231849,52.4339479],[0.3920151,52.4331074],[0.3813963,52.4402404],[0.3677933,52.4348248],[0.357595,52.4346877],[0.3487808,52.438721],[0.3346879,52.4399866],[0.3122858,52.435563],[0.3089045,52.4302595],[0.3058415,52.4227122],[0.2942332,52.4175097],[0.2806489,52.40338],[0.2552593,52.3980461],[0.2469121,52.4003668],[0.2493331,52.4033485],[0.2447974,52.4056223],[0.2416093,52.4053231],[0.2173072,52.3886207],[0.2179203,52.3820876],[0.2355704,52.3735336],[0.2590963,52.3706406],[0.261878,52.3729343],[0.2700201,52.3719194],[0.2725545,52.3750721],[0.2880625,52.3649376],[0.3007988,52.364446],[0.3204713,52.3754409],[0.3340269,52.37835],[0.334288,52.3893567],[0.3328542,52.3922133],[0.328141,52.3920103],[0.3273681,52.3967677],[0.3382015,52.4087535],[0.3490627,52.40609],[0.3680663,52.415274],[0.3747542,52.4097122],[0.4252805,52.4303148],[0.4231849,52.4339479]]],"type":"Polygon"},"id":"E02003735","properties":{"code":"E02003735","geography":"MSOA","name":"East Cambridgeshire 004"},"type":"Feature"},{"geometry":{"coordinates":[[[0.2416093,52.4053231],[0.2211441,52.4137549],[0.2200821,52.4093175],[0.2016388,52.4178272],[0.1981472,52.4142649],[0.2013639,52.4120695],[0.1850619,52.4020009],[0.1747104,52.3885871],[0.1438941,52.3906151],[0.1404428,52.3799346],[0.0910924,52.3729739],[0.0830217,52.3751631],[0.062078,52.3647198],[0.0598215,52.3564888],[0.0481586,52.3558311],[0.0438423,52.3528703],[0.0652376,52.341351],[0.1047707,52.3287467],[0.1200069,52.3281182],[0.140052,52.3206726],[0.1491498,52.3255375],[0.1622587,52.3242594],[0.1675437,52.317547],[0.1972639,52.3242745],[0.1985792,52.3183969],[0.2058601,52.3168317],[0.2389264,52.32031],[0.239342,52.3255795],[0.2487914,52.3228388],[0.2480625,52.3286282],[0.2547207,52.3289624],[0.2576787,52.3341987],[0.251846,52.3434647],[0.2605989,52.3549904],[0.2542892,52.3561341],[0.2595724,52.3628974],[0.2590963,52.3706406],[0.2355704,52.3735336],[0.2179203,52.3820876],[0.2173072,52.3886207],[0.2416093,52.4053231]]],"type":"Polygon"},"id":"E02003736","properties":{"code":"E02003736","geography":"MSOA","name":"East Cambridgeshire 005"},"type":"Feature"},{"geometry":{"coordinates":[[[0.3747542,52.4097122],[0.3680663,52.415274],[0.3490627,52.40609],[0.3382015,52.4087535],[0.3273681,52.3967677],[0.328141,52.3920103],[0.3328542,52.3922133],[0.334288,52.3893567],[0.3340269,52.37835],[0.3204713,52.3754409],[0.3007988,52.364446],[0.2880625,52.3649376],[0.2725545,52.3750721],[0.2700201,52.3719194],[0.261878,52.3729343],[0.2590963,52.3706406],[0.2595724,52.3628974],[0.2542892,52.3561341],[0.2605989,52.3549904],[0.251846,52.3434647],[0.2576787,52.3341987],[0.2547207,52.3289624],[0.2480625,52.3286282],[0.2487914,52.3228388],[0.2470765,52.3038516],[0.2530457,52.3056568],[0.2614375,52.3035384],[0.2865459,52.3076253],[0.3182051,52.3044304],[0.3360052,52.3090519],[0.3453432,52.3149525],[0.3615098,52.3148407],[0.3730848,52.3211521],[0.3762297,52.331796],[0.3651303,52.3361782],[0.3786051,52.3402961],[0.3712915,52.3537585],[0.374476,52.3677196],[0.3658616,52.3765375],[0.3745769,52.3783125],[0.3681985,52.3875155],[0.3820532,52.3962732],[0.3747542,52.4097122]]],"type":"Polygon"},"id":"E02003737","properties":{"code":"E02003737","geography":"MSOA","name":"East Cambridgeshire 006"},"type":"Feature"},{"geometry":{"coordinates":[[[0.4728453,52.3039258],[0.4620662,52.3087981],[0.4574734,52.3162793],[0.4313498,52.3158096],[0.4241952,52.3292003],[0.4362973,52.3335179],[0.4424752,52.3488147],[0.4274958,52.3536874],[0.4200281,52.3521386],[0.4191994,52.3579196],[0.4076664,52.3614958],[0.3820532,52.3962732],[0.3681985,52.3875155],[0.3745769,52.3783125],[0.3658616,52.3765375],[0.374476,52.3677196],[0.3712915,52.3537585],[0.3786051,52.3402961],[0.3651303,52.3361782],[0.3762297,52.331796],[0.3730848,52.3211521],[0.3615098,52.3148407],[0.3453432,52.3149525],[0.3360052,52.3090519],[0.3182051,52.3044304],[0.3530549,52.3087212],[0.3606585,52.2977926],[0.3778438,52.2912372],[0.3826944,52.2932504],[0.3853359,52.2829821],[0.3953267,52.2804392],[0.424178,52.2558504],[0.4989222,52.2731047],[0.495818,52.2803561],[0.5042292,52.286988],[0.4728453,52.3039258]]],"type":"Polygon"},"id":"E02003738","properties":{"code":"E02003738","geography":"MSOA","name":"East Cambridgeshire 007"},"type":"Feature"},{"geometry":{"coordinates":[[[0.3606585,52.2977926],[0.3530549,52.3087212],[0.3182051,52.3044304],[0.2865459,52.3076253],[0.2614375,52.3035384],[0.2955413,52.277161],[0.3007678,52.2775724],[0.3169145,52.2700322],[0.30626,52.2637226],[0.3426563,52.2423281],[0.3566366,52.2462722],[0.3602794,52.2502173],[0.3399746,52.2676727],[0.3551985,52.279306],[0.3506241,52.2829447],[0.3591957,52.2891419],[0.3606585,52.2977926]]],"type":"Polygon"},"id":"E02003739","properties":{"code":"E02003739","geography":"MSOA","name":"East Cambridgeshire 008"},"type":"Feature"},{"geometry":{"coordinates":[[[0.2614375,52.3035384],[0.2530457,52.3056568],[0.2470765,52.3038516],[0.2414609,52.2909217],[0.2302862,52.2864395],[0.2280897,52.281146],[0.2115523,52.2699042],[0.2205894,52.2635265],[0.2104402,52.2494459],[0.2181205,52.249208],[0.2294692,52.236571],[0.2252658,52.2316858],[0.2304087,52.2289105],[0.2328282,52.2314755],[0.2565976,52.2134017],[0.3109625,52.1904589],[0.3103506,52.1857127],[0.351657,52.1686866],[0.3774286,52.1665796],[0.3763117,52.1632186],[0.3888806,52.1617868],[0.3948846,52.1579559],[0.4054168,52.1595749],[0.4098268,52.1564103],[0.4172465,52.1592926],[0.4358853,52.159481],[0.4382824,52.1652595],[0.415187,52.1703994],[0.4144142,52.1761627],[0.3906935,52.1780092],[0.3853415,52.1802257],[0.387048,52.1822936],[0.3613156,52.1891923],[0.3640814,52.192424],[0.3579461,52.1947222],[0.3545134,52.1921378],[0.3273684,52.2098474],[0.3395093,52.2244839],[0.357534,52.2340669],[0.3426563,52.2423281],[0.30626,52.2637226],[0.3169145,52.2700322],[0.3007678,52.2775724],[0.2955413,52.277161],[0.2614375,52.3035384]]],"type":"Polygon"},"id":"E02003740","properties":{"code":"E02003740","geography":"MSOA","name":"East Cambridgeshire 009"},"type":"Feature"},{"geometry":{"coordinates":[[[0.5126335,52.2150492],[0.5144547,52.2267638],[0.4949026,52.2392423],[0.4803089,52.2326664],[0.4718283,52.2403269],[0.4650832,52.2403601],[0.4555328,52.2475789],[0.450393,52.2433197],[0.4433765,52.2426216],[0.4269358,52.2535871],[0.4144899,52.2478455],[0.4213058,52.2396755],[0.4096398,52.2394802],[0.3949318,52.2306642],[0.3846205,52.2339906],[0.371221,52.2265411],[0.357534,52.2340669],[0.3395093,52.2244839],[0.3273684,52.2098474],[0.3545134,52.1921378],[0.3579461,52.1947222],[0.3640814,52.192424],[0.3613156,52.1891923],[0.387048,52.1822936],[0.3853415,52.1802257],[0.3906935,52.1780092],[0.4144142,52.1761627],[0.415187,52.1703994],[0.4382824,52.1652595],[0.4442762,52.1646685],[0.4444927,52.1710676],[0.4525252,52.1732056],[0.4636732,52.1705299],[0.4707,52.1632447],[0.4772117,52.1675567],[0.4913028,52.1650883],[0.4874348,52.1697829],[0.4939346,52.1814815],[0.494946,52.1887188],[0.5025255,52.1960123],[0.503101,52.2070214],[0.5126335,52.2150492]]],"type":"Polygon"},"id":"E02006825","properties":{"code":"E02006825","geography":"MSOA","name":"East Cambridgeshire 011"},"type":"Feature"}],"type":"FeatureCollection"}
