{"features":[{"geometry":{"coordinates":[[[0.7909297,51.4393081],[0.7693857,51.4407754],[0.7584531,51.4436519],[0.7688656,51.4335147],[0.7909297,51.4393081]]],"type":"Polygon"},"id":"E02005115","properties":{"code":"E02005115","geography":"MSOA","name":"Swale 001"},"type":"Feature"},{"geometry":{"coordinates":[[[0.7584531,51.4436519],[0.7446191,51.4472897],[0.745455,51.4404222],[0.7366062,51.4298388],[0.7466321,51.4232944],[0.7498247,51.4174372],[0.7698309,51.4271039],[0.7738818,51.4284763],[0.7688656,51.4335147],[0.7584531,51.4436519]]],"type":"Polygon"},"id":"E02005116","properties":{"code":"E02005116","geography":"MSOA","name":"Swale 002"},"type":"Feature"},{"geometry":{"coordinates":[[[0.8165935,51.427791],[0.8154435,51.4279307],[0.7915728,51.4392668],[0.7909297,51.4393081],[0.7688656,51.4335147],[0.7738818,51.4284763],[0.7974656,51.419714],[0.8098251,51.4215448],[0.81166,51.4220518],[0.8165935,51.427791]]],"type":"Polygon"},"id":"E02005117","properties":{"code":"E02005117","geography":"MSOA","name":"Swale 003"},"type":"Feature"},{"geometry":{"coordinates":[[[0.8098251,51.4215448],[0.7974656,51.419714],[0.7738818,51.4284763],[0.7698309,51.4271039],[0.7702166,51.4142833],[0.7600139,51.4121339],[0.7711774,51.4091599],[0.7904708,51.4104611],[0.7902087,51.3985838],[0.7989853,51.4056937],[0.7984138,51.4100413],[0.8170878,51.4104478],[0.8097509,51.4158279],[0.8025552,51.4151043],[0.8098251,51.4215448]]],"type":"Polygon"},"id":"E02005118","properties":{"code":"E02005118","geography":"MSOA","name":"Swale 004"},"type":"Feature"},{"geometry":{"coordinates":[[[[0.7459733,51.3921047],[0.7427635,51.3943727],[0.736572,51.3961157],[0.7363444,51.3955185],[0.7362149,51.3951786],[0.7482002,51.3905311],[0.7459733,51.3921047]]],[[[0.7296525,51.4209555],[0.7279478,51.4235872],[0.707974,51.4197552],[0.6989078,51.421398],[0.6976969,51.4151509],[0.697921,51.4146449],[0.6979533,51.4145722],[0.7167174,51.4137043],[0.7267187,51.3988594],[0.7273354,51.3986204],[0.7267496,51.3989188],[0.7168294,51.4140864],[0.7236936,51.4173644],[0.7322381,51.4150114],[0.7286906,51.4202395],[0.7146739,51.4197728],[0.7296525,51.4209555]]],[[[0.7466321,51.4232944],[0.7366062,51.4298388],[0.736565,51.4297895],[0.7362748,51.4211158],[0.7411894,51.4151198],[0.7428251,51.4151934],[0.7405653,51.4112275],[0.7321053,51.4090237],[0.7214732,51.4144679],[0.7310035,51.4013713],[0.7508286,51.3947061],[0.7513446,51.3913518],[0.7513798,51.3911234],[0.764234,51.3882296],[0.7702672,51.3792388],[0.7654768,51.3774957],[0.7649835,51.3707897],[0.7735573,51.3677431],[0.7826532,51.3690094],[0.7805978,51.3706584],[0.7880748,51.3733892],[0.7919517,51.3700572],[0.7969434,51.3706918],[0.7963087,51.3685547],[0.8059269,51.3697942],[0.8062535,51.3721752],[0.8437536,51.3635607],[0.8503613,51.3639577],[0.8506741,51.3670962],[0.8393228,51.3705955],[0.8458956,51.3706298],[0.8177157,51.3784512],[0.8293361,51.4066462],[0.834109,51.4063896],[0.8355842,51.4170252],[0.8348219,51.415165],[0.81166,51.4220518],[0.8098251,51.4215448],[0.8025552,51.4151043],[0.8097509,51.4158279],[0.8170878,51.4104478],[0.7984138,51.4100413],[0.7989853,51.4056937],[0.7902087,51.3985838],[0.7904708,51.4104611],[0.7711774,51.4091599],[0.7600139,51.4121339],[0.7702166,51.4142833],[0.7698309,51.4271039],[0.7498247,51.4174372],[0.7466321,51.4232944]]]],"type":"MultiPolygon"},"id":"E02005119","properties":{"code":"E02005119","geography":"MSOA","name":"Swale 005"},"type":"Feature"},{"geometry":{"coordinates":[[[0.8458956,51.3706298],[0.8493846,51.3706479],[0.8568222,51.3649712],[0.8575569,51.37033],[0.8583136,51.3643475],[0.8715593,51.3638955],[0.8745185,51.3637943],[0.881043,51.3577814],[0.8971373,51.3543325],[0.9213328,51.3598375],[0.9372425,51.3705509],[0.9435308,51.3703291],[0.9436283,51.3674809],[0.9509942,51.3734755],[0.9381467,51.3898245],[0.9114633,51.4064233],[0.9019895,51.4164863],[0.8839409,51.4213122],[0.8752054,51.4220558],[0.8373131,51.4252733],[0.8363287,51.425393],[0.8165935,51.427791],[0.81166,51.4220518],[0.8348219,51.415165],[0.8355842,51.4170252],[0.834109,51.4063896],[0.8293361,51.4066462],[0.8177157,51.3784512],[0.8458956,51.3706298]]],"type":"Polygon"},"id":"E02005120","properties":{"code":"E02005120","geography":"MSOA","name":"Swale 006"},"type":"Feature"},{"geometry":{"coordinates":[[[[0.761386,51.3607723],[0.7601384,51.3607139],[0.756776,51.3547093],[0.761386,51.3607723]]],[[[0.7167174,51.4137043],[0.6979533,51.4145722],[0.7002863,51.4093044],[0.698555,51.4095982],[0.6958645,51.4072813],[0.7003189,51.3987766],[0.7045549,51.3985143],[0.7017508,51.3957262],[0.7051158,51.395009],[0.7064492,51.3980172],[0.7055725,51.3945632],[0.7191579,51.3881804],[0.7135112,51.3839485],[0.6974336,51.3803134],[0.7014554,51.3748528],[0.6937332,51.3701894],[0.695585,51.3689179],[0.6980228,51.3715722],[0.6981251,51.3714861],[0.7032491,51.3671731],[0.7140146,51.3655996],[0.7211924,51.3706621],[0.7286326,51.3702919],[0.7253579,51.363499],[0.7277554,51.3579759],[0.7327565,51.3595669],[0.7265324,51.353616],[0.7317157,51.3509885],[0.7342802,51.3544669],[0.7443603,51.3567641],[0.7541907,51.3528671],[0.7570001,51.3609407],[0.762711,51.3625145],[0.7639891,51.364195],[0.7594759,51.3706957],[0.759642,51.3713813],[0.7627953,51.3843917],[0.7584801,51.3832648],[0.7482002,51.3905311],[0.7362149,51.3951786],[0.7358696,51.3942722],[0.7273354,51.3986204],[0.7267187,51.3988594],[0.7167174,51.4137043]]]],"type":"MultiPolygon"},"id":"E02005121","properties":{"code":"E02005121","geography":"MSOA","name":"Swale 007"},"type":"Feature"},{"geometry":{"coordinates":[[[[0.6764777,51.3925498],[0.6820302,51.3963197],[0.670504,51.3943688],[0.6725779,51.3897706],[0.6764777,51.3925498]]],[[[0.6596179,51.3918338],[0.647989,51.3975997],[0.6399108,51.3950857],[0.6408747,51.3875371],[0.6268982,51.3747305],[0.6252761,51.3752099],[0.6232637,51.3692223],[0.6348793,51.3663696],[0.6305948,51.3609107],[0.6109198,51.3364744],[0.6038496,51.3362574],[0.6013751,51.3333016],[0.6070482,51.3307951],[0.6009514,51.3282031],[0.6043951,51.3256974],[0.6142592,51.3350919],[0.6194168,51.3344695],[0.6191991,51.3315638],[0.6397176,51.3367646],[0.6566919,51.3316192],[0.6654468,51.3323606],[0.6877358,51.3484275],[0.6923187,51.3581968],[0.6834321,51.3630568],[0.695585,51.3689179],[0.6937332,51.3701894],[0.7014554,51.3748528],[0.6974336,51.3803134],[0.6952561,51.3798209],[0.6947153,51.38495],[0.7031161,51.3917671],[0.6981323,51.3941412],[0.6864592,51.3915504],[0.6824999,51.3803422],[0.6700361,51.3732999],[0.6716703,51.377352],[0.6668418,51.3788628],[0.6666121,51.379016],[0.6666421,51.3795792],[0.6668271,51.3830584],[0.6625624,51.3827318],[0.6631766,51.3853647],[0.6602873,51.3838987],[0.6596179,51.3918338]]],[[[0.6911698,51.4116721],[0.6829398,51.4126433],[0.6824649,51.4089784],[0.6750415,51.4087084],[0.6778798,51.406387],[0.6720737,51.4101719],[0.6658992,51.4062807],[0.6713491,51.4070667],[0.6726097,51.398404],[0.6803258,51.3999454],[0.6945073,51.3966251],[0.6911698,51.4116721]]],[[[0.6869406,51.422273],[0.6669727,51.4239066],[0.6600845,51.4175858],[0.6680592,51.4204822],[0.6722822,51.4134742],[0.6762814,51.4192747],[0.6804896,51.4192388],[0.6877987,51.4143442],[0.6869406,51.422273]]]],"type":"MultiPolygon"},"id":"E02005122","properties":{"code":"E02005122","geography":"MSOA","name":"Swale 008"},"type":"Feature"},{"geometry":{"coordinates":[[[0.7032491,51.3671731],[0.6981251,51.3714861],[0.6980228,51.3715722],[0.695585,51.3689179],[0.6834321,51.3630568],[0.6923187,51.3581968],[0.6877358,51.3484275],[0.6654468,51.3323606],[0.6566919,51.3316192],[0.6644788,51.3273042],[0.7019754,51.3166966],[0.7045129,51.3261845],[0.7098135,51.3248302],[0.7128894,51.3293048],[0.7192134,51.3328987],[0.7066123,51.3389006],[0.7075997,51.3448184],[0.7142876,51.3466081],[0.7222125,51.3423063],[0.7204734,51.3454246],[0.725176,51.3462034],[0.7290117,51.3432131],[0.7411302,51.3414029],[0.739708,51.3468841],[0.7292561,51.3471829],[0.7335298,51.3485322],[0.7317157,51.3509885],[0.7265324,51.353616],[0.7327565,51.3595669],[0.7277554,51.3579759],[0.7253579,51.363499],[0.7286326,51.3702919],[0.7211924,51.3706621],[0.7140146,51.3655996],[0.7032491,51.3671731]]],"type":"Polygon"},"id":"E02005123","properties":{"code":"E02005123","geography":"MSOA","name":"Swale 009"},"type":"Feature"},{"geometry":{"coordinates":[[[0.7541907,51.3528671],[0.7443603,51.3567641],[0.7342802,51.3544669],[0.7317157,51.3509885],[0.7335298,51.3485322],[0.7292561,51.3471829],[0.739708,51.3468841],[0.7411302,51.3414029],[0.7290117,51.3432131],[0.7226855,51.3400579],[0.7307593,51.3391654],[0.7402681,51.338676],[0.7419362,51.334551],[0.7505516,51.3354787],[0.7573972,51.3403427],[0.7543642,51.3410233],[0.7588676,51.344026],[0.7526668,51.3429088],[0.7509459,51.3456684],[0.753657,51.350124],[0.7412917,51.3456134],[0.7437454,51.3469448],[0.7540732,51.3525292],[0.7541907,51.3528671]]],"type":"Polygon"},"id":"E02005124","properties":{"code":"E02005124","geography":"MSOA","name":"Swale 010"},"type":"Feature"},{"geometry":{"coordinates":[[[[0.7755282,51.3507478],[0.7793162,51.361582],[0.7792179,51.3615912],[0.761386,51.3607723],[0.756776,51.3547093],[0.7567289,51.3546411],[0.7543315,51.35037],[0.753657,51.350124],[0.7509459,51.3456684],[0.7526668,51.3429088],[0.7588676,51.344026],[0.7543642,51.3410233],[0.7573972,51.3403427],[0.7505516,51.3354787],[0.7419362,51.334551],[0.7512511,51.3246055],[0.7643712,51.3404063],[0.7755282,51.3507478]]],[[[0.7647631,51.3630799],[0.7639891,51.364195],[0.762711,51.3625145],[0.7647631,51.3630799]]]],"type":"MultiPolygon"},"id":"E02005125","properties":{"code":"E02005125","geography":"MSOA","name":"Swale 011"},"type":"Feature"},{"geometry":{"coordinates":[[[0.7290117,51.3432131],[0.725176,51.3462034],[0.7204734,51.3454246],[0.7222125,51.3423063],[0.7142876,51.3466081],[0.7075997,51.3448184],[0.7066123,51.3389006],[0.7192134,51.3328987],[0.7128894,51.3293048],[0.7163109,51.3264615],[0.7220687,51.327356],[0.7307593,51.3391654],[0.7226855,51.3400579],[0.7290117,51.3432131]]],"type":"Polygon"},"id":"E02005126","properties":{"code":"E02005126","geography":"MSOA","name":"Swale 012"},"type":"Feature"},{"geometry":{"coordinates":[[[0.7568123,51.278025],[0.7731174,51.3034966],[0.7590888,51.3023656],[0.7688013,51.3136397],[0.7677278,51.3253339],[0.7761933,51.3363899],[0.7696619,51.3348411],[0.7706453,51.339867],[0.7643712,51.3404063],[0.7512511,51.3246055],[0.7419362,51.334551],[0.7402681,51.338676],[0.7307593,51.3391654],[0.7220687,51.327356],[0.7163109,51.3264615],[0.7128894,51.3293048],[0.7098135,51.3248302],[0.7045129,51.3261845],[0.7019754,51.3166966],[0.6644788,51.3273042],[0.6588257,51.3244912],[0.6709261,51.3100923],[0.6691495,51.3079925],[0.675153,51.3056199],[0.6716213,51.2996894],[0.6738136,51.2932717],[0.6804697,51.2911821],[0.6928442,51.29812],[0.713786,51.2994073],[0.7213133,51.2896104],[0.7438428,51.278469],[0.7568123,51.278025]]],"type":"Polygon"},"id":"E02005127","properties":{"code":"E02005127","geography":"MSOA","name":"Swale 013"},"type":"Feature"},{"geometry":{"coordinates":[[[[0.8944915,51.3363826],[0.8926694,51.3354143],[0.8930922,51.3361856],[0.8931215,51.336239],[0.869837,51.3250848],[0.8607472,51.3143353],[0.8722913,51.3110745],[0.8697669,51.3080333],[0.8798627,51.3016138],[0.8883713,51.3006791],[0.8880174,51.3046693],[0.8929441,51.3040573],[0.8941623,51.3072196],[0.8886796,51.3086458],[0.8885318,51.3119874],[0.8831848,51.3121582],[0.885395,51.3225276],[0.8891925,51.3242689],[0.8953109,51.3208698],[0.9088574,51.3248506],[0.9156783,51.3274434],[0.9110474,51.334479],[0.9083595,51.3352632],[0.8988719,51.3339636],[0.8944915,51.3363826]]],[[[0.904112,51.3365021],[0.9021298,51.3358518],[0.9071661,51.3356101],[0.904112,51.3365021]]]],"type":"MultiPolygon"},"id":"E02005128","properties":{"code":"E02005128","geography":"MSOA","name":"Swale 014"},"type":"Feature"},{"geometry":{"coordinates":[[[0.8825561,51.2966743],[0.891766,51.2957676],[0.8920651,51.2995544],[0.9088709,51.2980186],[0.915109,51.3233649],[0.9088574,51.3248506],[0.8953109,51.3208698],[0.8891925,51.3242689],[0.885395,51.3225276],[0.8831848,51.3121582],[0.8885318,51.3119874],[0.8886796,51.3086458],[0.8941623,51.3072196],[0.8929441,51.3040573],[0.8880174,51.3046693],[0.8883713,51.3006791],[0.8798627,51.3016138],[0.8825561,51.2966743]]],"type":"Polygon"},"id":"E02005129","properties":{"code":"E02005129","geography":"MSOA","name":"Swale 015"},"type":"Feature"},{"geometry":{"coordinates":[[[0.8969144,51.343156],[0.8975995,51.344405],[0.8757848,51.3538543],[0.8709877,51.3547556],[0.8627284,51.3563068],[0.8375016,51.3538351],[0.8171403,51.3563819],[0.8111355,51.3521336],[0.8134542,51.3495492],[0.8091527,51.3515354],[0.8142941,51.3582942],[0.7793162,51.361582],[0.7755282,51.3507478],[0.7643712,51.3404063],[0.7706453,51.339867],[0.7696619,51.3348411],[0.7761933,51.3363899],[0.7677278,51.3253339],[0.7688013,51.3136397],[0.7590888,51.3023656],[0.7731174,51.3034966],[0.7568123,51.278025],[0.7645088,51.2767497],[0.7496092,51.2586435],[0.7619244,51.2563778],[0.7767529,51.2665642],[0.7905156,51.2617798],[0.793349,51.2572813],[0.7893477,51.2486343],[0.7964375,51.2462948],[0.7926265,51.2380736],[0.7957337,51.2368777],[0.791215,51.2308263],[0.7950872,51.2285348],[0.8039184,51.2296502],[0.8221388,51.2243478],[0.8417371,51.2371015],[0.852212,51.2312604],[0.8598438,51.2308366],[0.863464,51.2388711],[0.8800211,51.2390249],[0.8920267,51.2476342],[0.9049428,51.2455935],[0.9052907,51.2501844],[0.9069003,51.255819],[0.9012754,51.2607009],[0.8801317,51.2634282],[0.8771774,51.2612933],[0.868693,51.268272],[0.8792796,51.2787543],[0.8721767,51.2845165],[0.8825561,51.2966743],[0.8798627,51.3016138],[0.8697669,51.3080333],[0.8722913,51.3110745],[0.8607472,51.3143353],[0.869837,51.3250848],[0.8931215,51.336239],[0.8952862,51.3401869],[0.8953121,51.3402342],[0.8955405,51.342408],[0.8969144,51.343156]]],"type":"Polygon"},"id":"E02005130","properties":{"code":"E02005130","geography":"MSOA","name":"Swale 016"},"type":"Feature"},{"geometry":{"coordinates":[[[[0.8968964,51.343123],[0.8969144,51.343156],[0.8955405,51.342408],[0.8953121,51.3402342],[0.8968964,51.343123]]],[[[0.9581204,51.3379499],[0.9502669,51.3457606],[0.9190122,51.3457141],[0.8967014,51.3414601],[0.896362,51.3361634],[0.9020133,51.3358575],[0.9021298,51.3358518],[0.904112,51.3365021],[0.9071661,51.3356101],[0.9099071,51.3354751],[0.9084074,51.3352698],[0.9083595,51.3352632],[0.9110474,51.334479],[0.9156783,51.3274434],[0.9088574,51.3248506],[0.915109,51.3233649],[0.9088709,51.2980186],[0.8920651,51.2995544],[0.891766,51.2957676],[0.8825561,51.2966743],[0.8721767,51.2845165],[0.8792796,51.2787543],[0.868693,51.268272],[0.8771774,51.2612933],[0.8801317,51.2634282],[0.9012754,51.2607009],[0.9069003,51.255819],[0.9052907,51.2501844],[0.9194998,51.2511007],[0.9236981,51.2594123],[0.9418928,51.2534394],[0.951082,51.2575772],[0.9550028,51.2702434],[0.9732491,51.268592],[0.9831631,51.2746672],[0.9817228,51.2776675],[1.0059374,51.2837791],[1.004022,51.2881754],[1.0109959,51.3029128],[1.0065817,51.3094645],[1.0169539,51.3129306],[1.0150312,51.3167164],[1.0009319,51.3189845],[0.9719327,51.33824],[0.9638763,51.3359443],[0.9581204,51.3379499]]]],"type":"MultiPolygon"},"id":"E02005131","properties":{"code":"E02005131","geography":"MSOA","name":"Swale 017"},"type":"Feature"}],"type":"FeatureCollection"}
