{"features":[{"geometry":{"coordinates":[[[[-1.309412,50.8687686],[-1.309688,50.8690081],[-1.3097131,50.8684714],[-1.309412,50.8687686]]],[[[-1.2898242,50.893804],[-1.2897888,50.8939142],[-1.2911565,50.892441],[-1.2903004,50.8923189],[-1.2898242,50.893804]]],[[[-1.2546917,50.8870279],[-1.2652599,50.8979176],[-1.2655237,50.8977572],[-1.2871301,50.8953723],[-1.2877513,50.8917467],[-1.2979922,50.8870216],[-1.3001072,50.8854474],[-1.3020517,50.8836516],[-1.2963563,50.8792659],[-1.3054222,50.8746311],[-1.3057655,50.8744057],[-1.3078298,50.8634347],[-1.3077345,50.8631192],[-1.3017216,50.8611544],[-1.2932528,50.8665968],[-1.2908237,50.8651538],[-1.2876533,50.8703112],[-1.2810463,50.8691892],[-1.2685096,50.873634],[-1.2724458,50.8782255],[-1.255295,50.8749574],[-1.2546917,50.8870279]]]],"type":"MultiPolygon"},"id":"E02004727","properties":{"code":"E02004727","geography":"MSOA","name":"Fareham 001"},"type":"Feature"},{"geometry":{"coordinates":[[[-1.255295,50.8749574],[-1.2724458,50.8782255],[-1.2685096,50.873634],[-1.2810463,50.8691892],[-1.2769084,50.8644435],[-1.2728538,50.8690431],[-1.2741666,50.8657532],[-1.2666923,50.8673618],[-1.2706944,50.8632078],[-1.2603215,50.8613059],[-1.2583594,50.8594631],[-1.253353,50.8620097],[-1.2444043,50.8554778],[-1.2391549,50.8648078],[-1.255295,50.8749574]]],"type":"Polygon"},"id":"E02004728","properties":{"code":"E02004728","geography":"MSOA","name":"Fareham 002"},"type":"Feature"},{"geometry":{"coordinates":[[[-1.2077839,50.8577813],[-1.1948282,50.8571311],[-1.2009063,50.866357],[-1.2235701,50.8675809],[-1.2290287,50.8612156],[-1.2077839,50.8577813]]],"type":"Polygon"},"id":"E02004729","properties":{"code":"E02004729","geography":"MSOA","name":"Fareham 003"},"type":"Feature"},{"geometry":{"coordinates":[[[-1.1432908,50.8591008],[-1.1445449,50.8666672],[-1.1517137,50.8702833],[-1.1500164,50.8793894],[-1.1652875,50.8879374],[-1.1883236,50.8880126],[-1.1881831,50.8839577],[-1.1972568,50.884133],[-1.1979756,50.8759043],[-1.2159685,50.8750568],[-1.2235701,50.8675809],[-1.2009063,50.866357],[-1.1948282,50.8571311],[-1.2077839,50.8577813],[-1.2091755,50.8546266],[-1.2006674,50.8518696],[-1.1903869,50.8525438],[-1.1928819,50.8543019],[-1.1872464,50.8573488],[-1.1838326,50.8556347],[-1.18061,50.856574],[-1.1833878,50.8606517],[-1.1688514,50.8632374],[-1.1480765,50.8576997],[-1.1432908,50.8591008]]],"type":"Polygon"},"id":"E02004730","properties":{"code":"E02004730","geography":"MSOA","name":"Fareham 004"},"type":"Feature"},{"geometry":{"coordinates":[[[-1.2603215,50.8613059],[-1.2706944,50.8632078],[-1.2666923,50.8673618],[-1.2741666,50.8657532],[-1.2728538,50.8690431],[-1.2769084,50.8644435],[-1.2879539,50.8584186],[-1.2827729,50.8546719],[-1.2848645,50.8522336],[-1.2806042,50.8518598],[-1.2814139,50.8480408],[-1.2554903,50.8489395],[-1.2708248,50.8548473],[-1.2603215,50.8613059]]],"type":"Polygon"},"id":"E02004731","properties":{"code":"E02004731","geography":"MSOA","name":"Fareham 005"},"type":"Feature"},{"geometry":{"coordinates":[[[-1.2810463,50.8691892],[-1.2876533,50.8703112],[-1.2908237,50.8651538],[-1.2932528,50.8665968],[-1.3017216,50.8611544],[-1.3077345,50.8631192],[-1.3033449,50.8485847],[-1.3080149,50.84526],[-1.3064179,50.8406895],[-1.2673696,50.8274311],[-1.2621518,50.8385943],[-1.2553779,50.8418959],[-1.2524564,50.8479445],[-1.2554903,50.8489395],[-1.2814139,50.8480408],[-1.2806042,50.8518598],[-1.2848645,50.8522336],[-1.2827729,50.8546719],[-1.2879539,50.8584186],[-1.2769084,50.8644435],[-1.2810463,50.8691892]]],"type":"Polygon"},"id":"E02004732","properties":{"code":"E02004732","geography":"MSOA","name":"Fareham 006"},"type":"Feature"},{"geometry":{"coordinates":[[[-1.2296625,50.8606143],[-1.2391549,50.8648078],[-1.2444043,50.8554778],[-1.253353,50.8620097],[-1.2583594,50.8594631],[-1.2603215,50.8613059],[-1.2708248,50.8548473],[-1.2554903,50.8489395],[-1.2524564,50.8479445],[-1.2553779,50.8418959],[-1.2621518,50.8385943],[-1.2673696,50.8274311],[-1.2672186,50.8273798],[-1.2461901,50.8172967],[-1.2431629,50.8182402],[-1.2429057,50.8183204],[-1.2415769,50.817904],[-1.2342454,50.8332625],[-1.2216916,50.833571],[-1.2194428,50.8364731],[-1.2109126,50.8361892],[-1.2111444,50.8459392],[-1.2226847,50.8474328],[-1.2285888,50.8454214],[-1.2281398,50.8533703],[-1.2204556,50.8535151],[-1.2289362,50.8564097],[-1.2296625,50.8606143]]],"type":"Polygon"},"id":"E02004733","properties":{"code":"E02004733","geography":"MSOA","name":"Fareham 007"},"type":"Feature"},{"geometry":{"coordinates":[[[-1.1432908,50.8591008],[-1.1480765,50.8576997],[-1.1688514,50.8632374],[-1.1833878,50.8606517],[-1.18061,50.856574],[-1.1838326,50.8556347],[-1.1835414,50.8500915],[-1.1915692,50.8480467],[-1.1855371,50.8468269],[-1.1803902,50.8369188],[-1.1793528,50.8374939],[-1.1757614,50.8421206],[-1.179008,50.8487097],[-1.1789785,50.8488442],[-1.1763917,50.8490409],[-1.1693729,50.8495743],[-1.167,50.8529548],[-1.1682731,50.8503316],[-1.1692723,50.8482724],[-1.1761524,50.8479936],[-1.1767338,50.84797],[-1.1757352,50.8461675],[-1.172684,50.8406591],[-1.1539557,50.8447476],[-1.1471287,50.8481166],[-1.1476887,50.8533146],[-1.1392995,50.8539199],[-1.1328103,50.858213],[-1.1432908,50.8591008]]],"type":"Polygon"},"id":"E02004734","properties":{"code":"E02004734","geography":"MSOA","name":"Fareham 008"},"type":"Feature"},{"geometry":{"coordinates":[[[-1.2077839,50.8577813],[-1.2290287,50.8612156],[-1.2296625,50.8606143],[-1.2289362,50.8564097],[-1.2204556,50.8535151],[-1.2281398,50.8533703],[-1.2285888,50.8454214],[-1.2226847,50.8474328],[-1.2111444,50.8459392],[-1.202771,50.8450744],[-1.2006674,50.8518696],[-1.2091755,50.8546266],[-1.2077839,50.8577813]]],"type":"Polygon"},"id":"E02004735","properties":{"code":"E02004735","geography":"MSOA","name":"Fareham 009"},"type":"Feature"},{"geometry":{"coordinates":[[[-1.1176464,50.8514858],[-1.1158626,50.858281],[-1.1328103,50.858213],[-1.1392995,50.8539199],[-1.1476887,50.8533146],[-1.1471287,50.8481166],[-1.1539557,50.8447476],[-1.1537968,50.8447823],[-1.1523437,50.8411299],[-1.152138,50.8410815],[-1.1519059,50.8410318],[-1.1492337,50.8405493],[-1.1407643,50.8390195],[-1.132611,50.8443879],[-1.1271973,50.8414715],[-1.1314069,50.8537972],[-1.125624,50.8532616],[-1.1240027,50.8492778],[-1.1176464,50.8514858]]],"type":"Polygon"},"id":"E02004736","properties":{"code":"E02004736","geography":"MSOA","name":"Fareham 010"},"type":"Feature"},{"geometry":{"coordinates":[[[-1.1838326,50.8556347],[-1.1872464,50.8573488],[-1.1928819,50.8543019],[-1.1903869,50.8525438],[-1.2006674,50.8518696],[-1.202771,50.8450744],[-1.194602,50.8396278],[-1.1864975,50.8386624],[-1.1871104,50.8357692],[-1.1816775,50.8367079],[-1.1803902,50.8369188],[-1.1855371,50.8468269],[-1.1915692,50.8480467],[-1.1835414,50.8500915],[-1.1838326,50.8556347]]],"type":"Polygon"},"id":"E02004737","properties":{"code":"E02004737","geography":"MSOA","name":"Fareham 011"},"type":"Feature"},{"geometry":{"coordinates":[[[-1.1176464,50.8514858],[-1.1240027,50.8492778],[-1.125624,50.8532616],[-1.1314069,50.8537972],[-1.1271973,50.8414715],[-1.132611,50.8443879],[-1.1407643,50.8390195],[-1.1369667,50.8383334],[-1.1357463,50.8381128],[-1.1129806,50.836136],[-1.1131211,50.8363676],[-1.1160995,50.8412785],[-1.1160634,50.8438596],[-1.1153051,50.8437972],[-1.1176464,50.8514858]]],"type":"Polygon"},"id":"E02004738","properties":{"code":"E02004738","geography":"MSOA","name":"Fareham 012"},"type":"Feature"},{"geometry":{"coordinates":[[[-1.202771,50.8450744],[-1.2111444,50.8459392],[-1.2109126,50.8361892],[-1.2194428,50.8364731],[-1.2216916,50.833571],[-1.224632,50.8296179],[-1.2118939,50.8184993],[-1.2141581,50.8108022],[-1.1870112,50.8114066],[-1.1788555,50.8143244],[-1.1863133,50.819599],[-1.1891265,50.8226812],[-1.1816775,50.8367079],[-1.1871104,50.8357692],[-1.1864975,50.8386624],[-1.194602,50.8396278],[-1.202771,50.8450744]]],"type":"Polygon"},"id":"E02004739","properties":{"code":"E02004739","geography":"MSOA","name":"Fareham 013"},"type":"Feature"},{"geometry":{"coordinates":[[[-1.2141581,50.8108022],[-1.2118939,50.8184993],[-1.224632,50.8296179],[-1.2216916,50.833571],[-1.2342454,50.8332625],[-1.2415769,50.817904],[-1.2144041,50.8093837],[-1.214229,50.8093288],[-1.2141581,50.8108022]]],"type":"Polygon"},"id":"E02004740","properties":{"code":"E02004740","geography":"MSOA","name":"Fareham 014"},"type":"Feature"}],"type":"FeatureCollection"}
