{"features":[{"geometry":{"coordinates":[[[-3.5855596,50.7438336],[-3.5921417,50.7432447],[-3.5959412,50.7477765],[-3.6019507,50.7460034],[-3.6088522,50.7542272],[-3.6199307,50.7509955],[-3.6221881,50.7557669],[-3.6397174,50.7552768],[-3.6414869,50.7586143],[-3.65357,50.7564128],[-3.6715804,50.7639863],[-3.6801128,50.7499456],[-3.691831,50.753781],[-3.7084406,50.7477766],[-3.7233257,50.7281632],[-3.7374963,50.7235394],[-3.7242233,50.7156061],[-3.7332187,50.7114289],[-3.7355761,50.7031935],[-3.7322736,50.6970092],[-3.7238384,50.6939614],[-3.7232933,50.6901352],[-3.7013107,50.6924915],[-3.6989431,50.6968195],[-3.6879997,50.6902736],[-3.6897848,50.6969604],[-3.6764695,50.6898391],[-3.6826353,50.6857516],[-3.6878713,50.6877411],[-3.6891339,50.684361],[-3.6703558,50.6863926],[-3.6538126,50.6729136],[-3.6458867,50.6709888],[-3.6446656,50.6685849],[-3.6534059,50.6649074],[-3.6533994,50.6579726],[-3.6431272,50.6556102],[-3.641734,50.6509532],[-3.6618349,50.6492766],[-3.660084,50.6558025],[-3.6658635,50.6589983],[-3.7078234,50.6439387],[-3.6922816,50.6326303],[-3.6657473,50.6337674],[-3.6564102,50.6283342],[-3.6579159,50.6232808],[-3.6364497,50.6235398],[-3.629153,50.6184848],[-3.6183525,50.6263859],[-3.6037621,50.6260271],[-3.5995468,50.6411855],[-3.5929173,50.6451314],[-3.5839041,50.6457444],[-3.5901002,50.6537671],[-3.6022775,50.6555991],[-3.6005286,50.6689011],[-3.5938226,50.6695793],[-3.5938666,50.6637375],[-3.5773892,50.6509015],[-3.5729157,50.6676043],[-3.5786313,50.6736417],[-3.5732442,50.675827],[-3.5736529,50.6805116],[-3.5587377,50.6729005],[-3.5433987,50.6772444],[-3.5347831,50.6739811],[-3.5292262,50.6873778],[-3.539077,50.6929292],[-3.5480694,50.7034351],[-3.5628059,50.7069596],[-3.5687199,50.7145855],[-3.5646123,50.7178632],[-3.5676553,50.7257033],[-3.570203,50.7278076],[-3.5605609,50.7301124],[-3.5696405,50.7450597],[-3.5830133,50.7415891],[-3.5855596,50.7438336]]],"type":"Polygon"},"id":"E02004201","properties":{"code":"E02004201","geography":"MSOA","name":"Teignbridge 001"},"type":"Feature"},{"geometry":{"coordinates":[[[-3.5017559,50.6943362],[-3.5076487,50.6913716],[-3.5228031,50.6925883],[-3.5268172,50.6953318],[-3.5293782,50.6927854],[-3.539077,50.6929292],[-3.5292262,50.6873778],[-3.5347831,50.6739811],[-3.5433987,50.6772444],[-3.5587377,50.6729005],[-3.5736529,50.6805116],[-3.5732442,50.675827],[-3.5786313,50.6736417],[-3.5729157,50.6676043],[-3.5773892,50.6509015],[-3.5938666,50.6637375],[-3.5938226,50.6695793],[-3.6005286,50.6689011],[-3.6022775,50.6555991],[-3.5901002,50.6537671],[-3.5839041,50.6457444],[-3.5739452,50.6448873],[-3.5450257,50.627392],[-3.5541551,50.6117326],[-3.5507503,50.5996638],[-3.5340779,50.5900591],[-3.5278702,50.5816062],[-3.5188553,50.584487],[-3.4984531,50.6020482],[-3.4885941,50.6053547],[-3.4875977,50.6114573],[-3.4800296,50.6100125],[-3.4468836,50.6170189],[-3.4468996,50.6170952],[-3.452417,50.6423048],[-3.4524648,50.6424707],[-3.4564014,50.6561255],[-3.4627961,50.6604172],[-3.4632732,50.6607373],[-3.4633796,50.6608087],[-3.46441,50.6610858],[-3.4643026,50.661428],[-3.4644835,50.6615494],[-3.4680812,50.6639632],[-3.469838,50.6822443],[-3.4769939,50.6841997],[-3.4776101,50.6850212],[-3.4927145,50.6886222],[-3.4943363,50.6927526],[-3.5017559,50.6943362]]],"type":"Polygon"},"id":"E02004202","properties":{"code":"E02004202","geography":"MSOA","name":"Teignbridge 002"},"type":"Feature"},{"geometry":{"coordinates":[[[-3.7322736,50.6970092],[-3.7495264,50.6971671],[-3.7616316,50.6932252],[-3.7825545,50.6955366],[-3.7867674,50.6921671],[-3.8089556,50.6939577],[-3.8116039,50.6910339],[-3.8072534,50.6819981],[-3.7971986,50.6749221],[-3.8119774,50.659006],[-3.8046275,50.6559148],[-3.8141317,50.6513136],[-3.8258931,50.6519733],[-3.8294461,50.6478328],[-3.837735,50.6498305],[-3.8434407,50.6470867],[-3.8459046,50.635707],[-3.8733162,50.6142683],[-3.8824616,50.5967341],[-3.8774264,50.5756956],[-3.8697341,50.5711461],[-3.8762863,50.5585896],[-3.875583,50.5425425],[-3.8712631,50.5341028],[-3.858615,50.532591],[-3.851493,50.5361629],[-3.8445904,50.5343827],[-3.8273444,50.5163869],[-3.821871,50.516861],[-3.8089312,50.5328712],[-3.8137001,50.5391107],[-3.8114761,50.545074],[-3.8199001,50.5507725],[-3.8166619,50.5598412],[-3.8096309,50.5626488],[-3.8009517,50.5588756],[-3.7962713,50.5613333],[-3.7873582,50.5602525],[-3.7805787,50.5676316],[-3.7772638,50.5704514],[-3.7801296,50.5742424],[-3.7758631,50.574723],[-3.7641005,50.5960991],[-3.7219758,50.5821734],[-3.7102176,50.5836401],[-3.6858553,50.5754899],[-3.6793075,50.5771828],[-3.6898609,50.5793476],[-3.6991336,50.5864914],[-3.6973631,50.5906813],[-3.6871244,50.5840492],[-3.6806509,50.5885081],[-3.6814049,50.59625],[-3.6753536,50.5959106],[-3.6828383,50.600947],[-3.6686212,50.5957535],[-3.658972,50.6057026],[-3.6574779,50.6011454],[-3.6497335,50.5994533],[-3.6505731,50.6054784],[-3.6540312,50.6091805],[-3.6657661,50.6050219],[-3.6804485,50.6059694],[-3.6759497,50.617582],[-3.6922816,50.6326303],[-3.7078234,50.6439387],[-3.6658635,50.6589983],[-3.660084,50.6558025],[-3.6618349,50.6492766],[-3.641734,50.6509532],[-3.6431272,50.6556102],[-3.6533994,50.6579726],[-3.6534059,50.6649074],[-3.6446656,50.6685849],[-3.6458867,50.6709888],[-3.6538126,50.6729136],[-3.6703558,50.6863926],[-3.6891339,50.684361],[-3.6878713,50.6877411],[-3.6826353,50.6857516],[-3.6764695,50.6898391],[-3.6897848,50.6969604],[-3.6879997,50.6902736],[-3.6989431,50.6968195],[-3.7013107,50.6924915],[-3.7232933,50.6901352],[-3.7238384,50.6939614],[-3.7322736,50.6970092]]],"type":"Polygon"},"id":"E02004203","properties":{"code":"E02004203","geography":"MSOA","name":"Teignbridge 003"},"type":"Feature"},{"geometry":{"coordinates":[[[-3.5507503,50.5996638],[-3.5541551,50.6117326],[-3.5450257,50.627392],[-3.5739452,50.6448873],[-3.5839041,50.6457444],[-3.5929173,50.6451314],[-3.5995468,50.6411855],[-3.6037621,50.6260271],[-3.6183525,50.6263859],[-3.629153,50.6184848],[-3.6364497,50.6235398],[-3.6579159,50.6232808],[-3.6564102,50.6283342],[-3.6657473,50.6337674],[-3.6922816,50.6326303],[-3.6759497,50.617582],[-3.6804485,50.6059694],[-3.6657661,50.6050219],[-3.6540312,50.6091805],[-3.6505731,50.6054784],[-3.6497335,50.5994533],[-3.6574779,50.6011454],[-3.658972,50.6057026],[-3.6686212,50.5957535],[-3.6828383,50.600947],[-3.6753536,50.5959106],[-3.6814049,50.59625],[-3.6806509,50.5885081],[-3.6763461,50.5875848],[-3.6792798,50.581884],[-3.6747808,50.5840379],[-3.6720944,50.5820893],[-3.6659996,50.5877287],[-3.6619144,50.5870966],[-3.6601084,50.5913961],[-3.6481104,50.5922875],[-3.6381155,50.5795131],[-3.6411584,50.5760064],[-3.6333144,50.5784123],[-3.6267839,50.5752806],[-3.6281173,50.5834075],[-3.6143808,50.5921569],[-3.6070795,50.5905862],[-3.6015641,50.593235],[-3.5940754,50.5855602],[-3.5892414,50.585163],[-3.5741027,50.5873391],[-3.5507503,50.5996638]]],"type":"Polygon"},"id":"E02004204","properties":{"code":"E02004204","geography":"MSOA","name":"Teignbridge 004"},"type":"Feature"},{"geometry":{"coordinates":[[[[-3.4247266,50.610992],[-3.4246684,50.6110383],[-3.427762,50.6129747],[-3.4280247,50.6109517],[-3.4283986,50.6080727],[-3.4247266,50.610992]]],[[[-3.4455694,50.6107352],[-3.4468836,50.6170189],[-3.4800296,50.6100125],[-3.4875977,50.6114573],[-3.4885941,50.6053547],[-3.4984531,50.6020482],[-3.4834623,50.5822507],[-3.4604724,50.5830781],[-3.4596526,50.5834916],[-3.4581534,50.5848948],[-3.4431899,50.592106],[-3.4429066,50.5958255],[-3.4397516,50.5984377],[-3.4393907,50.5993309],[-3.4289307,50.6076496],[-3.4436598,50.6016017],[-3.4445311,50.6057696],[-3.4455694,50.6107352]]]],"type":"MultiPolygon"},"id":"E02004205","properties":{"code":"E02004205","geography":"MSOA","name":"Teignbridge 005"},"type":"Feature"},{"geometry":{"coordinates":[[[-3.4604724,50.5830781],[-3.4834623,50.5822507],[-3.4984531,50.6020482],[-3.5188553,50.584487],[-3.5278702,50.5816062],[-3.5224824,50.5679476],[-3.5038514,50.5665443],[-3.4831309,50.5732927],[-3.4807112,50.5683953],[-3.4871041,50.5591753],[-3.482621,50.555365],[-3.4813241,50.5560764],[-3.4790777,50.5580605],[-3.477017,50.5603038],[-3.4762844,50.5605274],[-3.4747679,50.5618664],[-3.4689867,50.5628425],[-3.468562,50.5630753],[-3.4683994,50.5649052],[-3.4687008,50.5739788],[-3.4686374,50.5740585],[-3.4686412,50.574197],[-3.4677981,50.5751138],[-3.4674534,50.5755471],[-3.4673912,50.5762467],[-3.4654551,50.5780595],[-3.4643462,50.5794536],[-3.4633471,50.5800331],[-3.4628171,50.5805292],[-3.4604724,50.5830781]]],"type":"Polygon"},"id":"E02004206","properties":{"code":"E02004206","geography":"MSOA","name":"Teignbridge 006"},"type":"Feature"},{"geometry":{"coordinates":[[[-3.6806509,50.5885081],[-3.6871244,50.5840492],[-3.6973631,50.5906813],[-3.6991336,50.5864914],[-3.6898609,50.5793476],[-3.6793075,50.5771828],[-3.6858553,50.5754899],[-3.7102176,50.5836401],[-3.7219758,50.5821734],[-3.7641005,50.5960991],[-3.7758631,50.574723],[-3.7801296,50.5742424],[-3.7772638,50.5704514],[-3.7805787,50.5676316],[-3.7648237,50.5596368],[-3.759952,50.5503704],[-3.7122562,50.5480877],[-3.7115298,50.5391078],[-3.7062685,50.5344908],[-3.7131613,50.5270323],[-3.6920475,50.5249556],[-3.6848327,50.5213116],[-3.6706321,50.5318882],[-3.6604879,50.534847],[-3.6654824,50.5457506],[-3.6609835,50.5562705],[-3.6411584,50.5760064],[-3.6381155,50.5795131],[-3.6481104,50.5922875],[-3.6601084,50.5913961],[-3.6619144,50.5870966],[-3.6659996,50.5877287],[-3.6720944,50.5820893],[-3.6747808,50.5840379],[-3.6792798,50.581884],[-3.6763461,50.5875848],[-3.6806509,50.5885081]]],"type":"Polygon"},"id":"E02004207","properties":{"code":"E02004207","geography":"MSOA","name":"Teignbridge 007"},"type":"Feature"},{"geometry":{"coordinates":[[[-3.482621,50.555365],[-3.4871041,50.5591753],[-3.4807112,50.5683953],[-3.4831309,50.5732927],[-3.5038514,50.5665443],[-3.5224824,50.5679476],[-3.5154048,50.5539155],[-3.5131173,50.5521608],[-3.5088737,50.5548106],[-3.5058239,50.5495377],[-3.4891024,50.5495642],[-3.4823753,50.5551577],[-3.4825069,50.5552182],[-3.4827466,50.5552961],[-3.482621,50.555365]]],"type":"Polygon"},"id":"E02004208","properties":{"code":"E02004208","geography":"MSOA","name":"Teignbridge 008"},"type":"Feature"},{"geometry":{"coordinates":[[[-3.5986546,50.5663556],[-3.6026009,50.5699396],[-3.6061965,50.5686794],[-3.6068719,50.5626778],[-3.601228,50.5599382],[-3.5969771,50.5619312],[-3.5999586,50.5522927],[-3.6035357,50.5540571],[-3.601323,50.5498642],[-3.6118836,50.5497047],[-3.5961742,50.5340648],[-3.586955,50.5377486],[-3.5837807,50.5385418],[-3.5907858,50.5388604],[-3.5807109,50.5393088],[-3.5801954,50.5394376],[-3.577568,50.5417688],[-3.5863613,50.5470088],[-3.5872727,50.5524234],[-3.5915039,50.5509353],[-3.5884781,50.5557622],[-3.5986546,50.5663556]]],"type":"Polygon"},"id":"E02004209","properties":{"code":"E02004209","geography":"MSOA","name":"Teignbridge 009"},"type":"Feature"},{"geometry":{"coordinates":[[[-3.4891024,50.5495642],[-3.5058239,50.5495377],[-3.5088737,50.5548106],[-3.5131173,50.5521608],[-3.5154048,50.5539155],[-3.5209958,50.5511537],[-3.5195403,50.5459977],[-3.5191328,50.5460025],[-3.5068417,50.5462198],[-3.5009154,50.5464079],[-3.5008695,50.5460164],[-3.5002671,50.5408816],[-3.4964263,50.5417054],[-3.4908154,50.5470425],[-3.4891024,50.5495642]]],"type":"Polygon"},"id":"E02004210","properties":{"code":"E02004210","geography":"MSOA","name":"Teignbridge 010"},"type":"Feature"},{"geometry":{"coordinates":[[[[-3.5045703,50.5239782],[-3.4966894,50.5380424],[-3.5097695,50.5428759],[-3.5393159,50.5404428],[-3.539885,50.5392435],[-3.5383766,50.5342535],[-3.5421112,50.529995],[-3.5382743,50.5271056],[-3.5468644,50.5232147],[-3.547923,50.510965],[-3.5391162,50.504488],[-3.5299368,50.5046002],[-3.5199809,50.5110557],[-3.5208912,50.5176966],[-3.5091535,50.5166207],[-3.5045703,50.5239782]]],[[[-3.5154048,50.5539155],[-3.5224824,50.5679476],[-3.5278702,50.5816062],[-3.5340779,50.5900591],[-3.5507503,50.5996638],[-3.5741027,50.5873391],[-3.5892414,50.585163],[-3.5986546,50.5663556],[-3.5884781,50.5557622],[-3.5915039,50.5509353],[-3.5872727,50.5524234],[-3.5863613,50.5470088],[-3.577568,50.5417688],[-3.5770963,50.5421873],[-3.5666829,50.5429402],[-3.5589933,50.5455312],[-3.5195403,50.5459977],[-3.5209958,50.5511537],[-3.5154048,50.5539155]]]],"type":"MultiPolygon"},"id":"E02004211","properties":{"code":"E02004211","geography":"MSOA","name":"Teignbridge 011"},"type":"Feature"},{"geometry":{"coordinates":[[[-3.6083788,50.5378341],[-3.6164114,50.5473591],[-3.6173921,50.5409215],[-3.6349344,50.5368164],[-3.6343155,50.5334233],[-3.6384115,50.5357451],[-3.6406259,50.5282476],[-3.6283613,50.5249075],[-3.6231274,50.526367],[-3.6197474,50.5272654],[-3.6239351,50.5324407],[-3.6166479,50.5345166],[-3.6143033,50.5323877],[-3.6058795,50.5338514],[-3.6083788,50.5378341]]],"type":"Polygon"},"id":"E02004212","properties":{"code":"E02004212","geography":"MSOA","name":"Teignbridge 012"},"type":"Feature"},{"geometry":{"coordinates":[[[-3.5892414,50.585163],[-3.5940754,50.5855602],[-3.6015641,50.593235],[-3.6070795,50.5905862],[-3.6143808,50.5921569],[-3.6281173,50.5834075],[-3.6267839,50.5752806],[-3.6333144,50.5784123],[-3.6411584,50.5760064],[-3.6609835,50.5562705],[-3.6654824,50.5457506],[-3.6604879,50.534847],[-3.6706321,50.5318882],[-3.6848327,50.5213116],[-3.6581803,50.5104648],[-3.6646136,50.4991636],[-3.6571419,50.495676],[-3.6583422,50.492137],[-3.6658642,50.4925168],[-3.6668302,50.500394],[-3.6738583,50.5015975],[-3.6807927,50.492697],[-3.6729692,50.4785637],[-3.6585978,50.4798758],[-3.6483428,50.4906732],[-3.649543,50.4958486],[-3.6388293,50.4978146],[-3.6421881,50.5031989],[-3.6303396,50.5057714],[-3.6265194,50.515744],[-3.6218686,50.5186773],[-3.6231274,50.526367],[-3.6283613,50.5249075],[-3.6406259,50.5282476],[-3.6384115,50.5357451],[-3.6343155,50.5334233],[-3.6349344,50.5368164],[-3.6173921,50.5409215],[-3.6164114,50.5473591],[-3.6083788,50.5378341],[-3.5961742,50.5340648],[-3.6118836,50.5497047],[-3.601323,50.5498642],[-3.6035357,50.5540571],[-3.5999586,50.5522927],[-3.5969771,50.5619312],[-3.601228,50.5599382],[-3.6068719,50.5626778],[-3.6061965,50.5686794],[-3.6026009,50.5699396],[-3.5986546,50.5663556],[-3.5892414,50.585163]]],"type":"Polygon"},"id":"E02004213","properties":{"code":"E02004213","geography":"MSOA","name":"Teignbridge 013"},"type":"Feature"},{"geometry":{"coordinates":[[[-3.5961742,50.5340648],[-3.6083788,50.5378341],[-3.6058795,50.5338514],[-3.6143033,50.5323877],[-3.6155707,50.5298339],[-3.6060458,50.5287383],[-3.6080779,50.5264759],[-3.5934371,50.5247079],[-3.5869884,50.5270144],[-3.5856985,50.531845],[-3.586955,50.5377486],[-3.5961742,50.5340648]]],"type":"Polygon"},"id":"E02004214","properties":{"code":"E02004214","geography":"MSOA","name":"Teignbridge 014"},"type":"Feature"},{"geometry":{"coordinates":[[[-3.6143033,50.5323877],[-3.6166479,50.5345166],[-3.6239351,50.5324407],[-3.6197474,50.5272654],[-3.6231274,50.526367],[-3.6218686,50.5186773],[-3.6265194,50.515744],[-3.6064154,50.514184],[-3.610235,50.5114833],[-3.6030315,50.5089797],[-3.593217,50.5158696],[-3.5887786,50.5140071],[-3.5934371,50.5247079],[-3.6080779,50.5264759],[-3.6060458,50.5287383],[-3.6155707,50.5298339],[-3.6143033,50.5323877]]],"type":"Polygon"},"id":"E02004215","properties":{"code":"E02004215","geography":"MSOA","name":"Teignbridge 015"},"type":"Feature"},{"geometry":{"coordinates":[[[-3.5886812,50.5139812],[-3.5810569,50.5143193],[-3.5784187,50.5194568],[-3.5702575,50.5158683],[-3.5732086,50.5258741],[-3.5856985,50.531845],[-3.5869884,50.5270144],[-3.5934371,50.5247079],[-3.5887786,50.5140071],[-3.5886812,50.5139812]]],"type":"Polygon"},"id":"E02004216","properties":{"code":"E02004216","geography":"MSOA","name":"Teignbridge 016"},"type":"Feature"},{"geometry":{"coordinates":[[[-3.7131613,50.5270323],[-3.7062685,50.5344908],[-3.7115298,50.5391078],[-3.7122562,50.5480877],[-3.759952,50.5503704],[-3.7648237,50.5596368],[-3.7805787,50.5676316],[-3.7873582,50.5602525],[-3.7962713,50.5613333],[-3.8009517,50.5588756],[-3.8096309,50.5626488],[-3.8166619,50.5598412],[-3.8199001,50.5507725],[-3.8114761,50.545074],[-3.8137001,50.5391107],[-3.8089312,50.5328712],[-3.7994493,50.536399],[-3.7948513,50.5325731],[-3.7994814,50.5217152],[-3.7893916,50.521232],[-3.7847686,50.5178604],[-3.7870825,50.5050249],[-3.7917545,50.501441],[-3.7758714,50.4955855],[-3.7907853,50.4956233],[-3.789615,50.4929921],[-3.7982517,50.489432],[-3.7911769,50.4823012],[-3.7932795,50.478493],[-3.7862544,50.4778447],[-3.787376,50.4720165],[-3.7819894,50.4723049],[-3.7766542,50.4639619],[-3.7588375,50.4668321],[-3.7578684,50.474434],[-3.7691078,50.4857964],[-3.7671579,50.5044011],[-3.756321,50.5104235],[-3.7418687,50.507951],[-3.7426726,50.5122573],[-3.7131613,50.5270323]]],"type":"Polygon"},"id":"E02004217","properties":{"code":"E02004217","geography":"MSOA","name":"Teignbridge 017"},"type":"Feature"},{"geometry":{"coordinates":[[[[-3.580564,50.5393153],[-3.5802421,50.5393962],[-3.5801954,50.5394376],[-3.5807109,50.5393088],[-3.580564,50.5393153]]],[[[-3.5510083,50.5411267],[-3.5791876,50.5373954],[-3.583041,50.5383744],[-3.5836822,50.5385373],[-3.5837807,50.5385418],[-3.586955,50.5377486],[-3.5856985,50.531845],[-3.5732086,50.5258741],[-3.5702575,50.5158683],[-3.5784187,50.5194568],[-3.5810569,50.5143193],[-3.5886812,50.5139812],[-3.6024791,50.4961641],[-3.6023598,50.4843972],[-3.5842337,50.4777374],[-3.5841576,50.4780198],[-3.5697662,50.4907169],[-3.5647578,50.486981],[-3.5610591,50.4944779],[-3.5436119,50.4974667],[-3.5391162,50.504488],[-3.547923,50.510965],[-3.5468644,50.5232147],[-3.5382743,50.5271056],[-3.5421112,50.529995],[-3.5383766,50.5342535],[-3.539885,50.5392435],[-3.539907,50.5391973],[-3.5404067,50.5381441],[-3.5510083,50.5411267]]]],"type":"MultiPolygon"},"id":"E02004218","properties":{"code":"E02004218","geography":"MSOA","name":"Teignbridge 018"},"type":"Feature"},{"geometry":{"coordinates":[[[-3.6848327,50.5213116],[-3.6920475,50.5249556],[-3.7131613,50.5270323],[-3.7426726,50.5122573],[-3.7418687,50.507951],[-3.7184761,50.4930489],[-3.7116233,50.4823709],[-3.6940464,50.477864],[-3.6862865,50.4701152],[-3.6749841,50.4661494],[-3.6696331,50.4621243],[-3.668288,50.4667789],[-3.6554007,50.4720693],[-3.65014,50.4684838],[-3.6589141,50.4645944],[-3.6449964,50.4611707],[-3.6371687,50.467863],[-3.6273203,50.4661933],[-3.620945,50.4697175],[-3.6138263,50.4693135],[-3.6097822,50.480725],[-3.6023598,50.4843972],[-3.6024791,50.4961641],[-3.5886812,50.5139812],[-3.5887786,50.5140071],[-3.593217,50.5158696],[-3.6030315,50.5089797],[-3.610235,50.5114833],[-3.6064154,50.514184],[-3.6265194,50.515744],[-3.6303396,50.5057714],[-3.6421881,50.5031989],[-3.6388293,50.4978146],[-3.649543,50.4958486],[-3.6483428,50.4906732],[-3.6585978,50.4798758],[-3.6729692,50.4785637],[-3.6807927,50.492697],[-3.6738583,50.5015975],[-3.6668302,50.500394],[-3.6658642,50.4925168],[-3.6583422,50.492137],[-3.6571419,50.495676],[-3.6646136,50.4991636],[-3.6581803,50.5104648],[-3.6848327,50.5213116]]],"type":"Polygon"},"id":"E02004219","properties":{"code":"E02004219","geography":"MSOA","name":"Teignbridge 019"},"type":"Feature"}],"type":"FeatureCollection"}
