{"features":[{"geometry":{"coordinates":[[[-1.3633275,53.0924967],[-1.3736522,53.1078372],[-1.3949089,53.1047428],[-1.4042371,53.1065941],[-1.4068505,53.0892525],[-1.3896087,53.0893693],[-1.3816046,53.0927798],[-1.3804276,53.0966849],[-1.3842096,53.0975396],[-1.3791348,53.100456],[-1.3777465,53.0907478],[-1.3632349,53.0924521],[-1.3633275,53.0924967]]],"type":"Polygon"},"id":"E02004029","properties":{"code":"E02004029","geography":"MSOA","name":"Amber Valley 001"},"type":"Feature"},{"geometry":{"coordinates":[[[-1.4698209,53.1197249],[-1.4866915,53.1228244],[-1.4954357,53.1338932],[-1.5001019,53.1282696],[-1.5143726,53.1265425],[-1.5235134,53.1204104],[-1.520601,53.1143704],[-1.531107,53.1004631],[-1.5298277,53.095459],[-1.5234092,53.09563],[-1.5174572,53.0965001],[-1.5120616,53.0933462],[-1.5069148,53.0914409],[-1.5071157,53.0827574],[-1.4962289,53.0788555],[-1.4980358,53.0733789],[-1.4883582,53.0636545],[-1.4694179,53.0707025],[-1.4614487,53.0674843],[-1.4429045,53.064682],[-1.4360123,53.0583411],[-1.4125441,53.0616884],[-1.4075666,53.0601867],[-1.4027318,53.0636189],[-1.4080197,53.07215],[-1.4068505,53.0892525],[-1.4042371,53.1065941],[-1.4196657,53.1065461],[-1.4237365,53.1033413],[-1.4325478,53.105878],[-1.4482545,53.1036552],[-1.4555479,53.1095971],[-1.4600071,53.1082924],[-1.4653715,53.1107824],[-1.4630176,53.1141807],[-1.4698209,53.1197249]]],"type":"Polygon"},"id":"E02004030","properties":{"code":"E02004030","geography":"MSOA","name":"Amber Valley 002"},"type":"Feature"},{"geometry":{"coordinates":[[[-1.3632349,53.0924521],[-1.3777465,53.0907478],[-1.3791348,53.100456],[-1.3842096,53.0975396],[-1.3804276,53.0966849],[-1.3816046,53.0927798],[-1.3896087,53.0893693],[-1.3846965,53.0823785],[-1.3763659,53.0822621],[-1.3735201,53.0778913],[-1.3660021,53.078405],[-1.3687531,53.0744071],[-1.3627196,53.0721903],[-1.3602964,53.070503],[-1.3655872,53.066991],[-1.359639,53.0613911],[-1.3529183,53.0634528],[-1.3419404,53.0607534],[-1.3425875,53.0702563],[-1.3316375,53.0809677],[-1.3436692,53.0865638],[-1.3531281,53.0861768],[-1.3632349,53.0924521]]],"type":"Polygon"},"id":"E02004031","properties":{"code":"E02004031","geography":"MSOA","name":"Amber Valley 003"},"type":"Feature"},{"geometry":{"coordinates":[[[-1.3627196,53.0721903],[-1.3687531,53.0744071],[-1.3660021,53.078405],[-1.3735201,53.0778913],[-1.3763659,53.0822621],[-1.3846965,53.0823785],[-1.3896087,53.0893693],[-1.4068505,53.0892525],[-1.4080197,53.07215],[-1.4027318,53.0636189],[-1.384234,53.0635848],[-1.3763334,53.0603624],[-1.3678878,53.0694067],[-1.3691691,53.0732025],[-1.3627196,53.0721903]]],"type":"Polygon"},"id":"E02004032","properties":{"code":"E02004032","geography":"MSOA","name":"Amber Valley 004"},"type":"Feature"},{"geometry":{"coordinates":[[[-1.3627196,53.0721903],[-1.3691691,53.0732025],[-1.3678878,53.0694067],[-1.3763334,53.0603624],[-1.384234,53.0635848],[-1.4027318,53.0636189],[-1.4075666,53.0601867],[-1.4125441,53.0616884],[-1.4070896,53.0507502],[-1.3947993,53.0521502],[-1.3973703,53.0484874],[-1.3922731,53.0474911],[-1.3990363,53.0428155],[-1.3973051,53.0400223],[-1.3803509,53.0473012],[-1.3761399,53.0438638],[-1.377625,53.0382613],[-1.3736766,53.0400456],[-1.3751222,53.0356643],[-1.3672201,53.031609],[-1.3588809,53.0337434],[-1.3522194,53.0416934],[-1.3574736,53.0477796],[-1.3357417,53.0506899],[-1.3358709,53.0529462],[-1.3419404,53.0607534],[-1.3529183,53.0634528],[-1.359639,53.0613911],[-1.3655872,53.066991],[-1.3602964,53.070503],[-1.3627196,53.0721903]]],"type":"Polygon"},"id":"E02004033","properties":{"code":"E02004033","geography":"MSOA","name":"Amber Valley 005"},"type":"Feature"},{"geometry":{"coordinates":[[[-1.4125441,53.0616884],[-1.4360123,53.0583411],[-1.4429045,53.064682],[-1.4614487,53.0674843],[-1.4661192,53.0638454],[-1.4534331,53.0581981],[-1.4530402,53.0553987],[-1.4615341,53.0548653],[-1.4572381,53.0477629],[-1.4469919,53.0491643],[-1.4403327,53.0434874],[-1.4526799,53.0399302],[-1.4503793,53.0364211],[-1.4430284,53.0365562],[-1.4475172,53.0273621],[-1.4425231,53.0282795],[-1.4362451,53.0273409],[-1.4191992,53.0329376],[-1.4054584,53.0320436],[-1.4051338,53.0418784],[-1.4145552,53.0399138],[-1.4070896,53.0507502],[-1.4125441,53.0616884]]],"type":"Polygon"},"id":"E02004034","properties":{"code":"E02004034","geography":"MSOA","name":"Amber Valley 006"},"type":"Feature"},{"geometry":{"coordinates":[[[-1.4614487,53.0674843],[-1.4694179,53.0707025],[-1.4883582,53.0636545],[-1.4980358,53.0733789],[-1.4962289,53.0788555],[-1.5071157,53.0827574],[-1.5069148,53.0914409],[-1.5120616,53.0933462],[-1.519347,53.0862219],[-1.5336161,53.0868956],[-1.5424858,53.0785065],[-1.5496194,53.076973],[-1.547474,53.0738664],[-1.5532481,53.0690423],[-1.5591658,53.0692441],[-1.5778494,53.0600353],[-1.5787679,53.0578716],[-1.5857342,53.0594989],[-1.5912584,53.0548914],[-1.5934525,53.0487414],[-1.5809478,53.0422466],[-1.5985066,53.0304358],[-1.5849061,53.0203609],[-1.5773428,53.0222779],[-1.5780518,53.0244729],[-1.5718933,53.0238187],[-1.5643234,53.023331],[-1.5630654,53.0266695],[-1.5497593,53.0195535],[-1.5465719,53.0063543],[-1.5395224,53.0049968],[-1.5344032,53.0074085],[-1.5229581,52.9964142],[-1.5135518,52.9953657],[-1.5119045,52.9990339],[-1.4950393,53.0003973],[-1.4967222,53.0027964],[-1.4926041,53.0042368],[-1.4990253,53.0090393],[-1.499322,53.0172539],[-1.489145,53.0184439],[-1.4922039,53.0232718],[-1.4868492,53.0317272],[-1.4926141,53.0353154],[-1.485687,53.0436289],[-1.482372,53.0315768],[-1.479288,53.0362349],[-1.4742733,53.0348625],[-1.4739447,53.0445967],[-1.4526799,53.0399302],[-1.4403327,53.0434874],[-1.4469919,53.0491643],[-1.4572381,53.0477629],[-1.4615341,53.0548653],[-1.4530402,53.0553987],[-1.4534331,53.0581981],[-1.4661192,53.0638454],[-1.4614487,53.0674843]]],"type":"Polygon"},"id":"E02004035","properties":{"code":"E02004035","geography":"MSOA","name":"Amber Valley 007"},"type":"Feature"},{"geometry":{"coordinates":[[[-1.3588809,53.0337434],[-1.3672201,53.031609],[-1.3751222,53.0356643],[-1.3736766,53.0400456],[-1.377625,53.0382613],[-1.3761399,53.0438638],[-1.3803509,53.0473012],[-1.3973051,53.0400223],[-1.3990363,53.0428155],[-1.3922731,53.0474911],[-1.3973703,53.0484874],[-1.3947993,53.0521502],[-1.4070896,53.0507502],[-1.4145552,53.0399138],[-1.4051338,53.0418784],[-1.4054584,53.0320436],[-1.3954992,53.0327384],[-1.3853882,53.0289849],[-1.3866879,53.0235668],[-1.3830427,53.0243172],[-1.3760808,53.0187121],[-1.363183,53.0235825],[-1.3588809,53.0337434]]],"type":"Polygon"},"id":"E02004036","properties":{"code":"E02004036","geography":"MSOA","name":"Amber Valley 008"},"type":"Feature"},{"geometry":{"coordinates":[[[-1.4526799,53.0399302],[-1.4739447,53.0445967],[-1.4742733,53.0348625],[-1.479288,53.0362349],[-1.482372,53.0315768],[-1.4687069,53.0230512],[-1.4600119,53.0238456],[-1.4643672,53.031997],[-1.4577939,53.0293263],[-1.4507519,53.0335231],[-1.4475172,53.0273621],[-1.4430284,53.0365562],[-1.4503793,53.0364211],[-1.4526799,53.0399302]]],"type":"Polygon"},"id":"E02004037","properties":{"code":"E02004037","geography":"MSOA","name":"Amber Valley 009"},"type":"Feature"},{"geometry":{"coordinates":[[[-1.482372,53.0315768],[-1.485687,53.0436289],[-1.4926141,53.0353154],[-1.4868492,53.0317272],[-1.4922039,53.0232718],[-1.489145,53.0184439],[-1.499322,53.0172539],[-1.4990253,53.0090393],[-1.4926041,53.0042368],[-1.4967222,53.0027964],[-1.4950393,53.0003973],[-1.4881148,52.9979037],[-1.4854597,52.9896079],[-1.4781702,52.9937218],[-1.4706775,52.9934705],[-1.4712884,52.9965562],[-1.4650028,52.9991906],[-1.4703976,52.9992285],[-1.4709229,53.0047568],[-1.4752292,53.0059158],[-1.4721682,53.0079327],[-1.4799226,53.009802],[-1.4705403,53.0156482],[-1.4687069,53.0230512],[-1.482372,53.0315768]]],"type":"Polygon"},"id":"E02004038","properties":{"code":"E02004038","geography":"MSOA","name":"Amber Valley 010"},"type":"Feature"},{"geometry":{"coordinates":[[[-1.3237055,53.0241269],[-1.3319875,53.0311319],[-1.3357417,53.0506899],[-1.3574736,53.0477796],[-1.3522194,53.0416934],[-1.3588809,53.0337434],[-1.363183,53.0235825],[-1.3760808,53.0187121],[-1.3877308,53.014492],[-1.3874386,53.0073305],[-1.3989976,53.0003329],[-1.3950907,52.9977542],[-1.3885201,52.9989454],[-1.3903438,52.9953],[-1.3983769,52.9958813],[-1.4025,52.9930131],[-1.4014342,52.9821204],[-1.3819939,52.9838869],[-1.3809008,52.9890591],[-1.3730503,52.9910119],[-1.3749857,53.0014191],[-1.3616804,53.0062836],[-1.3602543,53.0165253],[-1.3567968,53.0149095],[-1.3502614,53.0178351],[-1.3527826,53.0220942],[-1.3483197,53.0222334],[-1.3464786,53.0255093],[-1.3375154,53.0253717],[-1.3379308,53.0205103],[-1.3331233,53.019948],[-1.3330263,53.0248103],[-1.3237055,53.0241269]]],"type":"Polygon"},"id":"E02004040","properties":{"code":"E02004040","geography":"MSOA","name":"Amber Valley 012"},"type":"Feature"},{"geometry":{"coordinates":[[[-1.3567968,53.0149095],[-1.3510154,53.0055833],[-1.3310413,53.009016],[-1.326615,53.0049964],[-1.3225581,53.0063504],[-1.3302964,53.0144487],[-1.3483197,53.0222334],[-1.3527826,53.0220942],[-1.3502614,53.0178351],[-1.3567968,53.0149095]]],"type":"Polygon"},"id":"E02004041","properties":{"code":"E02004041","geography":"MSOA","name":"Amber Valley 013"},"type":"Feature"},{"geometry":{"coordinates":[[[-1.4950393,53.0003973],[-1.5119045,52.9990339],[-1.5135518,52.9953657],[-1.5229581,52.9964142],[-1.5344032,53.0074085],[-1.5395224,53.0049968],[-1.5465719,53.0063543],[-1.5497593,53.0195535],[-1.5630654,53.0266695],[-1.5643234,53.023331],[-1.5718933,53.0238187],[-1.5661369,53.0221923],[-1.5759212,53.0164464],[-1.5669264,53.0128978],[-1.5787586,53.014669],[-1.5767591,53.0020697],[-1.5993001,52.9983858],[-1.6021679,52.9857548],[-1.5714727,52.9739892],[-1.5710717,52.9665852],[-1.5763612,52.9662849],[-1.58119,52.960982],[-1.5993619,52.9625512],[-1.6079923,52.9564291],[-1.6029414,52.9507622],[-1.6070493,52.9471004],[-1.6099741,52.9407975],[-1.6040586,52.9367946],[-1.5701065,52.9357769],[-1.5671696,52.9330515],[-1.5585669,52.9329785],[-1.5440734,52.9241897],[-1.5397154,52.9244166],[-1.527009,52.9324003],[-1.5212652,52.9323676],[-1.5080325,52.9374339],[-1.5076476,52.9543125],[-1.4977688,52.9560276],[-1.495409,52.9658611],[-1.4811612,52.9681354],[-1.4784963,52.9646249],[-1.4746346,52.9659095],[-1.4705844,52.9715654],[-1.4798296,52.9819685],[-1.463425,52.9828702],[-1.4640142,52.9918961],[-1.4706775,52.9934705],[-1.4781702,52.9937218],[-1.4854597,52.9896079],[-1.4881148,52.9979037],[-1.4950393,53.0003973]]],"type":"Polygon"},"id":"E02004044","properties":{"code":"E02004044","geography":"MSOA","name":"Amber Valley 016"},"type":"Feature"},{"geometry":{"coordinates":[[[-1.3237055,53.0241269],[-1.3330263,53.0248103],[-1.3331233,53.019948],[-1.3379308,53.0205103],[-1.3375154,53.0253717],[-1.3464786,53.0255093],[-1.3483197,53.0222334],[-1.3302964,53.0144487],[-1.3225581,53.0063504],[-1.326615,53.0049964],[-1.3310413,53.009016],[-1.3510154,53.0055833],[-1.3567968,53.0149095],[-1.3602543,53.0165253],[-1.3616804,53.0062836],[-1.3749857,53.0014191],[-1.3730503,52.9910119],[-1.3809008,52.9890591],[-1.3819939,52.9838869],[-1.3841689,52.9815762],[-1.3859833,52.9791154],[-1.3750709,52.9741782],[-1.3709394,52.9730919],[-1.3671802,52.9773052],[-1.3327963,52.9781233],[-1.3281472,52.9816136],[-1.3315294,52.9870533],[-1.3223699,52.9906629],[-1.3241973,52.9936872],[-1.3074463,53.0036351],[-1.3079885,53.0038538],[-1.3190752,53.010035],[-1.3227052,53.0215797],[-1.3237055,53.0241269]]],"type":"Polygon"},"id":"E02006827","properties":{"code":"E02006827","geography":"MSOA","name":"Amber Valley 017"},"type":"Feature"}],"type":"FeatureCollection"}
