{"features":[{"geometry":{"coordinates":[[[-0.5267075,53.2537974],[-0.5385802,53.2545398],[-0.5546635,53.252131],[-0.5495519,53.2452096],[-0.5421409,53.2492684],[-0.5377877,53.2447578],[-0.5288755,53.2481832],[-0.5314693,53.2528547],[-0.5267075,53.2537974]]],"type":"Polygon"},"id":"E02005442","properties":{"code":"E02005442","geography":"MSOA","name":"Lincoln 001"},"type":"Feature"},{"geometry":{"coordinates":[[[-0.495814,53.2438011],[-0.4975986,53.2491844],[-0.5142728,53.2540025],[-0.5267075,53.2537974],[-0.5314693,53.2528547],[-0.5288755,53.2481832],[-0.5247194,53.2451901],[-0.5188928,53.2492332],[-0.5172175,53.2466981],[-0.5112846,53.2477564],[-0.5072794,53.2405458],[-0.495814,53.2438011]]],"type":"Polygon"},"id":"E02005443","properties":{"code":"E02005443","geography":"MSOA","name":"Lincoln 002"},"type":"Feature"},{"geometry":{"coordinates":[[[-0.5288755,53.2481832],[-0.5377877,53.2447578],[-0.5421409,53.2492684],[-0.5495519,53.2452096],[-0.5546635,53.252131],[-0.5951121,53.2451487],[-0.5721958,53.2364249],[-0.5567619,53.2311258],[-0.5517716,53.2332684],[-0.5552402,53.2354429],[-0.5460344,53.2386529],[-0.5384422,53.2325444],[-0.5363034,53.2307203],[-0.5253301,53.2376243],[-0.5217825,53.2309528],[-0.5121885,53.2344446],[-0.5147237,53.2395554],[-0.5231565,53.2383989],[-0.5273303,53.2429054],[-0.5247194,53.2451901],[-0.5288755,53.2481832]]],"type":"Polygon"},"id":"E02005444","properties":{"code":"E02005444","geography":"MSOA","name":"Lincoln 003"},"type":"Feature"},{"geometry":{"coordinates":[[[-0.495814,53.2438011],[-0.5072794,53.2405458],[-0.5112846,53.2477564],[-0.5172175,53.2466981],[-0.5188928,53.2492332],[-0.5247194,53.2451901],[-0.5273303,53.2429054],[-0.5231565,53.2383989],[-0.5147237,53.2395554],[-0.5121885,53.2344446],[-0.5217825,53.2309528],[-0.5253301,53.2376243],[-0.5363034,53.2307203],[-0.5384422,53.2325444],[-0.5406707,53.2285138],[-0.5023012,53.2257743],[-0.4950837,53.2252815],[-0.495814,53.2438011]]],"type":"Polygon"},"id":"E02005445","properties":{"code":"E02005445","geography":"MSOA","name":"Lincoln 004"},"type":"Feature"},{"geometry":{"coordinates":[[[-0.5384422,53.2325444],[-0.5460344,53.2386529],[-0.5552402,53.2354429],[-0.5517716,53.2332684],[-0.5567619,53.2311258],[-0.5721958,53.2364249],[-0.570727,53.22959],[-0.5726256,53.227886],[-0.5675696,53.2261076],[-0.5614704,53.2263232],[-0.5607097,53.2306926],[-0.5505785,53.2290204],[-0.5522736,53.2214876],[-0.5446517,53.2210115],[-0.5406707,53.2285138],[-0.5384422,53.2325444]]],"type":"Polygon"},"id":"E02005446","properties":{"code":"E02005446","geography":"MSOA","name":"Lincoln 005"},"type":"Feature"},{"geometry":{"coordinates":[[[-0.5023012,53.2257743],[-0.5406707,53.2285138],[-0.5446517,53.2210115],[-0.5512878,53.2123584],[-0.5405403,53.2172778],[-0.5448868,53.2128668],[-0.5368536,53.2111463],[-0.5269209,53.2186934],[-0.5138461,53.220152],[-0.5089246,53.2181639],[-0.5012742,53.2210382],[-0.5023012,53.2257743]]],"type":"Polygon"},"id":"E02005447","properties":{"code":"E02005447","geography":"MSOA","name":"Lincoln 006"},"type":"Feature"},{"geometry":{"coordinates":[[[-0.6192089,53.2087469],[-0.6090845,53.2063004],[-0.6016537,53.2176105],[-0.5923847,53.222189],[-0.6007112,53.225032],[-0.6004821,53.2215084],[-0.6055183,53.2207319],[-0.6068861,53.2240058],[-0.6226185,53.2175769],[-0.6174097,53.2143045],[-0.6192089,53.2087469]]],"type":"Polygon"},"id":"E02005448","properties":{"code":"E02005448","geography":"MSOA","name":"Lincoln 007"},"type":"Feature"},{"geometry":{"coordinates":[[[-0.570727,53.22959],[-0.5754752,53.2316136],[-0.5950363,53.2278294],[-0.5807425,53.2152669],[-0.5625444,53.2102098],[-0.5609215,53.2057429],[-0.5517708,53.2110729],[-0.5464234,53.2055362],[-0.5396472,53.2038974],[-0.5368536,53.2111463],[-0.5448868,53.2128668],[-0.5405403,53.2172778],[-0.5512878,53.2123584],[-0.5446517,53.2210115],[-0.5522736,53.2214876],[-0.5505785,53.2290204],[-0.5607097,53.2306926],[-0.5614704,53.2263232],[-0.5675696,53.2261076],[-0.5726256,53.227886],[-0.570727,53.22959]]],"type":"Polygon"},"id":"E02005449","properties":{"code":"E02005449","geography":"MSOA","name":"Lincoln 008"},"type":"Feature"},{"geometry":{"coordinates":[[[-0.5807425,53.2152669],[-0.5950363,53.2278294],[-0.6068861,53.2240058],[-0.6055183,53.2207319],[-0.6004821,53.2215084],[-0.6007112,53.225032],[-0.5923847,53.222189],[-0.6016537,53.2176105],[-0.6090845,53.2063004],[-0.6192089,53.2087469],[-0.6197162,53.2080625],[-0.6137066,53.2027064],[-0.6004894,53.2035543],[-0.588217,53.2005498],[-0.5771147,53.2084975],[-0.5849646,53.2126221],[-0.5807425,53.2152669]]],"type":"Polygon"},"id":"E02005450","properties":{"code":"E02005450","geography":"MSOA","name":"Lincoln 009"},"type":"Feature"},{"geometry":{"coordinates":[[[-0.5464234,53.2055362],[-0.5517708,53.2110729],[-0.5609215,53.2057429],[-0.5625444,53.2102098],[-0.5807425,53.2152669],[-0.5849646,53.2126221],[-0.5771147,53.2084975],[-0.5750315,53.2050337],[-0.5656386,53.2043893],[-0.5710487,53.1986848],[-0.5575344,53.2020892],[-0.5491826,53.2010979],[-0.5464234,53.2055362]]],"type":"Polygon"},"id":"E02005451","properties":{"code":"E02005451","geography":"MSOA","name":"Lincoln 010"},"type":"Feature"},{"geometry":{"coordinates":[[[-0.5491826,53.2010979],[-0.5575344,53.2020892],[-0.5710487,53.1986848],[-0.5656386,53.2043893],[-0.5750315,53.2050337],[-0.5771147,53.2084975],[-0.588217,53.2005498],[-0.5744766,53.1915611],[-0.5649934,53.1871115],[-0.5528604,53.1862537],[-0.5491826,53.2010979]]],"type":"Polygon"},"id":"E02005452","properties":{"code":"E02005452","geography":"MSOA","name":"Lincoln 011"},"type":"Feature"}],"type":"FeatureCollection"}
