{"features":[{"geometry":{"coordinates":[[[-1.2602855,53.1647439],[-1.2959655,53.1712062],[-1.3007139,53.1641964],[-1.3165019,53.1653466],[-1.3234485,53.1623236],[-1.3255848,53.156456],[-1.3152254,53.1361776],[-1.3041784,53.1390822],[-1.2808771,53.1358697],[-1.2666986,53.1398],[-1.2564707,53.1420883],[-1.2525375,53.1393511],[-1.2450244,53.1430602],[-1.2435682,53.1394729],[-1.2399103,53.1395953],[-1.2371278,53.1462084],[-1.2418172,53.1535652],[-1.2553274,53.154598],[-1.2599322,53.1644628],[-1.2602855,53.1647439]]],"type":"Polygon"},"id":"E02005819","properties":{"code":"E02005819","geography":"MSOA","name":"Ashfield 001"},"type":"Feature"},{"geometry":{"coordinates":[[[-1.2435682,53.1394729],[-1.2450244,53.1430602],[-1.2525375,53.1393511],[-1.2564707,53.1420883],[-1.2666986,53.1398],[-1.2668748,53.1326345],[-1.2600057,53.1291292],[-1.2531732,53.1349932],[-1.2494811,53.1321854],[-1.2429047,53.1335109],[-1.2435682,53.1394729]]],"type":"Polygon"},"id":"E02005820","properties":{"code":"E02005820","geography":"MSOA","name":"Ashfield 002"},"type":"Feature"},{"geometry":{"coordinates":[[[-1.2808771,53.1358697],[-1.3041784,53.1390822],[-1.3152254,53.1361776],[-1.3217818,53.1306308],[-1.3142508,53.1248945],[-1.3120867,53.1160294],[-1.3107845,53.1101004],[-1.297817,53.1114115],[-1.2983029,53.1179824],[-1.2865078,53.1232171],[-1.2937269,53.1255129],[-1.2959086,53.1336927],[-1.2934915,53.130642],[-1.2882121,53.132696],[-1.2738114,53.1278959],[-1.2677983,53.1303473],[-1.2705303,53.1345712],[-1.2743441,53.1323394],[-1.2808771,53.1358697]]],"type":"Polygon"},"id":"E02005821","properties":{"code":"E02005821","geography":"MSOA","name":"Ashfield 003"},"type":"Feature"},{"geometry":{"coordinates":[[[-1.22461,53.1316158],[-1.2399103,53.1395953],[-1.2435682,53.1394729],[-1.2429047,53.1335109],[-1.2494811,53.1321854],[-1.2531732,53.1349932],[-1.2600057,53.1291292],[-1.2537962,53.1187327],[-1.2386453,53.1161277],[-1.2377671,53.1208723],[-1.2215381,53.1297905],[-1.22461,53.1316158]]],"type":"Polygon"},"id":"E02005822","properties":{"code":"E02005822","geography":"MSOA","name":"Ashfield 004"},"type":"Feature"},{"geometry":{"coordinates":[[[-1.2600057,53.1291292],[-1.2668748,53.1326345],[-1.2666986,53.1398],[-1.2808771,53.1358697],[-1.2743441,53.1323394],[-1.2705303,53.1345712],[-1.2677983,53.1303473],[-1.2738114,53.1278959],[-1.2708427,53.1229966],[-1.2751127,53.1212028],[-1.2626878,53.1207684],[-1.267618,53.1134918],[-1.2568785,53.1145997],[-1.2537962,53.1187327],[-1.2600057,53.1291292]]],"type":"Polygon"},"id":"E02005823","properties":{"code":"E02005823","geography":"MSOA","name":"Ashfield 005"},"type":"Feature"},{"geometry":{"coordinates":[[[-1.2738114,53.1278959],[-1.2882121,53.132696],[-1.2934915,53.130642],[-1.2959086,53.1336927],[-1.2937269,53.1255129],[-1.2865078,53.1232171],[-1.2983029,53.1179824],[-1.297817,53.1114115],[-1.267618,53.1134918],[-1.2626878,53.1207684],[-1.2751127,53.1212028],[-1.2708427,53.1229966],[-1.2738114,53.1278959]]],"type":"Polygon"},"id":"E02005824","properties":{"code":"E02005824","geography":"MSOA","name":"Ashfield 006"},"type":"Feature"},{"geometry":{"coordinates":[[[-1.1778927,53.114791],[-1.2215381,53.1297905],[-1.2377671,53.1208723],[-1.2386453,53.1161277],[-1.2537962,53.1187327],[-1.2568785,53.1145997],[-1.2581819,53.1081216],[-1.2443903,53.1053849],[-1.2426946,53.1020325],[-1.2367622,53.1066692],[-1.2396013,53.0984305],[-1.2436123,53.0986387],[-1.2484821,53.0969647],[-1.246299,53.0943243],[-1.2325654,53.0925686],[-1.2325041,53.0969814],[-1.1960472,53.094485],[-1.1642543,53.1032511],[-1.1778927,53.114791]]],"type":"Polygon"},"id":"E02005825","properties":{"code":"E02005825","geography":"MSOA","name":"Ashfield 007"},"type":"Feature"},{"geometry":{"coordinates":[[[-1.2436123,53.0986387],[-1.2396013,53.0984305],[-1.2367622,53.1066692],[-1.2426946,53.1020325],[-1.2443903,53.1053849],[-1.2581819,53.1081216],[-1.2674813,53.1066655],[-1.2630667,53.1048613],[-1.2669747,53.1035962],[-1.2650111,53.101127],[-1.2436123,53.0986387]]],"type":"Polygon"},"id":"E02005826","properties":{"code":"E02005826","geography":"MSOA","name":"Ashfield 008"},"type":"Feature"},{"geometry":{"coordinates":[[[-1.2581819,53.1081216],[-1.2568785,53.1145997],[-1.267618,53.1134918],[-1.297817,53.1114115],[-1.3107845,53.1101004],[-1.3010153,53.1032315],[-1.309251,53.0967608],[-1.3033554,53.088027],[-1.2951177,53.0806347],[-1.2604141,53.0925871],[-1.226313,53.0810239],[-1.2025099,53.0868919],[-1.19293,53.0926042],[-1.1960472,53.094485],[-1.2325041,53.0969814],[-1.2325654,53.0925686],[-1.246299,53.0943243],[-1.2484821,53.0969647],[-1.2436123,53.0986387],[-1.2650111,53.101127],[-1.2669747,53.1035962],[-1.2630667,53.1048613],[-1.2674813,53.1066655],[-1.2581819,53.1081216]]],"type":"Polygon"},"id":"E02005827","properties":{"code":"E02005827","geography":"MSOA","name":"Ashfield 009"},"type":"Feature"},{"geometry":{"coordinates":[[[-1.226313,53.0810239],[-1.2604141,53.0925871],[-1.2951177,53.0806347],[-1.2866829,53.0748928],[-1.2881867,53.0714443],[-1.2881305,53.0631502],[-1.2744222,53.0655864],[-1.2682995,53.0631126],[-1.2774642,53.0462217],[-1.2786952,53.0440356],[-1.2663977,53.0383975],[-1.2576967,53.0409376],[-1.2292515,53.051533],[-1.2281226,53.0545516],[-1.2312914,53.0620464],[-1.226313,53.0810239]]],"type":"Polygon"},"id":"E02005828","properties":{"code":"E02005828","geography":"MSOA","name":"Ashfield 010"},"type":"Feature"},{"geometry":{"coordinates":[[[-1.2951177,53.0806347],[-1.3033554,53.088027],[-1.3316375,53.0809677],[-1.3425875,53.0702563],[-1.3333049,53.0694797],[-1.3262518,53.0724026],[-1.3259562,53.0673927],[-1.3207538,53.0649396],[-1.2944052,53.0642621],[-1.2944234,53.0689993],[-1.2881867,53.0714443],[-1.2866829,53.0748928],[-1.2951177,53.0806347]]],"type":"Polygon"},"id":"E02005829","properties":{"code":"E02005829","geography":"MSOA","name":"Ashfield 011"},"type":"Feature"},{"geometry":{"coordinates":[[[-1.2881867,53.0714443],[-1.2944234,53.0689993],[-1.2944052,53.0642621],[-1.3207538,53.0649396],[-1.3259562,53.0673927],[-1.3262518,53.0724026],[-1.3333049,53.0694797],[-1.3425875,53.0702563],[-1.3419404,53.0607534],[-1.3358709,53.0529462],[-1.3295549,53.0544496],[-1.3190028,53.0473095],[-1.3080976,53.0478309],[-1.3078473,53.0429916],[-1.30514,53.0448329],[-1.3035279,53.0418652],[-1.2991049,53.046306],[-1.2880195,53.0482389],[-1.2774642,53.0462217],[-1.2682995,53.0631126],[-1.2744222,53.0655864],[-1.2881305,53.0631502],[-1.2881867,53.0714443]]],"type":"Polygon"},"id":"E02005830","properties":{"code":"E02005830","geography":"MSOA","name":"Ashfield 012"},"type":"Feature"},{"geometry":{"coordinates":[[[-1.1771341,53.0371281],[-1.1822467,53.0484892],[-1.1894258,53.047348],[-1.2023496,53.0517879],[-1.217428,53.0490109],[-1.2125653,53.0430703],[-1.2067866,53.0455815],[-1.1989264,53.03905],[-1.1947455,53.0419256],[-1.1983027,53.037825],[-1.1895208,53.0353871],[-1.1977462,53.0318488],[-1.1956732,53.0297414],[-1.1974713,53.0216444],[-1.204856,53.02326],[-1.2030265,53.0183159],[-1.1951892,53.0154326],[-1.1827499,53.0185492],[-1.1771341,53.0371281]]],"type":"Polygon"},"id":"E02005831","properties":{"code":"E02005831","geography":"MSOA","name":"Ashfield 013"},"type":"Feature"},{"geometry":{"coordinates":[[[-1.1956732,53.0297414],[-1.1977462,53.0318488],[-1.1895208,53.0353871],[-1.1983027,53.037825],[-1.1947455,53.0419256],[-1.1989264,53.03905],[-1.2067866,53.0455815],[-1.2125653,53.0430703],[-1.2093675,53.0322391],[-1.2140671,53.0292083],[-1.2069506,53.0278451],[-1.2035685,53.0317763],[-1.1956732,53.0297414]]],"type":"Polygon"},"id":"E02005832","properties":{"code":"E02005832","geography":"MSOA","name":"Ashfield 014"},"type":"Feature"},{"geometry":{"coordinates":[[[-1.217428,53.0490109],[-1.2281226,53.0545516],[-1.2292515,53.051533],[-1.2576967,53.0409376],[-1.2512597,53.0380111],[-1.2387796,53.0326115],[-1.2412619,53.0311324],[-1.2336898,53.0260471],[-1.2218155,53.0321986],[-1.2242405,53.0344019],[-1.2193453,53.0346325],[-1.2140671,53.0292083],[-1.2093675,53.0322391],[-1.2125653,53.0430703],[-1.217428,53.0490109]]],"type":"Polygon"},"id":"E02005833","properties":{"code":"E02005833","geography":"MSOA","name":"Ashfield 015"},"type":"Feature"},{"geometry":{"coordinates":[[[-1.2140671,53.0292083],[-1.2193453,53.0346325],[-1.2242405,53.0344019],[-1.2218155,53.0321986],[-1.2336898,53.0260471],[-1.2290674,53.0227256],[-1.2325989,53.0113488],[-1.2251502,53.0080768],[-1.2170822,53.0106092],[-1.2101633,53.0180255],[-1.2030265,53.0183159],[-1.204856,53.02326],[-1.1974713,53.0216444],[-1.1956732,53.0297414],[-1.2035685,53.0317763],[-1.2069506,53.0278451],[-1.2140671,53.0292083]]],"type":"Polygon"},"id":"E02005834","properties":{"code":"E02005834","geography":"MSOA","name":"Ashfield 016"},"type":"Feature"}],"type":"FeatureCollection"}
