{"features":[{"geometry":{"coordinates":[[[-0.3485521,51.8316802],[-0.3560826,51.8305764],[-0.3643952,51.8398835],[-0.3687546,51.831076],[-0.3740794,51.8291873],[-0.3832411,51.8319464],[-0.3881319,51.8304833],[-0.3879642,51.8239636],[-0.3816904,51.822767],[-0.3775192,51.8168633],[-0.3615115,51.8243462],[-0.3558832,51.8235843],[-0.3417619,51.8250728],[-0.3485521,51.8316802]]],"type":"Polygon"},"id":"E02004924","properties":{"code":"E02004924","geography":"MSOA","name":"St Albans 001"},"type":"Feature"},{"geometry":{"coordinates":[[[-0.3357778,51.8109286],[-0.3264848,51.8239744],[-0.3323125,51.8254168],[-0.3423732,51.8365623],[-0.3485521,51.8316802],[-0.3417619,51.8250728],[-0.3558832,51.8235843],[-0.3523073,51.8157626],[-0.3470724,51.8182974],[-0.3374104,51.8105787],[-0.3357778,51.8109286]]],"type":"Polygon"},"id":"E02004925","properties":{"code":"E02004925","geography":"MSOA","name":"St Albans 002"},"type":"Feature"},{"geometry":{"coordinates":[[[-0.3558832,51.8235843],[-0.3615115,51.8243462],[-0.3775192,51.8168633],[-0.3774237,51.8133702],[-0.3660415,51.8136452],[-0.3603711,51.8103535],[-0.3586739,51.802728],[-0.3374104,51.8105787],[-0.3470724,51.8182974],[-0.3523073,51.8157626],[-0.3558832,51.8235843]]],"type":"Polygon"},"id":"E02004926","properties":{"code":"E02004926","geography":"MSOA","name":"St Albans 003"},"type":"Feature"},{"geometry":{"coordinates":[[[-0.2735634,51.8353332],[-0.3194861,51.8366363],[-0.323256,51.8448488],[-0.3395104,51.8495979],[-0.3560548,51.8405056],[-0.3633272,51.8420975],[-0.3643952,51.8398835],[-0.3560826,51.8305764],[-0.3485521,51.8316802],[-0.3423732,51.8365623],[-0.3323125,51.8254168],[-0.3264848,51.8239744],[-0.3357778,51.8109286],[-0.3263646,51.8094032],[-0.339706,51.798696],[-0.3359059,51.793826],[-0.3476799,51.792254],[-0.3372475,51.7878988],[-0.3125644,51.798769],[-0.2964768,51.7993823],[-0.2853855,51.8034616],[-0.2750068,51.7997958],[-0.2461988,51.8069516],[-0.2432257,51.8121615],[-0.2650068,51.8337587],[-0.2735634,51.8353332]]],"type":"Polygon"},"id":"E02004927","properties":{"code":"E02004927","geography":"MSOA","name":"St Albans 004"},"type":"Feature"},{"geometry":{"coordinates":[[[-0.3476799,51.792254],[-0.3359059,51.793826],[-0.339706,51.798696],[-0.3263646,51.8094032],[-0.3357778,51.8109286],[-0.3374104,51.8105787],[-0.3586739,51.802728],[-0.3708628,51.797943],[-0.3684702,51.79368],[-0.3751941,51.7911826],[-0.3695776,51.7872492],[-0.3504044,51.7951679],[-0.3476799,51.792254]]],"type":"Polygon"},"id":"E02004928","properties":{"code":"E02004928","geography":"MSOA","name":"St Albans 005"},"type":"Feature"},{"geometry":{"coordinates":[[[-0.3832411,51.8319464],[-0.4048831,51.8405998],[-0.4163003,51.8357528],[-0.4197504,51.8209476],[-0.4141356,51.8190782],[-0.4275243,51.811623],[-0.4288515,51.8067568],[-0.4093868,51.7972994],[-0.4133916,51.7911783],[-0.4273116,51.7920713],[-0.4406074,51.786871],[-0.4369193,51.7823784],[-0.4312913,51.7756108],[-0.4297616,51.7678979],[-0.422855,51.7659828],[-0.4234847,51.7562702],[-0.4257245,51.7528801],[-0.4210469,51.7487544],[-0.4265793,51.7443363],[-0.4221025,51.7408305],[-0.4161864,51.7326062],[-0.4119107,51.7320691],[-0.4003554,51.7292428],[-0.3783531,51.7293179],[-0.3694157,51.7338188],[-0.3568304,51.7344869],[-0.3752916,51.7462883],[-0.3535478,51.7558697],[-0.3621726,51.7587246],[-0.3602162,51.7602448],[-0.3444025,51.7733394],[-0.3358919,51.7734538],[-0.3371958,51.779103],[-0.3335461,51.7800675],[-0.3372475,51.7878988],[-0.3476799,51.792254],[-0.3504044,51.7951679],[-0.3695776,51.7872492],[-0.3751941,51.7911826],[-0.3684702,51.79368],[-0.3708628,51.797943],[-0.3586739,51.802728],[-0.3603711,51.8103535],[-0.3660415,51.8136452],[-0.3774237,51.8133702],[-0.3775192,51.8168633],[-0.3816904,51.822767],[-0.3879642,51.8239636],[-0.3881319,51.8304833],[-0.3832411,51.8319464]]],"type":"Polygon"},"id":"E02004929","properties":{"code":"E02004929","geography":"MSOA","name":"St Albans 006"},"type":"Feature"},{"geometry":{"coordinates":[[[-0.2750068,51.7997958],[-0.2853855,51.8034616],[-0.2964768,51.7993823],[-0.3125644,51.798769],[-0.3372475,51.7878988],[-0.3335461,51.7800675],[-0.3371958,51.779103],[-0.3358919,51.7734538],[-0.3355961,51.7651213],[-0.3290254,51.7666094],[-0.3253427,51.7645576],[-0.321238,51.7671787],[-0.3153797,51.7731554],[-0.3040859,51.7728401],[-0.295171,51.7628274],[-0.2912812,51.7644791],[-0.284995,51.7602101],[-0.2669882,51.7679748],[-0.2773424,51.7760391],[-0.2712439,51.7910227],[-0.27754,51.7978174],[-0.2750068,51.7997958]]],"type":"Polygon"},"id":"E02004930","properties":{"code":"E02004930","geography":"MSOA","name":"St Albans 007"},"type":"Feature"},{"geometry":{"coordinates":[[[-0.284995,51.7602101],[-0.2912812,51.7644791],[-0.295171,51.7628274],[-0.3040859,51.7728401],[-0.3153797,51.7731554],[-0.321238,51.7671787],[-0.3110491,51.7662369],[-0.3032357,51.7601794],[-0.2989551,51.7574473],[-0.284995,51.7602101]]],"type":"Polygon"},"id":"E02004931","properties":{"code":"E02004931","geography":"MSOA","name":"St Albans 008"},"type":"Feature"},{"geometry":{"coordinates":[[[-0.3355961,51.7651213],[-0.3358919,51.7734538],[-0.3444025,51.7733394],[-0.3602162,51.7602448],[-0.3497695,51.7565712],[-0.3402497,51.7561053],[-0.3411417,51.7601203],[-0.333991,51.7588969],[-0.3355961,51.7651213]]],"type":"Polygon"},"id":"E02004932","properties":{"code":"E02004932","geography":"MSOA","name":"St Albans 009"},"type":"Feature"},{"geometry":{"coordinates":[[[-0.3032357,51.7601794],[-0.3110491,51.7662369],[-0.321238,51.7671787],[-0.3253427,51.7645576],[-0.3290254,51.7666094],[-0.3355961,51.7651213],[-0.333991,51.7588969],[-0.3333764,51.7579185],[-0.3111832,51.7594044],[-0.310242,51.7520005],[-0.3048466,51.7532811],[-0.3066766,51.759891],[-0.3032357,51.7601794]]],"type":"Polygon"},"id":"E02004933","properties":{"code":"E02004933","geography":"MSOA","name":"St Albans 010"},"type":"Feature"},{"geometry":{"coordinates":[[[-0.310242,51.7520005],[-0.3111832,51.7594044],[-0.3333764,51.7579185],[-0.3362311,51.7546322],[-0.3197128,51.7493662],[-0.3244564,51.7468047],[-0.3129694,51.7484117],[-0.310242,51.7520005]]],"type":"Polygon"},"id":"E02004934","properties":{"code":"E02004934","geography":"MSOA","name":"St Albans 011"},"type":"Feature"},{"geometry":{"coordinates":[[[-0.333991,51.7588969],[-0.3411417,51.7601203],[-0.3402497,51.7561053],[-0.3497695,51.7565712],[-0.3415142,51.7532277],[-0.3414257,51.7480947],[-0.3263903,51.7457883],[-0.3244564,51.7468047],[-0.3197128,51.7493662],[-0.3362311,51.7546322],[-0.3333764,51.7579185],[-0.333991,51.7588969]]],"type":"Polygon"},"id":"E02004935","properties":{"code":"E02004935","geography":"MSOA","name":"St Albans 012"},"type":"Feature"},{"geometry":{"coordinates":[[[-0.2989551,51.7574473],[-0.3032357,51.7601794],[-0.3066766,51.759891],[-0.3048466,51.7532811],[-0.310242,51.7520005],[-0.3129694,51.7484117],[-0.305504,51.7458227],[-0.3011073,51.7495565],[-0.2910178,51.7494345],[-0.2989551,51.7574473]]],"type":"Polygon"},"id":"E02004936","properties":{"code":"E02004936","geography":"MSOA","name":"St Albans 013"},"type":"Feature"},{"geometry":{"coordinates":[[[-0.3497695,51.7565712],[-0.3602162,51.7602448],[-0.3621726,51.7587246],[-0.3535478,51.7558697],[-0.3752916,51.7462883],[-0.3568304,51.7344869],[-0.3560538,51.7338411],[-0.3544615,51.7355453],[-0.3445639,51.7326243],[-0.3491238,51.7419339],[-0.3414257,51.7480947],[-0.3415142,51.7532277],[-0.3497695,51.7565712]]],"type":"Polygon"},"id":"E02004937","properties":{"code":"E02004937","geography":"MSOA","name":"St Albans 014"},"type":"Feature"},{"geometry":{"coordinates":[[[-0.305504,51.7458227],[-0.3129694,51.7484117],[-0.3244564,51.7468047],[-0.3263903,51.7457883],[-0.3193286,51.7311844],[-0.3196979,51.7296583],[-0.3010775,51.7314776],[-0.306733,51.7396691],[-0.305504,51.7458227]]],"type":"Polygon"},"id":"E02004939","properties":{"code":"E02004939","geography":"MSOA","name":"St Albans 016"},"type":"Feature"},{"geometry":{"coordinates":[[[-0.3263903,51.7457883],[-0.3414257,51.7480947],[-0.3491238,51.7419339],[-0.3445639,51.7326243],[-0.3297797,51.7291376],[-0.3193286,51.7311844],[-0.3263903,51.7457883]]],"type":"Polygon"},"id":"E02004940","properties":{"code":"E02004940","geography":"MSOA","name":"St Albans 017"},"type":"Feature"},{"geometry":{"coordinates":[[[-0.2895541,51.7280023],[-0.2895794,51.7311533],[-0.3010775,51.7314776],[-0.3196979,51.7296583],[-0.3190126,51.7126445],[-0.3148412,51.7099971],[-0.3114649,51.7160237],[-0.3041559,51.7144397],[-0.3052488,51.707485],[-0.3019996,51.708061],[-0.2838699,51.7142568],[-0.2769776,51.7212794],[-0.2861466,51.7208147],[-0.2836955,51.7241806],[-0.2895541,51.7280023]]],"type":"Polygon"},"id":"E02004941","properties":{"code":"E02004941","geography":"MSOA","name":"St Albans 018"},"type":"Feature"},{"geometry":{"coordinates":[[[-0.3445639,51.7326243],[-0.3544615,51.7355453],[-0.3560538,51.7338411],[-0.3507087,51.732021],[-0.3593294,51.7213672],[-0.3568334,51.7128766],[-0.3610413,51.7119247],[-0.3317,51.7102465],[-0.3331166,51.7014379],[-0.3278499,51.7030235],[-0.322355,51.6934745],[-0.3092537,51.6978924],[-0.3000442,51.6965196],[-0.3019996,51.708061],[-0.3052488,51.707485],[-0.3041559,51.7144397],[-0.3114649,51.7160237],[-0.3148412,51.7099971],[-0.3190126,51.7126445],[-0.3196979,51.7296583],[-0.3193286,51.7311844],[-0.3297797,51.7291376],[-0.3445639,51.7326243]]],"type":"Polygon"},"id":"E02004942","properties":{"code":"E02004942","geography":"MSOA","name":"St Albans 019"},"type":"Feature"},{"geometry":{"coordinates":[[[-0.3560538,51.7338411],[-0.3568304,51.7344869],[-0.3694157,51.7338188],[-0.3783531,51.7293179],[-0.4003554,51.7292428],[-0.4119107,51.7320691],[-0.4066315,51.7244317],[-0.4093501,51.7217081],[-0.402553,51.7211744],[-0.4059462,51.7138517],[-0.4005572,51.7110521],[-0.3807645,51.7070151],[-0.3755819,51.6929071],[-0.3753823,51.6925065],[-0.3719859,51.687552],[-0.3553206,51.6905715],[-0.3540196,51.6989976],[-0.3370173,51.6977079],[-0.3331166,51.7014379],[-0.3317,51.7102465],[-0.3610413,51.7119247],[-0.3568334,51.7128766],[-0.3593294,51.7213672],[-0.3507087,51.732021],[-0.3560538,51.7338411]]],"type":"Polygon"},"id":"E02004943","properties":{"code":"E02004943","geography":"MSOA","name":"St Albans 020"},"type":"Feature"},{"geometry":{"coordinates":[[[-0.2609707,51.762006],[-0.2669882,51.7679748],[-0.284995,51.7602101],[-0.2989551,51.7574473],[-0.2910178,51.7494345],[-0.3011073,51.7495565],[-0.305504,51.7458227],[-0.306733,51.7396691],[-0.3010775,51.7314776],[-0.2895794,51.7311533],[-0.2895541,51.7280023],[-0.2834604,51.7334803],[-0.2661507,51.7381979],[-0.2551587,51.7295326],[-0.2503889,51.732542],[-0.2444503,51.731887],[-0.246536,51.7382027],[-0.2420213,51.7432011],[-0.245618,51.7517716],[-0.2541451,51.7482205],[-0.2609707,51.762006]]],"type":"Polygon"},"id":"E02007090","properties":{"code":"E02007090","geography":"MSOA","name":"St Albans 021"},"type":"Feature"}],"type":"FeatureCollection"}
