{"features":[{"geometry":{"coordinates":[[[-1.0776089,52.5987754],[-1.0953765,52.6073735],[-1.1036595,52.5958935],[-1.0990744,52.5930386],[-1.0902972,52.5933542],[-1.0879415,52.5880007],[-1.0673716,52.5797835],[-1.0583812,52.5853573],[-1.0776089,52.5987754]]],"type":"Polygon"},"id":"E02005412","properties":{"code":"E02005412","geography":"MSOA","name":"Oadby and Wigston 003"},"type":"Feature"},{"geometry":{"coordinates":[[[-1.0935829,52.5868023],[-1.1028503,52.5882966],[-1.1064757,52.5856767],[-1.1076627,52.5922125],[-1.114413,52.5882641],[-1.11882,52.5921375],[-1.1183282,52.5899017],[-1.1235201,52.592105],[-1.1260706,52.5903748],[-1.1227483,52.5811763],[-1.111733,52.5830146],[-1.1128217,52.5798769],[-1.1059152,52.5793284],[-1.1019905,52.583143],[-1.0934698,52.5835687],[-1.0935829,52.5868023]]],"type":"Polygon"},"id":"E02005414","properties":{"code":"E02005414","geography":"MSOA","name":"Oadby and Wigston 005"},"type":"Feature"},{"geometry":{"coordinates":[[[-1.1260706,52.5903748],[-1.1264499,52.5929054],[-1.1436271,52.588007],[-1.1407126,52.5763413],[-1.132685,52.5735588],[-1.1343965,52.5657643],[-1.1266411,52.5619711],[-1.1230264,52.5687937],[-1.1157132,52.5750155],[-1.1227483,52.5811763],[-1.1260706,52.5903748]]],"type":"Polygon"},"id":"E02005415","properties":{"code":"E02005415","geography":"MSOA","name":"Oadby and Wigston 006"},"type":"Feature"},{"geometry":{"coordinates":[[[-1.0673716,52.5797835],[-1.0879415,52.5880007],[-1.0935829,52.5868023],[-1.0934698,52.5835687],[-1.1019905,52.583143],[-1.1059152,52.5793284],[-1.1128217,52.5798769],[-1.111733,52.5830146],[-1.1227483,52.5811763],[-1.1157132,52.5750155],[-1.1230264,52.5687937],[-1.1069918,52.5642699],[-1.095682,52.5654345],[-1.0942768,52.5612479],[-1.0829036,52.556561],[-1.0754314,52.5746442],[-1.0673716,52.5797835]]],"type":"Polygon"},"id":"E02005416","properties":{"code":"E02005416","geography":"MSOA","name":"Oadby and Wigston 007"},"type":"Feature"},{"geometry":{"coordinates":[[[-1.1036595,52.5958935],[-1.1082643,52.5961027],[-1.126485,52.5956611],[-1.1264499,52.5929054],[-1.1260706,52.5903748],[-1.1235201,52.592105],[-1.1183282,52.5899017],[-1.11882,52.5921375],[-1.114413,52.5882641],[-1.1076627,52.5922125],[-1.1064757,52.5856767],[-1.1028503,52.5882966],[-1.0935829,52.5868023],[-1.0879415,52.5880007],[-1.0902972,52.5933542],[-1.0990744,52.5930386],[-1.1036595,52.5958935]]],"type":"Polygon"},"id":"E02006818","properties":{"code":"E02006818","geography":"MSOA","name":"Oadby and Wigston 008"},"type":"Feature"},{"geometry":{"coordinates":[[[-1.0565154,52.6028947],[-1.0624877,52.6042286],[-1.0589771,52.6090285],[-1.069665,52.6126982],[-1.0667616,52.6169993],[-1.0704984,52.6180482],[-1.0743748,52.6134074],[-1.0932419,52.6161478],[-1.0966421,52.6163608],[-1.0953765,52.6073735],[-1.0776089,52.5987754],[-1.0699127,52.6016],[-1.0684737,52.5988209],[-1.061442,52.6019262],[-1.0567303,52.6004838],[-1.0565154,52.6028947]]],"type":"Polygon"},"id":"E02006966","properties":{"code":"E02006966","geography":"MSOA","name":"Oadby and Wigston 010"},"type":"Feature"},{"geometry":{"coordinates":[[[-1.0421811,52.5982747],[-1.0565154,52.6028947],[-1.0567303,52.6004838],[-1.061442,52.6019262],[-1.0684737,52.5988209],[-1.0699127,52.6016],[-1.0776089,52.5987754],[-1.0583812,52.5853573],[-1.0421811,52.5982747]]],"type":"Polygon"},"id":"E02006967","properties":{"code":"E02006967","geography":"MSOA","name":"Oadby and Wigston 011"},"type":"Feature"}],"type":"FeatureCollection"}
