{"features":[{"geometry":{"coordinates":[[[0.1996428,53.0326463],[0.1932296,53.0374298],[0.1645579,53.0538445],[0.1502207,53.056933],[0.1370774,53.0866653],[0.0874807,53.0716187],[0.0361967,53.0694699],[0.0455719,53.0299602],[0.0176942,53.015999],[0.0336234,52.983647],[0.0369436,52.9695745],[0.0336017,52.9600476],[0.0408,52.9602333],[0.043997,52.957421],[0.0390996,52.9547486],[0.04938,52.9513007],[0.0408384,52.9486581],[0.0452698,52.9443059],[0.0575315,52.9444269],[0.0633988,52.9370245],[0.0740574,52.9324699],[0.0790187,52.9339596],[0.0789957,52.9391906],[0.0789833,52.9420034],[0.0821241,52.9457919],[0.0934274,52.9594196],[0.1067109,52.9663884],[0.1514169,53.0080812],[0.1631013,53.0131009],[0.1995732,53.0326229],[0.1996428,53.0326463]]],"type":"Polygon"},"id":"E02005417","properties":{"code":"E02005417","geography":"MSOA","name":"Boston 001"},"type":"Feature"},{"geometry":{"coordinates":[[[-0.0244757,52.9862962],[-0.0336839,52.9878955],[-0.0346468,52.9848794],[-0.0488402,52.9950097],[-0.0593825,52.9922289],[-0.0575931,52.9827567],[-0.0436814,52.9819911],[-0.0441576,52.9765202],[-0.0391052,52.9774288],[-0.0378054,52.9749318],[-0.040605,52.9699691],[-0.0316319,52.9701363],[-0.0301469,52.9817887],[-0.0263795,52.9807767],[-0.0244757,52.9862962]]],"type":"Polygon"},"id":"E02005418","properties":{"code":"E02005418","geography":"MSOA","name":"Boston 002"},"type":"Feature"},{"geometry":{"coordinates":[[[-0.01693,52.980833],[-0.0097909,52.9844578],[-0.0067667,52.9917188],[-0.0212107,52.9984441],[-0.0244757,52.9862962],[-0.0263795,52.9807767],[-0.0301469,52.9817887],[-0.0316319,52.9701363],[-0.0365973,52.9685007],[-0.0293312,52.9674904],[-0.0270246,52.9637974],[-0.0128266,52.9677351],[-0.01693,52.980833]]],"type":"Polygon"},"id":"E02005419","properties":{"code":"E02005419","geography":"MSOA","name":"Boston 003"},"type":"Feature"},{"geometry":{"coordinates":[[[-0.0052893,52.9635344],[-0.0009447,52.9641211],[0.0002243,52.9695383],[0.0130333,52.968434],[0.01664,52.974744],[0.0058268,52.9801713],[0.0042203,52.9760136],[-0.0023963,52.9754124],[-0.0060335,52.9802633],[-0.01693,52.980833],[-0.0128266,52.9677351],[-0.0052893,52.9635344]]],"type":"Polygon"},"id":"E02005420","properties":{"code":"E02005420","geography":"MSOA","name":"Boston 004"},"type":"Feature"},{"geometry":{"coordinates":[[[-0.1961242,53.0695335],[-0.2105419,53.070273],[-0.2139941,53.0624625],[-0.2247844,53.0290191],[-0.1898973,52.9963868],[-0.2012054,52.9774378],[-0.2467138,52.9288098],[-0.2087654,52.9225295],[-0.1920906,52.9146179],[-0.1799053,52.9153598],[-0.1778796,52.9190067],[-0.172364,52.9178431],[-0.1673787,52.9123001],[-0.1565183,52.9120331],[-0.1506153,52.9059275],[-0.146595,52.8986266],[-0.1516445,52.8942153],[-0.1447451,52.8907461],[-0.1426617,52.884885],[-0.1335778,52.8855985],[-0.1276023,52.8797889],[-0.1196414,52.8825547],[-0.1099213,52.8912714],[-0.11471,52.8994023],[-0.1092776,52.9077296],[-0.1001449,52.9053864],[-0.1037447,52.9006392],[-0.0984172,52.8918278],[-0.0885466,52.8987053],[-0.0903733,52.9019642],[-0.0850449,52.9030392],[-0.0863896,52.9129298],[-0.0764051,52.9123469],[-0.0807474,52.9154722],[-0.067636,52.9102139],[-0.0492718,52.9124944],[-0.0494811,52.9180737],[-0.0671953,52.9147875],[-0.0880856,52.9245669],[-0.107495,52.9275099],[-0.1148706,52.9463824],[-0.1272043,52.9579603],[-0.1250939,52.9616817],[-0.1392396,52.9632228],[-0.1373778,52.9701425],[-0.1434212,52.9697758],[-0.1449215,52.9747099],[-0.1107997,52.9751893],[-0.1087674,52.9870317],[-0.0823806,52.9845977],[-0.0575931,52.9827567],[-0.0593825,52.9922289],[-0.0488402,52.9950097],[-0.0639293,53.0082012],[-0.1167344,53.0109552],[-0.1642411,53.0500582],[-0.1890815,53.062745],[-0.1961242,53.0695335]]],"type":"Polygon"},"id":"E02005422","properties":{"code":"E02005422","geography":"MSOA","name":"Boston 006"},"type":"Feature"},{"geometry":{"coordinates":[[[-0.0823806,52.9845977],[-0.1087674,52.9870317],[-0.1107997,52.9751893],[-0.1449215,52.9747099],[-0.1434212,52.9697758],[-0.1373778,52.9701425],[-0.1392396,52.9632228],[-0.1250939,52.9616817],[-0.1272043,52.9579603],[-0.1148706,52.9463824],[-0.107495,52.9275099],[-0.0880856,52.9245669],[-0.0671953,52.9147875],[-0.0494811,52.9180737],[-0.0492718,52.9124944],[-0.067636,52.9102139],[-0.0807474,52.9154722],[-0.0764051,52.9123469],[-0.0863896,52.9129298],[-0.0850449,52.9030392],[-0.0903733,52.9019642],[-0.0885466,52.8987053],[-0.0984172,52.8918278],[-0.1037447,52.9006392],[-0.1001449,52.9053864],[-0.1092776,52.9077296],[-0.11471,52.8994023],[-0.1099213,52.8912714],[-0.1196414,52.8825547],[-0.1032322,52.8766243],[-0.0944601,52.8665985],[-0.0894843,52.8677762],[-0.0848036,52.8645237],[-0.0804854,52.8669354],[-0.0656411,52.8628722],[-0.0349654,52.870378],[-0.0372104,52.8726147],[-0.0020871,52.8871444],[0.027114,52.8984705],[0.0280442,52.8990229],[0.0092747,52.8942452],[0.0346418,52.9033681],[0.0208315,52.9040414],[0.0356181,52.9038003],[0.0360564,52.9040605],[0.0358247,52.9133292],[0.038369,52.9058456],[0.0518825,52.9149905],[0.0507786,52.9162473],[0.0499087,52.9163903],[0.0494201,52.9164705],[0.0450522,52.9226767],[0.0450241,52.9227363],[0.0335557,52.9216981],[0.0320769,52.9269316],[0.0227528,52.9275611],[0.0132127,52.9351658],[-0.0012346,52.9334883],[-0.0085925,52.9364633],[-0.0047234,52.942762],[-0.0301275,52.9452668],[-0.0344226,52.9523385],[-0.0410187,52.9536834],[-0.053542,52.9535421],[-0.0721535,52.9682177],[-0.0846014,52.9675281],[-0.0823806,52.9845977]]],"type":"Polygon"},"id":"E02005423","properties":{"code":"E02005423","geography":"MSOA","name":"Boston 007"},"type":"Feature"},{"geometry":{"coordinates":[[[[0.0531614,52.9158557],[0.0507786,52.9162473],[0.0518825,52.9149905],[0.0531614,52.9158557]]],[[[0.0176942,53.015999],[0.0004963,53.0088274],[-0.0070679,53.0010958],[-0.0149972,53.0047097],[-0.0515102,53.0048775],[-0.0639293,53.0082012],[-0.0488402,52.9950097],[-0.0346468,52.9848794],[-0.0336839,52.9878955],[-0.0244757,52.9862962],[-0.0212107,52.9984441],[-0.0067667,52.9917188],[-0.0097909,52.9844578],[-0.01693,52.980833],[-0.0060335,52.9802633],[-0.0023963,52.9754124],[0.0042203,52.9760136],[0.0058268,52.9801713],[0.01664,52.974744],[0.0130333,52.968434],[0.0002243,52.9695383],[-0.0009447,52.9641211],[-0.0052893,52.9635344],[0.0033819,52.9562236],[-0.0187982,52.9569355],[-0.0200179,52.9601079],[-0.0360026,52.9613322],[-0.0389571,52.9576632],[-0.0359665,52.955487],[-0.0426805,52.9553434],[-0.0410187,52.9536834],[-0.0344226,52.9523385],[-0.0301275,52.9452668],[-0.0047234,52.942762],[-0.0085925,52.9364633],[-0.0012346,52.9334883],[0.0132127,52.9351658],[0.0227528,52.9275611],[0.0320769,52.9269316],[0.0335557,52.9216981],[0.0450241,52.9227363],[0.0445179,52.9238083],[0.0426335,52.927799],[0.0516648,52.9171718],[0.076495,52.9314272],[0.0762577,52.9315329],[0.076033,52.931628],[0.0564543,52.9301014],[0.0740574,52.9324699],[0.0633988,52.9370245],[0.0575315,52.9444269],[0.0452698,52.9443059],[0.0408384,52.9486581],[0.04938,52.9513007],[0.0390996,52.9547486],[0.043997,52.957421],[0.0408,52.9602333],[0.0336017,52.9600476],[0.0369436,52.9695745],[0.0336234,52.983647],[0.0176942,53.015999]]]],"type":"MultiPolygon"},"id":"E02006864","properties":{"code":"E02006864","geography":"MSOA","name":"Boston 008"},"type":"Feature"},{"geometry":{"coordinates":[[[-0.0575931,52.9827567],[-0.0823806,52.9845977],[-0.0846014,52.9675281],[-0.0721535,52.9682177],[-0.053542,52.9535421],[-0.0410187,52.9536834],[-0.0426805,52.9553434],[-0.0359665,52.955487],[-0.0389571,52.9576632],[-0.0360026,52.9613322],[-0.0200179,52.9601079],[-0.0187982,52.9569355],[0.0033819,52.9562236],[-0.0052893,52.9635344],[-0.0128266,52.9677351],[-0.0270246,52.9637974],[-0.0293312,52.9674904],[-0.0365973,52.9685007],[-0.0316319,52.9701363],[-0.040605,52.9699691],[-0.0378054,52.9749318],[-0.0391052,52.9774288],[-0.0441576,52.9765202],[-0.0436814,52.9819911],[-0.0575931,52.9827567]]],"type":"Polygon"},"id":"E02006865","properties":{"code":"E02006865","geography":"MSOA","name":"Boston 009"},"type":"Feature"}],"type":"FeatureCollection"}
