{"features":[{"geometry":{"coordinates":[[[0.0690325,51.9840331],[0.0668787,51.979798],[0.0436846,51.9847977],[0.0445437,51.9869347],[0.0385114,51.9863909],[0.0349967,51.9896196],[0.0322404,51.987029],[0.0215424,51.9889338],[0.0232416,51.9843614],[0.0024403,51.9830443],[-0.0030654,51.9934365],[-0.0237628,51.9971603],[-0.0306585,51.9838047],[-0.0482298,51.9794396],[-0.0408167,51.9748403],[-0.0402186,51.9676925],[-0.0282106,51.9668769],[-0.0240145,51.9537439],[-0.030136,51.9542995],[-0.0265451,51.9407685],[-0.0107783,51.9361293],[-0.0076251,51.9324972],[0.0061901,51.9360391],[0.0069221,51.9313163],[0.0340035,51.9297943],[0.0286166,51.9310212],[0.0358055,51.9328716],[0.0471847,51.928421],[0.0539226,51.9319995],[0.0598651,51.9314702],[0.0640723,51.9339035],[0.0662084,51.9549437],[0.0728203,51.9473109],[0.0830662,51.9472901],[0.089766,51.9432373],[0.1017694,51.9480989],[0.1179847,51.9480589],[0.1147079,51.9558272],[0.1055815,51.9634773],[0.106984,51.9718085],[0.0978178,51.9772006],[0.0964322,51.9843166],[0.0768172,51.9808028],[0.0690325,51.9840331]]],"type":"Polygon"},"id":"E02004878","properties":{"code":"E02004878","geography":"MSOA","name":"East Hertfordshire 001"},"type":"Feature"},{"geometry":{"coordinates":[[[0.1179847,51.9480589],[0.1017694,51.9480989],[0.089766,51.9432373],[0.0830662,51.9472901],[0.0728203,51.9473109],[0.0662084,51.9549437],[0.0640723,51.9339035],[0.0598651,51.9314702],[0.0539226,51.9319995],[0.0471847,51.928421],[0.0358055,51.9328716],[0.0286166,51.9310212],[0.0340035,51.9297943],[0.0069221,51.9313163],[0.009601,51.9235142],[0.0062768,51.9167038],[0.0150762,51.9064354],[-0.0158576,51.9072162],[-0.014992,51.8968474],[0.0041386,51.896524],[0.0131595,51.9008193],[0.0201828,51.892222],[0.0612274,51.8898906],[0.058173,51.8736717],[0.0893301,51.8602562],[0.0967986,51.8643695],[0.1168622,51.8593455],[0.1242635,51.8648713],[0.1220491,51.8599663],[0.1306093,51.8629549],[0.1470253,51.8640724],[0.1516794,51.8675787],[0.1534865,51.8659729],[0.1567956,51.8709801],[0.1488267,51.8746009],[0.1559178,51.8769845],[0.1570787,51.8900775],[0.1247345,51.8845776],[0.1217361,51.9111868],[0.1248315,51.9235305],[0.1202422,51.9265599],[0.1179847,51.9480589]]],"type":"Polygon"},"id":"E02004880","properties":{"code":"E02004880","geography":"MSOA","name":"East Hertfordshire 003"},"type":"Feature"},{"geometry":{"coordinates":[[[0.1766797,51.8815767],[0.1759573,51.8872859],[0.1838539,51.8931528],[0.1797831,51.8953784],[0.1570787,51.8900775],[0.1559178,51.8769845],[0.1488267,51.8746009],[0.1567956,51.8709801],[0.1647195,51.8676736],[0.1766797,51.8815767]]],"type":"Polygon"},"id":"E02004881","properties":{"code":"E02004881","geography":"MSOA","name":"East Hertfordshire 004"},"type":"Feature"},{"geometry":{"coordinates":[[[0.195567,51.8680788],[0.1908337,51.8718223],[0.1933826,51.8732453],[0.1766797,51.8815767],[0.1647195,51.8676736],[0.1669074,51.861106],[0.1704409,51.8616146],[0.1828602,51.8650933],[0.1863447,51.8635062],[0.195567,51.8680788]]],"type":"Polygon"},"id":"E02004882","properties":{"code":"E02004882","geography":"MSOA","name":"East Hertfordshire 005"},"type":"Feature"},{"geometry":{"coordinates":[[[0.058173,51.8736717],[0.0612274,51.8898906],[0.0201828,51.892222],[0.0131595,51.9008193],[0.0041386,51.896524],[-0.014992,51.8968474],[-0.0179646,51.8806182],[-0.0348655,51.8645548],[-0.0417465,51.8623972],[-0.0428345,51.8553312],[-0.0346828,51.8469811],[-0.0366185,51.842869],[-0.0413206,51.8376582],[-0.0478966,51.8371529],[-0.0501987,51.830959],[-0.0601125,51.8296664],[-0.0513998,51.8216667],[-0.0478811,51.8195877],[-0.0345168,51.8257957],[-0.0215071,51.8277138],[-0.0107048,51.8241425],[-0.0058838,51.8282601],[0.0151899,51.8297901],[0.019698,51.8408193],[0.0357476,51.8442388],[0.0332077,51.8491956],[0.0473645,51.8595376],[0.058173,51.8736717]]],"type":"Polygon"},"id":"E02004883","properties":{"code":"E02004883","geography":"MSOA","name":"East Hertfordshire 006"},"type":"Feature"},{"geometry":{"coordinates":[[[0.1647195,51.8676736],[0.1567956,51.8709801],[0.1534865,51.8659729],[0.1516794,51.8675787],[0.1470253,51.8640724],[0.1306093,51.8629549],[0.1304131,51.8607237],[0.1488428,51.8568649],[0.1669074,51.861106],[0.1647195,51.8676736]]],"type":"Polygon"},"id":"E02004884","properties":{"code":"E02004884","geography":"MSOA","name":"East Hertfordshire 007"},"type":"Feature"},{"geometry":{"coordinates":[[[0.1669074,51.861106],[0.1488428,51.8568649],[0.1304131,51.8607237],[0.1306093,51.8629549],[0.1220491,51.8599663],[0.1372793,51.8515948],[0.1631377,51.844767],[0.166778,51.8507294],[0.1733716,51.8497626],[0.1704409,51.8616146],[0.1669074,51.861106]]],"type":"Polygon"},"id":"E02004885","properties":{"code":"E02004885","geography":"MSOA","name":"East Hertfordshire 008"},"type":"Feature"},{"geometry":{"coordinates":[[[0.1220491,51.8599663],[0.1242635,51.8648713],[0.1168622,51.8593455],[0.0967986,51.8643695],[0.0893301,51.8602562],[0.058173,51.8736717],[0.0473645,51.8595376],[0.0332077,51.8491956],[0.0357476,51.8442388],[0.019698,51.8408193],[0.0151899,51.8297901],[-0.0058838,51.8282601],[-0.0107048,51.8241425],[-0.0215071,51.8277138],[-0.0345168,51.8257957],[-0.0356196,51.8227244],[-0.0281706,51.8194291],[-0.0176935,51.8210961],[-0.008811,51.8166163],[-0.0109109,51.8026033],[-0.0051755,51.7987337],[-0.0071296,51.8053246],[1.62e-05,51.8049848],[0.0051744,51.8089131],[0.0108674,51.80604],[0.0244022,51.8067157],[0.0264077,51.804347],[0.0344459,51.8097132],[0.0383297,51.8086613],[0.036189,51.8016171],[0.0403583,51.8031476],[0.0447006,51.7990602],[0.0411785,51.7933888],[0.0375773,51.7941282],[0.0383623,51.798191],[0.0299452,51.7950446],[0.045201,51.7862401],[0.0422887,51.7751252],[0.0576478,51.7796655],[0.0636564,51.7839473],[0.0897935,51.7839996],[0.099227,51.7832249],[0.1072597,51.7879226],[0.1111266,51.7884449],[0.1107465,51.7958712],[0.1254088,51.805801],[0.1261985,51.8179563],[0.1426166,51.8190546],[0.1478048,51.8423296],[0.152814,51.8435806],[0.1537522,51.8385411],[0.1575134,51.8425188],[0.1617927,51.8407461],[0.1631377,51.844767],[0.1372793,51.8515948],[0.1220491,51.8599663]]],"type":"Polygon"},"id":"E02004886","properties":{"code":"E02004886","geography":"MSOA","name":"East Hertfordshire 009"},"type":"Feature"},{"geometry":{"coordinates":[[[-0.0417465,51.8623972],[-0.050066,51.8610177],[-0.0637177,51.8656826],[-0.0853319,51.8644897],[-0.0834601,51.8806971],[-0.0863096,51.8818306],[-0.1010283,51.8752858],[-0.106161,51.8783078],[-0.1230256,51.8694693],[-0.1217721,51.8633054],[-0.1272243,51.8581729],[-0.1250262,51.8635978],[-0.1290509,51.865926],[-0.1390107,51.8618228],[-0.1436762,51.8532039],[-0.1479484,51.8541874],[-0.1558476,51.8450219],[-0.1517277,51.8397005],[-0.1540983,51.8354302],[-0.1684574,51.8311554],[-0.1836122,51.8150799],[-0.1634207,51.8083125],[-0.1614942,51.8050571],[-0.150003,51.8017717],[-0.1499745,51.7989028],[-0.1639266,51.7949259],[-0.164046,51.7893518],[-0.1645262,51.7893052],[-0.1415167,51.773776],[-0.1437686,51.7575635],[-0.1382025,51.7515137],[-0.1384091,51.7372617],[-0.1282643,51.7392168],[-0.1284265,51.7414247],[-0.1052139,51.7415545],[-0.1012343,51.7451582],[-0.0922149,51.7432692],[-0.0858151,51.749077],[-0.0961233,51.7504618],[-0.0954351,51.7583199],[-0.0895291,51.7631772],[-0.0856311,51.7788956],[-0.0926193,51.7849441],[-0.1035683,51.7823975],[-0.1103234,51.7857156],[-0.1126112,51.7929093],[-0.1065778,51.7948975],[-0.1062865,51.7998411],[-0.1173657,51.8012232],[-0.1151298,51.8104717],[-0.096068,51.8144877],[-0.0913157,51.8158425],[-0.092628,51.8223876],[-0.0710462,51.8203702],[-0.0634071,51.823088],[-0.0646566,51.8271127],[-0.0601125,51.8296664],[-0.0501987,51.830959],[-0.0478966,51.8371529],[-0.0413206,51.8376582],[-0.0366185,51.842869],[-0.0346828,51.8469811],[-0.0428345,51.8553312],[-0.0417465,51.8623972]]],"type":"Polygon"},"id":"E02004887","properties":{"code":"E02004887","geography":"MSOA","name":"East Hertfordshire 010"},"type":"Feature"},{"geometry":{"coordinates":[[[0.1617927,51.8407461],[0.1575134,51.8425188],[0.1537522,51.8385411],[0.152814,51.8435806],[0.1478048,51.8423296],[0.1426166,51.8190546],[0.1261985,51.8179563],[0.1254088,51.805801],[0.1107465,51.7958712],[0.1111266,51.7884449],[0.1324258,51.7958462],[0.1461142,51.7962373],[0.1507397,51.7970432],[0.1582919,51.8135148],[0.166981,51.813273],[0.1725592,51.8163066],[0.1730053,51.8188656],[0.1647086,51.8192332],[0.1662247,51.8221469],[0.1611826,51.8259403],[0.1660967,51.8306997],[0.1616794,51.8321158],[0.1617927,51.8407461]]],"type":"Polygon"},"id":"E02004888","properties":{"code":"E02004888","geography":"MSOA","name":"East Hertfordshire 011"},"type":"Feature"},{"geometry":{"coordinates":[[[-0.0109109,51.8026033],[-0.008811,51.8166163],[-0.0176935,51.8210961],[-0.0281706,51.8194291],[-0.0356196,51.8227244],[-0.0356969,51.8177222],[-0.0281532,51.8183675],[-0.0351949,51.8152122],[-0.0356688,51.8106981],[-0.0237817,51.8087372],[-0.0142568,51.8017959],[-0.0109109,51.8026033]]],"type":"Polygon"},"id":"E02004889","properties":{"code":"E02004889","geography":"MSOA","name":"East Hertfordshire 012"},"type":"Feature"},{"geometry":{"coordinates":[[[-0.0356196,51.8227244],[-0.0345168,51.8257957],[-0.0478811,51.8195877],[-0.0513998,51.8216667],[-0.0483381,51.8191898],[-0.05156,51.8093565],[-0.0427257,51.800165],[-0.0248022,51.7970491],[-0.0142568,51.8017959],[-0.0237817,51.8087372],[-0.0356688,51.8106981],[-0.0351949,51.8152122],[-0.0281532,51.8183675],[-0.0356969,51.8177222],[-0.0356196,51.8227244]]],"type":"Polygon"},"id":"E02004890","properties":{"code":"E02004890","geography":"MSOA","name":"East Hertfordshire 013"},"type":"Feature"},{"geometry":{"coordinates":[[[-0.0513998,51.8216667],[-0.0601125,51.8296664],[-0.0646566,51.8271127],[-0.0634071,51.823088],[-0.0710462,51.8203702],[-0.092628,51.8223876],[-0.0913157,51.8158425],[-0.096068,51.8144877],[-0.092249,51.799562],[-0.0819915,51.7948875],[-0.0740083,51.8005434],[-0.0688623,51.8061835],[-0.05156,51.8093565],[-0.0483381,51.8191898],[-0.0513998,51.8216667]]],"type":"Polygon"},"id":"E02004891","properties":{"code":"E02004891","geography":"MSOA","name":"East Hertfordshire 014"},"type":"Feature"},{"geometry":{"coordinates":[[[-0.092249,51.799562],[-0.096068,51.8144877],[-0.1151298,51.8104717],[-0.1173657,51.8012232],[-0.1062865,51.7998411],[-0.1065778,51.7948975],[-0.0927732,51.7943156],[-0.092249,51.799562]]],"type":"Polygon"},"id":"E02004892","properties":{"code":"E02004892","geography":"MSOA","name":"East Hertfordshire 015"},"type":"Feature"},{"geometry":{"coordinates":[[[-0.0427257,51.800165],[-0.05156,51.8093565],[-0.0688623,51.8061835],[-0.0740083,51.8005434],[-0.0673173,51.8033687],[-0.0616242,51.7980864],[-0.0632992,51.7935603],[-0.04314,51.7985451],[-0.0427257,51.800165]]],"type":"Polygon"},"id":"E02004893","properties":{"code":"E02004893","geography":"MSOA","name":"East Hertfordshire 016"},"type":"Feature"},{"geometry":{"coordinates":[[[-0.04314,51.7985451],[-0.0632992,51.7935603],[-0.0616242,51.7980864],[-0.0673173,51.8033687],[-0.0740083,51.8005434],[-0.0819915,51.7948875],[-0.092249,51.799562],[-0.0927732,51.7943156],[-0.1065778,51.7948975],[-0.1126112,51.7929093],[-0.1103234,51.7857156],[-0.1035683,51.7823975],[-0.0926193,51.7849441],[-0.0856311,51.7788956],[-0.0561826,51.7832529],[-0.04314,51.7985451]]],"type":"Polygon"},"id":"E02004894","properties":{"code":"E02004894","geography":"MSOA","name":"East Hertfordshire 017"},"type":"Feature"},{"geometry":{"coordinates":[[[0.0422887,51.7751252],[0.045201,51.7862401],[0.0299452,51.7950446],[0.0383623,51.798191],[0.0375773,51.7941282],[0.0411785,51.7933888],[0.0447006,51.7990602],[0.0403583,51.8031476],[0.036189,51.8016171],[0.0383297,51.8086613],[0.0344459,51.8097132],[0.0264077,51.804347],[0.0244022,51.8067157],[0.0108674,51.80604],[0.0051744,51.8089131],[1.62e-05,51.8049848],[-0.0071296,51.8053246],[-0.0051755,51.7987337],[-0.0109109,51.8026033],[-0.0142568,51.8017959],[-0.0248022,51.7970491],[-0.0427257,51.800165],[-0.04314,51.7985451],[-0.0561826,51.7832529],[-0.0856311,51.7788956],[-0.0895291,51.7631772],[-0.0954351,51.7583199],[-0.0961233,51.7504618],[-0.0858151,51.749077],[-0.0922149,51.7432692],[-0.0986311,51.7359313],[-0.0582599,51.7347218],[-0.0524269,51.7423722],[-0.0499019,51.7508747],[-0.0479417,51.7687809],[-0.034385,51.7728781],[-0.0217177,51.7735409],[-0.0178239,51.7805693],[0.0055469,51.780063],[0.0031554,51.7771302],[0.0140014,51.7643743],[0.0267716,51.7741742],[0.0422887,51.7751252]]],"type":"Polygon"},"id":"E02004895","properties":{"code":"E02004895","geography":"MSOA","name":"East Hertfordshire 018"},"type":"Feature"},{"geometry":{"coordinates":[[[-0.0402186,51.9676925],[-0.0655678,51.9568366],[-0.0707518,51.9712846],[-0.0746845,51.9711556],[-0.0925522,51.9562294],[-0.1070383,51.9539509],[-0.1101812,51.9418928],[-0.1201907,51.9421799],[-0.1167008,51.9361678],[-0.1193078,51.9282894],[-0.1452918,51.9340466],[-0.1548234,51.9295915],[-0.1552682,51.9239013],[-0.1622187,51.920335],[-0.1564818,51.9161648],[-0.1554564,51.9036849],[-0.1594486,51.9037133],[-0.1598542,51.9016776],[-0.1530099,51.8990118],[-0.159325,51.8858344],[-0.1611828,51.8849163],[-0.1551065,51.887146],[-0.1512886,51.8853469],[-0.1561475,51.8775759],[-0.1467969,51.8706003],[-0.1735786,51.8753647],[-0.1645864,51.8619044],[-0.1728095,51.8565804],[-0.1667884,51.8441985],[-0.1700543,51.8391346],[-0.1785691,51.8411479],[-0.1701817,51.838811],[-0.1741704,51.8368164],[-0.1684574,51.8311554],[-0.1540983,51.8354302],[-0.1517277,51.8397005],[-0.1558476,51.8450219],[-0.1479484,51.8541874],[-0.1436762,51.8532039],[-0.1390107,51.8618228],[-0.1290509,51.865926],[-0.1250262,51.8635978],[-0.1272243,51.8581729],[-0.1217721,51.8633054],[-0.1230256,51.8694693],[-0.106161,51.8783078],[-0.1010283,51.8752858],[-0.0863096,51.8818306],[-0.0834601,51.8806971],[-0.0853319,51.8644897],[-0.0637177,51.8656826],[-0.050066,51.8610177],[-0.0417465,51.8623972],[-0.0348655,51.8645548],[-0.0179646,51.8806182],[-0.014992,51.8968474],[-0.0158576,51.9072162],[0.0150762,51.9064354],[0.0062768,51.9167038],[0.009601,51.9235142],[0.0069221,51.9313163],[0.0061901,51.9360391],[-0.0076251,51.9324972],[-0.0107783,51.9361293],[-0.0265451,51.9407685],[-0.030136,51.9542995],[-0.0240145,51.9537439],[-0.0282106,51.9668769],[-0.0402186,51.9676925]]],"type":"Polygon"},"id":"E02007093","properties":{"code":"E02007093","geography":"MSOA","name":"East Hertfordshire 019"},"type":"Feature"}],"type":"FeatureCollection"}
