{"features":[{"geometry":{"coordinates":[[[-1.1896107,51.1824129],[-1.2010488,51.1856331],[-1.2065767,51.1807046],[-1.2282283,51.1905706],[-1.2530925,51.1905108],[-1.2602186,51.1933943],[-1.299774,51.1967498],[-1.3088383,51.1947423],[-1.331039,51.1739819],[-1.3286576,51.1716851],[-1.3372344,51.1673881],[-1.3368915,51.1591104],[-1.34771,51.1595294],[-1.3482271,51.1555316],[-1.364081,51.1497327],[-1.3777789,51.1363362],[-1.3702358,51.129147],[-1.3573672,51.1167668],[-1.3437163,51.1184669],[-1.3437794,51.1116691],[-1.3295372,51.1101483],[-1.3301352,51.1166634],[-1.3229287,51.1182379],[-1.3071746,51.1175008],[-1.2653759,51.1243129],[-1.2409706,51.122161],[-1.2340479,51.1341796],[-1.2379805,51.1414836],[-1.2210875,51.1438522],[-1.2204372,51.1478432],[-1.2136768,51.1428685],[-1.2046046,51.1417382],[-1.2036951,51.1502303],[-1.2134134,51.1519543],[-1.2143755,51.158707],[-1.1855892,51.1639919],[-1.1817124,51.1752524],[-1.1929355,51.179379],[-1.1896107,51.1824129]]],"type":"Polygon"},"id":"E02004829","properties":{"code":"E02004829","geography":"MSOA","name":"Winchester 001"},"type":"Feature"},{"geometry":{"coordinates":[[[-1.162283,51.1347033],[-1.1781514,51.1340584],[-1.1865808,51.1381848],[-1.1844609,51.144314],[-1.2036951,51.1502303],[-1.2046046,51.1417382],[-1.2136768,51.1428685],[-1.2204372,51.1478432],[-1.2210875,51.1438522],[-1.2379805,51.1414836],[-1.2340479,51.1341796],[-1.2409706,51.122161],[-1.2653759,51.1243129],[-1.3071746,51.1175008],[-1.3229287,51.1182379],[-1.3301352,51.1166634],[-1.3295372,51.1101483],[-1.3275634,51.1043447],[-1.3152504,51.1009141],[-1.317,51.0964801],[-1.3062626,51.0919891],[-1.3014166,51.0936751],[-1.3035999,51.0896712],[-1.2959904,51.0859758],[-1.2976965,51.0756512],[-1.2891584,51.0742157],[-1.2898391,51.0640693],[-1.2801655,51.0641217],[-1.2824228,51.0613827],[-1.2895841,51.0614321],[-1.2898716,51.0533121],[-1.2938152,51.0531633],[-1.2922572,51.04465],[-1.2758717,51.0399992],[-1.2710844,51.0425261],[-1.2667215,51.0397815],[-1.2534075,51.0486112],[-1.2448201,51.0451489],[-1.2383038,51.0330614],[-1.2141021,51.0474839],[-1.1951553,51.0766972],[-1.1866903,51.0818427],[-1.1840423,51.0875709],[-1.1917209,51.0904516],[-1.1862924,51.1005121],[-1.1914946,51.1032289],[-1.1778406,51.1078701],[-1.1655168,51.1182846],[-1.1427458,51.1281455],[-1.1430036,51.1305087],[-1.1536245,51.1281436],[-1.162283,51.1347033]]],"type":"Polygon"},"id":"E02004830","properties":{"code":"E02004830","geography":"MSOA","name":"Winchester 002"},"type":"Feature"},{"geometry":{"coordinates":[[[-1.3295372,51.1101483],[-1.3437794,51.1116691],[-1.3437163,51.1184669],[-1.3573672,51.1167668],[-1.3702358,51.129147],[-1.380265,51.1241236],[-1.4070006,51.1206059],[-1.4036817,51.1130455],[-1.4115643,51.1106899],[-1.414378,51.1128812],[-1.4184509,51.1099151],[-1.4314294,51.1167912],[-1.4362835,51.1120481],[-1.4363043,51.0978945],[-1.4311858,51.098153],[-1.4299872,51.0944371],[-1.4145463,51.0956978],[-1.411974,51.0855646],[-1.4158671,51.0771331],[-1.4100871,51.0766957],[-1.4154811,51.0626783],[-1.3735044,51.0603107],[-1.3692792,51.0647011],[-1.3581141,51.066944],[-1.3525304,51.0707252],[-1.337123,51.068971],[-1.3364961,51.0733033],[-1.3453151,51.0763891],[-1.3421721,51.0784924],[-1.3249621,51.0801568],[-1.3212817,51.0754223],[-1.3185826,51.0765402],[-1.3183354,51.0727133],[-1.3081949,51.0691313],[-1.3014769,51.0704949],[-1.2976965,51.0756512],[-1.2959904,51.0859758],[-1.3035999,51.0896712],[-1.3014166,51.0936751],[-1.3062626,51.0919891],[-1.317,51.0964801],[-1.3152504,51.1009141],[-1.3275634,51.1043447],[-1.3295372,51.1101483]]],"type":"Polygon"},"id":"E02004831","properties":{"code":"E02004831","geography":"MSOA","name":"Winchester 003"},"type":"Feature"},{"geometry":{"coordinates":[[[-1.0816979,51.0464318],[-1.0906752,51.0549509],[-1.0889357,51.0607567],[-1.0950027,51.0631921],[-1.0920037,51.0675772],[-1.1071526,51.0789],[-1.1086656,51.0871385],[-1.1004588,51.0940041],[-1.0828727,51.0990745],[-1.0793745,51.1056016],[-1.0720878,51.1070903],[-1.080971,51.1094626],[-1.0939403,51.1077725],[-1.0905478,51.1120022],[-1.0950584,51.1403494],[-1.1120322,51.1365894],[-1.1297365,51.1386045],[-1.1318219,51.1436268],[-1.162283,51.1347033],[-1.1536245,51.1281436],[-1.1430036,51.1305087],[-1.1427458,51.1281455],[-1.1655168,51.1182846],[-1.1778406,51.1078701],[-1.1914946,51.1032289],[-1.1862924,51.1005121],[-1.1917209,51.0904516],[-1.1840423,51.0875709],[-1.1866903,51.0818427],[-1.1951553,51.0766972],[-1.2141021,51.0474839],[-1.2383038,51.0330614],[-1.2415254,51.024848],[-1.2327293,51.0246513],[-1.2242162,51.0135203],[-1.2289531,51.0078475],[-1.200013,51.0033685],[-1.1905541,51.0174776],[-1.1579342,51.0138104],[-1.1262814,51.0273385],[-1.1063009,51.0292537],[-1.1015308,51.0360549],[-1.0937052,51.0353983],[-1.0816979,51.0464318]]],"type":"Polygon"},"id":"E02004832","properties":{"code":"E02004832","geography":"MSOA","name":"Winchester 004"},"type":"Feature"},{"geometry":{"coordinates":[[[-1.3212817,51.0754223],[-1.3249621,51.0801568],[-1.3421721,51.0784924],[-1.3453151,51.0763891],[-1.3364961,51.0733033],[-1.337123,51.068971],[-1.3525304,51.0707252],[-1.3581141,51.066944],[-1.3519483,51.0596739],[-1.3381847,51.0594576],[-1.3230194,51.0636942],[-1.3212817,51.0754223]]],"type":"Polygon"},"id":"E02004833","properties":{"code":"E02004833","geography":"MSOA","name":"Winchester 005"},"type":"Feature"},{"geometry":{"coordinates":[[[-1.2922572,51.04465],[-1.2938152,51.0531633],[-1.2898716,51.0533121],[-1.2895841,51.0614321],[-1.2824228,51.0613827],[-1.2801655,51.0641217],[-1.2898391,51.0640693],[-1.2891584,51.0742157],[-1.2976965,51.0756512],[-1.3014769,51.0704949],[-1.3081949,51.0691313],[-1.3151476,51.0658981],[-1.3072349,51.0609089],[-1.3017232,51.0466737],[-1.2922572,51.04465]]],"type":"Polygon"},"id":"E02004834","properties":{"code":"E02004834","geography":"MSOA","name":"Winchester 006"},"type":"Feature"},{"geometry":{"coordinates":[[[-1.3081949,51.0691313],[-1.3183354,51.0727133],[-1.3185826,51.0765402],[-1.3212817,51.0754223],[-1.3230194,51.0636942],[-1.3381847,51.0594576],[-1.3407599,51.0568122],[-1.3276146,51.0566725],[-1.3317892,51.0583715],[-1.3262465,51.0591067],[-1.3300663,51.0609112],[-1.3223167,51.0617045],[-1.3170921,51.0570217],[-1.321631,51.0521282],[-1.3238937,51.0565882],[-1.3264247,51.0501051],[-1.329899,51.0480052],[-1.3268872,51.0402151],[-1.3196989,51.0397883],[-1.3156413,51.0435848],[-1.3017232,51.0466737],[-1.3072349,51.0609089],[-1.3151476,51.0658981],[-1.3081949,51.0691313]]],"type":"Polygon"},"id":"E02004835","properties":{"code":"E02004835","geography":"MSOA","name":"Winchester 007"},"type":"Feature"},{"geometry":{"coordinates":[[[-1.3264247,51.0501051],[-1.3238937,51.0565882],[-1.321631,51.0521282],[-1.3170921,51.0570217],[-1.3223167,51.0617045],[-1.3300663,51.0609112],[-1.3262465,51.0591067],[-1.3317892,51.0583715],[-1.3276146,51.0566725],[-1.3407599,51.0568122],[-1.3397123,51.0537811],[-1.3460303,51.0496378],[-1.3307632,51.0525643],[-1.3264247,51.0501051]]],"type":"Polygon"},"id":"E02004836","properties":{"code":"E02004836","geography":"MSOA","name":"Winchester 008"},"type":"Feature"},{"geometry":{"coordinates":[[[-1.3381847,51.0594576],[-1.3519483,51.0596739],[-1.3581141,51.066944],[-1.3692792,51.0647011],[-1.3735044,51.0603107],[-1.4154811,51.0626783],[-1.436055,51.059546],[-1.4471299,51.0522097],[-1.456514,51.0411288],[-1.4471762,51.0346214],[-1.4448007,51.0275377],[-1.4396956,51.0244203],[-1.4299947,51.0240737],[-1.4210236,51.0138221],[-1.4112089,51.0141187],[-1.3985486,51.0082914],[-1.394385,51.0097208],[-1.3929851,51.0043687],[-1.3570787,50.9984386],[-1.3565375,50.9984024],[-1.3564966,51.0015111],[-1.3536414,50.9997775],[-1.349761,51.0028291],[-1.3543274,51.0047084],[-1.3452922,51.0062253],[-1.3466574,51.0115205],[-1.3297649,51.0267579],[-1.324883,51.0232559],[-1.3196989,51.0397883],[-1.3268872,51.0402151],[-1.329899,51.0480052],[-1.3264247,51.0501051],[-1.3307632,51.0525643],[-1.3460303,51.0496378],[-1.3397123,51.0537811],[-1.3407599,51.0568122],[-1.3381847,51.0594576]]],"type":"Polygon"},"id":"E02004837","properties":{"code":"E02004837","geography":"MSOA","name":"Winchester 009"},"type":"Feature"},{"geometry":{"coordinates":[[[-1.2383038,51.0330614],[-1.2448201,51.0451489],[-1.2534075,51.0486112],[-1.2667215,51.0397815],[-1.2710844,51.0425261],[-1.2758717,51.0399992],[-1.2922572,51.04465],[-1.3017232,51.0466737],[-1.3156413,51.0435848],[-1.3196989,51.0397883],[-1.324883,51.0232559],[-1.3297649,51.0267579],[-1.3466574,51.0115205],[-1.3452922,51.0062253],[-1.3543274,51.0047084],[-1.349761,51.0028291],[-1.3536414,50.9997775],[-1.3564966,51.0015111],[-1.3565375,50.9984024],[-1.3468718,50.9910731],[-1.3435651,50.9919753],[-1.345963,50.9845945],[-1.3466463,50.9813501],[-1.34407,50.9848692],[-1.3331071,50.9834658],[-1.3276893,50.9801275],[-1.3227392,50.9875539],[-1.316405,50.985132],[-1.2905866,50.9828766],[-1.2931822,50.9741211],[-1.2754006,50.9738925],[-1.2720833,50.9791056],[-1.2596427,50.979228],[-1.2699808,50.9655372],[-1.2433997,50.9592336],[-1.2406156,50.9641469],[-1.2444267,50.9671912],[-1.2348312,50.9731071],[-1.2280291,50.9833811],[-1.215751,50.9875752],[-1.2089065,50.9856641],[-1.1976765,50.9906516],[-1.1917616,50.9887107],[-1.1877478,50.9926888],[-1.1916122,51.0036693],[-1.200013,51.0033685],[-1.2289531,51.0078475],[-1.2242162,51.0135203],[-1.2327293,51.0246513],[-1.2415254,51.024848],[-1.2383038,51.0330614]]],"type":"Polygon"},"id":"E02004838","properties":{"code":"E02004838","geography":"MSOA","name":"Winchester 010"},"type":"Feature"},{"geometry":{"coordinates":[[[-1.0537899,51.047237],[-1.0622115,51.0445245],[-1.0673545,51.0476448],[-1.0816979,51.0464318],[-1.0937052,51.0353983],[-1.1015308,51.0360549],[-1.1063009,51.0292537],[-1.1262814,51.0273385],[-1.1579342,51.0138104],[-1.1905541,51.0174776],[-1.200013,51.0033685],[-1.1916122,51.0036693],[-1.1877478,50.9926888],[-1.1917616,50.9887107],[-1.1940682,50.9842993],[-1.1855815,50.9753825],[-1.1782554,50.9748078],[-1.1758942,50.964738],[-1.1907548,50.9427842],[-1.1968841,50.9393418],[-1.1970141,50.9324949],[-1.1936934,50.9300541],[-1.1819793,50.930156],[-1.1701476,50.9231286],[-1.1771628,50.9053774],[-1.1585755,50.9023769],[-1.1621093,50.9000177],[-1.1538495,50.8974113],[-1.1433398,50.9033465],[-1.1315236,50.9034786],[-1.1285253,50.9009741],[-1.1223966,50.9077511],[-1.1248441,50.9096572],[-1.1163041,50.9095207],[-1.1157085,50.9068931],[-1.0988858,50.915527],[-1.09257,50.9156419],[-1.0882181,50.9225373],[-1.0775891,50.913501],[-1.0366051,50.9317363],[-1.0379991,50.9453094],[-1.0357051,50.9515242],[-1.0461827,50.9545841],[-1.0452518,50.968639],[-1.0535808,50.9709225],[-1.0555459,50.9775584],[-1.0633812,50.9776983],[-1.0695297,50.9937002],[-1.0688022,51.008558],[-1.0623559,51.0203351],[-1.0649567,51.0309392],[-1.0745148,51.0326338],[-1.0645412,51.0424623],[-1.0537899,51.047237]]],"type":"Polygon"},"id":"E02004839","properties":{"code":"E02004839","geography":"MSOA","name":"Winchester 011"},"type":"Feature"},{"geometry":{"coordinates":[[[-1.1917616,50.9887107],[-1.1976765,50.9906516],[-1.2089065,50.9856641],[-1.215751,50.9875752],[-1.2280291,50.9833811],[-1.2348312,50.9731071],[-1.2444267,50.9671912],[-1.2406156,50.9641469],[-1.2433997,50.9592336],[-1.2453977,50.9554273],[-1.2394471,50.9525249],[-1.2334484,50.9367117],[-1.2291987,50.9344905],[-1.2130084,50.9358095],[-1.2169115,50.9302853],[-1.2120002,50.9254093],[-1.1989046,50.9266783],[-1.1988713,50.9228174],[-1.1867847,50.9208756],[-1.1855611,50.9263769],[-1.1815373,50.9214136],[-1.1701476,50.9231286],[-1.1819793,50.930156],[-1.1936934,50.9300541],[-1.1970141,50.9324949],[-1.1968841,50.9393418],[-1.1907548,50.9427842],[-1.1758942,50.964738],[-1.1782554,50.9748078],[-1.1855815,50.9753825],[-1.1940682,50.9842993],[-1.1917616,50.9887107]]],"type":"Polygon"},"id":"E02004840","properties":{"code":"E02004840","geography":"MSOA","name":"Winchester 012"},"type":"Feature"},{"geometry":{"coordinates":[[[[-1.2628396,50.8997915],[-1.2628037,50.8998524],[-1.2628985,50.8997824],[-1.2628396,50.8997915]]],[[[-1.2334484,50.9367117],[-1.2394471,50.9525249],[-1.2453977,50.9554273],[-1.2433997,50.9592336],[-1.2699808,50.9655372],[-1.2911041,50.950837],[-1.2910123,50.9468073],[-1.2847372,50.9363869],[-1.2737027,50.9357109],[-1.2646934,50.9262913],[-1.2688645,50.9125571],[-1.2615214,50.9037271],[-1.2560205,50.903533],[-1.2652599,50.8979176],[-1.2546917,50.8870279],[-1.255295,50.8749574],[-1.2391549,50.8648078],[-1.2296625,50.8606143],[-1.2290287,50.8612156],[-1.2235701,50.8675809],[-1.2159685,50.8750568],[-1.1979756,50.8759043],[-1.1972568,50.884133],[-1.1881831,50.8839577],[-1.1883236,50.8880126],[-1.1652875,50.8879374],[-1.1538495,50.8974113],[-1.1621093,50.9000177],[-1.1585755,50.9023769],[-1.1771628,50.9053774],[-1.1701476,50.9231286],[-1.1815373,50.9214136],[-1.1855611,50.9263769],[-1.1867847,50.9208756],[-1.1988713,50.9228174],[-1.1989046,50.9266783],[-1.2120002,50.9254093],[-1.2169115,50.9302853],[-1.2130084,50.9358095],[-1.2291987,50.9344905],[-1.2334484,50.9367117]]]],"type":"MultiPolygon"},"id":"E02004841","properties":{"code":"E02004841","geography":"MSOA","name":"Winchester 013"},"type":"Feature"},{"geometry":{"coordinates":[[[-1.0341332,50.9041712],[-1.0484713,50.9025251],[-1.0448043,50.9162696],[-1.0363701,50.9220385],[-1.0393889,50.9277871],[-1.0366051,50.9317363],[-1.0775891,50.913501],[-1.0882181,50.9225373],[-1.09257,50.9156419],[-1.0988858,50.915527],[-1.1157085,50.9068931],[-1.1163041,50.9095207],[-1.1248441,50.9096572],[-1.1223966,50.9077511],[-1.1285253,50.9009741],[-1.1315236,50.9034786],[-1.1433398,50.9033465],[-1.1538495,50.8974113],[-1.1652875,50.8879374],[-1.1500164,50.8793894],[-1.1517137,50.8702833],[-1.1445449,50.8666672],[-1.1432908,50.8591008],[-1.1328103,50.858213],[-1.1158626,50.858281],[-1.1010151,50.8572418],[-1.0908068,50.8585937],[-1.0715182,50.8570996],[-1.0540299,50.8565607],[-1.0487009,50.8645884],[-1.0546323,50.8674585],[-1.0473973,50.8657589],[-1.0457026,50.8705923],[-1.0465107,50.8741094],[-1.0350381,50.8806402],[-1.0367804,50.8822939],[-1.0445118,50.8833525],[-1.0491461,50.891474],[-1.0391469,50.9001173],[-1.0341332,50.9041712]]],"type":"Polygon"},"id":"E02004842","properties":{"code":"E02004842","geography":"MSOA","name":"Winchester 014"},"type":"Feature"}],"type":"FeatureCollection"}
