{"features":[{"geometry":{"coordinates":[[[-1.1301843,53.0735873],[-1.1206462,53.0867309],[-1.1400648,53.0922872],[-1.139228,53.0996403],[-1.1576712,53.0989915],[-1.1599602,53.1039419],[-1.1642543,53.1032511],[-1.1960472,53.094485],[-1.19293,53.0926042],[-1.2025099,53.0868919],[-1.226313,53.0810239],[-1.2312914,53.0620464],[-1.2281226,53.0545516],[-1.217428,53.0490109],[-1.2023496,53.0517879],[-1.1894258,53.047348],[-1.1822467,53.0484892],[-1.1771341,53.0371281],[-1.170126,53.0440508],[-1.1564433,53.0470764],[-1.1461049,53.0452189],[-1.1317919,53.0225362],[-1.130386,53.0280856],[-1.1260616,53.0493622],[-1.1337401,53.0518938],[-1.1301843,53.0735873]]],"type":"Polygon"},"id":"E02005865","properties":{"code":"E02005865","geography":"MSOA","name":"Gedling 001"},"type":"Feature"},{"geometry":{"coordinates":[[[-1.0651199,53.044739],[-1.080674,53.0523985],[-1.0932584,53.0670467],[-1.0866766,53.0732142],[-1.0895048,53.0780014],[-1.0943198,53.0741314],[-1.1139634,53.0769931],[-1.1301843,53.0735873],[-1.1337401,53.0518938],[-1.1260616,53.0493622],[-1.130386,53.0280856],[-1.1149136,53.0214087],[-1.0992804,53.0184541],[-1.0783627,53.0207839],[-1.0778852,53.0171297],[-1.0667584,53.0156653],[-1.0649555,53.0126366],[-1.0525037,53.0120171],[-1.0530647,53.0147725],[-1.0302887,53.0210502],[-1.0297332,53.0242369],[-1.0567254,53.0353911],[-1.0651199,53.044739]]],"type":"Polygon"},"id":"E02005866","properties":{"code":"E02005866","geography":"MSOA","name":"Gedling 002"},"type":"Feature"},{"geometry":{"coordinates":[[[-1.1149136,53.0214087],[-1.130386,53.0280856],[-1.1317919,53.0225362],[-1.1370829,53.0053063],[-1.1293657,53.0058904],[-1.1311352,53.0107277],[-1.1273197,53.0064043],[-1.1202867,53.0064707],[-1.1147266,53.0109228],[-1.1149136,53.0214087]]],"type":"Polygon"},"id":"E02005868","properties":{"code":"E02005868","geography":"MSOA","name":"Gedling 004"},"type":"Feature"},{"geometry":{"coordinates":[[[-1.0992804,53.0184541],[-1.1149136,53.0214087],[-1.1147266,53.0109228],[-1.1202867,53.0064707],[-1.1273197,53.0064043],[-1.1338437,52.9987071],[-1.1333124,52.9967981],[-1.1295745,52.9999439],[-1.1250414,52.9968675],[-1.1206877,52.9991208],[-1.1116819,53.0043853],[-1.1151794,53.0055871],[-1.1096423,53.0141365],[-1.0994184,53.0153964],[-1.0992804,53.0184541]]],"type":"Polygon"},"id":"E02005869","properties":{"code":"E02005869","geography":"MSOA","name":"Gedling 005"},"type":"Feature"},{"geometry":{"coordinates":[[[-1.1273197,53.0064043],[-1.1311352,53.0107277],[-1.1293657,53.0058904],[-1.1370829,53.0053063],[-1.1435162,53.0064816],[-1.1498156,53.0000752],[-1.1523872,52.996621],[-1.1460959,52.9983579],[-1.1382579,52.9948236],[-1.1338437,52.9987071],[-1.1273197,53.0064043]]],"type":"Polygon"},"id":"E02005870","properties":{"code":"E02005870","geography":"MSOA","name":"Gedling 006"},"type":"Feature"},{"geometry":{"coordinates":[[[-1.1064476,52.9931253],[-1.0994184,53.0153964],[-1.1096423,53.0141365],[-1.1151794,53.0055871],[-1.1116819,53.0043853],[-1.1206877,52.9991208],[-1.1089673,52.9918823],[-1.1064476,52.9931253]]],"type":"Polygon"},"id":"E02005871","properties":{"code":"E02005871","geography":"MSOA","name":"Gedling 007"},"type":"Feature"},{"geometry":{"coordinates":[[[-1.0525037,53.0120171],[-1.0649555,53.0126366],[-1.0667584,53.0156653],[-1.0778852,53.0171297],[-1.0783627,53.0207839],[-1.0992804,53.0184541],[-1.0994184,53.0153964],[-1.1064476,52.9931253],[-1.0967751,52.995315],[-1.0718048,52.9933619],[-1.0637542,52.9837867],[-1.0625966,52.9783441],[-1.0566215,52.976744],[-1.0655736,52.9716232],[-1.0608415,52.9700509],[-1.0645619,52.9631094],[-1.0576495,52.959759],[-1.0612245,52.9576571],[-1.0566839,52.9506981],[-1.0415614,52.9512412],[-1.0332468,52.9587485],[-1.0363904,52.9845428],[-1.0259455,52.9857991],[-1.0165567,52.9802239],[-1.007089,52.9854371],[-1.0087687,52.9891847],[-1.0168102,52.9887436],[-1.0215218,52.9927027],[-1.0381147,52.9956498],[-1.0342156,53.0049836],[-1.0465571,53.0071904],[-1.0525037,53.0120171]]],"type":"Polygon"},"id":"E02005872","properties":{"code":"E02005872","geography":"MSOA","name":"Gedling 008"},"type":"Feature"},{"geometry":{"coordinates":[[[-1.1206877,52.9991208],[-1.1250414,52.9968675],[-1.1295745,52.9999439],[-1.1333124,52.9967981],[-1.1338437,52.9987071],[-1.1382579,52.9948236],[-1.1424486,52.986251],[-1.1227898,52.9834462],[-1.1089673,52.9918823],[-1.1206877,52.9991208]]],"type":"Polygon"},"id":"E02005873","properties":{"code":"E02005873","geography":"MSOA","name":"Gedling 009"},"type":"Feature"},{"geometry":{"coordinates":[[[-1.1090086,52.975908],[-1.1022923,52.9799603],[-1.0963037,52.9794394],[-1.0951052,52.982292],[-1.0977316,52.9870171],[-1.1089673,52.9918823],[-1.1227898,52.9834462],[-1.124322,52.9786667],[-1.1204605,52.9737534],[-1.1134512,52.977209],[-1.1090086,52.975908]]],"type":"Polygon"},"id":"E02005874","properties":{"code":"E02005874","geography":"MSOA","name":"Gedling 010"},"type":"Feature"},{"geometry":{"coordinates":[[[-1.0637542,52.9837867],[-1.0718048,52.9933619],[-1.0967751,52.995315],[-1.1064476,52.9931253],[-1.1089673,52.9918823],[-1.0977316,52.9870171],[-1.0951052,52.982292],[-1.0963037,52.9794394],[-1.1022923,52.9799603],[-1.1090086,52.975908],[-1.1019542,52.9721515],[-1.0945493,52.9747071],[-1.0903628,52.972002],[-1.0855754,52.9765108],[-1.0922237,52.9808177],[-1.0887864,52.9819688],[-1.0818019,52.9775435],[-1.0801237,52.9814669],[-1.0686943,52.9802137],[-1.0637542,52.9837867]]],"type":"Polygon"},"id":"E02005875","properties":{"code":"E02005875","geography":"MSOA","name":"Gedling 011"},"type":"Feature"},{"geometry":{"coordinates":[[[-1.0655736,52.9716232],[-1.0566215,52.976744],[-1.0625966,52.9783441],[-1.0637542,52.9837867],[-1.0686943,52.9802137],[-1.0801237,52.9814669],[-1.0818019,52.9775435],[-1.0887864,52.9819688],[-1.0922237,52.9808177],[-1.0855754,52.9765108],[-1.0903628,52.972002],[-1.0897786,52.9715792],[-1.0786047,52.965151],[-1.0655736,52.9716232]]],"type":"Polygon"},"id":"E02005876","properties":{"code":"E02005876","geography":"MSOA","name":"Gedling 012"},"type":"Feature"},{"geometry":{"coordinates":[[[-1.1090086,52.975908],[-1.1134512,52.977209],[-1.1204605,52.9737534],[-1.1152538,52.9648734],[-1.0897786,52.9715792],[-1.0903628,52.972002],[-1.0945493,52.9747071],[-1.1019542,52.9721515],[-1.1090086,52.975908]]],"type":"Polygon"},"id":"E02005877","properties":{"code":"E02005877","geography":"MSOA","name":"Gedling 013"},"type":"Feature"},{"geometry":{"coordinates":[[[-1.0786047,52.965151],[-1.0897786,52.9715792],[-1.1152538,52.9648734],[-1.1040616,52.9640625],[-1.101499,52.9589172],[-1.0945855,52.9567035],[-1.0786047,52.965151]]],"type":"Polygon"},"id":"E02005878","properties":{"code":"E02005878","geography":"MSOA","name":"Gedling 014"},"type":"Feature"},{"geometry":{"coordinates":[[[-1.0566839,52.9506981],[-1.0612245,52.9576571],[-1.0576495,52.959759],[-1.0645619,52.9631094],[-1.0608415,52.9700509],[-1.0655736,52.9716232],[-1.0786047,52.965151],[-1.0945855,52.9567035],[-1.0968789,52.9555005],[-1.0881295,52.9515747],[-1.086119,52.9485494],[-1.0738336,52.9558356],[-1.0623556,52.9502945],[-1.0566839,52.9506981]]],"type":"Polygon"},"id":"E02005879","properties":{"code":"E02005879","geography":"MSOA","name":"Gedling 015"},"type":"Feature"},{"geometry":{"coordinates":[[[-1.1317919,53.0225362],[-1.1461049,53.0452189],[-1.1564433,53.0470764],[-1.170126,53.0440508],[-1.1771341,53.0371281],[-1.1827499,53.0185492],[-1.1844853,53.0144268],[-1.167776,53.0142529],[-1.1667879,53.0106047],[-1.1435162,53.0064816],[-1.1370829,53.0053063],[-1.1317919,53.0225362]]],"type":"Polygon"},"id":"E02006835","properties":{"code":"E02006835","geography":"MSOA","name":"Gedling 016"},"type":"Feature"}],"type":"FeatureCollection"}
