{"features":[{"geometry":{"coordinates":[[[-0.3888141,50.8595542],[-0.4033493,50.8564916],[-0.4093054,50.8522707],[-0.4228188,50.8602421],[-0.4223247,50.8406843],[-0.4219869,50.8345801],[-0.4115974,50.8398257],[-0.4011012,50.8399716],[-0.3919178,50.8386801],[-0.3928706,50.8433628],[-0.389736,50.8409244],[-0.3839196,50.8428504],[-0.3827901,50.8488152],[-0.3888141,50.8595542]]],"type":"Polygon"},"id":"E02006621","properties":{"code":"E02006621","geography":"MSOA","name":"Worthing 001"},"type":"Feature"},{"geometry":{"coordinates":[[[-0.389736,50.8409244],[-0.3928706,50.8433628],[-0.3919178,50.8386801],[-0.4011012,50.8399716],[-0.4040578,50.8361166],[-0.4094077,50.8375638],[-0.4041801,50.829233],[-0.3981319,50.8254136],[-0.391577,50.8263088],[-0.3898964,50.8338103],[-0.3834133,50.8304687],[-0.389736,50.8409244]]],"type":"Polygon"},"id":"E02006622","properties":{"code":"E02006622","geography":"MSOA","name":"Worthing 002"},"type":"Feature"},{"geometry":{"coordinates":[[[-0.4041801,50.829233],[-0.4094077,50.8375638],[-0.4040578,50.8361166],[-0.4011012,50.8399716],[-0.4115974,50.8398257],[-0.4219869,50.8345801],[-0.4251504,50.8318367],[-0.4187371,50.8284368],[-0.4200609,50.8262573],[-0.4041801,50.829233]]],"type":"Polygon"},"id":"E02006623","properties":{"code":"E02006623","geography":"MSOA","name":"Worthing 003"},"type":"Feature"},{"geometry":{"coordinates":[[[-0.367479,50.8605387],[-0.3810642,50.8632542],[-0.3888141,50.8595542],[-0.3827901,50.8488152],[-0.3839196,50.8428504],[-0.389736,50.8409244],[-0.3834133,50.8304687],[-0.3898964,50.8338103],[-0.391577,50.8263088],[-0.3880079,50.8220906],[-0.3834985,50.8199952],[-0.3795883,50.8218931],[-0.3803295,50.829368],[-0.3712355,50.8276193],[-0.3716587,50.8339826],[-0.3591653,50.8355937],[-0.358547,50.8435412],[-0.3659421,50.847353],[-0.3690218,50.8552885],[-0.367479,50.8605387]]],"type":"Polygon"},"id":"E02006624","properties":{"code":"E02006624","geography":"MSOA","name":"Worthing 004"},"type":"Feature"},{"geometry":{"coordinates":[[[-0.355329,50.8270227],[-0.3532205,50.8290491],[-0.3583687,50.8306461],[-0.3591653,50.8355937],[-0.3716587,50.8339826],[-0.3712355,50.8276193],[-0.3745417,50.8186446],[-0.3727453,50.8187006],[-0.3640546,50.820071],[-0.355329,50.8270227]]],"type":"Polygon"},"id":"E02006625","properties":{"code":"E02006625","geography":"MSOA","name":"Worthing 005"},"type":"Feature"},{"geometry":{"coordinates":[[[-0.4219869,50.8345801],[-0.4223247,50.8406843],[-0.4460319,50.8398621],[-0.4433696,50.8371997],[-0.4465565,50.8363339],[-0.441961,50.8173367],[-0.4177445,50.8174993],[-0.411471,50.8195496],[-0.4172479,50.8191138],[-0.4223675,50.8246183],[-0.4200609,50.8262573],[-0.4187371,50.8284368],[-0.4251504,50.8318367],[-0.4219869,50.8345801]]],"type":"Polygon"},"id":"E02006626","properties":{"code":"E02006626","geography":"MSOA","name":"Worthing 006"},"type":"Feature"},{"geometry":{"coordinates":[[[-0.391577,50.8263088],[-0.3981319,50.8254136],[-0.4041801,50.829233],[-0.4200609,50.8262573],[-0.4223675,50.8246183],[-0.4172479,50.8191138],[-0.411471,50.8195496],[-0.4177445,50.8174993],[-0.4100593,50.8174332],[-0.3963555,50.8181935],[-0.3973556,50.8217984],[-0.3883461,50.8202574],[-0.3880079,50.8220906],[-0.391577,50.8263088]]],"type":"Polygon"},"id":"E02006627","properties":{"code":"E02006627","geography":"MSOA","name":"Worthing 007"},"type":"Feature"},{"geometry":{"coordinates":[[[-0.3712355,50.8276193],[-0.3803295,50.829368],[-0.3795883,50.8218931],[-0.3834985,50.8199952],[-0.3880079,50.8220906],[-0.3883461,50.8202574],[-0.3973556,50.8217984],[-0.3963555,50.8181935],[-0.3945583,50.8183019],[-0.3833456,50.8180733],[-0.3829292,50.8149397],[-0.3783305,50.8143054],[-0.3745417,50.8186446],[-0.3712355,50.8276193]]],"type":"Polygon"},"id":"E02006628","properties":{"code":"E02006628","geography":"MSOA","name":"Worthing 008"},"type":"Feature"},{"geometry":{"coordinates":[[[-0.3372226,50.820982],[-0.3502256,50.8226768],[-0.355329,50.8270227],[-0.3640546,50.820071],[-0.3547731,50.8129543],[-0.353019,50.8152048],[-0.3394723,50.8159339],[-0.3327229,50.8174526],[-0.3323331,50.8175434],[-0.3372226,50.820982]]],"type":"Polygon"},"id":"E02006629","properties":{"code":"E02006629","geography":"MSOA","name":"Worthing 009"},"type":"Feature"},{"geometry":{"coordinates":[[[-0.380247,50.8077569],[-0.3851665,50.8099127],[-0.376495,50.8116218],[-0.3710481,50.8157729],[-0.3744498,50.8156342],[-0.3727453,50.8187006],[-0.3745417,50.8186446],[-0.3783305,50.8143054],[-0.3829292,50.8149397],[-0.3833456,50.8180733],[-0.3945583,50.8183019],[-0.3887421,50.8066774],[-0.388416,50.8066969],[-0.380247,50.8077569]]],"type":"Polygon"},"id":"E02006630","properties":{"code":"E02006630","geography":"MSOA","name":"Worthing 010"},"type":"Feature"},{"geometry":{"coordinates":[[[-0.3394723,50.8159339],[-0.353019,50.8152048],[-0.3547731,50.8129543],[-0.3640546,50.820071],[-0.3727453,50.8187006],[-0.3744498,50.8156342],[-0.3710481,50.8157729],[-0.376495,50.8116218],[-0.3851665,50.8099127],[-0.380247,50.8077569],[-0.3783281,50.8080058],[-0.3601223,50.8112845],[-0.3394723,50.8159339]]],"type":"Polygon"},"id":"E02006631","properties":{"code":"E02006631","geography":"MSOA","name":"Worthing 011"},"type":"Feature"},{"geometry":{"coordinates":[[[-0.3887421,50.8066774],[-0.3945583,50.8183019],[-0.3963555,50.8181935],[-0.4100593,50.8174332],[-0.4057986,50.8056521],[-0.3887421,50.8066774]]],"type":"Polygon"},"id":"E02006632","properties":{"code":"E02006632","geography":"MSOA","name":"Worthing 012"},"type":"Feature"},{"geometry":{"coordinates":[[[-0.4057986,50.8056521],[-0.4100593,50.8174332],[-0.4177445,50.8174993],[-0.441961,50.8173367],[-0.4359656,50.8031489],[-0.4057986,50.8056521]]],"type":"Polygon"},"id":"E02006633","properties":{"code":"E02006633","geography":"MSOA","name":"Worthing 013"},"type":"Feature"}],"type":"FeatureCollection"}
