{"features":[{"geometry":{"coordinates":[[[0.0069936,51.1390075],[-0.0066163,51.1375725],[-0.0178153,51.1412032],[-0.0322821,51.1389758],[-0.0316276,51.134197],[-0.0226523,51.1331231],[-0.0211972,51.1286058],[-0.0133069,51.1333966],[-0.0237856,51.1229829],[-0.016623,51.120364],[-0.0117499,51.1229951],[-0.0074688,51.1201919],[0.0020604,51.123423],[0.0012772,51.1274048],[-0.0050809,51.1270964],[-0.0046478,51.1310107],[-0.0009519,51.1368291],[0.0069936,51.1390075]]],"type":"Polygon"},"id":"E02006604","properties":{"code":"E02006604","geography":"MSOA","name":"Mid Sussex 001"},"type":"Feature"},{"geometry":{"coordinates":[[[-0.0930872,51.1387106],[-0.1172898,51.1416037],[-0.1310521,51.1394871],[-0.1375988,51.1421636],[-0.1414509,51.1281193],[-0.1387083,51.1204784],[-0.137394,51.111549],[-0.1511036,51.0988872],[-0.1613527,51.0929428],[-0.1607361,51.0797961],[-0.1595436,51.0850222],[-0.1469419,51.082546],[-0.1334467,51.0858592],[-0.120708,51.0815884],[-0.1149951,51.0884859],[-0.1156072,51.0853447],[-0.111532,51.0854453],[-0.0987885,51.0925563],[-0.0970405,51.090393],[-0.0883485,51.0921855],[-0.0759184,51.0981565],[-0.0838691,51.1012228],[-0.0803853,51.108372],[-0.0842524,51.1141948],[-0.0940633,51.1170882],[-0.1025206,51.1160503],[-0.1058646,51.1194618],[-0.1038438,51.1289256],[-0.0920933,51.1315862],[-0.0930872,51.1387106]]],"type":"Polygon"},"id":"E02006605","properties":{"code":"E02006605","geography":"MSOA","name":"Mid Sussex 002"},"type":"Feature"},{"geometry":{"coordinates":[[[0.0050034,51.1052629],[0.0094777,51.1103955],[0.0185917,51.1035791],[0.0254229,51.109023],[0.044543,51.1106582],[0.0281253,51.1177232],[0.0273341,51.139854],[0.0069936,51.1390075],[-0.0009519,51.1368291],[-0.0046478,51.1310107],[-0.0050809,51.1270964],[0.0012772,51.1274048],[0.0020604,51.123423],[-0.0074688,51.1201919],[-0.0018932,51.1152564],[-0.0053304,51.11185],[0.004147,51.1099251],[0.0050034,51.1052629]]],"type":"Polygon"},"id":"E02006606","properties":{"code":"E02006606","geography":"MSOA","name":"Mid Sussex 003"},"type":"Feature"},{"geometry":{"coordinates":[[[-0.0322821,51.1389758],[-0.0332687,51.1392648],[-0.0563533,51.1367694],[-0.0603465,51.1300612],[-0.0532431,51.11534],[-0.0603443,51.1122466],[-0.0517369,51.1049296],[-0.0462215,51.0923227],[-0.0492257,51.0905671],[-0.0363358,51.0862279],[-0.0328286,51.0923922],[-0.036224,51.0934609],[-0.0261972,51.0917534],[-0.0213441,51.0967601],[-0.0108924,51.0965025],[0.0029127,51.1022956],[0.0113386,51.1026086],[0.0050034,51.1052629],[0.004147,51.1099251],[-0.0053304,51.11185],[-0.0018932,51.1152564],[-0.0074688,51.1201919],[-0.0117499,51.1229951],[-0.016623,51.120364],[-0.0237856,51.1229829],[-0.0133069,51.1333966],[-0.0211972,51.1286058],[-0.0226523,51.1331231],[-0.0316276,51.134197],[-0.0322821,51.1389758]]],"type":"Polygon"},"id":"E02006607","properties":{"code":"E02006607","geography":"MSOA","name":"Mid Sussex 004"},"type":"Feature"},{"geometry":{"coordinates":[[[-0.0563533,51.1367694],[-0.0632313,51.1412613],[-0.0826407,51.1426415],[-0.0930872,51.1387106],[-0.0920933,51.1315862],[-0.1038438,51.1289256],[-0.1058646,51.1194618],[-0.1025206,51.1160503],[-0.0940633,51.1170882],[-0.0842524,51.1141948],[-0.0803853,51.108372],[-0.0838691,51.1012228],[-0.0759184,51.0981565],[-0.0661831,51.1043349],[-0.0517369,51.1049296],[-0.0603443,51.1122466],[-0.0532431,51.11534],[-0.0603465,51.1300612],[-0.0563533,51.1367694]]],"type":"Polygon"},"id":"E02006608","properties":{"code":"E02006608","geography":"MSOA","name":"Mid Sussex 005"},"type":"Feature"},{"geometry":{"coordinates":[[[-0.0328286,51.0923922],[-0.0363358,51.0862279],[-0.0492257,51.0905671],[-0.0462215,51.0923227],[-0.0517369,51.1049296],[-0.0661831,51.1043349],[-0.0759184,51.0981565],[-0.0883485,51.0921855],[-0.0970405,51.090393],[-0.0987885,51.0925563],[-0.111532,51.0854453],[-0.1075769,51.0576671],[-0.1028153,51.0500698],[-0.1147913,51.0525091],[-0.1210834,51.0580459],[-0.1172391,51.0521386],[-0.1005739,51.0436509],[-0.1003699,51.0387858],[-0.1126409,51.0360196],[-0.112318,51.0241335],[-0.1077082,51.0236363],[-0.1046686,51.0161766],[-0.1026161,51.0160342],[-0.1021203,51.0188331],[-0.0908192,51.0168082],[-0.07697,51.0195595],[-0.0698765,51.0156537],[-0.0668787,51.0086289],[-0.0541731,51.0079015],[-0.0514696,51.0042131],[-0.0579704,51.0043145],[-0.072943,50.9974811],[-0.0705517,50.9913497],[-0.0637395,50.9792165],[-0.0535638,50.9794826],[-0.0470117,50.9812124],[-0.0367436,50.9797965],[-0.0363262,50.977195],[-0.0246305,50.9800293],[-0.0164306,51.0025234],[-0.0201223,51.0034715],[-0.0160343,51.0148065],[-0.022199,51.0167898],[-0.0219398,51.0265167],[-0.0015919,51.0357586],[-0.0079306,51.0389921],[-0.0020431,51.0430716],[-0.003029,51.047567],[0.0076935,51.0509106],[0.0136986,51.0570162],[-0.0082379,51.0563355],[-0.0097895,51.0635427],[-0.0149969,51.0693558],[-0.0132836,51.0739708],[-0.0268793,51.0751167],[-0.0328286,51.0923922]]],"type":"Polygon"},"id":"E02006609","properties":{"code":"E02006609","geography":"MSOA","name":"Mid Sussex 006"},"type":"Feature"},{"geometry":{"coordinates":[[[-0.111532,51.0854453],[-0.1156072,51.0853447],[-0.1149951,51.0884859],[-0.120708,51.0815884],[-0.1334467,51.0858592],[-0.1469419,51.082546],[-0.1595436,51.0850222],[-0.1607361,51.0797961],[-0.1613527,51.0929428],[-0.1725688,51.0898993],[-0.1956081,51.086151],[-0.2120047,51.0865879],[-0.2125932,51.0753648],[-0.2118476,51.0644565],[-0.2226552,51.0602148],[-0.2194323,51.0517861],[-0.226785,51.0415725],[-0.2191862,51.0379263],[-0.2240853,51.0379391],[-0.2265497,51.0346205],[-0.2292642,51.0379116],[-0.2471132,51.0334324],[-0.2491086,51.0249513],[-0.2366767,51.021088],[-0.2455255,51.0141365],[-0.2320426,51.0108513],[-0.236276,50.9928372],[-0.228303,50.9900538],[-0.2250814,50.9975844],[-0.2191478,50.9987246],[-0.2143666,50.9967795],[-0.2150999,50.9878542],[-0.2074979,50.9874305],[-0.2013541,50.9993089],[-0.1937169,50.9982819],[-0.1885163,51.0015084],[-0.1809769,50.9989663],[-0.1715087,51.0128228],[-0.1601772,51.0117916],[-0.1519674,51.0157656],[-0.1382498,51.0095256],[-0.133328,51.0123928],[-0.1356433,51.0145207],[-0.1408195,51.0129305],[-0.1440395,51.0172124],[-0.1346493,51.0191431],[-0.1339088,51.0168146],[-0.1114249,51.0152967],[-0.1046686,51.0161766],[-0.1077082,51.0236363],[-0.112318,51.0241335],[-0.1126409,51.0360196],[-0.1003699,51.0387858],[-0.1005739,51.0436509],[-0.1172391,51.0521386],[-0.1210834,51.0580459],[-0.1147913,51.0525091],[-0.1028153,51.0500698],[-0.1075769,51.0576671],[-0.111532,51.0854453]]],"type":"Polygon"},"id":"E02006610","properties":{"code":"E02006610","geography":"MSOA","name":"Mid Sussex 007"},"type":"Feature"},{"geometry":{"coordinates":[[[-0.0705517,50.9913497],[-0.072943,50.9974811],[-0.0579704,51.0043145],[-0.0514696,51.0042131],[-0.0541731,51.0079015],[-0.0668787,51.0086289],[-0.0698765,51.0156537],[-0.07697,51.0195595],[-0.0908192,51.0168082],[-0.1021203,51.0188331],[-0.1026161,51.0160342],[-0.1037133,51.0071558],[-0.0951724,51.0078276],[-0.0882328,51.0049037],[-0.0807879,51.006217],[-0.0851648,50.9999251],[-0.0788272,50.997505],[-0.084923,50.9932232],[-0.078007,50.9911625],[-0.0705517,50.9913497]]],"type":"Polygon"},"id":"E02006611","properties":{"code":"E02006611","geography":"MSOA","name":"Mid Sussex 008"},"type":"Feature"},{"geometry":{"coordinates":[[[-0.1026161,51.0160342],[-0.1046686,51.0161766],[-0.1114249,51.0152967],[-0.1078191,51.0059986],[-0.1153048,51.0013143],[-0.1257429,51.002583],[-0.1190997,50.9993991],[-0.1222497,50.9949296],[-0.117817,50.9855234],[-0.1127571,50.9852858],[-0.1068202,50.9959816],[-0.105337,50.9924774],[-0.1007736,50.9926994],[-0.1009428,50.9879983],[-0.0927119,50.9923292],[-0.100708,50.9961679],[-0.0951724,51.0078276],[-0.1037133,51.0071558],[-0.1026161,51.0160342]]],"type":"Polygon"},"id":"E02006612","properties":{"code":"E02006612","geography":"MSOA","name":"Mid Sussex 009"},"type":"Feature"},{"geometry":{"coordinates":[[[-0.084923,50.9932232],[-0.0788272,50.997505],[-0.0851648,50.9999251],[-0.0807879,51.006217],[-0.0882328,51.0049037],[-0.0951724,51.0078276],[-0.100708,50.9961679],[-0.0927119,50.9923292],[-0.091122,50.9965797],[-0.084923,50.9932232]]],"type":"Polygon"},"id":"E02006613","properties":{"code":"E02006613","geography":"MSOA","name":"Mid Sussex 010"},"type":"Feature"},{"geometry":{"coordinates":[[[-0.1114249,51.0152967],[-0.1339088,51.0168146],[-0.1346493,51.0191431],[-0.1440395,51.0172124],[-0.1408195,51.0129305],[-0.1356433,51.0145207],[-0.133328,51.0123928],[-0.1382498,51.0095256],[-0.1519674,51.0157656],[-0.1601772,51.0117916],[-0.1715087,51.0128228],[-0.1809769,50.9989663],[-0.1836389,50.990947],[-0.1898912,50.9899972],[-0.1880565,50.9819973],[-0.1795783,50.983468],[-0.1812233,50.9755275],[-0.1779358,50.9740625],[-0.1703051,50.9823599],[-0.159897,50.9808016],[-0.1618682,50.9733969],[-0.1564291,50.9734003],[-0.1564076,50.9648401],[-0.1397461,50.967416],[-0.1344665,50.9705924],[-0.1270792,50.9686398],[-0.1161343,50.9704367],[-0.1153112,50.9761119],[-0.1088404,50.9802468],[-0.0931783,50.9792323],[-0.0864457,50.9891408],[-0.078007,50.9911625],[-0.084923,50.9932232],[-0.091122,50.9965797],[-0.0927119,50.9923292],[-0.1009428,50.9879983],[-0.1007736,50.9926994],[-0.105337,50.9924774],[-0.1068202,50.9959816],[-0.1127571,50.9852858],[-0.117817,50.9855234],[-0.1222497,50.9949296],[-0.1190997,50.9993991],[-0.1257429,51.002583],[-0.1153048,51.0013143],[-0.1078191,51.0059986],[-0.1114249,51.0152967]]],"type":"Polygon"},"id":"E02006614","properties":{"code":"E02006614","geography":"MSOA","name":"Mid Sussex 011"},"type":"Feature"},{"geometry":{"coordinates":[[[-0.1450567,50.9536293],[-0.1396088,50.9574655],[-0.1552968,50.9574003],[-0.1557789,50.9604021],[-0.13848,50.9612796],[-0.1397461,50.967416],[-0.1564076,50.9648401],[-0.1593225,50.9600208],[-0.153746,50.950035],[-0.1534088,50.9526474],[-0.1450567,50.9536293]]],"type":"Polygon"},"id":"E02006615","properties":{"code":"E02006615","geography":"MSOA","name":"Mid Sussex 012"},"type":"Feature"},{"geometry":{"coordinates":[[[-0.1047152,50.9456107],[-0.1083753,50.9587651],[-0.1055454,50.9644086],[-0.1105639,50.9678654],[-0.1163347,50.9671871],[-0.1161343,50.9704367],[-0.1270792,50.9686398],[-0.1237096,50.96498],[-0.1275933,50.965522],[-0.1299937,50.9606737],[-0.1237708,50.9594576],[-0.1255632,50.9541295],[-0.1194494,50.9555229],[-0.1140617,50.9491978],[-0.1047152,50.9456107]]],"type":"Polygon"},"id":"E02006616","properties":{"code":"E02006616","geography":"MSOA","name":"Mid Sussex 013"},"type":"Feature"},{"geometry":{"coordinates":[[[-0.1270792,50.9686398],[-0.1344665,50.9705924],[-0.1397461,50.967416],[-0.13848,50.9612796],[-0.1557789,50.9604021],[-0.1552968,50.9574003],[-0.1396088,50.9574655],[-0.1450567,50.9536293],[-0.1356861,50.9520398],[-0.1312284,50.9476633],[-0.1255632,50.9541295],[-0.1237708,50.9594576],[-0.1299937,50.9606737],[-0.1275933,50.965522],[-0.1237096,50.96498],[-0.1270792,50.9686398]]],"type":"Polygon"},"id":"E02006617","properties":{"code":"E02006617","geography":"MSOA","name":"Mid Sussex 014"},"type":"Feature"},{"geometry":{"coordinates":[[[-0.1047152,50.9456107],[-0.1140617,50.9491978],[-0.1194494,50.9555229],[-0.1255632,50.9541295],[-0.1312284,50.9476633],[-0.1356861,50.9520398],[-0.1450567,50.9536293],[-0.1534088,50.9526474],[-0.153746,50.950035],[-0.1410603,50.9469791],[-0.1417049,50.9414144],[-0.1200027,50.9417037],[-0.1180857,50.9452612],[-0.1054536,50.9431152],[-0.1047152,50.9456107]]],"type":"Polygon"},"id":"E02006618","properties":{"code":"E02006618","geography":"MSOA","name":"Mid Sussex 015"},"type":"Feature"},{"geometry":{"coordinates":[[[-0.1809769,50.9989663],[-0.1885163,51.0015084],[-0.1937169,50.9982819],[-0.2013541,50.9993089],[-0.2074979,50.9874305],[-0.2150999,50.9878542],[-0.2143666,50.9967795],[-0.2191478,50.9987246],[-0.2250814,50.9975844],[-0.228303,50.9900538],[-0.236276,50.9928372],[-0.2420238,50.9907305],[-0.2418475,50.9867592],[-0.2309916,50.9891825],[-0.2295741,50.9869102],[-0.241103,50.9718095],[-0.238774,50.9500541],[-0.2248395,50.9484698],[-0.224483,50.9429507],[-0.2319704,50.9358202],[-0.2292604,50.9188045],[-0.2238108,50.9117897],[-0.2441818,50.9073691],[-0.2438179,50.8848949],[-0.2486869,50.8730772],[-0.2392656,50.867892],[-0.2267465,50.8781869],[-0.2141744,50.8751857],[-0.2139095,50.8704708],[-0.2054293,50.8700936],[-0.2026648,50.8758632],[-0.1990155,50.8701269],[-0.1877625,50.8685766],[-0.1897753,50.8744222],[-0.1825106,50.8798464],[-0.1824506,50.8883307],[-0.177841,50.8904787],[-0.1693616,50.8899403],[-0.1658926,50.8923382],[-0.1681537,50.8807543],[-0.1530009,50.8798684],[-0.1525536,50.88545],[-0.1446393,50.8869858],[-0.1371685,50.8845851],[-0.1350374,50.8866403],[-0.1333976,50.8939859],[-0.1393947,50.8941437],[-0.136923,50.9014986],[-0.1546673,50.9082782],[-0.1539679,50.9127881],[-0.1620562,50.9134607],[-0.1616747,50.9234535],[-0.1791435,50.9342457],[-0.1773797,50.9363116],[-0.1662572,50.9357524],[-0.1647463,50.9406049],[-0.1574043,50.9388065],[-0.153746,50.950035],[-0.1593225,50.9600208],[-0.1564076,50.9648401],[-0.1564291,50.9734003],[-0.1618682,50.9733969],[-0.159897,50.9808016],[-0.1703051,50.9823599],[-0.1779358,50.9740625],[-0.1812233,50.9755275],[-0.1795783,50.983468],[-0.1880565,50.9819973],[-0.1898912,50.9899972],[-0.1836389,50.990947],[-0.1809769,50.9989663]]],"type":"Polygon"},"id":"E02006619","properties":{"code":"E02006619","geography":"MSOA","name":"Mid Sussex 016"},"type":"Feature"},{"geometry":{"coordinates":[[[-0.1200027,50.9417037],[-0.1417049,50.9414144],[-0.1410603,50.9469791],[-0.153746,50.950035],[-0.1574043,50.9388065],[-0.1647463,50.9406049],[-0.1662572,50.9357524],[-0.1773797,50.9363116],[-0.1791435,50.9342457],[-0.1616747,50.9234535],[-0.1620562,50.9134607],[-0.1539679,50.9127881],[-0.1546673,50.9082782],[-0.136923,50.9014986],[-0.1393947,50.8941437],[-0.1333976,50.8939859],[-0.1284137,50.91894],[-0.1169024,50.9410851],[-0.1200027,50.9417037]]],"type":"Polygon"},"id":"E02006620","properties":{"code":"E02006620","geography":"MSOA","name":"Mid Sussex 017"},"type":"Feature"}],"type":"FeatureCollection"}
