{"features":[{"geometry":{"coordinates":[[[1.4878595,52.3477792],[1.4812056,52.3464623],[1.4681027,52.3536477],[1.4467344,52.3593691],[1.4501966,52.3612158],[1.4367715,52.3662274],[1.422182,52.3688227],[1.409479,52.3632442],[1.3976967,52.3554656],[1.3694752,52.3463138],[1.3573751,52.3372578],[1.3621309,52.3343457],[1.3574454,52.3221367],[1.3709871,52.313711],[1.3839912,52.3106468],[1.380694,52.3035263],[1.3841092,52.2940857],[1.4016144,52.2856795],[1.4116865,52.2840481],[1.414739,52.2794647],[1.410832,52.2758751],[1.4222298,52.2675092],[1.4199322,52.2638747],[1.4243523,52.2601973],[1.4319684,52.2560538],[1.443353,52.2560228],[1.4414813,52.2540556],[1.4572075,52.2475542],[1.4644316,52.2521899],[1.4943714,52.2501521],[1.5003053,52.254803],[1.5124821,52.250295],[1.5126942,52.2440301],[1.5318039,52.2358156],[1.5577144,52.2395752],[1.5617843,52.2444362],[1.580935,52.2479822],[1.59101,52.2401664],[1.6139924,52.2422424],[1.6208792,52.2397652],[1.6292598,52.2458723],[1.6293598,52.2475352],[1.630357,52.268439],[1.635539,52.28058],[1.635687,52.2813971],[1.6363138,52.2823945],[1.6372592,52.2846085],[1.6387461,52.2864313],[1.6396524,52.2877066],[1.6443468,52.2951731],[1.6456919,52.296202],[1.6463907,52.2971846],[1.651342,52.3005227],[1.6607979,52.3077513],[1.664452,52.3097109],[1.6671603,52.3116433],[1.6674534,52.311759],[1.6587243,52.3239564],[1.631157,52.3317606],[1.6298805,52.3352867],[1.6256408,52.3341488],[1.621327,52.3356755],[1.621211,52.3332693],[1.6109459,52.3314903],[1.5908072,52.3356501],[1.5900573,52.3387542],[1.5784201,52.3386849],[1.5686681,52.3379619],[1.5606424,52.3298336],[1.5442666,52.3381853],[1.5352105,52.3365808],[1.5251054,52.3386293],[1.5028082,52.3333234],[1.4984684,52.3286266],[1.4894541,52.3282726],[1.4836353,52.3358697],[1.490016,52.3394912],[1.4878595,52.3477792]]],"type":"Polygon"},"id":"E02006287","properties":{"code":"E02006287","geography":"MSOA","name":"East Suffolk 016"},"type":"Feature"},{"geometry":{"coordinates":[[[1.4016144,52.2856795],[1.3814702,52.2797966],[1.3762795,52.275436],[1.3554495,52.2787556],[1.3556258,52.2740584],[1.3443999,52.2820702],[1.3472644,52.2933859],[1.3275594,52.2984599],[1.3303712,52.2909471],[1.3412367,52.2844295],[1.3368304,52.2766492],[1.339736,52.2659076],[1.3264222,52.264623],[1.3166926,52.2586025],[1.300987,52.2589978],[1.2924885,52.2549036],[1.2934852,52.2475909],[1.2866994,52.2405262],[1.2475366,52.2289747],[1.243515,52.2176779],[1.2483171,52.2158105],[1.2415913,52.2121264],[1.2430222,52.2003621],[1.2567001,52.1983477],[1.2569265,52.194903],[1.2371043,52.1696444],[1.2362746,52.1671362],[1.2413399,52.1689838],[1.2542203,52.1651959],[1.2558794,52.1602781],[1.2632869,52.1602459],[1.2647692,52.154426],[1.2756491,52.1499475],[1.2869285,52.1531372],[1.2898664,52.1501249],[1.3057471,52.1570332],[1.3310657,52.1601042],[1.3371175,52.1591621],[1.3533087,52.1669701],[1.3574172,52.1641539],[1.3553165,52.1592038],[1.368784,52.1629314],[1.3721529,52.1609341],[1.3696497,52.1561758],[1.3746095,52.1534074],[1.3966294,52.1612933],[1.3984598,52.1671126],[1.4200047,52.1640774],[1.4283342,52.1685018],[1.4336525,52.1675049],[1.4386708,52.1710976],[1.452188,52.1731357],[1.4484261,52.1817498],[1.4337155,52.1832209],[1.4172869,52.19354],[1.4192413,52.1973338],[1.4236663,52.1967636],[1.4301718,52.2016195],[1.4409823,52.2006408],[1.4479134,52.2062905],[1.4432623,52.2149312],[1.4460804,52.21727],[1.4540126,52.2164173],[1.4559622,52.2216615],[1.4600233,52.2214604],[1.4643444,52.2307984],[1.4600251,52.2326808],[1.4572075,52.2475542],[1.4414813,52.2540556],[1.443353,52.2560228],[1.4319684,52.2560538],[1.4243523,52.2601973],[1.4199322,52.2638747],[1.4222298,52.2675092],[1.410832,52.2758751],[1.414739,52.2794647],[1.4116865,52.2840481],[1.4016144,52.2856795]]],"type":"Polygon"},"id":"E02006288","properties":{"code":"E02006288","geography":"MSOA","name":"East Suffolk 017"},"type":"Feature"},{"geometry":{"coordinates":[[[[1.5167682,52.1511161],[1.5139892,52.1510808],[1.5138627,52.1510792],[1.5163145,52.1505415],[1.5167682,52.1511161]]],[[[1.5124821,52.250295],[1.5003053,52.254803],[1.4943714,52.2501521],[1.4644316,52.2521899],[1.4572075,52.2475542],[1.4600251,52.2326808],[1.4643444,52.2307984],[1.4600233,52.2214604],[1.4559622,52.2216615],[1.4540126,52.2164173],[1.4460804,52.21727],[1.4432623,52.2149312],[1.4479134,52.2062905],[1.4409823,52.2006408],[1.4301718,52.2016195],[1.4236663,52.1967636],[1.4192413,52.1973338],[1.4172869,52.19354],[1.4337155,52.1832209],[1.4484261,52.1817498],[1.452188,52.1731357],[1.4633965,52.1676024],[1.4736476,52.1707575],[1.483188,52.1644884],[1.4992634,52.163823],[1.4992026,52.1638551],[1.4996191,52.1638083],[1.5043773,52.1636109],[1.4947171,52.1652043],[1.5078473,52.1642869],[1.5091183,52.164198],[1.5100204,52.1602427],[1.5118678,52.1580856],[1.5112142,52.1551304],[1.5112242,52.1550877],[1.5235474,52.1618309],[1.5277601,52.1611166],[1.5289499,52.1650602],[1.5310373,52.1630503],[1.551694,52.1665571],[1.5573907,52.1625913],[1.5534524,52.1610749],[1.5555475,52.1586821],[1.5621053,52.1591271],[1.5731606,52.1753265],[1.5665401,52.1830869],[1.5715122,52.1908943],[1.5657117,52.1922947],[1.5671172,52.1970817],[1.5713272,52.1998547],[1.5834938,52.1982647],[1.5790973,52.2034234],[1.5729864,52.2021065],[1.5739316,52.2052366],[1.5663662,52.2052203],[1.5636954,52.2009276],[1.5518994,52.2043925],[1.549618,52.2117281],[1.5720924,52.2249963],[1.5821537,52.2250402],[1.5849583,52.2298849],[1.5890312,52.2289851],[1.5915558,52.237603],[1.5947152,52.2375968],[1.59101,52.2401664],[1.580935,52.2479822],[1.5617843,52.2444362],[1.5577144,52.2395752],[1.5318039,52.2358156],[1.5126942,52.2440301],[1.5124821,52.250295]]]],"type":"MultiPolygon"},"id":"E02006289","properties":{"code":"E02006289","geography":"MSOA","name":"East Suffolk 018"},"type":"Feature"},{"geometry":{"coordinates":[[[[1.5954653,52.1416658],[1.5947335,52.1415527],[1.59328,52.1381747],[1.5954653,52.1416658]]],[[[1.6292146,52.2454321],[1.6292598,52.2458723],[1.6208792,52.2397652],[1.6139924,52.2422424],[1.59101,52.2401664],[1.5947152,52.2375968],[1.5915558,52.237603],[1.5890312,52.2289851],[1.5849583,52.2298849],[1.5821537,52.2250402],[1.5720924,52.2249963],[1.549618,52.2117281],[1.5518994,52.2043925],[1.5636954,52.2009276],[1.5663662,52.2052203],[1.5739316,52.2052366],[1.5729864,52.2021065],[1.5790973,52.2034234],[1.5834938,52.1982647],[1.5713272,52.1998547],[1.5671172,52.1970817],[1.5657117,52.1922947],[1.5715122,52.1908943],[1.5665401,52.1830869],[1.5731606,52.1753265],[1.5621053,52.1591271],[1.5716154,52.1597719],[1.5798887,52.1548364],[1.5712359,52.148137],[1.575104,52.1443165],[1.5832497,52.1422161],[1.5931576,52.1455393],[1.5991162,52.1435926],[1.5957249,52.1354039],[1.5972929,52.135274],[1.608179,52.1649426],[1.6091661,52.1664343],[1.6102959,52.1694479],[1.6193874,52.1826633],[1.6222857,52.1868744],[1.6230485,52.2040332],[1.6292146,52.2454321]]]],"type":"MultiPolygon"},"id":"E02006290","properties":{"code":"E02006290","geography":"MSOA","name":"East Suffolk 019"},"type":"Feature"},{"geometry":{"coordinates":[[[1.3746095,52.1534074],[1.3696497,52.1561758],[1.3721529,52.1609341],[1.368784,52.1629314],[1.3553165,52.1592038],[1.3574172,52.1641539],[1.3533087,52.1669701],[1.3371175,52.1591621],[1.3310657,52.1601042],[1.3307056,52.1532059],[1.3372793,52.1489587],[1.335677,52.1407936],[1.3271988,52.1399755],[1.3240473,52.1347067],[1.3286061,52.1339663],[1.3307434,52.127883],[1.3203418,52.1289973],[1.3202784,52.1254083],[1.326518,52.1231026],[1.3206051,52.1201757],[1.3202917,52.1141205],[1.3057253,52.1115421],[1.3100544,52.1089248],[1.3066182,52.1043277],[1.3120621,52.1057131],[1.311889,52.0996966],[1.3259947,52.09576],[1.3260227,52.09578],[1.3322903,52.100251],[1.3329912,52.101378],[1.3340473,52.1015051],[1.3372067,52.1037506],[1.3474979,52.103525],[1.3463672,52.1030168],[1.3482864,52.1032523],[1.3538594,52.1162717],[1.3587483,52.1145358],[1.3665554,52.121279],[1.3726413,52.1206555],[1.3774115,52.1275621],[1.3896382,52.1274823],[1.3918855,52.1372569],[1.3794165,52.1415893],[1.3843135,52.1498957],[1.3746095,52.1534074]]],"type":"Polygon"},"id":"E02006291","properties":{"code":"E02006291","geography":"MSOA","name":"East Suffolk 020"},"type":"Feature"},{"geometry":{"coordinates":[[[1.2371043,52.1696444],[1.2287503,52.1704176],[1.2139352,52.1665226],[1.2153949,52.1615558],[1.1966381,52.1549874],[1.1913721,52.1399687],[1.1766719,52.1369141],[1.1753224,52.1324508],[1.1694386,52.1312337],[1.170173,52.1276077],[1.177921,52.1278704],[1.1776688,52.1204781],[1.1705409,52.1136159],[1.1654821,52.1132988],[1.1672001,52.0997895],[1.157808,52.0887373],[1.1655599,52.0809997],[1.1709561,52.0808046],[1.189863,52.080435],[1.18821,52.0787077],[1.1938941,52.0777944],[1.2039717,52.08275],[1.2156076,52.0822533],[1.2206548,52.0645953],[1.2371154,52.0667374],[1.2386896,52.070338],[1.2494548,52.0698686],[1.2641328,52.0725882],[1.2731382,52.0790439],[1.2712154,52.083862],[1.2816133,52.081423],[1.2853746,52.0839083],[1.2849527,52.0955128],[1.2919446,52.0951001],[1.2952184,52.1005075],[1.3066182,52.1043277],[1.3100544,52.1089248],[1.3057253,52.1115421],[1.3202917,52.1141205],[1.3206051,52.1201757],[1.326518,52.1231026],[1.3202784,52.1254083],[1.3203418,52.1289973],[1.3307434,52.127883],[1.3286061,52.1339663],[1.3240473,52.1347067],[1.3271988,52.1399755],[1.335677,52.1407936],[1.3372793,52.1489587],[1.3307056,52.1532059],[1.3310657,52.1601042],[1.3057471,52.1570332],[1.2898664,52.1501249],[1.2869285,52.1531372],[1.2756491,52.1499475],[1.2647692,52.154426],[1.2632869,52.1602459],[1.2558794,52.1602781],[1.2542203,52.1651959],[1.2413399,52.1689838],[1.2362746,52.1671362],[1.2371043,52.1696444]]],"type":"Polygon"},"id":"E02006292","properties":{"code":"E02006292","geography":"MSOA","name":"East Suffolk 021"},"type":"Feature"},{"geometry":{"coordinates":[[[[1.3347582,52.0509937],[1.3347064,52.0513938],[1.3345808,52.0509389],[1.3347792,52.0508312],[1.3347582,52.0509937]]],[[[1.5362493,52.0761218],[1.5382447,52.078979],[1.5320745,52.0793387],[1.5251862,52.0802188],[1.5137871,52.0690724],[1.5029391,52.0694721],[1.5000954,52.0655316],[1.5000812,52.0655033],[1.5145998,52.0676399],[1.5362493,52.0761218]]],[[[1.3340473,52.1015051],[1.3329912,52.101378],[1.3322903,52.100251],[1.3340473,52.1015051]]],[[[1.596089,52.1315254],[1.5961234,52.1316275],[1.5972929,52.135274],[1.5957249,52.1354039],[1.586843,52.1197456],[1.5687157,52.1097912],[1.5687703,52.0980999],[1.5548059,52.0898342],[1.5394749,52.0880249],[1.5420907,52.0791727],[1.5618162,52.0861495],[1.5677007,52.0913997],[1.5809513,52.0915217],[1.5677165,52.0910691],[1.5625004,52.085867],[1.5375248,52.074845],[1.5174206,52.067004],[1.4998496,52.0623869],[1.4904728,52.0599215],[1.4879976,52.0592706],[1.4681112,52.0487236],[1.46796,52.0484986],[1.4752445,52.0509802],[1.4862517,52.0562101],[1.4997031,52.0605123],[1.5584134,52.0792617],[1.5790017,52.0862479],[1.579289,52.086633],[1.596089,52.1315254]]],[[[1.5118678,52.1580856],[1.5100204,52.1602427],[1.5112142,52.1551304],[1.5118678,52.1580856]]],[[[1.5076322,52.1615545],[1.507117,52.1628167],[1.5049474,52.1635168],[1.5043773,52.1636109],[1.4996191,52.1638083],[1.5003365,52.1637275],[1.5052743,52.1631716],[1.5075128,52.1600373],[1.5092368,52.157623],[1.5076322,52.1615545]]],[[[1.452188,52.1731357],[1.4386708,52.1710976],[1.4336525,52.1675049],[1.4283342,52.1685018],[1.4200047,52.1640774],[1.3984598,52.1671126],[1.3966294,52.1612933],[1.3746095,52.1534074],[1.3843135,52.1498957],[1.3794165,52.1415893],[1.3918855,52.1372569],[1.3896382,52.1274823],[1.3774115,52.1275621],[1.3726413,52.1206555],[1.3665554,52.121279],[1.3587483,52.1145358],[1.3538594,52.1162717],[1.3482864,52.1032523],[1.3463672,52.1030168],[1.3441781,52.1020328],[1.3433454,52.1016985],[1.3316207,52.098415],[1.3319391,52.0940879],[1.3272125,52.0901507],[1.325245,52.0893553],[1.3251517,52.0891983],[1.3246315,52.0891072],[1.3245049,52.0890561],[1.3193441,52.0869693],[1.3189937,52.0806202],[1.329359,52.068787],[1.3436733,52.0641208],[1.3410086,52.0531208],[1.3516145,52.0455951],[1.3526317,52.0381611],[1.34468,52.0312287],[1.3629888,52.0224609],[1.3661965,52.0102795],[1.3669665,52.0073544],[1.3954903,51.9990415],[1.3885056,51.9993831],[1.3919932,51.9962596],[1.3955583,51.9985151],[1.3940918,51.9872468],[1.4083087,51.9922971],[1.4131681,51.9943405],[1.420965,51.9990467],[1.4330592,52.0073014],[1.4336606,52.0083304],[1.4436956,52.0254914],[1.4600468,52.0425124],[1.4613583,52.0447426],[1.4594873,52.0446197],[1.4616542,52.0462084],[1.4784468,52.0585152],[1.4953507,52.064371],[1.50043,52.0698097],[1.501149,52.0705795],[1.5012906,52.070731],[1.5005137,52.0708779],[1.4992961,52.0711081],[1.4898528,52.0728929],[1.48957,52.0795915],[1.4960939,52.0864264],[1.4957788,52.0856813],[1.490658,52.0735717],[1.4906001,52.0734347],[1.4923129,52.0730998],[1.5005614,52.0714867],[1.5104848,52.0695451],[1.5249564,52.0819887],[1.5378712,52.0810113],[1.5374511,52.0903308],[1.5526267,52.0920488],[1.5654895,52.1001422],[1.5662403,52.1118487],[1.5817038,52.1196708],[1.59328,52.1381747],[1.5947335,52.1415527],[1.5829239,52.1397264],[1.573384,52.1427209],[1.5681926,52.1485135],[1.5685018,52.1538371],[1.5692591,52.1516437],[1.5729057,52.1527718],[1.5675235,52.1560848],[1.5532359,52.1501969],[1.5398415,52.1573686],[1.5250286,52.1571849],[1.5233768,52.1511998],[1.5172834,52.1511226],[1.5167682,52.1511161],[1.5163145,52.1505415],[1.5138627,52.1510792],[1.510754,52.1510396],[1.5081968,52.1571548],[1.5088962,52.1522373],[1.5069431,52.1528008],[1.5038561,52.1536915],[1.5034229,52.1609432],[1.4992054,52.1594396],[1.5023777,52.1621778],[1.4993646,52.1637696],[1.4992634,52.163823],[1.483188,52.1644884],[1.4736476,52.1707575],[1.4633965,52.1676024],[1.452188,52.1731357]]]],"type":"MultiPolygon"},"id":"E02006293","properties":{"code":"E02006293","geography":"MSOA","name":"East Suffolk 023"},"type":"Feature"},{"geometry":{"coordinates":[[[[1.2954272,52.0772852],[1.295506,52.0770081],[1.2983554,52.0770861],[1.2954272,52.0772852]]],[[[1.3251517,52.0891983],[1.325245,52.0893553],[1.3246315,52.0891072],[1.3251517,52.0891983]]],[[[1.2954272,52.0772852],[1.3075339,52.0794334],[1.3040866,52.0781001],[1.3137267,52.0776664],[1.314003,52.0788374],[1.3147418,52.0808778],[1.3173165,52.0890213],[1.3247605,52.0900369],[1.3250585,52.0904013],[1.3257248,52.0955677],[1.3259947,52.09576],[1.311889,52.0996966],[1.3120621,52.1057131],[1.3066182,52.1043277],[1.2952184,52.1005075],[1.2919446,52.0951001],[1.2849527,52.0955128],[1.2853746,52.0839083],[1.2937058,52.0850544],[1.2954272,52.0772852]]]],"type":"MultiPolygon"},"id":"E02006294","properties":{"code":"E02006294","geography":"MSOA","name":"East Suffolk 022"},"type":"Feature"},{"geometry":{"coordinates":[[[1.2494548,52.0698686],[1.2386896,52.070338],[1.2371154,52.0667374],[1.2206548,52.0645953],[1.2156076,52.0822533],[1.2039717,52.08275],[1.1938941,52.0777944],[1.18821,52.0787077],[1.2001841,52.0685207],[1.205479,52.0647572],[1.2091814,52.0684135],[1.213287,52.0638403],[1.2157042,52.0666569],[1.2156287,52.0585179],[1.2223945,52.0554084],[1.2246634,52.0493574],[1.242905,52.0508094],[1.2504945,52.0576553],[1.2406025,52.0570869],[1.2498355,52.0606077],[1.2494548,52.0698686]]],"type":"Polygon"},"id":"E02006295","properties":{"code":"E02006295","geography":"MSOA","name":"East Suffolk 024"},"type":"Feature"},{"geometry":{"coordinates":[[[1.2954272,52.0772852],[1.2937058,52.0850544],[1.2853746,52.0839083],[1.2816133,52.081423],[1.2712154,52.083862],[1.2731382,52.0790439],[1.2641328,52.0725882],[1.2494548,52.0698686],[1.2498355,52.0606077],[1.2406025,52.0570869],[1.2504945,52.0576553],[1.242905,52.0508094],[1.2537576,52.0508336],[1.2585255,52.0549669],[1.3014407,52.0536602],[1.3003346,52.0449627],[1.2940846,52.0447931],[1.289136,52.0390484],[1.2802426,52.036716],[1.2649591,52.0375458],[1.2583558,52.0341211],[1.2545254,52.0260235],[1.2643181,52.0174238],[1.2716685,52.0201031],[1.2775742,52.0142905],[1.2870325,52.0157563],[1.3069218,52.0181414],[1.3152547,52.0286505],[1.3342791,52.0240881],[1.3432104,52.0273137],[1.3390067,52.0331148],[1.3431178,52.0370816],[1.3477766,52.0396053],[1.3473594,52.0422578],[1.3350503,52.048736],[1.3347792,52.0508312],[1.3345808,52.0509389],[1.3347064,52.0513938],[1.3346137,52.0521104],[1.3337736,52.058602],[1.3252442,52.0637334],[1.325064,52.0636449],[1.3242889,52.0632306],[1.3239005,52.0639546],[1.3173941,52.07608],[1.2984729,52.0770861],[1.2983554,52.0770861],[1.295506,52.0770081],[1.2954272,52.0772852]]],"type":"Polygon"},"id":"E02006296","properties":{"code":"E02006296","geography":"MSOA","name":"East Suffolk 025"},"type":"Feature"},{"geometry":{"coordinates":[[[1.242905,52.0508094],[1.2246634,52.0493574],[1.2223945,52.0554084],[1.2156287,52.0585179],[1.2157042,52.0666569],[1.213287,52.0638403],[1.2091814,52.0684135],[1.205479,52.0647572],[1.2038275,52.0494641],[1.2091824,52.0484629],[1.2019134,52.0373914],[1.22358,52.0294205],[1.2193388,52.0228693],[1.2150023,52.0256068],[1.2094469,52.0207551],[1.2016487,52.0243167],[1.1865803,52.0219796],[1.1847923,52.0242906],[1.1776522,52.0224257],[1.1783818,52.0217013],[1.1787205,52.0215354],[1.1879231,52.0152439],[1.1883013,52.0149851],[1.1919115,52.0151359],[1.1975895,52.0153727],[1.1989911,52.0149434],[1.2044821,52.0132618],[1.210294,52.0114814],[1.2154199,52.0065008],[1.2293233,52.0064601],[1.2379329,52.0030415],[1.2568594,51.9965344],[1.2583392,52.002963],[1.2641262,51.9957997],[1.2797727,51.9931875],[1.2825109,51.9950734],[1.2822251,52.0060606],[1.2880709,52.0036737],[1.2918472,52.0056714],[1.2870325,52.0157563],[1.2775742,52.0142905],[1.2716685,52.0201031],[1.2643181,52.0174238],[1.2545254,52.0260235],[1.2583558,52.0341211],[1.2649591,52.0375458],[1.2802426,52.036716],[1.289136,52.0390484],[1.2940846,52.0447931],[1.3003346,52.0449627],[1.3014407,52.0536602],[1.2585255,52.0549669],[1.2537576,52.0508336],[1.242905,52.0508094]]],"type":"Polygon"},"id":"E02006297","properties":{"code":"E02006297","geography":"MSOA","name":"East Suffolk 026"},"type":"Feature"},{"geometry":{"coordinates":[[[1.3432104,52.0273137],[1.3342791,52.0240881],[1.3152547,52.0286505],[1.3069218,52.0181414],[1.2870325,52.0157563],[1.2918472,52.0056714],[1.2880709,52.0036737],[1.2822251,52.0060606],[1.2825109,51.9950734],[1.2797727,51.9931875],[1.2802857,51.9931018],[1.2825397,51.9660481],[1.2960043,51.9601183],[1.2976826,51.9593634],[1.315409,51.9515115],[1.3153825,51.9514553],[1.3155609,51.9513756],[1.3158663,51.9511802],[1.3142736,51.9483453],[1.3143534,51.9482426],[1.3233431,51.9493641],[1.3279527,51.9591717],[1.3295488,51.9546307],[1.3333364,51.9561864],[1.3298607,51.9636265],[1.324293,51.9631959],[1.3228647,51.9665061],[1.3318797,51.9786103],[1.3359951,51.9771275],[1.3374817,51.9855969],[1.3687245,51.9926293],[1.3799585,51.9969964],[1.380096,51.9975148],[1.3803472,51.998462],[1.3639736,52.00447],[1.3575767,52.0105262],[1.3542347,52.0136893],[1.3557447,52.0161017],[1.3588417,52.0158413],[1.3560845,52.012524],[1.3593303,52.0146962],[1.359337,52.0180669],[1.3563458,52.0221405],[1.3444031,52.026447],[1.3373556,52.0243436],[1.3432916,52.0272018],[1.3432104,52.0273137]]],"type":"Polygon"},"id":"E02006298","properties":{"code":"E02006298","geography":"MSOA","name":"East Suffolk 027"},"type":"Feature"},{"geometry":{"coordinates":[[[1.3645011,51.9636492],[1.3767774,51.9716077],[1.3893599,51.981375],[1.3914362,51.9893103],[1.3837823,51.9895289],[1.3879641,51.9902108],[1.382844,51.9966165],[1.3796877,51.9959751],[1.3799585,51.9969964],[1.3687245,51.9926293],[1.3726253,51.9908466],[1.362254,51.9868529],[1.3641222,51.9844841],[1.3578716,51.9828368],[1.3502137,51.9714578],[1.3385588,51.9696929],[1.3431156,51.9666987],[1.3356101,51.9676502],[1.3399148,51.9603679],[1.3440906,51.9586358],[1.3477949,51.9656536],[1.3552091,51.9674435],[1.3645011,51.9636492]]],"type":"Polygon"},"id":"E02006299","properties":{"code":"E02006299","geography":"MSOA","name":"East Suffolk 028"},"type":"Feature"},{"geometry":{"coordinates":[[[1.3399148,51.9603679],[1.3356101,51.9676502],[1.3431156,51.9666987],[1.3385588,51.9696929],[1.3502137,51.9714578],[1.3578716,51.9828368],[1.3641222,51.9844841],[1.362254,51.9868529],[1.3726253,51.9908466],[1.3687245,51.9926293],[1.3374817,51.9855969],[1.3359951,51.9771275],[1.3318797,51.9786103],[1.3228647,51.9665061],[1.324293,51.9631959],[1.3298607,51.9636265],[1.3333364,51.9561864],[1.3295488,51.9546307],[1.3279527,51.9591717],[1.3233431,51.9493641],[1.3310465,51.9500816],[1.3399148,51.9603679]]],"type":"Polygon"},"id":"E02006300","properties":{"code":"E02006300","geography":"MSOA","name":"East Suffolk 029"},"type":"Feature"},{"geometry":{"coordinates":[[[1.3645011,51.9636492],[1.3552091,51.9674435],[1.3477949,51.9656536],[1.3440906,51.9586358],[1.3399148,51.9603679],[1.3310465,51.9500816],[1.3233431,51.9493641],[1.3143534,51.9482426],[1.315836,51.946335],[1.3174076,51.9448851],[1.3186794,51.9454974],[1.3187267,51.943668],[1.3192981,51.9431407],[1.3194189,51.9417242],[1.3198016,51.9412317],[1.3201836,51.9334806],[1.3448916,51.9569091],[1.3627738,51.9625291],[1.3645011,51.9636492]]],"type":"Polygon"},"id":"E02006301","properties":{"code":"E02006301","geography":"MSOA","name":"East Suffolk 030"},"type":"Feature"},{"geometry":{"coordinates":[[[1.7403468,52.5320748],[1.72598,52.5306163],[1.7055703,52.5399488],[1.7025522,52.5443993],[1.6904011,52.5449411],[1.6860898,52.5493546],[1.6656537,52.5496292],[1.6591304,52.5422255],[1.6367156,52.5374106],[1.638268,52.5337569],[1.6312394,52.5322792],[1.6365125,52.5279139],[1.6285579,52.5259925],[1.6308698,52.5207146],[1.6465784,52.5151139],[1.6451763,52.5085121],[1.6544099,52.5013116],[1.6732976,52.5032611],[1.6823499,52.4951989],[1.6819466,52.4899733],[1.6818145,52.4769158],[1.6891013,52.4738543],[1.6933601,52.4822008],[1.701133,52.4833175],[1.6996882,52.4896476],[1.7091059,52.4910695],[1.7201367,52.5044554],[1.7291003,52.5049512],[1.7302109,52.5093689],[1.7342213,52.4984861],[1.7502828,52.4902933],[1.7527613,52.4886195],[1.7603556,52.4901947],[1.7528788,52.5059257],[1.7417229,52.5293766],[1.7403468,52.5320748]]],"type":"Polygon"},"id":"E02006302","properties":{"code":"E02006302","geography":"MSOA","name":"East Suffolk 001"},"type":"Feature"},{"geometry":{"coordinates":[[[1.7502828,52.4902933],[1.7342213,52.4984861],[1.7302109,52.5093689],[1.7291003,52.5049512],[1.7220841,52.498241],[1.7267207,52.4934542],[1.7366439,52.4930376],[1.7330041,52.4905722],[1.7409642,52.4888086],[1.7395996,52.4859039],[1.7353475,52.4866166],[1.7346269,52.4797607],[1.7465145,52.4799986],[1.7444393,52.4836127],[1.7502828,52.4902933]]],"type":"Polygon"},"id":"E02006303","properties":{"code":"E02006303","geography":"MSOA","name":"East Suffolk 002"},"type":"Feature"},{"geometry":{"coordinates":[[[1.7353475,52.4866166],[1.7395996,52.4859039],[1.7409642,52.4888086],[1.7330041,52.4905722],[1.7366439,52.4930376],[1.7267207,52.4934542],[1.7220841,52.498241],[1.7291003,52.5049512],[1.7201367,52.5044554],[1.7091059,52.4910695],[1.6996882,52.4896476],[1.701133,52.4833175],[1.7172605,52.483589],[1.7154164,52.4808646],[1.7205373,52.4807911],[1.7224275,52.4835028],[1.7274634,52.4826748],[1.7276914,52.4881092],[1.7353475,52.4866166]]],"type":"Polygon"},"id":"E02006304","properties":{"code":"E02006304","geography":"MSOA","name":"East Suffolk 003"},"type":"Feature"},{"geometry":{"coordinates":[[[1.7527613,52.4886195],[1.7502828,52.4902933],[1.7444393,52.4836127],[1.7465145,52.4799986],[1.7346269,52.4797607],[1.7293132,52.4759773],[1.7386656,52.4740013],[1.7531959,52.4742263],[1.7554707,52.4789664],[1.751052,52.4827519],[1.7560484,52.4855683],[1.7527613,52.4886195]]],"type":"Polygon"},"id":"E02006305","properties":{"code":"E02006305","geography":"MSOA","name":"East Suffolk 004"},"type":"Feature"},{"geometry":{"coordinates":[[[1.7353475,52.4866166],[1.7276914,52.4881092],[1.7274634,52.4826748],[1.7224275,52.4835028],[1.7205373,52.4807911],[1.7154164,52.4808646],[1.7172605,52.483589],[1.7024026,52.4729135],[1.7038776,52.4686669],[1.7082337,52.4697403],[1.7118652,52.466153],[1.7163777,52.4681895],[1.717582,52.4647516],[1.7218537,52.4679848],[1.7217094,52.4661106],[1.7341003,52.4682561],[1.7382144,52.4700453],[1.7374078,52.4714816],[1.730094,52.4740477],[1.7294792,52.4743058],[1.7216326,52.4775994],[1.722522,52.4774116],[1.7293132,52.4759773],[1.7346269,52.4797607],[1.7353475,52.4866166]]],"type":"Polygon"},"id":"E02006306","properties":{"code":"E02006306","geography":"MSOA","name":"East Suffolk 005"},"type":"Feature"},{"geometry":{"coordinates":[[[1.717582,52.4647516],[1.7163777,52.4681895],[1.7118652,52.466153],[1.7082337,52.4697403],[1.7038776,52.4686669],[1.7024026,52.4729135],[1.7172605,52.483589],[1.701133,52.4833175],[1.6933601,52.4822008],[1.6891013,52.4738543],[1.6942964,52.4659712],[1.6996764,52.4657579],[1.7008713,52.4590248],[1.7103033,52.4543344],[1.7135701,52.4550492],[1.717582,52.4647516]]],"type":"Polygon"},"id":"E02006307","properties":{"code":"E02006307","geography":"MSOA","name":"East Suffolk 007"},"type":"Feature"},{"geometry":{"coordinates":[[[[1.7551829,52.4712704],[1.7561726,52.4715277],[1.7539236,52.4714439],[1.7390928,52.4708903],[1.7374078,52.4714816],[1.7382144,52.4700453],[1.7341003,52.4682561],[1.7385935,52.4643191],[1.7310284,52.4541178],[1.7382309,52.4530495],[1.7418191,52.4591636],[1.7497966,52.4698701],[1.7551829,52.4712704]]],[[[1.7635457,52.4816094],[1.7613977,52.4874281],[1.7604479,52.4900005],[1.7603556,52.4901947],[1.7527613,52.4886195],[1.7560484,52.4855683],[1.751052,52.4827519],[1.7554707,52.4789664],[1.7531959,52.4742263],[1.7386656,52.4740013],[1.7395646,52.4738113],[1.7542378,52.472746],[1.7576193,52.4769021],[1.7604952,52.4758364],[1.7557587,52.4726859],[1.7594438,52.473575],[1.7604366,52.4744287],[1.7635457,52.4816094]]]],"type":"MultiPolygon"},"id":"E02006308","properties":{"code":"E02006308","geography":"MSOA","name":"East Suffolk 006"},"type":"Feature"},{"geometry":{"coordinates":[[[1.7310284,52.4541178],[1.7385935,52.4643191],[1.7341003,52.4682561],[1.7217094,52.4661106],[1.7218537,52.4679848],[1.717582,52.4647516],[1.7135701,52.4550492],[1.7310284,52.4541178]]],"type":"Polygon"},"id":"E02006309","properties":{"code":"E02006309","geography":"MSOA","name":"East Suffolk 009"},"type":"Feature"},{"geometry":{"coordinates":[[[1.6891013,52.4738543],[1.6818145,52.4769158],[1.6819466,52.4899733],[1.6711146,52.4821553],[1.670823,52.4765022],[1.6636697,52.4749233],[1.6691103,52.4502385],[1.6731802,52.4496676],[1.6760794,52.4415758],[1.6831478,52.4425187],[1.6951765,52.4430698],[1.7070882,52.4483574],[1.7103033,52.4543344],[1.7008713,52.4590248],[1.6996764,52.4657579],[1.6942964,52.4659712],[1.6891013,52.4738543]]],"type":"Polygon"},"id":"E02006310","properties":{"code":"E02006310","geography":"MSOA","name":"East Suffolk 008"},"type":"Feature"},{"geometry":{"coordinates":[[[1.6005809,52.4722042],[1.5866923,52.4786521],[1.5692836,52.4750454],[1.5611076,52.4598829],[1.5576195,52.4576458],[1.5528474,52.4591244],[1.5547548,52.4361282],[1.5717274,52.4395516],[1.569454,52.4484721],[1.5757747,52.4461248],[1.5886794,52.4541807],[1.5892807,52.4671283],[1.6005809,52.4722042]]],"type":"Polygon"},"id":"E02006311","properties":{"code":"E02006311","geography":"MSOA","name":"East Suffolk 010"},"type":"Feature"},{"geometry":{"coordinates":[[[1.6831478,52.4425187],[1.6760794,52.4415758],[1.6731802,52.4496676],[1.6691103,52.4502385],[1.6636697,52.4749233],[1.6586615,52.4683263],[1.6462004,52.4719263],[1.6347467,52.4630315],[1.6273708,52.4623158],[1.6069377,52.4666544],[1.6005809,52.4722042],[1.5892807,52.4671283],[1.5886794,52.4541807],[1.5757747,52.4461248],[1.569454,52.4484721],[1.5717274,52.4395516],[1.5547548,52.4361282],[1.5528474,52.4591244],[1.5294349,52.4683661],[1.5240927,52.467356],[1.521563,52.4618335],[1.5161156,52.4639905],[1.5080615,52.461725],[1.4831931,52.4718159],[1.474751,52.4696106],[1.4587442,52.4581171],[1.467789,52.4422597],[1.4726171,52.4420661],[1.4748898,52.4376366],[1.4828047,52.4450688],[1.5063854,52.4408349],[1.5046181,52.4344046],[1.517963,52.4236203],[1.5119522,52.4139809],[1.5127026,52.4108525],[1.5201399,52.4099705],[1.5205229,52.3994009],[1.5328705,52.3942233],[1.5392952,52.3948168],[1.5360251,52.4003755],[1.540842,52.4025357],[1.5630788,52.3987565],[1.5666414,52.3915326],[1.5861144,52.3963713],[1.6129942,52.3902756],[1.6244029,52.4008312],[1.6322571,52.4033215],[1.6322773,52.4119732],[1.6395373,52.4185557],[1.6272966,52.4224945],[1.6257473,52.4283164],[1.6428824,52.4244394],[1.6839532,52.440641],[1.6831478,52.4425187]]],"type":"Polygon"},"id":"E02006312","properties":{"code":"E02006312","geography":"MSOA","name":"East Suffolk 011"},"type":"Feature"},{"geometry":{"coordinates":[[[1.7310284,52.4541178],[1.7135701,52.4550492],[1.7103033,52.4543344],[1.7070882,52.4483574],[1.6951765,52.4430698],[1.6831478,52.4425187],[1.6839532,52.440641],[1.6892018,52.4309207],[1.6878814,52.4241888],[1.6795084,52.4234482],[1.683535,52.4178921],[1.692031,52.4176316],[1.6934251,52.4109346],[1.7011558,52.4094299],[1.7058921,52.4042391],[1.7144439,52.4058874],[1.7201701,52.3994979],[1.7279221,52.4000843],[1.7314119,52.4318326],[1.7315584,52.4329034],[1.7307711,52.43733],[1.7330343,52.443692],[1.733189,52.4448225],[1.7336242,52.4453499],[1.7345469,52.4479431],[1.7356706,52.4486858],[1.7382309,52.4530495],[1.7310284,52.4541178]]],"type":"Polygon"},"id":"E02006313","properties":{"code":"E02006313","geography":"MSOA","name":"East Suffolk 012"},"type":"Feature"},{"geometry":{"coordinates":[[[1.4587442,52.4581171],[1.441072,52.4566887],[1.4263223,52.4705562],[1.4180769,52.4702267],[1.4109915,52.4615729],[1.4332406,52.4559367],[1.432565,52.4453191],[1.407886,52.4443867],[1.3931767,52.4389128],[1.3920438,52.4340228],[1.3636302,52.4274565],[1.3563437,52.4211574],[1.3611907,52.4131211],[1.3462815,52.4089764],[1.3470728,52.4043895],[1.3609358,52.4035014],[1.3642158,52.3984559],[1.3748283,52.3946559],[1.3757007,52.3896196],[1.409479,52.3632442],[1.422182,52.3688227],[1.4367715,52.3662274],[1.4501966,52.3612158],[1.4467344,52.3593691],[1.4681027,52.3536477],[1.4812056,52.3464623],[1.4878595,52.3477792],[1.5032644,52.3514202],[1.5042592,52.3568324],[1.4968223,52.3571793],[1.4932467,52.3536118],[1.4921589,52.3602014],[1.4858007,52.3615085],[1.4901073,52.3641432],[1.4837666,52.3865752],[1.4923548,52.3888765],[1.4908767,52.3928223],[1.4945879,52.3945184],[1.4998852,52.3906165],[1.5066595,52.3927664],[1.506041,52.3956495],[1.5205229,52.3994009],[1.5201399,52.4099705],[1.5127026,52.4108525],[1.5119522,52.4139809],[1.517963,52.4236203],[1.5046181,52.4344046],[1.5063854,52.4408349],[1.4828047,52.4450688],[1.4748898,52.4376366],[1.4726171,52.4420661],[1.467789,52.4422597],[1.4587442,52.4581171]]],"type":"Polygon"},"id":"E02006314","properties":{"code":"E02006314","geography":"MSOA","name":"East Suffolk 013"},"type":"Feature"},{"geometry":{"coordinates":[[[1.7279221,52.4000843],[1.7201701,52.3994979],[1.7144439,52.4058874],[1.7058921,52.4042391],[1.7011558,52.4094299],[1.6934251,52.4109346],[1.692031,52.4176316],[1.683535,52.4178921],[1.6795084,52.4234482],[1.6878814,52.4241888],[1.6892018,52.4309207],[1.6839532,52.440641],[1.6428824,52.4244394],[1.6257473,52.4283164],[1.6272966,52.4224945],[1.6395373,52.4185557],[1.6322773,52.4119732],[1.6322571,52.4033215],[1.6244029,52.4008312],[1.6129942,52.3902756],[1.5861144,52.3963713],[1.5666414,52.3915326],[1.5630788,52.3987565],[1.540842,52.4025357],[1.5360251,52.4003755],[1.5392952,52.3948168],[1.5328705,52.3942233],[1.5309629,52.3884753],[1.5604116,52.3779269],[1.5727059,52.3697063],[1.5712699,52.3674244],[1.586963,52.3606838],[1.6207888,52.3564644],[1.6248248,52.3648897],[1.6370552,52.3663198],[1.6410983,52.3584155],[1.6337105,52.3562823],[1.6256408,52.3341488],[1.6298805,52.3352867],[1.631157,52.3317606],[1.6587243,52.3239564],[1.6674534,52.311759],[1.6705608,52.3129861],[1.6728725,52.3138978],[1.6754976,52.3133951],[1.6859884,52.3341429],[1.6920331,52.3493725],[1.7279221,52.4000843]]],"type":"Polygon"},"id":"E02006315","properties":{"code":"E02006315","geography":"MSOA","name":"East Suffolk 014"},"type":"Feature"},{"geometry":{"coordinates":[[[1.5328705,52.3942233],[1.5205229,52.3994009],[1.506041,52.3956495],[1.5066595,52.3927664],[1.4998852,52.3906165],[1.4945879,52.3945184],[1.4908767,52.3928223],[1.4923548,52.3888765],[1.4837666,52.3865752],[1.4901073,52.3641432],[1.4858007,52.3615085],[1.4921589,52.3602014],[1.4932467,52.3536118],[1.4968223,52.3571793],[1.5042592,52.3568324],[1.5032644,52.3514202],[1.4878595,52.3477792],[1.490016,52.3394912],[1.4836353,52.3358697],[1.4894541,52.3282726],[1.4984684,52.3286266],[1.5028082,52.3333234],[1.5251054,52.3386293],[1.5352105,52.3365808],[1.5442666,52.3381853],[1.5606424,52.3298336],[1.5686681,52.3379619],[1.5784201,52.3386849],[1.5900573,52.3387542],[1.5908072,52.3356501],[1.6109459,52.3314903],[1.621211,52.3332693],[1.621327,52.3356755],[1.6256408,52.3341488],[1.6337105,52.3562823],[1.6410983,52.3584155],[1.6370552,52.3663198],[1.6248248,52.3648897],[1.6207888,52.3564644],[1.586963,52.3606838],[1.5712699,52.3674244],[1.5727059,52.3697063],[1.5604116,52.3779269],[1.5309629,52.3884753],[1.5328705,52.3942233]]],"type":"Polygon"},"id":"E02006316","properties":{"code":"E02006316","geography":"MSOA","name":"East Suffolk 015"},"type":"Feature"}],"type":"FeatureCollection"}
