{"features":[{"geometry":{"coordinates":[[[-4.1947513,51.0411791],[-4.1905226,51.0548262],[-4.1976068,51.0579435],[-4.2103329,51.0519403],[-4.2144553,51.0572674],[-4.2083872,51.0616685],[-4.216904,51.0650579],[-4.2251838,51.0630361],[-4.2309773,51.0533969],[-4.2310848,51.0531805],[-4.2351155,51.0450606],[-4.2299473,51.0427713],[-4.2282641,51.0357351],[-4.2175549,51.0406453],[-4.2105104,51.0376058],[-4.2098005,51.0425942],[-4.1947513,51.0411791]]],"type":"Polygon"},"id":"E02004220","properties":{"code":"E02004220","geography":"MSOA","name":"Torridge 001"},"type":"Feature"},{"geometry":{"coordinates":[[[-4.1947513,51.0411791],[-4.2098005,51.0425942],[-4.2105104,51.0376058],[-4.2175549,51.0406453],[-4.2282641,51.0357351],[-4.2299473,51.0427713],[-4.2351155,51.0450606],[-4.2353997,51.0444879],[-4.2387974,51.0411599],[-4.2542164,51.0387818],[-4.2484049,51.0376976],[-4.2466707,51.0319796],[-4.233129,51.0315371],[-4.2369024,51.0238571],[-4.2291324,51.0227805],[-4.2079453,51.0246486],[-4.2030581,51.0268],[-4.2027875,51.0282223],[-4.2031087,51.028225],[-4.2033887,51.0316021],[-4.2002536,51.0349819],[-4.199649,51.0356336],[-4.1948675,51.0408042],[-4.1947513,51.0411791]]],"type":"Polygon"},"id":"E02004221","properties":{"code":"E02004221","geography":"MSOA","name":"Torridge 002"},"type":"Feature"},{"geometry":{"coordinates":[[[-4.2052549,51.0152479],[-4.2030581,51.0268],[-4.2079453,51.0246486],[-4.2291324,51.0227805],[-4.2303414,51.0176582],[-4.2104045,51.0173094],[-4.2123938,51.015846],[-4.2060492,51.013694],[-4.2052549,51.0152479]]],"type":"Polygon"},"id":"E02004222","properties":{"code":"E02004222","geography":"MSOA","name":"Torridge 003"},"type":"Feature"},{"geometry":{"coordinates":[[[[-4.1783195,51.0243038],[-4.185631,51.021041],[-4.1866596,51.0235339],[-4.1879224,51.0213092],[-4.1982222,51.0208546],[-4.2032196,51.0056966],[-4.2047056,51.0082493],[-4.2050329,51.0088115],[-4.2044559,51.0052409],[-4.1919723,50.9998807],[-4.1793208,50.9998408],[-4.1771698,50.9965182],[-4.1816323,50.9920547],[-4.1975504,50.9893178],[-4.1883753,50.9840906],[-4.1891498,50.9781621],[-4.1828996,50.9757885],[-4.1788713,50.9779944],[-4.1693669,50.9723573],[-4.1595433,50.9727371],[-4.1514327,50.9767127],[-4.1520887,50.9793798],[-4.1255242,50.9791182],[-4.1055788,50.9750143],[-4.0955467,50.9789163],[-4.0963309,50.9836778],[-4.0861404,50.9862427],[-4.0778783,51.0026789],[-4.0935405,51.0037751],[-4.0982232,51.0095976],[-4.1206705,51.0107773],[-4.1160646,51.0193013],[-4.1351866,51.020683],[-4.139709,51.0175134],[-4.1484764,51.0187787],[-4.1603225,51.0144203],[-4.1668714,51.0148902],[-4.1783195,51.0243038]]],[[[-4.2123938,51.015846],[-4.2104045,51.0173094],[-4.2303414,51.0176582],[-4.2291324,51.0227805],[-4.2369024,51.0238571],[-4.2425497,51.009071],[-4.2469782,51.0089849],[-4.2481707,51.0055566],[-4.2251486,50.9988414],[-4.2198904,51.0104561],[-4.2113996,51.012354],[-4.2061229,51.0109502],[-4.2055334,51.0137831],[-4.2054968,51.0139757],[-4.2052549,51.0152479],[-4.2060492,51.013694],[-4.2123938,51.015846]]]],"type":"MultiPolygon"},"id":"E02004223","properties":{"code":"E02004223","geography":"MSOA","name":"Torridge 004"},"type":"Feature"},{"geometry":{"coordinates":[[[[-4.2481707,51.0055566],[-4.2469782,51.0089849],[-4.2425497,51.009071],[-4.2369024,51.0238571],[-4.233129,51.0315371],[-4.2466707,51.0319796],[-4.2484049,51.0376976],[-4.2542164,51.0387818],[-4.2566754,51.0384064],[-4.2796363,51.0183103],[-4.280031,51.0178034],[-4.2803042,51.0177254],[-4.2824021,51.0158882],[-4.2882742,51.0107445],[-4.2884309,51.0102369],[-4.2906333,51.0086778],[-4.3035589,50.9973495],[-4.3085541,50.996334],[-4.3452454,50.9888668],[-4.3749257,50.990107],[-4.3906618,50.9945877],[-4.3932177,50.9964969],[-4.3951191,50.9970668],[-4.3985442,51.0003403],[-4.4065037,51.0053787],[-4.4276905,51.0133358],[-4.4486049,51.0143643],[-4.4695098,51.0215797],[-4.4981282,51.0214144],[-4.5009762,51.0185842],[-4.5134166,51.0224696],[-4.5260192,51.0221904],[-4.5268376,51.0119124],[-4.533941,51.0090923],[-4.5348249,51.0085338],[-4.5300439,51.0051792],[-4.5329079,51.0011451],[-4.5330344,51.0006516],[-4.5302936,50.996464],[-4.5345416,50.9947709],[-4.5347594,50.9939213],[-4.5292422,50.9868247],[-4.5308099,50.9849525],[-4.5301807,50.9845281],[-4.5323176,50.9831519],[-4.5356221,50.9792048],[-4.5330002,50.9653793],[-4.5358016,50.9623057],[-4.5302242,50.9617298],[-4.5356642,50.9574661],[-4.5242596,50.9527892],[-4.5115957,50.9587518],[-4.496766,50.9583954],[-4.4907673,50.965521],[-4.4951982,50.9648976],[-4.503554,50.9695105],[-4.4915209,50.9742997],[-4.4915188,50.977431],[-4.4740654,50.9778418],[-4.4726687,50.9700586],[-4.4573633,50.9756906],[-4.4460847,50.9751154],[-4.4541334,50.9633557],[-4.4488039,50.96166],[-4.450099,50.9560198],[-4.4258863,50.9695012],[-4.4153419,50.9690396],[-4.4126541,50.9672642],[-4.4229079,50.9532302],[-4.4167642,50.9406676],[-4.4055739,50.9361175],[-4.3761157,50.9347515],[-4.3721776,50.9305076],[-4.3645196,50.9295588],[-4.3476535,50.9317368],[-4.3515892,50.9383769],[-4.3465862,50.9454298],[-4.312146,50.9447707],[-4.3089821,50.9498811],[-4.2993711,50.9515872],[-4.3009545,50.9534298],[-4.248941,50.9694655],[-4.2486838,50.9807387],[-4.241465,50.985596],[-4.2244448,50.9804362],[-4.2315779,50.9721753],[-4.227817,50.958823],[-4.2306959,50.9455185],[-4.2374645,50.9442566],[-4.2367241,50.9381092],[-4.2290019,50.929175],[-4.2282992,50.9254591],[-4.2325025,50.923917],[-4.2278711,50.9206019],[-4.2063716,50.9255831],[-4.1969089,50.9346872],[-4.1809196,50.9366572],[-4.177153,50.9489048],[-4.1639561,50.9548313],[-4.1724974,50.9588436],[-4.1699518,50.9640351],[-4.1797376,50.9649068],[-4.1693669,50.9723573],[-4.1788713,50.9779944],[-4.1828996,50.9757885],[-4.1891498,50.9781621],[-4.1883753,50.9840906],[-4.1975504,50.9893178],[-4.1816323,50.9920547],[-4.1771698,50.9965182],[-4.1793208,50.9998408],[-4.1919723,50.9998807],[-4.2044559,51.0052409],[-4.2050329,51.0088115],[-4.2061638,51.0107539],[-4.2061229,51.0109502],[-4.2113996,51.012354],[-4.2198904,51.0104561],[-4.2251486,50.9988414],[-4.2481707,51.0055566]]],[[[-4.6640501,51.1617744],[-4.6544721,51.1620883],[-4.6534237,51.1623255],[-4.6546892,51.1630596],[-4.6564944,51.163109],[-4.6595277,51.1658659],[-4.66164,51.1670909],[-4.6617657,51.1861941],[-4.661774,51.1863279],[-4.6698477,51.1949246],[-4.6702597,51.201011],[-4.6736088,51.2017002],[-4.6773219,51.2024381],[-4.6789357,51.1969426],[-4.6797241,51.1941536],[-4.6744915,51.1902846],[-4.6747724,51.1901655],[-4.6740381,51.1862879],[-4.6746138,51.186147],[-4.6740515,51.1855035],[-4.6774862,51.1853323],[-4.6761024,51.1836528],[-4.6730612,51.1801611],[-4.6733624,51.1800848],[-4.6805393,51.1724233],[-4.6708918,51.1584623],[-4.6640501,51.1617744]]]],"type":"MultiPolygon"},"id":"E02004224","properties":{"code":"E02004224","geography":"MSOA","name":"Torridge 005"},"type":"Feature"},{"geometry":{"coordinates":[[[-4.1055788,50.9750143],[-4.1255242,50.9791182],[-4.1520887,50.9793798],[-4.1514327,50.9767127],[-4.1595433,50.9727371],[-4.1693669,50.9723573],[-4.1797376,50.9649068],[-4.1699518,50.9640351],[-4.1724974,50.9588436],[-4.1639561,50.9548313],[-4.1581178,50.9479501],[-4.1397548,50.9483703],[-4.1334383,50.9440049],[-4.1036393,50.9473433],[-4.1038682,50.953844],[-4.1122541,50.9645976],[-4.1049326,50.9688222],[-4.1055788,50.9750143]]],"type":"Polygon"},"id":"E02004225","properties":{"code":"E02004225","geography":"MSOA","name":"Torridge 006"},"type":"Feature"},{"geometry":{"coordinates":[[[-4.0342766,51.0076259],[-4.0639374,51.010274],[-4.0784695,51.008726],[-4.0778783,51.0026789],[-4.0861404,50.9862427],[-4.0963309,50.9836778],[-4.0955467,50.9789163],[-4.1055788,50.9750143],[-4.1049326,50.9688222],[-4.1122541,50.9645976],[-4.1038682,50.953844],[-4.1036393,50.9473433],[-4.1334383,50.9440049],[-4.1397548,50.9483703],[-4.1581178,50.9479501],[-4.1639561,50.9548313],[-4.177153,50.9489048],[-4.1809196,50.9366572],[-4.1577817,50.9202183],[-4.1553296,50.9048761],[-4.1646176,50.9055529],[-4.1677452,50.9023703],[-4.1927334,50.8959401],[-4.1905625,50.8914542],[-4.1995433,50.8894004],[-4.202698,50.8808101],[-4.1960318,50.8675082],[-4.2002536,50.8524473],[-4.18902,50.8540197],[-4.1867186,50.851997],[-4.1549764,50.8575916],[-4.1380911,50.8509545],[-4.129456,50.8434975],[-4.1226668,50.8430281],[-4.1183567,50.8377082],[-4.1028027,50.8355094],[-4.1031073,50.850304],[-4.085385,50.8577442],[-4.0899942,50.8673212],[-4.0686563,50.8746201],[-4.0665918,50.8703482],[-4.0574188,50.8708653],[-4.0519613,50.8626493],[-4.0399278,50.8685447],[-4.0364764,50.8593647],[-4.0239087,50.8603668],[-4.0230185,50.8660632],[-4.0107074,50.8632338],[-3.9948385,50.8691667],[-3.9968612,50.8546519],[-3.989366,50.8500515],[-3.9758578,50.8563209],[-3.9610762,50.8562903],[-3.962072,50.8495131],[-3.9433121,50.8371085],[-3.9403919,50.8255627],[-3.9159958,50.8304727],[-3.905657,50.8295556],[-3.8996444,50.8345173],[-3.886858,50.8426659],[-3.884283,50.8481793],[-3.9035229,50.8479517],[-3.9070366,50.8587235],[-3.9189954,50.8628421],[-3.9258279,50.8695736],[-3.8985537,50.8775328],[-3.8999541,50.8854965],[-3.9080166,50.8851245],[-3.9202254,50.8977227],[-3.9148185,50.9027004],[-3.9041367,50.9050939],[-3.9023559,50.9162509],[-3.9059695,50.9174467],[-3.9013195,50.9238484],[-3.9045439,50.9273665],[-3.9054738,50.9248468],[-3.954185,50.9176957],[-3.9667543,50.9239983],[-3.9966326,50.9259849],[-3.9938715,50.948432],[-3.9607631,50.9561516],[-3.9660658,50.9616491],[-3.9575198,50.9661159],[-3.9583398,50.9717275],[-3.9525706,50.9759611],[-3.9582265,50.977775],[-3.9587298,50.9816406],[-3.9610315,50.9788177],[-3.9836299,50.9821232],[-3.9917252,50.9744075],[-4.0060695,50.9727824],[-4.004901,50.9695306],[-4.0102874,50.9675392],[-4.0199914,50.9694576],[-4.0197042,50.9720959],[-4.0362205,50.9815846],[-4.0342766,51.0076259]]],"type":"Polygon"},"id":"E02004226","properties":{"code":"E02004226","geography":"MSOA","name":"Torridge 007"},"type":"Feature"},{"geometry":{"coordinates":[[[-4.2367241,50.9381092],[-4.2374645,50.9442566],[-4.2306959,50.9455185],[-4.227817,50.958823],[-4.2315779,50.9721753],[-4.2244448,50.9804362],[-4.241465,50.985596],[-4.2486838,50.9807387],[-4.248941,50.9694655],[-4.3009545,50.9534298],[-4.2993711,50.9515872],[-4.3089821,50.9498811],[-4.312146,50.9447707],[-4.3465862,50.9454298],[-4.3515892,50.9383769],[-4.3476535,50.9317368],[-4.3645196,50.9295588],[-4.3721776,50.9305076],[-4.3761157,50.9347515],[-4.4055739,50.9361175],[-4.4167642,50.9406676],[-4.4229079,50.9532302],[-4.4126541,50.9672642],[-4.4153419,50.9690396],[-4.4258863,50.9695012],[-4.450099,50.9560198],[-4.4488039,50.96166],[-4.4541334,50.9633557],[-4.4460847,50.9751154],[-4.4573633,50.9756906],[-4.4726687,50.9700586],[-4.4740654,50.9778418],[-4.4915188,50.977431],[-4.4915209,50.9742997],[-4.503554,50.9695105],[-4.4951982,50.9648976],[-4.4907673,50.965521],[-4.496766,50.9583954],[-4.5115957,50.9587518],[-4.5242596,50.9527892],[-4.5356642,50.9574661],[-4.5302242,50.9617298],[-4.5358016,50.9623057],[-4.544345,50.9529293],[-4.5441071,50.951689],[-4.5438177,50.9501801],[-4.5427072,50.9493131],[-4.5432588,50.9472653],[-4.5426987,50.9443444],[-4.5509496,50.9393272],[-4.5449756,50.933043],[-4.5458664,50.9286468],[-4.5171472,50.926835],[-4.4712197,50.9312716],[-4.4560799,50.9289336],[-4.4626542,50.9135021],[-4.4584962,50.9076261],[-4.4499709,50.9058475],[-4.4461151,50.8911052],[-4.4208899,50.8662021],[-4.4336269,50.8655182],[-4.4363525,50.852714],[-4.4422398,50.8469624],[-4.439661,50.8434655],[-4.444114,50.8278386],[-4.4385167,50.8231582],[-4.4468461,50.8082764],[-4.463381,50.8017357],[-4.4745754,50.8017955],[-4.4744125,50.7973231],[-4.4899222,50.7963231],[-4.4934706,50.7929184],[-4.4776667,50.7900265],[-4.4730729,50.7849831],[-4.4562482,50.7837041],[-4.4508728,50.7857116],[-4.4457689,50.7764605],[-4.4221095,50.7642812],[-4.4088143,50.7624292],[-4.4143882,50.7744163],[-4.3931858,50.7779921],[-4.3874029,50.7885589],[-4.3792999,50.7919417],[-4.361363,50.7838753],[-4.358872,50.7861598],[-4.3368055,50.784037],[-4.3116658,50.788495],[-4.3061425,50.7831702],[-4.2970951,50.7936435],[-4.2822442,50.8001778],[-4.2931029,50.8055968],[-4.2986596,50.8126111],[-4.3114423,50.8144647],[-4.3197387,50.8309687],[-4.3296911,50.8391422],[-4.3316735,50.8487599],[-4.3123692,50.8514084],[-4.310726,50.8589761],[-4.2880145,50.8661521],[-4.2736925,50.8671208],[-4.275652,50.8623171],[-4.2677365,50.8611379],[-4.2679544,50.8565284],[-4.258802,50.8544246],[-4.2527472,50.8610601],[-4.2428365,50.861922],[-4.2509958,50.8733863],[-4.2641246,50.8808516],[-4.2642079,50.8852735],[-4.273255,50.8861256],[-4.281099,50.8939482],[-4.2750437,50.8973266],[-4.2798314,50.9001982],[-4.2765118,50.9074011],[-4.2379782,50.91731],[-4.2437973,50.9266495],[-4.2367241,50.9381092]]],"type":"Polygon"},"id":"E02004227","properties":{"code":"E02004227","geography":"MSOA","name":"Torridge 008"},"type":"Feature"},{"geometry":{"coordinates":[[[-4.1809196,50.9366572],[-4.1969089,50.9346872],[-4.2063716,50.9255831],[-4.2278711,50.9206019],[-4.2325025,50.923917],[-4.2282992,50.9254591],[-4.2290019,50.929175],[-4.2367241,50.9381092],[-4.2437973,50.9266495],[-4.2379782,50.91731],[-4.2765118,50.9074011],[-4.2798314,50.9001982],[-4.2750437,50.8973266],[-4.281099,50.8939482],[-4.273255,50.8861256],[-4.2642079,50.8852735],[-4.2641246,50.8808516],[-4.2509958,50.8733863],[-4.2428365,50.861922],[-4.2527472,50.8610601],[-4.258802,50.8544246],[-4.2679544,50.8565284],[-4.2677365,50.8611379],[-4.275652,50.8623171],[-4.2736925,50.8671208],[-4.2880145,50.8661521],[-4.310726,50.8589761],[-4.3123692,50.8514084],[-4.3316735,50.8487599],[-4.3296911,50.8391422],[-4.3197387,50.8309687],[-4.3114423,50.8144647],[-4.2986596,50.8126111],[-4.2931029,50.8055968],[-4.2822442,50.8001778],[-4.2970951,50.7936435],[-4.3061425,50.7831702],[-4.3116658,50.788495],[-4.3368055,50.784037],[-4.358872,50.7861598],[-4.361363,50.7838753],[-4.3792999,50.7919417],[-4.3874029,50.7885589],[-4.3931858,50.7779921],[-4.3801792,50.7694861],[-4.3873563,50.7650654],[-4.387747,50.7577216],[-4.3807877,50.7564946],[-4.3849032,50.7477252],[-4.3740178,50.7379261],[-4.3693151,50.7234808],[-4.3615726,50.7189532],[-4.3687247,50.7093073],[-4.3665403,50.6991458],[-4.3489106,50.6895462],[-4.3447547,50.663416],[-4.3388187,50.661269],[-4.3388095,50.657714],[-4.3350975,50.6464457],[-4.3173228,50.6538394],[-4.3131417,50.6622406],[-4.3040126,50.6646892],[-4.2772879,50.6690639],[-4.2553094,50.6663716],[-4.2434278,50.6735889],[-4.2336148,50.6714103],[-4.2187664,50.6732811],[-4.2092255,50.6814821],[-4.2172753,50.6905622],[-4.2319612,50.6954305],[-4.2272595,50.7025357],[-4.2348395,50.7127464],[-4.2338882,50.7221165],[-4.2257765,50.7314324],[-4.2275131,50.7410604],[-4.2106315,50.7524291],[-4.195234,50.7551396],[-4.1938951,50.7579789],[-4.1859491,50.7576767],[-4.2013542,50.7653392],[-4.2057688,50.7749197],[-4.1818535,50.7846963],[-4.1663942,50.7870076],[-4.1690286,50.7915609],[-4.1907452,50.78965],[-4.183439,50.7957535],[-4.1687392,50.797663],[-4.1762303,50.8014929],[-4.1737211,50.8046204],[-4.1771834,50.8071667],[-4.1582138,50.8154646],[-4.163989,50.830906],[-4.1415975,50.8317969],[-4.1384469,50.8395453],[-4.129456,50.8434975],[-4.1380911,50.8509545],[-4.1549764,50.8575916],[-4.1867186,50.851997],[-4.18902,50.8540197],[-4.2002536,50.8524473],[-4.1960318,50.8675082],[-4.202698,50.8808101],[-4.1995433,50.8894004],[-4.1905625,50.8914542],[-4.1927334,50.8959401],[-4.1677452,50.9023703],[-4.1646176,50.9055529],[-4.1553296,50.9048761],[-4.1577817,50.9202183],[-4.1809196,50.9366572]]],"type":"Polygon"},"id":"E02004228","properties":{"code":"E02004228","geography":"MSOA","name":"Torridge 009"},"type":"Feature"}],"type":"FeatureCollection"}
