{"features":[{"geometry":{"coordinates":[[[1.1737416,52.6651412],[1.1636643,52.6651852],[1.1472735,52.6713416],[1.146332,52.6600074],[1.1381616,52.6597422],[1.1352224,52.6428352],[1.1319944,52.645767],[1.1160412,52.6454182],[1.0976724,52.6497333],[1.0933429,52.6510326],[1.0896209,52.6473446],[1.0950482,52.6462864],[1.0957539,52.6382657],[1.1024877,52.6340417],[1.1016006,52.6282553],[1.091544,52.6262369],[1.1064452,52.6151123],[1.1033725,52.610158],[1.1133765,52.6019872],[1.1259721,52.5990185],[1.1307019,52.6006336],[1.1332102,52.5970399],[1.1404156,52.5978382],[1.1418418,52.5941651],[1.1463712,52.5891077],[1.153837,52.5891526],[1.1710522,52.6129467],[1.1795112,52.6116856],[1.1802182,52.613958],[1.1896041,52.6143017],[1.1921705,52.6101557],[1.1942236,52.6143849],[1.2264054,52.6040634],[1.219403,52.6017],[1.2256871,52.5973306],[1.2193455,52.5922232],[1.2212257,52.5891457],[1.2254976,52.5834709],[1.2322703,52.5859846],[1.2558833,52.5844513],[1.2717271,52.586797],[1.2778579,52.597378],[1.2768662,52.5980911],[1.2688012,52.6017496],[1.2577637,52.5981229],[1.2508315,52.6060902],[1.2416639,52.6099709],[1.2435246,52.617111],[1.2314322,52.6180801],[1.2310717,52.630153],[1.2253388,52.6320901],[1.2162508,52.6255762],[1.2128028,52.6273309],[1.2140468,52.6343908],[1.205063,52.6394587],[1.1968844,52.6461924],[1.172188,52.6498194],[1.1778888,52.6574666],[1.1737416,52.6651412]]],"type":"Polygon"},"id":"E02005598","properties":{"code":"E02005598","geography":"MSOA","name":"South Norfolk 002"},"type":"Feature"},{"geometry":{"coordinates":[[[1.2212257,52.5891457],[1.2193455,52.5922232],[1.2256871,52.5973306],[1.219403,52.6017],[1.2264054,52.6040634],[1.1942236,52.6143849],[1.1921705,52.6101557],[1.1896041,52.6143017],[1.1802182,52.613958],[1.1795112,52.6116856],[1.1710522,52.6129467],[1.153837,52.5891526],[1.1582149,52.5795254],[1.2065572,52.5942523],[1.2212257,52.5891457]]],"type":"Polygon"},"id":"E02005599","properties":{"code":"E02005599","geography":"MSOA","name":"South Norfolk 003"},"type":"Feature"},{"geometry":{"coordinates":[[[1.0896209,52.6473446],[1.0789622,52.6487156],[1.0746272,52.6381446],[1.0544081,52.6633053],[1.0547821,52.6589237],[1.0430737,52.6464879],[1.0235304,52.6397284],[1.0255794,52.6300113],[1.0188433,52.6157225],[1.0368789,52.6157746],[1.0394634,52.5881498],[1.0270055,52.58939],[1.0217895,52.5865341],[1.0000023,52.5918097],[0.9637551,52.5946213],[0.9628577,52.5859209],[0.9545632,52.5869132],[0.9536897,52.5849198],[0.9625576,52.5834571],[0.962166,52.5811548],[0.9470055,52.5758102],[0.9526844,52.5675975],[0.9734857,52.5547713],[1.0048912,52.5497674],[1.0120515,52.5429125],[1.0240109,52.5423302],[1.041542,52.5361765],[1.061376,52.5371611],[1.0667235,52.5480159],[1.0769159,52.5567014],[1.0808342,52.5707331],[1.0887709,52.5703328],[1.0836207,52.5789156],[1.0868946,52.5806359],[1.092184,52.5915953],[1.0781264,52.6002895],[1.0971933,52.6104321],[1.1033725,52.610158],[1.1064452,52.6151123],[1.091544,52.6262369],[1.1016006,52.6282553],[1.1024877,52.6340417],[1.0957539,52.6382657],[1.0950482,52.6462864],[1.0896209,52.6473446]]],"type":"Polygon"},"id":"E02005600","properties":{"code":"E02005600","geography":"MSOA","name":"South Norfolk 004"},"type":"Feature"},{"geometry":{"coordinates":[[[1.1033725,52.610158],[1.0971933,52.6104321],[1.0781264,52.6002895],[1.092184,52.5915953],[1.0868946,52.5806359],[1.0962085,52.5794375],[1.1083009,52.5664717],[1.1161356,52.5680782],[1.1185756,52.5721461],[1.1110629,52.5732859],[1.1157575,52.5781444],[1.1238309,52.5781069],[1.1236476,52.5834034],[1.1366879,52.5879429],[1.1342368,52.59058],[1.1418418,52.5941651],[1.1404156,52.5978382],[1.1332102,52.5970399],[1.1307019,52.6006336],[1.1259721,52.5990185],[1.1133765,52.6019872],[1.1033725,52.610158]]],"type":"Polygon"},"id":"E02005601","properties":{"code":"E02005601","geography":"MSOA","name":"South Norfolk 005"},"type":"Feature"},{"geometry":{"coordinates":[[[1.3432344,52.6042389],[1.3489235,52.6211538],[1.3414252,52.6256448],[1.3392557,52.6256954],[1.3321066,52.6258617],[1.3287129,52.6243568],[1.3196044,52.6203165],[1.3203316,52.6159006],[1.3091973,52.6107049],[1.2866342,52.5962968],[1.2778579,52.597378],[1.2717271,52.586797],[1.2728604,52.5772189],[1.265422,52.571352],[1.2783644,52.5649008],[1.2926667,52.5672267],[1.2938838,52.5556559],[1.3023929,52.5523354],[1.3246455,52.5523453],[1.3247425,52.5474715],[1.3360563,52.5456015],[1.3489815,52.5178488],[1.3735099,52.5196402],[1.3730144,52.5163266],[1.3904161,52.511838],[1.3890838,52.5087601],[1.3993263,52.5029364],[1.4025998,52.5083527],[1.4067394,52.5078422],[1.404738,52.5037184],[1.4100619,52.5076737],[1.4233295,52.5040335],[1.4255888,52.5086557],[1.4452599,52.5094216],[1.4492076,52.5127701],[1.4478038,52.5197256],[1.4529162,52.5207549],[1.4529803,52.5275354],[1.4397784,52.5339606],[1.4381892,52.5402907],[1.4502948,52.5446082],[1.4329524,52.5480107],[1.4354783,52.5535218],[1.4249537,52.5513545],[1.4266882,52.5564731],[1.421622,52.564182],[1.4071128,52.5663429],[1.4051329,52.5696045],[1.38986,52.5633382],[1.3891692,52.5565479],[1.3786882,52.5538464],[1.3708651,52.5572517],[1.3684241,52.5771843],[1.3718903,52.5836429],[1.3785493,52.5822604],[1.3766247,52.5885282],[1.365014,52.5928244],[1.3465213,52.5903208],[1.3432344,52.6042389]]],"type":"Polygon"},"id":"E02005602","properties":{"code":"E02005602","geography":"MSOA","name":"South Norfolk 006"},"type":"Feature"},{"geometry":{"coordinates":[[[1.153837,52.5891526],[1.1463712,52.5891077],[1.1418418,52.5941651],[1.1342368,52.59058],[1.1366879,52.5879429],[1.1236476,52.5834034],[1.1238309,52.5781069],[1.1157575,52.5781444],[1.1110629,52.5732859],[1.1185756,52.5721461],[1.1161356,52.5680782],[1.1083009,52.5664717],[1.0962085,52.5794375],[1.0868946,52.5806359],[1.0836207,52.5789156],[1.0887709,52.5703328],[1.0808342,52.5707331],[1.0769159,52.5567014],[1.0667235,52.5480159],[1.061376,52.5371611],[1.0851867,52.5226121],[1.0928826,52.5212031],[1.0952317,52.5180001],[1.0895044,52.5145591],[1.0960938,52.5129955],[1.1053073,52.5185968],[1.1259647,52.5116232],[1.1302777,52.5144561],[1.1227196,52.5180464],[1.1279455,52.5308607],[1.1451429,52.5430637],[1.1503626,52.5539433],[1.1583563,52.5562835],[1.1642306,52.5637214],[1.1585545,52.5668024],[1.1645883,52.5723365],[1.1588527,52.5742455],[1.1582149,52.5795254],[1.153837,52.5891526]]],"type":"Polygon"},"id":"E02005603","properties":{"code":"E02005603","geography":"MSOA","name":"South Norfolk 007"},"type":"Feature"},{"geometry":{"coordinates":[[[1.3811383,52.6056495],[1.3759938,52.6202478],[1.3695056,52.6235429],[1.3506437,52.6208811],[1.3489235,52.6211538],[1.3432344,52.6042389],[1.3465213,52.5903208],[1.365014,52.5928244],[1.3766247,52.5885282],[1.3785493,52.5822604],[1.3718903,52.5836429],[1.3684241,52.5771843],[1.3708651,52.5572517],[1.3786882,52.5538464],[1.3891692,52.5565479],[1.38986,52.5633382],[1.4051329,52.5696045],[1.4071128,52.5663429],[1.421622,52.564182],[1.4266882,52.5564731],[1.4249537,52.5513545],[1.4354783,52.5535218],[1.4329524,52.5480107],[1.4502948,52.5446082],[1.4381892,52.5402907],[1.4397784,52.5339606],[1.4529803,52.5275354],[1.4529162,52.5207549],[1.4478038,52.5197256],[1.4492076,52.5127701],[1.4480217,52.5060335],[1.4544874,52.5069055],[1.4552923,52.5041235],[1.479464,52.505314],[1.488961,52.5028052],[1.5014736,52.5307699],[1.5067946,52.5300842],[1.5085667,52.5325168],[1.5088033,52.5396045],[1.5234038,52.5434859],[1.5305055,52.5523151],[1.540752,52.5526777],[1.5403125,52.5553947],[1.5360151,52.5618868],[1.5288324,52.5590416],[1.5217785,52.5623709],[1.5237964,52.5703219],[1.5183702,52.575211],[1.4978276,52.570768],[1.4849802,52.5867027],[1.4687376,52.5863995],[1.4628527,52.5932256],[1.4536353,52.5943441],[1.4534995,52.6005233],[1.4325473,52.6119806],[1.4340711,52.6197162],[1.4289747,52.6177811],[1.4218122,52.621944],[1.4147529,52.6209633],[1.4077634,52.6135219],[1.401755,52.6132091],[1.3992642,52.6077763],[1.3875242,52.6040155],[1.3811383,52.6056495]]],"type":"Polygon"},"id":"E02005604","properties":{"code":"E02005604","geography":"MSOA","name":"South Norfolk 008"},"type":"Feature"},{"geometry":{"coordinates":[[[1.2212257,52.5891457],[1.2065572,52.5942523],[1.1582149,52.5795254],[1.1588527,52.5742455],[1.1645883,52.5723365],[1.1585545,52.5668024],[1.1642306,52.5637214],[1.1583563,52.5562835],[1.1503626,52.5539433],[1.1451429,52.5430637],[1.1776312,52.536381],[1.181684,52.5384134],[1.2031092,52.5355993],[1.2160917,52.5276446],[1.223947,52.5276106],[1.2311758,52.5226855],[1.2352811,52.5241769],[1.2302961,52.5175542],[1.2372671,52.5150578],[1.2331182,52.5150085],[1.2329199,52.5119075],[1.2380308,52.5148047],[1.2541526,52.5087608],[1.2607204,52.5056912],[1.2582027,52.5093356],[1.2700414,52.5161272],[1.307939,52.514279],[1.3387519,52.5058303],[1.3507639,52.5129885],[1.3489815,52.5178488],[1.3360563,52.5456015],[1.3247425,52.5474715],[1.3246455,52.5523453],[1.3023929,52.5523354],[1.2938838,52.5556559],[1.2926667,52.5672267],[1.2783644,52.5649008],[1.265422,52.571352],[1.2728604,52.5772189],[1.2717271,52.586797],[1.2558833,52.5844513],[1.2322703,52.5859846],[1.2254976,52.5834709],[1.2212257,52.5891457]]],"type":"Polygon"},"id":"E02005605","properties":{"code":"E02005605","geography":"MSOA","name":"South Norfolk 009"},"type":"Feature"},{"geometry":{"coordinates":[[[1.6483371,52.5777297],[1.6455639,52.588842],[1.6394491,52.5877167],[1.6368998,52.5819368],[1.6280672,52.5799974],[1.6229953,52.5742055],[1.6075015,52.5740073],[1.6083026,52.5692608],[1.6011083,52.5670912],[1.5917819,52.5580178],[1.5786732,52.5564204],[1.5548419,52.559573],[1.5417957,52.5553045],[1.5405598,52.555568],[1.5403125,52.5553947],[1.540752,52.5526777],[1.5305055,52.5523151],[1.5234038,52.5434859],[1.5088033,52.5396045],[1.5085667,52.5325168],[1.5067946,52.5300842],[1.5014736,52.5307699],[1.488961,52.5028052],[1.479464,52.505314],[1.4552923,52.5041235],[1.4586604,52.4954356],[1.4666919,52.496491],[1.4595744,52.4933653],[1.468278,52.4848599],[1.4622361,52.480047],[1.474751,52.4696106],[1.4831931,52.4718159],[1.5080615,52.461725],[1.5161156,52.4639905],[1.521563,52.4618335],[1.5240927,52.467356],[1.5294349,52.4683661],[1.5528474,52.4591244],[1.5576195,52.4576458],[1.5611076,52.4598829],[1.5692836,52.4750454],[1.5866923,52.4786521],[1.6005809,52.4722042],[1.6069377,52.4666544],[1.6273708,52.4623158],[1.6347467,52.4630315],[1.6462004,52.4719263],[1.6586615,52.4683263],[1.6636697,52.4749233],[1.670823,52.4765022],[1.6711146,52.4821553],[1.6819466,52.4899733],[1.6823499,52.4951989],[1.6732976,52.5032611],[1.6544099,52.5013116],[1.6451763,52.5085121],[1.6465784,52.5151139],[1.6308698,52.5207146],[1.6285579,52.5259925],[1.6201174,52.5334765],[1.6209368,52.539799],[1.6085039,52.5408096],[1.6058006,52.5448451],[1.6095783,52.5502775],[1.6228149,52.5526512],[1.6330858,52.5608547],[1.6351045,52.5733314],[1.6485413,52.5762347],[1.6483371,52.5777297]]],"type":"Polygon"},"id":"E02005606","properties":{"code":"E02005606","geography":"MSOA","name":"South Norfolk 010"},"type":"Feature"},{"geometry":{"coordinates":[[[1.2541526,52.5087608],[1.2380308,52.5148047],[1.2329199,52.5119075],[1.2331182,52.5150085],[1.2372671,52.5150578],[1.2302961,52.5175542],[1.2352811,52.5241769],[1.2311758,52.5226855],[1.223947,52.5276106],[1.2160917,52.5276446],[1.2031092,52.5355993],[1.181684,52.5384134],[1.1776312,52.536381],[1.1451429,52.5430637],[1.1279455,52.5308607],[1.1227196,52.5180464],[1.1302777,52.5144561],[1.1259647,52.5116232],[1.1053073,52.5185968],[1.0960938,52.5129955],[1.0895044,52.5145591],[1.0789296,52.5069884],[1.0793641,52.4992686],[1.0824789,52.4846616],[1.0876719,52.481223],[1.0855887,52.4709952],[1.0906131,52.4686814],[1.0952491,52.4703624],[1.0946225,52.4602564],[1.0952054,52.4512336],[1.1299088,52.4455603],[1.1280767,52.4424754],[1.1437142,52.4427664],[1.1653266,52.4483446],[1.1730325,52.4472234],[1.1800129,52.4629803],[1.1768,52.4860443],[1.1787181,52.4831765],[1.1865466,52.4840524],[1.1896148,52.4790187],[1.1983683,52.4766768],[1.2152762,52.4550221],[1.223045,52.4548519],[1.2264954,52.463529],[1.2382056,52.463485],[1.2507015,52.4591577],[1.2565709,52.4789073],[1.2531119,52.4811883],[1.2541526,52.5087608]]],"type":"Polygon"},"id":"E02005607","properties":{"code":"E02005607","geography":"MSOA","name":"South Norfolk 011"},"type":"Feature"},{"geometry":{"coordinates":[[[1.4492076,52.5127701],[1.4452599,52.5094216],[1.4255888,52.5086557],[1.4233295,52.5040335],[1.4100619,52.5076737],[1.404738,52.5037184],[1.4067394,52.5078422],[1.4025998,52.5083527],[1.3993263,52.5029364],[1.3890838,52.5087601],[1.3904161,52.511838],[1.3730144,52.5163266],[1.3735099,52.5196402],[1.3489815,52.5178488],[1.3507639,52.5129885],[1.3387519,52.5058303],[1.307939,52.514279],[1.2700414,52.5161272],[1.2582027,52.5093356],[1.2607204,52.5056912],[1.2541526,52.5087608],[1.2531119,52.4811883],[1.2565709,52.4789073],[1.2507015,52.4591577],[1.267301,52.4522118],[1.3010634,52.4539168],[1.3123892,52.44995],[1.3154263,52.4347714],[1.3242368,52.4243759],[1.3272369,52.4050329],[1.3356965,52.4018962],[1.3470728,52.4043895],[1.3462815,52.4089764],[1.3611907,52.4131211],[1.3563437,52.4211574],[1.3636302,52.4274565],[1.3920438,52.4340228],[1.3931767,52.4389128],[1.407886,52.4443867],[1.432565,52.4453191],[1.4332406,52.4559367],[1.4109915,52.4615729],[1.4180769,52.4702267],[1.4263223,52.4705562],[1.441072,52.4566887],[1.4587442,52.4581171],[1.474751,52.4696106],[1.4622361,52.480047],[1.468278,52.4848599],[1.4595744,52.4933653],[1.4666919,52.496491],[1.4586604,52.4954356],[1.4552923,52.5041235],[1.4544874,52.5069055],[1.4480217,52.5060335],[1.4492076,52.5127701]]],"type":"Polygon"},"id":"E02005608","properties":{"code":"E02005608","geography":"MSOA","name":"South Norfolk 012"},"type":"Feature"},{"geometry":{"coordinates":[[[1.2507015,52.4591577],[1.2382056,52.463485],[1.2264954,52.463529],[1.223045,52.4548519],[1.2096724,52.4352038],[1.2052654,52.4208437],[1.2177355,52.4099211],[1.2240966,52.4129736],[1.2282904,52.4049519],[1.2394421,52.406429],[1.2402469,52.4013741],[1.2549214,52.4006001],[1.2584096,52.4028764],[1.2820662,52.3954752],[1.2897644,52.3975094],[1.2913154,52.3901344],[1.3014882,52.3916926],[1.3163429,52.3873865],[1.3305767,52.3935324],[1.3356965,52.4018962],[1.3272369,52.4050329],[1.3242368,52.4243759],[1.3154263,52.4347714],[1.3123892,52.44995],[1.3010634,52.4539168],[1.267301,52.4522118],[1.2507015,52.4591577]]],"type":"Polygon"},"id":"E02005609","properties":{"code":"E02005609","geography":"MSOA","name":"South Norfolk 013"},"type":"Feature"},{"geometry":{"coordinates":[[[1.223045,52.4548519],[1.2152762,52.4550221],[1.1983683,52.4766768],[1.1896148,52.4790187],[1.1865466,52.4840524],[1.1787181,52.4831765],[1.1768,52.4860443],[1.1800129,52.4629803],[1.1730325,52.4472234],[1.1653266,52.4483446],[1.1437142,52.4427664],[1.1280767,52.4424754],[1.1299088,52.4455603],[1.0952054,52.4512336],[1.0946225,52.4602564],[1.0731488,52.4547589],[1.0628478,52.4331927],[1.0674735,52.4288051],[1.0587429,52.4268354],[1.0570476,52.420036],[1.0453924,52.4199323],[1.0427724,52.4256332],[1.0212406,52.416359],[1.0340744,52.4157567],[1.0313744,52.4102484],[1.0213892,52.4059517],[1.0243286,52.3986234],[1.0202063,52.3941971],[1.0299284,52.3787163],[1.0590113,52.3772328],[1.061281,52.3848515],[1.0687927,52.3837558],[1.0788338,52.3975419],[1.0872674,52.3987022],[1.0958171,52.3872249],[1.1060722,52.3891239],[1.1058777,52.3860254],[1.1139909,52.3856569],[1.1227682,52.3914795],[1.1375956,52.395162],[1.1435097,52.3895077],[1.1317882,52.3826288],[1.135084,52.3773664],[1.1314361,52.3676014],[1.155432,52.3615309],[1.1821923,52.3587723],[1.1952178,52.3614494],[1.2133162,52.3553371],[1.2303116,52.3602311],[1.2329474,52.3649167],[1.2468346,52.3654375],[1.2593031,52.3708663],[1.2812445,52.3885412],[1.2913154,52.3901344],[1.2897644,52.3975094],[1.2820662,52.3954752],[1.2584096,52.4028764],[1.2549214,52.4006001],[1.2402469,52.4013741],[1.2394421,52.406429],[1.2282904,52.4049519],[1.2240966,52.4129736],[1.2177355,52.4099211],[1.2052654,52.4208437],[1.2096724,52.4352038],[1.223045,52.4548519]]],"type":"Polygon"},"id":"E02005610","properties":{"code":"E02005610","geography":"MSOA","name":"South Norfolk 014"},"type":"Feature"},{"geometry":{"coordinates":[[[1.1314361,52.3676014],[1.135084,52.3773664],[1.1317882,52.3826288],[1.1435097,52.3895077],[1.1375956,52.395162],[1.1227682,52.3914795],[1.1139909,52.3856569],[1.1058777,52.3860254],[1.1060722,52.3891239],[1.0958171,52.3872249],[1.0872674,52.3987022],[1.0788338,52.3975419],[1.0687927,52.3837558],[1.061281,52.3848515],[1.0590113,52.3772328],[1.0684634,52.3784417],[1.0806533,52.3726532],[1.1150289,52.3713364],[1.1229091,52.3672753],[1.1314361,52.3676014]]],"type":"Polygon"},"id":"E02005611","properties":{"code":"E02005611","geography":"MSOA","name":"South Norfolk 015"},"type":"Feature"},{"geometry":{"coordinates":[[[1.2065841,52.6608417],[1.2023395,52.6621249],[1.201776,52.6728979],[1.1936535,52.6780402],[1.1871938,52.6774437],[1.1742666,52.6672748],[1.1737416,52.6651412],[1.1778888,52.6574666],[1.172188,52.6498194],[1.1968844,52.6461924],[1.1988029,52.650564],[1.2225194,52.6490363],[1.2246607,52.653554],[1.2306727,52.6549258],[1.2480729,52.6476006],[1.2484865,52.6477182],[1.2470786,52.653359],[1.2334453,52.6611525],[1.234308,52.6679378],[1.2216712,52.6731444],[1.2130216,52.6626151],[1.2065841,52.6608417]]],"type":"Polygon"},"id":"E02007054","properties":{"code":"E02007054","geography":"MSOA","name":"South Norfolk 016"},"type":"Feature"},{"geometry":{"coordinates":[[[1.2480729,52.6476006],[1.2306727,52.6549258],[1.2246607,52.653554],[1.2225194,52.6490363],[1.1988029,52.650564],[1.1968844,52.6461924],[1.205063,52.6394587],[1.2050223,52.6450773],[1.2354324,52.6409087],[1.2480729,52.6476006]]],"type":"Polygon"},"id":"E02007055","properties":{"code":"E02007055","geography":"MSOA","name":"South Norfolk 017"},"type":"Feature"}],"type":"FeatureCollection"}
