{"features":[{"geometry":{"coordinates":[[[0.0261461,50.9804866],[0.0111397,50.9776219],[0.0037646,50.9936629],[-0.0077531,50.998331],[-0.0093382,51.0019186],[-0.0164306,51.0025234],[-0.0246305,50.9800293],[-0.0363262,50.977195],[-0.0367436,50.9797965],[-0.0470117,50.9812124],[-0.0535638,50.9794826],[-0.0641501,50.9710133],[-0.0558186,50.9571622],[-0.0482232,50.9580592],[-0.051345,50.9468284],[-0.0370894,50.9459566],[-0.0369117,50.940777],[-0.0311334,50.9403154],[-0.0327275,50.9289977],[-0.0233181,50.9228556],[-0.0260423,50.9194903],[-0.0162173,50.928576],[-0.0145135,50.9243495],[-0.0156271,50.9127508],[-0.0232563,50.9121848],[-0.0252343,50.9078223],[-0.0260116,50.8927876],[-0.0332103,50.8958056],[-0.0396067,50.8937578],[-0.0452751,50.8800415],[-0.0311197,50.8845969],[-0.0220963,50.8840691],[-0.0174849,50.8800442],[-0.0077923,50.8828974],[-0.0093034,50.8869436],[-0.0003495,50.8892568],[0.0145834,50.8873543],[0.0116585,50.8948104],[0.0205446,50.8983861],[0.0202508,50.9037559],[0.0344436,50.9055455],[0.0307298,50.9140744],[0.0474849,50.9151466],[0.0464784,50.9221808],[0.0572773,50.9260958],[0.055186,50.938818],[0.0482036,50.946516],[0.0486173,50.9603954],[0.0537468,50.9676066],[0.0516534,50.9692899],[0.0389866,50.9666239],[0.0379189,50.9740397],[0.0261461,50.9804866]]],"type":"Polygon"},"id":"E02004379","properties":{"code":"E02004379","geography":"MSOA","name":"Lewes 001"},"type":"Feature"},{"geometry":{"coordinates":[[[-0.0535638,50.9794826],[-0.0637395,50.9792165],[-0.0705517,50.9913497],[-0.078007,50.9911625],[-0.0864457,50.9891408],[-0.0931783,50.9792323],[-0.1088404,50.9802468],[-0.1153112,50.9761119],[-0.1161343,50.9704367],[-0.1163347,50.9671871],[-0.1105639,50.9678654],[-0.1055454,50.9644086],[-0.1083753,50.9587651],[-0.1047152,50.9456107],[-0.1054536,50.9431152],[-0.1180857,50.9452612],[-0.1200027,50.9417037],[-0.1169024,50.9410851],[-0.1284137,50.91894],[-0.1333976,50.8939859],[-0.1350374,50.8866403],[-0.1353113,50.8781108],[-0.1303596,50.8786723],[-0.1242375,50.877981],[-0.1201176,50.8735678],[-0.1049426,50.8723491],[-0.0975465,50.8779509],[-0.0849551,50.8731252],[-0.0752903,50.8507051],[-0.070807,50.8458244],[-0.0734698,50.8412502],[-0.0456137,50.8449735],[-0.0368707,50.8412447],[-0.0421976,50.8248228],[-0.0459959,50.821831],[-0.0302578,50.817355],[-0.0204572,50.8218362],[-0.0166141,50.8162803],[-0.0029092,50.82005],[0.0032003,50.8115203],[0.0139668,50.8106881],[0.0096393,50.8026798],[0.0224282,50.7999335],[0.0208632,50.7975388],[0.0298984,50.7947978],[0.0316856,50.8032253],[0.0474963,50.8032687],[0.0433147,50.8093038],[0.0339173,50.8102915],[0.0265648,50.8154848],[0.0282029,50.821941],[0.0327055,50.8208782],[0.0345871,50.8241942],[0.0262177,50.8332551],[0.0336403,50.8451676],[0.0384139,50.8467494],[0.0215448,50.8618503],[0.0171161,50.8602785],[0.0156402,50.8634531],[0.0071602,50.8634399],[-0.0126486,50.8594979],[-0.0226969,50.8627656],[-0.0309196,50.8740631],[-0.0174849,50.8800442],[-0.0220963,50.8840691],[-0.0311197,50.8845969],[-0.0452751,50.8800415],[-0.0396067,50.8937578],[-0.0332103,50.8958056],[-0.0260116,50.8927876],[-0.0252343,50.9078223],[-0.0232563,50.9121848],[-0.0156271,50.9127508],[-0.0145135,50.9243495],[-0.0162173,50.928576],[-0.0260423,50.9194903],[-0.0233181,50.9228556],[-0.0327275,50.9289977],[-0.0311334,50.9403154],[-0.0369117,50.940777],[-0.0370894,50.9459566],[-0.051345,50.9468284],[-0.0482232,50.9580592],[-0.0558186,50.9571622],[-0.0641501,50.9710133],[-0.0535638,50.9794826]]],"type":"Polygon"},"id":"E02004380","properties":{"code":"E02004380","geography":"MSOA","name":"Lewes 002"},"type":"Feature"},{"geometry":{"coordinates":[[[0.0145834,50.8873543],[-0.0003495,50.8892568],[-0.0093034,50.8869436],[-0.0077923,50.8828974],[-0.0051145,50.8756563],[0.0180519,50.8704523],[0.0225382,50.865493],[0.0407303,50.8728673],[0.0493018,50.8837353],[0.0398083,50.8861349],[0.0213546,50.8842257],[0.0145834,50.8873543]]],"type":"Polygon"},"id":"E02004381","properties":{"code":"E02004381","geography":"MSOA","name":"Lewes 003"},"type":"Feature"},{"geometry":{"coordinates":[[[0.1146111,50.870685],[0.0984696,50.8699988],[0.0980204,50.8815187],[0.0918541,50.8849526],[0.1218865,50.9152857],[0.1109252,50.9156516],[0.0955422,50.9231104],[0.0884959,50.9187982],[0.0572773,50.9260958],[0.0464784,50.9221808],[0.0474849,50.9151466],[0.0307298,50.9140744],[0.0344436,50.9055455],[0.0202508,50.9037559],[0.0205446,50.8983861],[0.0116585,50.8948104],[0.0145834,50.8873543],[0.0213546,50.8842257],[0.0398083,50.8861349],[0.0493018,50.8837353],[0.0407303,50.8728673],[0.0225382,50.865493],[0.0215448,50.8618503],[0.0384139,50.8467494],[0.0336403,50.8451676],[0.0262177,50.8332551],[0.0345871,50.8241942],[0.0327055,50.8208782],[0.0282029,50.821941],[0.0265648,50.8154848],[0.0339173,50.8102915],[0.0433147,50.8093038],[0.0474963,50.8032687],[0.0592786,50.8040086],[0.0692277,50.8092052],[0.077643,50.8007203],[0.0703205,50.7983245],[0.0754728,50.7903584],[0.1115544,50.8022107],[0.1088819,50.8129286],[0.0979058,50.8203256],[0.1075682,50.8314402],[0.1112602,50.8308224],[0.119005,50.8374237],[0.116133,50.8390245],[0.1244967,50.8463058],[0.1150144,50.8496443],[0.1272997,50.8567657],[0.1146111,50.870685]]],"type":"Polygon"},"id":"E02004382","properties":{"code":"E02004382","geography":"MSOA","name":"Lewes 004"},"type":"Feature"},{"geometry":{"coordinates":[[[0.0225382,50.865493],[0.0180519,50.8704523],[-0.0051145,50.8756563],[-0.0077923,50.8828974],[-0.0174849,50.8800442],[-0.0309196,50.8740631],[-0.0226969,50.8627656],[-0.0126486,50.8594979],[0.0071602,50.8634399],[0.0156402,50.8634531],[0.0171161,50.8602785],[0.0215448,50.8618503],[0.0225382,50.865493]]],"type":"Polygon"},"id":"E02004383","properties":{"code":"E02004383","geography":"MSOA","name":"Lewes 005"},"type":"Feature"},{"geometry":{"coordinates":[[[0.0032003,50.8115203],[-0.0029092,50.82005],[-0.0166141,50.8162803],[-0.0380215,50.7994646],[-0.0150153,50.7927554],[-0.0126354,50.792061],[-0.0122961,50.7919699],[0.0032003,50.8115203]]],"type":"Polygon"},"id":"E02004384","properties":{"code":"E02004384","geography":"MSOA","name":"Lewes 006"},"type":"Feature"},{"geometry":{"coordinates":[[[0.0096393,50.8026798],[0.0139668,50.8106881],[0.0032003,50.8115203],[-0.0122961,50.7919699],[-0.000101,50.7886945],[0.0001833,50.7886399],[0.0072277,50.7957195],[0.0013775,50.7982399],[0.003175,50.8026531],[0.0096393,50.8026798]]],"type":"Polygon"},"id":"E02004385","properties":{"code":"E02004385","geography":"MSOA","name":"Lewes 007"},"type":"Feature"},{"geometry":{"coordinates":[[[0.0754728,50.7903584],[0.0703205,50.7983245],[0.077643,50.8007203],[0.0692277,50.8092052],[0.0592786,50.8040086],[0.0474963,50.8032687],[0.0520444,50.7949315],[0.0431587,50.7905394],[0.0473265,50.7863281],[0.0416938,50.7813128],[0.0526962,50.7797889],[0.0561192,50.7774208],[0.053357,50.7794744],[0.0536154,50.7796982],[0.0523565,50.7807114],[0.0554888,50.7813203],[0.0556392,50.7814505],[0.05586,50.7816417],[0.0572815,50.7817057],[0.0582118,50.7823143],[0.0667455,50.7824889],[0.0669705,50.7824023],[0.0754728,50.7903584]]],"type":"Polygon"},"id":"E02004386","properties":{"code":"E02004386","geography":"MSOA","name":"Lewes 008"},"type":"Feature"},{"geometry":{"coordinates":[[[0.0416938,50.7813128],[0.0473265,50.7863281],[0.0431587,50.7905394],[0.0520444,50.7949315],[0.0474963,50.8032687],[0.0316856,50.8032253],[0.0298984,50.7947978],[0.0290945,50.7830864],[0.0292571,50.7830552],[0.029651,50.7829794],[0.0385301,50.7817508],[0.0416938,50.7813128]]],"type":"Polygon"},"id":"E02004387","properties":{"code":"E02004387","geography":"MSOA","name":"Lewes 009"},"type":"Feature"},{"geometry":{"coordinates":[[[0.0298984,50.7947978],[0.0208632,50.7975388],[0.0224282,50.7999335],[0.0096393,50.8026798],[0.003175,50.8026531],[0.0013775,50.7982399],[0.0072277,50.7957195],[0.0001833,50.7886399],[0.0032922,50.7880431],[0.0290945,50.7830864],[0.0298984,50.7947978]]],"type":"Polygon"},"id":"E02004388","properties":{"code":"E02004388","geography":"MSOA","name":"Lewes 010"},"type":"Feature"},{"geometry":{"coordinates":[[[0.1437009,50.7926863],[0.1218221,50.7930929],[0.1115544,50.8022107],[0.0754728,50.7903584],[0.0669705,50.7824023],[0.0701068,50.7811946],[0.0917309,50.7728622],[0.0946944,50.7763371],[0.0997604,50.7740082],[0.1142016,50.7789086],[0.1149347,50.7836998],[0.1215883,50.784177],[0.1272642,50.7889825],[0.1310104,50.7853399],[0.1437009,50.7926863]]],"type":"Polygon"},"id":"E02004389","properties":{"code":"E02004389","geography":"MSOA","name":"Lewes 011"},"type":"Feature"},{"geometry":{"coordinates":[[[0.150133,50.7587455],[0.1488458,50.7706459],[0.1544274,50.7716231],[0.1519796,50.7751125],[0.1463631,50.7733216],[0.1419455,50.7768482],[0.1478259,50.7854952],[0.1437009,50.7926863],[0.1310104,50.7853399],[0.1272642,50.7889825],[0.1215883,50.784177],[0.1149347,50.7836998],[0.1142016,50.7789086],[0.1194112,50.7738352],[0.1107932,50.7727528],[0.1131571,50.7699299],[0.1086787,50.7685068],[0.1226828,50.7683505],[0.1238217,50.7581604],[0.1239218,50.7581197],[0.1378098,50.7557669],[0.1489148,50.7590893],[0.150133,50.7587455]]],"type":"Polygon"},"id":"E02004390","properties":{"code":"E02004390","geography":"MSOA","name":"Lewes 012"},"type":"Feature"},{"geometry":{"coordinates":[[[0.1238217,50.7581604],[0.1226828,50.7683505],[0.1086787,50.7685068],[0.1131571,50.7699299],[0.1107932,50.7727528],[0.1194112,50.7738352],[0.1142016,50.7789086],[0.0997604,50.7740082],[0.0946944,50.7763371],[0.0917309,50.7728622],[0.1011892,50.7677861],[0.1069731,50.7650217],[0.1238217,50.7581604]]],"type":"Polygon"},"id":"E02004391","properties":{"code":"E02004391","geography":"MSOA","name":"Lewes 013"},"type":"Feature"}],"type":"FeatureCollection"}
