{"features":[{"geometry":{"coordinates":[[[1.1770538,52.2526568],[1.178352,52.260561],[1.1679189,52.2600195],[1.1642834,52.2723413],[1.1531223,52.2747339],[1.1497481,52.280426],[1.156837,52.2765679],[1.1615754,52.2845852],[1.1634727,52.2804335],[1.1737565,52.2835873],[1.1820836,52.2800137],[1.1887185,52.2858901],[1.1998169,52.2793351],[1.2104464,52.2843294],[1.2140025,52.2820831],[1.2184934,52.2835949],[1.2186997,52.2812464],[1.223703,52.2893392],[1.2314613,52.2874431],[1.2346646,52.2825195],[1.2469221,52.2868792],[1.2484027,52.2851046],[1.2504987,52.2906327],[1.2638003,52.2911103],[1.2583254,52.297708],[1.2583795,52.3036864],[1.2623771,52.3054381],[1.2516547,52.3148683],[1.2586892,52.3173207],[1.2569848,52.3215777],[1.2513652,52.3207102],[1.2439126,52.3296929],[1.2601571,52.3337578],[1.2755335,52.3293618],[1.2953228,52.331262],[1.292172,52.3357082],[1.2986566,52.3370581],[1.2914461,52.3434992],[1.2987529,52.3535792],[1.2943613,52.3572688],[1.2968414,52.3597885],[1.2901394,52.3657914],[1.2722964,52.3661014],[1.2593031,52.3708663],[1.2468346,52.3654375],[1.2329474,52.3649167],[1.2303116,52.3602311],[1.2133162,52.3553371],[1.1952178,52.3614494],[1.1821923,52.3587723],[1.155432,52.3615309],[1.1314361,52.3676014],[1.1229091,52.3672753],[1.1150289,52.3713364],[1.0806533,52.3726532],[1.076374,52.365574],[1.0867112,52.3455619],[1.0801756,52.3418139],[1.0935577,52.3336939],[1.0914286,52.3242452],[1.0986793,52.3207416],[1.1017688,52.3091551],[1.1344415,52.3082465],[1.1401501,52.3048301],[1.1372757,52.297082],[1.1243831,52.2923236],[1.1151505,52.2845455],[1.1235974,52.277451],[1.1231864,52.2712959],[1.134399,52.2678075],[1.1403266,52.2615603],[1.1505376,52.2432899],[1.1567912,52.2425977],[1.1566368,52.2497192],[1.1770538,52.2526568]]],"type":"Polygon"},"id":"E02006261","properties":{"code":"E02006261","geography":"MSOA","name":"Mid Suffolk 001"},"type":"Feature"},{"geometry":{"coordinates":[[[1.0806533,52.3726532],[1.0684634,52.3784417],[1.0590113,52.3772328],[1.0299284,52.3787163],[1.0067852,52.3757239],[0.9977837,52.3715207],[0.9674423,52.3700937],[0.9672241,52.3657159],[0.9531418,52.3560424],[0.9579546,52.3507635],[0.957309,52.3403537],[0.9532004,52.3368422],[0.9326672,52.3357114],[0.9256768,52.3273427],[0.9310934,52.3128507],[0.9045455,52.3055699],[0.9116467,52.3020425],[0.9031294,52.3038275],[0.8995291,52.2989495],[0.9129577,52.2943898],[0.9334771,52.2939018],[0.9677321,52.2870742],[0.9589228,52.2678907],[0.9424762,52.2710621],[0.9427913,52.2751804],[0.9341227,52.2748016],[0.931845,52.277122],[0.9230003,52.27346],[0.9117087,52.2775207],[0.9093895,52.27471],[0.9105374,52.2680844],[0.907337,52.2678538],[0.913208,52.256348],[0.9554854,52.2556091],[0.9615409,52.2564131],[0.9807382,52.2623016],[0.9848505,52.2592906],[0.9890241,52.2604117],[0.9931483,52.2669907],[1.0031287,52.2662881],[1.0034754,52.271849],[1.0148438,52.2759164],[1.0363541,52.2768816],[1.0458325,52.2826301],[1.0449032,52.290457],[1.0543431,52.2950428],[1.0567013,52.2888614],[1.0690079,52.2901307],[1.070862,52.2874679],[1.0844438,52.2861312],[1.0920642,52.2954854],[1.0969601,52.2958713],[1.1017688,52.3091551],[1.0986793,52.3207416],[1.0914286,52.3242452],[1.0935577,52.3336939],[1.0801756,52.3418139],[1.0867112,52.3455619],[1.076374,52.365574],[1.0806533,52.3726532]]],"type":"Polygon"},"id":"E02006262","properties":{"code":"E02006262","geography":"MSOA","name":"Mid Suffolk 002"},"type":"Feature"},{"geometry":{"coordinates":[[[1.409479,52.3632442],[1.3757007,52.3896196],[1.3748283,52.3946559],[1.3642158,52.3984559],[1.3609358,52.4035014],[1.3470728,52.4043895],[1.3356965,52.4018962],[1.3305767,52.3935324],[1.3163429,52.3873865],[1.3014882,52.3916926],[1.2913154,52.3901344],[1.2812445,52.3885412],[1.2593031,52.3708663],[1.2722964,52.3661014],[1.2901394,52.3657914],[1.2968414,52.3597885],[1.2943613,52.3572688],[1.2987529,52.3535792],[1.2914461,52.3434992],[1.2986566,52.3370581],[1.292172,52.3357082],[1.2953228,52.331262],[1.2755335,52.3293618],[1.2601571,52.3337578],[1.2439126,52.3296929],[1.2513652,52.3207102],[1.2569848,52.3215777],[1.2586892,52.3173207],[1.2516547,52.3148683],[1.2623771,52.3054381],[1.2583795,52.3036864],[1.2583254,52.297708],[1.2638003,52.2911103],[1.2504987,52.2906327],[1.2484027,52.2851046],[1.2469221,52.2868792],[1.2346646,52.2825195],[1.2314613,52.2874431],[1.223703,52.2893392],[1.2186997,52.2812464],[1.2184934,52.2835949],[1.2140025,52.2820831],[1.2104464,52.2843294],[1.1998169,52.2793351],[1.1887185,52.2858901],[1.1820836,52.2800137],[1.1737565,52.2835873],[1.1634727,52.2804335],[1.1615754,52.2845852],[1.156837,52.2765679],[1.1497481,52.280426],[1.1531223,52.2747339],[1.1642834,52.2723413],[1.1679189,52.2600195],[1.178352,52.260561],[1.1770538,52.2526568],[1.1869699,52.252604],[1.1888208,52.2558527],[1.1990995,52.247711],[1.1937182,52.2425215],[1.1961965,52.2382868],[1.20872,52.2313588],[1.2151694,52.2326365],[1.2191934,52.2287616],[1.2083728,52.2128437],[1.2181759,52.2126461],[1.2363323,52.1977702],[1.2430222,52.2003621],[1.2415913,52.2121264],[1.2483171,52.2158105],[1.243515,52.2176779],[1.2475366,52.2289747],[1.2866994,52.2405262],[1.2934852,52.2475909],[1.2924885,52.2549036],[1.300987,52.2589978],[1.3166926,52.2586025],[1.3264222,52.264623],[1.339736,52.2659076],[1.3368304,52.2766492],[1.3412367,52.2844295],[1.3303712,52.2909471],[1.3275594,52.2984599],[1.3472644,52.2933859],[1.3443999,52.2820702],[1.3556258,52.2740584],[1.3554495,52.2787556],[1.3762795,52.275436],[1.3814702,52.2797966],[1.4016144,52.2856795],[1.3841092,52.2940857],[1.380694,52.3035263],[1.3839912,52.3106468],[1.3709871,52.313711],[1.3574454,52.3221367],[1.3621309,52.3343457],[1.3573751,52.3372578],[1.3694752,52.3463138],[1.3976967,52.3554656],[1.409479,52.3632442]]],"type":"Polygon"},"id":"E02006263","properties":{"code":"E02006263","geography":"MSOA","name":"Mid Suffolk 003"},"type":"Feature"},{"geometry":{"coordinates":[[[0.8995291,52.2989495],[0.8829047,52.3001191],[0.8873251,52.2927012],[0.8795689,52.2933881],[0.874051,52.2994716],[0.8667645,52.2978465],[0.8689728,52.2934407],[0.8552307,52.2915288],[0.855526,52.2863315],[0.8428688,52.2847632],[0.8536528,52.277053],[0.8562954,52.2684254],[0.8495374,52.264787],[0.8425719,52.2680094],[0.8438349,52.2597834],[0.8257954,52.2664981],[0.8176808,52.2643652],[0.8093869,52.2670341],[0.8015738,52.2658925],[0.7975506,52.2512134],[0.8077397,52.2493784],[0.8066661,52.2464147],[0.8270985,52.238951],[0.8466361,52.2372863],[0.845049,52.2326323],[0.8529501,52.2297809],[0.8863705,52.2330614],[0.9115167,52.2243173],[0.8938072,52.2409872],[0.9080327,52.2390734],[0.9127257,52.2316334],[0.9132215,52.2353329],[0.9256886,52.2342282],[0.944663,52.2512836],[0.9554854,52.2556091],[0.913208,52.256348],[0.907337,52.2678538],[0.9105374,52.2680844],[0.9093895,52.27471],[0.9117087,52.2775207],[0.9230003,52.27346],[0.931845,52.277122],[0.9341227,52.2748016],[0.9427913,52.2751804],[0.9424762,52.2710621],[0.9589228,52.2678907],[0.9677321,52.2870742],[0.9334771,52.2939018],[0.9129577,52.2943898],[0.8995291,52.2989495]]],"type":"Polygon"},"id":"E02006264","properties":{"code":"E02006264","geography":"MSOA","name":"Mid Suffolk 004"},"type":"Feature"},{"geometry":{"coordinates":[[[1.0844438,52.2861312],[1.070862,52.2874679],[1.0690079,52.2901307],[1.0567013,52.2888614],[1.0543431,52.2950428],[1.0449032,52.290457],[1.0458325,52.2826301],[1.0363541,52.2768816],[1.0148438,52.2759164],[1.0034754,52.271849],[1.0031287,52.2662881],[0.9931483,52.2669907],[0.9890241,52.2604117],[0.9848505,52.2592906],[0.9807382,52.2623016],[0.9615409,52.2564131],[0.9709147,52.2496344],[0.9937324,52.2439626],[0.9830629,52.2279571],[0.9901071,52.22256],[0.9806623,52.220886],[0.9800225,52.2154608],[0.9856106,52.2110779],[0.9881813,52.2122094],[0.9912203,52.2017241],[0.9933567,52.1975921],[1.0099301,52.1950816],[1.0222131,52.1862798],[1.016424,52.1785757],[1.0231142,52.1730648],[1.0364795,52.1666559],[1.0444725,52.1676328],[1.0479118,52.1634419],[1.0557755,52.1708602],[1.048264,52.1780143],[1.0503176,52.19767],[1.0612554,52.2110435],[1.0631138,52.2215704],[1.0686882,52.2198546],[1.1014767,52.2221732],[1.1019143,52.2552802],[1.0903578,52.2533413],[1.0849468,52.2569842],[1.0915084,52.260211],[1.0794604,52.2623911],[1.0861288,52.2716244],[1.0844438,52.2861312]]],"type":"Polygon"},"id":"E02006265","properties":{"code":"E02006265","geography":"MSOA","name":"Mid Suffolk 005"},"type":"Feature"},{"geometry":{"coordinates":[[[0.9912203,52.2017241],[0.9881813,52.2122094],[0.9856106,52.2110779],[0.9800225,52.2154608],[0.9806623,52.220886],[0.9901071,52.22256],[0.9830629,52.2279571],[0.9937324,52.2439626],[0.9709147,52.2496344],[0.9615409,52.2564131],[0.9554854,52.2556091],[0.944663,52.2512836],[0.9256886,52.2342282],[0.9132215,52.2353329],[0.9127257,52.2316334],[0.9080327,52.2390734],[0.8938072,52.2409872],[0.9115167,52.2243173],[0.8863705,52.2330614],[0.8529501,52.2297809],[0.845049,52.2326323],[0.8466361,52.2372863],[0.8270985,52.238951],[0.8199215,52.2333627],[0.8219435,52.2232476],[0.8141771,52.2070272],[0.819385,52.1989709],[0.836315,52.1982798],[0.8326882,52.1865714],[0.8362421,52.1821532],[0.8245408,52.1796993],[0.8224623,52.1745429],[0.8141381,52.1707167],[0.8259404,52.1625822],[0.8445747,52.1612413],[0.8595038,52.1633739],[0.8594085,52.1659205],[0.8618902,52.1638147],[0.8687909,52.1655611],[0.8814898,52.154703],[0.893851,52.1576607],[0.8957107,52.1821547],[0.9056976,52.1851547],[0.9093642,52.1913943],[0.9170542,52.1911315],[0.9191253,52.1963436],[0.925076,52.19687],[0.9185365,52.2062547],[0.9266213,52.2131561],[0.9394097,52.2134452],[0.9423057,52.2098038],[0.9463416,52.2154011],[0.9568831,52.2194048],[0.9638086,52.2155654],[0.9607762,52.2131607],[0.9657168,52.201537],[0.9821729,52.2022013],[0.9856747,52.1997848],[0.9912203,52.2017241]]],"type":"Polygon"},"id":"E02006266","properties":{"code":"E02006266","geography":"MSOA","name":"Mid Suffolk 006"},"type":"Feature"},{"geometry":{"coordinates":[[[1.1770538,52.2526568],[1.1566368,52.2497192],[1.1567912,52.2425977],[1.1505376,52.2432899],[1.1403266,52.2615603],[1.134399,52.2678075],[1.1231864,52.2712959],[1.1235974,52.277451],[1.1151505,52.2845455],[1.1243831,52.2923236],[1.1372757,52.297082],[1.1401501,52.3048301],[1.1344415,52.3082465],[1.1017688,52.3091551],[1.0969601,52.2958713],[1.0920642,52.2954854],[1.0844438,52.2861312],[1.0861288,52.2716244],[1.0794604,52.2623911],[1.0915084,52.260211],[1.0849468,52.2569842],[1.0903578,52.2533413],[1.1019143,52.2552802],[1.1014767,52.2221732],[1.0686882,52.2198546],[1.0631138,52.2215704],[1.0612554,52.2110435],[1.0503176,52.19767],[1.048264,52.1780143],[1.0557755,52.1708602],[1.0479118,52.1634419],[1.0531231,52.1567181],[1.0611765,52.1507476],[1.0758478,52.1469934],[1.0794762,52.1444277],[1.0778281,52.1363044],[1.0864558,52.1287852],[1.0954472,52.1279739],[1.1035301,52.1297084],[1.1165146,52.1402671],[1.133397,52.1476613],[1.1567568,52.1455619],[1.1766719,52.1369141],[1.1913721,52.1399687],[1.1966381,52.1549874],[1.2153949,52.1615558],[1.2139352,52.1665226],[1.2287503,52.1704176],[1.2371043,52.1696444],[1.2569265,52.194903],[1.2567001,52.1983477],[1.2430222,52.2003621],[1.2363323,52.1977702],[1.2181759,52.2126461],[1.2083728,52.2128437],[1.2191934,52.2287616],[1.2151694,52.2326365],[1.20872,52.2313588],[1.1961965,52.2382868],[1.1937182,52.2425215],[1.1990995,52.247711],[1.1888208,52.2558527],[1.1869699,52.252604],[1.1770538,52.2526568]]],"type":"Polygon"},"id":"E02006267","properties":{"code":"E02006267","geography":"MSOA","name":"Mid Suffolk 007"},"type":"Feature"},{"geometry":{"coordinates":[[[0.9972126,52.1744145],[1.0011254,52.1779673],[0.9990482,52.181438],[0.9908597,52.1827418],[0.9925566,52.1947122],[0.9887398,52.1977206],[0.9834743,52.1951615],[0.9796284,52.1801068],[0.9880396,52.1777331],[0.9872833,52.1711449],[0.9972126,52.1744145]]],"type":"Polygon"},"id":"E02006268","properties":{"code":"E02006268","geography":"MSOA","name":"Mid Suffolk 008"},"type":"Feature"},{"geometry":{"coordinates":[[[0.9856747,52.1997848],[0.9821729,52.2022013],[0.9657168,52.201537],[0.9607762,52.2131607],[0.9638086,52.2155654],[0.9568831,52.2194048],[0.9463416,52.2154011],[0.9423057,52.2098038],[0.9394097,52.2134452],[0.9266213,52.2131561],[0.9185365,52.2062547],[0.925076,52.19687],[0.9191253,52.1963436],[0.9170542,52.1911315],[0.9093642,52.1913943],[0.9056976,52.1851547],[0.8957107,52.1821547],[0.893851,52.1576607],[0.8923374,52.1504557],[0.9186969,52.1559593],[0.9272451,52.1530201],[0.9380176,52.1575248],[0.9416443,52.1537092],[0.9383841,52.1524504],[0.9465188,52.1454809],[0.948912,52.143428],[0.9703702,52.1466179],[0.9902152,52.1369409],[1.013049,52.1368939],[1.0193531,52.1389883],[1.0206434,52.1453626],[1.0265146,52.1486222],[1.0203223,52.1545184],[1.0219089,52.1581071],[1.0054007,52.1542818],[0.9932857,52.1552569],[0.9906264,52.1572063],[1.0019207,52.1620848],[1.0010219,52.1662078],[1.0107376,52.1697794],[1.0070833,52.1738915],[0.9972126,52.1744145],[0.9872833,52.1711449],[0.9880396,52.1777331],[0.9796284,52.1801068],[0.9834743,52.1951615],[0.9794171,52.1981724],[0.9856747,52.1997848]]],"type":"Polygon"},"id":"E02006269","properties":{"code":"E02006269","geography":"MSOA","name":"Mid Suffolk 009"},"type":"Feature"},{"geometry":{"coordinates":[[[1.0479118,52.1634419],[1.0444725,52.1676328],[1.0364795,52.1666559],[1.0231142,52.1730648],[1.016424,52.1785757],[1.0222131,52.1862798],[1.0099301,52.1950816],[0.9933567,52.1975921],[0.9912203,52.2017241],[0.9856747,52.1997848],[0.9794171,52.1981724],[0.9834743,52.1951615],[0.9887398,52.1977206],[0.9925566,52.1947122],[0.9908597,52.1827418],[0.9990482,52.181438],[1.0011254,52.1779673],[0.9972126,52.1744145],[1.0070833,52.1738915],[1.0107376,52.1697794],[1.0010219,52.1662078],[1.0019207,52.1620848],[0.9906264,52.1572063],[0.9932857,52.1552569],[1.0054007,52.1542818],[1.0219089,52.1581071],[1.0370241,52.1608166],[1.0421468,52.1551679],[1.0531231,52.1567181],[1.0479118,52.1634419]]],"type":"Polygon"},"id":"E02006270","properties":{"code":"E02006270","geography":"MSOA","name":"Mid Suffolk 010"},"type":"Feature"},{"geometry":{"coordinates":[[[1.0531231,52.1567181],[1.0421468,52.1551679],[1.0370241,52.1608166],[1.0219089,52.1581071],[1.0203223,52.1545184],[1.0265146,52.1486222],[1.0206434,52.1453626],[1.0193531,52.1389883],[1.013049,52.1368939],[0.9902152,52.1369409],[0.9703702,52.1466179],[0.948912,52.143428],[0.9465188,52.1454809],[0.9487913,52.1378012],[0.9447028,52.1276302],[0.9536232,52.1202662],[0.9511559,52.1146972],[0.9592704,52.1048403],[0.9730893,52.1069081],[0.9753311,52.1014103],[0.9707481,52.0956556],[1.0037775,52.0985947],[1.0065798,52.0935113],[1.0202725,52.0868553],[1.0284006,52.0825329],[1.0373093,52.0848878],[1.0417109,52.0832121],[1.0558795,52.0922763],[1.0549172,52.0952951],[1.0594519,52.095404],[1.0676905,52.1113312],[1.0749382,52.1057172],[1.1034318,52.1006414],[1.1054376,52.1105211],[1.1007452,52.1151404],[1.0912233,52.1172547],[1.0954472,52.1279739],[1.0864558,52.1287852],[1.0778281,52.1363044],[1.0794762,52.1444277],[1.0758478,52.1469934],[1.0611765,52.1507476],[1.0531231,52.1567181]]],"type":"Polygon"},"id":"E02006271","properties":{"code":"E02006271","geography":"MSOA","name":"Mid Suffolk 011"},"type":"Feature"},{"geometry":{"coordinates":[[[1.1766719,52.1369141],[1.1567568,52.1455619],[1.133397,52.1476613],[1.1165146,52.1402671],[1.1035301,52.1297084],[1.0954472,52.1279739],[1.0912233,52.1172547],[1.1007452,52.1151404],[1.1054376,52.1105211],[1.1034318,52.1006414],[1.0749382,52.1057172],[1.0676905,52.1113312],[1.0594519,52.095404],[1.0549172,52.0952951],[1.0558795,52.0922763],[1.0417109,52.0832121],[1.0373093,52.0848878],[1.0284006,52.0825329],[1.0202725,52.0868553],[1.0281756,52.0767326],[1.0259911,52.0708724],[1.041406,52.0686038],[1.0414336,52.0745633],[1.0464279,52.0780968],[1.05816,52.0665202],[1.0648333,52.0653731],[1.0912028,52.0653854],[1.1091673,52.0709896],[1.1091057,52.0880516],[1.1157041,52.0892167],[1.1385029,52.0883782],[1.1422619,52.0944549],[1.157808,52.0887373],[1.1672001,52.0997895],[1.1654821,52.1132988],[1.1705409,52.1136159],[1.1776688,52.1204781],[1.177921,52.1278704],[1.170173,52.1276077],[1.1694386,52.1312337],[1.1753224,52.1324508],[1.1766719,52.1369141]]],"type":"Polygon"},"id":"E02006272","properties":{"code":"E02006272","geography":"MSOA","name":"Mid Suffolk 012"},"type":"Feature"}],"type":"FeatureCollection"}
