{"features":[{"geometry":{"coordinates":[[[-1.025304,50.8961209],[-1.0391469,50.9001173],[-1.0491461,50.891474],[-1.0445118,50.8833525],[-1.0367804,50.8822939],[-1.0314535,50.8851075],[-1.0192572,50.8932777],[-1.025304,50.8961209]]],"type":"Polygon"},"id":"E02004764","properties":{"code":"E02004764","geography":"MSOA","name":"Havant 003"},"type":"Feature"},{"geometry":{"coordinates":[[[-0.9995661,50.8929591],[-1.0101124,50.8867537],[-1.010967,50.8902964],[-1.0192572,50.8932777],[-1.0314535,50.8851075],[-1.0257473,50.88162],[-1.0296905,50.8802842],[-1.0255551,50.8801138],[-1.0270265,50.8776305],[-1.0133944,50.8755447],[-0.9995661,50.8929591]]],"type":"Polygon"},"id":"E02004765","properties":{"code":"E02004765","geography":"MSOA","name":"Havant 004"},"type":"Feature"},{"geometry":{"coordinates":[[[-1.0270265,50.8776305],[-1.0255551,50.8801138],[-1.0296905,50.8802842],[-1.0257473,50.88162],[-1.0314535,50.8851075],[-1.0367804,50.8822939],[-1.0350381,50.8806402],[-1.0465107,50.8741094],[-1.0457026,50.8705923],[-1.0380737,50.8659618],[-1.0348054,50.8669736],[-1.0270265,50.8776305]]],"type":"Polygon"},"id":"E02004766","properties":{"code":"E02004766","geography":"MSOA","name":"Havant 005"},"type":"Feature"},{"geometry":{"coordinates":[[[-0.9932333,50.8920686],[-0.9987836,50.8954098],[-0.9995661,50.8929591],[-1.0133944,50.8755447],[-1.0148917,50.872458],[-1.0128245,50.8674713],[-1.0026198,50.8647994],[-0.9984316,50.8694044],[-0.9912407,50.8750124],[-0.9958518,50.8821612],[-0.9932333,50.8920686]]],"type":"Polygon"},"id":"E02004767","properties":{"code":"E02004767","geography":"MSOA","name":"Havant 006"},"type":"Feature"},{"geometry":{"coordinates":[[[-1.0133944,50.8755447],[-1.0270265,50.8776305],[-1.0348054,50.8669736],[-1.0166328,50.8645703],[-1.0148917,50.872458],[-1.0133944,50.8755447]]],"type":"Polygon"},"id":"E02004768","properties":{"code":"E02004768","geography":"MSOA","name":"Havant 007"},"type":"Feature"},{"geometry":{"coordinates":[[[-0.9717095,50.8778721],[-0.9787304,50.8783163],[-0.9932333,50.8920686],[-0.9958518,50.8821612],[-0.9912407,50.8750124],[-0.9984316,50.8694044],[-0.9959415,50.8672113],[-0.989141,50.871468],[-0.9852875,50.8696318],[-0.987762,50.8681884],[-0.9778235,50.8656081],[-0.9717095,50.8778721]]],"type":"Polygon"},"id":"E02004769","properties":{"code":"E02004769","geography":"MSOA","name":"Havant 008"},"type":"Feature"},{"geometry":{"coordinates":[[[-0.9634003,50.867263],[-0.9604594,50.8721929],[-0.9680276,50.8734486],[-0.9682714,50.8777199],[-0.9717095,50.8778721],[-0.9778235,50.8656081],[-0.9793505,50.8602224],[-0.9692024,50.8582336],[-0.9634003,50.867263]]],"type":"Polygon"},"id":"E02004770","properties":{"code":"E02004770","geography":"MSOA","name":"Havant 009"},"type":"Feature"},{"geometry":{"coordinates":[[[-0.9778235,50.8656081],[-0.987762,50.8681884],[-0.9852875,50.8696318],[-0.989141,50.871468],[-0.9959415,50.8672113],[-0.9984316,50.8694044],[-1.0026198,50.8647994],[-0.9963993,50.8599697],[-0.9975211,50.8568918],[-0.9839833,50.8585053],[-0.9793505,50.8602224],[-0.9778235,50.8656081]]],"type":"Polygon"},"id":"E02004771","properties":{"code":"E02004771","geography":"MSOA","name":"Havant 010"},"type":"Feature"},{"geometry":{"coordinates":[[[-1.0348054,50.8669736],[-1.0380737,50.8659618],[-1.0457026,50.8705923],[-1.0473973,50.8657589],[-1.0546323,50.8674585],[-1.0487009,50.8645884],[-1.0540299,50.8565607],[-1.0464654,50.8538771],[-1.0226505,50.8521105],[-1.0145216,50.8548821],[-1.0166328,50.8645703],[-1.0348054,50.8669736]]],"type":"Polygon"},"id":"E02004772","properties":{"code":"E02004772","geography":"MSOA","name":"Havant 011"},"type":"Feature"},{"geometry":{"coordinates":[[[-0.9327889,50.853217],[-0.9264657,50.8641012],[-0.9386237,50.8737304],[-0.953563,50.8682024],[-0.9462856,50.8607174],[-0.9516524,50.8602402],[-0.9496446,50.8523544],[-0.9605365,50.8503105],[-0.9579127,50.8399482],[-0.9562014,50.8397036],[-0.9512459,50.8440261],[-0.9400273,50.8419176],[-0.9375858,50.8444206],[-0.9321982,50.8434308],[-0.9324933,50.8460594],[-0.932135,50.8454238],[-0.9327889,50.853217]]],"type":"Polygon"},"id":"E02004774","properties":{"code":"E02004774","geography":"MSOA","name":"Havant 013"},"type":"Feature"},{"geometry":{"coordinates":[[[[-1.0010248,50.8504368],[-1.0024169,50.849448],[-1.0032045,50.8430291],[-1.0027641,50.8430244],[-1.0010248,50.8504368]]],[[[-0.9516524,50.8602402],[-0.9462856,50.8607174],[-0.953563,50.8682024],[-0.9634003,50.867263],[-0.9692024,50.8582336],[-0.9793505,50.8602224],[-0.9839833,50.8585053],[-0.987911,50.8522943],[-0.9957824,50.8541464],[-1.0008142,50.8505864],[-1.0009246,50.8448917],[-0.9966655,50.8466493],[-1.0012048,50.8436784],[-0.9896607,50.837669],[-0.9859916,50.8378331],[-0.9875788,50.839963],[-0.9833936,50.8382485],[-0.9814363,50.8349383],[-0.9744738,50.8423135],[-0.9579127,50.8399482],[-0.9605365,50.8503105],[-0.9496446,50.8523544],[-0.9516524,50.8602402]]]],"type":"MultiPolygon"},"id":"E02004775","properties":{"code":"E02004775","geography":"MSOA","name":"Havant 014"},"type":"Feature"},{"geometry":{"coordinates":[[[-0.9527681,50.8010829],[-0.9586232,50.8047118],[-0.9689865,50.8027516],[-0.9708977,50.8056732],[-0.9714828,50.8064051],[-0.9734035,50.8088077],[-0.9713293,50.8080601],[-0.9710034,50.807979],[-0.965185,50.8065318],[-0.9617391,50.8092827],[-0.9710679,50.8106531],[-0.9612247,50.8113618],[-0.9570728,50.8073535],[-0.9576184,50.8158089],[-0.9510417,50.8239892],[-0.9572944,50.8313196],[-0.9636585,50.8334437],[-0.9702957,50.8307362],[-0.9691185,50.8345433],[-0.9778162,50.8330095],[-0.9868103,50.8269123],[-0.9833472,50.8207697],[-0.9949117,50.7981469],[-1.0013771,50.795289],[-1.0058796,50.7932984],[-1.0173311,50.7951886],[-1.0176096,50.7924625],[-1.0219628,50.7938057],[-1.0202409,50.7954491],[-1.0199042,50.7957705],[-1.024244,50.7954827],[-1.025346,50.7954095],[-1.0202008,50.785647],[-1.0085819,50.7848053],[-1.0070725,50.7849991],[-1.0028663,50.784614],[-1.0009637,50.789528],[-0.9939085,50.7868079],[-0.9903253,50.7908108],[-0.9875667,50.7879844],[-0.98554,50.7965419],[-0.9766667,50.7940145],[-0.975999,50.7979824],[-0.9596286,50.7913943],[-0.9558781,50.7935026],[-0.9555004,50.7937243],[-0.9558407,50.7948903],[-0.9570798,50.799135],[-0.9569412,50.7991974],[-0.956975,50.7993228],[-0.9527681,50.8010829]]],"type":"Polygon"},"id":"E02004776","properties":{"code":"E02004776","geography":"MSOA","name":"Havant 015"},"type":"Feature"},{"geometry":{"coordinates":[[[-0.9766667,50.7940145],[-0.98554,50.7965419],[-0.9875667,50.7879844],[-0.9903253,50.7908108],[-0.9939085,50.7868079],[-1.0009637,50.789528],[-1.0028663,50.784614],[-0.9911407,50.7835397],[-0.978717,50.7826365],[-0.9598562,50.7794213],[-0.965932,50.7854116],[-0.9717791,50.7840064],[-0.9710555,50.7865],[-0.9769411,50.7876481],[-0.9766667,50.7940145]]],"type":"Polygon"},"id":"E02004777","properties":{"code":"E02004777","geography":"MSOA","name":"Havant 016"},"type":"Feature"},{"geometry":{"coordinates":[[[[-0.975999,50.7979824],[-0.9766667,50.7940145],[-0.9769411,50.7876481],[-0.9710555,50.7865],[-0.9717791,50.7840064],[-0.965932,50.7854116],[-0.9598562,50.7794213],[-0.953058,50.7782616],[-0.9420556,50.777592],[-0.9364861,50.7781648],[-0.9368246,50.7868217],[-0.9370281,50.782543],[-0.943222,50.7867234],[-0.9492877,50.7831316],[-0.9614388,50.7822359],[-0.9512108,50.784228],[-0.9513238,50.786917],[-0.9575684,50.7897985],[-0.9673546,50.7871634],[-0.9678774,50.7901599],[-0.9627512,50.7894688],[-0.9558781,50.7935026],[-0.9596286,50.7913943],[-0.975999,50.7979824]]],[[[-0.9527681,50.8010829],[-0.956975,50.7993228],[-0.9569412,50.7991974],[-0.9527681,50.8010829]]]],"type":"MultiPolygon"},"id":"E02004778","properties":{"code":"E02004778","geography":"MSOA","name":"Havant 017"},"type":"Feature"},{"geometry":{"coordinates":[[[[-1.005332,50.8338036],[-1.008986,50.8333265],[-1.0023955,50.8293343],[-1.005332,50.8338036]]],[[[-1.0184994,50.8381759],[-1.0216025,50.8373933],[-1.024153,50.8329476],[-1.0240871,50.8329454],[-1.0169711,50.8368968],[-1.010262,50.8349678],[-1.0184994,50.8381759]]],[[[-0.9963993,50.8599697],[-1.0026198,50.8647994],[-1.0128245,50.8674713],[-1.0148917,50.872458],[-1.0166328,50.8645703],[-1.0145216,50.8548821],[-1.0226505,50.8521105],[-1.0250824,50.8477304],[-1.0206408,50.8390687],[-1.0199249,50.8432075],[-1.0032045,50.8430291],[-1.0024169,50.849448],[-1.0010248,50.8504368],[-1.0007984,50.8514014],[-1.0008142,50.8505864],[-0.9957824,50.8541464],[-0.987911,50.8522943],[-0.9839833,50.8585053],[-0.9975211,50.8568918],[-0.9963993,50.8599697]]]],"type":"MultiPolygon"},"id":"E02006822","properties":{"code":"E02006822","geography":"MSOA","name":"Havant 018"},"type":"Feature"},{"geometry":{"coordinates":[[[-1.0186966,50.9090462],[-1.0245435,50.9094716],[-1.0238761,50.9061689],[-1.0341332,50.9041712],[-1.0391469,50.9001173],[-1.025304,50.8961209],[-1.0216609,50.8996162],[-1.0159962,50.8993475],[-1.0184834,50.9038388],[-1.0186966,50.9090462]]],"type":"Polygon"},"id":"E02006830","properties":{"code":"E02006830","geography":"MSOA","name":"Havant 019"},"type":"Feature"},{"geometry":{"coordinates":[[[-0.9987836,50.8954098],[-1.0047228,50.896555],[-1.0014963,50.8994852],[-1.0077949,50.9025478],[-1.0184834,50.9038388],[-1.0159962,50.8993475],[-1.0216609,50.8996162],[-1.025304,50.8961209],[-1.0192572,50.8932777],[-1.010967,50.8902964],[-1.0101124,50.8867537],[-0.9995661,50.8929591],[-0.9987836,50.8954098]]],"type":"Polygon"},"id":"E02006831","properties":{"code":"E02006831","geography":"MSOA","name":"Havant 020"},"type":"Feature"}],"type":"FeatureCollection"}
