{"features":[{"geometry":{"coordinates":[[[0.1546006,51.7670408],[0.1679911,51.7827774],[0.1550104,51.7857989],[0.1535426,51.7937937],[0.1473928,51.7934508],[0.1461142,51.7962373],[0.1324258,51.7958462],[0.1267787,51.7673495],[0.140783,51.7706052],[0.1546006,51.7670408]]],"type":"Polygon"},"id":"E02004544","properties":{"code":"E02004544","geography":"MSOA","name":"Harlow 001"},"type":"Feature"},{"geometry":{"coordinates":[[[0.1267787,51.7673495],[0.1324258,51.7958462],[0.1111266,51.7884449],[0.1072597,51.7879226],[0.1047846,51.7841432],[0.1113578,51.7781049],[0.1142204,51.7650105],[0.1204846,51.7644806],[0.1259688,51.7637628],[0.1267787,51.7673495]]],"type":"Polygon"},"id":"E02004545","properties":{"code":"E02004545","geography":"MSOA","name":"Harlow 002"},"type":"Feature"},{"geometry":{"coordinates":[[[0.1142204,51.7650105],[0.1113578,51.7781049],[0.1047846,51.7841432],[0.1072597,51.7879226],[0.099227,51.7832249],[0.0897935,51.7839996],[0.0953519,51.7729071],[0.0975541,51.7678245],[0.1142204,51.7650105]]],"type":"Polygon"},"id":"E02004546","properties":{"code":"E02004546","geography":"MSOA","name":"Harlow 003"},"type":"Feature"},{"geometry":{"coordinates":[[[0.0953519,51.7729071],[0.0897935,51.7839996],[0.0636564,51.7839473],[0.0576478,51.7796655],[0.0612411,51.778001],[0.0540421,51.7755301],[0.0548433,51.7663048],[0.0584328,51.7611411],[0.0653995,51.7615626],[0.0830743,51.7615353],[0.0889305,51.7652144],[0.0894321,51.7706674],[0.0953519,51.7729071]]],"type":"Polygon"},"id":"E02004547","properties":{"code":"E02004547","geography":"MSOA","name":"Harlow 004"},"type":"Feature"},{"geometry":{"coordinates":[[[0.1546006,51.7670408],[0.140783,51.7706052],[0.1267787,51.7673495],[0.1259688,51.7637628],[0.1481082,51.7590617],[0.1546006,51.7670408]]],"type":"Polygon"},"id":"E02004548","properties":{"code":"E02004548","geography":"MSOA","name":"Harlow 005"},"type":"Feature"},{"geometry":{"coordinates":[[[0.1142204,51.7650105],[0.0975541,51.7678245],[0.0938013,51.7594104],[0.1011708,51.7600048],[0.1063339,51.7540405],[0.1158634,51.7548961],[0.1217763,51.7587659],[0.1204846,51.7644806],[0.1142204,51.7650105]]],"type":"Polygon"},"id":"E02004549","properties":{"code":"E02004549","geography":"MSOA","name":"Harlow 006"},"type":"Feature"},{"geometry":{"coordinates":[[[0.0975541,51.7678245],[0.0953519,51.7729071],[0.0894321,51.7706674],[0.0889305,51.7652144],[0.0830743,51.7615353],[0.0862947,51.7622543],[0.0874361,51.7578792],[0.0821668,51.7564428],[0.084058,51.7527011],[0.0873128,51.7532613],[0.1063339,51.7540405],[0.1011708,51.7600048],[0.0938013,51.7594104],[0.0975541,51.7678245]]],"type":"Polygon"},"id":"E02004550","properties":{"code":"E02004550","geography":"MSOA","name":"Harlow 007"},"type":"Feature"},{"geometry":{"coordinates":[[[0.1259688,51.7637628],[0.1204846,51.7644806],[0.1217763,51.7587659],[0.1158634,51.7548961],[0.1183564,51.7482212],[0.1267977,51.7491195],[0.1265827,51.7521352],[0.1481082,51.7590617],[0.1259688,51.7637628]]],"type":"Polygon"},"id":"E02004551","properties":{"code":"E02004551","geography":"MSOA","name":"Harlow 008"},"type":"Feature"},{"geometry":{"coordinates":[[[0.084058,51.7527011],[0.0821668,51.7564428],[0.0874361,51.7578792],[0.0862947,51.7622543],[0.0830743,51.7615353],[0.0653995,51.7615626],[0.0634372,51.7522125],[0.0726681,51.7459537],[0.0728214,51.7535095],[0.084058,51.7527011]]],"type":"Polygon"},"id":"E02004552","properties":{"code":"E02004552","geography":"MSOA","name":"Harlow 009"},"type":"Feature"},{"geometry":{"coordinates":[[[0.1183564,51.7482212],[0.1158634,51.7548961],[0.1063339,51.7540405],[0.0873128,51.7532613],[0.0878821,51.7498684],[0.0986845,51.7473996],[0.095044,51.7459637],[0.0974089,51.7432578],[0.1183564,51.7482212]]],"type":"Polygon"},"id":"E02004553","properties":{"code":"E02004553","geography":"MSOA","name":"Harlow 010"},"type":"Feature"},{"geometry":{"coordinates":[[[0.0974089,51.7432578],[0.095044,51.7459637],[0.0986845,51.7473996],[0.0878821,51.7498684],[0.0873128,51.7532613],[0.084058,51.7527011],[0.0728214,51.7535095],[0.0726681,51.7459537],[0.0842668,51.7346829],[0.1000499,51.7393371],[0.0974089,51.7432578]]],"type":"Polygon"},"id":"E02004554","properties":{"code":"E02004554","geography":"MSOA","name":"Harlow 011"},"type":"Feature"}],"type":"FeatureCollection"}
