{"features":[{"geometry":{"coordinates":[[[-1.4983133,51.3293787],[-1.5162947,51.3393572],[-1.5275218,51.3384686],[-1.5335754,51.3162263],[-1.5252382,51.3070697],[-1.5280363,51.2998113],[-1.5195246,51.2959415],[-1.5241598,51.293164],[-1.5228203,51.2870611],[-1.5345239,51.2870946],[-1.5425961,51.2812539],[-1.535929,51.2773073],[-1.5405245,51.2608371],[-1.5305819,51.2626202],[-1.5298345,51.2605174],[-1.5359668,51.2486224],[-1.5278179,51.2500808],[-1.5120656,51.2439809],[-1.5085718,51.2372168],[-1.5164912,51.2189206],[-1.5054431,51.2177403],[-1.4805874,51.2169555],[-1.4856605,51.2207809],[-1.4831532,51.2266664],[-1.479604,51.229765],[-1.4955128,51.2254591],[-1.4942975,51.2341882],[-1.4992743,51.2360356],[-1.4898855,51.2459733],[-1.4784364,51.2447622],[-1.4803892,51.262291],[-1.4601659,51.255894],[-1.4469643,51.267922],[-1.4220742,51.2774112],[-1.4168638,51.2828763],[-1.4192766,51.2930291],[-1.4286662,51.3003925],[-1.4184231,51.3263917],[-1.4233195,51.3309264],[-1.4218458,51.3358963],[-1.429709,51.3365322],[-1.4983133,51.3293787]]],"type":"Polygon"},"id":"E02004814","properties":{"code":"E02004814","geography":"MSOA","name":"Test Valley 001"},"type":"Feature"},{"geometry":{"coordinates":[[[-1.4654342,51.2201512],[-1.4753289,51.2298556],[-1.476439,51.2269063],[-1.4831532,51.2266664],[-1.4856605,51.2207809],[-1.4805874,51.2169555],[-1.4711625,51.2195155],[-1.4652298,51.2154994],[-1.4654342,51.2201512]]],"type":"Polygon"},"id":"E02004815","properties":{"code":"E02004815","geography":"MSOA","name":"Test Valley 002"},"type":"Feature"},{"geometry":{"coordinates":[[[-1.4652298,51.2154994],[-1.4711625,51.2195155],[-1.4805874,51.2169555],[-1.5054431,51.2177403],[-1.5010363,51.2157203],[-1.5004377,51.2087066],[-1.4965415,51.2100521],[-1.4940731,51.2072128],[-1.4896743,51.2092645],[-1.4883081,51.2062258],[-1.4808246,51.2063368],[-1.4795817,51.2145843],[-1.4758256,51.2154204],[-1.4756706,51.2101967],[-1.4634563,51.2153463],[-1.4652298,51.2154994]]],"type":"Polygon"},"id":"E02004817","properties":{"code":"E02004817","geography":"MSOA","name":"Test Valley 004"},"type":"Feature"},{"geometry":{"coordinates":[[[-1.5359668,51.2486224],[-1.5451722,51.2451024],[-1.5635294,51.2521876],[-1.5709827,51.2419094],[-1.5692102,51.2196695],[-1.5658687,51.2236624],[-1.5539566,51.2194407],[-1.5405723,51.2089898],[-1.5316041,51.2099415],[-1.5477811,51.1987866],[-1.5596808,51.1840881],[-1.5637291,51.1602723],[-1.5572688,51.1597374],[-1.5443662,51.1579685],[-1.5246355,51.1730156],[-1.5134013,51.1882332],[-1.5074823,51.1866263],[-1.4944494,51.1914526],[-1.5012997,51.1957027],[-1.5118111,51.1922794],[-1.5110537,51.1949676],[-1.5031496,51.1964243],[-1.503513,51.1991698],[-1.4962596,51.2024639],[-1.4980495,51.2075109],[-1.5030448,51.2065337],[-1.5004377,51.2087066],[-1.5010363,51.2157203],[-1.5054431,51.2177403],[-1.5164912,51.2189206],[-1.5085718,51.2372168],[-1.5120656,51.2439809],[-1.5278179,51.2500808],[-1.5359668,51.2486224]]],"type":"Polygon"},"id":"E02004818","properties":{"code":"E02004818","geography":"MSOA","name":"Test Valley 005"},"type":"Feature"},{"geometry":{"coordinates":[[[-1.4808246,51.2063368],[-1.4883081,51.2062258],[-1.4896743,51.2092645],[-1.4940731,51.2072128],[-1.4965415,51.2100521],[-1.5004377,51.2087066],[-1.5030448,51.2065337],[-1.4980495,51.2075109],[-1.4962596,51.2024639],[-1.503513,51.1991698],[-1.4930554,51.1967056],[-1.4824169,51.1944983],[-1.471021,51.1967491],[-1.4737827,51.2062304],[-1.4808246,51.2063368]]],"type":"Polygon"},"id":"E02004819","properties":{"code":"E02004819","geography":"MSOA","name":"Test Valley 006"},"type":"Feature"},{"geometry":{"coordinates":[[[-1.5635294,51.2521876],[-1.5776476,51.2556337],[-1.6001978,51.2535279],[-1.6007323,51.25072],[-1.6074345,51.2527689],[-1.6104045,51.2429833],[-1.6193467,51.2412215],[-1.6224612,51.2344027],[-1.6335521,51.21752],[-1.6535079,51.2204716],[-1.6898005,51.2147731],[-1.6928043,51.2030542],[-1.6688472,51.1907769],[-1.6723793,51.1785488],[-1.6539971,51.1560289],[-1.6608476,51.1344272],[-1.6026737,51.1364859],[-1.5865243,51.1433773],[-1.5815066,51.1372657],[-1.5572688,51.1597374],[-1.5637291,51.1602723],[-1.5596808,51.1840881],[-1.5477811,51.1987866],[-1.5316041,51.2099415],[-1.5405723,51.2089898],[-1.5539566,51.2194407],[-1.5658687,51.2236624],[-1.5692102,51.2196695],[-1.5709827,51.2419094],[-1.5635294,51.2521876]]],"type":"Polygon"},"id":"E02004820","properties":{"code":"E02004820","geography":"MSOA","name":"Test Valley 007"},"type":"Feature"},{"geometry":{"coordinates":[[[-1.3088383,51.1947423],[-1.3409539,51.1845831],[-1.3416266,51.2056577],[-1.3581929,51.2120246],[-1.3600553,51.2045716],[-1.3688772,51.2024097],[-1.3836805,51.2149041],[-1.4211048,51.2237404],[-1.4253084,51.221849],[-1.4237966,51.2140547],[-1.435438,51.2077405],[-1.4351623,51.2048392],[-1.4465191,51.2007402],[-1.4524347,51.2016031],[-1.4554221,51.198141],[-1.4606776,51.1993889],[-1.4711636,51.1943884],[-1.4869189,51.1926964],[-1.4930554,51.1967056],[-1.503513,51.1991698],[-1.5031496,51.1964243],[-1.5110537,51.1949676],[-1.5118111,51.1922794],[-1.5012997,51.1957027],[-1.4944494,51.1914526],[-1.5074823,51.1866263],[-1.5134013,51.1882332],[-1.5246355,51.1730156],[-1.5443662,51.1579685],[-1.5296058,51.1436478],[-1.5051015,51.1507377],[-1.4734889,51.1509756],[-1.4670822,51.1451248],[-1.4606918,51.1495916],[-1.456018,51.148279],[-1.4586185,51.1448463],[-1.4774857,51.1388839],[-1.483435,51.1306663],[-1.4802469,51.1280688],[-1.4915655,51.1246224],[-1.4980191,51.1146963],[-1.485617,51.1118878],[-1.4983301,51.109191],[-1.4976197,51.1009327],[-1.4947079,51.1044261],[-1.487639,51.1040303],[-1.4819456,51.107139],[-1.4633985,51.1024353],[-1.4591966,51.1058572],[-1.461964,51.1096187],[-1.4450044,51.1076714],[-1.4590929,51.1162374],[-1.4370504,51.1270084],[-1.4258175,51.1205299],[-1.4282411,51.1183601],[-1.414378,51.1128812],[-1.4115643,51.1106899],[-1.4036817,51.1130455],[-1.4070006,51.1206059],[-1.380265,51.1241236],[-1.3702358,51.129147],[-1.3777789,51.1363362],[-1.364081,51.1497327],[-1.3482271,51.1555316],[-1.34771,51.1595294],[-1.3368915,51.1591104],[-1.3372344,51.1673881],[-1.3286576,51.1716851],[-1.331039,51.1739819],[-1.3088383,51.1947423]]],"type":"Polygon"},"id":"E02004821","properties":{"code":"E02004821","geography":"MSOA","name":"Test Valley 008"},"type":"Feature"},{"geometry":{"coordinates":[[[-1.5443662,51.1579685],[-1.5572688,51.1597374],[-1.5815066,51.1372657],[-1.5865243,51.1433773],[-1.6026737,51.1364859],[-1.6608476,51.1344272],[-1.6629868,51.1271974],[-1.6405925,51.1253876],[-1.6262628,51.1173433],[-1.6309421,51.1111585],[-1.6269675,51.1028698],[-1.6373229,51.0921715],[-1.62774,51.0780171],[-1.6349534,51.0405666],[-1.6323875,51.0327857],[-1.619469,51.0330655],[-1.5994088,51.0237355],[-1.5890467,51.0189547],[-1.5853851,51.0207866],[-1.5724114,51.017929],[-1.5596212,51.0102314],[-1.5519509,51.0124255],[-1.5481723,51.0156544],[-1.5510695,51.0166089],[-1.5453431,51.0170625],[-1.5386296,51.0249799],[-1.5339197,51.0222998],[-1.530142,51.0271961],[-1.5208912,51.0179758],[-1.5108065,51.0152712],[-1.4971555,51.0053676],[-1.500249,51.0109894],[-1.4972482,51.0140699],[-1.4920331,51.0123439],[-1.4894029,51.0158784],[-1.4781469,51.0169131],[-1.4768268,51.0212271],[-1.4841584,51.0212483],[-1.4808674,51.0235076],[-1.4858728,51.0246016],[-1.4796521,51.0271123],[-1.4858789,51.0340093],[-1.4816572,51.0363143],[-1.4845937,51.0409726],[-1.4755562,51.0460282],[-1.4654051,51.0472899],[-1.4669929,51.0498986],[-1.4579596,51.0535735],[-1.4537666,51.0489285],[-1.4471299,51.0522097],[-1.436055,51.059546],[-1.4154811,51.0626783],[-1.4100871,51.0766957],[-1.4158671,51.0771331],[-1.411974,51.0855646],[-1.4145463,51.0956978],[-1.4299872,51.0944371],[-1.4311858,51.098153],[-1.4363043,51.0978945],[-1.4362835,51.1120481],[-1.4314294,51.1167912],[-1.4184509,51.1099151],[-1.414378,51.1128812],[-1.4282411,51.1183601],[-1.4258175,51.1205299],[-1.4370504,51.1270084],[-1.4590929,51.1162374],[-1.4450044,51.1076714],[-1.461964,51.1096187],[-1.4591966,51.1058572],[-1.4633985,51.1024353],[-1.4819456,51.107139],[-1.487639,51.1040303],[-1.4947079,51.1044261],[-1.4976197,51.1009327],[-1.4983301,51.109191],[-1.485617,51.1118878],[-1.4980191,51.1146963],[-1.4915655,51.1246224],[-1.4802469,51.1280688],[-1.483435,51.1306663],[-1.4774857,51.1388839],[-1.4586185,51.1448463],[-1.456018,51.148279],[-1.4606918,51.1495916],[-1.4670822,51.1451248],[-1.4734889,51.1509756],[-1.5051015,51.1507377],[-1.5296058,51.1436478],[-1.5443662,51.1579685]]],"type":"Polygon"},"id":"E02004822","properties":{"code":"E02004822","geography":"MSOA","name":"Test Valley 009"},"type":"Feature"},{"geometry":{"coordinates":[[[-1.4728423,51.001467],[-1.479938,51.0024633],[-1.4960299,50.9967715],[-1.4983562,50.998608],[-1.4939537,50.9929971],[-1.4758681,50.9892678],[-1.4791821,50.9865294],[-1.4629501,50.9847763],[-1.471066,50.9870529],[-1.4728423,51.001467]]],"type":"Polygon"},"id":"E02004823","properties":{"code":"E02004823","geography":"MSOA","name":"Test Valley 010"},"type":"Feature"},{"geometry":{"coordinates":[[[-1.4791821,50.9865294],[-1.4758681,50.9892678],[-1.4939537,50.9929971],[-1.4983562,50.998608],[-1.5097906,50.9962594],[-1.5076762,50.9815719],[-1.4896698,50.9880879],[-1.4869309,50.9845432],[-1.4791821,50.9865294]]],"type":"Polygon"},"id":"E02004824","properties":{"code":"E02004824","geography":"MSOA","name":"Test Valley 011"},"type":"Feature"},{"geometry":{"coordinates":[[[-1.4471299,51.0522097],[-1.4537666,51.0489285],[-1.4579596,51.0535735],[-1.4669929,51.0498986],[-1.4654051,51.0472899],[-1.4755562,51.0460282],[-1.4845937,51.0409726],[-1.4816572,51.0363143],[-1.4858789,51.0340093],[-1.4796521,51.0271123],[-1.4858728,51.0246016],[-1.4808674,51.0235076],[-1.4841584,51.0212483],[-1.4768268,51.0212271],[-1.4781469,51.0169131],[-1.4774366,51.008834],[-1.4628026,51.0101857],[-1.4613606,51.0145772],[-1.4525777,51.0085419],[-1.4526165,51.0047198],[-1.4620353,50.9977566],[-1.4665673,50.9976522],[-1.465356,51.0025091],[-1.4728423,51.001467],[-1.471066,50.9870529],[-1.4629501,50.9847763],[-1.4625797,50.9786767],[-1.456755,50.977056],[-1.4579337,50.97273],[-1.4441869,50.9703956],[-1.4321556,50.974514],[-1.4331042,50.976371],[-1.4111349,50.9743232],[-1.4129286,50.9888237],[-1.3996532,50.9946815],[-1.3919433,50.9992268],[-1.3929851,51.0043687],[-1.394385,51.0097208],[-1.3985486,51.0082914],[-1.4112089,51.0141187],[-1.4210236,51.0138221],[-1.4299947,51.0240737],[-1.4396956,51.0244203],[-1.4448007,51.0275377],[-1.4471762,51.0346214],[-1.456514,51.0411288],[-1.4471299,51.0522097]]],"type":"Polygon"},"id":"E02004825","properties":{"code":"E02004825","geography":"MSOA","name":"Test Valley 012"},"type":"Feature"},{"geometry":{"coordinates":[[[-1.4781469,51.0169131],[-1.4894029,51.0158784],[-1.4920331,51.0123439],[-1.4972482,51.0140699],[-1.500249,51.0109894],[-1.4971555,51.0053676],[-1.5108065,51.0152712],[-1.5208912,51.0179758],[-1.530142,51.0271961],[-1.5339197,51.0222998],[-1.5386296,51.0249799],[-1.5453431,51.0170625],[-1.5510695,51.0166089],[-1.5481723,51.0156544],[-1.5519509,51.0124255],[-1.5596212,51.0102314],[-1.5724114,51.017929],[-1.5853851,51.0207866],[-1.5890467,51.0189547],[-1.5994088,51.0237355],[-1.6053808,51.0172646],[-1.5975354,51.0080619],[-1.6050264,51.0070121],[-1.6091001,51.0098195],[-1.6149417,51.0066629],[-1.6060896,51.0019044],[-1.6172426,51.0041886],[-1.6288156,50.9991012],[-1.6252067,50.9903324],[-1.6189649,50.9873729],[-1.619655,50.9830035],[-1.6144296,50.9795018],[-1.6029341,50.9785241],[-1.6197614,50.9585744],[-1.607756,50.9549691],[-1.5965063,50.9560792],[-1.5900948,50.9512725],[-1.5840853,50.962125],[-1.5756924,50.9607831],[-1.5446817,50.9692397],[-1.5342773,50.959064],[-1.5344072,50.9546421],[-1.5291122,50.9503698],[-1.5215501,50.9522345],[-1.5099778,50.9501148],[-1.5076677,50.9412579],[-1.4972422,50.9420376],[-1.4953041,50.9480715],[-1.4864507,50.948467],[-1.4805535,50.9568404],[-1.4711288,50.9541906],[-1.4779965,50.9684375],[-1.4579337,50.97273],[-1.456755,50.977056],[-1.4625797,50.9786767],[-1.4629501,50.9847763],[-1.4791821,50.9865294],[-1.4869309,50.9845432],[-1.4896698,50.9880879],[-1.5076762,50.9815719],[-1.5097906,50.9962594],[-1.4983562,50.998608],[-1.4960299,50.9967715],[-1.479938,51.0024633],[-1.4728423,51.001467],[-1.465356,51.0025091],[-1.4665673,50.9976522],[-1.4620353,50.9977566],[-1.4526165,51.0047198],[-1.4525777,51.0085419],[-1.4613606,51.0145772],[-1.4628026,51.0101857],[-1.4774366,51.008834],[-1.4781469,51.0169131]]],"type":"Polygon"},"id":"E02004826","properties":{"code":"E02004826","geography":"MSOA","name":"Test Valley 013"},"type":"Feature"},{"geometry":{"coordinates":[[[-1.3969357,50.9902001],[-1.3996532,50.9946815],[-1.4129286,50.9888237],[-1.4111349,50.9743232],[-1.4036218,50.9750226],[-1.39555,50.9704837],[-1.3923961,50.9762821],[-1.3959692,50.9789812],[-1.3910632,50.9828651],[-1.3969357,50.9902001]]],"type":"Polygon"},"id":"E02004827","properties":{"code":"E02004827","geography":"MSOA","name":"Test Valley 014"},"type":"Feature"},{"geometry":{"coordinates":[[[-1.4111349,50.9743232],[-1.4331042,50.976371],[-1.4321556,50.974514],[-1.4441869,50.9703956],[-1.4579337,50.97273],[-1.4779965,50.9684375],[-1.4711288,50.9541906],[-1.4805535,50.9568404],[-1.4864507,50.948467],[-1.4953041,50.9480715],[-1.4972422,50.9420376],[-1.5076677,50.9412579],[-1.5052249,50.9388251],[-1.5002773,50.9345317],[-1.4905414,50.9335351],[-1.4850402,50.9327683],[-1.4829472,50.9283577],[-1.4821639,50.9312194],[-1.4773367,50.9284697],[-1.4704982,50.9315282],[-1.4594541,50.9431844],[-1.4559643,50.9460764],[-1.4522245,50.9437196],[-1.4495548,50.9499194],[-1.4416068,50.9471021],[-1.4357263,50.949],[-1.4237101,50.9472581],[-1.4210497,50.9517141],[-1.4096911,50.9497796],[-1.4061387,50.9561778],[-1.4013669,50.9503983],[-1.3928715,50.9493905],[-1.3908359,50.9465274],[-1.3799018,50.9475268],[-1.3740444,50.9539842],[-1.3844893,50.9562769],[-1.3829567,50.9607724],[-1.3927716,50.9644952],[-1.39555,50.9704837],[-1.4036218,50.9750226],[-1.4111349,50.9743232]]],"type":"Polygon"},"id":"E02004828","properties":{"code":"E02004828","geography":"MSOA","name":"Test Valley 015"},"type":"Feature"},{"geometry":{"coordinates":[[[-1.4601659,51.255894],[-1.4803892,51.262291],[-1.4784364,51.2447622],[-1.4898855,51.2459733],[-1.4992743,51.2360356],[-1.4942975,51.2341882],[-1.4955128,51.2254591],[-1.479604,51.229765],[-1.4831532,51.2266664],[-1.476439,51.2269063],[-1.4753289,51.2298556],[-1.4654342,51.2201512],[-1.4276485,51.2270327],[-1.4278087,51.2335347],[-1.4431613,51.2480154],[-1.4601659,51.255894]]],"type":"Polygon"},"id":"E02007076","properties":{"code":"E02007076","geography":"MSOA","name":"Test Valley 016"},"type":"Feature"},{"geometry":{"coordinates":[[[-1.4211048,51.2237404],[-1.4276485,51.2270327],[-1.4654342,51.2201512],[-1.4652298,51.2154994],[-1.4634563,51.2153463],[-1.459193,51.2141911],[-1.4619265,51.2102499],[-1.4549796,51.2107644],[-1.4465191,51.2007402],[-1.4351623,51.2048392],[-1.435438,51.2077405],[-1.4237966,51.2140547],[-1.4253084,51.221849],[-1.4211048,51.2237404]]],"type":"Polygon"},"id":"E02007077","properties":{"code":"E02007077","geography":"MSOA","name":"Test Valley 017"},"type":"Feature"},{"geometry":{"coordinates":[[[-1.4634563,51.2153463],[-1.4756706,51.2101967],[-1.4758256,51.2154204],[-1.4795817,51.2145843],[-1.4808246,51.2063368],[-1.4737827,51.2062304],[-1.471021,51.1967491],[-1.4824169,51.1944983],[-1.4930554,51.1967056],[-1.4869189,51.1926964],[-1.4711636,51.1943884],[-1.4606776,51.1993889],[-1.4554221,51.198141],[-1.4524347,51.2016031],[-1.4465191,51.2007402],[-1.4549796,51.2107644],[-1.4619265,51.2102499],[-1.459193,51.2141911],[-1.4634563,51.2153463]]],"type":"Polygon"},"id":"E02007078","properties":{"code":"E02007078","geography":"MSOA","name":"Test Valley 018"},"type":"Feature"}],"type":"FeatureCollection"}
