{"features":[{"geometry":{"coordinates":[[[-2.1628736,53.9272559],[-2.162073,53.9326097],[-2.1697847,53.9369963],[-2.1759421,53.9342462],[-2.1822785,53.9353762],[-2.1903609,53.9367593],[-2.1920818,53.9330617],[-2.1872662,53.9291593],[-2.2050149,53.9263163],[-2.204774,53.9223256],[-2.1978114,53.9181782],[-2.1896001,53.919343],[-2.1880647,53.9165303],[-2.1712739,53.9204149],[-2.1634801,53.9226606],[-2.1628736,53.9272559]]],"type":"Polygon"},"id":"E02005240","properties":{"code":"E02005240","geography":"MSOA","name":"Pendle 001"},"type":"Feature"},{"geometry":{"coordinates":[[[-2.1822785,53.9353762],[-2.1854851,53.9418728],[-2.1794654,53.9459714],[-2.1845198,53.9522507],[-2.2156141,53.9415101],[-2.2254182,53.9436447],[-2.245838,53.933249],[-2.2349535,53.9079484],[-2.2231102,53.8940299],[-2.2202849,53.8960417],[-2.2140429,53.8925608],[-2.2057757,53.8815565],[-2.2012475,53.8833703],[-2.2043903,53.8877557],[-2.1942185,53.9012578],[-2.178921,53.9057171],[-2.1819068,53.9076259],[-2.1750488,53.9072358],[-2.1712739,53.9204149],[-2.1880647,53.9165303],[-2.1896001,53.919343],[-2.1978114,53.9181782],[-2.204774,53.9223256],[-2.2050149,53.9263163],[-2.1872662,53.9291593],[-2.1920818,53.9330617],[-2.1903609,53.9367593],[-2.1822785,53.9353762]]],"type":"Polygon"},"id":"E02005241","properties":{"code":"E02005241","geography":"MSOA","name":"Pendle 002"},"type":"Feature"},{"geometry":{"coordinates":[[[-2.1034143,53.8918788],[-2.1131729,53.9045973],[-2.1074642,53.9080284],[-2.1133427,53.9156128],[-2.1217549,53.9173167],[-2.1243468,53.9231865],[-2.1399743,53.9283112],[-2.141795,53.9256604],[-2.1494296,53.926014],[-2.1517129,53.92947],[-2.1628736,53.9272559],[-2.1634801,53.9226606],[-2.1712739,53.9204149],[-2.1750488,53.9072358],[-2.1819068,53.9076259],[-2.178921,53.9057171],[-2.1942185,53.9012578],[-2.2043903,53.8877557],[-2.2012475,53.8833703],[-2.2057757,53.8815565],[-2.1983671,53.8787814],[-2.1851766,53.8820679],[-2.1852134,53.8862952],[-2.1798654,53.8867795],[-2.176665,53.8919067],[-2.1683277,53.8920782],[-2.1507657,53.8855459],[-2.1284813,53.8838473],[-2.1034143,53.8918788]]],"type":"Polygon"},"id":"E02005242","properties":{"code":"E02005242","geography":"MSOA","name":"Pendle 003"},"type":"Feature"},{"geometry":{"coordinates":[[[-2.1034143,53.8918788],[-2.1284813,53.8838473],[-2.1507657,53.8855459],[-2.1683277,53.8920782],[-2.176665,53.8919067],[-2.1798654,53.8867795],[-2.1852134,53.8862952],[-2.1851766,53.8820679],[-2.1983671,53.8787814],[-2.1993595,53.8744594],[-2.1903703,53.871646],[-2.1766652,53.872457],[-2.1687153,53.8699718],[-2.165685,53.8649958],[-2.1466611,53.8682359],[-2.1427953,53.8719558],[-2.1407869,53.8652803],[-2.1589363,53.8578628],[-2.1600631,53.8548013],[-2.1515354,53.8527941],[-2.1624321,53.8480872],[-2.1612975,53.8435405],[-2.1525151,53.8399698],[-2.1492245,53.8291885],[-2.1417724,53.827382],[-2.1492784,53.8239232],[-2.1486846,53.8198456],[-2.1421116,53.8204331],[-2.1353437,53.8159433],[-2.1286209,53.8197812],[-2.1122771,53.8056939],[-2.0612482,53.8256212],[-2.0469224,53.8294962],[-2.0461285,53.8501277],[-2.0748469,53.8623532],[-2.0811887,53.8699574],[-2.0899124,53.868168],[-2.0824547,53.8775407],[-2.1034143,53.8918788]]],"type":"Polygon"},"id":"E02005245","properties":{"code":"E02005245","geography":"MSOA","name":"Pendle 006"},"type":"Feature"},{"geometry":{"coordinates":[[[-2.1612975,53.8435405],[-2.1624321,53.8480872],[-2.1515354,53.8527941],[-2.1600631,53.8548013],[-2.1589363,53.8578628],[-2.197987,53.8537843],[-2.2032744,53.8504496],[-2.1967347,53.8456826],[-2.1876284,53.8434001],[-2.1854877,53.845743],[-2.1702704,53.8412579],[-2.1612975,53.8435405]]],"type":"Polygon"},"id":"E02005246","properties":{"code":"E02005246","geography":"MSOA","name":"Pendle 007"},"type":"Feature"},{"geometry":{"coordinates":[[[-2.2057757,53.8815565],[-2.2140429,53.8925608],[-2.2202849,53.8960417],[-2.2231102,53.8940299],[-2.2266279,53.8894982],[-2.2591949,53.8820207],[-2.2587721,53.8778492],[-2.2656872,53.8758043],[-2.273695,53.878964],[-2.3050921,53.8706604],[-2.3200392,53.8603143],[-2.3142656,53.854297],[-2.3251713,53.8511065],[-2.3185328,53.8500336],[-2.3179281,53.8469081],[-2.3336438,53.8406176],[-2.3025732,53.8363812],[-2.3058278,53.8295884],[-2.317136,53.8278402],[-2.3178441,53.8170433],[-2.3131769,53.812348],[-2.3120569,53.8125663],[-2.3019521,53.82114],[-2.3029106,53.8145116],[-2.2970222,53.8143292],[-2.2946042,53.808459],[-2.2827224,53.8072692],[-2.2698896,53.8150399],[-2.2770692,53.8235934],[-2.2538347,53.8310118],[-2.2438342,53.8273065],[-2.2402092,53.8335677],[-2.2322156,53.8364436],[-2.2254206,53.8396748],[-2.2250266,53.8457354],[-2.2032744,53.8504496],[-2.197987,53.8537843],[-2.194938,53.8572454],[-2.2048989,53.8584882],[-2.1954957,53.8666905],[-2.1993595,53.8744594],[-2.1983671,53.8787814],[-2.2057757,53.8815565]]],"type":"Polygon"},"id":"E02005247","properties":{"code":"E02005247","geography":"MSOA","name":"Pendle 008"},"type":"Feature"},{"geometry":{"coordinates":[[[-2.1967347,53.8456826],[-2.2032744,53.8504496],[-2.2250266,53.8457354],[-2.2254206,53.8396748],[-2.2182997,53.8401073],[-2.211789,53.8357474],[-2.1967347,53.8456826]]],"type":"Polygon"},"id":"E02005248","properties":{"code":"E02005248","geography":"MSOA","name":"Pendle 009"},"type":"Feature"},{"geometry":{"coordinates":[[[-2.1876284,53.8434001],[-2.1967347,53.8456826],[-2.211789,53.8357474],[-2.2104723,53.8315935],[-2.2156686,53.8281103],[-2.2075504,53.8300723],[-2.1995698,53.8283526],[-2.1986025,53.8387273],[-2.1876284,53.8434001]]],"type":"Polygon"},"id":"E02005249","properties":{"code":"E02005249","geography":"MSOA","name":"Pendle 010"},"type":"Feature"},{"geometry":{"coordinates":[[[-2.211789,53.8357474],[-2.2182997,53.8401073],[-2.2254206,53.8396748],[-2.2322156,53.8364436],[-2.2304607,53.8327608],[-2.2345213,53.8309666],[-2.2231329,53.8268419],[-2.2192929,53.825431],[-2.2156686,53.8281103],[-2.2104723,53.8315935],[-2.211789,53.8357474]]],"type":"Polygon"},"id":"E02005250","properties":{"code":"E02005250","geography":"MSOA","name":"Pendle 011"},"type":"Feature"},{"geometry":{"coordinates":[[[-2.1612975,53.8435405],[-2.1702704,53.8412579],[-2.1854877,53.845743],[-2.1876284,53.8434001],[-2.1986025,53.8387273],[-2.1995698,53.8283526],[-2.2075504,53.8300723],[-2.2156686,53.8281103],[-2.2192929,53.825431],[-2.2231329,53.8268419],[-2.2291201,53.8252612],[-2.2032576,53.8213457],[-2.1994599,53.8182041],[-2.1948262,53.8219579],[-2.196733,53.8252803],[-2.1829799,53.8221558],[-2.1521322,53.8237162],[-2.1486846,53.8198456],[-2.1492784,53.8239232],[-2.1417724,53.827382],[-2.1492245,53.8291885],[-2.1525151,53.8399698],[-2.1612975,53.8435405]]],"type":"Polygon"},"id":"E02005251","properties":{"code":"E02005251","geography":"MSOA","name":"Pendle 012"},"type":"Feature"},{"geometry":{"coordinates":[[[-2.2231329,53.8268419],[-2.2345213,53.8309666],[-2.2304607,53.8327608],[-2.2322156,53.8364436],[-2.2402092,53.8335677],[-2.2438342,53.8273065],[-2.2538347,53.8310118],[-2.2770692,53.8235934],[-2.2698896,53.8150399],[-2.2610685,53.8077531],[-2.2489006,53.8118963],[-2.2354043,53.8137768],[-2.2239685,53.8178363],[-2.2064404,53.8124087],[-2.1994599,53.8182041],[-2.2032576,53.8213457],[-2.2291201,53.8252612],[-2.2231329,53.8268419]]],"type":"Polygon"},"id":"E02005252","properties":{"code":"E02005252","geography":"MSOA","name":"Pendle 013"},"type":"Feature"},{"geometry":{"coordinates":[[[-2.1589363,53.8578628],[-2.1407869,53.8652803],[-2.1427953,53.8719558],[-2.1466611,53.8682359],[-2.165685,53.8649958],[-2.1687153,53.8699718],[-2.1766652,53.872457],[-2.1903703,53.871646],[-2.1993595,53.8744594],[-2.1954957,53.8666905],[-2.2048989,53.8584882],[-2.194938,53.8572454],[-2.197987,53.8537843],[-2.1589363,53.8578628]]],"type":"Polygon"},"id":"E02007003","properties":{"code":"E02007003","geography":"MSOA","name":"Pendle 014"},"type":"Feature"}],"type":"FeatureCollection"}
