{"features":[{"geometry":{"coordinates":[[[-0.5531259,50.9015246],[-0.5795958,50.8992615],[-0.5937195,50.9028111],[-0.6049823,50.9014767],[-0.6174071,50.9055698],[-0.6336745,50.9048512],[-0.6492231,50.9000195],[-0.6485982,50.9053963],[-0.6549659,50.9056865],[-0.6577877,50.9024159],[-0.6582239,50.8875458],[-0.6498141,50.8857887],[-0.654034,50.8793517],[-0.6505572,50.8667997],[-0.650602,50.8525964],[-0.6412561,50.8540091],[-0.6247228,50.8482235],[-0.6076464,50.8472829],[-0.6020032,50.8439263],[-0.602827,50.8317653],[-0.5692261,50.8322151],[-0.5669068,50.8292963],[-0.5296973,50.8303604],[-0.5253078,50.8479881],[-0.5078636,50.8444282],[-0.4985078,50.8462255],[-0.4954941,50.8557922],[-0.4983486,50.8622913],[-0.4871291,50.8759257],[-0.4813055,50.8758411],[-0.4766113,50.8850635],[-0.4753032,50.8943515],[-0.4820433,50.8943899],[-0.4802888,50.8984517],[-0.4929196,50.8925955],[-0.49314,50.8852708],[-0.499941,50.8998903],[-0.5149496,50.8889506],[-0.5193025,50.8898216],[-0.5248144,50.8829919],[-0.5328471,50.8811587],[-0.5382013,50.8862306],[-0.5471614,50.8845222],[-0.5438193,50.8813258],[-0.5492502,50.8801641],[-0.5610605,50.887858],[-0.5487027,50.8930245],[-0.5461995,50.8896191],[-0.5429873,50.8912238],[-0.5435787,50.8981055],[-0.5531259,50.9015246]]],"type":"Polygon"},"id":"E02006542","properties":{"code":"E02006542","geography":"MSOA","name":"Arun 001"},"type":"Feature"},{"geometry":{"coordinates":[[[-0.3639219,50.8884861],[-0.3800894,50.8856003],[-0.3927408,50.8933797],[-0.4086447,50.8799111],[-0.4131856,50.8795952],[-0.4117648,50.8865662],[-0.4246714,50.8862231],[-0.4271058,50.8930897],[-0.4305403,50.8929803],[-0.440009,50.8775349],[-0.4479583,50.8797318],[-0.4515264,50.8954748],[-0.4553813,50.8968883],[-0.4649453,50.8839789],[-0.4692228,50.8847465],[-0.4766113,50.8850635],[-0.4813055,50.8758411],[-0.4871291,50.8759257],[-0.4983486,50.8622913],[-0.4954941,50.8557922],[-0.4985078,50.8462255],[-0.5078636,50.8444282],[-0.5253078,50.8479881],[-0.5296973,50.8303604],[-0.5149253,50.8238342],[-0.5099322,50.8212149],[-0.5037142,50.8198354],[-0.5004214,50.8248862],[-0.4965079,50.8244968],[-0.5023772,50.8316776],[-0.4861797,50.8280969],[-0.4654812,50.835408],[-0.4674937,50.8310894],[-0.4562039,50.8304177],[-0.4602192,50.8369278],[-0.4465565,50.8363339],[-0.4433696,50.8371997],[-0.4460319,50.8398621],[-0.4223247,50.8406843],[-0.4228188,50.8602421],[-0.4093054,50.8522707],[-0.4033493,50.8564916],[-0.3888141,50.8595542],[-0.3810642,50.8632542],[-0.367479,50.8605387],[-0.3715334,50.8706749],[-0.3646235,50.8745327],[-0.3639219,50.8884861]]],"type":"Polygon"},"id":"E02006543","properties":{"code":"E02006543","geography":"MSOA","name":"Arun 002"},"type":"Feature"},{"geometry":{"coordinates":[[[-0.602827,50.8317653],[-0.6020032,50.8439263],[-0.6076464,50.8472829],[-0.6247228,50.8482235],[-0.6412561,50.8540091],[-0.650602,50.8525964],[-0.6505572,50.8667997],[-0.6811455,50.8632941],[-0.686134,50.8547172],[-0.6941903,50.8448137],[-0.6866283,50.8211277],[-0.6688911,50.814208],[-0.6659698,50.808376],[-0.6551413,50.8060268],[-0.654309,50.809895],[-0.6440394,50.8141404],[-0.6223525,50.8258624],[-0.6227146,50.8329963],[-0.6174129,50.8318653],[-0.6144191,50.8351868],[-0.6087627,50.8310754],[-0.602827,50.8317653]]],"type":"Polygon"},"id":"E02006544","properties":{"code":"E02006544","geography":"MSOA","name":"Arun 003"},"type":"Feature"},{"geometry":{"coordinates":[[[-0.5149253,50.8238342],[-0.5296973,50.8303604],[-0.5669068,50.8292963],[-0.5759405,50.8268861],[-0.5739682,50.8195588],[-0.5709462,50.8161521],[-0.5621033,50.8187522],[-0.5595435,50.8121593],[-0.5562265,50.8140869],[-0.5465331,50.8099634],[-0.5490547,50.8112154],[-0.5444788,50.8162582],[-0.5440649,50.8212363],[-0.5403214,50.817961],[-0.536373,50.8209212],[-0.5289067,50.8199922],[-0.5149253,50.8238342]]],"type":"Polygon"},"id":"E02006545","properties":{"code":"E02006545","geography":"MSOA","name":"Arun 004"},"type":"Feature"},{"geometry":{"coordinates":[[[-0.4562039,50.8304177],[-0.4674937,50.8310894],[-0.4654812,50.835408],[-0.4861797,50.8280969],[-0.5023772,50.8316776],[-0.4965079,50.8244968],[-0.5004214,50.8248862],[-0.5037142,50.8198354],[-0.5099322,50.8212149],[-0.5015273,50.8178362],[-0.4978808,50.8171862],[-0.5013302,50.8131033],[-0.4900999,50.8139196],[-0.4889622,50.8088802],[-0.4870987,50.8112852],[-0.4837111,50.8093136],[-0.4766259,50.811956],[-0.4731029,50.8145603],[-0.4645486,50.812581],[-0.4581681,50.8145212],[-0.4562039,50.8304177]]],"type":"Polygon"},"id":"E02006546","properties":{"code":"E02006546","geography":"MSOA","name":"Arun 005"},"type":"Feature"},{"geometry":{"coordinates":[[[-0.602827,50.8317653],[-0.6087627,50.8310754],[-0.6144191,50.8351868],[-0.6174129,50.8318653],[-0.6227146,50.8329963],[-0.6223525,50.8258624],[-0.6440394,50.8141404],[-0.6287057,50.806434],[-0.5925574,50.8017111],[-0.5944692,50.792565],[-0.582502,50.7950808],[-0.5603313,50.7997378],[-0.5594842,50.7997619],[-0.5555378,50.8036958],[-0.5595435,50.8121593],[-0.5621033,50.8187522],[-0.5709462,50.8161521],[-0.5739682,50.8195588],[-0.5759405,50.8268861],[-0.5669068,50.8292963],[-0.5692261,50.8322151],[-0.602827,50.8317653]]],"type":"Polygon"},"id":"E02006547","properties":{"code":"E02006547","geography":"MSOA","name":"Arun 006"},"type":"Feature"},{"geometry":{"coordinates":[[[-0.5099322,50.8212149],[-0.5149253,50.8238342],[-0.5289067,50.8199922],[-0.536373,50.8209212],[-0.5373379,50.817805],[-0.5250311,50.817749],[-0.5266247,50.8123491],[-0.5159428,50.8115513],[-0.5055978,50.8086725],[-0.5080294,50.8114256],[-0.5015273,50.8178362],[-0.5099322,50.8212149]]],"type":"Polygon"},"id":"E02006548","properties":{"code":"E02006548","geography":"MSOA","name":"Arun 007"},"type":"Feature"},{"geometry":{"coordinates":[[[-0.4465565,50.8363339],[-0.4602192,50.8369278],[-0.4562039,50.8304177],[-0.4581681,50.8145212],[-0.4645486,50.812581],[-0.4731029,50.8145603],[-0.4766259,50.811956],[-0.4757549,50.8024941],[-0.4533004,50.8024495],[-0.4529143,50.8024487],[-0.4359656,50.8031489],[-0.441961,50.8173367],[-0.4465565,50.8363339]]],"type":"Polygon"},"id":"E02006549","properties":{"code":"E02006549","geography":"MSOA","name":"Arun 008"},"type":"Feature"},{"geometry":{"coordinates":[[[-0.536373,50.8209212],[-0.5403214,50.817961],[-0.5440649,50.8212363],[-0.5444788,50.8162582],[-0.5376588,50.812048],[-0.539336,50.8078926],[-0.5274061,50.8059298],[-0.5261633,50.8024931],[-0.5272174,50.8021329],[-0.5227819,50.802103],[-0.5224447,50.8021113],[-0.5219633,50.8021232],[-0.518749,50.8056118],[-0.5175362,50.8029202],[-0.5161688,50.8060192],[-0.5096048,50.8042222],[-0.5159428,50.8115513],[-0.5266247,50.8123491],[-0.5250311,50.817749],[-0.5373379,50.817805],[-0.536373,50.8209212]]],"type":"Polygon"},"id":"E02006550","properties":{"code":"E02006550","geography":"MSOA","name":"Arun 009"},"type":"Feature"},{"geometry":{"coordinates":[[[-0.4766259,50.811956],[-0.4837111,50.8093136],[-0.4870987,50.8112852],[-0.4889622,50.8088802],[-0.4900999,50.8139196],[-0.5013302,50.8131033],[-0.4978808,50.8171862],[-0.5015273,50.8178362],[-0.5080294,50.8114256],[-0.5055978,50.8086725],[-0.5159428,50.8115513],[-0.5096048,50.8042222],[-0.5161688,50.8060192],[-0.5175362,50.8029202],[-0.518749,50.8056118],[-0.5219633,50.8021232],[-0.5074542,50.8024798],[-0.4952282,50.8025293],[-0.4757549,50.8024941],[-0.4766259,50.811956]]],"type":"Polygon"},"id":"E02006551","properties":{"code":"E02006551","geography":"MSOA","name":"Arun 010"},"type":"Feature"},{"geometry":{"coordinates":[[[-0.5272174,50.8021329],[-0.5261633,50.8024931],[-0.5274061,50.8059298],[-0.539336,50.8078926],[-0.5376588,50.812048],[-0.5444788,50.8162582],[-0.5490547,50.8112154],[-0.5465331,50.8099634],[-0.5562265,50.8140869],[-0.5595435,50.8121593],[-0.5555378,50.8036958],[-0.5594842,50.7997619],[-0.5420091,50.8002585],[-0.5450099,50.8050101],[-0.5419399,50.801434],[-0.5381509,50.8022058],[-0.5371167,50.802199],[-0.5272174,50.8021329]]],"type":"Polygon"},"id":"E02006552","properties":{"code":"E02006552","geography":"MSOA","name":"Arun 011"},"type":"Feature"},{"geometry":{"coordinates":[[[-0.6551413,50.8060268],[-0.6659698,50.808376],[-0.6688911,50.814208],[-0.6866283,50.8211277],[-0.689917,50.8128246],[-0.7009454,50.8133606],[-0.71332,50.8083106],[-0.7086692,50.8043648],[-0.7115866,50.799972],[-0.706648,50.7975684],[-0.7087099,50.7935974],[-0.7036712,50.7932457],[-0.7006813,50.7930489],[-0.6840137,50.7972403],[-0.6791966,50.7987133],[-0.6827752,50.8011815],[-0.6697545,50.8036685],[-0.67593,50.80026],[-0.6636857,50.7962119],[-0.6552745,50.8043519],[-0.6551413,50.8060268]]],"type":"Polygon"},"id":"E02006553","properties":{"code":"E02006553","geography":"MSOA","name":"Arun 012"},"type":"Feature"},{"geometry":{"coordinates":[[[-0.5944692,50.792565],[-0.5925574,50.8017111],[-0.6287057,50.806434],[-0.6440394,50.8141404],[-0.654309,50.809895],[-0.6551413,50.8060268],[-0.6552745,50.8043519],[-0.6349119,50.8001217],[-0.6363822,50.7947454],[-0.6282418,50.7974995],[-0.6273748,50.7884808],[-0.6050372,50.7912235],[-0.5949874,50.792456],[-0.5944692,50.792565]]],"type":"Polygon"},"id":"E02006554","properties":{"code":"E02006554","geography":"MSOA","name":"Arun 013"},"type":"Feature"},{"geometry":{"coordinates":[[[-0.6636857,50.7962119],[-0.67593,50.80026],[-0.6697545,50.8036685],[-0.6827752,50.8011815],[-0.6791966,50.7987133],[-0.6840137,50.7972403],[-0.6814018,50.7905167],[-0.6737171,50.7904883],[-0.6711387,50.7878511],[-0.6603352,50.791307],[-0.6636857,50.7962119]]],"type":"Polygon"},"id":"E02006555","properties":{"code":"E02006555","geography":"MSOA","name":"Arun 014"},"type":"Feature"},{"geometry":{"coordinates":[[[-0.6273748,50.7884808],[-0.6282418,50.7974995],[-0.6363822,50.7947454],[-0.6349119,50.8001217],[-0.6552745,50.8043519],[-0.6636857,50.7962119],[-0.6603352,50.791307],[-0.661418,50.7875619],[-0.6564419,50.7861901],[-0.6588191,50.7839918],[-0.6423895,50.7873571],[-0.6273748,50.7884808]]],"type":"Polygon"},"id":"E02006556","properties":{"code":"E02006556","geography":"MSOA","name":"Arun 015"},"type":"Feature"},{"geometry":{"coordinates":[[[-0.6737171,50.7904883],[-0.6814018,50.7905167],[-0.6840137,50.7972403],[-0.7006813,50.7930489],[-0.6961955,50.7854374],[-0.6856044,50.7852585],[-0.6814628,50.7887362],[-0.6759669,50.7860355],[-0.6737171,50.7904883]]],"type":"Polygon"},"id":"E02006557","properties":{"code":"E02006557","geography":"MSOA","name":"Arun 016"},"type":"Feature"},{"geometry":{"coordinates":[[[-0.6588191,50.7839918],[-0.6564419,50.7861901],[-0.661418,50.7875619],[-0.6603352,50.791307],[-0.6711387,50.7878511],[-0.6737171,50.7904883],[-0.6759669,50.7860355],[-0.6814628,50.7887362],[-0.6856044,50.7852585],[-0.6961955,50.7854374],[-0.6878429,50.7816529],[-0.6881329,50.7794105],[-0.6727526,50.7817048],[-0.6718416,50.7818406],[-0.6595283,50.7838464],[-0.6588191,50.7839918]]],"type":"Polygon"},"id":"E02006558","properties":{"code":"E02006558","geography":"MSOA","name":"Arun 017"},"type":"Feature"},{"geometry":{"coordinates":[[[-0.7006813,50.7930489],[-0.7036712,50.7932457],[-0.715775,50.7868159],[-0.7137471,50.7813499],[-0.7194454,50.7783734],[-0.7287057,50.7795227],[-0.728222,50.7712129],[-0.7164363,50.7742607],[-0.6882123,50.7793986],[-0.6881329,50.7794105],[-0.6878429,50.7816529],[-0.6961955,50.7854374],[-0.7006813,50.7930489]]],"type":"Polygon"},"id":"E02006559","properties":{"code":"E02006559","geography":"MSOA","name":"Arun 018"},"type":"Feature"},{"geometry":{"coordinates":[[[[-0.7501021,50.7574656],[-0.7509434,50.7572031],[-0.7505633,50.7570048],[-0.7501021,50.7574656]]],[[[-0.7347605,50.8094525],[-0.7339915,50.8022434],[-0.7393951,50.7971373],[-0.7347251,50.7937333],[-0.755111,50.7906961],[-0.7496007,50.7819779],[-0.7560612,50.7837744],[-0.7590114,50.776875],[-0.7636519,50.7776896],[-0.7622978,50.7728246],[-0.7615455,50.7727268],[-0.7553924,50.7719272],[-0.7569083,50.7676537],[-0.7517793,50.7632527],[-0.75045,50.7626185],[-0.7507306,50.7623527],[-0.7506528,50.7622859],[-0.7497537,50.7615143],[-0.752431,50.7606696],[-0.7525454,50.7606335],[-0.753758,50.7594775],[-0.7525888,50.7580616],[-0.743789,50.7628359],[-0.7453066,50.7629007],[-0.7429535,50.7632893],[-0.7397473,50.7650287],[-0.7385995,50.7663676],[-0.7325799,50.7689165],[-0.7284356,50.7711577],[-0.728222,50.7712129],[-0.7287057,50.7795227],[-0.7194454,50.7783734],[-0.7137471,50.7813499],[-0.715775,50.7868159],[-0.7036712,50.7932457],[-0.7087099,50.7935974],[-0.706648,50.7975684],[-0.7115866,50.799972],[-0.7086692,50.8043648],[-0.71332,50.8083106],[-0.7194387,50.8052492],[-0.7347605,50.8094525]]]],"type":"MultiPolygon"},"id":"E02006560","properties":{"code":"E02006560","geography":"MSOA","name":"Arun 019"},"type":"Feature"}],"type":"FeatureCollection"}
