{"features":[{"geometry":{"coordinates":[[[-2.3513817,52.0213498],[-2.3869846,52.0121575],[-2.3928934,52.0129498],[-2.3990195,51.9961372],[-2.4210136,51.9942328],[-2.4372947,51.9971583],[-2.4336382,52.0078704],[-2.4361162,52.0145651],[-2.4635434,52.0144018],[-2.4625553,52.0219006],[-2.4662061,52.023714],[-2.4789337,52.0225211],[-2.4803668,52.0160517],[-2.4913527,52.0103929],[-2.485498,52.0003241],[-2.4776652,52.0001421],[-2.470981,51.994769],[-2.4886385,51.9873996],[-2.4949132,51.9810671],[-2.4922449,51.9641202],[-2.4990305,51.9637098],[-2.5008531,51.9605254],[-2.4901879,51.9549713],[-2.4861075,51.9574121],[-2.4737291,51.9565304],[-2.4654879,51.951688],[-2.4264665,51.9557515],[-2.4173666,51.9632454],[-2.4184281,51.9587903],[-2.4081908,51.9570052],[-2.4072188,51.9543361],[-2.4038644,51.9597841],[-2.3966146,51.9594462],[-2.393543,51.9519129],[-2.3876856,51.9525635],[-2.3848578,51.9489625],[-2.3820095,51.9505953],[-2.3815844,51.9457869],[-2.3684718,51.9423124],[-2.3726246,51.9345092],[-2.3551296,51.9275464],[-2.3574414,51.9213621],[-2.3455135,51.9204233],[-2.3431397,51.9168377],[-2.3479163,51.9130822],[-2.3471916,51.9077104],[-2.3620758,51.9061268],[-2.3741859,51.9143747],[-2.4185474,51.9232261],[-2.4152794,51.9260423],[-2.4219861,51.9325349],[-2.4302109,51.930397],[-2.4262481,51.925063],[-2.4309284,51.9216869],[-2.4282871,51.9193283],[-2.4427987,51.9192036],[-2.4421017,51.9154653],[-2.4464402,51.9150748],[-2.4401543,51.902434],[-2.4453884,51.9005476],[-2.4393147,51.8995057],[-2.4460092,51.8939863],[-2.4393605,51.8923673],[-2.4292061,51.8765793],[-2.4305646,51.8632548],[-2.3908142,51.8638302],[-2.375512,51.8606748],[-2.352749,51.8493985],[-2.34685,51.8544809],[-2.3232128,51.8562023],[-2.3159221,51.8609679],[-2.3174546,51.8684432],[-2.324862,51.8686876],[-2.3346414,51.8761386],[-2.319868,51.8884707],[-2.3095228,51.8877957],[-2.2898914,51.8943063],[-2.2959433,51.8965037],[-2.2972215,51.9027901],[-2.2848194,51.9112668],[-2.2872972,51.920965],[-2.2836128,51.9232888],[-2.2953111,51.9332407],[-2.287911,51.9454843],[-2.2813707,51.9455962],[-2.28332,51.951837],[-2.2675479,51.9531851],[-2.2705608,51.9689307],[-2.2882948,51.9706595],[-2.3004368,51.9667669],[-2.3094691,51.9706383],[-2.3126232,51.9764965],[-2.3265419,51.9757825],[-2.3206606,51.9921196],[-2.3247138,52.0035582],[-2.3294271,52.0068195],[-2.3404966,52.0067314],[-2.3525457,52.0135262],[-2.3513817,52.0213498]]],"type":"Polygon"},"id":"E02004626","properties":{"code":"E02004626","geography":"MSOA","name":"Forest of Dean 001"},"type":"Feature"},{"geometry":{"coordinates":[[[-2.4464402,51.9150748],[-2.4421017,51.9154653],[-2.4427987,51.9192036],[-2.4282871,51.9193283],[-2.4309284,51.9216869],[-2.4262481,51.925063],[-2.4302109,51.930397],[-2.4219861,51.9325349],[-2.4152794,51.9260423],[-2.4185474,51.9232261],[-2.3741859,51.9143747],[-2.3620758,51.9061268],[-2.3471916,51.9077104],[-2.3479163,51.9130822],[-2.3431397,51.9168377],[-2.3455135,51.9204233],[-2.3574414,51.9213621],[-2.3551296,51.9275464],[-2.3726246,51.9345092],[-2.3684718,51.9423124],[-2.3815844,51.9457869],[-2.3820095,51.9505953],[-2.3848578,51.9489625],[-2.3876856,51.9525635],[-2.393543,51.9519129],[-2.3966146,51.9594462],[-2.4038644,51.9597841],[-2.4072188,51.9543361],[-2.4081908,51.9570052],[-2.4184281,51.9587903],[-2.4173666,51.9632454],[-2.4264665,51.9557515],[-2.4654879,51.951688],[-2.4660427,51.9279659],[-2.4464402,51.9150748]]],"type":"Polygon"},"id":"E02004627","properties":{"code":"E02004627","geography":"MSOA","name":"Forest of Dean 002"},"type":"Feature"},{"geometry":{"coordinates":[[[-2.4807336,51.8857171],[-2.486728,51.8847075],[-2.487794,51.8804096],[-2.4938608,51.8799951],[-2.4946553,51.8842318],[-2.5002528,51.8817301],[-2.5019466,51.8862453],[-2.5086234,51.8851612],[-2.5222323,51.8646885],[-2.5316229,51.8607638],[-2.5439004,51.8602246],[-2.5616563,51.8642849],[-2.5842816,51.8605991],[-2.5788199,51.8518424],[-2.5751859,51.8511311],[-2.5817125,51.8493987],[-2.5817407,51.8436995],[-2.5761148,51.8425776],[-2.5739652,51.8468628],[-2.5662173,51.848845],[-2.5666254,51.8345213],[-2.561628,51.8346485],[-2.5582556,51.8309288],[-2.4967475,51.8494915],[-2.4950148,51.839889],[-2.4706847,51.8461293],[-2.4656443,51.8517682],[-2.4798974,51.8693142],[-2.4807336,51.8857171]]],"type":"Polygon"},"id":"E02004628","properties":{"code":"E02004628","geography":"MSOA","name":"Forest of Dean 003"},"type":"Feature"},{"geometry":{"coordinates":[[[-2.4706847,51.8461293],[-2.4950148,51.839889],[-2.4967475,51.8494915],[-2.5582556,51.8309288],[-2.5642217,51.8226126],[-2.5620006,51.8169034],[-2.5574732,51.8158486],[-2.5672386,51.8103353],[-2.5664849,51.8020886],[-2.5376282,51.8101655],[-2.5452501,51.8028774],[-2.5414316,51.7952983],[-2.5267738,51.78625],[-2.5274503,51.7772925],[-2.521062,51.774312],[-2.5132908,51.7780286],[-2.5047355,51.7767399],[-2.4835709,51.7752739],[-2.4893573,51.7773839],[-2.4844736,51.7789094],[-2.4883192,51.7872439],[-2.4807991,51.7913865],[-2.4773422,51.79844],[-2.4781981,51.8086126],[-2.4553523,51.8194108],[-2.4530961,51.8280608],[-2.4578359,51.8340699],[-2.4739214,51.83175],[-2.4706847,51.8461293]]],"type":"Polygon"},"id":"E02004629","properties":{"code":"E02004629","geography":"MSOA","name":"Forest of Dean 004"},"type":"Feature"},{"geometry":{"coordinates":[[[[-2.3460443,51.8022212],[-2.34616,51.8022691],[-2.3461974,51.8020958],[-2.3460443,51.8022212]]],[[[-2.4393605,51.8923673],[-2.4460092,51.8939863],[-2.4652127,51.8929828],[-2.4734076,51.8855455],[-2.4807336,51.8857171],[-2.4798974,51.8693142],[-2.4656443,51.8517682],[-2.4706847,51.8461293],[-2.4739214,51.83175],[-2.4578359,51.8340699],[-2.4530961,51.8280608],[-2.4553523,51.8194108],[-2.4781981,51.8086126],[-2.4773422,51.79844],[-2.4807991,51.7913865],[-2.4883192,51.7872439],[-2.4844736,51.7789094],[-2.4893573,51.7773839],[-2.4835709,51.7752739],[-2.5047355,51.7767399],[-2.5110006,51.7557181],[-2.5032775,51.758799],[-2.4948439,51.7582652],[-2.4937072,51.749934],[-2.4773312,51.7396959],[-2.4775744,51.7400404],[-2.4376117,51.7590383],[-2.4378213,51.7593287],[-2.4342282,51.7600543],[-2.4046401,51.7728068],[-2.4056913,51.7778652],[-2.4113486,51.7797822],[-2.4413974,51.7814498],[-2.4484318,51.7849144],[-2.4502089,51.7922912],[-2.4513392,51.7969817],[-2.4517939,51.7988683],[-2.4405981,51.8125963],[-2.4327725,51.8157448],[-2.4327445,51.8157743],[-2.4326764,51.8157835],[-2.4239358,51.819299],[-2.4145537,51.817109],[-2.4017545,51.8042747],[-2.3904103,51.8008423],[-2.3903512,51.8008271],[-2.3898902,51.8007168],[-2.3897688,51.8006926],[-2.389577,51.8005976],[-2.389507,51.8005689],[-2.3692555,51.7944372],[-2.3515293,51.7977284],[-2.3502145,51.7988055],[-2.3500435,51.7991176],[-2.3480112,51.8028278],[-2.3603807,51.8068598],[-2.3632315,51.821572],[-2.3608029,51.8272097],[-2.3503882,51.8297542],[-2.3532516,51.828791],[-2.349703,51.8297347],[-2.3564725,51.8354263],[-2.351776,51.846218],[-2.352749,51.8493985],[-2.375512,51.8606748],[-2.3908142,51.8638302],[-2.4305646,51.8632548],[-2.4292061,51.8765793],[-2.4393605,51.8923673]]]],"type":"MultiPolygon"},"id":"E02004630","properties":{"code":"E02004630","geography":"MSOA","name":"Forest of Dean 005"},"type":"Feature"},{"geometry":{"coordinates":[[[-2.5788199,51.8518424],[-2.5861961,51.8497782],[-2.5939166,51.855617],[-2.6012147,51.8562093],[-2.6094322,51.8467903],[-2.6215912,51.8433182],[-2.625464,51.838958],[-2.6367079,51.8430894],[-2.6359676,51.8399056],[-2.6502257,51.8261403],[-2.6500947,51.8241192],[-2.6608688,51.8227483],[-2.6595358,51.8106769],[-2.6725754,51.8088749],[-2.6783046,51.8032485],[-2.6695543,51.7943722],[-2.6758408,51.7880642],[-2.675066,51.7770418],[-2.6804486,51.7689253],[-2.6626891,51.7538908],[-2.672222,51.7363595],[-2.6874513,51.7308919],[-2.6804809,51.7246424],[-2.6808724,51.7190272],[-2.6761182,51.7194872],[-2.6724763,51.7143219],[-2.6653819,51.7127992],[-2.6598247,51.7140925],[-2.6588162,51.7247828],[-2.6280881,51.7250007],[-2.6076473,51.7215929],[-2.6048643,51.7187882],[-2.6017297,51.7251495],[-2.5936331,51.7284333],[-2.5993926,51.7314189],[-2.5911242,51.7400966],[-2.5874587,51.7562991],[-2.5966525,51.757536],[-2.6010568,51.7613618],[-2.6075117,51.7499554],[-2.6191322,51.7645363],[-2.6331822,51.7617145],[-2.6310201,51.7690566],[-2.6413398,51.77174],[-2.6334246,51.7754506],[-2.629782,51.772813],[-2.6285023,51.7752635],[-2.6327904,51.7790259],[-2.631482,51.7861812],[-2.6431048,51.7958878],[-2.6341572,51.8081635],[-2.6402335,51.8129879],[-2.6280504,51.8136134],[-2.6243854,51.8099124],[-2.6231138,51.8127541],[-2.6142934,51.8098615],[-2.6088222,51.8124753],[-2.6041707,51.8105665],[-2.6057322,51.8080268],[-2.5952316,51.8050044],[-2.594848,51.7985611],[-2.5664849,51.8020886],[-2.5672386,51.8103353],[-2.5574732,51.8158486],[-2.5620006,51.8169034],[-2.5642217,51.8226126],[-2.5582556,51.8309288],[-2.561628,51.8346485],[-2.5666254,51.8345213],[-2.5662173,51.848845],[-2.5739652,51.8468628],[-2.5761148,51.8425776],[-2.5817407,51.8436995],[-2.5817125,51.8493987],[-2.5751859,51.8511311],[-2.5788199,51.8518424]]],"type":"Polygon"},"id":"E02004631","properties":{"code":"E02004631","geography":"MSOA","name":"Forest of Dean 006"},"type":"Feature"},{"geometry":{"coordinates":[[[-2.594848,51.7985611],[-2.5952316,51.8050044],[-2.6057322,51.8080268],[-2.6041707,51.8105665],[-2.6088222,51.8124753],[-2.6142934,51.8098615],[-2.6231138,51.8127541],[-2.6243854,51.8099124],[-2.6280504,51.8136134],[-2.6402335,51.8129879],[-2.6341572,51.8081635],[-2.6431048,51.7958878],[-2.631482,51.7861812],[-2.6327904,51.7790259],[-2.6285023,51.7752635],[-2.6123713,51.7825963],[-2.6085499,51.7753687],[-2.5987053,51.7734809],[-2.5929405,51.7764285],[-2.594848,51.7985611]]],"type":"Polygon"},"id":"E02004632","properties":{"code":"E02004632","geography":"MSOA","name":"Forest of Dean 007"},"type":"Feature"},{"geometry":{"coordinates":[[[-2.5047355,51.7767399],[-2.5132908,51.7780286],[-2.521062,51.774312],[-2.5274503,51.7772925],[-2.5267738,51.78625],[-2.5414316,51.7952983],[-2.5452501,51.8028774],[-2.5376282,51.8101655],[-2.5664849,51.8020886],[-2.594848,51.7985611],[-2.5929405,51.7764285],[-2.5987053,51.7734809],[-2.6085499,51.7753687],[-2.6123713,51.7825963],[-2.6285023,51.7752635],[-2.629782,51.772813],[-2.6334246,51.7754506],[-2.6413398,51.77174],[-2.6310201,51.7690566],[-2.6331822,51.7617145],[-2.6191322,51.7645363],[-2.6075117,51.7499554],[-2.6010568,51.7613618],[-2.5966525,51.757536],[-2.5874587,51.7562991],[-2.5911242,51.7400966],[-2.5850973,51.741079],[-2.5778939,51.7348377],[-2.5494748,51.7467698],[-2.5504024,51.7425393],[-2.5383409,51.7386846],[-2.5309286,51.7406457],[-2.5203926,51.7568329],[-2.5124466,51.7494455],[-2.5063611,51.7525906],[-2.4937072,51.749934],[-2.4948439,51.7582652],[-2.5032775,51.758799],[-2.5110006,51.7557181],[-2.5047355,51.7767399]]],"type":"Polygon"},"id":"E02004633","properties":{"code":"E02004633","geography":"MSOA","name":"Forest of Dean 008"},"type":"Feature"},{"geometry":{"coordinates":[[[-2.4937072,51.749934],[-2.5063611,51.7525906],[-2.5124466,51.7494455],[-2.5203926,51.7568329],[-2.5309286,51.7406457],[-2.5383409,51.7386846],[-2.5504024,51.7425393],[-2.5494748,51.7467698],[-2.5778939,51.7348377],[-2.5850973,51.741079],[-2.5911242,51.7400966],[-2.5993926,51.7314189],[-2.5936331,51.7284333],[-2.6017297,51.7251495],[-2.6048643,51.7187882],[-2.6086884,51.7117701],[-2.5637038,51.6940488],[-2.5715883,51.6890642],[-2.5713375,51.6888242],[-2.5708051,51.6883757],[-2.5437169,51.6974865],[-2.5145824,51.7072745],[-2.5053326,51.7103796],[-2.496239,51.7262011],[-2.4937614,51.7279589],[-2.4788349,51.7349845],[-2.4773312,51.7396959],[-2.4937072,51.749934]]],"type":"Polygon"},"id":"E02004634","properties":{"code":"E02004634","geography":"MSOA","name":"Forest of Dean 009"},"type":"Feature"},{"geometry":{"coordinates":[[[-2.6048643,51.7187882],[-2.6076473,51.7215929],[-2.6280881,51.7250007],[-2.6588162,51.7247828],[-2.6598247,51.7140925],[-2.6653819,51.7127992],[-2.6724763,51.7143219],[-2.6761182,51.7194872],[-2.6808724,51.7190272],[-2.6684904,51.7055749],[-2.6709677,51.7007566],[-2.6817939,51.7033218],[-2.6837877,51.7006242],[-2.6691653,51.6931466],[-2.672249,51.6809973],[-2.6568408,51.6742949],[-2.6601243,51.6710821],[-2.6846545,51.6680284],[-2.6862759,51.6623569],[-2.6813764,51.6599409],[-2.6659178,51.664321],[-2.6791422,51.6455059],[-2.6688887,51.6446365],[-2.668862,51.6450017],[-2.6688129,51.6446301],[-2.667647,51.6445312],[-2.6680852,51.639129],[-2.6678088,51.6370396],[-2.6673598,51.6336443],[-2.65518,51.6227461],[-2.6593359,51.6165664],[-2.6561287,51.6102094],[-2.6512382,51.6097529],[-2.6476913,51.6132882],[-2.6487523,51.631382],[-2.6236297,51.6539804],[-2.6259457,51.6606127],[-2.6099872,51.6724061],[-2.5799736,51.6835271],[-2.5748141,51.6854375],[-2.5713375,51.6888242],[-2.5715883,51.6890642],[-2.5637038,51.6940488],[-2.6086884,51.7117701],[-2.6048643,51.7187882]]],"type":"Polygon"},"id":"E02004635","properties":{"code":"E02004635","geography":"MSOA","name":"Forest of Dean 010"},"type":"Feature"}],"type":"FeatureCollection"}
