{"features":[{"geometry":{"coordinates":[[[-3.0047703,53.9255445],[-3.0069553,53.9279608],[-3.0073867,53.9279156],[-3.0234182,53.926235],[-3.0213872,53.9207944],[-3.0303532,53.9191177],[-3.0340523,53.9138061],[-3.0251151,53.9154694],[-3.0210393,53.912642],[-3.0122603,53.9205327],[-3.0081705,53.9205769],[-3.0076065,53.9210347],[-3.0039533,53.9239998],[-3.0047703,53.9255445]]],"type":"Polygon"},"id":"E02005319","properties":{"code":"E02005319","geography":"MSOA","name":"Wyre 001"},"type":"Feature"},{"geometry":{"coordinates":[[[-3.0340523,53.9138061],[-3.0303532,53.9191177],[-3.0213872,53.9207944],[-3.0234182,53.926235],[-3.0423901,53.9239697],[-3.0501263,53.9192197],[-3.0340523,53.9138061]]],"type":"Polygon"},"id":"E02005320","properties":{"code":"E02005320","geography":"MSOA","name":"Wyre 002"},"type":"Feature"},{"geometry":{"coordinates":[[[-3.0340523,53.9138061],[-3.0501263,53.9192197],[-3.0501616,53.919198],[-3.0472799,53.8921949],[-3.0472228,53.8916633],[-3.0411512,53.8919893],[-3.0397072,53.8952272],[-3.0340523,53.9138061]]],"type":"Polygon"},"id":"E02005321","properties":{"code":"E02005321","geography":"MSOA","name":"Wyre 003"},"type":"Feature"},{"geometry":{"coordinates":[[[[-2.9534864,53.8581298],[-2.956725,53.8595751],[-2.957541,53.8599392],[-2.9555106,53.8573628],[-2.9534864,53.8581298]]],[[[-3.0053078,53.9265609],[-3.0060959,53.9280508],[-3.0069553,53.9279608],[-3.0047703,53.9255445],[-3.0053078,53.9265609]]],[[[-2.9403554,53.9157136],[-2.9456398,53.9273699],[-2.9438338,53.9348392],[-2.940544,53.9391066],[-2.9270437,53.9393834],[-2.9264075,53.9425314],[-2.9280959,53.9500489],[-2.9289847,53.9498038],[-2.9965808,53.9311349],[-2.9967339,53.9089292],[-2.9921118,53.9065461],[-2.9908409,53.9068299],[-2.9894411,53.9071425],[-2.9897682,53.906989],[-2.9905314,53.9066308],[-2.9924446,53.9057329],[-2.9929307,53.9055048],[-2.9946225,53.905595],[-2.9945406,53.9053525],[-2.9912272,53.8955329],[-2.9866752,53.8955138],[-2.9897287,53.8943292],[-2.9862518,53.8925916],[-2.9838904,53.8955816],[-2.9851878,53.8897979],[-2.962994,53.8780767],[-2.9661504,53.8735069],[-2.9656252,53.8729039],[-2.9666958,53.8727172],[-2.9667978,53.8725695],[-2.9722951,53.8646074],[-2.9585402,53.8625861],[-2.9532154,53.8582178],[-2.9375431,53.8641684],[-2.931268,53.880568],[-2.9384713,53.8903536],[-2.9016883,53.9053259],[-2.9243073,53.9060134],[-2.9403554,53.9157136]]]],"type":"MultiPolygon"},"id":"E02005322","properties":{"code":"E02005322","geography":"MSOA","name":"Wyre 004"},"type":"Feature"},{"geometry":{"coordinates":[[[-3.0035639,53.8941989],[-3.0059582,53.9007332],[-3.0084437,53.9017409],[-3.0059416,53.9031422],[-3.0057234,53.9186388],[-3.0125212,53.9198085],[-3.0105794,53.9201421],[-3.0082035,53.9205501],[-3.0081705,53.9205769],[-3.0122603,53.9205327],[-3.0210393,53.912642],[-3.0251151,53.9154694],[-3.0340523,53.9138061],[-3.0397072,53.8952272],[-3.0358138,53.8886855],[-3.0302913,53.8875012],[-3.0148888,53.8878599],[-3.0181285,53.8951921],[-3.0035639,53.8941989]]],"type":"Polygon"},"id":"E02005323","properties":{"code":"E02005323","geography":"MSOA","name":"Wyre 005"},"type":"Feature"},{"geometry":{"coordinates":[[[-2.648219,53.9489093],[-2.6641559,53.9472541],[-2.6734759,53.9501902],[-2.6879188,53.9496898],[-2.7020518,53.9435437],[-2.700554,53.9491598],[-2.7093359,53.9604201],[-2.7156585,53.9802321],[-2.7352405,53.9745144],[-2.7331064,53.9671353],[-2.7414797,53.9568442],[-2.7553789,53.9523185],[-2.7507827,53.9566041],[-2.7573853,53.9592068],[-2.7578721,53.9630961],[-2.7867244,53.9673622],[-2.798623,53.9751046],[-2.807384,53.9620177],[-2.802935,53.951199],[-2.8136494,53.9458363],[-2.8023252,53.9420599],[-2.7969943,53.9377757],[-2.787773,53.9424403],[-2.779234,53.9395587],[-2.7750934,53.9434846],[-2.7636676,53.9412428],[-2.7706463,53.9349723],[-2.7634061,53.9282006],[-2.7718207,53.9222729],[-2.7650039,53.9080708],[-2.7842458,53.8918781],[-2.7740671,53.8863328],[-2.7746824,53.8816818],[-2.7591311,53.8857261],[-2.7429309,53.8846966],[-2.7734139,53.8719874],[-2.7734175,53.8667293],[-2.7910009,53.8609727],[-2.7928963,53.848486],[-2.7821726,53.8484183],[-2.7743075,53.8398414],[-2.7706915,53.8404055],[-2.7614122,53.8274856],[-2.753569,53.8237388],[-2.7361603,53.8234309],[-2.7464823,53.8509171],[-2.7258825,53.849367],[-2.7098185,53.8536277],[-2.7119255,53.8563774],[-2.7032637,53.8649444],[-2.7060826,53.8690067],[-2.6906776,53.8743735],[-2.6865419,53.8904987],[-2.6698499,53.8917466],[-2.6572365,53.8961533],[-2.6452322,53.8937447],[-2.6251454,53.8946272],[-2.6166286,53.8997916],[-2.6134029,53.908243],[-2.6186433,53.9164016],[-2.6142717,53.9195344],[-2.6171034,53.9243475],[-2.6225752,53.9297031],[-2.6296482,53.930722],[-2.6264377,53.9385512],[-2.648219,53.9489093]]],"type":"Polygon"},"id":"E02005324","properties":{"code":"E02005324","geography":"MSOA","name":"Wyre 006"},"type":"Feature"},{"geometry":{"coordinates":[[[-2.7910009,53.8609727],[-2.7734175,53.8667293],[-2.7734139,53.8719874],[-2.7429309,53.8846966],[-2.7591311,53.8857261],[-2.7746824,53.8816818],[-2.7740671,53.8863328],[-2.7842458,53.8918781],[-2.7650039,53.9080708],[-2.7718207,53.9222729],[-2.7634061,53.9282006],[-2.7706463,53.9349723],[-2.7636676,53.9412428],[-2.7750934,53.9434846],[-2.779234,53.9395587],[-2.787773,53.9424403],[-2.7969943,53.9377757],[-2.7890833,53.9280203],[-2.8033367,53.9110285],[-2.8526891,53.9115723],[-2.8351703,53.904116],[-2.8319563,53.8930295],[-2.8380855,53.8896911],[-2.8368182,53.8856491],[-2.8268663,53.8810856],[-2.8106068,53.8806752],[-2.8093492,53.8876348],[-2.805774,53.8862065],[-2.7983565,53.875471],[-2.8119012,53.8717932],[-2.8101224,53.8635704],[-2.7910009,53.8609727]]],"type":"Polygon"},"id":"E02005325","properties":{"code":"E02005325","geography":"MSOA","name":"Wyre 007"},"type":"Feature"},{"geometry":{"coordinates":[[[-3.0302913,53.8875012],[-3.0358138,53.8886855],[-3.0397072,53.8952272],[-3.0411512,53.8919893],[-3.0472228,53.8916633],[-3.0479565,53.8757182],[-3.0479748,53.875579],[-3.0480031,53.8753633],[-3.0306774,53.8740245],[-3.0346882,53.8788861],[-3.0259883,53.8864091],[-3.0302913,53.8875012]]],"type":"Polygon"},"id":"E02005326","properties":{"code":"E02005326","geography":"MSOA","name":"Wyre 008"},"type":"Feature"},{"geometry":{"coordinates":[[[-2.8889135,53.9479205],[-2.889538,53.948102],[-2.8947938,53.9454951],[-2.8866536,53.9416648],[-2.892072,53.9421861],[-2.8912736,53.9394634],[-2.8967543,53.9411509],[-2.8989895,53.9384765],[-2.8991796,53.941078],[-2.9000805,53.9384143],[-2.9053289,53.9405509],[-2.9047693,53.938487],[-2.9122112,53.9440231],[-2.915569,53.9433064],[-2.9189275,53.9425895],[-2.9155778,53.9437062],[-2.9130667,53.9445432],[-2.9156086,53.9451186],[-2.9208339,53.946301],[-2.915634,53.9462781],[-2.9105749,53.9462555],[-2.9156845,53.948591],[-2.9163371,53.9488892],[-2.9157178,53.9501113],[-2.9150137,53.9515005],[-2.9157464,53.9514219],[-2.9278141,53.9501266],[-2.9280959,53.9500489],[-2.9264075,53.9425314],[-2.9270437,53.9393834],[-2.940544,53.9391066],[-2.9438338,53.9348392],[-2.9456398,53.9273699],[-2.9403554,53.9157136],[-2.9243073,53.9060134],[-2.9016883,53.9053259],[-2.9384713,53.8903536],[-2.931268,53.880568],[-2.9375431,53.8641684],[-2.9532154,53.8582178],[-2.9526569,53.8577595],[-2.9534504,53.8581137],[-2.9534864,53.8581298],[-2.9555106,53.8573628],[-2.9429462,53.8507378],[-2.9365417,53.8531227],[-2.936486,53.8572911],[-2.9242222,53.8561026],[-2.9137391,53.8595513],[-2.9098826,53.8645982],[-2.9025317,53.8646403],[-2.8961939,53.8606184],[-2.8845266,53.8630573],[-2.8758313,53.8570352],[-2.8880209,53.8542301],[-2.8901504,53.8460252],[-2.8716194,53.8431376],[-2.866989,53.8456855],[-2.8575912,53.8425918],[-2.8701274,53.8313562],[-2.8622302,53.8293735],[-2.8408735,53.8312624],[-2.8259982,53.8199721],[-2.8031971,53.825837],[-2.7978676,53.8245729],[-2.8001385,53.8331227],[-2.7933877,53.8366752],[-2.7870365,53.8321263],[-2.7817782,53.8333511],[-2.7743075,53.8398414],[-2.7821726,53.8484183],[-2.7928963,53.848486],[-2.7910009,53.8609727],[-2.8101224,53.8635704],[-2.8119012,53.8717932],[-2.7983565,53.875471],[-2.805774,53.8862065],[-2.8093492,53.8876348],[-2.8106068,53.8806752],[-2.8268663,53.8810856],[-2.8368182,53.8856491],[-2.8380855,53.8896911],[-2.8319563,53.8930295],[-2.8351703,53.904116],[-2.8526891,53.9115723],[-2.8033367,53.9110285],[-2.7890833,53.9280203],[-2.7969943,53.9377757],[-2.8023252,53.9420599],[-2.8048514,53.9352537],[-2.8259243,53.9333538],[-2.8643721,53.9180661],[-2.8732768,53.9311683],[-2.8852493,53.9368257],[-2.8766164,53.939856],[-2.8796542,53.9454479],[-2.8828161,53.9457862],[-2.8841138,53.9438566],[-2.8835288,53.9458624],[-2.8876507,53.9463033],[-2.8889135,53.9479205]]],"type":"Polygon"},"id":"E02005327","properties":{"code":"E02005327","geography":"MSOA","name":"Wyre 009"},"type":"Feature"},{"geometry":{"coordinates":[[[-3.0096535,53.8643973],[-3.0194734,53.8698977],[-3.0209031,53.8764163],[-3.0155631,53.8770447],[-3.01599,53.8841006],[-3.0111849,53.8862553],[-3.0148888,53.8878599],[-3.0302913,53.8875012],[-3.0259883,53.8864091],[-3.0346882,53.8788861],[-3.0306774,53.8740245],[-3.0218309,53.8687511],[-3.0226245,53.8617007],[-3.0096535,53.8643973]]],"type":"Polygon"},"id":"E02005328","properties":{"code":"E02005328","geography":"MSOA","name":"Wyre 010"},"type":"Feature"},{"geometry":{"coordinates":[[[-3.0035639,53.8941989],[-3.0181285,53.8951921],[-3.0148888,53.8878599],[-3.0111849,53.8862553],[-3.01599,53.8841006],[-3.0155631,53.8770447],[-3.0209031,53.8764163],[-3.0194734,53.8698977],[-3.0096535,53.8643973],[-3.0039855,53.8707094],[-2.9998861,53.8703035],[-3.0017205,53.8778308],[-2.9961055,53.876338],[-2.9890504,53.8811011],[-2.9846857,53.8814181],[-3.0031312,53.893018],[-3.0035097,53.894051],[-3.0035639,53.8941989]]],"type":"Polygon"},"id":"E02005329","properties":{"code":"E02005329","geography":"MSOA","name":"Wyre 011"},"type":"Feature"},{"geometry":{"coordinates":[[[[-2.9656252,53.8729039],[-2.9661504,53.8735069],[-2.966486,53.873021],[-2.966673,53.8727502],[-2.9666958,53.8727172],[-2.9656252,53.8729039]]],[[[-2.9758943,53.8798825],[-2.9828969,53.8802927],[-2.9846857,53.8814181],[-2.9890504,53.8811011],[-2.9961055,53.876338],[-3.0017205,53.8778308],[-2.9998861,53.8703035],[-3.0039855,53.8707094],[-3.0096535,53.8643973],[-3.0226245,53.8617007],[-3.0143494,53.8501927],[-3.0117743,53.8502666],[-3.0032838,53.852859],[-3.0049761,53.8566796],[-2.9958765,53.8564967],[-2.9973597,53.8620402],[-2.9810103,53.8575293],[-2.9763195,53.8618613],[-2.977321,53.8619121],[-2.9767345,53.8624142],[-2.9789966,53.8707908],[-2.9688162,53.8739663],[-2.9758943,53.8798825]]]],"type":"MultiPolygon"},"id":"E02005330","properties":{"code":"E02005330","geography":"MSOA","name":"Wyre 012"},"type":"Feature"},{"geometry":{"coordinates":[[[-2.9810103,53.8575293],[-2.9973597,53.8620402],[-2.9958765,53.8564967],[-3.0049761,53.8566796],[-3.0032838,53.852859],[-3.0117743,53.8502666],[-3.0090784,53.8479105],[-3.0131079,53.8439142],[-2.9959466,53.8469481],[-2.9913164,53.8400411],[-2.9858076,53.8420905],[-2.9869436,53.8383594],[-2.9800061,53.8402692],[-2.9687434,53.8359724],[-2.9707861,53.8405056],[-2.9655102,53.8471962],[-2.9810103,53.8575293]]],"type":"Polygon"},"id":"E02005331","properties":{"code":"E02005331","geography":"MSOA","name":"Wyre 013"},"type":"Feature"},{"geometry":{"coordinates":[[[-2.9687434,53.8359724],[-2.9800061,53.8402692],[-2.9869436,53.8383594],[-2.9858076,53.8420905],[-2.9913164,53.8400411],[-2.9959466,53.8469481],[-3.0131079,53.8439142],[-3.0090784,53.8479105],[-3.0117743,53.8502666],[-3.0143494,53.8501927],[-3.017776,53.8473975],[-3.0152222,53.8427017],[-3.0204532,53.8407168],[-3.0190662,53.8370983],[-3.0155127,53.8407142],[-3.0099935,53.8360619],[-3.0072078,53.8328865],[-3.013639,53.8292136],[-3.0107047,53.8270727],[-3.0106578,53.826179],[-2.9931231,53.8310139],[-2.9634656,53.8275845],[-2.9687434,53.8359724]]],"type":"Polygon"},"id":"E02005332","properties":{"code":"E02005332","geography":"MSOA","name":"Wyre 014"},"type":"Feature"}],"type":"FeatureCollection"}
