{"features":[{"geometry":{"coordinates":[[[-0.173745,51.7026387],[-0.202645,51.7097368],[-0.1978884,51.7027515],[-0.2009465,51.6987697],[-0.1936285,51.6951141],[-0.209112,51.6794681],[-0.1998965,51.6701665],[-0.1910326,51.6639452],[-0.1821101,51.6686008],[-0.1764109,51.6726417],[-0.185219,51.6913317],[-0.1786797,51.6923788],[-0.173745,51.7026387]]],"type":"Polygon"},"id":"E02004896","properties":{"code":"E02004896","geography":"MSOA","name":"Hertsmere 001"},"type":"Feature"},{"geometry":{"coordinates":[[[-0.202645,51.7097368],[-0.2222813,51.7131244],[-0.2199098,51.7068659],[-0.2257608,51.691113],[-0.209112,51.6794681],[-0.1936285,51.6951141],[-0.2009465,51.6987697],[-0.1978884,51.7027515],[-0.202645,51.7097368]]],"type":"Polygon"},"id":"E02004897","properties":{"code":"E02004897","geography":"MSOA","name":"Hertsmere 002"},"type":"Feature"},{"geometry":{"coordinates":[[[-0.1635181,51.6881115],[-0.1631428,51.6998542],[-0.1721381,51.7027377],[-0.173745,51.7026387],[-0.1786797,51.6923788],[-0.185219,51.6913317],[-0.1764109,51.6726417],[-0.1724982,51.6730879],[-0.1635282,51.6859192],[-0.1635181,51.6881115]]],"type":"Polygon"},"id":"E02004898","properties":{"code":"E02004898","geography":"MSOA","name":"Hertsmere 003"},"type":"Feature"},{"geometry":{"coordinates":[[[-0.2551587,51.7295326],[-0.2661507,51.7381979],[-0.2834604,51.7334803],[-0.2895541,51.7280023],[-0.2836955,51.7241806],[-0.2861466,51.7208147],[-0.2769776,51.7212794],[-0.2838699,51.7142568],[-0.3019996,51.708061],[-0.3000442,51.6965196],[-0.2964496,51.6895688],[-0.301928,51.6891345],[-0.2888327,51.6782952],[-0.27988,51.6725323],[-0.2739001,51.6757433],[-0.2658508,51.6653348],[-0.2561529,51.6697711],[-0.254373,51.6673905],[-0.2475811,51.6695995],[-0.2436675,51.6669117],[-0.2493738,51.6560546],[-0.2289438,51.6599717],[-0.2264874,51.6571586],[-0.2215619,51.65979],[-0.2078893,51.6628575],[-0.2111589,51.6669513],[-0.1998965,51.6701665],[-0.209112,51.6794681],[-0.2257608,51.691113],[-0.2199098,51.7068659],[-0.2222813,51.7131244],[-0.2342941,51.7107563],[-0.238995,51.7061374],[-0.2411338,51.7157353],[-0.2551587,51.7295326]]],"type":"Polygon"},"id":"E02004899","properties":{"code":"E02004899","geography":"MSOA","name":"Hertsmere 004"},"type":"Feature"},{"geometry":{"coordinates":[[[-0.3000442,51.6965196],[-0.3092537,51.6978924],[-0.322355,51.6934745],[-0.3278499,51.7030235],[-0.3254821,51.6985457],[-0.3421485,51.6826165],[-0.3191341,51.6690663],[-0.307722,51.6576757],[-0.3045042,51.6601781],[-0.302186,51.6555889],[-0.2977377,51.6564971],[-0.2999231,51.6591564],[-0.2950848,51.663791],[-0.2926156,51.6603589],[-0.2891845,51.661198],[-0.3018069,51.6718705],[-0.2952899,51.6751256],[-0.2888327,51.6782952],[-0.301928,51.6891345],[-0.2964496,51.6895688],[-0.3000442,51.6965196]]],"type":"Polygon"},"id":"E02004900","properties":{"code":"E02004900","geography":"MSOA","name":"Hertsmere 005"},"type":"Feature"},{"geometry":{"coordinates":[[[-0.2658508,51.6653348],[-0.2739001,51.6757433],[-0.27988,51.6725323],[-0.2888327,51.6782952],[-0.2952899,51.6751256],[-0.2721334,51.6574381],[-0.2633673,51.6599568],[-0.2658508,51.6653348]]],"type":"Polygon"},"id":"E02004901","properties":{"code":"E02004901","geography":"MSOA","name":"Hertsmere 006"},"type":"Feature"},{"geometry":{"coordinates":[[[-0.2721334,51.6574381],[-0.2952899,51.6751256],[-0.3018069,51.6718705],[-0.2891845,51.661198],[-0.2803167,51.653354],[-0.2721334,51.6574381]]],"type":"Polygon"},"id":"E02004902","properties":{"code":"E02004902","geography":"MSOA","name":"Hertsmere 007"},"type":"Feature"},{"geometry":{"coordinates":[[[-0.3367775,51.6571167],[-0.3466089,51.661945],[-0.349771,51.6676958],[-0.3587375,51.6700272],[-0.3627856,51.6680455],[-0.3742506,51.6741221],[-0.3747485,51.6735537],[-0.3834905,51.6698652],[-0.3855944,51.6641931],[-0.3834493,51.6484672],[-0.3807384,51.648137],[-0.3698927,51.6565347],[-0.3651347,51.651754],[-0.3570075,51.6577165],[-0.3503502,51.6553931],[-0.3474306,51.649375],[-0.3367775,51.6571167]]],"type":"Polygon"},"id":"E02004903","properties":{"code":"E02004903","geography":"MSOA","name":"Hertsmere 008"},"type":"Feature"},{"geometry":{"coordinates":[[[-0.2493738,51.6560546],[-0.2436675,51.6669117],[-0.2475811,51.6695995],[-0.254373,51.6673905],[-0.2561529,51.6697711],[-0.2658508,51.6653348],[-0.2633673,51.6599568],[-0.2611084,51.6499963],[-0.2515818,51.647949],[-0.2493738,51.6560546]]],"type":"Polygon"},"id":"E02004904","properties":{"code":"E02004904","geography":"MSOA","name":"Hertsmere 009"},"type":"Feature"},{"geometry":{"coordinates":[[[-0.2891845,51.661198],[-0.2926156,51.6603589],[-0.2950848,51.663791],[-0.2999231,51.6591564],[-0.2977377,51.6564971],[-0.302186,51.6555889],[-0.3045042,51.6601781],[-0.307722,51.6576757],[-0.3191341,51.6690663],[-0.3421485,51.6826165],[-0.3254821,51.6985457],[-0.3278499,51.7030235],[-0.3331166,51.7014379],[-0.3370173,51.6977079],[-0.3540196,51.6989976],[-0.3553206,51.6905715],[-0.3719859,51.687552],[-0.3753823,51.6925065],[-0.3783988,51.6881614],[-0.3695136,51.6842131],[-0.3688394,51.6783707],[-0.3742506,51.6741221],[-0.3627856,51.6680455],[-0.3587375,51.6700272],[-0.349771,51.6676958],[-0.3466089,51.661945],[-0.3367775,51.6571167],[-0.3314903,51.6579062],[-0.3273133,51.6479707],[-0.3230408,51.6499031],[-0.3139364,51.644178],[-0.3166967,51.6405317],[-0.3044823,51.6363471],[-0.2878106,51.6365091],[-0.2737374,51.6386707],[-0.2730573,51.6410616],[-0.273095,51.6412322],[-0.2803167,51.653354],[-0.2891845,51.661198]]],"type":"Polygon"},"id":"E02004905","properties":{"code":"E02004905","geography":"MSOA","name":"Hertsmere 010"},"type":"Feature"},{"geometry":{"coordinates":[[[-0.2515818,51.647949],[-0.2611084,51.6499963],[-0.2633673,51.6599568],[-0.2721334,51.6574381],[-0.2803167,51.653354],[-0.273095,51.6412322],[-0.2632291,51.6448094],[-0.2573569,51.6418288],[-0.2515818,51.647949]]],"type":"Polygon"},"id":"E02004906","properties":{"code":"E02004906","geography":"MSOA","name":"Hertsmere 011"},"type":"Feature"},{"geometry":{"coordinates":[[[-0.3474306,51.649375],[-0.3503502,51.6553931],[-0.3570075,51.6577165],[-0.3651347,51.651754],[-0.3698927,51.6565347],[-0.3807384,51.648137],[-0.3716576,51.6434298],[-0.3799815,51.6396141],[-0.3774471,51.6376983],[-0.3699485,51.6311941],[-0.3613414,51.6347347],[-0.3605989,51.6326698],[-0.3528995,51.6340107],[-0.3531203,51.6383946],[-0.3489019,51.6384771],[-0.358667,51.642703],[-0.3474306,51.649375]]],"type":"Polygon"},"id":"E02004907","properties":{"code":"E02004907","geography":"MSOA","name":"Hertsmere 012"},"type":"Feature"},{"geometry":{"coordinates":[[[-0.3166967,51.6405317],[-0.3139364,51.644178],[-0.3230408,51.6499031],[-0.3273133,51.6479707],[-0.3314903,51.6579062],[-0.3367775,51.6571167],[-0.3474306,51.649375],[-0.358667,51.642703],[-0.3489019,51.6384771],[-0.3531203,51.6383946],[-0.3528995,51.6340107],[-0.3605989,51.6326698],[-0.3613414,51.6347347],[-0.3699485,51.6311941],[-0.3626186,51.6235331],[-0.3399079,51.6307225],[-0.3166967,51.6405317]]],"type":"Polygon"},"id":"E02004908","properties":{"code":"E02004908","geography":"MSOA","name":"Hertsmere 013"},"type":"Feature"}],"type":"FeatureCollection"}
