{"features":[{"geometry":{"coordinates":[[[-1.3007232,52.9918115],[-1.3074463,53.0036351],[-1.3241973,52.9936872],[-1.3223699,52.9906629],[-1.305435,52.9821872],[-1.2946521,52.9857474],[-1.3007232,52.9918115]]],"type":"Polygon"},"id":"E02004078","properties":{"code":"E02004078","geography":"MSOA","name":"Erewash 001"},"type":"Feature"},{"geometry":{"coordinates":[[[-1.2906793,52.9706569],[-1.2974737,52.9846546],[-1.2946521,52.9857474],[-1.305435,52.9821872],[-1.315344,52.975877],[-1.3249472,52.9752229],[-1.3261451,52.9723506],[-1.3195756,52.9736892],[-1.3162095,52.9706844],[-1.3128807,52.9732001],[-1.3091684,52.967361],[-1.3070634,52.960281],[-1.2959056,52.959376],[-1.2991019,52.9680091],[-1.2906793,52.9706569]]],"type":"Polygon"},"id":"E02004080","properties":{"code":"E02004080","geography":"MSOA","name":"Erewash 003"},"type":"Feature"},{"geometry":{"coordinates":[[[-1.4512157,52.9821131],[-1.463425,52.9828702],[-1.4798296,52.9819685],[-1.4705844,52.9715654],[-1.4746346,52.9659095],[-1.4676456,52.9648024],[-1.4675985,52.955673],[-1.4685562,52.9506435],[-1.4625726,52.9498225],[-1.4527529,52.9474428],[-1.4340368,52.9512907],[-1.4092848,52.9503035],[-1.4239681,52.9356331],[-1.4199052,52.9317597],[-1.4161586,52.9313354],[-1.4145024,52.9311929],[-1.4019954,52.9515691],[-1.3956576,52.9528096],[-1.3883954,52.9489812],[-1.3897547,52.9460882],[-1.3804885,52.9458111],[-1.3796942,52.9497432],[-1.3672254,52.954569],[-1.3676612,52.9672231],[-1.3750709,52.9741782],[-1.3859833,52.9791154],[-1.3841689,52.9815762],[-1.4093055,52.9769961],[-1.4148658,52.9804631],[-1.4446758,52.9788303],[-1.4512157,52.9821131]]],"type":"Polygon"},"id":"E02004081","properties":{"code":"E02004081","geography":"MSOA","name":"Erewash 004"},"type":"Feature"},{"geometry":{"coordinates":[[[-1.3261451,52.9723506],[-1.3327963,52.9781233],[-1.3671802,52.9773052],[-1.3709394,52.9730919],[-1.3750709,52.9741782],[-1.3676612,52.9672231],[-1.3672254,52.954569],[-1.3796942,52.9497432],[-1.3804885,52.9458111],[-1.3897547,52.9460882],[-1.3883954,52.9489812],[-1.3956576,52.9528096],[-1.4019954,52.9515691],[-1.4145024,52.9311929],[-1.4035773,52.9322167],[-1.385303,52.9263614],[-1.3725987,52.9419038],[-1.3545899,52.9429799],[-1.3531473,52.9357357],[-1.3447712,52.9298916],[-1.328976,52.9335029],[-1.3253159,52.938773],[-1.3294051,52.9408916],[-1.3347013,52.9374631],[-1.3418437,52.941942],[-1.3363764,52.9450461],[-1.3359999,52.942332],[-1.3295952,52.942759],[-1.3322941,52.94749],[-1.3266122,52.9484235],[-1.3394054,52.9563719],[-1.3405787,52.9626951],[-1.3353448,52.9666311],[-1.3141824,52.9595598],[-1.3101294,52.9651352],[-1.3140918,52.9675316],[-1.3091684,52.967361],[-1.3128807,52.9732001],[-1.3162095,52.9706844],[-1.3195756,52.9736892],[-1.3261451,52.9723506]]],"type":"Polygon"},"id":"E02004082","properties":{"code":"E02004082","geography":"MSOA","name":"Erewash 005"},"type":"Feature"},{"geometry":{"coordinates":[[[-1.2827761,52.9455377],[-1.2824171,52.951216],[-1.2925046,52.9555543],[-1.2877145,52.9676826],[-1.2906793,52.9706569],[-1.2991019,52.9680091],[-1.2959056,52.959376],[-1.3070634,52.960281],[-1.3091684,52.967361],[-1.3140918,52.9675316],[-1.3101294,52.9651352],[-1.3141824,52.9595598],[-1.311814,52.9514152],[-1.307746,52.9527315],[-1.2827761,52.9455377]]],"type":"Polygon"},"id":"E02004083","properties":{"code":"E02004083","geography":"MSOA","name":"Erewash 006"},"type":"Feature"},{"geometry":{"coordinates":[[[-1.3141824,52.9595598],[-1.3353448,52.9666311],[-1.3405787,52.9626951],[-1.3394054,52.9563719],[-1.3266122,52.9484235],[-1.311814,52.9514152],[-1.3141824,52.9595598]]],"type":"Polygon"},"id":"E02004084","properties":{"code":"E02004084","geography":"MSOA","name":"Erewash 007"},"type":"Feature"},{"geometry":{"coordinates":[[[-1.2827761,52.9455377],[-1.307746,52.9527315],[-1.311814,52.9514152],[-1.3266122,52.9484235],[-1.3322941,52.94749],[-1.3295952,52.942759],[-1.3359999,52.942332],[-1.3363764,52.9450461],[-1.3418437,52.941942],[-1.3347013,52.9374631],[-1.3294051,52.9408916],[-1.3253159,52.938773],[-1.328976,52.9335029],[-1.3447712,52.9298916],[-1.3579207,52.9273698],[-1.3552655,52.9196381],[-1.3621735,52.9071072],[-1.3405225,52.914115],[-1.3377325,52.9073834],[-1.3143692,52.9132555],[-1.3005381,52.9140419],[-1.2936971,52.910461],[-1.2899644,52.913951],[-1.296976,52.9169047],[-1.2946711,52.9193677],[-1.2882264,52.9217394],[-1.2827152,52.9199586],[-1.2857974,52.9259723],[-1.2824265,52.9284273],[-1.278033,52.9332114],[-1.2811374,52.9407859],[-1.2827761,52.9455377]]],"type":"Polygon"},"id":"E02004085","properties":{"code":"E02004085","geography":"MSOA","name":"Erewash 008"},"type":"Feature"},{"geometry":{"coordinates":[[[-1.3447712,52.9298916],[-1.3531473,52.9357357],[-1.3545899,52.9429799],[-1.3725987,52.9419038],[-1.385303,52.9263614],[-1.3839369,52.9237977],[-1.3890135,52.9226231],[-1.3877972,52.9114131],[-1.3917641,52.9066919],[-1.3882679,52.9014498],[-1.3781845,52.9010584],[-1.3708305,52.894732],[-1.3621735,52.9071072],[-1.3552655,52.9196381],[-1.3579207,52.9273698],[-1.3447712,52.9298916]]],"type":"Polygon"},"id":"E02004086","properties":{"code":"E02004086","geography":"MSOA","name":"Erewash 009"},"type":"Feature"},{"geometry":{"coordinates":[[[-1.2827152,52.9199586],[-1.2882264,52.9217394],[-1.2946711,52.9193677],[-1.296976,52.9169047],[-1.2899644,52.913951],[-1.2936971,52.910461],[-1.3005381,52.9140419],[-1.3007254,52.9051912],[-1.2946272,52.9031154],[-1.2931821,52.9060374],[-1.2886617,52.9035184],[-1.286415,52.9081454],[-1.2815721,52.9018064],[-1.2773456,52.9007732],[-1.2804813,52.9089332],[-1.2828272,52.9192691],[-1.2827152,52.9199586]]],"type":"Polygon"},"id":"E02004087","properties":{"code":"E02004087","geography":"MSOA","name":"Erewash 010"},"type":"Feature"},{"geometry":{"coordinates":[[[-1.2815721,52.9018064],[-1.286415,52.9081454],[-1.2886617,52.9035184],[-1.2931821,52.9060374],[-1.2946272,52.9031154],[-1.3007254,52.9051912],[-1.3005381,52.9140419],[-1.3143692,52.9132555],[-1.3091966,52.9082116],[-1.3110627,52.8943305],[-1.2994942,52.8961521],[-1.3059432,52.8884788],[-1.2994917,52.886543],[-1.2969038,52.8920176],[-1.2872687,52.8892627],[-1.2903281,52.8927332],[-1.2832521,52.8973128],[-1.2815721,52.9018064]]],"type":"Polygon"},"id":"E02004088","properties":{"code":"E02004088","geography":"MSOA","name":"Erewash 011"},"type":"Feature"},{"geometry":{"coordinates":[[[-1.2623336,52.9041692],[-1.2744995,52.9052437],[-1.2804813,52.9089332],[-1.2773456,52.9007732],[-1.2815721,52.9018064],[-1.2832521,52.8973128],[-1.2756966,52.8961599],[-1.276398,52.8931991],[-1.2679651,52.8903927],[-1.2745243,52.8874375],[-1.2658964,52.8876862],[-1.2663649,52.8951504],[-1.2602889,52.8938466],[-1.2660252,52.9002993],[-1.2623336,52.9041692]]],"type":"Polygon"},"id":"E02004089","properties":{"code":"E02004089","geography":"MSOA","name":"Erewash 012"},"type":"Feature"},{"geometry":{"coordinates":[[[-1.3143692,52.9132555],[-1.3377325,52.9073834],[-1.3405225,52.914115],[-1.3621735,52.9071072],[-1.3708305,52.894732],[-1.3623979,52.8963725],[-1.3614227,52.8923388],[-1.3576001,52.8951257],[-1.3543694,52.8887734],[-1.3393029,52.8896694],[-1.3417948,52.8853064],[-1.3481183,52.8857998],[-1.3499154,52.8806909],[-1.33523,52.8763054],[-1.3299785,52.8781443],[-1.3270155,52.8743107],[-1.321979,52.8763843],[-1.3238846,52.872969],[-1.3193127,52.87285],[-1.3093376,52.8733361],[-1.3109534,52.8808708],[-1.3059432,52.8884788],[-1.2994942,52.8961521],[-1.3110627,52.8943305],[-1.3091966,52.9082116],[-1.3143692,52.9132555]]],"type":"Polygon"},"id":"E02004090","properties":{"code":"E02004090","geography":"MSOA","name":"Erewash 013"},"type":"Feature"},{"geometry":{"coordinates":[[[-1.2466222,52.9030807],[-1.25648,52.9017665],[-1.2623336,52.9041692],[-1.2660252,52.9002993],[-1.2602889,52.8938466],[-1.2663649,52.8951504],[-1.2658964,52.8876862],[-1.2745243,52.8874375],[-1.2679651,52.8903927],[-1.276398,52.8931991],[-1.2898841,52.8850693],[-1.2857236,52.8796168],[-1.2906085,52.8727455],[-1.278433,52.875574],[-1.267894,52.8733494],[-1.2535089,52.879292],[-1.2400603,52.8800894],[-1.2389914,52.883505],[-1.2464035,52.8891185],[-1.2397108,52.8922694],[-1.2474302,52.8986792],[-1.2466222,52.9030807]]],"type":"Polygon"},"id":"E02004091","properties":{"code":"E02004091","geography":"MSOA","name":"Erewash 014"},"type":"Feature"},{"geometry":{"coordinates":[[[-1.276398,52.8931991],[-1.2756966,52.8961599],[-1.2832521,52.8973128],[-1.2903281,52.8927332],[-1.2872687,52.8892627],[-1.2969038,52.8920176],[-1.2994917,52.886543],[-1.3059432,52.8884788],[-1.3109534,52.8808708],[-1.3093376,52.8733361],[-1.3059166,52.8770609],[-1.2906085,52.8727455],[-1.2857236,52.8796168],[-1.2898841,52.8850693],[-1.276398,52.8931991]]],"type":"Polygon"},"id":"E02004092","properties":{"code":"E02004092","geography":"MSOA","name":"Erewash 015"},"type":"Feature"},{"geometry":{"coordinates":[[[-1.305435,52.9821872],[-1.3223699,52.9906629],[-1.3315294,52.9870533],[-1.3281472,52.9816136],[-1.3327963,52.9781233],[-1.3261451,52.9723506],[-1.3249472,52.9752229],[-1.315344,52.975877],[-1.305435,52.9821872]]],"type":"Polygon"},"id":"E02006828","properties":{"code":"E02006828","geography":"MSOA","name":"Erewash 016"},"type":"Feature"}],"type":"FeatureCollection"}
