{"features":[{"geometry":{"coordinates":[[[-0.1728095,51.8565804],[-0.1835706,51.8604366],[-0.1918372,51.8573134],[-0.196856,51.8593732],[-0.2067141,51.8542564],[-0.1964392,51.8495423],[-0.1987537,51.8443506],[-0.2039722,51.8448926],[-0.20997,51.8408906],[-0.1965687,51.8366722],[-0.1856149,51.8367128],[-0.1894789,51.8289407],[-0.2027468,51.8281367],[-0.2047315,51.8245989],[-0.195431,51.8172291],[-0.1836122,51.8150799],[-0.1684574,51.8311554],[-0.1741704,51.8368164],[-0.1701817,51.838811],[-0.1785691,51.8411479],[-0.1700543,51.8391346],[-0.1667884,51.8441985],[-0.1728095,51.8565804]]],"type":"Polygon"},"id":"E02004980","properties":{"code":"E02004980","geography":"MSOA","name":"Welwyn Hatfield 001"},"type":"Feature"},{"geometry":{"coordinates":[[[-0.20997,51.8408906],[-0.215267,51.8400398],[-0.2059876,51.8463924],[-0.2129495,51.8513893],[-0.2257813,51.8445375],[-0.2187059,51.8384073],[-0.2249338,51.8332275],[-0.2257041,51.8376387],[-0.241648,51.835292],[-0.2478146,51.8462229],[-0.2726753,51.840451],[-0.2735634,51.8353332],[-0.2650068,51.8337587],[-0.2432257,51.8121615],[-0.2461988,51.8069516],[-0.2750068,51.7997958],[-0.27754,51.7978174],[-0.2712439,51.7910227],[-0.2773424,51.7760391],[-0.2669882,51.7679748],[-0.2609707,51.762006],[-0.2492553,51.770175],[-0.2479739,51.7755691],[-0.2352255,51.7718013],[-0.2338594,51.7786832],[-0.2214415,51.7790372],[-0.2239576,51.7861457],[-0.2286902,51.8079741],[-0.2259341,51.8138031],[-0.210267,51.8264448],[-0.2047315,51.8245989],[-0.2027468,51.8281367],[-0.1894789,51.8289407],[-0.1856149,51.8367128],[-0.1965687,51.8366722],[-0.20997,51.8408906]]],"type":"Polygon"},"id":"E02004981","properties":{"code":"E02004981","geography":"MSOA","name":"Welwyn Hatfield 002"},"type":"Feature"},{"geometry":{"coordinates":[[[-0.2047315,51.8245989],[-0.210267,51.8264448],[-0.2259341,51.8138031],[-0.2193439,51.8056856],[-0.2053933,51.8061526],[-0.2026755,51.8027202],[-0.2011468,51.8057758],[-0.195431,51.8172291],[-0.2047315,51.8245989]]],"type":"Polygon"},"id":"E02004982","properties":{"code":"E02004982","geography":"MSOA","name":"Welwyn Hatfield 003"},"type":"Feature"},{"geometry":{"coordinates":[[[-0.1836122,51.8150799],[-0.195431,51.8172291],[-0.2011468,51.8057758],[-0.1960042,51.8061904],[-0.1835214,51.7983331],[-0.1812206,51.8008016],[-0.1758486,51.8047213],[-0.1704726,51.8027774],[-0.1634207,51.8083125],[-0.1836122,51.8150799]]],"type":"Polygon"},"id":"E02004983","properties":{"code":"E02004983","geography":"MSOA","name":"Welwyn Hatfield 004"},"type":"Feature"},{"geometry":{"coordinates":[[[-0.164046,51.7893518],[-0.1639266,51.7949259],[-0.1499745,51.7989028],[-0.150003,51.8017717],[-0.1614942,51.8050571],[-0.1634207,51.8083125],[-0.1704726,51.8027774],[-0.1758486,51.8047213],[-0.1812206,51.8008016],[-0.164046,51.7893518]]],"type":"Polygon"},"id":"E02004984","properties":{"code":"E02004984","geography":"MSOA","name":"Welwyn Hatfield 005"},"type":"Feature"},{"geometry":{"coordinates":[[[-0.2026755,51.8027202],[-0.2053933,51.8061526],[-0.2193439,51.8056856],[-0.2259341,51.8138031],[-0.2286902,51.8079741],[-0.2239576,51.7861457],[-0.2140645,51.7817819],[-0.2073474,51.7938668],[-0.2026755,51.8027202]]],"type":"Polygon"},"id":"E02004985","properties":{"code":"E02004985","geography":"MSOA","name":"Welwyn Hatfield 006"},"type":"Feature"},{"geometry":{"coordinates":[[[-0.1835214,51.7983331],[-0.1960042,51.8061904],[-0.2011468,51.8057758],[-0.2026755,51.8027202],[-0.2073474,51.7938668],[-0.1843396,51.7904097],[-0.1828275,51.7928105],[-0.1887473,51.7947605],[-0.1835214,51.7983331]]],"type":"Polygon"},"id":"E02004986","properties":{"code":"E02004986","geography":"MSOA","name":"Welwyn Hatfield 007"},"type":"Feature"},{"geometry":{"coordinates":[[[-0.164046,51.7893518],[-0.1812206,51.8008016],[-0.1835214,51.7983331],[-0.1887473,51.7947605],[-0.1828275,51.7928105],[-0.1843396,51.7904097],[-0.1901042,51.7817349],[-0.182626,51.7831559],[-0.1753387,51.7793792],[-0.1689164,51.7848255],[-0.1634471,51.7839618],[-0.1645262,51.7893052],[-0.164046,51.7893518]]],"type":"Polygon"},"id":"E02004987","properties":{"code":"E02004987","geography":"MSOA","name":"Welwyn Hatfield 008"},"type":"Feature"},{"geometry":{"coordinates":[[[-0.1843396,51.7904097],[-0.2073474,51.7938668],[-0.2140645,51.7817819],[-0.1901042,51.7817349],[-0.1843396,51.7904097]]],"type":"Polygon"},"id":"E02004988","properties":{"code":"E02004988","geography":"MSOA","name":"Welwyn Hatfield 009"},"type":"Feature"},{"geometry":{"coordinates":[[[-0.2140645,51.7817819],[-0.2239576,51.7861457],[-0.2214415,51.7790372],[-0.2338594,51.7786832],[-0.2352255,51.7718013],[-0.2479739,51.7755691],[-0.2492553,51.770175],[-0.2609707,51.762006],[-0.2541451,51.7482205],[-0.2460621,51.7527188],[-0.2407646,51.7521793],[-0.2430816,51.7559743],[-0.2386453,51.7584683],[-0.2430484,51.7607145],[-0.2335186,51.7695382],[-0.2286692,51.7663483],[-0.2158217,51.7674826],[-0.2140645,51.7817819]]],"type":"Polygon"},"id":"E02004989","properties":{"code":"E02004989","geography":"MSOA","name":"Welwyn Hatfield 010"},"type":"Feature"},{"geometry":{"coordinates":[[[-0.1384091,51.7372617],[-0.1382025,51.7515137],[-0.1437686,51.7575635],[-0.1415167,51.773776],[-0.1645262,51.7893052],[-0.1634471,51.7839618],[-0.1689164,51.7848255],[-0.1753387,51.7793792],[-0.182626,51.7831559],[-0.1901042,51.7817349],[-0.2140645,51.7817819],[-0.2158217,51.7674826],[-0.2286692,51.7663483],[-0.2238037,51.763989],[-0.226879,51.7611352],[-0.2218749,51.7529261],[-0.2216299,51.7479895],[-0.2111233,51.7528908],[-0.1948751,51.744752],[-0.1933355,51.7496184],[-0.1734555,51.7505971],[-0.1470955,51.7352022],[-0.1384091,51.7372617]]],"type":"Polygon"},"id":"E02004990","properties":{"code":"E02004990","geography":"MSOA","name":"Welwyn Hatfield 011"},"type":"Feature"},{"geometry":{"coordinates":[[[-0.2286692,51.7663483],[-0.2335186,51.7695382],[-0.2430484,51.7607145],[-0.2386453,51.7584683],[-0.2340671,51.7527603],[-0.2218749,51.7529261],[-0.226879,51.7611352],[-0.2238037,51.763989],[-0.2286692,51.7663483]]],"type":"Polygon"},"id":"E02004991","properties":{"code":"E02004991","geography":"MSOA","name":"Welwyn Hatfield 012"},"type":"Feature"},{"geometry":{"coordinates":[[[-0.2218749,51.7529261],[-0.2340671,51.7527603],[-0.2386453,51.7584683],[-0.2430816,51.7559743],[-0.2407646,51.7521793],[-0.2460621,51.7527188],[-0.2541451,51.7482205],[-0.245618,51.7517716],[-0.2420213,51.7432011],[-0.2351161,51.7413749],[-0.229141,51.7445479],[-0.2338914,51.7473175],[-0.2213727,51.7473723],[-0.2216299,51.7479895],[-0.2218749,51.7529261]]],"type":"Polygon"},"id":"E02004992","properties":{"code":"E02004992","geography":"MSOA","name":"Welwyn Hatfield 013"},"type":"Feature"},{"geometry":{"coordinates":[[[-0.1384091,51.7372617],[-0.1470955,51.7352022],[-0.1734555,51.7505971],[-0.1933355,51.7496184],[-0.1948751,51.744752],[-0.2111233,51.7528908],[-0.2216299,51.7479895],[-0.2213727,51.7473723],[-0.2076497,51.7379452],[-0.1954449,51.7358548],[-0.1891249,51.7383482],[-0.185605,51.7341952],[-0.1777356,51.7328803],[-0.1880787,51.7337668],[-0.1870709,51.7295042],[-0.2043945,51.7299869],[-0.202645,51.7097368],[-0.173745,51.7026387],[-0.1721381,51.7027377],[-0.1642212,51.7089943],[-0.1555608,51.7264358],[-0.1347388,51.7261303],[-0.1138977,51.7209517],[-0.1074721,51.7254669],[-0.0986311,51.7359313],[-0.0922149,51.7432692],[-0.1012343,51.7451582],[-0.1052139,51.7415545],[-0.1284265,51.7414247],[-0.1282643,51.7392168],[-0.1384091,51.7372617]]],"type":"Polygon"},"id":"E02004994","properties":{"code":"E02004994","geography":"MSOA","name":"Welwyn Hatfield 015"},"type":"Feature"},{"geometry":{"coordinates":[[[-0.1138977,51.7209517],[-0.1347388,51.7261303],[-0.1555608,51.7264358],[-0.1642212,51.7089943],[-0.1721381,51.7027377],[-0.1631428,51.6998542],[-0.1635181,51.6881115],[-0.1493952,51.6855147],[-0.1058047,51.6918728],[-0.1056076,51.7136197],[-0.1138977,51.7209517]]],"type":"Polygon"},"id":"E02004995","properties":{"code":"E02004995","geography":"MSOA","name":"Welwyn Hatfield 016"},"type":"Feature"},{"geometry":{"coordinates":[[[-0.202645,51.7097368],[-0.2043945,51.7299869],[-0.1870709,51.7295042],[-0.1880787,51.7337668],[-0.1777356,51.7328803],[-0.185605,51.7341952],[-0.1891249,51.7383482],[-0.1954449,51.7358548],[-0.2076497,51.7379452],[-0.2213727,51.7473723],[-0.2338914,51.7473175],[-0.229141,51.7445479],[-0.2351161,51.7413749],[-0.2420213,51.7432011],[-0.246536,51.7382027],[-0.2444503,51.731887],[-0.2503889,51.732542],[-0.2551587,51.7295326],[-0.2411338,51.7157353],[-0.238995,51.7061374],[-0.2342941,51.7107563],[-0.2222813,51.7131244],[-0.202645,51.7097368]]],"type":"Polygon"},"id":"E02007092","properties":{"code":"E02007092","geography":"MSOA","name":"Welwyn Hatfield 017"},"type":"Feature"}],"type":"FeatureCollection"}
