{"features":[{"geometry":{"coordinates":[[[-0.1626039,51.9207638],[-0.1679606,51.9279571],[-0.1755989,51.925719],[-0.1874316,51.926997],[-0.1922141,51.920117],[-0.1635258,51.9206881],[-0.1626039,51.9207638]]],"type":"Polygon"},"id":"E02004944","properties":{"code":"E02004944","geography":"MSOA","name":"Stevenage 001"},"type":"Feature"},{"geometry":{"coordinates":[[[-0.1679606,51.9279571],[-0.1845643,51.9324315],[-0.1931182,51.9277282],[-0.1944079,51.9304267],[-0.2101039,51.9283667],[-0.2200685,51.9309882],[-0.2262181,51.9281936],[-0.2153679,51.9162933],[-0.212944,51.9034489],[-0.2075991,51.9044967],[-0.2095663,51.9121669],[-0.2012354,51.9133666],[-0.1990046,51.9094608],[-0.1925655,51.9102991],[-0.1923127,51.9163654],[-0.1922141,51.920117],[-0.1874316,51.926997],[-0.1755989,51.925719],[-0.1679606,51.9279571]]],"type":"Polygon"},"id":"E02004945","properties":{"code":"E02004945","geography":"MSOA","name":"Stevenage 002"},"type":"Feature"},{"geometry":{"coordinates":[[[-0.1754332,51.9157036],[-0.1603769,51.9159738],[-0.1635258,51.9206881],[-0.1922141,51.920117],[-0.1923127,51.9163654],[-0.1770886,51.9183677],[-0.1754332,51.9157036]]],"type":"Polygon"},"id":"E02004946","properties":{"code":"E02004946","geography":"MSOA","name":"Stevenage 003"},"type":"Feature"},{"geometry":{"coordinates":[[[-0.212944,51.9034489],[-0.2153679,51.9162933],[-0.2262181,51.9281936],[-0.2300098,51.9113621],[-0.2343809,51.9052348],[-0.228888,51.9034571],[-0.230506,51.8988857],[-0.2252984,51.8932036],[-0.2186233,51.8959557],[-0.2146072,51.8940606],[-0.2102639,51.8971972],[-0.215813,51.9029115],[-0.212944,51.9034489]]],"type":"Polygon"},"id":"E02004948","properties":{"code":"E02004948","geography":"MSOA","name":"Stevenage 005"},"type":"Feature"},{"geometry":{"coordinates":[[[-0.1754332,51.9157036],[-0.1770886,51.9183677],[-0.1923127,51.9163654],[-0.1925655,51.9102991],[-0.1990046,51.9094608],[-0.2012354,51.9133666],[-0.2095663,51.9121669],[-0.2075991,51.9044967],[-0.1816714,51.9079843],[-0.1793222,51.9127337],[-0.1754332,51.9157036]]],"type":"Polygon"},"id":"E02004949","properties":{"code":"E02004949","geography":"MSOA","name":"Stevenage 006"},"type":"Feature"},{"geometry":{"coordinates":[[[-0.1594486,51.9037133],[-0.1635117,51.91004],[-0.1716994,51.9091016],[-0.1793222,51.9127337],[-0.1816714,51.9079843],[-0.1784408,51.8973503],[-0.1747442,51.8992009],[-0.1598542,51.9016776],[-0.1594486,51.9037133]]],"type":"Polygon"},"id":"E02004950","properties":{"code":"E02004950","geography":"MSOA","name":"Stevenage 007"},"type":"Feature"},{"geometry":{"coordinates":[[[-0.1784408,51.8973503],[-0.1816714,51.9079843],[-0.2075991,51.9044967],[-0.212944,51.9034489],[-0.215813,51.9029115],[-0.2102639,51.8971972],[-0.1986589,51.8993386],[-0.1951432,51.8907468],[-0.1909123,51.8900686],[-0.1832372,51.8981842],[-0.1784408,51.8973503]]],"type":"Polygon"},"id":"E02004951","properties":{"code":"E02004951","geography":"MSOA","name":"Stevenage 008"},"type":"Feature"},{"geometry":{"coordinates":[[[-0.159325,51.8858344],[-0.1530099,51.8990118],[-0.1598542,51.9016776],[-0.1747442,51.8992009],[-0.159325,51.8858344]]],"type":"Polygon"},"id":"E02004952","properties":{"code":"E02004952","geography":"MSOA","name":"Stevenage 009"},"type":"Feature"},{"geometry":{"coordinates":[[[-0.159325,51.8858344],[-0.1747442,51.8992009],[-0.1784408,51.8973503],[-0.1832372,51.8981842],[-0.1909123,51.8900686],[-0.1761921,51.8878479],[-0.1611828,51.8849163],[-0.159325,51.8858344]]],"type":"Polygon"},"id":"E02004953","properties":{"code":"E02004953","geography":"MSOA","name":"Stevenage 010"},"type":"Feature"},{"geometry":{"coordinates":[[[-0.1909123,51.8900686],[-0.1951432,51.8907468],[-0.1986589,51.8993386],[-0.2102639,51.8971972],[-0.2146072,51.8940606],[-0.2041817,51.8801452],[-0.1919207,51.8828931],[-0.1754701,51.8757875],[-0.1707212,51.8774376],[-0.1761921,51.8878479],[-0.1909123,51.8900686]]],"type":"Polygon"},"id":"E02004954","properties":{"code":"E02004954","geography":"MSOA","name":"Stevenage 011"},"type":"Feature"},{"geometry":{"coordinates":[[[-0.1611828,51.8849163],[-0.1761921,51.8878479],[-0.1707212,51.8774376],[-0.1754701,51.8757875],[-0.1735786,51.8753647],[-0.1467969,51.8706003],[-0.1561475,51.8775759],[-0.1512886,51.8853469],[-0.1551065,51.887146],[-0.1611828,51.8849163]]],"type":"Polygon"},"id":"E02004955","properties":{"code":"E02004955","geography":"MSOA","name":"Stevenage 012"},"type":"Feature"},{"geometry":{"coordinates":[[[-0.1622187,51.920335],[-0.1626039,51.9207638],[-0.1635258,51.9206881],[-0.1603769,51.9159738],[-0.1754332,51.9157036],[-0.1793222,51.9127337],[-0.1716994,51.9091016],[-0.1635117,51.91004],[-0.1594486,51.9037133],[-0.1554564,51.9036849],[-0.1564818,51.9161648],[-0.1622187,51.920335]]],"type":"Polygon"},"id":"E02007091","properties":{"code":"E02007091","geography":"MSOA","name":"Stevenage 013"},"type":"Feature"}],"type":"FeatureCollection"}
