{"features":[{"geometry":{"coordinates":[[[0.993576,52.7983349],[0.9806856,52.8013682],[0.9757413,52.8069941],[0.9676432,52.8077125],[0.9665303,52.8030703],[0.9507649,52.8046759],[0.9368247,52.7955552],[0.9384231,52.7879475],[0.9305109,52.7893331],[0.9237837,52.8008254],[0.9176278,52.803287],[0.8885536,52.7915836],[0.8798884,52.7861805],[0.8894904,52.7845719],[0.8904926,52.7677125],[0.9024579,52.7653148],[0.9088864,52.7370201],[0.9388956,52.7325318],[0.9480941,52.7337655],[0.9433677,52.7196907],[0.9265681,52.7137295],[0.9217133,52.7103509],[0.9333492,52.694756],[0.9687674,52.6985293],[0.9709084,52.7022875],[0.990069,52.6951112],[1.0054878,52.6991557],[1.0069828,52.6974638],[1.0133211,52.6965959],[1.0202795,52.7016084],[1.0340727,52.6963619],[1.0871096,52.6976445],[1.0846088,52.7035984],[1.1051812,52.7146683],[1.0885309,52.7231695],[1.0802218,52.7409323],[1.0615486,52.7431571],[1.051068,52.7503877],[1.0550196,52.7568977],[1.0447502,52.7690182],[1.0313176,52.7692402],[1.0112399,52.7629613],[1.0002205,52.7657606],[1.0022285,52.7761799],[0.99215,52.7800796],[0.9903483,52.7840389],[0.9969303,52.7925136],[0.993576,52.7983349]]],"type":"Polygon"},"id":"E02005503","properties":{"code":"E02005503","geography":"MSOA","name":"Breckland 001"},"type":"Feature"},{"geometry":{"coordinates":[[[0.8885536,52.7915836],[0.8717212,52.7980795],[0.8654012,52.8074031],[0.8530135,52.8071827],[0.8394257,52.8111012],[0.8297819,52.8047304],[0.8320573,52.7988903],[0.8180567,52.7943643],[0.8193078,52.7861147],[0.8115723,52.7864225],[0.8091013,52.7800274],[0.8030245,52.7813497],[0.8018729,52.770035],[0.7958128,52.769072],[0.7802626,52.7693846],[0.7698309,52.7791499],[0.7528624,52.775689],[0.7518189,52.7784649],[0.717816,52.7823209],[0.7079218,52.7884471],[0.7019812,52.7866493],[0.6958964,52.7805158],[0.7004702,52.7734203],[0.6900651,52.7700077],[0.6887082,52.7519479],[0.6733731,52.7459572],[0.6681166,52.7405337],[0.7011101,52.7361677],[0.7182094,52.7217707],[0.7082328,52.7124125],[0.711039,52.7090023],[0.7054471,52.7103008],[0.6996363,52.7077626],[0.6989996,52.701389],[0.6879606,52.6979326],[0.6746537,52.6983677],[0.6714956,52.7028379],[0.65374,52.7040416],[0.6477304,52.6906555],[0.6346115,52.6931334],[0.6226519,52.7016703],[0.5710193,52.6890799],[0.5509633,52.6804989],[0.5647173,52.6715677],[0.562157,52.6552738],[0.5784876,52.6534933],[0.6114582,52.6549317],[0.6564453,52.6728618],[0.6656786,52.6669047],[0.7034807,52.6622136],[0.7166872,52.6630833],[0.7395996,52.6318857],[0.7450525,52.6370256],[0.7631235,52.638563],[0.7621145,52.6410757],[0.7497631,52.6518652],[0.7546011,52.6734076],[0.7713245,52.6716577],[0.7828486,52.6763595],[0.7824316,52.6877187],[0.7981073,52.6929877],[0.8413763,52.6951359],[0.8386982,52.7007097],[0.846993,52.7034721],[0.8463869,52.7177668],[0.8630544,52.7190947],[0.8632376,52.7166226],[0.8783028,52.7123402],[0.8884236,52.7135483],[0.8894403,52.7180153],[0.9100436,52.7195074],[0.9265681,52.7137295],[0.9433677,52.7196907],[0.9480941,52.7337655],[0.9388956,52.7325318],[0.9088864,52.7370201],[0.9024579,52.7653148],[0.8904926,52.7677125],[0.8894904,52.7845719],[0.8798884,52.7861805],[0.8885536,52.7915836]]],"type":"Polygon"},"id":"E02005504","properties":{"code":"E02005504","geography":"MSOA","name":"Breckland 002"},"type":"Feature"},{"geometry":{"coordinates":[[[1.0069828,52.6974638],[1.0054878,52.6991557],[0.990069,52.6951112],[0.9709084,52.7022875],[0.9687674,52.6985293],[0.9333492,52.694756],[0.9217133,52.7103509],[0.9121167,52.7064065],[0.9067637,52.6968598],[0.9219438,52.6840899],[0.9350812,52.6827067],[0.9476644,52.6825013],[0.9475929,52.6798388],[0.9675787,52.6765817],[0.9620962,52.6745882],[0.9675492,52.6743601],[0.9675061,52.6621604],[1.0048583,52.6727276],[0.9960207,52.6912433],[1.0069828,52.6974638]]],"type":"Polygon"},"id":"E02005505","properties":{"code":"E02005505","geography":"MSOA","name":"Breckland 003"},"type":"Feature"},{"geometry":{"coordinates":[[[0.9265681,52.7137295],[0.9100436,52.7195074],[0.8894403,52.7180153],[0.8884236,52.7135483],[0.8783028,52.7123402],[0.8632376,52.7166226],[0.8630544,52.7190947],[0.8463869,52.7177668],[0.846993,52.7034721],[0.8386982,52.7007097],[0.8413763,52.6951359],[0.7981073,52.6929877],[0.7824316,52.6877187],[0.7828486,52.6763595],[0.7713245,52.6716577],[0.7546011,52.6734076],[0.7497631,52.6518652],[0.7621145,52.6410757],[0.7873785,52.6398812],[0.7976253,52.6424703],[0.8075135,52.6398614],[0.8198411,52.6427184],[0.8204176,52.655075],[0.8299185,52.6593213],[0.8370258,52.6678848],[0.8478031,52.6637153],[0.8514689,52.6667997],[0.8535712,52.6567879],[0.8582979,52.6554851],[0.8673446,52.6589047],[0.8807608,52.6568355],[0.9016282,52.6447704],[0.9091247,52.6497339],[0.9061778,52.6548478],[0.9208885,52.6618805],[0.9297652,52.6693374],[0.9350812,52.6827067],[0.9219438,52.6840899],[0.9067637,52.6968598],[0.9121167,52.7064065],[0.9217133,52.7103509],[0.9265681,52.7137295]]],"type":"Polygon"},"id":"E02005506","properties":{"code":"E02005506","geography":"MSOA","name":"Breckland 004"},"type":"Feature"},{"geometry":{"coordinates":[[[0.9675061,52.6621604],[0.9675492,52.6743601],[0.9620962,52.6745882],[0.9675787,52.6765817],[0.9475929,52.6798388],[0.9476644,52.6825013],[0.9350812,52.6827067],[0.9297652,52.6693374],[0.9208885,52.6618805],[0.9383723,52.656412],[0.9675061,52.6621604]]],"type":"Polygon"},"id":"E02005507","properties":{"code":"E02005507","geography":"MSOA","name":"Breckland 005"},"type":"Feature"},{"geometry":{"coordinates":[[[1.0871096,52.6976445],[1.0340727,52.6963619],[1.0202795,52.7016084],[1.0133211,52.6965959],[1.0069828,52.6974638],[0.9960207,52.6912433],[1.0048583,52.6727276],[0.9675061,52.6621604],[0.9383723,52.656412],[0.9396736,52.6480937],[0.9347187,52.6475306],[0.9395033,52.646676],[0.9452467,52.6391018],[0.9424045,52.6365114],[0.9463484,52.6272353],[0.8918129,52.6179783],[0.8948661,52.6127087],[0.8888163,52.6103953],[0.8932806,52.604351],[0.8869046,52.6000749],[0.8999186,52.5968836],[0.9222414,52.5825018],[0.9470055,52.5758102],[0.962166,52.5811548],[0.9625576,52.5834571],[0.9536897,52.5849198],[0.9545632,52.5869132],[0.9628577,52.5859209],[0.9637551,52.5946213],[1.0000023,52.5918097],[1.0217895,52.5865341],[1.0270055,52.58939],[1.0394634,52.5881498],[1.0368789,52.6157746],[1.0188433,52.6157225],[1.0255794,52.6300113],[1.0235304,52.6397284],[1.0430737,52.6464879],[1.0547821,52.6589237],[1.0544081,52.6633053],[1.0746272,52.6381446],[1.0789622,52.6487156],[1.0896209,52.6473446],[1.0933429,52.6510326],[1.0976724,52.6497333],[1.0998719,52.6728258],[1.1082993,52.6824982],[1.0871096,52.6976445]]],"type":"Polygon"},"id":"E02005508","properties":{"code":"E02005508","geography":"MSOA","name":"Breckland 006"},"type":"Feature"},{"geometry":{"coordinates":[[[0.7395996,52.6318857],[0.7166872,52.6630833],[0.7034807,52.6622136],[0.6656786,52.6669047],[0.6564453,52.6728618],[0.6114582,52.6549317],[0.6115122,52.6496844],[0.6188438,52.6508607],[0.6380309,52.6404715],[0.65266,52.6221917],[0.7023835,52.6243702],[0.7129946,52.6250645],[0.7234146,52.635491],[0.7395996,52.6318857]]],"type":"Polygon"},"id":"E02005509","properties":{"code":"E02005509","geography":"MSOA","name":"Breckland 007"},"type":"Feature"},{"geometry":{"coordinates":[[[0.9208885,52.6618805],[0.9061778,52.6548478],[0.9091247,52.6497339],[0.9016282,52.6447704],[0.8807608,52.6568355],[0.8673446,52.6589047],[0.8582979,52.6554851],[0.8535712,52.6567879],[0.8514689,52.6667997],[0.8478031,52.6637153],[0.8370258,52.6678848],[0.8299185,52.6593213],[0.8204176,52.655075],[0.8198411,52.6427184],[0.8075135,52.6398614],[0.7976253,52.6424703],[0.7873785,52.6398812],[0.7621145,52.6410757],[0.7631235,52.638563],[0.7450525,52.6370256],[0.7395996,52.6318857],[0.7234146,52.635491],[0.7129946,52.6250645],[0.7023835,52.6243702],[0.7043141,52.6156772],[0.73915,52.6150229],[0.7407166,52.6106594],[0.7501852,52.6091053],[0.7504573,52.5984313],[0.7439322,52.5945657],[0.7520951,52.5959571],[0.7610855,52.5726919],[0.7663741,52.5734434],[0.7735273,52.5670899],[0.78232,52.5672772],[0.7856308,52.5702514],[0.7984134,52.5668575],[0.8028017,52.5712856],[0.8185464,52.5797326],[0.8271199,52.5809141],[0.8206204,52.5890392],[0.823902,52.5971299],[0.8354624,52.5971413],[0.8631511,52.6086635],[0.8751547,52.601976],[0.8869046,52.6000749],[0.8932806,52.604351],[0.8888163,52.6103953],[0.8948661,52.6127087],[0.8918129,52.6179783],[0.9463484,52.6272353],[0.9424045,52.6365114],[0.9452467,52.6391018],[0.9395033,52.646676],[0.9347187,52.6475306],[0.9396736,52.6480937],[0.9383723,52.656412],[0.9208885,52.6618805]]],"type":"Polygon"},"id":"E02005510","properties":{"code":"E02005510","geography":"MSOA","name":"Breckland 008"},"type":"Feature"},{"geometry":{"coordinates":[[[0.8062442,52.5659894],[0.8267735,52.5571095],[0.8325991,52.5608489],[0.8434064,52.5554242],[0.8479012,52.5565697],[0.8513152,52.5697234],[0.8600263,52.5706954],[0.8608749,52.5744167],[0.8555552,52.5758438],[0.8559282,52.5793339],[0.8441029,52.5779019],[0.8373609,52.5817903],[0.8271199,52.5809141],[0.8185464,52.5797326],[0.8028017,52.5712856],[0.8062442,52.5659894]]],"type":"Polygon"},"id":"E02005511","properties":{"code":"E02005511","geography":"MSOA","name":"Breckland 009"},"type":"Feature"},{"geometry":{"coordinates":[[[0.8869046,52.6000749],[0.8751547,52.601976],[0.8631511,52.6086635],[0.8354624,52.5971413],[0.823902,52.5971299],[0.8206204,52.5890392],[0.8271199,52.5809141],[0.8373609,52.5817903],[0.8441029,52.5779019],[0.8559282,52.5793339],[0.8555552,52.5758438],[0.8608749,52.5744167],[0.8600263,52.5706954],[0.8513152,52.5697234],[0.8479012,52.5565697],[0.8434064,52.5554242],[0.8325991,52.5608489],[0.8267735,52.5571095],[0.8062442,52.5659894],[0.7986818,52.5648143],[0.7919173,52.5587861],[0.822603,52.5116135],[0.7943095,52.5039807],[0.7703583,52.5068446],[0.7542296,52.4848035],[0.7566834,52.472019],[0.7635442,52.4719372],[0.783766,52.461944],[0.8033359,52.4594967],[0.8071282,52.4560487],[0.8281428,52.4556883],[0.8463039,52.4607863],[0.881015,52.4639034],[0.8833111,52.4714914],[0.8793886,52.4712813],[0.8781656,52.477784],[0.9124109,52.4790443],[0.9146799,52.4761177],[0.9305506,52.4797129],[0.9407323,52.5007808],[0.9520539,52.5031533],[0.9526677,52.5107407],[0.9715457,52.5129874],[0.9782715,52.5175413],[0.9962059,52.5396799],[1.0075052,52.5395919],[1.0120515,52.5429125],[1.0048912,52.5497674],[0.9734857,52.5547713],[0.9526844,52.5675975],[0.9470055,52.5758102],[0.9222414,52.5825018],[0.8999186,52.5968836],[0.8869046,52.6000749]]],"type":"Polygon"},"id":"E02005512","properties":{"code":"E02005512","geography":"MSOA","name":"Breckland 010"},"type":"Feature"},{"geometry":{"coordinates":[[[1.041542,52.5361765],[1.0240109,52.5423302],[1.0120515,52.5429125],[1.0075052,52.5395919],[0.9962059,52.5396799],[0.9782715,52.5175413],[0.9715457,52.5129874],[0.9526677,52.5107407],[0.9520539,52.5031533],[0.9686072,52.4965148],[0.998458,52.4934989],[1.0002799,52.49053],[1.0011623,52.4948721],[1.0499443,52.5032681],[1.0539632,52.5114893],[1.0458339,52.5139877],[1.0357427,52.5116204],[1.030342,52.5182815],[1.0260009,52.5163974],[1.0211757,52.5187114],[1.0303506,52.5219349],[1.028256,52.5254264],[1.044341,52.5313507],[1.041542,52.5361765]]],"type":"Polygon"},"id":"E02005513","properties":{"code":"E02005513","geography":"MSOA","name":"Breckland 011"},"type":"Feature"},{"geometry":{"coordinates":[[[0.7023835,52.6243702],[0.65266,52.6221917],[0.6380309,52.6404715],[0.6188438,52.6508607],[0.6115122,52.6496844],[0.6114582,52.6549317],[0.5784876,52.6534933],[0.5754509,52.6451764],[0.5616293,52.6131647],[0.5670867,52.6140786],[0.5648571,52.5975932],[0.5591079,52.5907999],[0.5380578,52.5862382],[0.5304992,52.5761058],[0.5350503,52.5670001],[0.5563003,52.5646358],[0.5613259,52.5665863],[0.5769895,52.5610345],[0.5929088,52.54572],[0.6051132,52.5431454],[0.612104,52.5347139],[0.5836505,52.4680089],[0.5824767,52.451843],[0.5974409,52.4541887],[0.6094548,52.4526975],[0.6155767,52.4488897],[0.6218429,52.4512462],[0.6217033,52.4544082],[0.6297738,52.4540467],[0.6288226,52.4500633],[0.641809,52.4509464],[0.6662989,52.4624898],[0.6839494,52.4531465],[0.6944465,52.4509985],[0.705562,52.4525684],[0.7124338,52.4596416],[0.7147628,52.4577261],[0.7241096,52.4608543],[0.7277186,52.4665713],[0.7365898,52.4652683],[0.7376267,52.4442466],[0.7431447,52.4356017],[0.7559349,52.4290975],[0.7704753,52.4243466],[0.8071282,52.4560487],[0.8033359,52.4594967],[0.783766,52.461944],[0.7635442,52.4719372],[0.7566834,52.472019],[0.7542296,52.4848035],[0.7703583,52.5068446],[0.7943095,52.5039807],[0.822603,52.5116135],[0.7919173,52.5587861],[0.7986818,52.5648143],[0.8062442,52.5659894],[0.8028017,52.5712856],[0.7984134,52.5668575],[0.7856308,52.5702514],[0.78232,52.5672772],[0.7735273,52.5670899],[0.7663741,52.5734434],[0.7610855,52.5726919],[0.7520951,52.5959571],[0.7439322,52.5945657],[0.7504573,52.5984313],[0.7501852,52.6091053],[0.7407166,52.6106594],[0.73915,52.6150229],[0.7043141,52.6156772],[0.7023835,52.6243702]]],"type":"Polygon"},"id":"E02005514","properties":{"code":"E02005514","geography":"MSOA","name":"Breckland 012"},"type":"Feature"},{"geometry":{"coordinates":[[[1.0895044,52.5145591],[1.0952317,52.5180001],[1.0928826,52.5212031],[1.0851867,52.5226121],[1.061376,52.5371611],[1.041542,52.5361765],[1.044341,52.5313507],[1.028256,52.5254264],[1.0303506,52.5219349],[1.0211757,52.5187114],[1.0260009,52.5163974],[1.030342,52.5182815],[1.0357427,52.5116204],[1.0458339,52.5139877],[1.0539632,52.5114893],[1.0499443,52.5032681],[1.0011623,52.4948721],[1.0002799,52.49053],[0.998458,52.4934989],[0.9686072,52.4965148],[0.9520539,52.5031533],[0.9407323,52.5007808],[0.9305506,52.4797129],[0.9146799,52.4761177],[0.9153628,52.4714543],[0.9218573,52.4680135],[0.9171691,52.4597621],[0.9187389,52.4503364],[0.9229872,52.4472261],[0.9405223,52.4553325],[0.9519951,52.4538974],[0.9668834,52.4342425],[0.9739777,52.4338132],[0.9741364,52.4370009],[0.9988175,52.4436004],[1.001611,52.4483211],[1.0337087,52.4347087],[1.0628478,52.4331927],[1.0731488,52.4547589],[1.0946225,52.4602564],[1.0952491,52.4703624],[1.0906131,52.4686814],[1.0855887,52.4709952],[1.0876719,52.481223],[1.0824789,52.4846616],[1.0793641,52.4992686],[1.0789296,52.5069884],[1.0895044,52.5145591]]],"type":"Polygon"},"id":"E02005515","properties":{"code":"E02005515","geography":"MSOA","name":"Breckland 013"},"type":"Feature"},{"geometry":{"coordinates":[[[0.9146799,52.4761177],[0.9124109,52.4790443],[0.8781656,52.477784],[0.8793886,52.4712813],[0.8833111,52.4714914],[0.881015,52.4639034],[0.8463039,52.4607863],[0.8281428,52.4556883],[0.8071282,52.4560487],[0.7704753,52.4243466],[0.7751679,52.4238667],[0.7774959,52.41941],[0.7550286,52.4066826],[0.7541647,52.4018161],[0.7417899,52.392675],[0.7409393,52.3881706],[0.7498174,52.3829076],[0.765939,52.3903386],[0.7734076,52.3863084],[0.7859005,52.3864703],[0.7961034,52.391223],[0.8081448,52.3895056],[0.8382893,52.4007055],[0.8554118,52.3994223],[0.8568971,52.3970553],[0.8655563,52.3905235],[0.8910979,52.3907799],[0.9048998,52.3857641],[0.9228595,52.3900197],[0.9302039,52.388819],[0.9469314,52.3759636],[0.9674423,52.3700937],[0.9977837,52.3715207],[1.0067852,52.3757239],[1.0299284,52.3787163],[1.0202063,52.3941971],[1.0243286,52.3986234],[1.0213892,52.4059517],[1.0313744,52.4102484],[1.0340744,52.4157567],[1.0212406,52.416359],[1.0427724,52.4256332],[1.0453924,52.4199323],[1.0570476,52.420036],[1.0587429,52.4268354],[1.0674735,52.4288051],[1.0628478,52.4331927],[1.0337087,52.4347087],[1.001611,52.4483211],[0.9988175,52.4436004],[0.9741364,52.4370009],[0.9739777,52.4338132],[0.9668834,52.4342425],[0.9519951,52.4538974],[0.9405223,52.4553325],[0.9229872,52.4472261],[0.9187389,52.4503364],[0.9171691,52.4597621],[0.9218573,52.4680135],[0.9153628,52.4714543],[0.9146799,52.4761177]]],"type":"Polygon"},"id":"E02005516","properties":{"code":"E02005516","geography":"MSOA","name":"Breckland 014"},"type":"Feature"},{"geometry":{"coordinates":[[[0.7559349,52.4290975],[0.7431447,52.4356017],[0.7376267,52.4442466],[0.7365898,52.4652683],[0.7277186,52.4665713],[0.7241096,52.4608543],[0.7147628,52.4577261],[0.7124338,52.4596416],[0.705562,52.4525684],[0.7188792,52.4495604],[0.7257223,52.4444694],[0.7267065,52.4372051],[0.7186236,52.4242376],[0.7208501,52.4189951],[0.7434023,52.4147347],[0.7481702,52.416095],[0.7559349,52.4290975]]],"type":"Polygon"},"id":"E02005517","properties":{"code":"E02005517","geography":"MSOA","name":"Breckland 015"},"type":"Feature"},{"geometry":{"coordinates":[[[0.7704753,52.4243466],[0.7559349,52.4290975],[0.7481702,52.416095],[0.7434023,52.4147347],[0.7550286,52.4066826],[0.7774959,52.41941],[0.7751679,52.4238667],[0.7704753,52.4243466]]],"type":"Polygon"},"id":"E02005518","properties":{"code":"E02005518","geography":"MSOA","name":"Breckland 016"},"type":"Feature"},{"geometry":{"coordinates":[[[0.7434023,52.4147347],[0.7208501,52.4189951],[0.7186236,52.4242376],[0.7267065,52.4372051],[0.7257223,52.4444694],[0.7188792,52.4495604],[0.668438,52.4091572],[0.6845178,52.3991172],[0.7124115,52.3946041],[0.7352333,52.3953217],[0.7417899,52.392675],[0.7541647,52.4018161],[0.7550286,52.4066826],[0.7434023,52.4147347]]],"type":"Polygon"},"id":"E02005519","properties":{"code":"E02005519","geography":"MSOA","name":"Breckland 017"},"type":"Feature"}],"type":"FeatureCollection"}
