{"features":[{"geometry":{"coordinates":[[[-3.8996444,50.8345173],[-3.905657,50.8295556],[-3.9159958,50.8304727],[-3.9403919,50.8255627],[-3.9433121,50.8371085],[-3.962072,50.8495131],[-3.9610762,50.8562903],[-3.9758578,50.8563209],[-3.989366,50.8500515],[-3.9968612,50.8546519],[-3.9948385,50.8691667],[-4.0107074,50.8632338],[-4.0230185,50.8660632],[-4.0239087,50.8603668],[-4.0364764,50.8593647],[-4.0399278,50.8685447],[-4.0519613,50.8626493],[-4.0574188,50.8708653],[-4.0665918,50.8703482],[-4.0686563,50.8746201],[-4.0899942,50.8673212],[-4.085385,50.8577442],[-4.1031073,50.850304],[-4.1028027,50.8355094],[-4.1183567,50.8377082],[-4.1226668,50.8430281],[-4.129456,50.8434975],[-4.1384469,50.8395453],[-4.1415975,50.8317969],[-4.163989,50.830906],[-4.1582138,50.8154646],[-4.1771834,50.8071667],[-4.1737211,50.8046204],[-4.1762303,50.8014929],[-4.1687392,50.797663],[-4.183439,50.7957535],[-4.1907452,50.78965],[-4.1690286,50.7915609],[-4.1663942,50.7870076],[-4.1818535,50.7846963],[-4.2057688,50.7749197],[-4.2013542,50.7653392],[-4.1859491,50.7576767],[-4.1273929,50.7282762],[-4.1112543,50.7268802],[-4.0943495,50.7295012],[-4.0815929,50.7269856],[-4.0462798,50.7304226],[-4.0294169,50.7338545],[-4.0176692,50.7323468],[-4.012215,50.7345726],[-4.0142938,50.7423837],[-3.9962188,50.7491181],[-3.9885819,50.7475528],[-3.9844974,50.742072],[-3.9892997,50.7339129],[-3.9702258,50.7400584],[-3.9589586,50.7388585],[-3.9164901,50.7398052],[-3.9095344,50.7557369],[-3.9115562,50.7768585],[-3.9048472,50.7818525],[-3.8947235,50.7799446],[-3.8999251,50.7760211],[-3.8974948,50.7748834],[-3.8876238,50.7788189],[-3.8927379,50.7832578],[-3.845553,50.7815972],[-3.8358817,50.7929823],[-3.8441498,50.8092406],[-3.839406,50.8187709],[-3.8518767,50.8173008],[-3.8597407,50.8213168],[-3.8776908,50.8189444],[-3.8809161,50.8261718],[-3.8996444,50.8345173]]],"type":"Polygon"},"id":"E02004229","properties":{"code":"E02004229","geography":"MSOA","name":"West Devon 001"},"type":"Feature"},{"geometry":{"coordinates":[[[-3.9589586,50.7388585],[-3.9702258,50.7400584],[-3.9892997,50.7339129],[-3.9844974,50.742072],[-3.9885819,50.7475528],[-3.9962188,50.7491181],[-4.0142938,50.7423837],[-4.012215,50.7345726],[-4.0176692,50.7323468],[-4.0294169,50.7338545],[-4.0462798,50.7304226],[-4.0566912,50.7101998],[-4.0494762,50.7034028],[-4.0616938,50.6868995],[-4.045829,50.6953217],[-4.0191983,50.6734876],[-4.0009787,50.6847065],[-3.9882105,50.699648],[-3.9740193,50.7016155],[-3.9733986,50.7064014],[-3.9665253,50.7065024],[-3.9589571,50.701582],[-3.953051,50.7141966],[-3.9547391,50.7239125],[-3.9307571,50.7295312],[-3.9373667,50.7374301],[-3.9458254,50.7360397],[-3.9589586,50.7388585]]],"type":"Polygon"},"id":"E02004230","properties":{"code":"E02004230","geography":"MSOA","name":"West Devon 002"},"type":"Feature"},{"geometry":{"coordinates":[[[-3.845553,50.7815972],[-3.8927379,50.7832578],[-3.8876238,50.7788189],[-3.8974948,50.7748834],[-3.8999251,50.7760211],[-3.8947235,50.7799446],[-3.9048472,50.7818525],[-3.9115562,50.7768585],[-3.9095344,50.7557369],[-3.9164901,50.7398052],[-3.9589586,50.7388585],[-3.9458254,50.7360397],[-3.9373667,50.7374301],[-3.9307571,50.7295312],[-3.9547391,50.7239125],[-3.953051,50.7141966],[-3.9589571,50.701582],[-3.9665253,50.7065024],[-3.9733986,50.7064014],[-3.9740193,50.7016155],[-3.9882105,50.699648],[-4.0009787,50.6847065],[-4.0191983,50.6734876],[-4.0279863,50.6741304],[-4.0393578,50.6692613],[-4.0391024,50.6634756],[-4.050672,50.6566926],[-4.0899308,50.6580035],[-4.0918207,50.6532105],[-4.0983789,50.6519252],[-4.1052838,50.6548977],[-4.1136218,50.6483873],[-4.12306,50.6491053],[-4.1417526,50.6423846],[-4.1412542,50.6374245],[-4.1129294,50.6285426],[-4.1023726,50.6321784],[-4.0912601,50.6308126],[-4.0935323,50.6363431],[-4.0761471,50.6380391],[-4.0756064,50.6419785],[-4.0453145,50.6432287],[-4.0362025,50.6386385],[-4.0375665,50.6356115],[-4.0282041,50.6309274],[-4.0285173,50.6074692],[-4.0239474,50.5959007],[-4.0275709,50.5856196],[-4.0450335,50.5780023],[-4.0450625,50.5597687],[-4.0540913,50.5480698],[-4.0364708,50.5516618],[-4.0235073,50.5393668],[-3.9963814,50.5435594],[-3.9809106,50.5340701],[-3.9692633,50.5125968],[-3.9759812,50.5003701],[-3.9643634,50.4964122],[-3.9559455,50.5002555],[-3.9457654,50.4982804],[-3.948755,50.4886689],[-3.9238753,50.4787812],[-3.9137736,50.4816901],[-3.8989602,50.4727886],[-3.8915098,50.4794657],[-3.8836932,50.4800126],[-3.8798345,50.4873088],[-3.8925796,50.5138647],[-3.8911602,50.5235317],[-3.8839935,50.5293726],[-3.8891395,50.5363305],[-3.875583,50.5425425],[-3.8762863,50.5585896],[-3.8697341,50.5711461],[-3.8774264,50.5756956],[-3.8824616,50.5967341],[-3.8733162,50.6142683],[-3.8459046,50.635707],[-3.8434407,50.6470867],[-3.837735,50.6498305],[-3.8294461,50.6478328],[-3.8258931,50.6519733],[-3.8141317,50.6513136],[-3.8046275,50.6559148],[-3.8119774,50.659006],[-3.7971986,50.6749221],[-3.8072534,50.6819981],[-3.8116039,50.6910339],[-3.8089556,50.6939577],[-3.7867674,50.6921671],[-3.7825545,50.6955366],[-3.7616316,50.6932252],[-3.7495264,50.6971671],[-3.7322736,50.6970092],[-3.7355761,50.7031935],[-3.750259,50.708629],[-3.7570163,50.7226759],[-3.766241,50.7275737],[-3.7998714,50.7174211],[-3.8185784,50.716973],[-3.8254314,50.7302907],[-3.8318822,50.7278428],[-3.836276,50.7321807],[-3.825698,50.7397722],[-3.8166976,50.7564124],[-3.8057223,50.7590863],[-3.8147075,50.7608913],[-3.8251015,50.7769234],[-3.822021,50.7810085],[-3.845553,50.7815972]]],"type":"Polygon"},"id":"E02004231","properties":{"code":"E02004231","geography":"MSOA","name":"West Devon 003"},"type":"Feature"},{"geometry":{"coordinates":[[[-4.1273929,50.7282762],[-4.1859491,50.7576767],[-4.1938951,50.7579789],[-4.195234,50.7551396],[-4.2106315,50.7524291],[-4.2275131,50.7410604],[-4.2257765,50.7314324],[-4.2338882,50.7221165],[-4.2348395,50.7127464],[-4.2272595,50.7025357],[-4.2319612,50.6954305],[-4.2172753,50.6905622],[-4.2092255,50.6814821],[-4.2187664,50.6732811],[-4.2336148,50.6714103],[-4.2434278,50.6735889],[-4.2553094,50.6663716],[-4.2772879,50.6690639],[-4.3040126,50.6646892],[-4.3131417,50.6622406],[-4.3173228,50.6538394],[-4.3350975,50.6464457],[-4.3335144,50.6412986],[-4.3271217,50.6407387],[-4.325319,50.6403457],[-4.3255618,50.6377349],[-4.3115138,50.6374507],[-4.3002934,50.6338476],[-4.3074358,50.6202338],[-4.3033984,50.611539],[-4.3115987,50.5860872],[-4.306884,50.5785951],[-4.2983429,50.5837107],[-4.291297,50.5838677],[-4.2861114,50.5750177],[-4.2817978,50.5774705],[-4.2858396,50.5847403],[-4.2711194,50.5822241],[-4.2696936,50.5789869],[-4.2778281,50.5747924],[-4.2794855,50.5691834],[-4.2594315,50.550037],[-4.2600979,50.5444594],[-4.271402,50.5386323],[-4.2687391,50.5352817],[-4.2478623,50.5439328],[-4.2408955,50.5423113],[-4.2322652,50.5310285],[-4.2255223,50.5297247],[-4.2144746,50.5345794],[-4.2071955,50.5335413],[-4.2120923,50.5289839],[-4.2062213,50.5201591],[-4.2094938,50.5137498],[-4.2018875,50.5133723],[-4.2019327,50.5027691],[-4.1940261,50.5028419],[-4.1908314,50.5072212],[-4.1839356,50.5078787],[-4.1805731,50.5012447],[-4.1880988,50.4988496],[-4.1584028,50.4956999],[-4.1522028,50.5037771],[-4.1568493,50.5071328],[-4.1511345,50.509026],[-4.1509426,50.5121397],[-4.1642661,50.5122415],[-4.1576579,50.5174289],[-4.1649492,50.5214555],[-4.1599495,50.5286101],[-4.1656598,50.5290935],[-4.1630191,50.5400696],[-4.1666037,50.5429059],[-4.1617478,50.5594881],[-4.1567823,50.5621589],[-4.1581658,50.5713703],[-4.133327,50.5783602],[-4.1375192,50.5841694],[-4.1517269,50.5913455],[-4.163606,50.5933981],[-4.1633787,50.5970697],[-4.174983,50.5958428],[-4.1663468,50.6017481],[-4.1680158,50.6125747],[-4.1904571,50.617081],[-4.1918041,50.6227964],[-4.1901257,50.6284637],[-4.1581266,50.6287829],[-4.1412542,50.6374245],[-4.1417526,50.6423846],[-4.12306,50.6491053],[-4.1136218,50.6483873],[-4.1052838,50.6548977],[-4.0983789,50.6519252],[-4.0918207,50.6532105],[-4.0899308,50.6580035],[-4.050672,50.6566926],[-4.0391024,50.6634756],[-4.0393578,50.6692613],[-4.0279863,50.6741304],[-4.0191983,50.6734876],[-4.045829,50.6953217],[-4.0616938,50.6868995],[-4.0494762,50.7034028],[-4.0566912,50.7101998],[-4.0462798,50.7304226],[-4.0815929,50.7269856],[-4.0943495,50.7295012],[-4.1112543,50.7268802],[-4.1273929,50.7282762]]],"type":"Polygon"},"id":"E02004232","properties":{"code":"E02004232","geography":"MSOA","name":"West Devon 004"},"type":"Feature"},{"geometry":{"coordinates":[[[-4.1599495,50.5286101],[-4.1514402,50.5332872],[-4.1435211,50.5338843],[-4.1369047,50.5295818],[-4.1215965,50.5334151],[-4.1248664,50.5437523],[-4.130811,50.5471979],[-4.1237318,50.5495287],[-4.1239101,50.5602624],[-4.1183988,50.5639211],[-4.1141716,50.5616333],[-4.1126515,50.5671527],[-4.1216738,50.5771165],[-4.1197808,50.5699103],[-4.1267139,50.5665467],[-4.133327,50.5783602],[-4.1581658,50.5713703],[-4.1567823,50.5621589],[-4.1617478,50.5594881],[-4.1666037,50.5429059],[-4.1630191,50.5400696],[-4.1656598,50.5290935],[-4.1599495,50.5286101]]],"type":"Polygon"},"id":"E02004233","properties":{"code":"E02004233","geography":"MSOA","name":"West Devon 005"},"type":"Feature"},{"geometry":{"coordinates":[[[-3.9643634,50.4964122],[-3.9759812,50.5003701],[-3.9692633,50.5125968],[-3.9809106,50.5340701],[-3.9963814,50.5435594],[-4.0235073,50.5393668],[-4.0364708,50.5516618],[-4.0540913,50.5480698],[-4.0450625,50.5597687],[-4.0450335,50.5780023],[-4.0275709,50.5856196],[-4.0239474,50.5959007],[-4.0285173,50.6074692],[-4.0282041,50.6309274],[-4.0375665,50.6356115],[-4.0362025,50.6386385],[-4.0453145,50.6432287],[-4.0756064,50.6419785],[-4.0761471,50.6380391],[-4.0935323,50.6363431],[-4.0912601,50.6308126],[-4.1023726,50.6321784],[-4.1129294,50.6285426],[-4.1412542,50.6374245],[-4.1581266,50.6287829],[-4.1901257,50.6284637],[-4.1918041,50.6227964],[-4.1904571,50.617081],[-4.1680158,50.6125747],[-4.1663468,50.6017481],[-4.174983,50.5958428],[-4.1633787,50.5970697],[-4.163606,50.5933981],[-4.1517269,50.5913455],[-4.1375192,50.5841694],[-4.133327,50.5783602],[-4.1267139,50.5665467],[-4.1197808,50.5699103],[-4.1216738,50.5771165],[-4.1126515,50.5671527],[-4.1141716,50.5616333],[-4.1183988,50.5639211],[-4.1239101,50.5602624],[-4.1237318,50.5495287],[-4.130811,50.5471979],[-4.1248664,50.5437523],[-4.1215965,50.5334151],[-4.1369047,50.5295818],[-4.1435211,50.5338843],[-4.1514402,50.5332872],[-4.1599495,50.5286101],[-4.1649492,50.5214555],[-4.1576579,50.5174289],[-4.1642661,50.5122415],[-4.1509426,50.5121397],[-4.1511345,50.509026],[-4.1367993,50.5120458],[-4.1320377,50.5192591],[-4.1244466,50.5150487],[-4.1116033,50.5137703],[-4.1093941,50.5056909],[-4.101516,50.505411],[-4.0934856,50.4938735],[-4.0858275,50.4939246],[-4.0882221,50.4992089],[-4.0709763,50.4959835],[-4.0730964,50.4895136],[-4.0862871,50.4862104],[-4.0777183,50.4699116],[-4.0759881,50.4639594],[-4.0651473,50.45964],[-4.067988,50.4545105],[-4.0601517,50.4540433],[-4.0362121,50.4638168],[-4.0237256,50.4621162],[-4.023029,50.4687421],[-4.0078766,50.4696871],[-4.005263,50.4764166],[-3.9947133,50.4774281],[-3.9821449,50.4855786],[-3.9704201,50.4881475],[-3.9643634,50.4964122]]],"type":"Polygon"},"id":"E02004234","properties":{"code":"E02004234","geography":"MSOA","name":"West Devon 006"},"type":"Feature"},{"geometry":{"coordinates":[[[[-4.1567581,50.4541674],[-4.1566215,50.4548863],[-4.1571561,50.4544507],[-4.1580342,50.4537352],[-4.1567581,50.4541674]]],[[[-4.101516,50.505411],[-4.1093941,50.5056909],[-4.1116033,50.5137703],[-4.1244466,50.5150487],[-4.1320377,50.5192591],[-4.1367993,50.5120458],[-4.1511345,50.509026],[-4.1568493,50.5071328],[-4.1522028,50.5037771],[-4.1584028,50.4956999],[-4.1880988,50.4988496],[-4.1947935,50.4986488],[-4.1945659,50.4938312],[-4.2007692,50.4922752],[-4.2205166,50.4982226],[-4.2235999,50.4899626],[-4.2181407,50.4836243],[-4.2181434,50.4757956],[-4.2381354,50.4648822],[-4.2378645,50.4623733],[-4.236381,50.4594185],[-4.2294782,50.4571351],[-4.2245809,50.4671029],[-4.2156738,50.4682875],[-4.2014354,50.4544367],[-4.1937088,50.4550306],[-4.1948973,50.4502106],[-4.1958341,50.45377],[-4.2004318,50.4535446],[-4.1989408,50.4456056],[-4.1912926,50.4408561],[-4.1907293,50.435337],[-4.1850702,50.4342832],[-4.169565,50.4519685],[-4.1640836,50.4564751],[-4.1582559,50.4566482],[-4.1573163,50.4603019],[-4.1569056,50.4618989],[-4.1557774,50.4593266],[-4.1549415,50.4637233],[-4.1442862,50.4620826],[-4.1277698,50.4651014],[-4.1085396,50.4629826],[-4.1072408,50.4504004],[-4.0988327,50.4606938],[-4.0777183,50.4699116],[-4.0862871,50.4862104],[-4.0730964,50.4895136],[-4.0709763,50.4959835],[-4.0882221,50.4992089],[-4.0858275,50.4939246],[-4.0934856,50.4938735],[-4.101516,50.505411]]]],"type":"MultiPolygon"},"id":"E02004235","properties":{"code":"E02004235","geography":"MSOA","name":"West Devon 007"},"type":"Feature"}],"type":"FeatureCollection"}
