{"features":[{"geometry":{"coordinates":[[[-1.6341605,52.6430529],[-1.6449503,52.6574999],[-1.6843181,52.6472308],[-1.689667,52.6509634],[-1.7224456,52.6513677],[-1.7214141,52.6476643],[-1.7341361,52.6435826],[-1.729914,52.6443286],[-1.7146396,52.6369889],[-1.7058054,52.6437213],[-1.7086814,52.6477784],[-1.7046387,52.6485944],[-1.6977208,52.6448731],[-1.7001974,52.6414425],[-1.6966926,52.6434562],[-1.6953332,52.6382152],[-1.6899684,52.642369],[-1.6840445,52.6375592],[-1.6747905,52.6468301],[-1.6586703,52.6455984],[-1.6534428,52.6401672],[-1.6379309,52.6449658],[-1.6341605,52.6430529]]],"type":"Polygon"},"id":"E02006217","properties":{"code":"E02006217","geography":"MSOA","name":"Tamworth 001"},"type":"Feature"},{"geometry":{"coordinates":[[[-1.6840445,52.6375592],[-1.6899684,52.642369],[-1.6953332,52.6382152],[-1.6966926,52.6434562],[-1.7001974,52.6414425],[-1.6977208,52.6448731],[-1.7046387,52.6485944],[-1.7086814,52.6477784],[-1.7058054,52.6437213],[-1.7146396,52.6369889],[-1.729914,52.6443286],[-1.7341361,52.6435826],[-1.7357784,52.6366848],[-1.7312355,52.632716],[-1.718859,52.6277717],[-1.7079988,52.630147],[-1.6977151,52.62595],[-1.6960848,52.6316763],[-1.685087,52.6342087],[-1.6840445,52.6375592]]],"type":"Polygon"},"id":"E02006218","properties":{"code":"E02006218","geography":"MSOA","name":"Tamworth 002"},"type":"Feature"},{"geometry":{"coordinates":[[[-1.6341605,52.6430529],[-1.6379309,52.6449658],[-1.6534428,52.6401672],[-1.6586703,52.6455984],[-1.6747905,52.6468301],[-1.6840445,52.6375592],[-1.6698866,52.6383052],[-1.6729914,52.6334246],[-1.6639554,52.6363164],[-1.6556418,52.6302374],[-1.6604061,52.6275244],[-1.6644197,52.6221547],[-1.6578861,52.6202771],[-1.6528216,52.6231635],[-1.6458292,52.6203191],[-1.6415404,52.6201706],[-1.6430946,52.6231866],[-1.6381892,52.6255038],[-1.6425168,52.631399],[-1.6381973,52.6376838],[-1.6424304,52.640923],[-1.6341605,52.6430529]]],"type":"Polygon"},"id":"E02006219","properties":{"code":"E02006219","geography":"MSOA","name":"Tamworth 003"},"type":"Feature"},{"geometry":{"coordinates":[[[-1.6604061,52.6275244],[-1.6556418,52.6302374],[-1.6639554,52.6363164],[-1.6729914,52.6334246],[-1.6698866,52.6383052],[-1.6840445,52.6375592],[-1.685087,52.6342087],[-1.6862913,52.6303253],[-1.6799668,52.6290745],[-1.6760575,52.6310407],[-1.6675465,52.6245158],[-1.6663367,52.6277841],[-1.6604061,52.6275244]]],"type":"Polygon"},"id":"E02006220","properties":{"code":"E02006220","geography":"MSOA","name":"Tamworth 004"},"type":"Feature"},{"geometry":{"coordinates":[[[-1.6799668,52.6290745],[-1.6862913,52.6303253],[-1.685087,52.6342087],[-1.6960848,52.6316763],[-1.6977151,52.62595],[-1.7079988,52.630147],[-1.718859,52.6277717],[-1.7022128,52.6158324],[-1.6914598,52.6173747],[-1.6903771,52.617757],[-1.684064,52.6238591],[-1.6773383,52.6231288],[-1.6799668,52.6290745]]],"type":"Polygon"},"id":"E02006221","properties":{"code":"E02006221","geography":"MSOA","name":"Tamworth 005"},"type":"Feature"},{"geometry":{"coordinates":[[[-1.6675465,52.6245158],[-1.6760575,52.6310407],[-1.6799668,52.6290745],[-1.6773383,52.6231288],[-1.684064,52.6238591],[-1.6903771,52.617757],[-1.6812812,52.6160444],[-1.6800949,52.612279],[-1.6742414,52.6129309],[-1.6779394,52.6160482],[-1.6711331,52.6209163],[-1.6675465,52.6245158]]],"type":"Polygon"},"id":"E02006222","properties":{"code":"E02006222","geography":"MSOA","name":"Tamworth 006"},"type":"Feature"},{"geometry":{"coordinates":[[[-1.6604061,52.6275244],[-1.6663367,52.6277841],[-1.6675465,52.6245158],[-1.6711331,52.6209163],[-1.6630226,52.6143656],[-1.6552187,52.6185967],[-1.6556652,52.6154886],[-1.644995,52.6135726],[-1.6450612,52.6167007],[-1.6497148,52.6167972],[-1.6458292,52.6203191],[-1.6528216,52.6231635],[-1.6578861,52.6202771],[-1.6644197,52.6221547],[-1.6604061,52.6275244]]],"type":"Polygon"},"id":"E02006223","properties":{"code":"E02006223","geography":"MSOA","name":"Tamworth 007"},"type":"Feature"},{"geometry":{"coordinates":[[[-1.6415404,52.6201706],[-1.6458292,52.6203191],[-1.6497148,52.6167972],[-1.6450612,52.6167007],[-1.644995,52.6135726],[-1.6556652,52.6154886],[-1.6552187,52.6185967],[-1.6630226,52.6143656],[-1.6674445,52.6085926],[-1.6612702,52.6113224],[-1.6580758,52.6090292],[-1.6608034,52.6044021],[-1.6491472,52.6007447],[-1.6397862,52.6083758],[-1.6360237,52.6195996],[-1.6415404,52.6201706]]],"type":"Polygon"},"id":"E02006224","properties":{"code":"E02006224","geography":"MSOA","name":"Tamworth 008"},"type":"Feature"},{"geometry":{"coordinates":[[[-1.6800949,52.612279],[-1.6812812,52.6160444],[-1.6903771,52.617757],[-1.6914598,52.6173747],[-1.6887548,52.6055773],[-1.6951325,52.5987574],[-1.7037512,52.5960458],[-1.7003994,52.5908955],[-1.6857075,52.5894185],[-1.6859069,52.5933313],[-1.6792894,52.5926706],[-1.6800949,52.612279]]],"type":"Polygon"},"id":"E02006225","properties":{"code":"E02006225","geography":"MSOA","name":"Tamworth 009"},"type":"Feature"},{"geometry":{"coordinates":[[[-1.6630226,52.6143656],[-1.6711331,52.6209163],[-1.6779394,52.6160482],[-1.6742414,52.6129309],[-1.6800949,52.612279],[-1.6792894,52.5926706],[-1.6656468,52.5922348],[-1.6657154,52.5956485],[-1.6551067,52.5956554],[-1.6491472,52.6007447],[-1.6608034,52.6044021],[-1.6580758,52.6090292],[-1.6612702,52.6113224],[-1.6674445,52.6085926],[-1.6630226,52.6143656]]],"type":"Polygon"},"id":"E02006226","properties":{"code":"E02006226","geography":"MSOA","name":"Tamworth 010"},"type":"Feature"}],"type":"FeatureCollection"}
