{"features":[{"geometry":{"coordinates":[[[-3.948755,50.4886689],[-3.9457654,50.4982804],[-3.9559455,50.5002555],[-3.9643634,50.4964122],[-3.9704201,50.4881475],[-3.9821449,50.4855786],[-3.9947133,50.4774281],[-4.005263,50.4764166],[-4.0078766,50.4696871],[-4.023029,50.4687421],[-4.0237256,50.4621162],[-4.0362121,50.4638168],[-4.0601517,50.4540433],[-4.067988,50.4545105],[-4.0651473,50.45964],[-4.0759881,50.4639594],[-4.0777183,50.4699116],[-4.0988327,50.4606938],[-4.1072408,50.4504004],[-4.1085396,50.4629826],[-4.1277698,50.4651014],[-4.1442862,50.4620826],[-4.1549415,50.4637233],[-4.1557774,50.4593266],[-4.154565,50.4565619],[-4.1566215,50.4548863],[-4.1567581,50.4541674],[-4.1580342,50.4537352],[-4.1585857,50.4532858],[-4.1620728,50.4504441],[-4.1564604,50.4465062],[-4.162701,50.4493927],[-4.1755447,50.4338133],[-4.1898305,50.4284661],[-4.1876502,50.4258358],[-4.1845191,50.4248503],[-4.1809824,50.4254232],[-4.177947,50.4234659],[-4.1765772,50.4225825],[-4.1760065,50.4225665],[-4.1633913,50.4275411],[-4.1652743,50.4300107],[-4.1558268,50.4364395],[-4.1510935,50.4366483],[-4.1465461,50.4311153],[-4.1319441,50.433683],[-4.1248506,50.4357228],[-4.1198135,50.4419184],[-4.1108163,50.4426843],[-4.1064865,50.4385749],[-4.1100261,50.4324389],[-4.0847039,50.4258398],[-4.080226,50.4177014],[-4.0789349,50.4096554],[-4.0725116,50.4071509],[-4.0714832,50.4018645],[-4.039623,50.4014349],[-4.0416197,50.3976394],[-4.0303849,50.397093],[-4.0288756,50.3922246],[-4.0211452,50.3917915],[-4.0230848,50.3851055],[-4.0269194,50.37912],[-4.034972,50.3772197],[-4.0244913,50.3760378],[-4.0221682,50.3728393],[-4.0055069,50.3717356],[-3.9768923,50.3775178],[-3.9730843,50.3752684],[-3.9735075,50.3819745],[-3.9638792,50.3847008],[-3.9675585,50.3859464],[-3.9668099,50.3933136],[-3.9711669,50.4054003],[-3.9835537,50.4081637],[-3.9987247,50.4255972],[-4.0032839,50.4255377],[-4.0024167,50.4401213],[-3.9989659,50.4454602],[-3.9495093,50.4753783],[-3.9458421,50.4800472],[-3.948755,50.4886689]]],"type":"Polygon"},"id":"E02004189","properties":{"code":"E02004189","geography":"MSOA","name":"South Hams 001"},"type":"Feature"},{"geometry":{"coordinates":[[[-3.8089312,50.5328712],[-3.821871,50.516861],[-3.8273444,50.5163869],[-3.8445904,50.5343827],[-3.851493,50.5361629],[-3.858615,50.532591],[-3.8712631,50.5341028],[-3.875583,50.5425425],[-3.8891395,50.5363305],[-3.8839935,50.5293726],[-3.8911602,50.5235317],[-3.8925796,50.5138647],[-3.8798345,50.4873088],[-3.8836932,50.4800126],[-3.8915098,50.4794657],[-3.8989602,50.4727886],[-3.9137736,50.4816901],[-3.9238753,50.4787812],[-3.948755,50.4886689],[-3.9458421,50.4800472],[-3.9495093,50.4753783],[-3.9989659,50.4454602],[-4.0024167,50.4401213],[-4.0032839,50.4255377],[-3.9987247,50.4255972],[-3.9835537,50.4081637],[-3.9711669,50.4054003],[-3.9668099,50.3933136],[-3.9467635,50.3957159],[-3.9452814,50.3989697],[-3.9315725,50.3934213],[-3.9181219,50.3967317],[-3.90564,50.3937684],[-3.907655,50.3857646],[-3.9135757,50.3830717],[-3.9264162,50.3837428],[-3.9237676,50.3773531],[-3.9136301,50.374422],[-3.9057043,50.3799819],[-3.8950576,50.3779209],[-3.889736,50.3802732],[-3.8867682,50.3715584],[-3.8754317,50.3661322],[-3.8608743,50.376869],[-3.8492527,50.3808675],[-3.8442582,50.3724176],[-3.8309112,50.3700312],[-3.821491,50.3726497],[-3.8055962,50.377849],[-3.8091274,50.3815106],[-3.8204738,50.3807091],[-3.835072,50.391518],[-3.8193079,50.3960676],[-3.8186094,50.4009799],[-3.8248981,50.4025356],[-3.8186229,50.414391],[-3.8092363,50.4117034],[-3.8010153,50.4149919],[-3.7954896,50.4109595],[-3.800601,50.4063807],[-3.7835765,50.4096417],[-3.7836756,50.4053482],[-3.7684288,50.4079897],[-3.768855,50.4108496],[-3.7592534,50.4095985],[-3.7572574,50.4178788],[-3.7771303,50.4165588],[-3.7837425,50.4190486],[-3.7860071,50.4243261],[-3.7773963,50.42888],[-3.7665372,50.4273152],[-3.7653405,50.4314487],[-3.7588892,50.4338543],[-3.7600325,50.4403819],[-3.7566982,50.4428633],[-3.7505409,50.4405566],[-3.7477063,50.4486182],[-3.7384641,50.4544102],[-3.7278902,50.46009],[-3.7172045,50.4587525],[-3.7103948,50.4620609],[-3.6859976,50.4601758],[-3.682432,50.4566504],[-3.6749841,50.4661494],[-3.6862865,50.4701152],[-3.6940464,50.477864],[-3.7116233,50.4823709],[-3.7184761,50.4930489],[-3.7418687,50.507951],[-3.756321,50.5104235],[-3.7671579,50.5044011],[-3.7691078,50.4857964],[-3.7578684,50.474434],[-3.7588375,50.4668321],[-3.7766542,50.4639619],[-3.7819894,50.4723049],[-3.787376,50.4720165],[-3.7862544,50.4778447],[-3.7932795,50.478493],[-3.7911769,50.4823012],[-3.7982517,50.489432],[-3.789615,50.4929921],[-3.7907853,50.4956233],[-3.7758714,50.4955855],[-3.7917545,50.501441],[-3.7870825,50.5050249],[-3.7847686,50.5178604],[-3.7893916,50.521232],[-3.7994814,50.5217152],[-3.7948513,50.5325731],[-3.7994493,50.536399],[-3.8089312,50.5328712]]],"type":"Polygon"},"id":"E02004190","properties":{"code":"E02004190","geography":"MSOA","name":"South Hams 002"},"type":"Feature"},{"geometry":{"coordinates":[[[-3.6965557,50.4128899],[-3.6713112,50.4202705],[-3.678117,50.4241598],[-3.6633193,50.4318408],[-3.6751716,50.4371898],[-3.6914662,50.4394397],[-3.6982894,50.4377175],[-3.6934354,50.4337473],[-3.7047734,50.4322866],[-3.712853,50.4353936],[-3.7150701,50.4328142],[-3.7109143,50.4265509],[-3.7056891,50.4262652],[-3.7006042,50.4120907],[-3.6965557,50.4128899]]],"type":"Polygon"},"id":"E02004191","properties":{"code":"E02004191","geography":"MSOA","name":"South Hams 003"},"type":"Feature"},{"geometry":{"coordinates":[[[-3.5842337,50.4777374],[-3.6023598,50.4843972],[-3.6097822,50.480725],[-3.6138263,50.4693135],[-3.620945,50.4697175],[-3.6273203,50.4661933],[-3.6371687,50.467863],[-3.6449964,50.4611707],[-3.6589141,50.4645944],[-3.65014,50.4684838],[-3.6554007,50.4720693],[-3.668288,50.4667789],[-3.6696331,50.4621243],[-3.6749841,50.4661494],[-3.682432,50.4566504],[-3.6914662,50.4394397],[-3.6751716,50.4371898],[-3.6633193,50.4318408],[-3.678117,50.4241598],[-3.6713112,50.4202705],[-3.6965557,50.4128899],[-3.6899682,50.4119067],[-3.6839621,50.4047456],[-3.6932035,50.4063284],[-3.6932268,50.3998768],[-3.6852076,50.3919208],[-3.6936758,50.3878425],[-3.6857613,50.3840282],[-3.6905357,50.3774311],[-3.685601,50.3760493],[-3.6816962,50.3630162],[-3.6968463,50.3608659],[-3.7119882,50.3624192],[-3.7021042,50.3547837],[-3.7123482,50.3497253],[-3.7278545,50.3495893],[-3.72571,50.3390982],[-3.6943136,50.3210256],[-3.6794108,50.3273952],[-3.6672721,50.3280566],[-3.6624098,50.3237049],[-3.6457665,50.3302275],[-3.6512483,50.3372944],[-3.6433903,50.3386021],[-3.641891,50.3432442],[-3.6506268,50.3558813],[-3.6444343,50.3586913],[-3.6392536,50.3552883],[-3.624722,50.3579892],[-3.6022354,50.3561967],[-3.6010912,50.3564723],[-3.5894157,50.3638601],[-3.5860832,50.3626294],[-3.580572,50.372076],[-3.5945722,50.3806089],[-3.5974319,50.3846753],[-3.5940545,50.3897528],[-3.60022,50.3913644],[-3.6060824,50.3852865],[-3.6143219,50.3837712],[-3.6075661,50.38877],[-3.6260197,50.3919662],[-3.6353489,50.3980186],[-3.6631917,50.3924306],[-3.6723414,50.3969672],[-3.6667683,50.3945631],[-3.6439512,50.3969071],[-3.633935,50.4049817],[-3.6478361,50.4046606],[-3.6477043,50.4058026],[-3.6476522,50.4062542],[-3.6470021,50.4063785],[-3.6342262,50.4088207],[-3.6301732,50.4033742],[-3.6324252,50.3999888],[-3.6236345,50.3979597],[-3.6230218,50.4009056],[-3.6096657,50.3923214],[-3.602816,50.3953381],[-3.5751702,50.3932102],[-3.5916361,50.3823552],[-3.5798168,50.3774934],[-3.5754172,50.3682651],[-3.5729042,50.368346],[-3.5703513,50.3685459],[-3.5710511,50.3683943],[-3.5765722,50.3672785],[-3.5765952,50.3645012],[-3.576274,50.3631126],[-3.5702923,50.3515134],[-3.5688612,50.3517549],[-3.5640875,50.3527859],[-3.5654402,50.3521029],[-3.5728941,50.3476511],[-3.5709315,50.346759],[-3.5596731,50.3419455],[-3.5564593,50.3431362],[-3.5441169,50.3354645],[-3.5350938,50.3370328],[-3.5320455,50.3421985],[-3.5310774,50.3443592],[-3.521778,50.3458866],[-3.5178374,50.3466649],[-3.5168974,50.3484611],[-3.5147571,50.3533841],[-3.5186925,50.3567598],[-3.520526,50.3579587],[-3.5203588,50.3581889],[-3.5210494,50.3587811],[-3.5128353,50.3687455],[-3.5130583,50.3690801],[-3.5160779,50.3706936],[-3.514892,50.3718313],[-3.515433,50.3726429],[-3.507858,50.3789692],[-3.5366626,50.3759465],[-3.5442402,50.373499],[-3.5561025,50.3786847],[-3.5646247,50.3921689],[-3.5747615,50.3941672],[-3.5736004,50.4021857],[-3.5788618,50.4041696],[-3.5798339,50.4102209],[-3.5990294,50.4092848],[-3.6132232,50.4145228],[-3.6139014,50.42283],[-3.6238237,50.4227014],[-3.6280244,50.426004],[-3.6250571,50.4413012],[-3.6127587,50.4469817],[-3.5886555,50.4505646],[-3.5872056,50.4569715],[-3.5914673,50.4596645],[-3.5827855,50.469025],[-3.5842337,50.4777374]]],"type":"Polygon"},"id":"E02004192","properties":{"code":"E02004192","geography":"MSOA","name":"South Hams 004"},"type":"Feature"},{"geometry":{"coordinates":[[[-3.9264162,50.3837428],[-3.9135757,50.3830717],[-3.907655,50.3857646],[-3.90564,50.3937684],[-3.9181219,50.3967317],[-3.9315725,50.3934213],[-3.9452814,50.3989697],[-3.9467635,50.3957159],[-3.9427769,50.3861077],[-3.9264162,50.3837428]]],"type":"Polygon"},"id":"E02004193","properties":{"code":"E02004193","geography":"MSOA","name":"South Hams 005"},"type":"Feature"},{"geometry":{"coordinates":[[[-3.682432,50.4566504],[-3.6859976,50.4601758],[-3.7103948,50.4620609],[-3.7172045,50.4587525],[-3.7278902,50.46009],[-3.7384641,50.4544102],[-3.7477063,50.4486182],[-3.7505409,50.4405566],[-3.7566982,50.4428633],[-3.7600325,50.4403819],[-3.7588892,50.4338543],[-3.7653405,50.4314487],[-3.7665372,50.4273152],[-3.7773963,50.42888],[-3.7860071,50.4243261],[-3.7837425,50.4190486],[-3.7771303,50.4165588],[-3.7572574,50.4178788],[-3.7592534,50.4095985],[-3.768855,50.4108496],[-3.7684288,50.4079897],[-3.7836756,50.4053482],[-3.7835765,50.4096417],[-3.800601,50.4063807],[-3.7954896,50.4109595],[-3.8010153,50.4149919],[-3.8092363,50.4117034],[-3.8186229,50.414391],[-3.8248981,50.4025356],[-3.8186094,50.4009799],[-3.8193079,50.3960676],[-3.835072,50.391518],[-3.8204738,50.3807091],[-3.8091274,50.3815106],[-3.8055962,50.377849],[-3.821491,50.3726497],[-3.8244203,50.3646073],[-3.8202509,50.3405289],[-3.8148343,50.3325621],[-3.8177493,50.3259841],[-3.8138118,50.3228347],[-3.8215549,50.3109439],[-3.8193195,50.3035688],[-3.8103855,50.2989934],[-3.8050748,50.3043773],[-3.8085276,50.3081541],[-3.8016636,50.309367],[-3.7986135,50.3176061],[-3.7913153,50.3203622],[-3.7737887,50.3206768],[-3.7622158,50.3258733],[-3.7549448,50.3212471],[-3.7588164,50.3182053],[-3.7551914,50.3123459],[-3.7476881,50.3126079],[-3.7464412,50.3084952],[-3.7386878,50.3104827],[-3.7347467,50.3021447],[-3.7319564,50.3054177],[-3.7078105,50.2983884],[-3.7015231,50.2886358],[-3.6793149,50.2901173],[-3.6909259,50.2947383],[-3.6996237,50.3032897],[-3.6963165,50.3095134],[-3.6989166,50.3161894],[-3.6943136,50.3210256],[-3.72571,50.3390982],[-3.7278545,50.3495893],[-3.7123482,50.3497253],[-3.7021042,50.3547837],[-3.7119882,50.3624192],[-3.6968463,50.3608659],[-3.6816962,50.3630162],[-3.685601,50.3760493],[-3.6905357,50.3774311],[-3.6857613,50.3840282],[-3.6936758,50.3878425],[-3.6852076,50.3919208],[-3.6932268,50.3998768],[-3.6932035,50.4063284],[-3.6839621,50.4047456],[-3.6899682,50.4119067],[-3.6965557,50.4128899],[-3.7006042,50.4120907],[-3.7056891,50.4262652],[-3.7109143,50.4265509],[-3.7150701,50.4328142],[-3.712853,50.4353936],[-3.7047734,50.4322866],[-3.6934354,50.4337473],[-3.6982894,50.4377175],[-3.6914662,50.4394397],[-3.682432,50.4566504]]],"type":"Polygon"},"id":"E02004194","properties":{"code":"E02004194","geography":"MSOA","name":"South Hams 006"},"type":"Feature"},{"geometry":{"coordinates":[[[-3.5790866,50.3258046],[-3.570263,50.327183],[-3.5708164,50.3281794],[-3.57239,50.3302036],[-3.5635229,50.335429],[-3.5638653,50.3366981],[-3.5656256,50.3418588],[-3.5734035,50.3425079],[-3.5763448,50.3455143],[-3.5764075,50.3458216],[-3.5767221,50.3460944],[-3.5774468,50.3509131],[-3.5793031,50.3600046],[-3.5808288,50.3601574],[-3.6013147,50.3563308],[-3.6010912,50.3564723],[-3.6022354,50.3561967],[-3.624722,50.3579892],[-3.6392536,50.3552883],[-3.6339321,50.3516912],[-3.6212868,50.3520301],[-3.6043298,50.3471056],[-3.5968637,50.3400374],[-3.5896624,50.3424983],[-3.5907091,50.3373104],[-3.5790866,50.3258046]]],"type":"Polygon"},"id":"E02004195","properties":{"code":"E02004195","geography":"MSOA","name":"South Hams 007"},"type":"Feature"},{"geometry":{"coordinates":[[[[-3.8704853,50.2798386],[-3.8735089,50.2804687],[-3.8709002,50.2790832],[-3.8704853,50.2798386]]],[[[-3.8982992,50.2784644],[-3.8968758,50.2788221],[-3.8995106,50.2810141],[-3.9010252,50.2780941],[-3.8982992,50.2784644]]],[[[-3.842113,50.3089955],[-3.852239,50.3024852],[-3.8569191,50.2994753],[-3.8582227,50.2986367],[-3.8583613,50.2915642],[-3.856389,50.291398],[-3.8432617,50.2938437],[-3.8484267,50.295109],[-3.8422472,50.2977453],[-3.8287677,50.2993213],[-3.83228,50.3023001],[-3.8285891,50.3067528],[-3.8337722,50.3085375],[-3.8384364,50.3072909],[-3.842113,50.3089955]]],[[[-3.9237676,50.3773531],[-3.9264162,50.3837428],[-3.9427769,50.3861077],[-3.9467635,50.3957159],[-3.9668099,50.3933136],[-3.9675585,50.3859464],[-3.9638792,50.3847008],[-3.9735075,50.3819745],[-3.9730843,50.3752684],[-3.9768923,50.3775178],[-4.0055069,50.3717356],[-4.0158572,50.3539135],[-4.0326633,50.343108],[-4.0357734,50.3392386],[-4.0181121,50.3408398],[-4.0131237,50.3423951],[-4.0099304,50.3411983],[-4.0148378,50.3371705],[-4.0121265,50.3298466],[-3.9946798,50.3340821],[-3.9661018,50.3298579],[-3.9661252,50.3259134],[-3.9828434,50.3241886],[-4.0000451,50.3173251],[-3.9944399,50.3062209],[-3.9918554,50.3075084],[-3.9824653,50.3066097],[-3.977106,50.3069319],[-3.9719555,50.3056028],[-3.9673128,50.3051577],[-3.9608877,50.3045414],[-3.9557429,50.307267],[-3.9406673,50.3158848],[-3.9401243,50.3161951],[-3.9401117,50.3164342],[-3.9395496,50.3270239],[-3.9384785,50.3283215],[-3.9374977,50.3295098],[-3.9344704,50.3331769],[-3.9308697,50.3341017],[-3.9289325,50.3345992],[-3.9282883,50.3358898],[-3.9269063,50.338658],[-3.9266787,50.3391138],[-3.9263458,50.3397832],[-3.9268333,50.3367216],[-3.9360393,50.3249714],[-3.9284796,50.3257762],[-3.9199498,50.3316935],[-3.9279409,50.3244396],[-3.9348318,50.32319],[-3.9353285,50.3225113],[-3.9369056,50.320356],[-3.938895,50.3176369],[-3.9430949,50.3118955],[-3.946709,50.3069383],[-3.9468992,50.306535],[-3.9452384,50.3010562],[-3.9443957,50.3007327],[-3.9441194,50.297364],[-3.9436878,50.2959398],[-3.9224327,50.2970166],[-3.9193208,50.295884],[-3.9102708,50.2940862],[-3.9044809,50.2904814],[-3.898236,50.2882069],[-3.8951579,50.281793],[-3.8797833,50.284634],[-3.8709709,50.2812766],[-3.8682244,50.2839539],[-3.8667508,50.2866358],[-3.8640819,50.2879914],[-3.860491,50.2914905],[-3.862892,50.2983254],[-3.8510235,50.30507],[-3.8546955,50.3092335],[-3.8543318,50.3090255],[-3.849224,50.3065764],[-3.8399652,50.3126227],[-3.8396436,50.3098585],[-3.8372367,50.3124176],[-3.8380415,50.3102337],[-3.8341416,50.3109734],[-3.8388563,50.3085281],[-3.8258039,50.3106667],[-3.8293949,50.3097073],[-3.8215549,50.3109439],[-3.8138118,50.3228347],[-3.8177493,50.3259841],[-3.8148343,50.3325621],[-3.8202509,50.3405289],[-3.8244203,50.3646073],[-3.821491,50.3726497],[-3.8309112,50.3700312],[-3.8442582,50.3724176],[-3.8492527,50.3808675],[-3.8608743,50.376869],[-3.8754317,50.3661322],[-3.8867682,50.3715584],[-3.889736,50.3802732],[-3.8950576,50.3779209],[-3.9057043,50.3799819],[-3.9136301,50.374422],[-3.9237676,50.3773531]]]],"type":"MultiPolygon"},"id":"E02004196","properties":{"code":"E02004196","geography":"MSOA","name":"South Hams 008"},"type":"Feature"},{"geometry":{"coordinates":[[[[-4.0099304,50.3411983],[-4.0131237,50.3423951],[-4.0181121,50.3408398],[-4.0157035,50.3410579],[-4.0422793,50.3304057],[-4.0426028,50.330046],[-4.0463133,50.3248297],[-4.0430148,50.3239856],[-4.0531816,50.3150711],[-4.0445673,50.3124644],[-4.0318999,50.3142912],[-4.0404026,50.3103628],[-4.0486466,50.3129305],[-4.0533161,50.3095894],[-4.0569368,50.3103908],[-4.0711039,50.3092827],[-4.0723529,50.3089448],[-4.075386,50.3040606],[-4.0688095,50.3025474],[-4.0666692,50.3025061],[-4.0651553,50.3017063],[-4.0601319,50.3005499],[-4.0569453,50.2973681],[-4.0562185,50.296984],[-4.0525477,50.2979417],[-4.0506675,50.2943502],[-4.0504528,50.294325],[-4.0413142,50.2942631],[-4.0405609,50.2931652],[-4.0386419,50.2929401],[-4.0250199,50.2965701],[-4.0223487,50.2954437],[-4.0201624,50.2948877],[-4.019367,50.2958865],[-4.0161593,50.3011377],[-4.0150878,50.3012593],[-4.0139752,50.302656],[-4.0076721,50.3021007],[-4.0012466,50.3028293],[-3.9944399,50.3062209],[-4.0000451,50.3173251],[-3.9828434,50.3241886],[-3.9661252,50.3259134],[-3.9661018,50.3298579],[-3.9946798,50.3340821],[-4.0121265,50.3298466],[-4.0148378,50.3371705],[-4.0099304,50.3411983]]],[[[-4.0326633,50.343108],[-4.0158572,50.3539135],[-4.0055069,50.3717356],[-4.0221682,50.3728393],[-4.0244913,50.3760378],[-4.034972,50.3772197],[-4.047683,50.3776557],[-4.0501651,50.3765952],[-4.0550598,50.3682709],[-4.0501477,50.3580813],[-4.0680261,50.3546594],[-4.0905596,50.3409172],[-4.1046343,50.3457026],[-4.1146464,50.344388],[-4.1229965,50.3467454],[-4.1285659,50.342854],[-4.1287066,50.3373891],[-4.119505,50.3357305],[-4.1203405,50.3325302],[-4.1194889,50.3294984],[-4.1213959,50.3284869],[-4.1221662,50.3255354],[-4.1189689,50.3193552],[-4.1129022,50.3193388],[-4.1073982,50.3150836],[-4.1021092,50.3157344],[-4.1015816,50.3161379],[-4.0921746,50.3169562],[-4.0850772,50.3178284],[-4.0844592,50.3176267],[-4.0843236,50.3176385],[-4.0843285,50.3175812],[-4.0788398,50.315609],[-4.0776708,50.3159219],[-4.0774545,50.3158226],[-4.0772216,50.3158798],[-4.0703872,50.3125987],[-4.0693252,50.3122205],[-4.0564509,50.3114102],[-4.0540144,50.3157096],[-4.0508201,50.3213449],[-4.0485695,50.3253145],[-4.0470937,50.3279172],[-4.0525647,50.3367476],[-4.0582538,50.3380915],[-4.0514162,50.338663],[-4.0510267,50.3349066],[-4.0454598,50.3307675],[-4.0415002,50.3344434],[-4.0383653,50.3373532],[-4.0363946,50.3391822],[-4.0357734,50.3392386],[-4.0326633,50.343108]]]],"type":"MultiPolygon"},"id":"E02004197","properties":{"code":"E02004197","geography":"MSOA","name":"South Hams 009"},"type":"Feature"},{"geometry":{"coordinates":[[[-3.7554196,50.2863394],[-3.7602441,50.3041061],[-3.7664772,50.2966616],[-3.7779641,50.2916538],[-3.785283,50.2923808],[-3.7876786,50.2847641],[-3.8016021,50.2885735],[-3.8156675,50.2873598],[-3.813658,50.265672],[-3.824432,50.2627412],[-3.8287185,50.2576354],[-3.8146296,50.254281],[-3.8006091,50.254331],[-3.7953298,50.2576362],[-3.7875685,50.2550609],[-3.7831942,50.2557092],[-3.7761634,50.2567939],[-3.7760388,50.2567692],[-3.7740773,50.2570597],[-3.7767848,50.2608642],[-3.7848336,50.2622806],[-3.7857938,50.2657439],[-3.7717869,50.2600986],[-3.7674468,50.2628864],[-3.7699417,50.2696669],[-3.7751166,50.2701474],[-3.7740493,50.2774071],[-3.7739674,50.2779638],[-3.7742315,50.2780469],[-3.7765063,50.2787626],[-3.7780078,50.279235],[-3.7758921,50.2825771],[-3.7725517,50.2752197],[-3.7651622,50.2717552],[-3.7580096,50.2836477],[-3.7591314,50.2774018],[-3.7554196,50.2863394]]],"type":"Polygon"},"id":"E02004198","properties":{"code":"E02004198","geography":"MSOA","name":"South Hams 010"},"type":"Feature"},{"geometry":{"coordinates":[[[-3.6392536,50.3552883],[-3.6444343,50.3586913],[-3.6506268,50.3558813],[-3.641891,50.3432442],[-3.6433903,50.3386021],[-3.6512483,50.3372944],[-3.6457665,50.3302275],[-3.6624098,50.3237049],[-3.6672721,50.3280566],[-3.6794108,50.3273952],[-3.6943136,50.3210256],[-3.6989166,50.3161894],[-3.6963165,50.3095134],[-3.6996237,50.3032897],[-3.6909259,50.2947383],[-3.6793149,50.2901173],[-3.7015231,50.2886358],[-3.7078105,50.2983884],[-3.7319564,50.3054177],[-3.7347467,50.3021447],[-3.7420047,50.2975164],[-3.742093,50.2935884],[-3.7554196,50.2863394],[-3.7591314,50.2774018],[-3.7592432,50.2767794],[-3.7619773,50.2615493],[-3.7544355,50.2605437],[-3.7568691,50.2548828],[-3.7452122,50.2620829],[-3.7323016,50.2644518],[-3.7287672,50.2689116],[-3.7199556,50.2705687],[-3.7286254,50.2668541],[-3.7294264,50.2638558],[-3.729557,50.2633667],[-3.7450368,50.2601636],[-3.7369075,50.257687],[-3.7475316,50.2564924],[-3.7471709,50.2516167],[-3.7552605,50.2518985],[-3.7553595,50.2518321],[-3.7531562,50.2467545],[-3.7525539,50.2453665],[-3.7565118,50.2436272],[-3.7564458,50.2431154],[-3.7523729,50.2397803],[-3.7350829,50.2426001],[-3.7391117,50.2410904],[-3.7260681,50.2368715],[-3.7409237,50.2396664],[-3.7615872,50.2362195],[-3.7722003,50.2253266],[-3.7732945,50.224081],[-3.7373723,50.2148111],[-3.7342462,50.2103652],[-3.7316636,50.2072024],[-3.7260576,50.2081964],[-3.7211657,50.202895],[-3.7175123,50.2049706],[-3.7169108,50.2056373],[-3.7081991,50.2054248],[-3.7033872,50.2112617],[-3.6982637,50.213033],[-3.6838877,50.2202909],[-3.683462,50.2206389],[-3.6812857,50.2224181],[-3.6593875,50.2204548],[-3.6564294,50.2178186],[-3.6497706,50.2218267],[-3.6404946,50.2218048],[-3.6542653,50.2276297],[-3.6589839,50.2363766],[-3.6587675,50.2371645],[-3.6591634,50.2379104],[-3.6591292,50.238028],[-3.659175,50.2381158],[-3.6583553,50.2406848],[-3.6561726,50.2481771],[-3.6486327,50.2740408],[-3.6461516,50.2830406],[-3.6437012,50.2865674],[-3.6428989,50.2890771],[-3.6403087,50.2914494],[-3.6337583,50.3008724],[-3.6109437,50.318804],[-3.6103637,50.3192597],[-3.5977877,50.3197504],[-3.596584,50.3198597],[-3.5890016,50.3256489],[-3.5790866,50.3258046],[-3.5907091,50.3373104],[-3.5896624,50.3424983],[-3.5968637,50.3400374],[-3.6043298,50.3471056],[-3.6212868,50.3520301],[-3.6339321,50.3516912],[-3.6392536,50.3552883]]],"type":"Polygon"},"id":"E02004199","properties":{"code":"E02004199","geography":"MSOA","name":"South Hams 011"},"type":"Feature"},{"geometry":{"coordinates":[[[[-3.7760388,50.2567692],[-3.7761634,50.2567939],[-3.7831942,50.2557092],[-3.7760388,50.2567692]]],[[[-3.8641702,50.2879054],[-3.8640819,50.2879914],[-3.8667508,50.2866358],[-3.8682244,50.2839539],[-3.8641702,50.2879054]]],[[[-3.7588164,50.3182053],[-3.7549448,50.3212471],[-3.7622158,50.3258733],[-3.7737887,50.3206768],[-3.7913153,50.3203622],[-3.7986135,50.3176061],[-3.8016636,50.309367],[-3.8085276,50.3081541],[-3.8050748,50.3043773],[-3.8103855,50.2989934],[-3.8193195,50.3035688],[-3.8215549,50.3109439],[-3.8293949,50.3097073],[-3.8337722,50.3085375],[-3.8285891,50.3067528],[-3.83228,50.3023001],[-3.8287677,50.2993213],[-3.8422472,50.2977453],[-3.8484267,50.295109],[-3.8432617,50.2938437],[-3.856389,50.291398],[-3.854799,50.291264],[-3.8523045,50.2910538],[-3.8641418,50.2872299],[-3.8680792,50.2793372],[-3.8704853,50.2798386],[-3.8709002,50.2790832],[-3.8735089,50.2804687],[-3.8735598,50.2804793],[-3.8799387,50.2818082],[-3.8813389,50.2749771],[-3.8807458,50.2730613],[-3.8690505,50.2674411],[-3.8680252,50.2636152],[-3.8621956,50.2643087],[-3.8580628,50.2607979],[-3.8611013,50.2480084],[-3.860578,50.2450833],[-3.860405,50.2441163],[-3.8590024,50.2426595],[-3.8698193,50.2412182],[-3.8691181,50.2401056],[-3.8655493,50.2378185],[-3.8555566,50.2343107],[-3.8527316,50.2343356],[-3.8379358,50.2281218],[-3.8356944,50.2273342],[-3.8350094,50.2268924],[-3.8271559,50.2235924],[-3.8252224,50.2205779],[-3.8193393,50.2167811],[-3.8131666,50.2161419],[-3.7993302,50.2147617],[-3.7917413,50.2108642],[-3.7861896,50.2106291],[-3.7847597,50.2108875],[-3.7868444,50.2140596],[-3.78626,50.2142869],[-3.7866733,50.2151452],[-3.7833271,50.2154275],[-3.7808714,50.2163824],[-3.7824163,50.2264987],[-3.781647,50.2269609],[-3.7818778,50.2296177],[-3.7775473,50.2294237],[-3.7661425,50.2362779],[-3.768117,50.2426052],[-3.7752267,50.2437478],[-3.7680474,50.244361],[-3.7624815,50.2397065],[-3.7588076,50.2406328],[-3.7615275,50.2466276],[-3.7648672,50.2539863],[-3.7879119,50.2550101],[-3.7875685,50.2550609],[-3.7953298,50.2576362],[-3.8006091,50.254331],[-3.8146296,50.254281],[-3.8287185,50.2576354],[-3.824432,50.2627412],[-3.813658,50.265672],[-3.8156675,50.2873598],[-3.8016021,50.2885735],[-3.7876786,50.2847641],[-3.785283,50.2923808],[-3.7779641,50.2916538],[-3.7664772,50.2966616],[-3.7602441,50.3041061],[-3.7554196,50.2863394],[-3.742093,50.2935884],[-3.7420047,50.2975164],[-3.7347467,50.3021447],[-3.7386878,50.3104827],[-3.7464412,50.3084952],[-3.7476881,50.3126079],[-3.7551914,50.3123459],[-3.7588164,50.3182053]]]],"type":"MultiPolygon"},"id":"E02004200","properties":{"code":"E02004200","geography":"MSOA","name":"South Hams 012"},"type":"Feature"}],"type":"FeatureCollection"}
