{"features":[{"geometry":{"coordinates":[[[-2.1371745,52.3499656],[-2.1488644,52.3462938],[-2.1560738,52.3310372],[-2.1676464,52.3244441],[-2.1668047,52.3183741],[-2.1746239,52.3166403],[-2.170885,52.3316263],[-2.1904693,52.3289217],[-2.1919871,52.3374634],[-2.205027,52.345619],[-2.207874,52.3532566],[-2.2191008,52.3591105],[-2.2334912,52.3610633],[-2.2456879,52.3610222],[-2.249517,52.3456615],[-2.2717799,52.3326182],[-2.2603722,52.3282926],[-2.2664182,52.3235916],[-2.2652911,52.319492],[-2.2748937,52.3087169],[-2.2638168,52.3091827],[-2.2583044,52.3063225],[-2.2270237,52.312054],[-2.2207913,52.3100074],[-2.2154111,52.3024591],[-2.2071997,52.3042611],[-2.2038045,52.3022594],[-2.2014328,52.3057697],[-2.1946247,52.3054235],[-2.196764,52.3010507],[-2.1927169,52.2974289],[-2.1986081,52.2916393],[-2.1932278,52.2854447],[-2.1982058,52.2728843],[-2.1913358,52.2658088],[-2.1935639,52.2529731],[-2.2010716,52.2551757],[-2.2038871,52.2478466],[-2.1670693,52.2444702],[-2.1600815,52.2424786],[-2.1600413,52.238193],[-2.152157,52.2386377],[-2.1521245,52.2330204],[-2.1461859,52.2282048],[-2.1394954,52.2320624],[-2.1333224,52.247632],[-2.1455227,52.2456198],[-2.1545433,52.2493564],[-2.1626313,52.2485437],[-2.1638778,52.2532762],[-2.1723523,52.2570984],[-2.1804183,52.263776],[-2.1706986,52.2686021],[-2.1716343,52.2751449],[-2.1629404,52.2839901],[-2.1600715,52.2847979],[-2.1516256,52.2751759],[-2.1384783,52.275834],[-2.1319215,52.2701766],[-2.1337792,52.2670352],[-2.1254663,52.2706846],[-2.1167504,52.27035],[-2.1082901,52.281906],[-2.1005557,52.2820253],[-2.0996436,52.284413],[-2.0684866,52.2803708],[-2.0555505,52.2846912],[-2.0767481,52.2890646],[-2.0916963,52.2885468],[-2.0848866,52.296939],[-2.0904075,52.3049083],[-2.0851691,52.3134853],[-2.0951101,52.3133518],[-2.0941107,52.3154137],[-2.1003158,52.3134149],[-2.124062,52.3144883],[-2.1157544,52.3220827],[-2.1184821,52.3320735],[-2.1132897,52.3371471],[-2.116985,52.3420117],[-2.1246874,52.340249],[-2.1231005,52.3427491],[-2.1314773,52.3470652],[-2.1277323,52.3522235],[-2.1330229,52.3479984],[-2.1371745,52.3499656]]],"type":"Polygon"},"id":"E02006748","properties":{"code":"E02006748","geography":"MSOA","name":"Wychavon 001"},"type":"Feature"},{"geometry":{"coordinates":[[[-2.1516256,52.2751759],[-2.1600715,52.2847979],[-2.1629404,52.2839901],[-2.1716343,52.2751449],[-2.1706986,52.2686021],[-2.1804183,52.263776],[-2.1723523,52.2570984],[-2.1711762,52.2580319],[-2.163828,52.2635981],[-2.1633678,52.2695551],[-2.155327,52.2707892],[-2.1516256,52.2751759]]],"type":"Polygon"},"id":"E02006749","properties":{"code":"E02006749","geography":"MSOA","name":"Wychavon 002"},"type":"Feature"},{"geometry":{"coordinates":[[[-2.1337792,52.2670352],[-2.1319215,52.2701766],[-2.1384783,52.275834],[-2.1516256,52.2751759],[-2.155327,52.2707892],[-2.1533058,52.2657048],[-2.1452822,52.264538],[-2.1487862,52.2568193],[-2.1482441,52.2547377],[-2.1351141,52.2558646],[-2.1373906,52.2621035],[-2.1337792,52.2670352]]],"type":"Polygon"},"id":"E02006750","properties":{"code":"E02006750","geography":"MSOA","name":"Wychavon 003"},"type":"Feature"},{"geometry":{"coordinates":[[[-2.1487862,52.2568193],[-2.1452822,52.264538],[-2.1533058,52.2657048],[-2.155327,52.2707892],[-2.1633678,52.2695551],[-2.163828,52.2635981],[-2.1711762,52.2580319],[-2.1541134,52.2597381],[-2.1547949,52.2573594],[-2.1487862,52.2568193]]],"type":"Polygon"},"id":"E02006751","properties":{"code":"E02006751","geography":"MSOA","name":"Wychavon 004"},"type":"Feature"},{"geometry":{"coordinates":[[[-2.1487862,52.2568193],[-2.1547949,52.2573594],[-2.1541134,52.2597381],[-2.1711762,52.2580319],[-2.1723523,52.2570984],[-2.1638778,52.2532762],[-2.1626313,52.2485437],[-2.1545433,52.2493564],[-2.1455227,52.2456198],[-2.1333224,52.247632],[-2.1351141,52.2558646],[-2.1482441,52.2547377],[-2.1487862,52.2568193]]],"type":"Polygon"},"id":"E02006752","properties":{"code":"E02006752","geography":"MSOA","name":"Wychavon 005"},"type":"Feature"},{"geometry":{"coordinates":[[[-2.1394954,52.2320624],[-2.1461859,52.2282048],[-2.1521245,52.2330204],[-2.152157,52.2386377],[-2.1600413,52.238193],[-2.1600815,52.2424786],[-2.1670693,52.2444702],[-2.2038871,52.2478466],[-2.2010716,52.2551757],[-2.1935639,52.2529731],[-2.1913358,52.2658088],[-2.1982058,52.2728843],[-2.1932278,52.2854447],[-2.1986081,52.2916393],[-2.1927169,52.2974289],[-2.196764,52.3010507],[-2.1946247,52.3054235],[-2.2014328,52.3057697],[-2.2038045,52.3022594],[-2.2071997,52.3042611],[-2.2154111,52.3024591],[-2.2207913,52.3100074],[-2.2270237,52.312054],[-2.2583044,52.3063225],[-2.2638168,52.3091827],[-2.2748937,52.3087169],[-2.270393,52.2828318],[-2.2748158,52.2715091],[-2.2518977,52.2667423],[-2.2313366,52.2488792],[-2.2357538,52.241564],[-2.2326832,52.2368933],[-2.2417135,52.2322235],[-2.243276,52.2218409],[-2.2355363,52.2221003],[-2.2334839,52.226782],[-2.2284425,52.2247904],[-2.2224783,52.2313696],[-2.2091615,52.2248157],[-2.1964856,52.2236534],[-2.1577932,52.2133772],[-2.1394954,52.2320624]]],"type":"Polygon"},"id":"E02006753","properties":{"code":"E02006753","geography":"MSOA","name":"Wychavon 006"},"type":"Feature"},{"geometry":{"coordinates":[[[-2.0024683,52.279568],[-2.0232631,52.2780853],[-2.0452876,52.2877675],[-2.0555505,52.2846912],[-2.0684866,52.2803708],[-2.0996436,52.284413],[-2.1005557,52.2820253],[-2.1082901,52.281906],[-2.1167504,52.27035],[-2.1254663,52.2706846],[-2.1337792,52.2670352],[-2.1373906,52.2621035],[-2.1351141,52.2558646],[-2.1333224,52.247632],[-2.1394954,52.2320624],[-2.1577932,52.2133772],[-2.1649785,52.2001177],[-2.1711573,52.184548],[-2.1586801,52.1731727],[-2.1486384,52.1748975],[-2.143237,52.1717846],[-2.131996,52.1729638],[-2.1207222,52.1578837],[-2.1082787,52.1545243],[-2.0979619,52.1556141],[-2.0969524,52.1436756],[-2.0912329,52.1424089],[-2.0889354,52.1473787],[-2.0553055,52.1484181],[-2.0571478,52.1576513],[-2.0640852,52.1661984],[-2.0767205,52.168141],[-2.0778716,52.1709038],[-2.0666608,52.1726854],[-2.0645771,52.1757928],[-2.0536204,52.1761858],[-2.0504532,52.1802859],[-2.0690191,52.1876621],[-2.0790638,52.1867909],[-2.0795166,52.2020275],[-2.0683874,52.2057844],[-2.0686149,52.2157115],[-2.057202,52.2151989],[-2.047209,52.2242932],[-2.0386995,52.2192322],[-2.0372273,52.2232649],[-2.0308199,52.2232803],[-2.0212896,52.2293176],[-2.0046723,52.2306608],[-2.005799,52.2355775],[-2.01699,52.2373611],[-2.0189362,52.2412868],[-2.0113624,52.260066],[-2.0155373,52.269988],[-2.0058376,52.2705786],[-2.0032055,52.2736174],[-2.0070518,52.2753722],[-2.0024683,52.279568]]],"type":"Polygon"},"id":"E02006754","properties":{"code":"E02006754","geography":"MSOA","name":"Wychavon 007"},"type":"Feature"},{"geometry":{"coordinates":[[[-1.9319258,52.2482293],[-1.9346183,52.252004],[-1.9460614,52.2511691],[-1.9530021,52.2436679],[-1.9675817,52.2370159],[-1.9940299,52.2398471],[-1.9937815,52.2354481],[-2.005799,52.2355775],[-2.0046723,52.2306608],[-2.0212896,52.2293176],[-2.0308199,52.2232803],[-2.0372273,52.2232649],[-2.0386995,52.2192322],[-2.047209,52.2242932],[-2.057202,52.2151989],[-2.0686149,52.2157115],[-2.0683874,52.2057844],[-2.0795166,52.2020275],[-2.0790638,52.1867909],[-2.0690191,52.1876621],[-2.0504532,52.1802859],[-2.0536204,52.1761858],[-2.0645771,52.1757928],[-2.0666608,52.1726854],[-2.0778716,52.1709038],[-2.0767205,52.168141],[-2.0640852,52.1661984],[-2.0571478,52.1576513],[-2.0486193,52.1604395],[-2.0465184,52.1656988],[-2.030997,52.170582],[-2.0157971,52.1699827],[-2.012712,52.1655077],[-2.0065627,52.1643476],[-2.0002192,52.1668372],[-1.9985718,52.157676],[-1.989271,52.1557938],[-1.9830726,52.150611],[-1.9933291,52.133221],[-1.9838508,52.1317634],[-1.9778973,52.1266155],[-1.9749254,52.1253643],[-1.9565244,52.1366493],[-1.9512149,52.1420262],[-1.9520681,52.149093],[-1.94431,52.155321],[-1.9341265,52.1653814],[-1.9354913,52.1695452],[-1.9604146,52.1686596],[-1.961676,52.1725166],[-1.9445829,52.174754],[-1.9358605,52.189857],[-1.9356412,52.2041085],[-1.920125,52.2102498],[-1.9173008,52.2189492],[-1.9239294,52.2401695],[-1.9319258,52.2482293]]],"type":"Polygon"},"id":"E02006755","properties":{"code":"E02006755","geography":"MSOA","name":"Wychavon 008"},"type":"Feature"},{"geometry":{"coordinates":[[[-2.0912329,52.1424089],[-2.0969524,52.1436756],[-2.0979619,52.1556141],[-2.1082787,52.1545243],[-2.1207222,52.1578837],[-2.131996,52.1729638],[-2.143237,52.1717846],[-2.1486384,52.1748975],[-2.1586801,52.1731727],[-2.1711573,52.184548],[-2.1798227,52.1840451],[-2.1873815,52.1781554],[-2.1886235,52.1710005],[-2.2033766,52.1673054],[-2.1895805,52.1460082],[-2.1666966,52.1455888],[-2.1649267,52.1428179],[-2.1717448,52.1404246],[-2.1728444,52.1349999],[-2.1921542,52.1301979],[-2.1964108,52.1248235],[-2.1839358,52.1199565],[-2.1858206,52.117722],[-2.1733407,52.1092926],[-2.1518522,52.107446],[-2.1434342,52.1118737],[-2.1439565,52.122961],[-2.1382945,52.1250949],[-2.1351929,52.1229786],[-2.1381439,52.1165757],[-2.1170583,52.1175723],[-2.1132925,52.1155333],[-2.1134649,52.1185216],[-2.108495,52.117914],[-2.1080525,52.1251292],[-2.0933204,52.1239848],[-2.0883942,52.1301229],[-2.076701,52.1322364],[-2.0912329,52.1424089]]],"type":"Polygon"},"id":"E02006756","properties":{"code":"E02006756","geography":"MSOA","name":"Wychavon 009"},"type":"Feature"},{"geometry":{"coordinates":[[[-1.9778973,52.1266155],[-1.9838508,52.1317634],[-1.9933291,52.133221],[-1.9830726,52.150611],[-1.989271,52.1557938],[-1.9985718,52.157676],[-2.0002192,52.1668372],[-2.0065627,52.1643476],[-2.012712,52.1655077],[-2.0157971,52.1699827],[-2.030997,52.170582],[-2.0465184,52.1656988],[-2.0486193,52.1604395],[-2.0571478,52.1576513],[-2.0553055,52.1484181],[-2.0889354,52.1473787],[-2.0912329,52.1424089],[-2.076701,52.1322364],[-2.0568789,52.1258174],[-2.0662034,52.1230305],[-2.0709791,52.1135282],[-2.0711792,52.1016418],[-2.0653337,52.0927364],[-2.0769192,52.0878089],[-2.0709592,52.0815732],[-2.0797963,52.0758693],[-2.0781931,52.0701253],[-2.0717592,52.0691945],[-2.062826,52.0727832],[-2.0594886,52.0679993],[-2.0645483,52.0653759],[-2.0633891,52.061568],[-2.0550846,52.0611469],[-2.031716,52.0503327],[-2.0018017,52.0556299],[-1.9978071,52.0552073],[-1.9997558,52.0594329],[-1.9901039,52.0699838],[-1.9794011,52.0709013],[-1.9741681,52.1007023],[-1.9612877,52.1109039],[-1.9648224,52.1132722],[-1.9859359,52.1210983],[-1.9778973,52.1266155]]],"type":"Polygon"},"id":"E02006757","properties":{"code":"E02006757","geography":"MSOA","name":"Wychavon 010"},"type":"Feature"},{"geometry":{"coordinates":[[[-1.7855582,52.1320457],[-1.8084437,52.1398627],[-1.8232273,52.1363691],[-1.8278542,52.1412321],[-1.8233575,52.1459119],[-1.8314791,52.1456615],[-1.8396813,52.1527009],[-1.8519126,52.147957],[-1.8469173,52.1471733],[-1.8458195,52.1426415],[-1.8541969,52.1385084],[-1.8669713,52.1446271],[-1.8638861,52.1470259],[-1.8669359,52.1529954],[-1.8855306,52.1564097],[-1.8915441,52.155273],[-1.8951959,52.150466],[-1.8851886,52.1467465],[-1.9032464,52.1334359],[-1.906208,52.1138257],[-1.8609033,52.1071081],[-1.8552397,52.1021135],[-1.847791,52.1012652],[-1.8583693,52.0926223],[-1.8550284,52.0884564],[-1.8587269,52.0869865],[-1.8466294,52.0794095],[-1.8317629,52.0727579],[-1.8189535,52.0853924],[-1.812747,52.0787321],[-1.8022993,52.0969291],[-1.7901456,52.1005789],[-1.7894277,52.1063622],[-1.7676594,52.1125797],[-1.7574088,52.1159315],[-1.7697104,52.1153015],[-1.7806376,52.1201303],[-1.7910145,52.1201807],[-1.795776,52.1243347],[-1.7855582,52.1320457]]],"type":"Polygon"},"id":"E02006758","properties":{"code":"E02006758","geography":"MSOA","name":"Wychavon 011"},"type":"Feature"},{"geometry":{"coordinates":[[[-2.0769192,52.0878089],[-2.0653337,52.0927364],[-2.0711792,52.1016418],[-2.0709791,52.1135282],[-2.0662034,52.1230305],[-2.0568789,52.1258174],[-2.076701,52.1322364],[-2.0883942,52.1301229],[-2.0933204,52.1239848],[-2.1080525,52.1251292],[-2.108495,52.117914],[-2.110334,52.1045245],[-2.1021937,52.0932667],[-2.0769192,52.0878089]]],"type":"Polygon"},"id":"E02006759","properties":{"code":"E02006759","geography":"MSOA","name":"Wychavon 012"},"type":"Feature"},{"geometry":{"coordinates":[[[-1.9032464,52.1334359],[-1.9051086,52.1427247],[-1.9168863,52.1467037],[-1.9218952,52.1529937],[-1.9400847,52.1530299],[-1.94431,52.155321],[-1.9520681,52.149093],[-1.9512149,52.1420262],[-1.9565244,52.1366493],[-1.9749254,52.1253643],[-1.9778973,52.1266155],[-1.9859359,52.1210983],[-1.9648224,52.1132722],[-1.9443533,52.1086827],[-1.929028,52.1101877],[-1.9294296,52.1055973],[-1.9333945,52.0990896],[-1.9093194,52.0916681],[-1.9022537,52.0849187],[-1.8915939,52.0711547],[-1.8839597,52.0670963],[-1.8774179,52.0726162],[-1.8720144,52.0719056],[-1.8556163,52.0744293],[-1.8533985,52.0723558],[-1.8466294,52.0794095],[-1.8587269,52.0869865],[-1.8550284,52.0884564],[-1.8583693,52.0926223],[-1.847791,52.1012652],[-1.8552397,52.1021135],[-1.8609033,52.1071081],[-1.906208,52.1138257],[-1.9032464,52.1334359]]],"type":"Polygon"},"id":"E02006760","properties":{"code":"E02006760","geography":"MSOA","name":"Wychavon 013"},"type":"Feature"},{"geometry":{"coordinates":[[[-1.9333945,52.0990896],[-1.9294296,52.1055973],[-1.9410307,52.1039113],[-1.935731,52.1026782],[-1.9374571,52.0986435],[-1.9492265,52.0977399],[-1.9509191,52.1021872],[-1.954148,52.1012179],[-1.9593117,52.0888828],[-1.9560257,52.0863884],[-1.943593,52.0894989],[-1.9336068,52.0894049],[-1.9374266,52.0907576],[-1.9336342,52.0935373],[-1.9410937,52.0926699],[-1.9333945,52.0990896]]],"type":"Polygon"},"id":"E02006761","properties":{"code":"E02006761","geography":"MSOA","name":"Wychavon 014"},"type":"Feature"},{"geometry":{"coordinates":[[[-1.9294296,52.1055973],[-1.929028,52.1101877],[-1.9443533,52.1086827],[-1.9648224,52.1132722],[-1.9612877,52.1109039],[-1.9741681,52.1007023],[-1.9794011,52.0709013],[-1.9639914,52.0698197],[-1.9625578,52.0744692],[-1.9377796,52.069727],[-1.9378508,52.076279],[-1.948378,52.0742824],[-1.9458422,52.0776982],[-1.9493949,52.0806518],[-1.9613338,52.0770599],[-1.9560257,52.0863884],[-1.9593117,52.0888828],[-1.954148,52.1012179],[-1.9509191,52.1021872],[-1.9492265,52.0977399],[-1.9374571,52.0986435],[-1.935731,52.1026782],[-1.9410307,52.1039113],[-1.9294296,52.1055973]]],"type":"Polygon"},"id":"E02006762","properties":{"code":"E02006762","geography":"MSOA","name":"Wychavon 015"},"type":"Feature"},{"geometry":{"coordinates":[[[-1.9022537,52.0849187],[-1.9093194,52.0916681],[-1.9333945,52.0990896],[-1.9410937,52.0926699],[-1.9336342,52.0935373],[-1.9374266,52.0907576],[-1.9336068,52.0894049],[-1.943593,52.0894989],[-1.9417945,52.0843845],[-1.9337111,52.0856386],[-1.9378508,52.076279],[-1.9377796,52.069727],[-1.9304563,52.0648177],[-1.9296469,52.0722615],[-1.9181678,52.0771405],[-1.9134928,52.0853805],[-1.9048508,52.0830814],[-1.9022537,52.0849187]]],"type":"Polygon"},"id":"E02006763","properties":{"code":"E02006763","geography":"MSOA","name":"Wychavon 016"},"type":"Feature"},{"geometry":{"coordinates":[[[-1.9378508,52.076279],[-1.9337111,52.0856386],[-1.9417945,52.0843845],[-1.943593,52.0894989],[-1.9560257,52.0863884],[-1.9613338,52.0770599],[-1.9493949,52.0806518],[-1.9458422,52.0776982],[-1.948378,52.0742824],[-1.9378508,52.076279]]],"type":"Polygon"},"id":"E02006764","properties":{"code":"E02006764","geography":"MSOA","name":"Wychavon 017"},"type":"Feature"},{"geometry":{"coordinates":[[[-1.9022537,52.0849187],[-1.9048508,52.0830814],[-1.9134928,52.0853805],[-1.9181678,52.0771405],[-1.9296469,52.0722615],[-1.9304563,52.0648177],[-1.9377796,52.069727],[-1.9625578,52.0744692],[-1.9639914,52.0698197],[-1.9794011,52.0709013],[-1.9901039,52.0699838],[-1.9997558,52.0594329],[-1.9978071,52.0552073],[-2.0018017,52.0556299],[-1.9884927,52.0485502],[-1.9841444,52.0358693],[-1.9513963,52.0377151],[-1.9475297,52.0318849],[-1.9317388,52.0299494],[-1.9270535,52.0366507],[-1.9221662,52.0356049],[-1.913455,52.0444509],[-1.8622784,52.0174752],[-1.8615529,52.0126177],[-1.8390604,52.0067732],[-1.8353188,52.0091522],[-1.8356692,52.0224919],[-1.8250329,52.0309228],[-1.8305705,52.0321283],[-1.8297611,52.0390608],[-1.8345987,52.0437221],[-1.8634588,52.0534067],[-1.8628872,52.0634207],[-1.8649978,52.066267],[-1.8716918,52.065415],[-1.8720144,52.0719056],[-1.8774179,52.0726162],[-1.8839597,52.0670963],[-1.8915939,52.0711547],[-1.9022537,52.0849187]]],"type":"Polygon"},"id":"E02006765","properties":{"code":"E02006765","geography":"MSOA","name":"Wychavon 018"},"type":"Feature"},{"geometry":{"coordinates":[[[-2.108495,52.117914],[-2.1134649,52.1185216],[-2.1132925,52.1155333],[-2.1170583,52.1175723],[-2.1381439,52.1165757],[-2.1351929,52.1229786],[-2.1382945,52.1250949],[-2.1439565,52.122961],[-2.1434342,52.1118737],[-2.1518522,52.107446],[-2.1488009,52.0996411],[-2.1583253,52.0845188],[-2.1558174,52.0765268],[-2.1499851,52.075415],[-2.1581348,52.0612163],[-2.1753991,52.0586412],[-2.1697414,52.0555099],[-2.1713881,52.0475636],[-2.1581409,52.0501958],[-2.1183915,52.0420986],[-2.1172274,52.0336045],[-2.1394045,52.027882],[-2.1496626,52.0112466],[-2.1507402,52.0066039],[-2.139071,52.0039403],[-2.1418302,51.999793],[-2.1352246,51.9996935],[-2.1315308,52.0058973],[-2.1126214,52.0152896],[-2.0848808,52.0104686],[-2.0607799,52.0146689],[-2.0597188,52.009967],[-2.0486911,52.0071053],[-2.0495219,52.0037865],[-2.038364,52.0045908],[-2.0382603,52.009553],[-2.0270083,52.0105898],[-2.0292797,52.0128299],[-2.0236756,52.0169381],[-1.9985738,52.0296576],[-1.995198,52.0265531],[-1.9841444,52.0358693],[-1.9884927,52.0485502],[-2.0018017,52.0556299],[-2.031716,52.0503327],[-2.0550846,52.0611469],[-2.0633891,52.061568],[-2.0645483,52.0653759],[-2.0594886,52.0679993],[-2.062826,52.0727832],[-2.0717592,52.0691945],[-2.0781931,52.0701253],[-2.0797963,52.0758693],[-2.0709592,52.0815732],[-2.0769192,52.0878089],[-2.1021937,52.0932667],[-2.110334,52.1045245],[-2.108495,52.117914]]],"type":"Polygon"},"id":"E02006766","properties":{"code":"E02006766","geography":"MSOA","name":"Wychavon 019"},"type":"Feature"}],"type":"FeatureCollection"}
