{"features":[{"geometry":{"coordinates":[[[-2.8701274,53.8313562],[-2.8575912,53.8425918],[-2.866989,53.8456855],[-2.8716194,53.8431376],[-2.8901504,53.8460252],[-2.8880209,53.8542301],[-2.8758313,53.8570352],[-2.8845266,53.8630573],[-2.8961939,53.8606184],[-2.9025317,53.8646403],[-2.9098826,53.8645982],[-2.9137391,53.8595513],[-2.9242222,53.8561026],[-2.936486,53.8572911],[-2.9365417,53.8531227],[-2.9429462,53.8507378],[-2.9555106,53.8573628],[-2.957541,53.8599392],[-2.9599902,53.8610321],[-2.9750018,53.8617945],[-2.9762581,53.8618582],[-2.9763195,53.8618613],[-2.9810103,53.8575293],[-2.9655102,53.8471962],[-2.9707861,53.8405056],[-2.9687434,53.8359724],[-2.9634656,53.8275845],[-2.9931231,53.8310139],[-3.0106578,53.826179],[-2.9945034,53.8176422],[-2.983361,53.7937892],[-2.9993795,53.7941573],[-3.006127,53.7879205],[-2.9965635,53.7744352],[-2.9821474,53.7698363],[-2.983624,53.7663472],[-2.972845,53.7612039],[-2.9728268,53.7573346],[-2.9663455,53.7525341],[-2.9503898,53.7508506],[-2.9475918,53.7517114],[-2.9536631,53.7557449],[-2.9397212,53.7583116],[-2.9283567,53.7669552],[-2.9374693,53.7708051],[-2.9358461,53.7747619],[-2.9097593,53.7804645],[-2.906623,53.785135],[-2.9130995,53.7989854],[-2.8860799,53.8017473],[-2.8914949,53.8186673],[-2.888475,53.82541],[-2.8831991,53.8244437],[-2.879679,53.8289111],[-2.8701274,53.8313562]]],"type":"Polygon"},"id":"E02005203","properties":{"code":"E02005203","geography":"MSOA","name":"Fylde 001"},"type":"Feature"},{"geometry":{"coordinates":[[[-2.8831991,53.8244437],[-2.888475,53.82541],[-2.8914949,53.8186673],[-2.8860799,53.8017473],[-2.9130995,53.7989854],[-2.906623,53.785135],[-2.9097593,53.7804645],[-2.9358461,53.7747619],[-2.9374693,53.7708051],[-2.9283567,53.7669552],[-2.9228912,53.7644233],[-2.8941278,53.7695911],[-2.8869361,53.7647129],[-2.8800913,53.7697773],[-2.8942785,53.7821197],[-2.8794791,53.781505],[-2.8791603,53.778988],[-2.8708411,53.7802176],[-2.8708798,53.7781881],[-2.8672637,53.7818052],[-2.8616722,53.7781464],[-2.8567968,53.778803],[-2.866392,53.7861269],[-2.8612159,53.7931009],[-2.8708803,53.806039],[-2.8671147,53.8093787],[-2.8690555,53.8153399],[-2.8831991,53.8244437]]],"type":"Polygon"},"id":"E02005204","properties":{"code":"E02005204","geography":"MSOA","name":"Fylde 002"},"type":"Feature"},{"geometry":{"coordinates":[[[-2.8259982,53.8199721],[-2.8408735,53.8312624],[-2.8622302,53.8293735],[-2.8701274,53.8313562],[-2.879679,53.8289111],[-2.8831991,53.8244437],[-2.8690555,53.8153399],[-2.8671147,53.8093787],[-2.8708803,53.806039],[-2.8612159,53.7931009],[-2.866392,53.7861269],[-2.8567968,53.778803],[-2.8616722,53.7781464],[-2.8672637,53.7818052],[-2.8708798,53.7781881],[-2.8708411,53.7802176],[-2.8791603,53.778988],[-2.8794791,53.781505],[-2.8942785,53.7821197],[-2.8800913,53.7697773],[-2.8725451,53.7634241],[-2.8760086,53.7612172],[-2.8718035,53.7617653],[-2.8651603,53.7545384],[-2.8542894,53.7549162],[-2.8597293,53.7497431],[-2.8538409,53.7493298],[-2.851028,53.7432057],[-2.8453232,53.7407808],[-2.8227365,53.7454377],[-2.8223289,53.7492497],[-2.8206171,53.7468032],[-2.820276,53.7463157],[-2.8035912,53.7497975],[-2.8061506,53.7521523],[-2.8022829,53.750218],[-2.7946156,53.7519121],[-2.793969,53.7519617],[-2.7932214,53.7521322],[-2.7897262,53.7565034],[-2.7991227,53.7657134],[-2.7986143,53.7707712],[-2.7805099,53.7876266],[-2.815263,53.8081677],[-2.8259982,53.8199721]]],"type":"Polygon"},"id":"E02005205","properties":{"code":"E02005205","geography":"MSOA","name":"Fylde 003"},"type":"Feature"},{"geometry":{"coordinates":[[[-3.0155543,53.7745518],[-3.0288045,53.7731019],[-3.0327224,53.7806449],[-3.0568463,53.7765077],[-3.0550257,53.7619702],[-3.0506153,53.7592592],[-3.040197,53.7620941],[-3.0358554,53.7580746],[-3.0280392,53.7608002],[-3.0198439,53.7589661],[-3.0229007,53.7614985],[-3.007836,53.7688386],[-3.0155543,53.7745518]]],"type":"Polygon"},"id":"E02005206","properties":{"code":"E02005206","geography":"MSOA","name":"Fylde 004"},"type":"Feature"},{"geometry":{"coordinates":[[[-2.9965635,53.7744352],[-3.0155543,53.7745518],[-3.007836,53.7688386],[-3.0229007,53.7614985],[-3.0198439,53.7589661],[-3.0132161,53.75741],[-3.0224255,53.7527027],[-3.0151208,53.754499],[-3.011037,53.7511522],[-3.0069568,53.7537888],[-2.9984895,53.7504954],[-2.9958328,53.7523298],[-2.991512,53.747153],[-2.9964701,53.7476152],[-2.9784657,53.744611],[-2.9728268,53.7573346],[-2.972845,53.7612039],[-2.983624,53.7663472],[-2.9821474,53.7698363],[-2.9965635,53.7744352]]],"type":"Polygon"},"id":"E02005207","properties":{"code":"E02005207","geography":"MSOA","name":"Fylde 005"},"type":"Feature"},{"geometry":{"coordinates":[[[-3.0198439,53.7589661],[-3.0280392,53.7608002],[-3.0358554,53.7580746],[-3.040197,53.7620941],[-3.0506153,53.7592592],[-3.0389926,53.7474842],[-3.0347735,53.7480547],[-3.0270163,53.7431436],[-3.0257572,53.7447707],[-3.0216184,53.7427183],[-3.0161776,53.7473434],[-3.0253724,53.7511175],[-3.0224255,53.7527027],[-3.0132161,53.75741],[-3.0198439,53.7589661]]],"type":"Polygon"},"id":"E02005208","properties":{"code":"E02005208","geography":"MSOA","name":"Fylde 006"},"type":"Feature"},{"geometry":{"coordinates":[[[-2.8453232,53.7407808],[-2.851028,53.7432057],[-2.8538409,53.7493298],[-2.8597293,53.7497431],[-2.8542894,53.7549162],[-2.8651603,53.7545384],[-2.8718035,53.7617653],[-2.8760086,53.7612172],[-2.8725451,53.7634241],[-2.8800913,53.7697773],[-2.8869361,53.7647129],[-2.8941278,53.7695911],[-2.9228912,53.7644233],[-2.9283567,53.7669552],[-2.9397212,53.7583116],[-2.9288173,53.7314678],[-2.9109877,53.7328322],[-2.8793271,53.7352483],[-2.876006,53.737597],[-2.874787,53.7375824],[-2.8636854,53.7374489],[-2.8629586,53.7374401],[-2.856654,53.7384426],[-2.8453232,53.7407808]]],"type":"Polygon"},"id":"E02005209","properties":{"code":"E02005209","geography":"MSOA","name":"Fylde 007"},"type":"Feature"},{"geometry":{"coordinates":[[[-2.9784657,53.744611],[-2.9964701,53.7476152],[-2.991512,53.747153],[-2.9958328,53.7523298],[-2.9984895,53.7504954],[-3.0069568,53.7537888],[-3.011037,53.7511522],[-3.0151208,53.754499],[-3.0224255,53.7527027],[-3.0253724,53.7511175],[-3.0161776,53.7473434],[-3.0216184,53.7427183],[-3.0257572,53.7447707],[-3.0270163,53.7431436],[-3.0268721,53.7430523],[-3.0266572,53.7429999],[-3.0008242,53.7366961],[-2.9809536,53.7345037],[-2.9789066,53.7388904],[-2.9752747,53.7388385],[-2.9784657,53.744611]]],"type":"Polygon"},"id":"E02005210","properties":{"code":"E02005210","geography":"MSOA","name":"Fylde 008"},"type":"Feature"},{"geometry":{"coordinates":[[[-2.9288173,53.7314678],[-2.9397212,53.7583116],[-2.9536631,53.7557449],[-2.9475918,53.7517114],[-2.9503898,53.7508506],[-2.9663455,53.7525341],[-2.9728268,53.7573346],[-2.9784657,53.744611],[-2.9752747,53.7388385],[-2.9789066,53.7388904],[-2.9809536,53.7345037],[-2.9800866,53.734408],[-2.953058,53.7329704],[-2.9493477,53.7326593],[-2.9406979,53.732109],[-2.939639,53.7331602],[-2.9381048,53.7320682],[-2.9297032,53.7325859],[-2.9291369,53.7314433],[-2.9288173,53.7314678]]],"type":"Polygon"},"id":"E02005211","properties":{"code":"E02005211","geography":"MSOA","name":"Fylde 009"},"type":"Feature"}],"type":"FeatureCollection"}
