{"features":[{"geometry":{"coordinates":[[[0.705562,52.4525684],[0.6944465,52.4509985],[0.6839494,52.4531465],[0.6662989,52.4624898],[0.641809,52.4509464],[0.6288226,52.4500633],[0.6297738,52.4540467],[0.6217033,52.4544082],[0.6218429,52.4512462],[0.6155767,52.4488897],[0.6094548,52.4526975],[0.5974409,52.4541887],[0.5824767,52.451843],[0.5547969,52.4560096],[0.5444789,52.4515941],[0.5391847,52.4341867],[0.5572306,52.4320919],[0.5501311,52.4277419],[0.5567893,52.4130487],[0.6031834,52.3967703],[0.6356737,52.3900335],[0.6322368,52.3858929],[0.6248958,52.3675021],[0.6694359,52.3584268],[0.6756906,52.3612001],[0.6911638,52.3699058],[0.7124115,52.3946041],[0.6845178,52.3991172],[0.668438,52.4091572],[0.7188792,52.4495604],[0.705562,52.4525684]]],"type":"Polygon"},"id":"E02006238","properties":{"code":"E02006238","geography":"MSOA","name":"West Suffolk 002"},"type":"Feature"},{"geometry":{"coordinates":[[[0.5444789,52.4515941],[0.5403477,52.4503242],[0.530354,52.4535762],[0.523812,52.4481822],[0.5009006,52.4502175],[0.4960182,52.4472616],[0.4781373,52.4455572],[0.4455153,52.4473539],[0.4293209,52.436409],[0.4231849,52.4339479],[0.4252805,52.4303148],[0.4324059,52.4311463],[0.4388907,52.4280649],[0.4438975,52.4025519],[0.4522487,52.3991673],[0.4585807,52.3986743],[0.4742134,52.4047831],[0.4833371,52.3961933],[0.4946089,52.3933242],[0.5103996,52.4007282],[0.5380198,52.3993231],[0.5350872,52.3910975],[0.531968,52.3925737],[0.534056,52.3891077],[0.5274895,52.3868769],[0.5286332,52.3830955],[0.542358,52.3838944],[0.5518098,52.3952615],[0.5735719,52.3899284],[0.6322368,52.3858929],[0.6356737,52.3900335],[0.6031834,52.3967703],[0.5567893,52.4130487],[0.5501311,52.4277419],[0.5572306,52.4320919],[0.5391847,52.4341867],[0.5444789,52.4515941]]],"type":"Polygon"},"id":"E02006239","properties":{"code":"E02006239","geography":"MSOA","name":"West Suffolk 001"},"type":"Feature"},{"geometry":{"coordinates":[[[0.6322368,52.3858929],[0.5735719,52.3899284],[0.5518098,52.3952615],[0.542358,52.3838944],[0.5286332,52.3830955],[0.5274895,52.3868769],[0.534056,52.3891077],[0.531968,52.3925737],[0.5350872,52.3910975],[0.5380198,52.3993231],[0.5103996,52.4007282],[0.4946089,52.3933242],[0.4833371,52.3961933],[0.4742134,52.4047831],[0.4585807,52.3986743],[0.4522487,52.3991673],[0.4438975,52.4025519],[0.4388907,52.4280649],[0.4324059,52.4311463],[0.4252805,52.4303148],[0.3747542,52.4097122],[0.3820532,52.3962732],[0.4076664,52.3614958],[0.4191994,52.3579196],[0.4200281,52.3521386],[0.4274958,52.3536874],[0.4424752,52.3488147],[0.4362973,52.3335179],[0.4241952,52.3292003],[0.4313498,52.3158096],[0.4574734,52.3162793],[0.4620662,52.3087981],[0.4728453,52.3039258],[0.4831011,52.313268],[0.4916381,52.3080853],[0.5023555,52.3164831],[0.5036585,52.3105335],[0.5081064,52.3108876],[0.5213582,52.3124488],[0.5232551,52.3153914],[0.5408441,52.3201872],[0.5429031,52.3372951],[0.5352178,52.3405004],[0.520977,52.3378888],[0.4984547,52.3413419],[0.4894773,52.3377893],[0.4778322,52.3413824],[0.4876141,52.3423866],[0.482601,52.3451018],[0.4909564,52.356835],[0.4993093,52.3545229],[0.5002812,52.3566661],[0.515114,52.3573814],[0.5144946,52.3614099],[0.524389,52.3631174],[0.5258842,52.3686623],[0.5345102,52.3630299],[0.5370938,52.3537592],[0.5592322,52.358579],[0.5696603,52.3539451],[0.6180835,52.3632874],[0.6248958,52.3675021],[0.6322368,52.3858929]]],"type":"Polygon"},"id":"E02006240","properties":{"code":"E02006240","geography":"MSOA","name":"West Suffolk 003"},"type":"Feature"},{"geometry":{"coordinates":[[[0.5696603,52.3539451],[0.5592322,52.358579],[0.5370938,52.3537592],[0.5345102,52.3630299],[0.5258842,52.3686623],[0.524389,52.3631174],[0.5144946,52.3614099],[0.515114,52.3573814],[0.5002812,52.3566661],[0.4993093,52.3545229],[0.4909564,52.356835],[0.482601,52.3451018],[0.4876141,52.3423866],[0.4778322,52.3413824],[0.4894773,52.3377893],[0.4984547,52.3413419],[0.520977,52.3378888],[0.5352178,52.3405004],[0.5429031,52.3372951],[0.5615656,52.3374088],[0.5649116,52.351748],[0.5696603,52.3539451]]],"type":"Polygon"},"id":"E02006241","properties":{"code":"E02006241","geography":"MSOA","name":"West Suffolk 004"},"type":"Feature"},{"geometry":{"coordinates":[[[0.6694359,52.3584268],[0.6248958,52.3675021],[0.6180835,52.3632874],[0.5696603,52.3539451],[0.5649116,52.351748],[0.5615656,52.3374088],[0.5429031,52.3372951],[0.5408441,52.3201872],[0.5232551,52.3153914],[0.5213582,52.3124488],[0.5081064,52.3108876],[0.5036585,52.3105335],[0.5023555,52.3164831],[0.4916381,52.3080853],[0.4831011,52.313268],[0.4728453,52.3039258],[0.5042292,52.286988],[0.495818,52.2803561],[0.4989222,52.2731047],[0.424178,52.2558504],[0.4269358,52.2535871],[0.4433765,52.2426216],[0.450393,52.2433197],[0.4555328,52.2475789],[0.4650832,52.2403601],[0.4718283,52.2403269],[0.4803089,52.2326664],[0.4949026,52.2392423],[0.5144547,52.2267638],[0.5126335,52.2150492],[0.5430601,52.2164481],[0.556444,52.2109968],[0.5581779,52.2040738],[0.5636093,52.2027956],[0.5588484,52.2108862],[0.5659113,52.2175156],[0.5539215,52.2259205],[0.5581882,52.2279566],[0.554048,52.2315835],[0.5599424,52.2343435],[0.5568743,52.2439011],[0.5666596,52.2475899],[0.5607139,52.254673],[0.5629083,52.2658227],[0.5950296,52.2645846],[0.5946541,52.2788264],[0.6009209,52.2831301],[0.5943994,52.2980348],[0.5895217,52.2960267],[0.5899396,52.3043494],[0.6010683,52.3126831],[0.6027286,52.3186282],[0.6144444,52.3093934],[0.622317,52.3078519],[0.6694359,52.3584268]]],"type":"Polygon"},"id":"E02006242","properties":{"code":"E02006242","geography":"MSOA","name":"West Suffolk 007"},"type":"Feature"},{"geometry":{"coordinates":[[[0.424178,52.2558504],[0.3953267,52.2804392],[0.3853359,52.2829821],[0.3826944,52.2932504],[0.3778438,52.2912372],[0.3606585,52.2977926],[0.3591957,52.2891419],[0.3506241,52.2829447],[0.3551985,52.279306],[0.3399746,52.2676727],[0.3602794,52.2502173],[0.3566366,52.2462722],[0.3776462,52.2628461],[0.4054969,52.2437618],[0.4144899,52.2478455],[0.4269358,52.2535871],[0.424178,52.2558504]]],"type":"Polygon"},"id":"E02006243","properties":{"code":"E02006243","geography":"MSOA","name":"West Suffolk 008"},"type":"Feature"},{"geometry":{"coordinates":[[[0.9674423,52.3700937],[0.9469314,52.3759636],[0.9302039,52.388819],[0.9228595,52.3900197],[0.9048998,52.3857641],[0.8910979,52.3907799],[0.8655563,52.3905235],[0.8568971,52.3970553],[0.8533548,52.3853197],[0.839742,52.3686027],[0.838862,52.3598935],[0.8478754,52.3586531],[0.8472099,52.3544001],[0.8370906,52.3409617],[0.8391372,52.3282642],[0.8306276,52.3275192],[0.8343482,52.3227668],[0.8390286,52.3226594],[0.826198,52.3182752],[0.8396206,52.3120981],[0.8576408,52.3110166],[0.8667645,52.2978465],[0.874051,52.2994716],[0.8795689,52.2933881],[0.8873251,52.2927012],[0.8829047,52.3001191],[0.8995291,52.2989495],[0.9031294,52.3038275],[0.9116467,52.3020425],[0.9045455,52.3055699],[0.9310934,52.3128507],[0.9256768,52.3273427],[0.9326672,52.3357114],[0.9532004,52.3368422],[0.957309,52.3403537],[0.9579546,52.3507635],[0.9531418,52.3560424],[0.9672241,52.3657159],[0.9674423,52.3700937]]],"type":"Polygon"},"id":"E02006273","properties":{"code":"E02006273","geography":"MSOA","name":"West Suffolk 005"},"type":"Feature"},{"geometry":{"coordinates":[[[0.8568971,52.3970553],[0.8554118,52.3994223],[0.8382893,52.4007055],[0.8081448,52.3895056],[0.7961034,52.391223],[0.7859005,52.3864703],[0.7734076,52.3863084],[0.765939,52.3903386],[0.7498174,52.3829076],[0.7409393,52.3881706],[0.7417899,52.392675],[0.7352333,52.3953217],[0.7124115,52.3946041],[0.6911638,52.3699058],[0.6756906,52.3612001],[0.6748125,52.356908],[0.6946576,52.3559395],[0.7199395,52.3490367],[0.7383734,52.348487],[0.7230246,52.3084316],[0.7248426,52.29635],[0.7155001,52.2915954],[0.7024092,52.292183],[0.7078949,52.2911872],[0.7123545,52.2840702],[0.7170504,52.2847881],[0.7166313,52.2786888],[0.7539192,52.2792955],[0.7585918,52.2875557],[0.7795035,52.2945241],[0.7867563,52.2840874],[0.7862859,52.2736726],[0.8029038,52.2706222],[0.7976931,52.2685805],[0.8015738,52.2658925],[0.8093869,52.2670341],[0.8176808,52.2643652],[0.8257954,52.2664981],[0.8438349,52.2597834],[0.8425719,52.2680094],[0.8495374,52.264787],[0.8562954,52.2684254],[0.8536528,52.277053],[0.8428688,52.2847632],[0.855526,52.2863315],[0.8552307,52.2915288],[0.8689728,52.2934407],[0.8667645,52.2978465],[0.8576408,52.3110166],[0.8396206,52.3120981],[0.826198,52.3182752],[0.8390286,52.3226594],[0.8343482,52.3227668],[0.8306276,52.3275192],[0.8391372,52.3282642],[0.8370906,52.3409617],[0.8472099,52.3544001],[0.8478754,52.3586531],[0.838862,52.3598935],[0.839742,52.3686027],[0.8533548,52.3853197],[0.8568971,52.3970553]]],"type":"Polygon"},"id":"E02006274","properties":{"code":"E02006274","geography":"MSOA","name":"West Suffolk 006"},"type":"Feature"},{"geometry":{"coordinates":[[[0.7119308,52.2616038],[0.7072942,52.2713166],[0.6852232,52.2573251],[0.6827087,52.2539512],[0.6988678,52.2537892],[0.7010833,52.2574091],[0.7117258,52.25883],[0.7119308,52.2616038]]],"type":"Polygon"},"id":"E02006275","properties":{"code":"E02006275","geography":"MSOA","name":"West Suffolk 009"},"type":"Feature"},{"geometry":{"coordinates":[[[0.8015738,52.2658925],[0.7976931,52.2685805],[0.8029038,52.2706222],[0.7862859,52.2736726],[0.7867563,52.2840874],[0.7795035,52.2945241],[0.7585918,52.2875557],[0.7539192,52.2792955],[0.7166313,52.2786888],[0.7170504,52.2847881],[0.7123545,52.2840702],[0.7078949,52.2911872],[0.7024092,52.292183],[0.6917001,52.2934327],[0.6809104,52.288411],[0.685613,52.2865915],[0.6733,52.2745246],[0.6647526,52.2574095],[0.6852232,52.2573251],[0.7072942,52.2713166],[0.7119308,52.2616038],[0.7142973,52.2588083],[0.7251237,52.2621556],[0.7402263,52.2524954],[0.7588684,52.2517727],[0.7575431,52.2366983],[0.7449949,52.2373411],[0.7472993,52.232068],[0.7403184,52.2276364],[0.7426062,52.2181884],[0.7499549,52.2123581],[0.7757897,52.2107968],[0.7717047,52.200088],[0.7757729,52.1977482],[0.7753939,52.194886],[0.7719799,52.1954595],[0.7747422,52.1925827],[0.7710699,52.1882426],[0.7647851,52.1877164],[0.7640852,52.1913108],[0.7577182,52.188919],[0.762513,52.1866044],[0.7535652,52.1820194],[0.7487279,52.1828742],[0.7468175,52.1874063],[0.7380636,52.1886611],[0.7303948,52.1786506],[0.7159372,52.1776738],[0.7227694,52.1650887],[0.7281324,52.1680843],[0.7327463,52.1647391],[0.7383058,52.1699555],[0.7419621,52.1593155],[0.7615112,52.1579227],[0.7650203,52.1738879],[0.7686577,52.1749838],[0.7868887,52.1778786],[0.8141381,52.1707167],[0.8224623,52.1745429],[0.8245408,52.1796993],[0.8362421,52.1821532],[0.8326882,52.1865714],[0.836315,52.1982798],[0.819385,52.1989709],[0.8141771,52.2070272],[0.8219435,52.2232476],[0.8199215,52.2333627],[0.8270985,52.238951],[0.8066661,52.2464147],[0.8077397,52.2493784],[0.7975506,52.2512134],[0.8015738,52.2658925]]],"type":"Polygon"},"id":"E02006276","properties":{"code":"E02006276","geography":"MSOA","name":"West Suffolk 016"},"type":"Feature"},{"geometry":{"coordinates":[[[0.7449949,52.2373411],[0.7575431,52.2366983],[0.7588684,52.2517727],[0.7402263,52.2524954],[0.7300985,52.2505135],[0.7271789,52.2460778],[0.7306094,52.2401216],[0.7449949,52.2373411]]],"type":"Polygon"},"id":"E02006277","properties":{"code":"E02006277","geography":"MSOA","name":"West Suffolk 012"},"type":"Feature"},{"geometry":{"coordinates":[[[0.7142973,52.2588083],[0.7119308,52.2616038],[0.7117258,52.25883],[0.7010833,52.2574091],[0.6988678,52.2537892],[0.6969381,52.2436775],[0.7067762,52.2475812],[0.7091935,52.2402694],[0.7045754,52.2392008],[0.7242855,52.2347381],[0.7289713,52.236644],[0.7207923,52.2465597],[0.7119526,52.2467295],[0.7178318,52.252489],[0.7142973,52.2588083]]],"type":"Polygon"},"id":"E02006278","properties":{"code":"E02006278","geography":"MSOA","name":"West Suffolk 011"},"type":"Feature"},{"geometry":{"coordinates":[[[0.7045754,52.2392008],[0.7091935,52.2402694],[0.7067762,52.2475812],[0.6969381,52.2436775],[0.6988678,52.2537892],[0.6827087,52.2539512],[0.6781182,52.2446884],[0.6829749,52.2359672],[0.6905797,52.2303559],[0.7005778,52.2307986],[0.6968244,52.2396665],[0.690119,52.2401938],[0.7045754,52.2392008]]],"type":"Polygon"},"id":"E02006279","properties":{"code":"E02006279","geography":"MSOA","name":"West Suffolk 014"},"type":"Feature"},{"geometry":{"coordinates":[[[0.7024092,52.292183],[0.7155001,52.2915954],[0.7248426,52.29635],[0.7230246,52.3084316],[0.7383734,52.348487],[0.7199395,52.3490367],[0.6946576,52.3559395],[0.6748125,52.356908],[0.6756906,52.3612001],[0.6694359,52.3584268],[0.622317,52.3078519],[0.6144444,52.3093934],[0.6027286,52.3186282],[0.6010683,52.3126831],[0.5899396,52.3043494],[0.5895217,52.2960267],[0.5943994,52.2980348],[0.6009209,52.2831301],[0.5946541,52.2788264],[0.5950296,52.2645846],[0.5629083,52.2658227],[0.5607139,52.254673],[0.5666596,52.2475899],[0.5568743,52.2439011],[0.5599424,52.2343435],[0.554048,52.2315835],[0.5581882,52.2279566],[0.5539215,52.2259205],[0.5659113,52.2175156],[0.5737595,52.2192054],[0.5800682,52.2160349],[0.5865433,52.223381],[0.6069565,52.2214925],[0.6068001,52.2119479],[0.6027985,52.2124077],[0.6025401,52.2078007],[0.5980897,52.2071652],[0.597837,52.1908251],[0.6089561,52.19035],[0.6243597,52.1842133],[0.6126302,52.1716587],[0.6210602,52.1635142],[0.6326233,52.1600434],[0.6400362,52.1661318],[0.6395274,52.1710967],[0.6556662,52.1811453],[0.6564398,52.1785856],[0.6656121,52.1789427],[0.6633641,52.1815705],[0.6710152,52.1823994],[0.6786171,52.178345],[0.6796099,52.1698398],[0.6860951,52.1673615],[0.6861529,52.1592954],[0.691919,52.1578025],[0.6908425,52.1663264],[0.6972992,52.1701077],[0.6944125,52.1801944],[0.7033248,52.181061],[0.7159372,52.1776738],[0.7303948,52.1786506],[0.7380636,52.1886611],[0.7468175,52.1874063],[0.7487279,52.1828742],[0.7535652,52.1820194],[0.762513,52.1866044],[0.7577182,52.188919],[0.7640852,52.1913108],[0.7647851,52.1877164],[0.7710699,52.1882426],[0.7747422,52.1925827],[0.7719799,52.1954595],[0.7753939,52.194886],[0.7757729,52.1977482],[0.7717047,52.200088],[0.7757897,52.2107968],[0.7499549,52.2123581],[0.7426062,52.2181884],[0.7403184,52.2276364],[0.7339111,52.2303868],[0.7051946,52.2223602],[0.7005778,52.2307986],[0.6905797,52.2303559],[0.6829749,52.2359672],[0.6781182,52.2446884],[0.6827087,52.2539512],[0.6852232,52.2573251],[0.6647526,52.2574095],[0.6733,52.2745246],[0.685613,52.2865915],[0.6809104,52.288411],[0.6917001,52.2934327],[0.7024092,52.292183]]],"type":"Polygon"},"id":"E02006280","properties":{"code":"E02006280","geography":"MSOA","name":"West Suffolk 010"},"type":"Feature"},{"geometry":{"coordinates":[[[0.7402263,52.2524954],[0.7251237,52.2621556],[0.7142973,52.2588083],[0.7178318,52.252489],[0.7119526,52.2467295],[0.7207923,52.2465597],[0.7289713,52.236644],[0.7242855,52.2347381],[0.7045754,52.2392008],[0.690119,52.2401938],[0.6968244,52.2396665],[0.7005778,52.2307986],[0.7051946,52.2223602],[0.7339111,52.2303868],[0.7403184,52.2276364],[0.7472993,52.232068],[0.7449949,52.2373411],[0.7306094,52.2401216],[0.7271789,52.2460778],[0.7300985,52.2505135],[0.7402263,52.2524954]]],"type":"Polygon"},"id":"E02006281","properties":{"code":"E02006281","geography":"MSOA","name":"West Suffolk 013"},"type":"Feature"},{"geometry":{"coordinates":[[[0.6861529,52.1592954],[0.6860951,52.1673615],[0.6796099,52.1698398],[0.6786171,52.178345],[0.6710152,52.1823994],[0.6633641,52.1815705],[0.6656121,52.1789427],[0.6564398,52.1785856],[0.6556662,52.1811453],[0.6395274,52.1710967],[0.6400362,52.1661318],[0.6326233,52.1600434],[0.6210602,52.1635142],[0.6126302,52.1716587],[0.6243597,52.1842133],[0.6089561,52.19035],[0.597837,52.1908251],[0.5980897,52.2071652],[0.6025401,52.2078007],[0.6027985,52.2124077],[0.6068001,52.2119479],[0.6069565,52.2214925],[0.5865433,52.223381],[0.5800682,52.2160349],[0.5737595,52.2192054],[0.5659113,52.2175156],[0.5588484,52.2108862],[0.5636093,52.2027956],[0.5581779,52.2040738],[0.556444,52.2109968],[0.5430601,52.2164481],[0.5126335,52.2150492],[0.503101,52.2070214],[0.5025255,52.1960123],[0.494946,52.1887188],[0.4939346,52.1814815],[0.5148186,52.1762085],[0.5206193,52.1821588],[0.5263957,52.1769135],[0.5351317,52.1752382],[0.5236499,52.1554449],[0.5275389,52.1508495],[0.5307108,52.1497168],[0.5406541,52.1558454],[0.5471189,52.156258],[0.5604491,52.1524972],[0.5608579,52.1357153],[0.5556165,52.1334981],[0.5666749,52.1278919],[0.5638342,52.1187209],[0.5699342,52.1172782],[0.5722741,52.1048306],[0.5550207,52.1042561],[0.5506621,52.1021723],[0.5520873,52.0978532],[0.5407225,52.0917127],[0.5409894,52.0892133],[0.5490555,52.0897592],[0.551583,52.0774725],[0.5477562,52.0720126],[0.5616708,52.0730932],[0.5630625,52.0708154],[0.5717465,52.0690729],[0.5820882,52.0758299],[0.5849296,52.0741263],[0.5999389,52.0755944],[0.6073467,52.080902],[0.6194837,52.0765778],[0.6362731,52.0866199],[0.651847,52.0831364],[0.6568703,52.0854278],[0.650516,52.1011898],[0.6372568,52.1146475],[0.6326465,52.1152215],[0.6357983,52.1229455],[0.6302575,52.1229445],[0.6333227,52.1276986],[0.6268863,52.1309863],[0.6371779,52.1333784],[0.6333443,52.1424761],[0.6402319,52.145804],[0.6375118,52.1502184],[0.6413576,52.1562698],[0.6463458,52.1569308],[0.6453444,52.1601624],[0.6633891,52.1606858],[0.6636811,52.1563172],[0.6755106,52.1592452],[0.6742242,52.1567164],[0.682014,52.1559826],[0.6861529,52.1592954]]],"type":"Polygon"},"id":"E02006282","properties":{"code":"E02006282","geography":"MSOA","name":"West Suffolk 017"},"type":"Feature"},{"geometry":{"coordinates":[[[0.5630625,52.0708154],[0.5616708,52.0730932],[0.5477562,52.0720126],[0.551583,52.0774725],[0.5490555,52.0897592],[0.5409894,52.0892133],[0.5407225,52.0917127],[0.5520873,52.0978532],[0.5506621,52.1021723],[0.5550207,52.1042561],[0.5722741,52.1048306],[0.5699342,52.1172782],[0.5638342,52.1187209],[0.5666749,52.1278919],[0.5556165,52.1334981],[0.5608579,52.1357153],[0.5604491,52.1524972],[0.5471189,52.156258],[0.5406541,52.1558454],[0.5307108,52.1497168],[0.5275389,52.1508495],[0.5236499,52.1554449],[0.5351317,52.1752382],[0.5263957,52.1769135],[0.5206193,52.1821588],[0.5148186,52.1762085],[0.4939346,52.1814815],[0.4874348,52.1697829],[0.4913028,52.1650883],[0.4772117,52.1675567],[0.4707,52.1632447],[0.4636732,52.1705299],[0.4525252,52.1732056],[0.4444927,52.1710676],[0.4442762,52.1646685],[0.4382824,52.1652595],[0.4358853,52.159481],[0.4172465,52.1592926],[0.4208563,52.1556252],[0.4182526,52.1343426],[0.409972,52.1343849],[0.4046752,52.129272],[0.4085457,52.1236917],[0.396332,52.1223462],[0.3983097,52.118779],[0.3895585,52.1174582],[0.3817732,52.1026888],[0.3886572,52.0992003],[0.3868341,52.0972926],[0.3949663,52.0959556],[0.3908194,52.0884714],[0.3941909,52.08432],[0.399462,52.0841491],[0.4026653,52.0844467],[0.4019822,52.0892015],[0.4206235,52.0929645],[0.4322197,52.0989435],[0.4420481,52.0934608],[0.4488919,52.0934296],[0.4453386,52.0911547],[0.4509357,52.0903824],[0.4500693,52.086492],[0.4614558,52.0832673],[0.4666359,52.0784439],[0.4707641,52.0734507],[0.4746906,52.0751814],[0.4871154,52.0696149],[0.4884996,52.0614617],[0.5007891,52.0538023],[0.5110238,52.0598192],[0.5231234,52.0567612],[0.5341822,52.0597405],[0.5422324,52.0577466],[0.5514994,52.0620443],[0.5513413,52.0687404],[0.5630625,52.0708154]]],"type":"Polygon"},"id":"E02006283","properties":{"code":"E02006283","geography":"MSOA","name":"West Suffolk 018"},"type":"Feature"},{"geometry":{"coordinates":[[[0.4453386,52.0911547],[0.4488919,52.0934296],[0.4420481,52.0934608],[0.4322197,52.0989435],[0.4206235,52.0929645],[0.4276325,52.0899667],[0.4165256,52.0827846],[0.4178316,52.0801949],[0.4313876,52.0820459],[0.4384361,52.0834309],[0.4453386,52.0911547]]],"type":"Polygon"},"id":"E02006284","properties":{"code":"E02006284","geography":"MSOA","name":"West Suffolk 019"},"type":"Feature"},{"geometry":{"coordinates":[[[0.4313876,52.0820459],[0.4178316,52.0801949],[0.4165256,52.0827846],[0.4276325,52.0899667],[0.4206235,52.0929645],[0.4019822,52.0892015],[0.4026653,52.0844467],[0.399462,52.0841491],[0.4036482,52.0751196],[0.4008628,52.0730075],[0.4070731,52.070755],[0.4046086,52.0654908],[0.4187555,52.0648938],[0.428855,52.0683086],[0.4223108,52.0778351],[0.4316265,52.07955],[0.4313876,52.0820459]]],"type":"Polygon"},"id":"E02006285","properties":{"code":"E02006285","geography":"MSOA","name":"West Suffolk 021"},"type":"Feature"},{"geometry":{"coordinates":[[[0.4666359,52.0784439],[0.4614558,52.0832673],[0.4500693,52.086492],[0.4509357,52.0903824],[0.4453386,52.0911547],[0.4384361,52.0834309],[0.4313876,52.0820459],[0.4316265,52.07955],[0.4223108,52.0778351],[0.428855,52.0683086],[0.4386455,52.0723304],[0.446068,52.0721053],[0.4439217,52.0685066],[0.453592,52.0681353],[0.453799,52.0711293],[0.461793,52.072323],[0.4581295,52.0761107],[0.4666359,52.0784439]]],"type":"Polygon"},"id":"E02006286","properties":{"code":"E02006286","geography":"MSOA","name":"West Suffolk 020"},"type":"Feature"},{"geometry":{"coordinates":[[[0.4144899,52.2478455],[0.4054969,52.2437618],[0.3776462,52.2628461],[0.3566366,52.2462722],[0.3426563,52.2423281],[0.357534,52.2340669],[0.371221,52.2265411],[0.3846205,52.2339906],[0.3949318,52.2306642],[0.4096398,52.2394802],[0.4213058,52.2396755],[0.4144899,52.2478455]]],"type":"Polygon"},"id":"E02006826","properties":{"code":"E02006826","geography":"MSOA","name":"West Suffolk 015"},"type":"Feature"}],"type":"FeatureCollection"}
