{"features":[{"geometry":{"coordinates":[[[-0.1609203,51.159827],[-0.1767334,51.1668536],[-0.1853256,51.1648234],[-0.1869489,51.1616571],[-0.195949,51.1623062],[-0.2041373,51.1557153],[-0.2121696,51.1554588],[-0.2142619,51.1484683],[-0.2551948,51.1441445],[-0.2546403,51.1390543],[-0.2408516,51.1431185],[-0.2003026,51.1390967],[-0.2117532,51.1313342],[-0.211099,51.127303],[-0.2072968,51.1280294],[-0.1990143,51.1219661],[-0.1884901,51.1248854],[-0.1831512,51.1438973],[-0.1609019,51.1489624],[-0.1609203,51.159827]]],"type":"Polygon"},"id":"E02006575","properties":{"code":"E02006575","geography":"MSOA","name":"Crawley 001"},"type":"Feature"},{"geometry":{"coordinates":[[[-0.1375988,51.1421636],[-0.1329872,51.1588873],[-0.1404897,51.1600509],[-0.1511193,51.1600292],[-0.1609203,51.159827],[-0.1609019,51.1489624],[-0.1609227,51.1402772],[-0.1609034,51.1287037],[-0.1548751,51.1284125],[-0.1525532,51.1223822],[-0.1561345,51.1199847],[-0.1477209,51.1166707],[-0.141812,51.1161122],[-0.1438925,51.1191727],[-0.1387083,51.1204784],[-0.1414509,51.1281193],[-0.1375988,51.1421636]]],"type":"Polygon"},"id":"E02006576","properties":{"code":"E02006576","geography":"MSOA","name":"Crawley 002"},"type":"Feature"},{"geometry":{"coordinates":[[[-0.1884901,51.1248854],[-0.1990143,51.1219661],[-0.2072968,51.1280294],[-0.211099,51.127303],[-0.2117532,51.1313342],[-0.2191023,51.1278725],[-0.2141514,51.1251659],[-0.2156509,51.117658],[-0.2081843,51.1184165],[-0.2083284,51.1152061],[-0.1992209,51.1142978],[-0.198397,51.1182003],[-0.1934589,51.1191366],[-0.1900475,51.1160465],[-0.1884901,51.1248854]]],"type":"Polygon"},"id":"E02006577","properties":{"code":"E02006577","geography":"MSOA","name":"Crawley 003"},"type":"Feature"},{"geometry":{"coordinates":[[[-0.1609227,51.1402772],[-0.1609019,51.1489624],[-0.1831512,51.1438973],[-0.1884901,51.1248854],[-0.1900475,51.1160465],[-0.1906752,51.112597],[-0.1828265,51.1118611],[-0.1616063,51.1149204],[-0.1720407,51.1193653],[-0.1680052,51.1213494],[-0.1703756,51.1303093],[-0.1609227,51.1402772]]],"type":"Polygon"},"id":"E02006578","properties":{"code":"E02006578","geography":"MSOA","name":"Crawley 004"},"type":"Feature"},{"geometry":{"coordinates":[[[-0.1477209,51.1166707],[-0.1561345,51.1199847],[-0.1525532,51.1223822],[-0.1548751,51.1284125],[-0.1609034,51.1287037],[-0.1609227,51.1402772],[-0.1703756,51.1303093],[-0.1680052,51.1213494],[-0.1720407,51.1193653],[-0.1616063,51.1149204],[-0.160767,51.1151447],[-0.1524847,51.1119863],[-0.1475784,51.1133111],[-0.1477209,51.1166707]]],"type":"Polygon"},"id":"E02006579","properties":{"code":"E02006579","geography":"MSOA","name":"Crawley 005"},"type":"Feature"},{"geometry":{"coordinates":[[[-0.2083284,51.1152061],[-0.2081843,51.1184165],[-0.2156509,51.117658],[-0.2141514,51.1251659],[-0.2191023,51.1278725],[-0.2228145,51.1148714],[-0.2360274,51.1110748],[-0.2227057,51.1124965],[-0.2198552,51.1073998],[-0.2074299,51.1032523],[-0.2041894,51.1066586],[-0.2083284,51.1152061]]],"type":"Polygon"},"id":"E02006580","properties":{"code":"E02006580","geography":"MSOA","name":"Crawley 006"},"type":"Feature"},{"geometry":{"coordinates":[[[-0.1900475,51.1160465],[-0.1934589,51.1191366],[-0.198397,51.1182003],[-0.1992209,51.1142978],[-0.2083284,51.1152061],[-0.2041894,51.1066586],[-0.2009278,51.104036],[-0.1944023,51.1009106],[-0.1900272,51.1024167],[-0.190207,51.1071711],[-0.1823106,51.1080975],[-0.1828265,51.1118611],[-0.1906752,51.112597],[-0.1900475,51.1160465]]],"type":"Polygon"},"id":"E02006581","properties":{"code":"E02006581","geography":"MSOA","name":"Crawley 007"},"type":"Feature"},{"geometry":{"coordinates":[[[-0.1511036,51.0988872],[-0.137394,51.111549],[-0.1387083,51.1204784],[-0.1438925,51.1191727],[-0.141812,51.1161122],[-0.1477209,51.1166707],[-0.1475784,51.1133111],[-0.1524847,51.1119863],[-0.160767,51.1151447],[-0.1607781,51.1097216],[-0.1513262,51.103],[-0.157749,51.1021404],[-0.1580846,51.0967389],[-0.1511036,51.0988872]]],"type":"Polygon"},"id":"E02006582","properties":{"code":"E02006582","geography":"MSOA","name":"Crawley 008"},"type":"Feature"},{"geometry":{"coordinates":[[[-0.1511036,51.0988872],[-0.1580846,51.0967389],[-0.157749,51.1021404],[-0.1513262,51.103],[-0.1607781,51.1097216],[-0.160767,51.1151447],[-0.1616063,51.1149204],[-0.1828265,51.1118611],[-0.1823106,51.1080975],[-0.1737673,51.1055137],[-0.1725688,51.0898993],[-0.1613527,51.0929428],[-0.1511036,51.0988872]]],"type":"Polygon"},"id":"E02006583","properties":{"code":"E02006583","geography":"MSOA","name":"Crawley 009"},"type":"Feature"},{"geometry":{"coordinates":[[[-0.2198552,51.1073998],[-0.2227057,51.1124965],[-0.2360274,51.1110748],[-0.2314526,51.1078107],[-0.2325186,51.0973555],[-0.2193995,51.09957],[-0.2131022,51.1022411],[-0.2177568,51.1028279],[-0.2198552,51.1073998]]],"type":"Polygon"},"id":"E02006584","properties":{"code":"E02006584","geography":"MSOA","name":"Crawley 010"},"type":"Feature"},{"geometry":{"coordinates":[[[-0.1725688,51.0898993],[-0.1737673,51.1055137],[-0.1823106,51.1080975],[-0.190207,51.1071711],[-0.1900272,51.1024167],[-0.1944023,51.1009106],[-0.1956081,51.086151],[-0.1725688,51.0898993]]],"type":"Polygon"},"id":"E02006585","properties":{"code":"E02006585","geography":"MSOA","name":"Crawley 011"},"type":"Feature"},{"geometry":{"coordinates":[[[-0.2041894,51.1066586],[-0.2074299,51.1032523],[-0.2198552,51.1073998],[-0.2177568,51.1028279],[-0.2131022,51.1022411],[-0.2193995,51.09957],[-0.2177174,51.0919381],[-0.2118357,51.0919364],[-0.2009278,51.104036],[-0.2041894,51.1066586]]],"type":"Polygon"},"id":"E02006586","properties":{"code":"E02006586","geography":"MSOA","name":"Crawley 012"},"type":"Feature"},{"geometry":{"coordinates":[[[-0.1944023,51.1009106],[-0.2009278,51.104036],[-0.2118357,51.0919364],[-0.2120047,51.0865879],[-0.1956081,51.086151],[-0.1944023,51.1009106]]],"type":"Polygon"},"id":"E02006587","properties":{"code":"E02006587","geography":"MSOA","name":"Crawley 013"},"type":"Feature"}],"type":"FeatureCollection"}
