{"features":[{"geometry":{"coordinates":[[[0.1363474,52.2334544],[0.1298412,52.2356361],[0.1186691,52.2311694],[0.1281934,52.2239964],[0.1349687,52.2256904],[0.1388865,52.2226828],[0.1476443,52.2298801],[0.1363474,52.2334544]]],"type":"Polygon"},"id":"E02003719","properties":{"code":"E02003719","geography":"MSOA","name":"Cambridge 001"},"type":"Feature"},{"geometry":{"coordinates":[[[0.1281934,52.2239964],[0.1186691,52.2311694],[0.117378,52.2282525],[0.1078013,52.2305685],[0.1034558,52.2280903],[0.1119191,52.2251929],[0.1081845,52.2187808],[0.1139053,52.2115128],[0.1180049,52.2115037],[0.120627,52.2128325],[0.1169616,52.2154606],[0.1190992,52.2217527],[0.1281934,52.2239964]]],"type":"Polygon"},"id":"E02003720","properties":{"code":"E02003720","geography":"MSOA","name":"Cambridge 002"},"type":"Feature"},{"geometry":{"coordinates":[[[0.160899,52.2207959],[0.1548223,52.2264732],[0.1609481,52.2309948],[0.1666201,52.2301229],[0.1713064,52.2329444],[0.1694173,52.2352357],[0.1552519,52.237216],[0.1476443,52.2298801],[0.1388865,52.2226828],[0.1325133,52.2188113],[0.1367189,52.2110527],[0.1460844,52.2175164],[0.160899,52.2207959]]],"type":"Polygon"},"id":"E02003721","properties":{"code":"E02003721","geography":"MSOA","name":"Cambridge 003"},"type":"Feature"},{"geometry":{"coordinates":[[[0.1388865,52.2226828],[0.1349687,52.2256904],[0.1281934,52.2239964],[0.1190992,52.2217527],[0.1169616,52.2154606],[0.120627,52.2128325],[0.1367189,52.2110527],[0.1325133,52.2188113],[0.1388865,52.2226828]]],"type":"Polygon"},"id":"E02003722","properties":{"code":"E02003722","geography":"MSOA","name":"Cambridge 004"},"type":"Feature"},{"geometry":{"coordinates":[[[0.1180049,52.2115037],[0.1139053,52.2115128],[0.1081845,52.2187808],[0.1119191,52.2251929],[0.1034558,52.2280903],[0.1011503,52.2269606],[0.0815143,52.2182183],[0.068612,52.216096],[0.0710891,52.2151134],[0.1091568,52.2107397],[0.1059122,52.205878],[0.114056,52.2047715],[0.1178034,52.2051385],[0.1180049,52.2115037]]],"type":"Polygon"},"id":"E02003723","properties":{"code":"E02003723","geography":"MSOA","name":"Cambridge 005"},"type":"Feature"},{"geometry":{"coordinates":[[[0.1718614,52.2112396],[0.1758145,52.2172282],[0.160899,52.2207959],[0.1460844,52.2175164],[0.1367189,52.2110527],[0.1376295,52.2084754],[0.1470907,52.2071188],[0.1497562,52.2107734],[0.1592077,52.2008536],[0.1627738,52.2015116],[0.1606277,52.1996379],[0.1690796,52.1966323],[0.1799039,52.200309],[0.1757199,52.2054454],[0.167316,52.2041347],[0.1718614,52.2112396]]],"type":"Polygon"},"id":"E02003724","properties":{"code":"E02003724","geography":"MSOA","name":"Cambridge 006"},"type":"Feature"},{"geometry":{"coordinates":[[[0.1180049,52.2115037],[0.1178034,52.2051385],[0.114056,52.2047715],[0.1059122,52.205878],[0.1091568,52.2107397],[0.0710891,52.2151134],[0.0697731,52.2121658],[0.0742137,52.2115219],[0.0789284,52.2043398],[0.0948632,52.1993203],[0.0968231,52.1920676],[0.1047089,52.190611],[0.1295405,52.2009277],[0.1376295,52.2084754],[0.1367189,52.2110527],[0.120627,52.2128325],[0.1180049,52.2115037]]],"type":"Polygon"},"id":"E02003725","properties":{"code":"E02003725","geography":"MSOA","name":"Cambridge 007"},"type":"Feature"},{"geometry":{"coordinates":[[[0.1470907,52.2071188],[0.1376295,52.2084754],[0.1295405,52.2009277],[0.1312367,52.1949968],[0.1376018,52.1941022],[0.1389099,52.1958809],[0.1470907,52.2071188]]],"type":"Polygon"},"id":"E02003726","properties":{"code":"E02003726","geography":"MSOA","name":"Cambridge 008"},"type":"Feature"},{"geometry":{"coordinates":[[[0.1606277,52.1996379],[0.1627738,52.2015116],[0.1592077,52.2008536],[0.1497562,52.2107734],[0.1470907,52.2071188],[0.1389099,52.1958809],[0.1629204,52.1951973],[0.1606277,52.1996379]]],"type":"Polygon"},"id":"E02003727","properties":{"code":"E02003727","geography":"MSOA","name":"Cambridge 009"},"type":"Feature"},{"geometry":{"coordinates":[[[0.1629204,52.1951973],[0.1389099,52.1958809],[0.1376018,52.1941022],[0.1325873,52.1869498],[0.1413312,52.1882988],[0.1593649,52.1842486],[0.1647442,52.1914668],[0.1673146,52.1892471],[0.1701591,52.1918889],[0.1629204,52.1951973]]],"type":"Polygon"},"id":"E02003728","properties":{"code":"E02003728","geography":"MSOA","name":"Cambridge 010"},"type":"Feature"},{"geometry":{"coordinates":[[[0.1813002,52.1694782],[0.1809929,52.1878582],[0.1845309,52.1914625],[0.1799039,52.200309],[0.1690796,52.1966323],[0.1606277,52.1996379],[0.1629204,52.1951973],[0.1701591,52.1918889],[0.1673146,52.1892471],[0.1647442,52.1914668],[0.1593649,52.1842486],[0.1676983,52.181006],[0.1636722,52.1723234],[0.1813002,52.1694782]]],"type":"Polygon"},"id":"E02003729","properties":{"code":"E02003729","geography":"MSOA","name":"Cambridge 011"},"type":"Feature"},{"geometry":{"coordinates":[[[0.1593649,52.1842486],[0.1413312,52.1882988],[0.1325873,52.1869498],[0.130867,52.1820038],[0.1319689,52.1682125],[0.1417271,52.1709919],[0.1548983,52.1646106],[0.1636722,52.1723234],[0.1676983,52.181006],[0.1593649,52.1842486]]],"type":"Polygon"},"id":"E02003731","properties":{"code":"E02003731","geography":"MSOA","name":"Cambridge 013"},"type":"Feature"},{"geometry":{"coordinates":[[[0.130867,52.1820038],[0.1165918,52.1806144],[0.1009867,52.1858038],[0.0992783,52.1713019],[0.1078226,52.1683127],[0.1010729,52.1607125],[0.1034014,52.1579296],[0.1319689,52.1682125],[0.130867,52.1820038]]],"type":"Polygon"},"id":"E02007086","properties":{"code":"E02007086","geography":"MSOA","name":"Cambridge 015"},"type":"Feature"},{"geometry":{"coordinates":[[[0.1376018,52.1941022],[0.1312367,52.1949968],[0.1295405,52.2009277],[0.1047089,52.190611],[0.1009867,52.1858038],[0.1165918,52.1806144],[0.130867,52.1820038],[0.1325873,52.1869498],[0.1376018,52.1941022]]],"type":"Polygon"},"id":"E02007087","properties":{"code":"E02007087","geography":"MSOA","name":"Cambridge 014"},"type":"Feature"}],"type":"FeatureCollection"}
