{"features":[{"geometry":{"coordinates":[[[0.302359,50.8084789],[0.3000454,50.8128374],[0.2817968,50.8107163],[0.2798284,50.8093142],[0.2830887,50.8065511],[0.2914064,50.798702],[0.2955301,50.8011827],[0.3063674,50.7986678],[0.3036655,50.8023467],[0.307998,50.805537],[0.302359,50.8084789]]],"type":"Polygon"},"id":"E02004356","properties":{"code":"E02004356","geography":"MSOA","name":"Eastbourne 001"},"type":"Feature"},{"geometry":{"coordinates":[[[0.2798284,50.8093142],[0.2758309,50.804869],[0.2673219,50.8105672],[0.2615552,50.8051838],[0.2809366,50.7981196],[0.2830887,50.8065511],[0.2798284,50.8093142]]],"type":"Polygon"},"id":"E02004357","properties":{"code":"E02004357","geography":"MSOA","name":"Eastbourne 002"},"type":"Feature"},{"geometry":{"coordinates":[[[0.3329036,50.8021642],[0.3240396,50.8078656],[0.302359,50.8084789],[0.307998,50.805537],[0.3036655,50.8023467],[0.3063674,50.7986678],[0.3088167,50.7968685],[0.3019551,50.7948864],[0.3176012,50.7940899],[0.3329036,50.8021642]]],"type":"Polygon"},"id":"E02004358","properties":{"code":"E02004358","geography":"MSOA","name":"Eastbourne 003"},"type":"Feature"},{"geometry":{"coordinates":[[[0.2914064,50.798702],[0.2830887,50.8065511],[0.2809366,50.7981196],[0.2615552,50.8051838],[0.2584879,50.799342],[0.2552485,50.7935045],[0.2620915,50.78886],[0.260902,50.7857858],[0.2674381,50.7859265],[0.265802,50.7904809],[0.2815593,50.7912015],[0.2885437,50.7943126],[0.2914064,50.798702]]],"type":"Polygon"},"id":"E02004359","properties":{"code":"E02004359","geography":"MSOA","name":"Eastbourne 004"},"type":"Feature"},{"geometry":{"coordinates":[[[0.2584879,50.799342],[0.250456,50.7988433],[0.2458495,50.8054945],[0.2276952,50.8008768],[0.2338002,50.7952524],[0.2275997,50.7832937],[0.2164023,50.7747345],[0.217178,50.7620635],[0.2135852,50.7601261],[0.2308865,50.7605233],[0.2465595,50.7651961],[0.2511873,50.761811],[0.2549234,50.7684853],[0.2520777,50.7694756],[0.2555345,50.7702812],[0.2524978,50.7710862],[0.2496393,50.7733398],[0.2553061,50.7755561],[0.2508387,50.7801698],[0.2567932,50.7766537],[0.256524,50.7788297],[0.260118,50.7775457],[0.2640648,50.7801436],[0.260902,50.7857858],[0.2620915,50.78886],[0.2552485,50.7935045],[0.2584879,50.799342]]],"type":"Polygon"},"id":"E02004361","properties":{"code":"E02004361","geography":"MSOA","name":"Eastbourne 006"},"type":"Feature"},{"geometry":{"coordinates":[[[0.3038238,50.7772726],[0.3011717,50.7873681],[0.2946321,50.7852611],[0.2968049,50.7904946],[0.2885437,50.7943126],[0.2815593,50.7912015],[0.2873303,50.7745845],[0.2930841,50.7733931],[0.3038238,50.7772726]]],"type":"Polygon"},"id":"E02004362","properties":{"code":"E02004362","geography":"MSOA","name":"Eastbourne 007"},"type":"Feature"},{"geometry":{"coordinates":[[[0.2873303,50.7745845],[0.2815593,50.7912015],[0.265802,50.7904809],[0.2674381,50.7859265],[0.260902,50.7857858],[0.2640648,50.7801436],[0.2666424,50.7758855],[0.2686318,50.7779548],[0.276817,50.7762005],[0.2727778,50.7739147],[0.2763577,50.7718721],[0.286729,50.7730469],[0.2873303,50.7745845]]],"type":"Polygon"},"id":"E02004363","properties":{"code":"E02004363","geography":"MSOA","name":"Eastbourne 008"},"type":"Feature"},{"geometry":{"coordinates":[[[0.2763577,50.7718721],[0.2727778,50.7739147],[0.276817,50.7762005],[0.2686318,50.7779548],[0.2666424,50.7758855],[0.2640648,50.7801436],[0.260118,50.7775457],[0.256524,50.7788297],[0.2567932,50.7766537],[0.2508387,50.7801698],[0.2553061,50.7755561],[0.2496393,50.7733398],[0.2524978,50.7710862],[0.2575716,50.7734037],[0.2663349,50.7675112],[0.2714474,50.7684739],[0.2763577,50.7718721]]],"type":"Polygon"},"id":"E02004364","properties":{"code":"E02004364","geography":"MSOA","name":"Eastbourne 009"},"type":"Feature"},{"geometry":{"coordinates":[[[0.3079891,50.7770254],[0.3038238,50.7772726],[0.2930841,50.7733931],[0.2873303,50.7745845],[0.286729,50.7730469],[0.2811183,50.7690812],[0.2915037,50.7658147],[0.2916803,50.765932],[0.3016404,50.772198],[0.3079891,50.7770254]]],"type":"Polygon"},"id":"E02004365","properties":{"code":"E02004365","geography":"MSOA","name":"Eastbourne 010"},"type":"Feature"},{"geometry":{"coordinates":[[[0.2915037,50.7658147],[0.2811183,50.7690812],[0.286729,50.7730469],[0.2763577,50.7718721],[0.2714474,50.7684739],[0.2775766,50.7593947],[0.2826334,50.7599224],[0.2915037,50.7658147]]],"type":"Polygon"},"id":"E02004366","properties":{"code":"E02004366","geography":"MSOA","name":"Eastbourne 011"},"type":"Feature"},{"geometry":{"coordinates":[[[0.2714474,50.7684739],[0.2663349,50.7675112],[0.2575716,50.7734037],[0.2524978,50.7710862],[0.2555345,50.7702812],[0.2520777,50.7694756],[0.2549234,50.7684853],[0.2511873,50.761811],[0.2465595,50.7651961],[0.2308865,50.7605233],[0.2135852,50.7601261],[0.2174558,50.7571412],[0.2093531,50.7513392],[0.2154609,50.7397267],[0.2111717,50.7429824],[0.2098998,50.7384118],[0.2408802,50.7349494],[0.2581944,50.7376562],[0.2665642,50.7470016],[0.271529,50.752543],[0.2826334,50.7599224],[0.2775766,50.7593947],[0.2714474,50.7684739]]],"type":"Polygon"},"id":"E02004367","properties":{"code":"E02004367","geography":"MSOA","name":"Eastbourne 012"},"type":"Feature"},{"geometry":{"coordinates":[[[0.3063674,50.7986678],[0.2955301,50.8011827],[0.2914064,50.798702],[0.2885437,50.7943126],[0.2968049,50.7904946],[0.2946321,50.7852611],[0.3011717,50.7873681],[0.3038238,50.7772726],[0.3079891,50.7770254],[0.3122072,50.7788428],[0.3155498,50.7809441],[0.315728,50.7810562],[0.3203936,50.7824346],[0.3243385,50.7840677],[0.3298538,50.7864424],[0.3308907,50.7878589],[0.3183051,50.7885311],[0.3176012,50.7940899],[0.3019551,50.7948864],[0.3088167,50.7968685],[0.3063674,50.7986678]]],"type":"Polygon"},"id":"E02006857","properties":{"code":"E02006857","geography":"MSOA","name":"Eastbourne 013"},"type":"Feature"},{"geometry":{"coordinates":[[[0.3391599,50.7991519],[0.3329036,50.8021642],[0.3176012,50.7940899],[0.3183051,50.7885311],[0.3308907,50.7878589],[0.3325808,50.7901675],[0.332088,50.7908211],[0.3359486,50.794767],[0.3391599,50.7991519]]],"type":"Polygon"},"id":"E02006858","properties":{"code":"E02006858","geography":"MSOA","name":"Eastbourne 014"},"type":"Feature"}],"type":"FeatureCollection"}
