{"features":[{"geometry":{"coordinates":[[[-0.0640213,51.3186376],[-0.0710433,51.3212337],[-0.0788843,51.3194612],[-0.0847809,51.3158855],[-0.0819588,51.3106486],[-0.0887589,51.305106],[-0.0885435,51.2993888],[-0.0817579,51.2960706],[-0.0813098,51.2921148],[-0.0809055,51.2920872],[-0.0698307,51.2978691],[-0.0566715,51.2969545],[-0.0534034,51.3016017],[-0.0640213,51.3186376]]],"type":"Polygon"},"id":"E02006429","properties":{"code":"E02006429","geography":"MSOA","name":"Tandridge 002"},"type":"Feature"},{"geometry":{"coordinates":[[[-0.0813098,51.2921148],[-0.0817579,51.2960706],[-0.0885435,51.2993888],[-0.0887589,51.305106],[-0.0972725,51.300297],[-0.0943521,51.2993554],[-0.1157564,51.2907296],[-0.1063386,51.2903259],[-0.1006122,51.2825477],[-0.0950781,51.290092],[-0.0813098,51.2921148]]],"type":"Polygon"},"id":"E02006430","properties":{"code":"E02006430","geography":"MSOA","name":"Tandridge 003"},"type":"Feature"},{"geometry":{"coordinates":[[[-0.0265458,51.2897563],[-0.0304502,51.3037782],[-0.0317523,51.3005662],[-0.0374711,51.3007308],[-0.040631,51.3050569],[-0.0534034,51.3016017],[-0.0566715,51.2969545],[-0.0698307,51.2978691],[-0.0809055,51.2920872],[-0.0804915,51.2830138],[-0.1007296,51.2673015],[-0.0977266,51.2626123],[-0.0747104,51.2620544],[-0.0653511,51.2661681],[-0.0546872,51.2663763],[-0.0470931,51.2618964],[-0.0398254,51.264443],[-0.0217156,51.2744183],[-0.0277775,51.2843588],[-0.0265458,51.2897563]]],"type":"Polygon"},"id":"E02006431","properties":{"code":"E02006431","geography":"MSOA","name":"Tandridge 004"},"type":"Feature"},{"geometry":{"coordinates":[[[-0.0809055,51.2920872],[-0.0813098,51.2921148],[-0.0950781,51.290092],[-0.1006122,51.2825477],[-0.1063386,51.2903259],[-0.1157564,51.2907296],[-0.1178019,51.2870962],[-0.1243193,51.2867601],[-0.1310828,51.2848189],[-0.1305056,51.2794778],[-0.1300035,51.2724868],[-0.1007296,51.2673015],[-0.0804915,51.2830138],[-0.0809055,51.2920872]]],"type":"Polygon"},"id":"E02006432","properties":{"code":"E02006432","geography":"MSOA","name":"Tandridge 005"},"type":"Feature"},{"geometry":{"coordinates":[[[0.051777,51.2626887],[0.0350317,51.2610567],[0.0191217,51.263808],[0.0035091,51.2758381],[0.0038289,51.2810648],[-0.0265458,51.2897563],[-0.0277775,51.2843588],[-0.0217156,51.2744183],[-0.0398254,51.264443],[-0.0468035,51.2612655],[-0.0502235,51.2500544],[-0.0430891,51.2236785],[-0.0341426,51.208636],[-0.041569,51.1968554],[-0.0434453,51.1832886],[-0.0367242,51.1805842],[-0.019189,51.2227187],[-0.0213117,51.2461473],[0.0043455,51.2507423],[0.0163249,51.2426424],[0.0166704,51.2170998],[0.0285642,51.2053068],[0.0264701,51.1975531],[0.039567,51.1978972],[0.0335655,51.2143392],[0.0411223,51.2166265],[0.0428086,51.2246122],[0.043783,51.2308899],[0.0528333,51.2365291],[0.0575814,51.2449165],[0.051777,51.2626887]]],"type":"Polygon"},"id":"E02006433","properties":{"code":"E02006433","geography":"MSOA","name":"Tandridge 006"},"type":"Feature"},{"geometry":{"coordinates":[[[0.0166704,51.2170998],[0.0163249,51.2426424],[0.0043455,51.2507423],[-0.0213117,51.2461473],[-0.019189,51.2227187],[0.0013153,51.2180296],[0.0067334,51.2123288],[0.0166704,51.2170998]]],"type":"Polygon"},"id":"E02006434","properties":{"code":"E02006434","geography":"MSOA","name":"Tandridge 007"},"type":"Feature"},{"geometry":{"coordinates":[[[-0.1007296,51.2673015],[-0.1300035,51.2724868],[-0.1313965,51.268219],[-0.1268278,51.2617381],[-0.1318189,51.2541716],[-0.1429834,51.2533198],[-0.1444995,51.2487992],[-0.1453336,51.2372988],[-0.1543491,51.2319575],[-0.1447599,51.216259],[-0.1455286,51.210736],[-0.1359456,51.2111373],[-0.1418971,51.1906214],[-0.1435352,51.1865376],[-0.1350045,51.1765519],[-0.1291277,51.1749663],[-0.1252707,51.1770429],[-0.12668,51.1937079],[-0.1159385,51.2208147],[-0.0995173,51.2205761],[-0.0997485,51.1928086],[-0.068948,51.1976326],[-0.0686237,51.2137302],[-0.0744563,51.2132392],[-0.0683732,51.2392752],[-0.0747104,51.2620544],[-0.0977266,51.2626123],[-0.1007296,51.2673015]]],"type":"Polygon"},"id":"E02006435","properties":{"code":"E02006435","geography":"MSOA","name":"Tandridge 008"},"type":"Feature"},{"geometry":{"coordinates":[[[-0.0398254,51.264443],[-0.0470931,51.2618964],[-0.0546872,51.2663763],[-0.0653511,51.2661681],[-0.0747104,51.2620544],[-0.0683732,51.2392752],[-0.0744563,51.2132392],[-0.0686237,51.2137302],[-0.068948,51.1976326],[-0.0691248,51.1843313],[-0.0630632,51.1773729],[-0.0540365,51.1822314],[-0.0434453,51.1832886],[-0.041569,51.1968554],[-0.0341426,51.208636],[-0.0430891,51.2236785],[-0.0502235,51.2500544],[-0.0468035,51.2612655],[-0.0398254,51.264443]]],"type":"Polygon"},"id":"E02006436","properties":{"code":"E02006436","geography":"MSOA","name":"Tandridge 009"},"type":"Feature"},{"geometry":{"coordinates":[[[0.0166704,51.2170998],[0.0067334,51.2123288],[0.0013153,51.2180296],[-0.019189,51.2227187],[-0.0367242,51.1805842],[-0.0392817,51.1723193],[-0.0332687,51.1392648],[-0.0322821,51.1389758],[-0.0178153,51.1412032],[-0.0066163,51.1375725],[0.0069936,51.1390075],[0.0273341,51.139854],[0.0499891,51.1426534],[0.0547813,51.1495597],[0.0514657,51.1572392],[0.0461491,51.1718341],[0.0525735,51.1806277],[0.0451552,51.1886537],[0.0477684,51.1917755],[0.039567,51.1978972],[0.0264701,51.1975531],[0.0285642,51.2053068],[0.0166704,51.2170998]]],"type":"Polygon"},"id":"E02006437","properties":{"code":"E02006437","geography":"MSOA","name":"Tandridge 010"},"type":"Feature"},{"geometry":{"coordinates":[[[-0.068948,51.1976326],[-0.0997485,51.1928086],[-0.0995173,51.2205761],[-0.1159385,51.2208147],[-0.12668,51.1937079],[-0.1252707,51.1770429],[-0.1291277,51.1749663],[-0.1282812,51.1627936],[-0.1404897,51.1600509],[-0.1329872,51.1588873],[-0.1375988,51.1421636],[-0.1310521,51.1394871],[-0.1172898,51.1416037],[-0.0930872,51.1387106],[-0.0826407,51.1426415],[-0.0632313,51.1412613],[-0.0563533,51.1367694],[-0.0332687,51.1392648],[-0.0392817,51.1723193],[-0.0367242,51.1805842],[-0.0434453,51.1832886],[-0.0540365,51.1822314],[-0.0630632,51.1773729],[-0.0691248,51.1843313],[-0.068948,51.1976326]]],"type":"Polygon"},"id":"E02006438","properties":{"code":"E02006438","geography":"MSOA","name":"Tandridge 011"},"type":"Feature"},{"geometry":{"coordinates":[[[-0.0106852,51.333757],[-0.014356,51.329805],[-0.0223983,51.3382058],[-0.0379186,51.3387051],[-0.0406169,51.3360591],[-0.0502868,51.3326401],[-0.0478954,51.3252459],[-0.0513341,51.3224489],[-0.0640213,51.3186376],[-0.0534034,51.3016017],[-0.040631,51.3050569],[-0.0374711,51.3007308],[-0.0317523,51.3005662],[-0.0304502,51.3037782],[-0.0265458,51.2897563],[0.0038289,51.2810648],[0.0035091,51.2758381],[0.0191217,51.263808],[0.0350317,51.2610567],[0.051777,51.2626887],[0.0453693,51.2766618],[0.0481441,51.2856541],[0.0423704,51.2926788],[0.0427906,51.3011697],[0.0328744,51.3075146],[0.0248112,51.3021557],[0.0190733,51.2916852],[0.0149824,51.2917873],[0.008363,51.3103618],[0.0103204,51.3161403],[0.0065545,51.3156532],[0.0022662,51.3291379],[-0.0106852,51.333757]]],"type":"Polygon"},"id":"E02006790","properties":{"code":"E02006790","geography":"MSOA","name":"Tandridge 012"},"type":"Feature"}],"type":"FeatureCollection"}
