{"features":[{"geometry":{"coordinates":[[[-0.2449983,50.8638153],[-0.2485003,50.8641431],[-0.2490052,50.8706547],[-0.2553302,50.8715579],[-0.2589616,50.8712137],[-0.2566063,50.8623418],[-0.2760894,50.8634324],[-0.2672367,50.8572042],[-0.2637892,50.8491274],[-0.2592194,50.8492551],[-0.2483694,50.8419205],[-0.2554151,50.841833],[-0.2484925,50.8375953],[-0.2373602,50.8386245],[-0.2291736,50.8332903],[-0.2276318,50.8364803],[-0.2197794,50.8355693],[-0.2321696,50.849304],[-0.2397804,50.8619587],[-0.2449983,50.8638153]]],"type":"Polygon"},"id":"E02006534","properties":{"code":"E02006534","geography":"MSOA","name":"Adur 001"},"type":"Feature"},{"geometry":{"coordinates":[[[-0.2760894,50.8634324],[-0.300016,50.8648025],[-0.3020915,50.8613964],[-0.293019,50.8586253],[-0.2956682,50.8540784],[-0.2876204,50.8443593],[-0.2885013,50.8406275],[-0.2837135,50.8434691],[-0.2791305,50.842235],[-0.283384,50.838649],[-0.2796435,50.8362406],[-0.2721836,50.8389079],[-0.2723906,50.8344146],[-0.2673163,50.8338534],[-0.2686141,50.8367618],[-0.2591991,50.8373166],[-0.2554151,50.841833],[-0.2483694,50.8419205],[-0.2592194,50.8492551],[-0.2637892,50.8491274],[-0.2672367,50.8572042],[-0.2760894,50.8634324]]],"type":"Polygon"},"id":"E02006535","properties":{"code":"E02006535","geography":"MSOA","name":"Adur 002"},"type":"Feature"},{"geometry":{"coordinates":[[[-0.300016,50.8648025],[-0.3076251,50.8665114],[-0.3433623,50.8629139],[-0.3427858,50.8376851],[-0.3286963,50.8382947],[-0.3316409,50.8324424],[-0.3245799,50.8315506],[-0.3160641,50.8301783],[-0.3171636,50.8369191],[-0.2876204,50.8443593],[-0.2956682,50.8540784],[-0.293019,50.8586253],[-0.3020915,50.8613964],[-0.300016,50.8648025]]],"type":"Polygon"},"id":"E02006536","properties":{"code":"E02006536","geography":"MSOA","name":"Adur 003"},"type":"Feature"},{"geometry":{"coordinates":[[[-0.2197794,50.8355693],[-0.2276318,50.8364803],[-0.2291736,50.8332903],[-0.2373602,50.8386245],[-0.2484925,50.8375953],[-0.2554151,50.841833],[-0.2591991,50.8373166],[-0.2686141,50.8367618],[-0.2673163,50.8338534],[-0.2540111,50.831115],[-0.252327,50.8311035],[-0.2521228,50.8311021],[-0.2480571,50.8290931],[-0.2384025,50.8304805],[-0.2460332,50.8285375],[-0.2464416,50.8269843],[-0.2458164,50.8270417],[-0.2450257,50.8282139],[-0.2380323,50.8284481],[-0.2166456,50.8276017],[-0.2165285,50.8275971],[-0.2194351,50.8351839],[-0.2197794,50.8355693]]],"type":"Polygon"},"id":"E02006537","properties":{"code":"E02006537","geography":"MSOA","name":"Adur 004"},"type":"Feature"},{"geometry":{"coordinates":[[[[-0.2802682,50.8313386],[-0.2856145,50.8333827],[-0.2902602,50.8252285],[-0.2729444,50.8269676],[-0.2481627,50.8248054],[-0.2515516,50.8302717],[-0.2842725,50.8293336],[-0.2802682,50.8313386]]],[[[-0.2791305,50.842235],[-0.2837135,50.8434691],[-0.2885013,50.8406275],[-0.2870853,50.8388729],[-0.2875275,50.8405376],[-0.281728,50.8340483],[-0.2813554,50.8338857],[-0.2753336,50.8312586],[-0.2540111,50.831115],[-0.2673163,50.8338534],[-0.2723906,50.8344146],[-0.2721836,50.8389079],[-0.2796435,50.8362406],[-0.283384,50.838649],[-0.2791305,50.842235]]]],"type":"MultiPolygon"},"id":"E02006538","properties":{"code":"E02006538","geography":"MSOA","name":"Adur 005"},"type":"Feature"},{"geometry":{"coordinates":[[[-0.3433623,50.8629139],[-0.3646235,50.8745327],[-0.3715334,50.8706749],[-0.367479,50.8605387],[-0.3690218,50.8552885],[-0.3659421,50.847353],[-0.358547,50.8435412],[-0.3591653,50.8355937],[-0.3583687,50.8306461],[-0.3532205,50.8290491],[-0.355329,50.8270227],[-0.3502256,50.8226768],[-0.3372226,50.820982],[-0.3316409,50.8324424],[-0.3286963,50.8382947],[-0.3427858,50.8376851],[-0.3433623,50.8629139]]],"type":"Polygon"},"id":"E02006539","properties":{"code":"E02006539","geography":"MSOA","name":"Adur 006"},"type":"Feature"},{"geometry":{"coordinates":[[[-0.2885013,50.8406275],[-0.2876204,50.8443593],[-0.3171636,50.8369191],[-0.3160641,50.8301783],[-0.3245799,50.8315506],[-0.3227666,50.8271276],[-0.3115064,50.8276138],[-0.3152258,50.8209889],[-0.2976632,50.8239872],[-0.290568,50.8251976],[-0.2902602,50.8252285],[-0.2856145,50.8333827],[-0.2870853,50.8388729],[-0.2885013,50.8406275]]],"type":"Polygon"},"id":"E02006540","properties":{"code":"E02006540","geography":"MSOA","name":"Adur 007"},"type":"Feature"},{"geometry":{"coordinates":[[[-0.3245799,50.8315506],[-0.3316409,50.8324424],[-0.3372226,50.820982],[-0.3323331,50.8175434],[-0.3239044,50.8195062],[-0.3233509,50.8196008],[-0.3152258,50.8209889],[-0.3115064,50.8276138],[-0.3227666,50.8271276],[-0.3245799,50.8315506]]],"type":"Polygon"},"id":"E02006541","properties":{"code":"E02006541","geography":"MSOA","name":"Adur 008"},"type":"Feature"}],"type":"FeatureCollection"}
