{"features":[{"geometry":{"coordinates":[[[-1.775761,52.3479487],[-1.7997212,52.358679],[-1.8078092,52.3665931],[-1.8349886,52.3673891],[-1.8429441,52.3651489],[-1.8720419,52.3675844],[-1.8761328,52.3635673],[-1.8889813,52.3610788],[-1.8730877,52.3372832],[-1.8648392,52.3330778],[-1.8685771,52.3145744],[-1.8809426,52.3109187],[-1.8752374,52.3043391],[-1.8863199,52.2867523],[-1.8979499,52.2835691],[-1.8936927,52.278823],[-1.8737222,52.2896009],[-1.8502681,52.2880728],[-1.8516524,52.2777995],[-1.8609707,52.2673562],[-1.8739753,52.2684909],[-1.8768665,52.2611253],[-1.8903436,52.2596012],[-1.9129756,52.2721013],[-1.9133795,52.2761166],[-1.9210937,52.2764645],[-1.9342666,52.2769572],[-1.9386948,52.2704837],[-1.9343946,52.2645804],[-1.9346183,52.252004],[-1.9319258,52.2482293],[-1.9188202,52.2518261],[-1.9185506,52.2432213],[-1.907284,52.2401375],[-1.9020747,52.234924],[-1.8968964,52.2326192],[-1.8740826,52.2352043],[-1.8741088,52.2251937],[-1.8638053,52.225942],[-1.8480776,52.2345507],[-1.8468432,52.243997],[-1.8545359,52.2508187],[-1.8400517,52.2543826],[-1.8406679,52.2637625],[-1.8326377,52.2718303],[-1.8246952,52.279718],[-1.819731,52.281149],[-1.816755,52.2785473],[-1.8096949,52.2816935],[-1.8082123,52.2867906],[-1.7948652,52.2867449],[-1.7990151,52.2975391],[-1.7940197,52.3022816],[-1.7811754,52.3053145],[-1.7778014,52.3027265],[-1.7764167,52.3098438],[-1.7834545,52.3119149],[-1.786506,52.3215276],[-1.7750198,52.3251703],[-1.7691707,52.3237367],[-1.7690226,52.3193244],[-1.7675375,52.328289],[-1.775761,52.3479487]]],"type":"Polygon"},"id":"E02006504","properties":{"code":"E02006504","geography":"MSOA","name":"Stratford-on-Avon 001"},"type":"Feature"},{"geometry":{"coordinates":[[[-1.7690226,52.3193244],[-1.7691707,52.3237367],[-1.7750198,52.3251703],[-1.786506,52.3215276],[-1.7834545,52.3119149],[-1.7764167,52.3098438],[-1.7778014,52.3027265],[-1.7811754,52.3053145],[-1.7940197,52.3022816],[-1.7990151,52.2975391],[-1.7948652,52.2867449],[-1.8082123,52.2867906],[-1.8096949,52.2816935],[-1.816755,52.2785473],[-1.819731,52.281149],[-1.8246952,52.279718],[-1.8326377,52.2718303],[-1.8010173,52.2597041],[-1.7884298,52.2504528],[-1.7617243,52.2455499],[-1.7541099,52.2407957],[-1.7578491,52.2363539],[-1.7464425,52.2352053],[-1.7318057,52.2271059],[-1.7181179,52.2469122],[-1.7086278,52.249402],[-1.7063739,52.2587104],[-1.7109992,52.2656471],[-1.7001299,52.2697258],[-1.6933832,52.2665563],[-1.6760956,52.2681026],[-1.6658375,52.2837666],[-1.6691013,52.2858017],[-1.6793391,52.2867284],[-1.6855003,52.2827867],[-1.6999806,52.2912367],[-1.7123032,52.2896679],[-1.723774,52.2984442],[-1.7338399,52.2935008],[-1.7398749,52.3016993],[-1.7616742,52.3079911],[-1.7690226,52.3193244]]],"type":"Polygon"},"id":"E02006505","properties":{"code":"E02006505","geography":"MSOA","name":"Stratford-on-Avon 002"},"type":"Feature"},{"geometry":{"coordinates":[[[-1.9133795,52.2761166],[-1.9129756,52.2721013],[-1.8903436,52.2596012],[-1.8768665,52.2611253],[-1.8739753,52.2684909],[-1.8609707,52.2673562],[-1.8516524,52.2777995],[-1.8502681,52.2880728],[-1.8737222,52.2896009],[-1.8936927,52.278823],[-1.8979499,52.2835691],[-1.9133795,52.2761166]]],"type":"Polygon"},"id":"E02006506","properties":{"code":"E02006506","geography":"MSOA","name":"Stratford-on-Avon 003"},"type":"Feature"},{"geometry":{"coordinates":[[[-1.2330133,52.2532436],[-1.2594918,52.2564883],[-1.2878167,52.2736103],[-1.2933523,52.2653886],[-1.3090285,52.2574582],[-1.3157528,52.2670011],[-1.3352038,52.2712245],[-1.3623627,52.283397],[-1.3780863,52.2790782],[-1.3853948,52.2671585],[-1.4025731,52.2681897],[-1.3994483,52.2646019],[-1.4092501,52.2605511],[-1.4065553,52.255045],[-1.4151733,52.2489362],[-1.4072677,52.2344942],[-1.399128,52.232541],[-1.3947283,52.2360594],[-1.3772381,52.2378077],[-1.3616429,52.230515],[-1.3562939,52.2318569],[-1.3426543,52.2235479],[-1.33893,52.2277819],[-1.3222791,52.2269024],[-1.3166031,52.2237182],[-1.2992422,52.2352907],[-1.2846582,52.2385619],[-1.2669062,52.2352283],[-1.2661663,52.240815],[-1.2544938,52.2475526],[-1.2377819,52.2484193],[-1.2330133,52.2532436]]],"type":"Polygon"},"id":"E02006507","properties":{"code":"E02006507","geography":"MSOA","name":"Stratford-on-Avon 004"},"type":"Feature"},{"geometry":{"coordinates":[[[-1.3623627,52.283397],[-1.3645756,52.2879777],[-1.389281,52.3008846],[-1.4194193,52.3037379],[-1.4265062,52.300735],[-1.4218138,52.2979402],[-1.4247457,52.2942676],[-1.4484846,52.2940567],[-1.4352267,52.2727725],[-1.4534276,52.2719101],[-1.465579,52.2636567],[-1.4776687,52.2617253],[-1.4911484,52.2469926],[-1.4988745,52.2410063],[-1.500117,52.2375483],[-1.5021975,52.2414849],[-1.5163281,52.2407904],[-1.5282096,52.2251346],[-1.5163376,52.220081],[-1.5099909,52.2129857],[-1.4733588,52.19507],[-1.4654862,52.1974142],[-1.4371725,52.1909463],[-1.4015145,52.1932706],[-1.3946733,52.1897936],[-1.3923033,52.1861336],[-1.4084767,52.1728869],[-1.4065294,52.1601519],[-1.4272717,52.1507906],[-1.4254252,52.1452106],[-1.4294956,52.1441751],[-1.4086904,52.1341289],[-1.3968246,52.1383051],[-1.38669,52.1351482],[-1.3854765,52.1283902],[-1.3640624,52.1366946],[-1.3487235,52.1351247],[-1.3499507,52.1415787],[-1.3410547,52.1448437],[-1.3434723,52.1532219],[-1.3340184,52.1590696],[-1.3319106,52.1684714],[-1.3314961,52.1741228],[-1.3228261,52.1817868],[-1.3182048,52.1814032],[-1.313148,52.1904537],[-1.2812092,52.1919391],[-1.2811517,52.1957616],[-1.2625544,52.1959479],[-1.2547948,52.1988749],[-1.2609311,52.2159787],[-1.2752899,52.2219998],[-1.2769228,52.2251667],[-1.2726077,52.2274962],[-1.2784468,52.2286928],[-1.2846582,52.2385619],[-1.2992422,52.2352907],[-1.3166031,52.2237182],[-1.3222791,52.2269024],[-1.33893,52.2277819],[-1.3426543,52.2235479],[-1.3562939,52.2318569],[-1.3616429,52.230515],[-1.3772381,52.2378077],[-1.3947283,52.2360594],[-1.399128,52.232541],[-1.4072677,52.2344942],[-1.4151733,52.2489362],[-1.4065553,52.255045],[-1.4092501,52.2605511],[-1.3994483,52.2646019],[-1.4025731,52.2681897],[-1.3853948,52.2671585],[-1.3780863,52.2790782],[-1.3623627,52.283397]]],"type":"Polygon"},"id":"E02006508","properties":{"code":"E02006508","geography":"MSOA","name":"Stratford-on-Avon 005"},"type":"Feature"},{"geometry":{"coordinates":[[[[-1.852754,52.2164465],[-1.855683,52.2166892],[-1.8552937,52.21509],[-1.852754,52.2164465]]],[[[-1.9020747,52.234924],[-1.907284,52.2401375],[-1.9185506,52.2432213],[-1.9188202,52.2518261],[-1.9319258,52.2482293],[-1.9239294,52.2401695],[-1.9173008,52.2189492],[-1.920125,52.2102498],[-1.9356412,52.2041085],[-1.9358605,52.189857],[-1.9194989,52.1874071],[-1.8760391,52.1885519],[-1.8815902,52.1959609],[-1.8851126,52.1983586],[-1.8797738,52.2059844],[-1.8756818,52.2092913],[-1.868242,52.2082435],[-1.8646194,52.2114652],[-1.8675499,52.2139779],[-1.8574748,52.2172973],[-1.8638053,52.225942],[-1.8741088,52.2251937],[-1.8740826,52.2352043],[-1.8968964,52.2326192],[-1.9020747,52.234924]]]],"type":"MultiPolygon"},"id":"E02006509","properties":{"code":"E02006509","geography":"MSOA","name":"Stratford-on-Avon 006"},"type":"Feature"},{"geometry":{"coordinates":[[[-1.7318057,52.2271059],[-1.7464425,52.2352053],[-1.7578491,52.2363539],[-1.7541099,52.2407957],[-1.7617243,52.2455499],[-1.7884298,52.2504528],[-1.8010173,52.2597041],[-1.8326377,52.2718303],[-1.8406679,52.2637625],[-1.8400517,52.2543826],[-1.8545359,52.2508187],[-1.8468432,52.243997],[-1.8480776,52.2345507],[-1.8638053,52.225942],[-1.8574748,52.2172973],[-1.8675499,52.2139779],[-1.8646194,52.2114652],[-1.868242,52.2082435],[-1.8756818,52.2092913],[-1.8797738,52.2059844],[-1.8851126,52.1983586],[-1.8815902,52.1959609],[-1.8770421,52.1969288],[-1.8740865,52.1925032],[-1.8629295,52.1944934],[-1.857962,52.1873923],[-1.8301085,52.1813598],[-1.8344819,52.1784306],[-1.8253425,52.1707495],[-1.8269491,52.1632347],[-1.7960212,52.1611331],[-1.791142,52.1673355],[-1.798515,52.1745107],[-1.7823554,52.1756931],[-1.7733131,52.1667523],[-1.7676086,52.1664668],[-1.7323587,52.1786971],[-1.7303465,52.1849574],[-1.7355533,52.1847435],[-1.7370445,52.1913],[-1.7445103,52.1969099],[-1.7364096,52.2012403],[-1.727765,52.209754],[-1.7098901,52.2167878],[-1.7318057,52.2271059]],[[-1.852754,52.2164465],[-1.8552937,52.21509],[-1.855683,52.2166892],[-1.852754,52.2164465]]],"type":"Polygon"},"id":"E02006510","properties":{"code":"E02006510","geography":"MSOA","name":"Stratford-on-Avon 007"},"type":"Feature"},{"geometry":{"coordinates":[[[-1.6760956,52.2681026],[-1.6933832,52.2665563],[-1.7001299,52.2697258],[-1.7109992,52.2656471],[-1.7063739,52.2587104],[-1.7086278,52.249402],[-1.7181179,52.2469122],[-1.7318057,52.2271059],[-1.7098901,52.2167878],[-1.6944575,52.2086302],[-1.6852491,52.2122487],[-1.6783532,52.2091824],[-1.67106,52.211507],[-1.6653376,52.2141889],[-1.6565787,52.2127191],[-1.658375,52.2092332],[-1.6446375,52.2015788],[-1.6511704,52.1940713],[-1.6385896,52.1834706],[-1.6357888,52.1809266],[-1.6260533,52.1814469],[-1.6181518,52.1749275],[-1.5997109,52.1788051],[-1.6053907,52.160092],[-1.6005155,52.1580056],[-1.5856448,52.1604114],[-1.5853519,52.1549487],[-1.5814611,52.1525315],[-1.574208,52.1563899],[-1.5163376,52.220081],[-1.5282096,52.2251346],[-1.5396925,52.2283278],[-1.5550331,52.2282168],[-1.5543087,52.230929],[-1.5600706,52.2316321],[-1.5683128,52.2176897],[-1.5750421,52.2162728],[-1.5856148,52.2244027],[-1.6020342,52.2252422],[-1.6212378,52.2137923],[-1.6259076,52.2262705],[-1.609391,52.2300557],[-1.6066878,52.2375746],[-1.6249515,52.2384279],[-1.6277122,52.2420535],[-1.6225578,52.2451064],[-1.6359263,52.2473348],[-1.6459399,52.2582562],[-1.6603596,52.2557039],[-1.6692189,52.2579857],[-1.6760956,52.2681026]]],"type":"Polygon"},"id":"E02006511","properties":{"code":"E02006511","geography":"MSOA","name":"Stratford-on-Avon 008"},"type":"Feature"},{"geometry":{"coordinates":[[[-1.67106,52.211507],[-1.6783532,52.2091824],[-1.6852491,52.2122487],[-1.6944575,52.2086302],[-1.7098901,52.2167878],[-1.727765,52.209754],[-1.7364096,52.2012403],[-1.7365396,52.1984875],[-1.7291156,52.1992994],[-1.7272893,52.1953125],[-1.7001741,52.1915117],[-1.6903534,52.201431],[-1.6704026,52.2029919],[-1.67106,52.211507]]],"type":"Polygon"},"id":"E02006512","properties":{"code":"E02006512","geography":"MSOA","name":"Stratford-on-Avon 009"},"type":"Feature"},{"geometry":{"coordinates":[[[-1.6385896,52.1834706],[-1.6511704,52.1940713],[-1.6446375,52.2015788],[-1.658375,52.2092332],[-1.6565787,52.2127191],[-1.6653376,52.2141889],[-1.67106,52.211507],[-1.6704026,52.2029919],[-1.6903534,52.201431],[-1.7001741,52.1915117],[-1.7131178,52.1792771],[-1.7103943,52.1671611],[-1.6856322,52.1662132],[-1.6751043,52.1695912],[-1.6680026,52.1686371],[-1.6674745,52.1641319],[-1.6571782,52.1635475],[-1.6490468,52.1671147],[-1.657616,52.1735363],[-1.6385896,52.1834706]]],"type":"Polygon"},"id":"E02006513","properties":{"code":"E02006513","geography":"MSOA","name":"Stratford-on-Avon 010"},"type":"Feature"},{"geometry":{"coordinates":[[[-1.7001741,52.1915117],[-1.7272893,52.1953125],[-1.7291156,52.1992994],[-1.7365396,52.1984875],[-1.7364096,52.2012403],[-1.7445103,52.1969099],[-1.7370445,52.1913],[-1.7355533,52.1847435],[-1.7303465,52.1849574],[-1.7323587,52.1786971],[-1.7131178,52.1792771],[-1.7001741,52.1915117]]],"type":"Polygon"},"id":"E02006514","properties":{"code":"E02006514","geography":"MSOA","name":"Stratford-on-Avon 011"},"type":"Feature"},{"geometry":{"coordinates":[[[-1.7323587,52.1786971],[-1.7676086,52.1664668],[-1.7733131,52.1667523],[-1.7823554,52.1756931],[-1.798515,52.1745107],[-1.791142,52.1673355],[-1.7960212,52.1611331],[-1.8269491,52.1632347],[-1.8253425,52.1707495],[-1.8344819,52.1784306],[-1.8301085,52.1813598],[-1.857962,52.1873923],[-1.8629295,52.1944934],[-1.8740865,52.1925032],[-1.8770421,52.1969288],[-1.8815902,52.1959609],[-1.8760391,52.1885519],[-1.9194989,52.1874071],[-1.9358605,52.189857],[-1.9445829,52.174754],[-1.961676,52.1725166],[-1.9604146,52.1686596],[-1.9354913,52.1695452],[-1.9341265,52.1653814],[-1.94431,52.155321],[-1.9400847,52.1530299],[-1.9218952,52.1529937],[-1.9168863,52.1467037],[-1.9051086,52.1427247],[-1.9032464,52.1334359],[-1.8851886,52.1467465],[-1.8951959,52.150466],[-1.8915441,52.155273],[-1.8855306,52.1564097],[-1.8669359,52.1529954],[-1.8638861,52.1470259],[-1.8669713,52.1446271],[-1.8541969,52.1385084],[-1.8458195,52.1426415],[-1.8469173,52.1471733],[-1.8519126,52.147957],[-1.8396813,52.1527009],[-1.8314791,52.1456615],[-1.8233575,52.1459119],[-1.8278542,52.1412321],[-1.8232273,52.1363691],[-1.8084437,52.1398627],[-1.7855582,52.1320457],[-1.7905412,52.1389494],[-1.7802125,52.141635],[-1.7649959,52.1403427],[-1.7619947,52.1460778],[-1.7388846,52.1443335],[-1.7237749,52.1379],[-1.7217651,52.1419725],[-1.7354611,52.1494133],[-1.7244703,52.155252],[-1.6933784,52.1655278],[-1.6799615,52.1626791],[-1.6674745,52.1641319],[-1.6680026,52.1686371],[-1.6751043,52.1695912],[-1.6856322,52.1662132],[-1.7103943,52.1671611],[-1.7131178,52.1792771],[-1.7323587,52.1786971]]],"type":"Polygon"},"id":"E02006515","properties":{"code":"E02006515","geography":"MSOA","name":"Stratford-on-Avon 012"},"type":"Feature"},{"geometry":{"coordinates":[[[-1.3854765,52.1283902],[-1.38669,52.1351482],[-1.3968246,52.1383051],[-1.4086904,52.1341289],[-1.4294956,52.1441751],[-1.4254252,52.1452106],[-1.4272717,52.1507906],[-1.4065294,52.1601519],[-1.4084767,52.1728869],[-1.3923033,52.1861336],[-1.3946733,52.1897936],[-1.4015145,52.1932706],[-1.4371725,52.1909463],[-1.4654862,52.1974142],[-1.4733588,52.19507],[-1.5099909,52.2129857],[-1.5163376,52.220081],[-1.574208,52.1563899],[-1.5814611,52.1525315],[-1.5853519,52.1549487],[-1.5984385,52.1425492],[-1.5903613,52.1362802],[-1.5915857,52.1290777],[-1.5751153,52.1176344],[-1.5771719,52.1096493],[-1.583132,52.1080212],[-1.5608256,52.086567],[-1.5508672,52.0824433],[-1.5436183,52.0877123],[-1.5210308,52.0719265],[-1.4992784,52.0635219],[-1.5018681,52.0716138],[-1.4908541,52.0775311],[-1.4943673,52.0822142],[-1.48562,52.0877201],[-1.4878165,52.093944],[-1.480161,52.0934646],[-1.4773139,52.1013377],[-1.4675721,52.0970434],[-1.4472011,52.0976122],[-1.4534766,52.1129863],[-1.4487539,52.1160534],[-1.4196431,52.1176288],[-1.4039078,52.1100773],[-1.3853439,52.0941724],[-1.3744385,52.0997139],[-1.3577844,52.1012986],[-1.3652062,52.1112948],[-1.3703812,52.1127055],[-1.3708558,52.1175214],[-1.3927653,52.1176135],[-1.3854765,52.1283902]]],"type":"Polygon"},"id":"E02006516","properties":{"code":"E02006516","geography":"MSOA","name":"Stratford-on-Avon 013"},"type":"Feature"},{"geometry":{"coordinates":[[[-1.5853519,52.1549487],[-1.5856448,52.1604114],[-1.6005155,52.1580056],[-1.6053907,52.160092],[-1.5997109,52.1788051],[-1.6181518,52.1749275],[-1.6260533,52.1814469],[-1.6357888,52.1809266],[-1.6385896,52.1834706],[-1.657616,52.1735363],[-1.6490468,52.1671147],[-1.6571782,52.1635475],[-1.6674745,52.1641319],[-1.6799615,52.1626791],[-1.6933784,52.1655278],[-1.7244703,52.155252],[-1.7354611,52.1494133],[-1.7217651,52.1419725],[-1.7237749,52.1379],[-1.7388846,52.1443335],[-1.7619947,52.1460778],[-1.7649959,52.1403427],[-1.7802125,52.141635],[-1.7905412,52.1389494],[-1.7855582,52.1320457],[-1.795776,52.1243347],[-1.7910145,52.1201807],[-1.7806376,52.1201303],[-1.7697104,52.1153015],[-1.7574088,52.1159315],[-1.7676594,52.1125797],[-1.7460337,52.0929472],[-1.7385525,52.091395],[-1.7285718,52.1001073],[-1.7306828,52.0733868],[-1.7129654,52.0665722],[-1.7098945,52.0733365],[-1.7017429,52.0727967],[-1.7051529,52.0596941],[-1.6995728,52.0546173],[-1.6901919,52.0547235],[-1.682832,52.0608436],[-1.6746124,52.0594681],[-1.6558839,52.0648956],[-1.6486318,52.060173],[-1.6390974,52.0711579],[-1.6420941,52.0722467],[-1.6172809,52.0767036],[-1.6242464,52.0830492],[-1.6202571,52.0907238],[-1.6250884,52.0926189],[-1.6053568,52.0981107],[-1.6000336,52.1081523],[-1.583132,52.1080212],[-1.5771719,52.1096493],[-1.5751153,52.1176344],[-1.5915857,52.1290777],[-1.5903613,52.1362802],[-1.5984385,52.1425492],[-1.5853519,52.1549487]]],"type":"Polygon"},"id":"E02006517","properties":{"code":"E02006517","geography":"MSOA","name":"Stratford-on-Avon 014"},"type":"Feature"},{"geometry":{"coordinates":[[[-1.583132,52.1080212],[-1.6000336,52.1081523],[-1.6053568,52.0981107],[-1.6250884,52.0926189],[-1.6202571,52.0907238],[-1.6242464,52.0830492],[-1.6172809,52.0767036],[-1.6420941,52.0722467],[-1.6390974,52.0711579],[-1.6486318,52.060173],[-1.6558839,52.0648956],[-1.6746124,52.0594681],[-1.682832,52.0608436],[-1.6901919,52.0547235],[-1.6939946,52.0395144],[-1.6688908,52.0365702],[-1.6610776,52.0316021],[-1.6535624,52.0353908],[-1.6453872,52.03422],[-1.6244309,52.0389698],[-1.6174997,52.0333425],[-1.6196986,52.0279669],[-1.6284179,52.0271955],[-1.6386621,52.0204747],[-1.6428505,52.0091915],[-1.6661855,51.9969072],[-1.6698998,51.9930794],[-1.6657663,51.9874784],[-1.6383277,51.9751619],[-1.6123554,51.9553939],[-1.591647,51.9704398],[-1.6003138,51.9769315],[-1.5805872,51.9729862],[-1.5635527,51.9770304],[-1.5496854,51.9808496],[-1.5572375,51.9916474],[-1.5417556,51.996422],[-1.5279434,51.9917441],[-1.5228399,51.996833],[-1.4986084,52.0550698],[-1.4992784,52.0635219],[-1.5210308,52.0719265],[-1.5436183,52.0877123],[-1.5508672,52.0824433],[-1.5608256,52.086567],[-1.583132,52.1080212]]],"type":"Polygon"},"id":"E02006518","properties":{"code":"E02006518","geography":"MSOA","name":"Stratford-on-Avon 015"},"type":"Feature"}],"type":"FeatureCollection"}
