{"features":[{"geometry":{"coordinates":[[[1.2500694,51.3293307],[1.2322682,51.3323192],[1.2341453,51.3261209],[1.2307979,51.3287038],[1.2297917,51.3250519],[1.2205166,51.3236921],[1.2293555,51.316061],[1.219196,51.3121564],[1.2216733,51.3088768],[1.2139786,51.3113536],[1.2129202,51.3058771],[1.2049437,51.3006466],[1.1999715,51.2915684],[1.2123177,51.2826846],[1.1947936,51.2693129],[1.1940879,51.2565333],[1.2010158,51.2586942],[1.2115555,51.2523931],[1.2063071,51.2462586],[1.2183261,51.242999],[1.2143123,51.2396218],[1.2189597,51.236999],[1.2307837,51.2334068],[1.2425557,51.2363115],[1.2531399,51.2335812],[1.2551951,51.2286497],[1.2607127,51.227161],[1.2758501,51.235411],[1.288393,51.2473651],[1.2817458,51.2485878],[1.2735501,51.245093],[1.2739081,51.2486195],[1.2657499,51.2528217],[1.2574725,51.2531537],[1.2646497,51.2608446],[1.2697814,51.2589553],[1.2743038,51.2632192],[1.2650535,51.2661461],[1.2652001,51.2721439],[1.2763553,51.2759284],[1.2787069,51.2719353],[1.2923769,51.274298],[1.2950292,51.2721099],[1.3116483,51.2854231],[1.31423,51.2809789],[1.3307968,51.2821428],[1.328233,51.2868392],[1.3429496,51.2965454],[1.3452764,51.3079659],[1.3254975,51.3167907],[1.3099636,51.3169363],[1.2900407,51.3213644],[1.2738911,51.3203732],[1.2578367,51.3233533],[1.2500694,51.3293307]]],"type":"Polygon"},"id":"E02005041","properties":{"code":"E02005041","geography":"MSOA","name":"Dover 001"},"type":"Feature"},{"geometry":{"coordinates":[[[1.3939301,51.2564791],[1.3782503,51.2903481],[1.3676923,51.3131277],[1.3643146,51.3124171],[1.3561605,51.3093198],[1.3578892,51.3114733],[1.3516696,51.3130048],[1.3452764,51.3079659],[1.3429496,51.2965454],[1.328233,51.2868392],[1.3307968,51.2821428],[1.31423,51.2809789],[1.3116483,51.2854231],[1.2950292,51.2721099],[1.2923769,51.274298],[1.2787069,51.2719353],[1.2763553,51.2759284],[1.2652001,51.2721439],[1.2650535,51.2661461],[1.2743038,51.2632192],[1.2697814,51.2589553],[1.2646497,51.2608446],[1.2574725,51.2531537],[1.2657499,51.2528217],[1.2739081,51.2486195],[1.2735501,51.245093],[1.2817458,51.2485878],[1.288393,51.2473651],[1.2758501,51.235411],[1.2843796,51.2324548],[1.2931495,51.2393672],[1.2939825,51.2355632],[1.2991942,51.2357667],[1.2979025,51.2425535],[1.3058904,51.2467348],[1.3070293,51.2433382],[1.3150798,51.2406219],[1.3145211,51.2487858],[1.3089934,51.2504646],[1.313703,51.2573841],[1.3238969,51.257572],[1.3379236,51.2503044],[1.3510557,51.2384651],[1.3608338,51.2425148],[1.3695888,51.2519518],[1.3811412,51.2501853],[1.3939301,51.2564791]]],"type":"Polygon"},"id":"E02005042","properties":{"code":"E02005042","geography":"MSOA","name":"Dover 002"},"type":"Feature"},{"geometry":{"coordinates":[[[1.4033281,51.2323818],[1.4025904,51.2383222],[1.4024642,51.2386028],[1.3930298,51.2336214],[1.385076,51.2370854],[1.3819431,51.2343371],[1.3842505,51.2273767],[1.391807,51.2238787],[1.3875622,51.2206543],[1.3686932,51.2243324],[1.3819699,51.2172165],[1.3875583,51.2139587],[1.3907694,51.2193629],[1.3975953,51.2168261],[1.3963551,51.2277498],[1.4000518,51.2274584],[1.3983249,51.2301698],[1.4033281,51.2323818]]],"type":"Polygon"},"id":"E02005043","properties":{"code":"E02005043","geography":"MSOA","name":"Dover 003"},"type":"Feature"},{"geometry":{"coordinates":[[[1.4045953,51.2101226],[1.404565,51.222419],[1.4033281,51.2323818],[1.3983249,51.2301698],[1.4000518,51.2274584],[1.3963551,51.2277498],[1.3975953,51.2168261],[1.3928568,51.2095388],[1.4026097,51.2078392],[1.4045953,51.2101226]]],"type":"Polygon"},"id":"E02005044","properties":{"code":"E02005044","geography":"MSOA","name":"Dover 004"},"type":"Feature"},{"geometry":{"coordinates":[[[1.4024642,51.2386028],[1.4006901,51.2425464],[1.3939301,51.2564791],[1.3811412,51.2501853],[1.3695888,51.2519518],[1.3608338,51.2425148],[1.3510557,51.2384651],[1.3379236,51.2503044],[1.3216399,51.2406893],[1.3042927,51.2245577],[1.3032362,51.2178476],[1.3068948,51.2168726],[1.3037156,51.2094821],[1.3337719,51.2089418],[1.3323018,51.2117966],[1.3407271,51.2171359],[1.3524167,51.2072127],[1.3602081,51.2035693],[1.3659118,51.2090937],[1.3703403,51.212777],[1.3764978,51.2081807],[1.3856005,51.2075762],[1.3819699,51.2172165],[1.3686932,51.2243324],[1.3875622,51.2206543],[1.391807,51.2238787],[1.3842505,51.2273767],[1.3819431,51.2343371],[1.385076,51.2370854],[1.3930298,51.2336214],[1.4024642,51.2386028]]],"type":"Polygon"},"id":"E02005045","properties":{"code":"E02005045","geography":"MSOA","name":"Dover 005"},"type":"Feature"},{"geometry":{"coordinates":[[[1.2607127,51.227161],[1.2551951,51.2286497],[1.2531399,51.2335812],[1.2425557,51.2363115],[1.2307837,51.2334068],[1.2189597,51.236999],[1.2143123,51.2396218],[1.2183261,51.242999],[1.2063071,51.2462586],[1.185519,51.2178162],[1.1971146,51.219631],[1.2194222,51.2093852],[1.2221639,51.2073902],[1.215615,51.2012731],[1.2362845,51.1887913],[1.2414409,51.190849],[1.2426824,51.1874902],[1.233811,51.185642],[1.2318969,51.1805573],[1.250623,51.1841693],[1.2465055,51.1882728],[1.2484276,51.1924087],[1.27043,51.2039607],[1.2530166,51.2047035],[1.2632526,51.2081004],[1.2604096,51.2113241],[1.2733064,51.2226373],[1.2607127,51.227161]]],"type":"Polygon"},"id":"E02005046","properties":{"code":"E02005046","geography":"MSOA","name":"Dover 006"},"type":"Feature"},{"geometry":{"coordinates":[[[1.3975953,51.2168261],[1.3907694,51.2193629],[1.3875583,51.2139587],[1.3819699,51.2172165],[1.3856005,51.2075762],[1.3764978,51.2081807],[1.3703403,51.212777],[1.3659118,51.2090937],[1.3832422,51.197726],[1.3839557,51.2017461],[1.3942876,51.1992789],[1.397026,51.2016329],[1.3928705,51.2037707],[1.3970094,51.2063044],[1.401699,51.2038717],[1.4026097,51.2078392],[1.3928568,51.2095388],[1.3975953,51.2168261]]],"type":"Polygon"},"id":"E02005047","properties":{"code":"E02005047","geography":"MSOA","name":"Dover 007"},"type":"Feature"},{"geometry":{"coordinates":[[[1.3379236,51.2503044],[1.3238969,51.257572],[1.313703,51.2573841],[1.3089934,51.2504646],[1.3145211,51.2487858],[1.3150798,51.2406219],[1.3070293,51.2433382],[1.3058904,51.2467348],[1.2979025,51.2425535],[1.2991942,51.2357667],[1.2939825,51.2355632],[1.2931495,51.2393672],[1.2843796,51.2324548],[1.2758501,51.235411],[1.2607127,51.227161],[1.2733064,51.2226373],[1.2604096,51.2113241],[1.2632526,51.2081004],[1.2530166,51.2047035],[1.27043,51.2039607],[1.2484276,51.1924087],[1.2465055,51.1882728],[1.250623,51.1841693],[1.2318969,51.1805573],[1.233811,51.185642],[1.2426824,51.1874902],[1.2414409,51.190849],[1.2362845,51.1887913],[1.215615,51.2012731],[1.19633,51.1844238],[1.1922383,51.1838267],[1.1807288,51.1905416],[1.1700129,51.1841052],[1.1634143,51.1842112],[1.1577721,51.1910062],[1.1535623,51.1909422],[1.147608,51.1771746],[1.1437017,51.165773],[1.157608,51.1595388],[1.1657913,51.1584986],[1.1707045,51.1631318],[1.1715585,51.16066],[1.1764986,51.1624466],[1.1770603,51.1569117],[1.1830001,51.1579385],[1.1906822,51.15404],[1.2030112,51.1551475],[1.1986094,51.1614134],[1.206263,51.1642395],[1.2078796,51.1710524],[1.2182063,51.1683914],[1.2405426,51.1724124],[1.2777986,51.1578239],[1.285578,51.1606845],[1.2889941,51.1569021],[1.2891694,51.1604622],[1.2989627,51.160876],[1.2969406,51.1681401],[1.3011764,51.1726576],[1.3052552,51.1699435],[1.3203707,51.183086],[1.3247805,51.1824104],[1.3350361,51.1872561],[1.3392544,51.1852231],[1.334561,51.1820533],[1.340416,51.178251],[1.3394248,51.1833817],[1.3556162,51.1952012],[1.3524167,51.2072127],[1.3407271,51.2171359],[1.3323018,51.2117966],[1.3337719,51.2089418],[1.3037156,51.2094821],[1.3068948,51.2168726],[1.3032362,51.2178476],[1.3042927,51.2245577],[1.3216399,51.2406893],[1.3379236,51.2503044]]],"type":"Polygon"},"id":"E02005048","properties":{"code":"E02005048","geography":"MSOA","name":"Dover 008"},"type":"Feature"},{"geometry":{"coordinates":[[[1.3435656,51.1310497],[1.3435724,51.1313686],[1.3795481,51.1421713],[1.3823445,51.1451666],[1.3864433,51.1505042],[1.3882978,51.1515417],[1.4010342,51.1651733],[1.4053275,51.1877594],[1.4045953,51.2101226],[1.4026097,51.2078392],[1.401699,51.2038717],[1.3970094,51.2063044],[1.3928705,51.2037707],[1.397026,51.2016329],[1.3942876,51.1992789],[1.3839557,51.2017461],[1.3832422,51.197726],[1.3659118,51.2090937],[1.3602081,51.2035693],[1.3524167,51.2072127],[1.3556162,51.1952012],[1.3394248,51.1833817],[1.340416,51.178251],[1.334561,51.1820533],[1.3392544,51.1852231],[1.3350361,51.1872561],[1.3247805,51.1824104],[1.3235961,51.1803466],[1.3342753,51.178364],[1.3341519,51.1729438],[1.3453316,51.1689705],[1.3386152,51.1664439],[1.3393499,51.1638426],[1.3495816,51.1602565],[1.3316132,51.1470067],[1.3385486,51.1411309],[1.334032,51.1388033],[1.3353935,51.134882],[1.3435656,51.1310497]]],"type":"Polygon"},"id":"E02005049","properties":{"code":"E02005049","geography":"MSOA","name":"Dover 009"},"type":"Feature"},{"geometry":{"coordinates":[[[1.3052552,51.1699435],[1.3011764,51.1726576],[1.2969406,51.1681401],[1.2989627,51.160876],[1.2891694,51.1604622],[1.2889941,51.1569021],[1.285578,51.1606845],[1.2777986,51.1578239],[1.2405426,51.1724124],[1.2182063,51.1683914],[1.2078796,51.1710524],[1.206263,51.1642395],[1.1986094,51.1614134],[1.2030112,51.1551475],[1.2076589,51.1567984],[1.2110329,51.1514715],[1.2149627,51.1470581],[1.2280924,51.1487554],[1.2452748,51.1461459],[1.2584609,51.1493548],[1.2604111,51.1456468],[1.2693218,51.1480598],[1.2725363,51.144044],[1.2683837,51.1422066],[1.27626,51.14088],[1.2775632,51.1359594],[1.289221,51.1406722],[1.2875765,51.1445668],[1.2941113,51.144209],[1.2971229,51.1508947],[1.3109226,51.1453908],[1.310892,51.1578918],[1.3185905,51.1646515],[1.3052552,51.1699435]]],"type":"Polygon"},"id":"E02005050","properties":{"code":"E02005050","geography":"MSOA","name":"Dover 010"},"type":"Feature"},{"geometry":{"coordinates":[[[1.3109226,51.1453908],[1.2971229,51.1508947],[1.2941113,51.144209],[1.2875765,51.1445668],[1.289221,51.1406722],[1.2775632,51.1359594],[1.2664086,51.1339016],[1.26719,51.1243566],[1.2780195,51.1285554],[1.291847,51.1252196],[1.3005296,51.1264628],[1.2973185,51.1291394],[1.302647,51.1304439],[1.2970325,51.1349665],[1.307145,51.1343623],[1.3165464,51.1427007],[1.3109226,51.1453908]]],"type":"Polygon"},"id":"E02005051","properties":{"code":"E02005051","geography":"MSOA","name":"Dover 011"},"type":"Feature"},{"geometry":{"coordinates":[[[1.3247805,51.1824104],[1.3203707,51.183086],[1.3052552,51.1699435],[1.3185905,51.1646515],[1.310892,51.1578918],[1.3109226,51.1453908],[1.3165464,51.1427007],[1.307145,51.1343623],[1.2970325,51.1349665],[1.302647,51.1304439],[1.3063345,51.1322628],[1.3053698,51.1282291],[1.3128071,51.1276823],[1.3101882,51.1261673],[1.3157452,51.1221183],[1.3169667,51.1225139],[1.3175972,51.1231921],[1.3247051,51.1250198],[1.3266725,51.1255896],[1.3267223,51.1255385],[1.3289473,51.1232438],[1.3351657,51.1238553],[1.3357342,51.1239137],[1.3350345,51.1246981],[1.3336968,51.1261492],[1.3337735,51.1261117],[1.3336863,51.1262094],[1.3360488,51.1249991],[1.3369193,51.1245735],[1.3376207,51.1271661],[1.3382869,51.1271299],[1.3384426,51.1274208],[1.3426338,51.1268899],[1.3426881,51.1268827],[1.3429811,51.1244437],[1.3433252,51.1220521],[1.3433909,51.1229251],[1.343557,51.1306495],[1.3435656,51.1310497],[1.3353935,51.134882],[1.334032,51.1388033],[1.3385486,51.1411309],[1.3316132,51.1470067],[1.3495816,51.1602565],[1.3393499,51.1638426],[1.3386152,51.1664439],[1.3453316,51.1689705],[1.3341519,51.1729438],[1.3342753,51.178364],[1.3235961,51.1803466],[1.3247805,51.1824104]]],"type":"Polygon"},"id":"E02005052","properties":{"code":"E02005052","geography":"MSOA","name":"Dover 012"},"type":"Feature"},{"geometry":{"coordinates":[[[1.3157452,51.1221183],[1.3101882,51.1261673],[1.3128071,51.1276823],[1.3053698,51.1282291],[1.3063345,51.1322628],[1.302647,51.1304439],[1.2973185,51.1291394],[1.3005296,51.1264628],[1.291847,51.1252196],[1.2850935,51.1208369],[1.2945012,51.1221884],[1.3003884,51.119806],[1.2644275,51.1100694],[1.2591168,51.1065748],[1.2614235,51.1026265],[1.2639225,51.1022612],[1.2777073,51.1051261],[1.299811,51.112685],[1.3016481,51.1133129],[1.3126728,51.114404],[1.3247885,51.1119996],[1.3141053,51.1144309],[1.3143473,51.1145398],[1.3137192,51.1146878],[1.3152043,51.1152228],[1.3100795,51.1167893],[1.311218,51.1193378],[1.3181178,51.1162722],[1.3185052,51.1164118],[1.3229445,51.1141323],[1.3200296,51.1176234],[1.3129705,51.1191819],[1.3135704,51.1198435],[1.3156996,51.1221035],[1.3157452,51.1221183]]],"type":"Polygon"},"id":"E02005053","properties":{"code":"E02005053","geography":"MSOA","name":"Dover 013"},"type":"Feature"},{"geometry":{"coordinates":[[[1.2775632,51.1359594],[1.27626,51.14088],[1.2683837,51.1422066],[1.2725363,51.144044],[1.2693218,51.1480598],[1.2604111,51.1456468],[1.2584609,51.1493548],[1.2452748,51.1461459],[1.2280924,51.1487554],[1.2149627,51.1470581],[1.2110329,51.1514715],[1.18912,51.1387557],[1.1884679,51.1348193],[1.1772927,51.1324374],[1.1716445,51.1241006],[1.1779772,51.1237021],[1.1808351,51.1191979],[1.1857812,51.1213678],[1.1973423,51.1180884],[1.1948944,51.1030658],[1.2026247,51.0996076],[1.2043563,51.0971981],[1.2199072,51.1013398],[1.221079,51.0980923],[1.2613797,51.1026329],[1.2614235,51.1026265],[1.2591168,51.1065748],[1.2644275,51.1100694],[1.3003884,51.119806],[1.2945012,51.1221884],[1.2850935,51.1208369],[1.291847,51.1252196],[1.2780195,51.1285554],[1.26719,51.1243566],[1.2664086,51.1339016],[1.2775632,51.1359594]]],"type":"Polygon"},"id":"E02005054","properties":{"code":"E02005054","geography":"MSOA","name":"Dover 014"},"type":"Feature"}],"type":"FeatureCollection"}
