{"features":[{"geometry":{"coordinates":[[[0.5846352,51.3347302],[0.5634283,51.3387432],[0.5570978,51.3365736],[0.5546277,51.3320275],[0.5439768,51.3278972],[0.5324241,51.3370439],[0.5256112,51.3347175],[0.521241,51.329187],[0.5267406,51.325247],[0.5139198,51.3143132],[0.5115862,51.3064361],[0.495342,51.3061068],[0.4926043,51.3015395],[0.4988331,51.2966338],[0.5131303,51.2933367],[0.5183195,51.2940756],[0.526427,51.290136],[0.5314019,51.2936368],[0.5441113,51.2873879],[0.5566884,51.2900116],[0.5629207,51.2877501],[0.5643785,51.275046],[0.5719594,51.2768861],[0.5890683,51.2735337],[0.5915166,51.2696655],[0.5867303,51.2697546],[0.584227,51.2624815],[0.5921264,51.2589909],[0.5979474,51.2604621],[0.6123019,51.2770397],[0.6008891,51.2789048],[0.6301646,51.3027924],[0.6251504,51.305264],[0.6273061,51.3125442],[0.606347,51.3070074],[0.6018524,51.3184691],[0.6043951,51.3256974],[0.6009514,51.3282031],[0.6070482,51.3307951],[0.6013751,51.3333016],[0.5910358,51.3340005],[0.5846352,51.3347302]]],"type":"Polygon"},"id":"E02005068","properties":{"code":"E02005068","geography":"MSOA","name":"Maidstone 001"},"type":"Feature"},{"geometry":{"coordinates":[[[0.5441113,51.2873879],[0.5314019,51.2936368],[0.526427,51.290136],[0.5292763,51.2897257],[0.524129,51.2839844],[0.5318034,51.2761953],[0.5446296,51.2810126],[0.5476823,51.2849641],[0.5441113,51.2873879]]],"type":"Polygon"},"id":"E02005069","properties":{"code":"E02005069","geography":"MSOA","name":"Maidstone 002"},"type":"Feature"},{"geometry":{"coordinates":[[[0.5131303,51.2933367],[0.4988331,51.2966338],[0.48007,51.2780435],[0.5042692,51.2742917],[0.5089105,51.2794621],[0.5000913,51.2830577],[0.508285,51.286815],[0.5131303,51.2933367]]],"type":"Polygon"},"id":"E02005070","properties":{"code":"E02005070","geography":"MSOA","name":"Maidstone 003"},"type":"Feature"},{"geometry":{"coordinates":[[[0.526427,51.290136],[0.5183195,51.2940756],[0.5131303,51.2933367],[0.508285,51.286815],[0.5143817,51.2836377],[0.5172124,51.2726569],[0.5212989,51.2716137],[0.5287911,51.2688086],[0.5310474,51.2723468],[0.5380322,51.2725346],[0.5318034,51.2761953],[0.524129,51.2839844],[0.5292763,51.2897257],[0.526427,51.290136]]],"type":"Polygon"},"id":"E02005071","properties":{"code":"E02005071","geography":"MSOA","name":"Maidstone 004"},"type":"Feature"},{"geometry":{"coordinates":[[[0.5719594,51.2768861],[0.5643785,51.275046],[0.5629207,51.2877501],[0.5566884,51.2900116],[0.5441113,51.2873879],[0.5476823,51.2849641],[0.5446296,51.2810126],[0.5318034,51.2761953],[0.5380322,51.2725346],[0.5583136,51.2696676],[0.563913,51.268826],[0.5603392,51.2705353],[0.5659872,51.2725366],[0.5706303,51.2697215],[0.5719594,51.2768861]]],"type":"Polygon"},"id":"E02005072","properties":{"code":"E02005072","geography":"MSOA","name":"Maidstone 005"},"type":"Feature"},{"geometry":{"coordinates":[[[0.5212989,51.2716137],[0.5172124,51.2726569],[0.5143817,51.2836377],[0.508285,51.286815],[0.5000913,51.2830577],[0.5089105,51.2794621],[0.5042692,51.2742917],[0.5060152,51.2700551],[0.4967827,51.2657722],[0.5272385,51.2649698],[0.5212989,51.2716137]]],"type":"Polygon"},"id":"E02005073","properties":{"code":"E02005073","geography":"MSOA","name":"Maidstone 006"},"type":"Feature"},{"geometry":{"coordinates":[[[0.584227,51.2624815],[0.5867303,51.2697546],[0.5915166,51.2696655],[0.5890683,51.2735337],[0.5719594,51.2768861],[0.5706303,51.2697215],[0.5659872,51.2725366],[0.5603392,51.2705353],[0.563913,51.268826],[0.5583136,51.2696676],[0.5590753,51.2625555],[0.5698571,51.2574304],[0.5757198,51.264107],[0.584227,51.2624815]]],"type":"Polygon"},"id":"E02005074","properties":{"code":"E02005074","geography":"MSOA","name":"Maidstone 007"},"type":"Feature"},{"geometry":{"coordinates":[[[0.5042692,51.2742917],[0.48007,51.2780435],[0.4775814,51.2722881],[0.4757663,51.2593948],[0.4854769,51.2549685],[0.4967206,51.2582073],[0.4879828,51.2605356],[0.4873619,51.2636521],[0.4967827,51.2657722],[0.5060152,51.2700551],[0.5042692,51.2742917]]],"type":"Polygon"},"id":"E02005075","properties":{"code":"E02005075","geography":"MSOA","name":"Maidstone 008"},"type":"Feature"},{"geometry":{"coordinates":[[[0.5287911,51.2688086],[0.5212989,51.2716137],[0.5272385,51.2649698],[0.4967827,51.2657722],[0.4873619,51.2636521],[0.4879828,51.2605356],[0.4967206,51.2582073],[0.4979502,51.2558809],[0.503121,51.2561914],[0.5165144,51.260656],[0.5152847,51.2562649],[0.522364,51.2530917],[0.5233183,51.2608127],[0.5296734,51.2641312],[0.5287911,51.2688086]]],"type":"Polygon"},"id":"E02005076","properties":{"code":"E02005076","geography":"MSOA","name":"Maidstone 009"},"type":"Feature"},{"geometry":{"coordinates":[[[0.5583136,51.2696676],[0.5380322,51.2725346],[0.5310474,51.2723468],[0.5287911,51.2688086],[0.5296734,51.2641312],[0.5323426,51.2599919],[0.541463,51.258638],[0.5362302,51.2548744],[0.5312808,51.2574967],[0.5325561,51.2511612],[0.540063,51.2538331],[0.5569563,51.2537576],[0.5590753,51.2625555],[0.5583136,51.2696676]]],"type":"Polygon"},"id":"E02005077","properties":{"code":"E02005077","geography":"MSOA","name":"Maidstone 010"},"type":"Feature"},{"geometry":{"coordinates":[[[0.6566919,51.3316192],[0.6397176,51.3367646],[0.6191991,51.3315638],[0.6194168,51.3344695],[0.6142592,51.3350919],[0.6043951,51.3256974],[0.6018524,51.3184691],[0.606347,51.3070074],[0.6273061,51.3125442],[0.6251504,51.305264],[0.6301646,51.3027924],[0.6008891,51.2789048],[0.6123019,51.2770397],[0.5979474,51.2604621],[0.6077431,51.2568704],[0.6200295,51.2587933],[0.6350855,51.2515885],[0.650173,51.2490189],[0.6459737,51.2455172],[0.6595464,51.2431049],[0.6641469,51.2391234],[0.6533514,51.2299843],[0.6554036,51.2231761],[0.6702093,51.2227335],[0.6683508,51.2149632],[0.6735354,51.2133605],[0.675795,51.217375],[0.6825089,51.218459],[0.6988406,51.2160009],[0.7111055,51.2243938],[0.7210494,51.2206444],[0.7238478,51.2114153],[0.7260694,51.2089358],[0.743861,51.2087072],[0.7469899,51.2105907],[0.7445535,51.2146618],[0.7712565,51.2270979],[0.7824249,51.2393653],[0.7926265,51.2380736],[0.7964375,51.2462948],[0.7893477,51.2486343],[0.793349,51.2572813],[0.7905156,51.2617798],[0.7767529,51.2665642],[0.7619244,51.2563778],[0.7496092,51.2586435],[0.7645088,51.2767497],[0.7568123,51.278025],[0.7438428,51.278469],[0.7213133,51.2896104],[0.713786,51.2994073],[0.6928442,51.29812],[0.6804697,51.2911821],[0.6738136,51.2932717],[0.6716213,51.2996894],[0.675153,51.3056199],[0.6691495,51.3079925],[0.6709261,51.3100923],[0.6588257,51.3244912],[0.6644788,51.3273042],[0.6566919,51.3316192]]],"type":"Polygon"},"id":"E02005078","properties":{"code":"E02005078","geography":"MSOA","name":"Maidstone 011"},"type":"Feature"},{"geometry":{"coordinates":[[[0.5325561,51.2511612],[0.5312808,51.2574967],[0.5362302,51.2548744],[0.541463,51.258638],[0.5323426,51.2599919],[0.5296734,51.2641312],[0.5233183,51.2608127],[0.522364,51.2530917],[0.5152847,51.2562649],[0.5165144,51.260656],[0.503121,51.2561914],[0.5032342,51.2507543],[0.5307806,51.2437944],[0.5289827,51.2348726],[0.5221853,51.2325114],[0.5242595,51.2295154],[0.5232798,51.2275161],[0.5313649,51.2265262],[0.5445912,51.227159],[0.5538372,51.2333437],[0.5460956,51.2354279],[0.5475992,51.2388514],[0.5385412,51.2464378],[0.5325561,51.2511612]]],"type":"Polygon"},"id":"E02005079","properties":{"code":"E02005079","geography":"MSOA","name":"Maidstone 012"},"type":"Feature"},{"geometry":{"coordinates":[[[0.5385412,51.2464378],[0.5418764,51.2500251],[0.5482512,51.247111],[0.5465387,51.2442125],[0.5544577,51.2427989],[0.5511747,51.2388353],[0.5570927,51.2353779],[0.5651764,51.2429078],[0.5609064,51.2443242],[0.5610824,51.2540016],[0.5569563,51.2537576],[0.540063,51.2538331],[0.5325561,51.2511612],[0.5385412,51.2464378]]],"type":"Polygon"},"id":"E02005080","properties":{"code":"E02005080","geography":"MSOA","name":"Maidstone 013"},"type":"Feature"},{"geometry":{"coordinates":[[[0.4967206,51.2582073],[0.4854769,51.2549685],[0.4757663,51.2593948],[0.4775814,51.2722881],[0.4529777,51.2718416],[0.4323775,51.268935],[0.4312841,51.2491016],[0.40998,51.253121],[0.3941656,51.2414256],[0.3836525,51.2383005],[0.3786378,51.2349981],[0.3804061,51.2310836],[0.3973999,51.2265074],[0.3999472,51.2225395],[0.4087737,51.22167],[0.4005133,51.1989224],[0.41193,51.2023034],[0.4153225,51.2076171],[0.4193935,51.2052042],[0.4293468,51.209012],[0.4296857,51.2056972],[0.4349773,51.2049364],[0.4413026,51.2111774],[0.4461308,51.2102021],[0.4434509,51.2143156],[0.4467014,51.217066],[0.4404867,51.2224535],[0.4491261,51.2335054],[0.4568747,51.2380991],[0.4761174,51.2363135],[0.4851509,51.2429924],[0.4807748,51.2445001],[0.4860107,51.2476451],[0.4805809,51.2522739],[0.4926778,51.2507031],[0.4979502,51.2558809],[0.4967206,51.2582073]]],"type":"Polygon"},"id":"E02005081","properties":{"code":"E02005081","geography":"MSOA","name":"Maidstone 014"},"type":"Feature"},{"geometry":{"coordinates":[[[0.584227,51.2624815],[0.5757198,51.264107],[0.5698571,51.2574304],[0.5590753,51.2625555],[0.5569563,51.2537576],[0.5610824,51.2540016],[0.5609064,51.2443242],[0.5651764,51.2429078],[0.5570927,51.2353779],[0.5511747,51.2388353],[0.5544577,51.2427989],[0.5465387,51.2442125],[0.5482512,51.247111],[0.5418764,51.2500251],[0.5385412,51.2464378],[0.5475992,51.2388514],[0.5460956,51.2354279],[0.5538372,51.2333437],[0.5445912,51.227159],[0.5313649,51.2265262],[0.524505,51.205025],[0.5366846,51.2035988],[0.5408795,51.1950343],[0.5465223,51.1932097],[0.5656389,51.1829909],[0.5735681,51.188414],[0.5868536,51.218732],[0.5975808,51.2159964],[0.6024434,51.2171999],[0.6023949,51.2214484],[0.6370962,51.2220939],[0.6384589,51.2368392],[0.6459737,51.2455172],[0.650173,51.2490189],[0.6350855,51.2515885],[0.6200295,51.2587933],[0.6077431,51.2568704],[0.5979474,51.2604621],[0.5921264,51.2589909],[0.584227,51.2624815]]],"type":"Polygon"},"id":"E02005082","properties":{"code":"E02005082","geography":"MSOA","name":"Maidstone 015"},"type":"Feature"},{"geometry":{"coordinates":[[[0.5242595,51.2295154],[0.5221853,51.2325114],[0.5289827,51.2348726],[0.5307806,51.2437944],[0.5032342,51.2507543],[0.503121,51.2561914],[0.4979502,51.2558809],[0.4926778,51.2507031],[0.4805809,51.2522739],[0.4860107,51.2476451],[0.4807748,51.2445001],[0.4851509,51.2429924],[0.4761174,51.2363135],[0.4864438,51.2349873],[0.4845363,51.232883],[0.4929737,51.2304341],[0.4853957,51.2285169],[0.4922678,51.2273086],[0.5013217,51.2261449],[0.5052945,51.2303282],[0.5242595,51.2295154]]],"type":"Polygon"},"id":"E02005083","properties":{"code":"E02005083","geography":"MSOA","name":"Maidstone 016"},"type":"Feature"},{"geometry":{"coordinates":[[[0.7238478,51.2114153],[0.7210494,51.2206444],[0.7111055,51.2243938],[0.6988406,51.2160009],[0.6825089,51.218459],[0.675795,51.217375],[0.6735354,51.2133605],[0.6683508,51.2149632],[0.6702093,51.2227335],[0.6554036,51.2231761],[0.6533514,51.2299843],[0.6641469,51.2391234],[0.6595464,51.2431049],[0.6459737,51.2455172],[0.6384589,51.2368392],[0.6370962,51.2220939],[0.6023949,51.2214484],[0.6024434,51.2171999],[0.5975808,51.2159964],[0.5868536,51.218732],[0.5735681,51.188414],[0.5656389,51.1829909],[0.5664957,51.1731532],[0.5931679,51.1657354],[0.5961968,51.1617157],[0.5907976,51.1564598],[0.5932112,51.1539769],[0.6018254,51.1590175],[0.6050396,51.1509205],[0.6125067,51.1524325],[0.6171848,51.1482775],[0.6260881,51.1528419],[0.6403092,51.152476],[0.6364818,51.1452157],[0.6325149,51.1452966],[0.6394441,51.1412949],[0.649972,51.1453929],[0.6476141,51.1526731],[0.6575745,51.1581296],[0.6586475,51.1638389],[0.6666018,51.1681505],[0.6645206,51.1713491],[0.6766907,51.1722651],[0.6783721,51.1791947],[0.6849172,51.1786966],[0.6837157,51.191127],[0.7018077,51.1973398],[0.6993812,51.1999538],[0.7097521,51.1996186],[0.7167964,51.2111421],[0.7238478,51.2114153]]],"type":"Polygon"},"id":"E02005084","properties":{"code":"E02005084","geography":"MSOA","name":"Maidstone 017"},"type":"Feature"},{"geometry":{"coordinates":[[[0.4761174,51.2363135],[0.4568747,51.2380991],[0.4491261,51.2335054],[0.4404867,51.2224535],[0.4467014,51.217066],[0.4434509,51.2143156],[0.4461308,51.2102021],[0.4413026,51.2111774],[0.4349773,51.2049364],[0.4296857,51.2056972],[0.4293468,51.209012],[0.4193935,51.2052042],[0.4153225,51.2076171],[0.41193,51.2023034],[0.4005133,51.1989224],[0.3879553,51.2020691],[0.3842264,51.1982636],[0.3835164,51.1954618],[0.4093737,51.1884425],[0.4163714,51.1805493],[0.4373395,51.1776821],[0.4676673,51.1562076],[0.4688971,51.1432621],[0.481278,51.1413478],[0.4968746,51.1447715],[0.5039099,51.1526477],[0.5174475,51.1549011],[0.5232266,51.173907],[0.5465223,51.1932097],[0.5408795,51.1950343],[0.5366846,51.2035988],[0.524505,51.205025],[0.5313649,51.2265262],[0.5232798,51.2275161],[0.5242595,51.2295154],[0.5052945,51.2303282],[0.5013217,51.2261449],[0.4922678,51.2273086],[0.4853957,51.2285169],[0.4929737,51.2304341],[0.4845363,51.232883],[0.4864438,51.2349873],[0.4761174,51.2363135]]],"type":"Polygon"},"id":"E02005085","properties":{"code":"E02005085","geography":"MSOA","name":"Maidstone 018"},"type":"Feature"},{"geometry":{"coordinates":[[[0.5656389,51.1829909],[0.5465223,51.1932097],[0.5232266,51.173907],[0.5174475,51.1549011],[0.5039099,51.1526477],[0.4968746,51.1447715],[0.5146761,51.1360877],[0.5418826,51.1344324],[0.56192,51.1432608],[0.5655822,51.141137],[0.5590357,51.133946],[0.5638878,51.1348946],[0.5792757,51.1446378],[0.5756422,51.1561144],[0.5932112,51.1539769],[0.5907976,51.1564598],[0.5961968,51.1617157],[0.5931679,51.1657354],[0.5664957,51.1731532],[0.5656389,51.1829909]]],"type":"Polygon"},"id":"E02005086","properties":{"code":"E02005086","geography":"MSOA","name":"Maidstone 019"},"type":"Feature"}],"type":"FeatureCollection"}
