{"features":[{"geometry":{"coordinates":[[[0.1716111,52.7380123],[0.1701665,52.7398749],[0.1329603,52.7392845],[0.1136709,52.7299701],[0.098775,52.7303203],[0.0889709,52.723656],[0.0638896,52.7274161],[0.0480042,52.7187653],[0.044135,52.7143623],[0.0479972,52.6810303],[0.0491249,52.6786754],[0.0560917,52.6810808],[0.0558887,52.6781973],[0.0711832,52.6792183],[0.0725824,52.6548283],[0.1028041,52.6667355],[0.1165707,52.6728441],[0.1551381,52.6733375],[0.1536292,52.6821582],[0.1563382,52.7078151],[0.1716111,52.7380123]]],"type":"Polygon"},"id":"E02003742","properties":{"code":"E02003742","geography":"MSOA","name":"Fenland 001"},"type":"Feature"},{"geometry":{"coordinates":[[[0.1810629,52.6720799],[0.1847013,52.6778751],[0.1571291,52.6796728],[0.1536292,52.6821582],[0.1551381,52.6733375],[0.164178,52.6624714],[0.1753917,52.6662657],[0.1810629,52.6720799]]],"type":"Polygon"},"id":"E02003743","properties":{"code":"E02003743","geography":"MSOA","name":"Fenland 002"},"type":"Feature"},{"geometry":{"coordinates":[[[0.1810629,52.6720799],[0.1753917,52.6662657],[0.164178,52.6624714],[0.1551381,52.6733375],[0.1165707,52.6728441],[0.1028041,52.6667355],[0.1163658,52.6620054],[0.1032436,52.6524231],[0.1235797,52.6384242],[0.1151618,52.6354953],[0.1211621,52.6286082],[0.1490873,52.6356778],[0.1453891,52.6392775],[0.1537772,52.6454618],[0.1720438,52.6486756],[0.1695795,52.6527371],[0.1783243,52.6526171],[0.1760889,52.655681],[0.1838263,52.6556432],[0.1844142,52.6721214],[0.1810629,52.6720799]]],"type":"Polygon"},"id":"E02003744","properties":{"code":"E02003744","geography":"MSOA","name":"Fenland 003"},"type":"Feature"},{"geometry":{"coordinates":[[[0.1028041,52.6667355],[0.0725824,52.6548283],[0.0711832,52.6792183],[0.0558887,52.6781973],[0.0560917,52.6810808],[0.0491249,52.6786754],[0.0479972,52.6810303],[0.021484,52.6648681],[-0.0312872,52.6615141],[-0.0127914,52.5942243],[-0.0071627,52.586872],[-0.0103241,52.5790818],[0.0100686,52.5900798],[0.0614441,52.5896238],[0.1248643,52.5722369],[0.1311032,52.5661156],[0.1501154,52.5733826],[0.1554206,52.5704425],[0.1520219,52.5477832],[0.1644732,52.5417321],[0.1605678,52.5315],[0.1811715,52.5252049],[0.1977464,52.5288499],[0.2061036,52.5196173],[0.2196867,52.5231287],[0.2231526,52.5213664],[0.2223669,52.5238922],[0.2305715,52.527892],[0.2255854,52.5325519],[0.220273,52.5289033],[0.2149215,52.5320336],[0.2081166,52.5300688],[0.2058283,52.5338325],[0.2131259,52.5381534],[0.2038534,52.5453867],[0.2112175,52.5452185],[0.2146071,52.5490883],[0.2051207,52.547883],[0.2046896,52.5546381],[0.2140794,52.5561811],[0.2172201,52.5605757],[0.2056141,52.565551],[0.218394,52.5725807],[0.2157627,52.5794276],[0.2025933,52.5800772],[0.1995273,52.58274],[0.1991305,52.5917738],[0.1938349,52.5920853],[0.1915831,52.6014986],[0.2015017,52.6031175],[0.2055986,52.6117853],[0.2173696,52.614507],[0.2108484,52.6179099],[0.2192832,52.6217943],[0.1920119,52.6342469],[0.1720438,52.6486756],[0.1537772,52.6454618],[0.1453891,52.6392775],[0.1490873,52.6356778],[0.1211621,52.6286082],[0.1151618,52.6354953],[0.1235797,52.6384242],[0.1032436,52.6524231],[0.1163658,52.6620054],[0.1028041,52.6667355]]],"type":"Polygon"},"id":"E02003745","properties":{"code":"E02003745","geography":"MSOA","name":"Fenland 004"},"type":"Feature"},{"geometry":{"coordinates":[[[0.1311032,52.5661156],[0.1248643,52.5722369],[0.0614441,52.5896238],[0.0100686,52.5900798],[-0.0103241,52.5790818],[-0.0177082,52.5542607],[0.0662647,52.5598734],[0.0882007,52.551283],[0.0928764,52.5596877],[0.1076733,52.5556156],[0.122211,52.5647367],[0.1311032,52.5661156]]],"type":"Polygon"},"id":"E02003746","properties":{"code":"E02003746","geography":"MSOA","name":"Fenland 005"},"type":"Feature"},{"geometry":{"coordinates":[[[-0.1885302,52.5598661],[-0.1281808,52.5494194],[-0.0969649,52.5504319],[-0.0958918,52.5568039],[-0.1009998,52.557614],[-0.0978107,52.5647917],[-0.1056666,52.5655686],[-0.1180093,52.561892],[-0.1244298,52.5638377],[-0.1199805,52.5774454],[-0.1869952,52.5684881],[-0.1817122,52.5664845],[-0.1898944,52.5654236],[-0.1885302,52.5598661]]],"type":"Polygon"},"id":"E02003747","properties":{"code":"E02003747","geography":"MSOA","name":"Fenland 006"},"type":"Feature"},{"geometry":{"coordinates":[[[0.1605678,52.5315],[0.1644732,52.5417321],[0.1520219,52.5477832],[0.1554206,52.5704425],[0.1501154,52.5733826],[0.1311032,52.5661156],[0.122211,52.5647367],[0.1076733,52.5556156],[0.0928764,52.5596877],[0.0882007,52.551283],[0.0874797,52.5448534],[0.0942894,52.5383413],[0.0992252,52.5407653],[0.1090288,52.5400074],[0.1134057,52.544048],[0.1172181,52.5413144],[0.1135991,52.5329223],[0.1176377,52.5318983],[0.119951,52.5364379],[0.125935,52.5352951],[0.1223984,52.5285009],[0.1312011,52.5267933],[0.1290171,52.5221767],[0.1388283,52.5275102],[0.1605678,52.5315]]],"type":"Polygon"},"id":"E02003748","properties":{"code":"E02003748","geography":"MSOA","name":"Fenland 007"},"type":"Feature"},{"geometry":{"coordinates":[[[-0.0103241,52.5790818],[-0.0071627,52.586872],[-0.0127914,52.5942243],[-0.1199805,52.5774454],[-0.1244298,52.5638377],[-0.1180093,52.561892],[-0.1056666,52.5655686],[-0.0978107,52.5647917],[-0.1009998,52.557614],[-0.0958918,52.5568039],[-0.0969649,52.5504319],[-0.1281808,52.5494194],[-0.1885302,52.5598661],[-0.1978893,52.5507869],[-0.1910472,52.5503204],[-0.1856448,52.544919],[-0.1878672,52.5418444],[-0.1883059,52.5370631],[-0.1706785,52.5312661],[-0.143465,52.5111626],[-0.1144568,52.4890221],[-0.0976731,52.5016878],[-0.0904458,52.4961944],[-0.0709043,52.5058736],[-0.0696961,52.5168415],[-0.0545882,52.513378],[-0.04799,52.5105203],[-0.0527403,52.5020065],[-0.0385276,52.5018265],[-0.0388764,52.4732681],[-0.0186098,52.4676348],[-0.0055177,52.4797935],[-0.0152711,52.491122],[-0.0133056,52.500311],[-0.0021501,52.5017079],[-0.0007672,52.521673],[-0.0065302,52.5222075],[-0.0080001,52.5253331],[-0.0204463,52.525279],[-0.0177082,52.5542607],[-0.0103241,52.5790818]]],"type":"Polygon"},"id":"E02003749","properties":{"code":"E02003749","geography":"MSOA","name":"Fenland 008"},"type":"Feature"},{"geometry":{"coordinates":[[[0.0882007,52.551283],[0.0662647,52.5598734],[-0.0177082,52.5542607],[-0.0204463,52.525279],[-0.0080001,52.5253331],[-0.0065302,52.5222075],[-0.0007672,52.521673],[0.0599932,52.5150804],[0.0775872,52.5219178],[0.1046083,52.5209264],[0.1068812,52.5310154],[0.1165745,52.5298705],[0.1176377,52.5318983],[0.1135991,52.5329223],[0.1172181,52.5413144],[0.1134057,52.544048],[0.1090288,52.5400074],[0.0992252,52.5407653],[0.0942894,52.5383413],[0.0874797,52.5448534],[0.0882007,52.551283]]],"type":"Polygon"},"id":"E02003750","properties":{"code":"E02003750","geography":"MSOA","name":"Fenland 009"},"type":"Feature"},{"geometry":{"coordinates":[[[0.1605678,52.5315],[0.1388283,52.5275102],[0.1290171,52.5221767],[0.1312011,52.5267933],[0.1223984,52.5285009],[0.125935,52.5352951],[0.119951,52.5364379],[0.1176377,52.5318983],[0.1165745,52.5298705],[0.1068812,52.5310154],[0.1046083,52.5209264],[0.0775872,52.5219178],[0.0599932,52.5150804],[-0.0007672,52.521673],[-0.0021501,52.5017079],[-0.0133056,52.500311],[-0.0152711,52.491122],[-0.0055177,52.4797935],[-0.0186098,52.4676348],[-0.0093448,52.4621638],[-0.0070016,52.4567545],[0.0087881,52.4546371],[0.0120705,52.4483477],[0.0231196,52.442444],[0.011924,52.4493513],[0.0141155,52.4678493],[0.0246692,52.4718888],[0.0295257,52.4807181],[0.0382432,52.4855607],[0.0574937,52.4880746],[0.0743664,52.4828779],[0.0899237,52.4908478],[0.1281828,52.475592],[0.1419936,52.4773411],[0.1510107,52.4750636],[0.1321435,52.4622966],[0.1252798,52.4651393],[0.1251711,52.4584692],[0.1663801,52.4487199],[0.1792946,52.4587429],[0.1770636,52.4609604],[0.1706934,52.45754],[0.2362984,52.507273],[0.2061036,52.5196173],[0.1977464,52.5288499],[0.1811715,52.5252049],[0.1605678,52.5315]]],"type":"Polygon"},"id":"E02003751","properties":{"code":"E02003751","geography":"MSOA","name":"Fenland 010"},"type":"Feature"},{"geometry":{"coordinates":[[[0.1663801,52.4487199],[0.1251711,52.4584692],[0.1252798,52.4651393],[0.1321435,52.4622966],[0.1510107,52.4750636],[0.1419936,52.4773411],[0.1281828,52.475592],[0.0899237,52.4908478],[0.0743664,52.4828779],[0.0574937,52.4880746],[0.0382432,52.4855607],[0.0295257,52.4807181],[0.0246692,52.4718888],[0.0141155,52.4678493],[0.011924,52.4493513],[0.0231196,52.442444],[0.021617,52.4349807],[0.0340715,52.4284615],[0.0190039,52.4141828],[0.0268799,52.4056435],[0.0266857,52.3906405],[0.0343959,52.3857333],[0.0561749,52.3978181],[0.050182,52.4066305],[0.0525662,52.4088207],[0.0416634,52.4133426],[0.045358,52.4190856],[0.0552533,52.4144179],[0.0701881,52.4214705],[0.0800998,52.4213926],[0.0873434,52.4297488],[0.1066155,52.4253208],[0.1264475,52.4378386],[0.1298162,52.4357119],[0.1208146,52.4311042],[0.1186636,52.423444],[0.1238175,52.4209533],[0.1510199,52.4422473],[0.1553213,52.4401575],[0.1663801,52.4487199]]],"type":"Polygon"},"id":"E02003752","properties":{"code":"E02003752","geography":"MSOA","name":"Fenland 011"},"type":"Feature"}],"type":"FeatureCollection"}
