{"features":[{"geometry":{"coordinates":[[[-1.2906085,52.8727455],[-1.3059166,52.8770609],[-1.3093376,52.8733361],[-1.3193127,52.87285],[-1.3253384,52.8659628],[-1.3328013,52.8671556],[-1.3392553,52.8645929],[-1.3448682,52.8675143],[-1.3434108,52.8627753],[-1.3519021,52.8576203],[-1.3511803,52.8532708],[-1.3607263,52.8553525],[-1.3692193,52.8489774],[-1.3815398,52.8457995],[-1.3882192,52.8393853],[-1.3943303,52.8367548],[-1.3879426,52.8330796],[-1.4052124,52.8186759],[-1.4177132,52.8015974],[-1.4239701,52.8012423],[-1.4201575,52.7951538],[-1.4119803,52.793368],[-1.4070346,52.7972836],[-1.404985,52.7926985],[-1.3940589,52.7905559],[-1.3899312,52.7852012],[-1.3747597,52.7825091],[-1.3716787,52.7847051],[-1.3541202,52.7952545],[-1.3383002,52.8180477],[-1.3141065,52.8310246],[-1.3027781,52.8458074],[-1.2881519,52.8481408],[-1.280829,52.8576473],[-1.2714935,52.8590403],[-1.2752886,52.8603608],[-1.267894,52.8733494],[-1.278433,52.875574],[-1.2906085,52.8727455]]],"type":"Polygon"},"id":"E02005397","properties":{"code":"E02005397","geography":"MSOA","name":"North West Leicestershire 001"},"type":"Feature"},{"geometry":{"coordinates":[[[-1.261933,52.8104337],[-1.2600822,52.8192062],[-1.2708908,52.8237299],[-1.2740298,52.8336773],[-1.2741631,52.836286],[-1.26675,52.8376653],[-1.272242,52.8492572],[-1.2645499,52.8580879],[-1.2714935,52.8590403],[-1.280829,52.8576473],[-1.2881519,52.8481408],[-1.3027781,52.8458074],[-1.3141065,52.8310246],[-1.3383002,52.8180477],[-1.3541202,52.7952545],[-1.3716787,52.7847051],[-1.3607096,52.7799556],[-1.3524003,52.7841503],[-1.3439473,52.7830591],[-1.3521227,52.7668597],[-1.362499,52.7592272],[-1.3587475,52.7520456],[-1.3323874,52.7529997],[-1.3347781,52.7631462],[-1.3290652,52.7663838],[-1.3277102,52.7756821],[-1.3189685,52.7853698],[-1.2792727,52.7832369],[-1.2786768,52.7831578],[-1.2748347,52.7875536],[-1.2796145,52.7886643],[-1.2764557,52.8003091],[-1.261933,52.8104337]]],"type":"Polygon"},"id":"E02005398","properties":{"code":"E02005398","geography":"MSOA","name":"North West Leicestershire 002"},"type":"Feature"},{"geometry":{"coordinates":[[[-1.444431,52.7414069],[-1.4343617,52.7561563],[-1.4435656,52.7716701],[-1.4406658,52.7798244],[-1.4503694,52.7806248],[-1.4548799,52.7889685],[-1.4627862,52.7868457],[-1.4576558,52.7843834],[-1.459506,52.7770655],[-1.4558898,52.7770769],[-1.4664599,52.7679546],[-1.4939992,52.7590266],[-1.4817897,52.7490895],[-1.4738584,52.7480441],[-1.4740859,52.7412928],[-1.4703468,52.7428159],[-1.4638396,52.7390769],[-1.4617422,52.745211],[-1.4602338,52.7428724],[-1.444431,52.7414069]]],"type":"Polygon"},"id":"E02005399","properties":{"code":"E02005399","geography":"MSOA","name":"North West Leicestershire 003"},"type":"Feature"},{"geometry":{"coordinates":[[[-1.362499,52.7592272],[-1.3728097,52.7602674],[-1.3751802,52.7562612],[-1.3834792,52.7574409],[-1.3843063,52.7545741],[-1.397034,52.7524199],[-1.4084777,52.7341374],[-1.3941671,52.7309486],[-1.3856502,52.7300266],[-1.3813898,52.7326071],[-1.3734661,52.7325134],[-1.3596338,52.7464731],[-1.3453687,52.7467936],[-1.3413299,52.7503654],[-1.3492437,52.7487118],[-1.3514881,52.7516159],[-1.3587475,52.7520456],[-1.362499,52.7592272]]],"type":"Polygon"},"id":"E02005400","properties":{"code":"E02005400","geography":"MSOA","name":"North West Leicestershire 004"},"type":"Feature"},{"geometry":{"coordinates":[[[-1.4239701,52.8012423],[-1.4435689,52.8027263],[-1.4418977,52.7935152],[-1.4548799,52.7889685],[-1.4503694,52.7806248],[-1.4406658,52.7798244],[-1.4435656,52.7716701],[-1.4343617,52.7561563],[-1.444431,52.7414069],[-1.4493282,52.7371514],[-1.4563851,52.7399331],[-1.4639191,52.7339435],[-1.472379,52.7368325],[-1.4795517,52.7251086],[-1.4738429,52.7246071],[-1.4812696,52.7201307],[-1.4889438,52.7200775],[-1.4893983,52.7124573],[-1.471804,52.7038903],[-1.4667957,52.7070502],[-1.4558429,52.7029139],[-1.4351713,52.7039814],[-1.4324719,52.7019097],[-1.4285998,52.6999079],[-1.4208807,52.7072151],[-1.4102716,52.699403],[-1.4013389,52.6993555],[-1.4008944,52.7079404],[-1.3988191,52.717066],[-1.3928753,52.7194433],[-1.3965528,52.7254026],[-1.3941671,52.7309486],[-1.4084777,52.7341374],[-1.397034,52.7524199],[-1.3843063,52.7545741],[-1.3834792,52.7574409],[-1.3751802,52.7562612],[-1.3728097,52.7602674],[-1.362499,52.7592272],[-1.3521227,52.7668597],[-1.3439473,52.7830591],[-1.3524003,52.7841503],[-1.3607096,52.7799556],[-1.3716787,52.7847051],[-1.3747597,52.7825091],[-1.3899312,52.7852012],[-1.3940589,52.7905559],[-1.404985,52.7926985],[-1.4070346,52.7972836],[-1.4119803,52.793368],[-1.4201575,52.7951538],[-1.4239701,52.8012423]]],"type":"Polygon"},"id":"E02005401","properties":{"code":"E02005401","geography":"MSOA","name":"North West Leicestershire 005"},"type":"Feature"},{"geometry":{"coordinates":[[[-1.4939992,52.7590266],[-1.4957645,52.7598735],[-1.5029475,52.7559357],[-1.5026546,52.7462653],[-1.5148009,52.7443314],[-1.5104849,52.7337365],[-1.5192921,52.7302199],[-1.5115368,52.7232156],[-1.5028741,52.7253939],[-1.4973738,52.7212148],[-1.4889438,52.7200775],[-1.4812696,52.7201307],[-1.4738429,52.7246071],[-1.4795517,52.7251086],[-1.472379,52.7368325],[-1.4639191,52.7339435],[-1.4563851,52.7399331],[-1.4493282,52.7371514],[-1.444431,52.7414069],[-1.4602338,52.7428724],[-1.4617422,52.745211],[-1.4638396,52.7390769],[-1.4703468,52.7428159],[-1.4740859,52.7412928],[-1.4738584,52.7480441],[-1.4817897,52.7490895],[-1.4939992,52.7590266]]],"type":"Polygon"},"id":"E02005402","properties":{"code":"E02005402","geography":"MSOA","name":"North West Leicestershire 006"},"type":"Feature"},{"geometry":{"coordinates":[[[-1.3570842,52.7249764],[-1.3482304,52.7257639],[-1.3403588,52.7296764],[-1.342052,52.7318661],[-1.332577,52.7302602],[-1.3255151,52.7331745],[-1.3365047,52.7414401],[-1.3302691,52.7503547],[-1.3413299,52.7503654],[-1.3453687,52.7467936],[-1.3596338,52.7464731],[-1.3734661,52.7325134],[-1.3570842,52.7249764]]],"type":"Polygon"},"id":"E02005403","properties":{"code":"E02005403","geography":"MSOA","name":"North West Leicestershire 007"},"type":"Feature"},{"geometry":{"coordinates":[[[-1.4957645,52.7598735],[-1.5037422,52.767372],[-1.5253548,52.7655106],[-1.5295891,52.7610782],[-1.5329449,52.7625545],[-1.5391983,52.7600796],[-1.5474385,52.7641221],[-1.5548492,52.7620038],[-1.562499,52.7505696],[-1.5447563,52.7302465],[-1.5500864,52.7202613],[-1.566936,52.7100533],[-1.5586524,52.7076568],[-1.5485771,52.7095598],[-1.535263,52.7041351],[-1.5264669,52.7040635],[-1.5265466,52.7083159],[-1.5198016,52.7065898],[-1.5173885,52.7113384],[-1.4973738,52.7212148],[-1.5028741,52.7253939],[-1.5115368,52.7232156],[-1.5192921,52.7302199],[-1.5104849,52.7337365],[-1.5148009,52.7443314],[-1.5026546,52.7462653],[-1.5029475,52.7559357],[-1.4957645,52.7598735]]],"type":"Polygon"},"id":"E02005404","properties":{"code":"E02005404","geography":"MSOA","name":"North West Leicestershire 008"},"type":"Feature"},{"geometry":{"coordinates":[[[-1.3025373,52.7474013],[-1.3190591,52.749924],[-1.3237482,52.7548836],[-1.3323874,52.7529997],[-1.3587475,52.7520456],[-1.3514881,52.7516159],[-1.3492437,52.7487118],[-1.3413299,52.7503654],[-1.3302691,52.7503547],[-1.3365047,52.7414401],[-1.3255151,52.7331745],[-1.332577,52.7302602],[-1.342052,52.7318661],[-1.3403588,52.7296764],[-1.3482304,52.7257639],[-1.3570842,52.7249764],[-1.3552263,52.7219966],[-1.344452,52.7227851],[-1.3392152,52.7160874],[-1.3230455,52.7222109],[-1.3129844,52.7212991],[-1.2891617,52.7128835],[-1.2827232,52.7146234],[-1.2624774,52.7242526],[-1.2663629,52.7285705],[-1.2633711,52.7308884],[-1.2471478,52.73635],[-1.2668726,52.7474322],[-1.2874951,52.7339538],[-1.3025373,52.7474013]]],"type":"Polygon"},"id":"E02005405","properties":{"code":"E02005405","geography":"MSOA","name":"North West Leicestershire 009"},"type":"Feature"},{"geometry":{"coordinates":[[[-1.3734661,52.7325134],[-1.3813898,52.7326071],[-1.3873429,52.7219235],[-1.3751536,52.720712],[-1.3789589,52.7176434],[-1.3711295,52.7132074],[-1.3634362,52.719539],[-1.3551405,52.7170462],[-1.3552263,52.7219966],[-1.3570842,52.7249764],[-1.3734661,52.7325134]]],"type":"Polygon"},"id":"E02005406","properties":{"code":"E02005406","geography":"MSOA","name":"North West Leicestershire 010"},"type":"Feature"},{"geometry":{"coordinates":[[[-1.3552263,52.7219966],[-1.3551405,52.7170462],[-1.3634362,52.719539],[-1.3711295,52.7132074],[-1.3789589,52.7176434],[-1.3751536,52.720712],[-1.3873429,52.7219235],[-1.3813898,52.7326071],[-1.3856502,52.7300266],[-1.3941671,52.7309486],[-1.3965528,52.7254026],[-1.3928753,52.7194433],[-1.3988191,52.717066],[-1.4008944,52.7079404],[-1.3801979,52.7100492],[-1.3815615,52.7137376],[-1.3724963,52.7053576],[-1.3442989,52.7095134],[-1.3181288,52.701962],[-1.2917444,52.7094237],[-1.2891617,52.7128835],[-1.3129844,52.7212991],[-1.3230455,52.7222109],[-1.3392152,52.7160874],[-1.344452,52.7227851],[-1.3552263,52.7219966]]],"type":"Polygon"},"id":"E02005407","properties":{"code":"E02005407","geography":"MSOA","name":"North West Leicestershire 011"},"type":"Feature"},{"geometry":{"coordinates":[[[-1.4889438,52.7200775],[-1.4973738,52.7212148],[-1.5173885,52.7113384],[-1.5198016,52.7065898],[-1.5265466,52.7083159],[-1.5264669,52.7040635],[-1.535263,52.7041351],[-1.5485771,52.7095598],[-1.5586524,52.7076568],[-1.566936,52.7100533],[-1.5771253,52.7117461],[-1.5975475,52.7004044],[-1.5862915,52.6944814],[-1.5896516,52.6872435],[-1.5776144,52.678561],[-1.5691126,52.6796498],[-1.5664808,52.6775849],[-1.5704336,52.6758256],[-1.5517776,52.667438],[-1.5368312,52.6657184],[-1.5023676,52.677616],[-1.4940213,52.6690306],[-1.4770258,52.6776977],[-1.467176,52.6680472],[-1.4457506,52.6639404],[-1.4304018,52.6806184],[-1.4506155,52.6878471],[-1.4324719,52.7019097],[-1.4351713,52.7039814],[-1.4558429,52.7029139],[-1.4667957,52.7070502],[-1.471804,52.7038903],[-1.4893983,52.7124573],[-1.4889438,52.7200775]]],"type":"Polygon"},"id":"E02005408","properties":{"code":"E02005408","geography":"MSOA","name":"North West Leicestershire 012"},"type":"Feature"},{"geometry":{"coordinates":[[[-1.3181288,52.701962],[-1.3442989,52.7095134],[-1.3724963,52.7053576],[-1.3815615,52.7137376],[-1.3801979,52.7100492],[-1.4008944,52.7079404],[-1.4013389,52.6993555],[-1.4102716,52.699403],[-1.4208807,52.7072151],[-1.4285998,52.6999079],[-1.4324719,52.7019097],[-1.4506155,52.6878471],[-1.4304018,52.6806184],[-1.4214642,52.6833297],[-1.4181982,52.6782137],[-1.4019249,52.6720621],[-1.3653085,52.68018],[-1.3605968,52.6764579],[-1.3583477,52.6828007],[-1.348451,52.6850195],[-1.349965,52.6893727],[-1.3426101,52.6901842],[-1.3511062,52.694139],[-1.3181288,52.701962]]],"type":"Polygon"},"id":"E02005409","properties":{"code":"E02005409","geography":"MSOA","name":"North West Leicestershire 013"},"type":"Feature"}],"type":"FeatureCollection"}
