{"features":[{"geometry":{"coordinates":[[[-2.9137687,53.4648565],[-2.9225683,53.474983],[-2.9361385,53.4737152],[-2.947434,53.4724707],[-2.9453546,53.4695505],[-2.9399851,53.4715564],[-2.9373863,53.4670465],[-2.9318548,53.4684496],[-2.9212189,53.4563508],[-2.9259048,53.4538215],[-2.9199903,53.4545794],[-2.9104411,53.4584495],[-2.9137687,53.4648565]]],"type":"Polygon"},"id":"E02001347","properties":{"code":"E02001347","geography":"MSOA","name":"Liverpool 001"},"type":"Feature"},{"geometry":{"coordinates":[[[-2.947434,53.4724707],[-2.9563073,53.4729774],[-2.9603001,53.4676978],[-2.9640089,53.4665528],[-2.9581209,53.4609777],[-2.9522154,53.4626304],[-2.9420841,53.4669466],[-2.9453546,53.4695505],[-2.947434,53.4724707]]],"type":"Polygon"},"id":"E02001348","properties":{"code":"E02001348","geography":"MSOA","name":"Liverpool 002"},"type":"Feature"},{"geometry":{"coordinates":[[[-2.9603001,53.4676978],[-2.9602308,53.4679564],[-2.9691594,53.4664759],[-2.972607,53.4583747],[-2.9599964,53.455614],[-2.9552621,53.4574217],[-2.9543295,53.4548314],[-2.9489546,53.4592906],[-2.9522154,53.4626304],[-2.9581209,53.4609777],[-2.9640089,53.4665528],[-2.9603001,53.4676978]]],"type":"Polygon"},"id":"E02001349","properties":{"code":"E02001349","geography":"MSOA","name":"Liverpool 003"},"type":"Feature"},{"geometry":{"coordinates":[[[-2.8914413,53.4630999],[-2.9058723,53.470157],[-2.9049247,53.4652298],[-2.9137687,53.4648565],[-2.9104411,53.4584495],[-2.9199903,53.4545794],[-2.9131495,53.449207],[-2.9017338,53.4486723],[-2.9076462,53.4445428],[-2.9037039,53.4434124],[-2.8965565,53.447648],[-2.9018877,53.4531804],[-2.8968741,53.4513415],[-2.8975027,53.456902],[-2.8932026,53.4559532],[-2.8881563,53.4606444],[-2.8914413,53.4630999]]],"type":"Polygon"},"id":"E02001350","properties":{"code":"E02001350","geography":"MSOA","name":"Liverpool 004"},"type":"Feature"},{"geometry":{"coordinates":[[[-2.9199903,53.4545794],[-2.9259048,53.4538215],[-2.9212189,53.4563508],[-2.9318548,53.4684496],[-2.9373863,53.4670465],[-2.9399851,53.4715564],[-2.9453546,53.4695505],[-2.9420841,53.4669466],[-2.9522154,53.4626304],[-2.9489546,53.4592906],[-2.9433638,53.4550272],[-2.9341615,53.4543962],[-2.9329578,53.4476107],[-2.9162178,53.4479237],[-2.9131495,53.449207],[-2.9199903,53.4545794]]],"type":"Polygon"},"id":"E02001351","properties":{"code":"E02001351","geography":"MSOA","name":"Liverpool 005"},"type":"Feature"},{"geometry":{"coordinates":[[[-2.9543295,53.4548314],[-2.9552621,53.4574217],[-2.9599964,53.455614],[-2.972607,53.4583747],[-2.9733774,53.4474309],[-2.95415,53.4506383],[-2.9543295,53.4548314]]],"type":"Polygon"},"id":"E02001352","properties":{"code":"E02001352","geography":"MSOA","name":"Liverpool 006"},"type":"Feature"},{"geometry":{"coordinates":[[[-2.8678728,53.4492744],[-2.8881563,53.4606444],[-2.8932026,53.4559532],[-2.8975027,53.456902],[-2.8968741,53.4513415],[-2.9018877,53.4531804],[-2.8965565,53.447648],[-2.8870812,53.4425986],[-2.8678728,53.4492744]]],"type":"Polygon"},"id":"E02001353","properties":{"code":"E02001353","geography":"MSOA","name":"Liverpool 007"},"type":"Feature"},{"geometry":{"coordinates":[[[-2.9329578,53.4476107],[-2.9341615,53.4543962],[-2.9433638,53.4550272],[-2.9489546,53.4592906],[-2.9543295,53.4548314],[-2.95415,53.4506383],[-2.9422663,53.4483734],[-2.9503221,53.4459554],[-2.950515,53.4417739],[-2.9458264,53.4408135],[-2.9381584,53.4407859],[-2.9398357,53.4455582],[-2.9366909,53.4441867],[-2.9329578,53.4476107]]],"type":"Polygon"},"id":"E02001354","properties":{"code":"E02001354","geography":"MSOA","name":"Liverpool 008"},"type":"Feature"},{"geometry":{"coordinates":[[[-2.9458264,53.4408135],[-2.950515,53.4417739],[-2.9503221,53.4459554],[-2.9422663,53.4483734],[-2.95415,53.4506383],[-2.9733774,53.4474309],[-2.976136,53.4450025],[-2.9606845,53.4427534],[-2.9458264,53.4408135]]],"type":"Polygon"},"id":"E02001355","properties":{"code":"E02001355","geography":"MSOA","name":"Liverpool 009"},"type":"Feature"},{"geometry":{"coordinates":[[[-2.9037039,53.4434124],[-2.9076462,53.4445428],[-2.9017338,53.4486723],[-2.9131495,53.449207],[-2.9162178,53.4479237],[-2.9315178,53.4423239],[-2.921162,53.4385074],[-2.9150408,53.4377162],[-2.9078452,53.4413894],[-2.9037039,53.4434124]]],"type":"Polygon"},"id":"E02001356","properties":{"code":"E02001356","geography":"MSOA","name":"Liverpool 010"},"type":"Feature"},{"geometry":{"coordinates":[[[-2.921162,53.4385074],[-2.9315178,53.4423239],[-2.9162178,53.4479237],[-2.9329578,53.4476107],[-2.9366909,53.4441867],[-2.9398357,53.4455582],[-2.9381584,53.4407859],[-2.937493,53.4364798],[-2.9330306,53.4367253],[-2.921162,53.4385074]]],"type":"Polygon"},"id":"E02001357","properties":{"code":"E02001357","geography":"MSOA","name":"Liverpool 011"},"type":"Feature"},{"geometry":{"coordinates":[[[-2.9606845,53.4427534],[-2.976136,53.4450025],[-2.9769542,53.4429255],[-2.9730943,53.4357045],[-2.9712509,53.4383427],[-2.9674594,53.437139],[-2.9635954,53.4378567],[-2.9606845,53.4427534]]],"type":"Polygon"},"id":"E02001358","properties":{"code":"E02001358","geography":"MSOA","name":"Liverpool 012"},"type":"Feature"},{"geometry":{"coordinates":[[[-2.8701236,53.4416795],[-2.8678728,53.4492744],[-2.8870812,53.4425986],[-2.8965565,53.447648],[-2.9037039,53.4434124],[-2.9078452,53.4413894],[-2.9109625,53.4330051],[-2.9034708,53.4343943],[-2.9008426,53.4322377],[-2.9048856,53.4304384],[-2.9001656,53.4294048],[-2.8902678,53.4348156],[-2.8793283,53.4388506],[-2.873261,53.4363945],[-2.8701236,53.4416795]]],"type":"Polygon"},"id":"E02001359","properties":{"code":"E02001359","geography":"MSOA","name":"Liverpool 013"},"type":"Feature"},{"geometry":{"coordinates":[[[-2.9674594,53.437139],[-2.9712509,53.4383427],[-2.9730943,53.4357045],[-2.9769542,53.4429255],[-2.9878775,53.441068],[-3.000097,53.4403843],[-2.9959557,53.4381048],[-2.9981618,53.4352459],[-2.9923406,53.434782],[-3.0003129,53.4223647],[-2.9967087,53.4252534],[-2.9885973,53.4242871],[-2.9877678,53.4277816],[-2.9828161,53.4284333],[-2.984849,53.432885],[-2.9782791,53.4333699],[-2.9760377,53.4304307],[-2.971235,53.4313399],[-2.9674594,53.437139]]],"type":"Polygon"},"id":"E02001360","properties":{"code":"E02001360","geography":"MSOA","name":"Liverpool 014"},"type":"Feature"},{"geometry":{"coordinates":[[[-2.9458264,53.4408135],[-2.9606845,53.4427534],[-2.9635954,53.4378567],[-2.9546027,53.4327256],[-2.9501496,53.4290063],[-2.946705,53.4309008],[-2.9408815,53.4275624],[-2.9378527,53.4287795],[-2.9436438,53.4365083],[-2.937493,53.4364798],[-2.9381584,53.4407859],[-2.9458264,53.4408135]]],"type":"Polygon"},"id":"E02001361","properties":{"code":"E02001361","geography":"MSOA","name":"Liverpool 015"},"type":"Feature"},{"geometry":{"coordinates":[[[-2.9109625,53.4330051],[-2.9078452,53.4413894],[-2.9150408,53.4377162],[-2.921162,53.4385074],[-2.9330306,53.4367253],[-2.9263807,53.4275501],[-2.9182135,53.4270873],[-2.9218066,53.4293428],[-2.9163372,53.4332591],[-2.9109625,53.4330051]]],"type":"Polygon"},"id":"E02001362","properties":{"code":"E02001362","geography":"MSOA","name":"Liverpool 016"},"type":"Feature"},{"geometry":{"coordinates":[[[-2.873261,53.4363945],[-2.8793283,53.4388506],[-2.8902678,53.4348156],[-2.8862671,53.4269673],[-2.8779704,53.4244669],[-2.8766863,53.4221583],[-2.8701644,53.4251382],[-2.86689,53.4282476],[-2.873261,53.4363945]]],"type":"Polygon"},"id":"E02001363","properties":{"code":"E02001363","geography":"MSOA","name":"Liverpool 017"},"type":"Feature"},{"geometry":{"coordinates":[[[-2.9546027,53.4327256],[-2.9635954,53.4378567],[-2.9674594,53.437139],[-2.971235,53.4313399],[-2.9619413,53.4236638],[-2.9544819,53.4246513],[-2.9607994,53.4296818],[-2.9546027,53.4327256]]],"type":"Polygon"},"id":"E02001364","properties":{"code":"E02001364","geography":"MSOA","name":"Liverpool 018"},"type":"Feature"},{"geometry":{"coordinates":[[[-2.9378527,53.4287795],[-2.9408815,53.4275624],[-2.946705,53.4309008],[-2.9501496,53.4290063],[-2.9546027,53.4327256],[-2.9607994,53.4296818],[-2.9544819,53.4246513],[-2.9503719,53.4230798],[-2.9444683,53.4252466],[-2.935838,53.4240714],[-2.9378527,53.4287795]]],"type":"Polygon"},"id":"E02001365","properties":{"code":"E02001365","geography":"MSOA","name":"Liverpool 019"},"type":"Feature"},{"geometry":{"coordinates":[[[-2.9182135,53.4270873],[-2.9263807,53.4275501],[-2.9330306,53.4367253],[-2.937493,53.4364798],[-2.9436438,53.4365083],[-2.9378527,53.4287795],[-2.935838,53.4240714],[-2.9326732,53.4195303],[-2.9153115,53.4237019],[-2.9182135,53.4270873]]],"type":"Polygon"},"id":"E02001366","properties":{"code":"E02001366","geography":"MSOA","name":"Liverpool 020"},"type":"Feature"},{"geometry":{"coordinates":[[[-2.8862671,53.4269673],[-2.8902678,53.4348156],[-2.9001656,53.4294048],[-2.9048856,53.4304384],[-2.9008426,53.4322377],[-2.9034708,53.4343943],[-2.9109625,53.4330051],[-2.9163372,53.4332591],[-2.9218066,53.4293428],[-2.9182135,53.4270873],[-2.9153115,53.4237019],[-2.9079013,53.4192433],[-2.8992207,53.4214818],[-2.8862671,53.4269673]]],"type":"Polygon"},"id":"E02001367","properties":{"code":"E02001367","geography":"MSOA","name":"Liverpool 021"},"type":"Feature"},{"geometry":{"coordinates":[[[-2.9760377,53.4304307],[-2.9782791,53.4333699],[-2.984849,53.432885],[-2.9828161,53.4284333],[-2.9877678,53.4277816],[-2.9885973,53.4242871],[-2.9967087,53.4252534],[-3.0003129,53.4223647],[-2.9923406,53.434782],[-2.9981618,53.4352459],[-2.9959557,53.4381048],[-3.000097,53.4403843],[-3.0088281,53.4384518],[-3.0087561,53.438365],[-3.0086215,53.4378389],[-3.003142,53.4164236],[-2.9846409,53.4170666],[-2.9823376,53.4150013],[-2.9765744,53.4159912],[-2.9760377,53.4304307]]],"type":"Polygon"},"id":"E02001368","properties":{"code":"E02001368","geography":"MSOA","name":"Liverpool 022"},"type":"Feature"},{"geometry":{"coordinates":[[[-2.9619413,53.4236638],[-2.971235,53.4313399],[-2.9760377,53.4304307],[-2.9765744,53.4159912],[-2.9823376,53.4150013],[-2.9855182,53.4127042],[-2.9824381,53.4094253],[-2.971518,53.4133031],[-2.9679347,53.4117514],[-2.9646479,53.4131142],[-2.9619413,53.4236638]]],"type":"Polygon"},"id":"E02001369","properties":{"code":"E02001369","geography":"MSOA","name":"Liverpool 023"},"type":"Feature"},{"geometry":{"coordinates":[[[-2.9462663,53.4172502],[-2.9477907,53.4212471],[-2.9404855,53.4225066],[-2.9444683,53.4252466],[-2.9503719,53.4230798],[-2.9544819,53.4246513],[-2.9619413,53.4236638],[-2.9646479,53.4131142],[-2.9625926,53.4141345],[-2.9462663,53.4172502]]],"type":"Polygon"},"id":"E02001370","properties":{"code":"E02001370","geography":"MSOA","name":"Liverpool 024"},"type":"Feature"},{"geometry":{"coordinates":[[[-2.8680076,53.4205243],[-2.8701644,53.4251382],[-2.8766863,53.4221583],[-2.8779704,53.4244669],[-2.8843148,53.4203193],[-2.8761792,53.419442],[-2.8804691,53.4157558],[-2.8712131,53.4123779],[-2.8687146,53.4155532],[-2.8680076,53.4205243]]],"type":"Polygon"},"id":"E02001371","properties":{"code":"E02001371","geography":"MSOA","name":"Liverpool 025"},"type":"Feature"},{"geometry":{"coordinates":[[[-2.8779704,53.4244669],[-2.8862671,53.4269673],[-2.8992207,53.4214818],[-2.8955875,53.4199962],[-2.9012851,53.4172503],[-2.8977861,53.4139595],[-2.9052324,53.4108652],[-2.9039401,53.4078201],[-2.8923637,53.4109545],[-2.884794,53.4165817],[-2.8804691,53.4157558],[-2.8761792,53.419442],[-2.8843148,53.4203193],[-2.8779704,53.4244669]]],"type":"Polygon"},"id":"E02001372","properties":{"code":"E02001372","geography":"MSOA","name":"Liverpool 026"},"type":"Feature"},{"geometry":{"coordinates":[[[-2.9079013,53.4192433],[-2.9153115,53.4237019],[-2.9326732,53.4195303],[-2.922745,53.4067112],[-2.9208943,53.4101137],[-2.9143931,53.4101961],[-2.9115435,53.4139608],[-2.918431,53.4172788],[-2.9079013,53.4192433]]],"type":"Polygon"},"id":"E02001373","properties":{"code":"E02001373","geography":"MSOA","name":"Liverpool 027"},"type":"Feature"},{"geometry":{"coordinates":[[[-2.935838,53.4240714],[-2.9444683,53.4252466],[-2.9404855,53.4225066],[-2.9477907,53.4212471],[-2.9462663,53.4172502],[-2.9397632,53.4102902],[-2.9461365,53.4121096],[-2.945344,53.4081967],[-2.9438091,53.4037287],[-2.9218621,53.4051983],[-2.922745,53.4067112],[-2.9326732,53.4195303],[-2.935838,53.4240714]]],"type":"Polygon"},"id":"E02001374","properties":{"code":"E02001374","geography":"MSOA","name":"Liverpool 028"},"type":"Feature"},{"geometry":{"coordinates":[[[-2.9052324,53.4108652],[-2.8977861,53.4139595],[-2.9012851,53.4172503],[-2.8955875,53.4199962],[-2.8992207,53.4214818],[-2.9079013,53.4192433],[-2.918431,53.4172788],[-2.9115435,53.4139608],[-2.9143931,53.4101961],[-2.9052324,53.4108652]]],"type":"Polygon"},"id":"E02001375","properties":{"code":"E02001375","geography":"MSOA","name":"Liverpool 029"},"type":"Feature"},{"geometry":{"coordinates":[[[-2.945344,53.4081967],[-2.9461365,53.4121096],[-2.9397632,53.4102902],[-2.9462663,53.4172502],[-2.9625926,53.4141345],[-2.9582576,53.4114083],[-2.96134,53.4104643],[-2.9543864,53.4104376],[-2.9545203,53.4072975],[-2.945344,53.4081967]]],"type":"Polygon"},"id":"E02001376","properties":{"code":"E02001376","geography":"MSOA","name":"Liverpool 030"},"type":"Feature"},{"geometry":{"coordinates":[[[-2.945344,53.4081967],[-2.9545203,53.4072975],[-2.9543864,53.4104376],[-2.96134,53.4104643],[-2.9582576,53.4114083],[-2.9625926,53.4141345],[-2.9646479,53.4131142],[-2.9679347,53.4117514],[-2.9681429,53.4087232],[-2.9745997,53.4092765],[-2.9730901,53.4055108],[-2.9622087,53.4062229],[-2.9608289,53.4030254],[-2.9667287,53.4039534],[-2.9672039,53.4009394],[-2.9622946,53.4007312],[-2.9613966,53.3969752],[-2.95271,53.3983429],[-2.953162,53.4018316],[-2.9514066,53.3996574],[-2.9484163,53.4041172],[-2.9438091,53.4037287],[-2.945344,53.4081967]]],"type":"Polygon"},"id":"E02001377","properties":{"code":"E02001377","geography":"MSOA","name":"Liverpool 031"},"type":"Feature"},{"geometry":{"coordinates":[[[-2.9039401,53.4078201],[-2.9052324,53.4108652],[-2.9143931,53.4101961],[-2.9208943,53.4101137],[-2.922745,53.4067112],[-2.9218621,53.4051983],[-2.9215893,53.400598],[-2.9161549,53.3971924],[-2.9098924,53.3976397],[-2.9057221,53.4006913],[-2.9085815,53.4056355],[-2.9044524,53.4056693],[-2.9095462,53.4077647],[-2.9039401,53.4078201]]],"type":"Polygon"},"id":"E02001378","properties":{"code":"E02001378","geography":"MSOA","name":"Liverpool 032"},"type":"Feature"},{"geometry":{"coordinates":[[[-2.8812326,53.4069768],[-2.8905353,53.4068965],[-2.8923637,53.4109545],[-2.9039401,53.4078201],[-2.9095462,53.4077647],[-2.9044524,53.4056693],[-2.9085815,53.4056355],[-2.9057221,53.4006913],[-2.9098924,53.3976397],[-2.9011535,53.396853],[-2.8980297,53.4002624],[-2.8961324,53.3969145],[-2.8929397,53.3956172],[-2.8906213,53.3983702],[-2.8942035,53.3985403],[-2.8892579,53.3996978],[-2.8927607,53.4021036],[-2.8877112,53.4015912],[-2.8908066,53.4054191],[-2.8812326,53.4069768]]],"type":"Polygon"},"id":"E02001380","properties":{"code":"E02001380","geography":"MSOA","name":"Liverpool 034"},"type":"Feature"},{"geometry":{"coordinates":[[[-2.9215893,53.400598],[-2.9218621,53.4051983],[-2.9438091,53.4037287],[-2.9484163,53.4041172],[-2.9514066,53.3996574],[-2.953162,53.4018316],[-2.95271,53.3983429],[-2.9413955,53.3959375],[-2.9370197,53.3989689],[-2.9348072,53.3971063],[-2.9278738,53.4001873],[-2.9222121,53.3991772],[-2.9215893,53.400598]]],"type":"Polygon"},"id":"E02001381","properties":{"code":"E02001381","geography":"MSOA","name":"Liverpool 035"},"type":"Feature"},{"geometry":{"coordinates":[[[-2.8722856,53.400961],[-2.8812326,53.4069768],[-2.8908066,53.4054191],[-2.8877112,53.4015912],[-2.8927607,53.4021036],[-2.8892579,53.3996978],[-2.8942035,53.3985403],[-2.8906213,53.3983702],[-2.8929397,53.3956172],[-2.8961324,53.3969145],[-2.8950584,53.3919369],[-2.8808682,53.3946559],[-2.8756608,53.3965923],[-2.8810104,53.3999718],[-2.8714597,53.4000996],[-2.8722856,53.400961]]],"type":"Polygon"},"id":"E02001382","properties":{"code":"E02001382","geography":"MSOA","name":"Liverpool 036"},"type":"Feature"},{"geometry":{"coordinates":[[[-2.9672039,53.4009394],[-2.9701019,53.4021373],[-2.9751034,53.3976504],[-2.9775968,53.3995502],[-2.9832832,53.3971484],[-2.9807779,53.3928454],[-2.974722,53.391627],[-2.9709909,53.394489],[-2.9672278,53.3913399],[-2.9623568,53.3926324],[-2.9622475,53.3900119],[-2.9593096,53.3922976],[-2.9636869,53.3943856],[-2.9613966,53.3969752],[-2.9622946,53.4007312],[-2.9672039,53.4009394]]],"type":"Polygon"},"id":"E02001383","properties":{"code":"E02001383","geography":"MSOA","name":"Liverpool 037"},"type":"Feature"},{"geometry":{"coordinates":[[[-2.9222121,53.3991772],[-2.9278738,53.4001873],[-2.9348072,53.3971063],[-2.9370197,53.3989689],[-2.9413955,53.3959375],[-2.9373245,53.3946895],[-2.9399731,53.3933265],[-2.9390551,53.3926044],[-2.9284003,53.3880821],[-2.9232716,53.3900574],[-2.9222121,53.3991772]]],"type":"Polygon"},"id":"E02001384","properties":{"code":"E02001384","geography":"MSOA","name":"Liverpool 038"},"type":"Feature"},{"geometry":{"coordinates":[[[-2.9413955,53.3959375],[-2.95271,53.3983429],[-2.9613966,53.3969752],[-2.9636869,53.3943856],[-2.9593096,53.3922976],[-2.9449879,53.389961],[-2.9436432,53.3938404],[-2.9399731,53.3933265],[-2.9373245,53.3946895],[-2.9413955,53.3959375]]],"type":"Polygon"},"id":"E02001385","properties":{"code":"E02001385","geography":"MSOA","name":"Liverpool 039"},"type":"Feature"},{"geometry":{"coordinates":[[[-2.8479883,53.3969521],[-2.8562881,53.3949756],[-2.8714597,53.4000996],[-2.8810104,53.3999718],[-2.8756608,53.3965923],[-2.8567688,53.3823269],[-2.850316,53.3860453],[-2.8543999,53.3895323],[-2.8494259,53.3896007],[-2.8479883,53.3969521]]],"type":"Polygon"},"id":"E02001386","properties":{"code":"E02001386","geography":"MSOA","name":"Liverpool 040"},"type":"Feature"},{"geometry":{"coordinates":[[[-2.8961324,53.3969145],[-2.8980297,53.4002624],[-2.9011535,53.396853],[-2.9098924,53.3976397],[-2.9161549,53.3971924],[-2.9084931,53.3924245],[-2.9120269,53.3922309],[-2.9131634,53.3867308],[-2.9059437,53.3837783],[-2.8899544,53.3843326],[-2.8990903,53.3868559],[-2.8950584,53.3919369],[-2.8961324,53.3969145]]],"type":"Polygon"},"id":"E02001387","properties":{"code":"E02001387","geography":"MSOA","name":"Liverpool 041"},"type":"Feature"},{"geometry":{"coordinates":[[[-2.9161549,53.3971924],[-2.9215893,53.400598],[-2.9222121,53.3991772],[-2.9232716,53.3900574],[-2.9284003,53.3880821],[-2.9259054,53.3822473],[-2.9186651,53.3831139],[-2.9131634,53.3867308],[-2.9120269,53.3922309],[-2.9084931,53.3924245],[-2.9161549,53.3971924]]],"type":"Polygon"},"id":"E02001388","properties":{"code":"E02001388","geography":"MSOA","name":"Liverpool 042"},"type":"Feature"},{"geometry":{"coordinates":[[[-2.9399731,53.3933265],[-2.9436432,53.3938404],[-2.9449879,53.389961],[-2.9593096,53.3922976],[-2.9622475,53.3900119],[-2.9560209,53.381665],[-2.9506409,53.3796248],[-2.9390551,53.3926044],[-2.9399731,53.3933265]]],"type":"Polygon"},"id":"E02001389","properties":{"code":"E02001389","geography":"MSOA","name":"Liverpool 043"},"type":"Feature"},{"geometry":{"coordinates":[[[-2.9622475,53.3900119],[-2.9623568,53.3926324],[-2.9672278,53.3913399],[-2.9709909,53.394489],[-2.974722,53.391627],[-2.9738337,53.3883202],[-2.9799955,53.3873259],[-2.9716771,53.3811349],[-2.9698648,53.3831186],[-2.9666163,53.3804199],[-2.962296,53.3834945],[-2.9560209,53.381665],[-2.9622475,53.3900119]]],"type":"Polygon"},"id":"E02001390","properties":{"code":"E02001390","geography":"MSOA","name":"Liverpool 044"},"type":"Feature"},{"geometry":{"coordinates":[[[-2.824223,53.3800299],[-2.8228387,53.3822497],[-2.8336497,53.3889254],[-2.8373456,53.3998532],[-2.8479883,53.3969521],[-2.8494259,53.3896007],[-2.8543999,53.3895323],[-2.850316,53.3860453],[-2.8567688,53.3823269],[-2.8555559,53.3812916],[-2.8539055,53.3798436],[-2.8447624,53.3820427],[-2.824223,53.3800299]]],"type":"Polygon"},"id":"E02001391","properties":{"code":"E02001391","geography":"MSOA","name":"Liverpool 045"},"type":"Feature"},{"geometry":{"coordinates":[[[-2.8567688,53.3823269],[-2.8756608,53.3965923],[-2.8808682,53.3946559],[-2.8743951,53.391478],[-2.8788069,53.3871344],[-2.8744286,53.3887407],[-2.874193,53.386811],[-2.8845153,53.3837786],[-2.8776195,53.3789875],[-2.8555559,53.3812916],[-2.8567688,53.3823269]]],"type":"Polygon"},"id":"E02001392","properties":{"code":"E02001392","geography":"MSOA","name":"Liverpool 046"},"type":"Feature"},{"geometry":{"coordinates":[[[-2.8776195,53.3789875],[-2.8845153,53.3837786],[-2.874193,53.386811],[-2.8744286,53.3887407],[-2.8788069,53.3871344],[-2.8743951,53.391478],[-2.8808682,53.3946559],[-2.8950584,53.3919369],[-2.8990903,53.3868559],[-2.8899544,53.3843326],[-2.9059437,53.3837783],[-2.9035258,53.3772623],[-2.9012662,53.3752198],[-2.8928178,53.369696],[-2.889834,53.3706959],[-2.893032,53.3748732],[-2.8763089,53.3730183],[-2.8828911,53.3777696],[-2.8764633,53.376995],[-2.8776195,53.3789875]]],"type":"Polygon"},"id":"E02001393","properties":{"code":"E02001393","geography":"MSOA","name":"Liverpool 047"},"type":"Feature"},{"geometry":{"coordinates":[[[-2.9284003,53.3880821],[-2.9390551,53.3926044],[-2.9506409,53.3796248],[-2.9486805,53.3788813],[-2.939313,53.3830304],[-2.9303135,53.3771053],[-2.9328553,53.3711899],[-2.9300333,53.3697635],[-2.9257095,53.3749285],[-2.9153782,53.3792008],[-2.9186651,53.3831139],[-2.9259054,53.3822473],[-2.9284003,53.3880821]]],"type":"Polygon"},"id":"E02001394","properties":{"code":"E02001394","geography":"MSOA","name":"Liverpool 048"},"type":"Feature"},{"geometry":{"coordinates":[[[-2.9059437,53.3837783],[-2.9131634,53.3867308],[-2.9186651,53.3831139],[-2.9153782,53.3792008],[-2.9257095,53.3749285],[-2.9259318,53.3719168],[-2.9169925,53.3720236],[-2.9035258,53.3772623],[-2.9059437,53.3837783]]],"type":"Polygon"},"id":"E02001395","properties":{"code":"E02001395","geography":"MSOA","name":"Liverpool 049"},"type":"Feature"},{"geometry":{"coordinates":[[[-2.9560209,53.381665],[-2.962296,53.3834945],[-2.9666163,53.3804199],[-2.9698648,53.3831186],[-2.9716771,53.3811349],[-2.9799955,53.3873259],[-2.984973,53.386487],[-2.9692998,53.3757873],[-2.9679988,53.3753119],[-2.958443,53.3718195],[-2.9578106,53.3747802],[-2.9536793,53.3734764],[-2.9486805,53.3788813],[-2.9506409,53.3796248],[-2.9560209,53.381665]]],"type":"Polygon"},"id":"E02001396","properties":{"code":"E02001396","geography":"MSOA","name":"Liverpool 050"},"type":"Feature"},{"geometry":{"coordinates":[[[-2.8539055,53.3798436],[-2.8555559,53.3812916],[-2.8776195,53.3789875],[-2.8764633,53.376995],[-2.8828911,53.3777696],[-2.8763089,53.3730183],[-2.8739471,53.371384],[-2.865883,53.3742516],[-2.8607712,53.3709365],[-2.8524255,53.37221],[-2.8539055,53.3798436]]],"type":"Polygon"},"id":"E02001397","properties":{"code":"E02001397","geography":"MSOA","name":"Liverpool 051"},"type":"Feature"},{"geometry":{"coordinates":[[[-2.9328553,53.3711899],[-2.9303135,53.3771053],[-2.939313,53.3830304],[-2.9486805,53.3788813],[-2.9536793,53.3734764],[-2.9578106,53.3747802],[-2.958443,53.3718195],[-2.945736,53.3671735],[-2.9447696,53.3667615],[-2.9317124,53.3612083],[-2.930427,53.362005],[-2.9328553,53.3711899]]],"type":"Polygon"},"id":"E02001398","properties":{"code":"E02001398","geography":"MSOA","name":"Liverpool 052"},"type":"Feature"},{"geometry":{"coordinates":[[[-2.9012662,53.3752198],[-2.9035258,53.3772623],[-2.9169925,53.3720236],[-2.9259318,53.3719168],[-2.9257095,53.3749285],[-2.9300333,53.3697635],[-2.9262184,53.3677355],[-2.918142,53.3693792],[-2.9156054,53.3663283],[-2.911828,53.3677718],[-2.9032935,53.3612208],[-2.9004985,53.3631882],[-2.9046544,53.3695008],[-2.9012662,53.3752198]]],"type":"Polygon"},"id":"E02001399","properties":{"code":"E02001399","geography":"MSOA","name":"Liverpool 053"},"type":"Feature"},{"geometry":{"coordinates":[[[-2.8763089,53.3730183],[-2.893032,53.3748732],[-2.889834,53.3706959],[-2.8928178,53.369696],[-2.9012662,53.3752198],[-2.9046544,53.3695008],[-2.9004985,53.3631882],[-2.8912802,53.3596245],[-2.8757546,53.3531742],[-2.8718122,53.3603782],[-2.8739471,53.371384],[-2.8763089,53.3730183]]],"type":"Polygon"},"id":"E02001400","properties":{"code":"E02001400","geography":"MSOA","name":"Liverpool 054"},"type":"Feature"},{"geometry":{"coordinates":[[[-2.8524255,53.37221],[-2.8607712,53.3709365],[-2.865883,53.3742516],[-2.8739471,53.371384],[-2.8718122,53.3603782],[-2.8757546,53.3531742],[-2.8463109,53.3539909],[-2.8535961,53.3649244],[-2.8524255,53.37221]]],"type":"Polygon"},"id":"E02001401","properties":{"code":"E02001401","geography":"MSOA","name":"Liverpool 055"},"type":"Feature"},{"geometry":{"coordinates":[[[-2.9300333,53.3697635],[-2.9328553,53.3711899],[-2.930427,53.362005],[-2.9317124,53.3612083],[-2.9224109,53.3572506],[-2.9108242,53.3501111],[-2.9041799,53.3543259],[-2.9074223,53.3581522],[-2.9032935,53.3612208],[-2.911828,53.3677718],[-2.9156054,53.3663283],[-2.918142,53.3693792],[-2.9262184,53.3677355],[-2.9300333,53.3697635]]],"type":"Polygon"},"id":"E02001402","properties":{"code":"E02001402","geography":"MSOA","name":"Liverpool 056"},"type":"Feature"},{"geometry":{"coordinates":[[[-2.8912802,53.3596245],[-2.9004985,53.3631882],[-2.9032935,53.3612208],[-2.9074223,53.3581522],[-2.9041799,53.3543259],[-2.9108242,53.3501111],[-2.9103378,53.3498113],[-2.9098695,53.3495239],[-2.9027196,53.3460667],[-2.8956036,53.3426248],[-2.8932069,53.344069],[-2.8963212,53.3488703],[-2.8884808,53.3518932],[-2.8951056,53.3541996],[-2.8912802,53.3596245]]],"type":"Polygon"},"id":"E02001403","properties":{"code":"E02001403","geography":"MSOA","name":"Liverpool 057"},"type":"Feature"},{"geometry":{"coordinates":[[[-2.8757546,53.3531742],[-2.8912802,53.3596245],[-2.8951056,53.3541996],[-2.8884808,53.3518932],[-2.8963212,53.3488703],[-2.8932069,53.344069],[-2.8956036,53.3426248],[-2.8781586,53.3341828],[-2.8549728,53.3274558],[-2.8364103,53.3270022],[-2.826661,53.331641],[-2.8257568,53.3317982],[-2.8256792,53.3318117],[-2.8322681,53.337265],[-2.8521492,53.3392418],[-2.8494934,53.3483614],[-2.840489,53.3473853],[-2.8463109,53.3539909],[-2.8757546,53.3531742]]],"type":"Polygon"},"id":"E02001404","properties":{"code":"E02001404","geography":"MSOA","name":"Liverpool 058"},"type":"Feature"},{"geometry":{"coordinates":[[[-2.840489,53.3473853],[-2.8494934,53.3483614],[-2.8521492,53.3392418],[-2.8322681,53.337265],[-2.8187797,53.3397561],[-2.8184391,53.347992],[-2.840489,53.3473853]]],"type":"Polygon"},"id":"E02001405","properties":{"code":"E02001405","geography":"MSOA","name":"Liverpool 059"},"type":"Feature"},{"geometry":{"coordinates":[[[-2.9679347,53.4117514],[-2.971518,53.4133031],[-2.9824381,53.4094253],[-2.9855182,53.4127042],[-2.9898731,53.4109981],[-2.9853377,53.4092576],[-2.990051,53.4094138],[-2.9882982,53.4052709],[-2.9735861,53.4038797],[-2.9830728,53.4031273],[-2.9775968,53.3995502],[-2.9751034,53.3976504],[-2.9701019,53.4021373],[-2.9672039,53.4009394],[-2.9667287,53.4039534],[-2.9608289,53.4030254],[-2.9622087,53.4062229],[-2.9730901,53.4055108],[-2.9745997,53.4092765],[-2.9681429,53.4087232],[-2.9679347,53.4117514]]],"type":"Polygon"},"id":"E02006932","properties":{"code":"E02006932","geography":"MSOA","name":"Liverpool 060"},"type":"Feature"},{"geometry":{"coordinates":[[[-2.9775968,53.3995502],[-2.9830728,53.4031273],[-2.9735861,53.4038797],[-2.9882982,53.4052709],[-2.9953419,53.4013331],[-2.995061,53.4009089],[-2.984973,53.386487],[-2.9799955,53.3873259],[-2.9738337,53.3883202],[-2.974722,53.391627],[-2.9807779,53.3928454],[-2.9832832,53.3971484],[-2.9775968,53.3995502]]],"type":"Polygon"},"id":"E02006933","properties":{"code":"E02006933","geography":"MSOA","name":"Liverpool 061"},"type":"Feature"},{"geometry":{"coordinates":[[[-2.9823376,53.4150013],[-2.9846409,53.4170666],[-3.003142,53.4164236],[-3.001945,53.4117421],[-3.0017634,53.411032],[-2.9959784,53.4022947],[-2.9953419,53.4013331],[-2.9882982,53.4052709],[-2.990051,53.4094138],[-2.9853377,53.4092576],[-2.9898731,53.4109981],[-2.9855182,53.4127042],[-2.9823376,53.4150013]]],"type":"Polygon"},"id":"E02006934","properties":{"code":"E02006934","geography":"MSOA","name":"Liverpool 062"},"type":"Feature"}],"type":"FeatureCollection"}
