{"features":[{"geometry":{"coordinates":[[[-1.9354988,52.6597053],[-1.9454082,52.6562824],[-1.9545757,52.6626251],[-1.9599516,52.662021],[-1.9550801,52.654121],[-1.9605584,52.6536958],[-1.9602869,52.6441471],[-1.9639983,52.6417615],[-1.9571364,52.6406496],[-1.9605694,52.6337728],[-1.9638537,52.6234213],[-1.9489306,52.6325719],[-1.9478834,52.637195],[-1.9341712,52.6371489],[-1.9404734,52.6420925],[-1.9334296,52.644544],[-1.9304698,52.6429634],[-1.9318631,52.6477566],[-1.9281158,52.649769],[-1.9364877,52.6493946],[-1.9373068,52.6538659],[-1.9306243,52.655819],[-1.9354988,52.6597053]]],"type":"Polygon"},"id":"E02002110","properties":{"code":"E02002110","geography":"MSOA","name":"Walsall 001"},"type":"Feature"},{"geometry":{"coordinates":[[[-1.9223962,52.6560301],[-1.9335755,52.6615937],[-1.9354988,52.6597053],[-1.9306243,52.655819],[-1.9373068,52.6538659],[-1.9364877,52.6493946],[-1.9281158,52.649769],[-1.9318631,52.6477566],[-1.9304698,52.6429634],[-1.9334296,52.644544],[-1.9404734,52.6420925],[-1.9341712,52.6371489],[-1.9215591,52.6425842],[-1.9180214,52.6498789],[-1.9086665,52.6539837],[-1.9128489,52.6582174],[-1.9223962,52.6560301]]],"type":"Polygon"},"id":"E02002111","properties":{"code":"E02002111","geography":"MSOA","name":"Walsall 002"},"type":"Feature"},{"geometry":{"coordinates":[[[-1.9605694,52.6337728],[-1.9571364,52.6406496],[-1.9639983,52.6417615],[-1.9865566,52.6403932],[-1.9908619,52.6366557],[-1.984746,52.6253696],[-1.9605694,52.6337728]]],"type":"Polygon"},"id":"E02002112","properties":{"code":"E02002112","geography":"MSOA","name":"Walsall 003"},"type":"Feature"},{"geometry":{"coordinates":[[[-1.9050903,52.6431914],[-1.9180214,52.6498789],[-1.9215591,52.6425842],[-1.9341712,52.6371489],[-1.9478834,52.637195],[-1.9489306,52.6325719],[-1.9638537,52.6234213],[-1.9616194,52.6231257],[-1.9462935,52.6251371],[-1.9430723,52.6202151],[-1.9359619,52.6219413],[-1.9259724,52.6264217],[-1.9211534,52.6251639],[-1.9252327,52.6336945],[-1.9159821,52.635275],[-1.9050903,52.6431914]]],"type":"Polygon"},"id":"E02002113","properties":{"code":"E02002113","geography":"MSOA","name":"Walsall 004"},"type":"Feature"},{"geometry":{"coordinates":[[[-1.9638537,52.6234213],[-1.9605694,52.6337728],[-1.984746,52.6253696],[-1.9798383,52.6240004],[-1.9708384,52.6165419],[-1.9669866,52.6120454],[-1.9660378,52.6166293],[-1.9561583,52.6179821],[-1.9616194,52.6231257],[-1.9638537,52.6234213]]],"type":"Polygon"},"id":"E02002114","properties":{"code":"E02002114","geography":"MSOA","name":"Walsall 005"},"type":"Feature"},{"geometry":{"coordinates":[[[-1.9908619,52.6366557],[-1.9957422,52.6383047],[-2.0100236,52.6346005],[-2.0043918,52.6280878],[-2.0042404,52.6194674],[-1.9985831,52.6208422],[-1.9969334,52.6162716],[-1.9837093,52.6199119],[-1.9798383,52.6240004],[-1.984746,52.6253696],[-1.9908619,52.6366557]]],"type":"Polygon"},"id":"E02002115","properties":{"code":"E02002115","geography":"MSOA","name":"Walsall 006"},"type":"Feature"},{"geometry":{"coordinates":[[[-1.8943345,52.6226463],[-1.9159821,52.635275],[-1.9252327,52.6336945],[-1.9211534,52.6251639],[-1.9259724,52.6264217],[-1.9359619,52.6219413],[-1.9346026,52.6198697],[-1.9217645,52.6203229],[-1.9148051,52.6159303],[-1.9141133,52.6109189],[-1.8943345,52.6226463]]],"type":"Polygon"},"id":"E02002116","properties":{"code":"E02002116","geography":"MSOA","name":"Walsall 007"},"type":"Feature"},{"geometry":{"coordinates":[[[-2.0042404,52.6194674],[-2.0043918,52.6280878],[-2.0100236,52.6346005],[-2.0188892,52.6285544],[-2.0133437,52.6264257],[-2.0091734,52.6173987],[-2.0182574,52.6180719],[-2.0162495,52.6126169],[-2.0255592,52.612301],[-2.0226853,52.6093143],[-2.008616,52.6135206],[-2.0066759,52.6099854],[-2.0033625,52.613196],[-2.0042404,52.6194674]]],"type":"Polygon"},"id":"E02002117","properties":{"code":"E02002117","geography":"MSOA","name":"Walsall 008"},"type":"Feature"},{"geometry":{"coordinates":[[[-2.0255592,52.612301],[-2.0162495,52.6126169],[-2.0182574,52.6180719],[-2.0091734,52.6173987],[-2.0133437,52.6264257],[-2.0188892,52.6285544],[-2.0355148,52.6217837],[-2.0301293,52.6169384],[-2.0255592,52.612301]]],"type":"Polygon"},"id":"E02002118","properties":{"code":"E02002118","geography":"MSOA","name":"Walsall 009"},"type":"Feature"},{"geometry":{"coordinates":[[[-1.9430723,52.6202151],[-1.9462935,52.6251371],[-1.9616194,52.6231257],[-1.9561583,52.6179821],[-1.9660378,52.6166293],[-1.9669866,52.6120454],[-1.9674339,52.6099793],[-1.9598778,52.6087962],[-1.9614419,52.613074],[-1.9568101,52.6096025],[-1.9430723,52.6202151]]],"type":"Polygon"},"id":"E02002119","properties":{"code":"E02002119","geography":"MSOA","name":"Walsall 010"},"type":"Feature"},{"geometry":{"coordinates":[[[-2.0336981,52.617871],[-2.0507241,52.6205067],[-2.0508736,52.6093292],[-2.0524046,52.6048878],[-2.0482883,52.606479],[-2.0437158,52.6124106],[-2.0324873,52.6141987],[-2.0336981,52.617871]]],"type":"Polygon"},"id":"E02002120","properties":{"code":"E02002120","geography":"MSOA","name":"Walsall 011"},"type":"Feature"},{"geometry":{"coordinates":[[[-1.9837093,52.6199119],[-1.9969334,52.6162716],[-1.9985831,52.6208422],[-2.0042404,52.6194674],[-2.0033625,52.613196],[-1.9924283,52.6058745],[-1.9938137,52.6084362],[-1.9870369,52.6100431],[-1.9933948,52.6101387],[-1.9900911,52.6140725],[-1.9856451,52.6115398],[-1.9806896,52.6163576],[-1.9837093,52.6199119]]],"type":"Polygon"},"id":"E02002121","properties":{"code":"E02002121","geography":"MSOA","name":"Walsall 012"},"type":"Feature"},{"geometry":{"coordinates":[[[-1.9708384,52.6165419],[-1.9798383,52.6240004],[-1.9837093,52.6199119],[-1.9806896,52.6163576],[-1.9856451,52.6115398],[-1.9900911,52.6140725],[-1.9933948,52.6101387],[-1.9870369,52.6100431],[-1.9938137,52.6084362],[-1.9924283,52.6058745],[-1.9889868,52.600612],[-1.9773787,52.6066095],[-1.9809052,52.6131005],[-1.9765097,52.6118687],[-1.9766646,52.6147752],[-1.9708384,52.6165419]]],"type":"Polygon"},"id":"E02002122","properties":{"code":"E02002122","geography":"MSOA","name":"Walsall 013"},"type":"Feature"},{"geometry":{"coordinates":[[[-2.0301293,52.6169384],[-2.0336981,52.617871],[-2.0324873,52.6141987],[-2.0437158,52.6124106],[-2.0482883,52.606479],[-2.0420523,52.6025837],[-2.0372861,52.6055582],[-2.0226853,52.6093143],[-2.0255592,52.612301],[-2.0301293,52.6169384]]],"type":"Polygon"},"id":"E02002123","properties":{"code":"E02002123","geography":"MSOA","name":"Walsall 014"},"type":"Feature"},{"geometry":{"coordinates":[[[-1.8903952,52.5982741],[-1.8851493,52.6126553],[-1.8943345,52.6226463],[-1.9141133,52.6109189],[-1.9148051,52.6159303],[-1.9217645,52.6203229],[-1.9346026,52.6198697],[-1.9359619,52.6219413],[-1.9266432,52.6069313],[-1.9370166,52.6026951],[-1.9380092,52.5990262],[-1.9249393,52.5996009],[-1.9178493,52.6040084],[-1.9136741,52.6010656],[-1.8923708,52.5990056],[-1.8903952,52.5982741]]],"type":"Polygon"},"id":"E02002124","properties":{"code":"E02002124","geography":"MSOA","name":"Walsall 015"},"type":"Feature"},{"geometry":{"coordinates":[[[-1.9370166,52.6026951],[-1.9266432,52.6069313],[-1.9359619,52.6219413],[-1.9430723,52.6202151],[-1.9568101,52.6096025],[-1.9614419,52.613074],[-1.9598778,52.6087962],[-1.9674339,52.6099793],[-1.9709042,52.6006179],[-1.9523842,52.598838],[-1.9370166,52.6026951]]],"type":"Polygon"},"id":"E02002125","properties":{"code":"E02002125","geography":"MSOA","name":"Walsall 016"},"type":"Feature"},{"geometry":{"coordinates":[[[-2.0033625,52.613196],[-2.0066759,52.6099854],[-2.008616,52.6135206],[-2.0226853,52.6093143],[-2.017651,52.6020978],[-2.0057153,52.6035457],[-2.0021634,52.5992135],[-1.9987258,52.6020199],[-1.9967789,52.5989484],[-1.9889868,52.600612],[-1.9924283,52.6058745],[-2.0033625,52.613196]]],"type":"Polygon"},"id":"E02002126","properties":{"code":"E02002126","geography":"MSOA","name":"Walsall 017"},"type":"Feature"},{"geometry":{"coordinates":[[[-1.9669866,52.6120454],[-1.9708384,52.6165419],[-1.9766646,52.6147752],[-1.9765097,52.6118687],[-1.9809052,52.6131005],[-1.9773787,52.6066095],[-1.9889868,52.600612],[-1.9967789,52.5989484],[-1.9914461,52.5928999],[-1.9803033,52.591533],[-1.9709042,52.6006179],[-1.9674339,52.6099793],[-1.9669866,52.6120454]]],"type":"Polygon"},"id":"E02002127","properties":{"code":"E02002127","geography":"MSOA","name":"Walsall 018"},"type":"Feature"},{"geometry":{"coordinates":[[[-2.017651,52.6020978],[-2.0226853,52.6093143],[-2.0372861,52.6055582],[-2.0385405,52.5981889],[-2.0451057,52.5997076],[-2.0450693,52.5971263],[-2.0358343,52.5935977],[-2.0329169,52.5967926],[-2.0321319,52.5938509],[-2.0154994,52.5961993],[-2.017651,52.6020978]]],"type":"Polygon"},"id":"E02002128","properties":{"code":"E02002128","geography":"MSOA","name":"Walsall 019"},"type":"Feature"},{"geometry":{"coordinates":[[[-2.0372861,52.6055582],[-2.0420523,52.6025837],[-2.0482883,52.606479],[-2.0524046,52.6048878],[-2.0570005,52.5982596],[-2.0629172,52.5976615],[-2.0617096,52.5946136],[-2.0438838,52.5905121],[-2.0354075,52.5929747],[-2.0321319,52.5938509],[-2.0329169,52.5967926],[-2.0358343,52.5935977],[-2.0450693,52.5971263],[-2.0451057,52.5997076],[-2.0385405,52.5981889],[-2.0372861,52.6055582]]],"type":"Polygon"},"id":"E02002129","properties":{"code":"E02002129","geography":"MSOA","name":"Walsall 020"},"type":"Feature"},{"geometry":{"coordinates":[[[-1.9967789,52.5989484],[-1.9987258,52.6020199],[-2.0021634,52.5992135],[-2.0057153,52.6035457],[-2.017651,52.6020978],[-2.0154994,52.5961993],[-2.0147684,52.5913455],[-2.0025094,52.5915175],[-1.9968224,52.5888319],[-1.9948339,52.5950154],[-1.9967789,52.5989484]]],"type":"Polygon"},"id":"E02002130","properties":{"code":"E02002130","geography":"MSOA","name":"Walsall 021"},"type":"Feature"},{"geometry":{"coordinates":[[[-1.8923708,52.5990056],[-1.9136741,52.6010656],[-1.9178493,52.6040084],[-1.9249393,52.5996009],[-1.9380092,52.5990262],[-1.9370166,52.6026951],[-1.9523842,52.598838],[-1.940764,52.587612],[-1.9393031,52.5822643],[-1.9130845,52.5808582],[-1.9099634,52.5740802],[-1.899095,52.5768268],[-1.9037226,52.5814419],[-1.8940843,52.5824272],[-1.8955339,52.5801305],[-1.8880018,52.5873206],[-1.8941049,52.5904407],[-1.8923708,52.5990056]]],"type":"Polygon"},"id":"E02002131","properties":{"code":"E02002131","geography":"MSOA","name":"Walsall 022"},"type":"Feature"},{"geometry":{"coordinates":[[[-2.0147684,52.5913455],[-2.0154994,52.5961993],[-2.0321319,52.5938509],[-2.0354075,52.5929747],[-2.0317916,52.5855635],[-2.0142783,52.5847629],[-2.0147684,52.5913455]]],"type":"Polygon"},"id":"E02002132","properties":{"code":"E02002132","geography":"MSOA","name":"Walsall 023"},"type":"Feature"},{"geometry":{"coordinates":[[[-1.9523842,52.598838],[-1.9709042,52.6006179],[-1.9803033,52.591533],[-1.9830571,52.585745],[-1.9718643,52.5841312],[-1.9656533,52.5886764],[-1.9582396,52.5835785],[-1.9488378,52.5832718],[-1.940764,52.587612],[-1.9523842,52.598838]]],"type":"Polygon"},"id":"E02002133","properties":{"code":"E02002133","geography":"MSOA","name":"Walsall 024"},"type":"Feature"},{"geometry":{"coordinates":[[[-2.0438838,52.5905121],[-2.0617096,52.5946136],[-2.0629172,52.5976615],[-2.077799,52.5861122],[-2.0744273,52.5849764],[-2.0601637,52.5788507],[-2.0532748,52.5810338],[-2.0623269,52.5833113],[-2.0607323,52.5857546],[-2.0487077,52.5869702],[-2.0508158,52.5839012],[-2.0418152,52.5841219],[-2.0396224,52.5892448],[-2.0438838,52.5905121]]],"type":"Polygon"},"id":"E02002134","properties":{"code":"E02002134","geography":"MSOA","name":"Walsall 025"},"type":"Feature"},{"geometry":{"coordinates":[[[-1.9912203,52.5791266],[-1.983953,52.5852453],[-1.9931423,52.5863536],[-1.9948339,52.5950154],[-1.9968224,52.5888319],[-2.0025094,52.5915175],[-2.0147684,52.5913455],[-2.0142783,52.5847629],[-2.0139797,52.5805242],[-2.0075329,52.5769195],[-2.0030464,52.5841933],[-1.9924088,52.5772786],[-1.9912203,52.5791266]]],"type":"Polygon"},"id":"E02002135","properties":{"code":"E02002135","geography":"MSOA","name":"Walsall 026"},"type":"Feature"},{"geometry":{"coordinates":[[[-2.0317916,52.5855635],[-2.0354075,52.5929747],[-2.0438838,52.5905121],[-2.0396224,52.5892448],[-2.0418152,52.5841219],[-2.0508158,52.5839012],[-2.0487077,52.5869702],[-2.0607323,52.5857546],[-2.0623269,52.5833113],[-2.0532748,52.5810338],[-2.0601637,52.5788507],[-2.0551711,52.5765591],[-2.0581697,52.574731],[-2.0500275,52.5721249],[-2.0496057,52.5724301],[-2.0357432,52.5799937],[-2.0298299,52.5816536],[-2.0317916,52.5855635]]],"type":"Polygon"},"id":"E02002136","properties":{"code":"E02002136","geography":"MSOA","name":"Walsall 027"},"type":"Feature"},{"geometry":{"coordinates":[[[-1.8903952,52.5982741],[-1.8923708,52.5990056],[-1.8941049,52.5904407],[-1.8880018,52.5873206],[-1.8955339,52.5801305],[-1.8896377,52.5720827],[-1.8897664,52.5751769],[-1.8821655,52.5730391],[-1.8839473,52.5773655],[-1.8765523,52.5785251],[-1.8725712,52.584929],[-1.8903952,52.5982741]]],"type":"Polygon"},"id":"E02002137","properties":{"code":"E02002137","geography":"MSOA","name":"Walsall 028"},"type":"Feature"},{"geometry":{"coordinates":[[[-1.9488378,52.5832718],[-1.9582396,52.5835785],[-1.9656533,52.5886764],[-1.9718643,52.5841312],[-1.9735234,52.5795276],[-1.9632068,52.5732862],[-1.948318,52.5761698],[-1.9488378,52.5832718]]],"type":"Polygon"},"id":"E02002138","properties":{"code":"E02002138","geography":"MSOA","name":"Walsall 029"},"type":"Feature"},{"geometry":{"coordinates":[[[-1.9803033,52.591533],[-1.9914461,52.5928999],[-1.9967789,52.5989484],[-1.9948339,52.5950154],[-1.9931423,52.5863536],[-1.983953,52.5852453],[-1.9912203,52.5791266],[-1.9767502,52.5722439],[-1.9714406,52.5682657],[-1.9653789,52.5706172],[-1.9632068,52.5732862],[-1.9735234,52.5795276],[-1.9718643,52.5841312],[-1.9830571,52.585745],[-1.9803033,52.591533]]],"type":"Polygon"},"id":"E02002139","properties":{"code":"E02002139","geography":"MSOA","name":"Walsall 030"},"type":"Feature"},{"geometry":{"coordinates":[[[-1.9924088,52.5772786],[-2.0030464,52.5841933],[-2.0075329,52.5769195],[-2.0139797,52.5805242],[-2.0186179,52.5744211],[-2.0110381,52.5690209],[-1.9998234,52.5651811],[-1.9924088,52.5772786]]],"type":"Polygon"},"id":"E02002140","properties":{"code":"E02002140","geography":"MSOA","name":"Walsall 031"},"type":"Feature"},{"geometry":{"coordinates":[[[-1.8955339,52.5801305],[-1.8940843,52.5824272],[-1.9037226,52.5814419],[-1.899095,52.5768268],[-1.9099634,52.5740802],[-1.9078201,52.568913],[-1.8932488,52.5613702],[-1.8916538,52.5624617],[-1.8798012,52.5688871],[-1.8765523,52.5785251],[-1.8839473,52.5773655],[-1.8821655,52.5730391],[-1.8897664,52.5751769],[-1.8896377,52.5720827],[-1.8955339,52.5801305]]],"type":"Polygon"},"id":"E02002141","properties":{"code":"E02002141","geography":"MSOA","name":"Walsall 032"},"type":"Feature"},{"geometry":{"coordinates":[[[-2.0142783,52.5847629],[-2.0317916,52.5855635],[-2.0298299,52.5816536],[-2.0357432,52.5799937],[-2.0344537,52.5722204],[-2.0389854,52.5691481],[-2.0357536,52.5666957],[-2.0299288,52.5681339],[-2.0271245,52.5646017],[-2.0110381,52.5690209],[-2.0186179,52.5744211],[-2.0139797,52.5805242],[-2.0142783,52.5847629]]],"type":"Polygon"},"id":"E02002142","properties":{"code":"E02002142","geography":"MSOA","name":"Walsall 033"},"type":"Feature"},{"geometry":{"coordinates":[[[-1.9767502,52.5722439],[-1.9912203,52.5791266],[-1.9924088,52.5772786],[-1.9998234,52.5651811],[-1.9866136,52.5614751],[-1.9767502,52.5722439]]],"type":"Polygon"},"id":"E02002143","properties":{"code":"E02002143","geography":"MSOA","name":"Walsall 034"},"type":"Feature"},{"geometry":{"coordinates":[[[-1.9325654,52.5593717],[-1.9389255,52.5691614],[-1.9376357,52.5767783],[-1.948318,52.5761698],[-1.9632068,52.5732862],[-1.9653789,52.5706172],[-1.9523145,52.5646048],[-1.9540236,52.562182],[-1.9527544,52.5570987],[-1.9403442,52.5610011],[-1.9325654,52.5593717]]],"type":"Polygon"},"id":"E02002144","properties":{"code":"E02002144","geography":"MSOA","name":"Walsall 035"},"type":"Feature"},{"geometry":{"coordinates":[[[-2.0271245,52.5646017],[-2.0299288,52.5681339],[-2.0357536,52.5666957],[-2.0389854,52.5691481],[-2.0344537,52.5722204],[-2.0357432,52.5799937],[-2.0496057,52.5724301],[-2.0406197,52.5706964],[-2.0406448,52.5683143],[-2.0444752,52.5688628],[-2.0332257,52.5593107],[-2.0297338,52.5608169],[-2.0254428,52.5622448],[-2.0271245,52.5646017]]],"type":"Polygon"},"id":"E02002145","properties":{"code":"E02002145","geography":"MSOA","name":"Walsall 036"},"type":"Feature"},{"geometry":{"coordinates":[[[-1.9653789,52.5706172],[-1.9714406,52.5682657],[-1.9767502,52.5722439],[-1.9866136,52.5614751],[-1.9778743,52.5576338],[-1.9755021,52.5555452],[-1.9744794,52.5590252],[-1.9671201,52.5594653],[-1.9641404,52.5631668],[-1.9540236,52.562182],[-1.9523145,52.5646048],[-1.9653789,52.5706172]]],"type":"Polygon"},"id":"E02002146","properties":{"code":"E02002146","geography":"MSOA","name":"Walsall 037"},"type":"Feature"},{"geometry":{"coordinates":[[[-2.0332257,52.5593107],[-2.0444752,52.5688628],[-2.0406448,52.5683143],[-2.0406197,52.5706964],[-2.0496057,52.5724301],[-2.0500275,52.5721249],[-2.0578328,52.5598484],[-2.0619579,52.5582335],[-2.0509875,52.5527137],[-2.0412019,52.5542394],[-2.0332257,52.5593107]]],"type":"Polygon"},"id":"E02002147","properties":{"code":"E02002147","geography":"MSOA","name":"Walsall 038"},"type":"Feature"},{"geometry":{"coordinates":[[[-1.9099634,52.5740802],[-1.9130845,52.5808582],[-1.9393031,52.5822643],[-1.940764,52.587612],[-1.9488378,52.5832718],[-1.948318,52.5761698],[-1.9376357,52.5767783],[-1.9389255,52.5691614],[-1.9325654,52.5593717],[-1.9329571,52.553808],[-1.9181631,52.547291],[-1.9018043,52.5543369],[-1.8932488,52.5613702],[-1.9078201,52.568913],[-1.9099634,52.5740802]]],"type":"Polygon"},"id":"E02002148","properties":{"code":"E02002148","geography":"MSOA","name":"Walsall 039"},"type":"Feature"}],"type":"FeatureCollection"}
