{"features":[{"geometry":{"coordinates":[[[-2.209304,53.5392663],[-2.2190591,53.5438927],[-2.2369391,53.538817],[-2.2429803,53.5340266],[-2.2327691,53.5306065],[-2.2302919,53.5248287],[-2.2223298,53.5282247],[-2.2258201,53.5315319],[-2.2229388,53.5328385],[-2.2067453,53.5340614],[-2.209304,53.5392663]]],"type":"Polygon"},"id":"E02001045","properties":{"code":"E02001045","geography":"MSOA","name":"Manchester 001"},"type":"Feature"},{"geometry":{"coordinates":[[[-2.2002451,53.5317094],[-2.2067453,53.5340614],[-2.2229388,53.5328385],[-2.2258201,53.5315319],[-2.2223298,53.5282247],[-2.2302919,53.5248287],[-2.2306603,53.5222709],[-2.2254617,53.5225092],[-2.2211764,53.5181174],[-2.2131938,53.5184474],[-2.2143079,53.5205018],[-2.2084936,53.5189357],[-2.1926151,53.5267061],[-2.1998828,53.5239827],[-2.1995411,53.5284529],[-2.2046571,53.5288162],[-2.2002451,53.5317094]]],"type":"Polygon"},"id":"E02001046","properties":{"code":"E02001046","geography":"MSOA","name":"Manchester 002"},"type":"Feature"},{"geometry":{"coordinates":[[[-2.1859244,53.5290417],[-2.2002451,53.5317094],[-2.2046571,53.5288162],[-2.1995411,53.5284529],[-2.1998828,53.5239827],[-2.1926151,53.5267061],[-2.2084936,53.5189357],[-2.2026708,53.5180244],[-2.1856251,53.5206506],[-2.1850656,53.518758],[-2.1798415,53.5186865],[-2.1771309,53.5232657],[-2.1647745,53.5201402],[-2.1704839,53.5277237],[-2.1859244,53.5290417]]],"type":"Polygon"},"id":"E02001047","properties":{"code":"E02001047","geography":"MSOA","name":"Manchester 003"},"type":"Feature"},{"geometry":{"coordinates":[[[-2.2372303,53.5387877],[-2.2516729,53.544588],[-2.2677326,53.5379424],[-2.2640731,53.5246941],[-2.2465331,53.5292763],[-2.2569275,53.5179235],[-2.2499267,53.5160584],[-2.2532404,53.5193875],[-2.2359824,53.5183883],[-2.2306603,53.5222709],[-2.2302919,53.5248287],[-2.2327691,53.5306065],[-2.2429803,53.5340266],[-2.2369391,53.538817],[-2.2372303,53.5387877]]],"type":"Polygon"},"id":"E02001048","properties":{"code":"E02001048","geography":"MSOA","name":"Manchester 004"},"type":"Feature"},{"geometry":{"coordinates":[[[-2.1647745,53.5201402],[-2.1771309,53.5232657],[-2.1798415,53.5186865],[-2.1850656,53.518758],[-2.1883576,53.5116776],[-2.1835943,53.5076125],[-2.1783465,53.5067629],[-2.1734331,53.5122963],[-2.1607008,53.5129236],[-2.1562308,53.5158002],[-2.1591369,53.5221522],[-2.1647745,53.5201402]]],"type":"Polygon"},"id":"E02001049","properties":{"code":"E02001049","geography":"MSOA","name":"Manchester 005"},"type":"Feature"},{"geometry":{"coordinates":[[[-2.2084936,53.5189357],[-2.2143079,53.5205018],[-2.2131938,53.5184474],[-2.2211764,53.5181174],[-2.2254617,53.5225092],[-2.2306603,53.5222709],[-2.2359824,53.5183883],[-2.2272168,53.5164935],[-2.2261946,53.5114619],[-2.2219877,53.5121769],[-2.2128773,53.5081065],[-2.2038193,53.5149285],[-2.2026708,53.5180244],[-2.2084936,53.5189357]]],"type":"Polygon"},"id":"E02001050","properties":{"code":"E02001050","geography":"MSOA","name":"Manchester 006"},"type":"Feature"},{"geometry":{"coordinates":[[[-2.1850656,53.518758],[-2.1856251,53.5206506],[-2.2026708,53.5180244],[-2.2038193,53.5149285],[-2.2014575,53.5076733],[-2.1949861,53.5069619],[-2.1906863,53.509713],[-2.1837992,53.5074894],[-2.1835943,53.5076125],[-2.1883576,53.5116776],[-2.1850656,53.518758]]],"type":"Polygon"},"id":"E02001051","properties":{"code":"E02001051","geography":"MSOA","name":"Manchester 007"},"type":"Feature"},{"geometry":{"coordinates":[[[-2.2359824,53.5183883],[-2.2532404,53.5193875],[-2.2499267,53.5160584],[-2.2451853,53.5120776],[-2.2401644,53.5047529],[-2.2313541,53.5063646],[-2.2311339,53.50134],[-2.2234265,53.5023273],[-2.2219877,53.5121769],[-2.2261946,53.5114619],[-2.2272168,53.5164935],[-2.2359824,53.5183883]]],"type":"Polygon"},"id":"E02001052","properties":{"code":"E02001052","geography":"MSOA","name":"Manchester 008"},"type":"Feature"},{"geometry":{"coordinates":[[[-2.1837992,53.5074894],[-2.1906863,53.509713],[-2.1949861,53.5069619],[-2.2014575,53.5076733],[-2.2038193,53.5149285],[-2.2128773,53.5081065],[-2.2219877,53.5121769],[-2.2234265,53.5023273],[-2.2185662,53.5024257],[-2.2218096,53.4964514],[-2.2174599,53.4945218],[-2.2120998,53.4967461],[-2.1837992,53.5074894]]],"type":"Polygon"},"id":"E02001053","properties":{"code":"E02001053","geography":"MSOA","name":"Manchester 009"},"type":"Feature"},{"geometry":{"coordinates":[[[-2.1783465,53.5067629],[-2.1835943,53.5076125],[-2.1837992,53.5074894],[-2.2120998,53.4967461],[-2.2030865,53.4905767],[-2.1995297,53.4882789],[-2.1857827,53.4908258],[-2.1822052,53.4930215],[-2.1870191,53.4958858],[-2.190655,53.4945207],[-2.1906478,53.4983417],[-2.1870611,53.496294],[-2.1842053,53.4987304],[-2.1768246,53.4977229],[-2.1660158,53.4915785],[-2.1630557,53.4928501],[-2.1618389,53.4983045],[-2.1687543,53.5010463],[-2.1783465,53.5067629]]],"type":"Polygon"},"id":"E02001055","properties":{"code":"E02001055","geography":"MSOA","name":"Manchester 011"},"type":"Feature"},{"geometry":{"coordinates":[[[-2.1660158,53.4915785],[-2.1768246,53.4977229],[-2.1842053,53.4987304],[-2.1870611,53.496294],[-2.1906478,53.4983417],[-2.190655,53.4945207],[-2.1870191,53.4958858],[-2.1822052,53.4930215],[-2.1857827,53.4908258],[-2.1870654,53.4871343],[-2.1774514,53.4843466],[-2.182991,53.4830966],[-2.1798352,53.4815913],[-2.1867005,53.4822189],[-2.1731705,53.4798878],[-2.1660055,53.4786659],[-2.1696497,53.4867746],[-2.1660158,53.4915785]]],"type":"Polygon"},"id":"E02001056","properties":{"code":"E02001056","geography":"MSOA","name":"Manchester 012"},"type":"Feature"},{"geometry":{"coordinates":[[[-2.1731705,53.4798878],[-2.1867005,53.4822189],[-2.1798352,53.4815913],[-2.182991,53.4830966],[-2.1774514,53.4843466],[-2.1870654,53.4871343],[-2.1857827,53.4908258],[-2.1995297,53.4882789],[-2.2030865,53.4905767],[-2.2052266,53.4893733],[-2.2014167,53.482276],[-2.2064331,53.4819618],[-2.2097303,53.4749908],[-2.1984553,53.4717321],[-2.1805346,53.4696391],[-2.1794688,53.4733495],[-2.1735906,53.47272],[-2.1731705,53.4798878]]],"type":"Polygon"},"id":"E02001059","properties":{"code":"E02001059","geography":"MSOA","name":"Manchester 015"},"type":"Feature"},{"geometry":{"coordinates":[[[-2.1660055,53.4786659],[-2.1731705,53.4798878],[-2.1735906,53.47272],[-2.1794688,53.4733495],[-2.1805346,53.4696391],[-2.1745745,53.4645518],[-2.1790992,53.4653559],[-2.1792411,53.4622221],[-2.1701913,53.4605295],[-2.1718064,53.4641497],[-2.1637055,53.4663313],[-2.1661509,53.4691292],[-2.1498952,53.4708968],[-2.1504736,53.4725707],[-2.1566852,53.4752687],[-2.1614984,53.4748754],[-2.1660055,53.4786659]]],"type":"Polygon"},"id":"E02001061","properties":{"code":"E02001061","geography":"MSOA","name":"Manchester 017"},"type":"Feature"},{"geometry":{"coordinates":[[[-2.2097303,53.4749908],[-2.2168617,53.4753252],[-2.2351373,53.472025],[-2.2383628,53.4715737],[-2.2361393,53.4690246],[-2.228417,53.4608177],[-2.2222107,53.4638193],[-2.2079721,53.4616008],[-2.2135479,53.46474],[-2.2028678,53.4665052],[-2.1984553,53.4717321],[-2.2097303,53.4749908]]],"type":"Polygon"},"id":"E02001062","properties":{"code":"E02001062","geography":"MSOA","name":"Manchester 018"},"type":"Feature"},{"geometry":{"coordinates":[[[-2.228417,53.4608177],[-2.2361393,53.4690246],[-2.2433346,53.4684815],[-2.2409816,53.4660273],[-2.2497373,53.4684592],[-2.2596604,53.4650991],[-2.2536045,53.4599351],[-2.2370844,53.4580566],[-2.2267902,53.4578285],[-2.2276721,53.4592295],[-2.228417,53.4608177]]],"type":"Polygon"},"id":"E02001063","properties":{"code":"E02001063","geography":"MSOA","name":"Manchester 019"},"type":"Feature"},{"geometry":{"coordinates":[[[-2.1805346,53.4696391],[-2.1984553,53.4717321],[-2.2028678,53.4665052],[-2.2135479,53.46474],[-2.2079721,53.4616008],[-2.2006157,53.4562557],[-2.1975278,53.4593659],[-2.1955282,53.4553634],[-2.1904061,53.4570045],[-2.1792411,53.4622221],[-2.1790992,53.4653559],[-2.1745745,53.4645518],[-2.1805346,53.4696391]]],"type":"Polygon"},"id":"E02001064","properties":{"code":"E02001064","geography":"MSOA","name":"Manchester 020"},"type":"Feature"},{"geometry":{"coordinates":[[[-2.149095,53.4605996],[-2.152784,53.4632305],[-2.1468643,53.4674813],[-2.1498952,53.4708968],[-2.1661509,53.4691292],[-2.1637055,53.4663313],[-2.1718064,53.4641497],[-2.1701913,53.4605295],[-2.1641036,53.4594305],[-2.1659578,53.453745],[-2.1614241,53.4518326],[-2.1584419,53.4548794],[-2.149095,53.4605996]]],"type":"Polygon"},"id":"E02001065","properties":{"code":"E02001065","geography":"MSOA","name":"Manchester 021"},"type":"Feature"},{"geometry":{"coordinates":[[[-2.2079721,53.4616008],[-2.2222107,53.4638193],[-2.228417,53.4608177],[-2.2276721,53.4592295],[-2.2201425,53.4592023],[-2.2114631,53.4538415],[-2.2049694,53.4553019],[-2.2013338,53.4493836],[-2.2011767,53.4491555],[-2.2006157,53.4562557],[-2.2079721,53.4616008]]],"type":"Polygon"},"id":"E02001066","properties":{"code":"E02001066","geography":"MSOA","name":"Manchester 022"},"type":"Feature"},{"geometry":{"coordinates":[[[-2.1701913,53.4605295],[-2.1792411,53.4622221],[-2.1904061,53.4570045],[-2.1902093,53.4524252],[-2.1870175,53.4538919],[-2.171978,53.4483038],[-2.1659578,53.453745],[-2.1641036,53.4594305],[-2.1701913,53.4605295]]],"type":"Polygon"},"id":"E02001067","properties":{"code":"E02001067","geography":"MSOA","name":"Manchester 023"},"type":"Feature"},{"geometry":{"coordinates":[[[-2.2370844,53.4580566],[-2.2536045,53.4599351],[-2.2581791,53.4588488],[-2.2574356,53.4532686],[-2.2524987,53.4551404],[-2.2520214,53.4487994],[-2.2388401,53.4503252],[-2.2370844,53.4580566]]],"type":"Polygon"},"id":"E02001068","properties":{"code":"E02001068","geography":"MSOA","name":"Manchester 024"},"type":"Feature"},{"geometry":{"coordinates":[[[-2.2267902,53.4578285],[-2.2370844,53.4580566],[-2.2388401,53.4503252],[-2.2353412,53.4477047],[-2.2240026,53.4508235],[-2.2218059,53.4565321],[-2.2250361,53.4550616],[-2.2267902,53.4578285]]],"type":"Polygon"},"id":"E02001069","properties":{"code":"E02001069","geography":"MSOA","name":"Manchester 025"},"type":"Feature"},{"geometry":{"coordinates":[[[-2.2013338,53.4493836],[-2.2049694,53.4553019],[-2.2114631,53.4538415],[-2.2201425,53.4592023],[-2.2276721,53.4592295],[-2.2267902,53.4578285],[-2.2250361,53.4550616],[-2.2218059,53.4565321],[-2.2240026,53.4508235],[-2.2212608,53.4503709],[-2.2180728,53.44521],[-2.2065347,53.4439587],[-2.2013338,53.4493836]]],"type":"Polygon"},"id":"E02001070","properties":{"code":"E02001070","geography":"MSOA","name":"Manchester 026"},"type":"Feature"},{"geometry":{"coordinates":[[[-2.2520214,53.4487994],[-2.2524987,53.4551404],[-2.2574356,53.4532686],[-2.2581791,53.4588488],[-2.2612472,53.4569838],[-2.2716512,53.4506906],[-2.2620162,53.4446395],[-2.2571098,53.444892],[-2.2572106,53.4486687],[-2.2520214,53.4487994]]],"type":"Polygon"},"id":"E02001072","properties":{"code":"E02001072","geography":"MSOA","name":"Manchester 028"},"type":"Feature"},{"geometry":{"coordinates":[[[-2.2620162,53.4446395],[-2.2716512,53.4506906],[-2.2881816,53.4467919],[-2.2932989,53.4445255],[-2.2901733,53.4408453],[-2.2774935,53.4398325],[-2.2695313,53.4449376],[-2.2673401,53.4429037],[-2.2620162,53.4446395]]],"type":"Polygon"},"id":"E02001073","properties":{"code":"E02001073","geography":"MSOA","name":"Manchester 029"},"type":"Feature"},{"geometry":{"coordinates":[[[-2.2212608,53.4503709],[-2.2240026,53.4508235],[-2.2353412,53.4477047],[-2.2388401,53.4503252],[-2.2520214,53.4487994],[-2.2572106,53.4486687],[-2.2571098,53.444892],[-2.2581189,53.4390176],[-2.234355,53.4411942],[-2.2317506,53.4454319],[-2.2231332,53.4434839],[-2.2212608,53.4503709]]],"type":"Polygon"},"id":"E02001074","properties":{"code":"E02001074","geography":"MSOA","name":"Manchester 030"},"type":"Feature"},{"geometry":{"coordinates":[[[-2.173994,53.4436564],[-2.1825723,53.4431966],[-2.1794033,53.4480585],[-2.1914433,53.4459978],[-2.1920527,53.4485944],[-2.1973727,53.4482662],[-2.1997452,53.4445905],[-2.1938894,53.4404569],[-2.1748262,53.4367872],[-2.173994,53.4436564]]],"type":"Polygon"},"id":"E02001075","properties":{"code":"E02001075","geography":"MSOA","name":"Manchester 031"},"type":"Feature"},{"geometry":{"coordinates":[[[-2.2013338,53.4493836],[-2.2065347,53.4439587],[-2.2180728,53.44521],[-2.2212608,53.4503709],[-2.2231332,53.4434839],[-2.2317506,53.4454319],[-2.234355,53.4411942],[-2.2262557,53.4408754],[-2.2249517,53.436189],[-2.2241794,53.4366089],[-2.2190997,53.4410407],[-2.2051861,53.4406214],[-2.1997452,53.4445905],[-2.1973727,53.4482662],[-2.2011767,53.4491555],[-2.2013338,53.4493836]]],"type":"Polygon"},"id":"E02001076","properties":{"code":"E02001076","geography":"MSOA","name":"Manchester 032"},"type":"Feature"},{"geometry":{"coordinates":[[[-2.2620162,53.4446395],[-2.2673401,53.4429037],[-2.2695313,53.4449376],[-2.2774935,53.4398325],[-2.2767473,53.431248],[-2.2670263,53.4334428],[-2.261255,53.4371383],[-2.2666856,53.4392206],[-2.2581189,53.4390176],[-2.2571098,53.444892],[-2.2620162,53.4446395]]],"type":"Polygon"},"id":"E02001077","properties":{"code":"E02001077","geography":"MSOA","name":"Manchester 033"},"type":"Feature"},{"geometry":{"coordinates":[[[-2.1748262,53.4367872],[-2.1938894,53.4404569],[-2.1997452,53.4445905],[-2.2051861,53.4406214],[-2.2096931,53.4322869],[-2.2022705,53.42996],[-2.1913539,53.435112],[-2.1874635,53.4366265],[-2.1772044,53.4330878],[-2.1748262,53.4367872]]],"type":"Polygon"},"id":"E02001078","properties":{"code":"E02001078","geography":"MSOA","name":"Manchester 034"},"type":"Feature"},{"geometry":{"coordinates":[[[-2.2249517,53.436189],[-2.2262557,53.4408754],[-2.234355,53.4411942],[-2.2581189,53.4390176],[-2.2666856,53.4392206],[-2.261255,53.4371383],[-2.2441916,53.4307776],[-2.2403909,53.4347915],[-2.2273319,53.4352065],[-2.2249517,53.436189]]],"type":"Polygon"},"id":"E02001079","properties":{"code":"E02001079","geography":"MSOA","name":"Manchester 035"},"type":"Feature"},{"geometry":{"coordinates":[[[-2.2051861,53.4406214],[-2.2190997,53.4410407],[-2.2241794,53.4366089],[-2.2192323,53.4349148],[-2.2206714,53.4294255],[-2.2159307,53.4295906],[-2.2096931,53.4322869],[-2.2051861,53.4406214]]],"type":"Polygon"},"id":"E02001080","properties":{"code":"E02001080","geography":"MSOA","name":"Manchester 036"},"type":"Feature"},{"geometry":{"coordinates":[[[-2.2774935,53.4398325],[-2.2901733,53.4408453],[-2.2953974,53.4387766],[-2.2942162,53.4360487],[-2.2996981,53.4373087],[-2.2999451,53.435129],[-2.2867458,53.4302147],[-2.2783082,53.4235508],[-2.267453,53.4269831],[-2.2670496,53.4313603],[-2.2670263,53.4334428],[-2.2767473,53.431248],[-2.2774935,53.4398325]]],"type":"Polygon"},"id":"E02001081","properties":{"code":"E02001081","geography":"MSOA","name":"Manchester 037"},"type":"Feature"},{"geometry":{"coordinates":[[[-2.2324498,53.4225068],[-2.2273319,53.4352065],[-2.2403909,53.4347915],[-2.2441916,53.4307776],[-2.2364741,53.4253566],[-2.2324498,53.4225068]]],"type":"Polygon"},"id":"E02001082","properties":{"code":"E02001082","geography":"MSOA","name":"Manchester 038"},"type":"Feature"},{"geometry":{"coordinates":[[[-2.2441916,53.4307776],[-2.261255,53.4371383],[-2.2670263,53.4334428],[-2.2670496,53.4313603],[-2.2627657,53.4333967],[-2.2524688,53.4287335],[-2.2569793,53.4257262],[-2.2420952,53.4209826],[-2.2364741,53.4253566],[-2.2441916,53.4307776]]],"type":"Polygon"},"id":"E02001083","properties":{"code":"E02001083","geography":"MSOA","name":"Manchester 039"},"type":"Feature"},{"geometry":{"coordinates":[[[-2.2159307,53.4295906],[-2.2206714,53.4294255],[-2.2192323,53.4349148],[-2.2241794,53.4366089],[-2.2249517,53.436189],[-2.2273319,53.4352065],[-2.2324498,53.4225068],[-2.218664,53.4216252],[-2.2174168,53.4179615],[-2.2117306,53.4209136],[-2.2089718,53.4229054],[-2.2176754,53.4244958],[-2.2159307,53.4295906]]],"type":"Polygon"},"id":"E02001084","properties":{"code":"E02001084","geography":"MSOA","name":"Manchester 040"},"type":"Feature"},{"geometry":{"coordinates":[[[-2.1921581,53.4323533],[-2.1913539,53.435112],[-2.2022705,53.42996],[-2.2096931,53.4322869],[-2.2159307,53.4295906],[-2.2176754,53.4244958],[-2.2089718,53.4229054],[-2.2117306,53.4209136],[-2.2092981,53.4184478],[-2.1993889,53.4268681],[-2.1931856,53.4276532],[-2.1921581,53.4323533]]],"type":"Polygon"},"id":"E02001085","properties":{"code":"E02001085","geography":"MSOA","name":"Manchester 041"},"type":"Feature"},{"geometry":{"coordinates":[[[-2.2420952,53.4209826],[-2.2569793,53.4257262],[-2.2524688,53.4287335],[-2.2627657,53.4333967],[-2.2670496,53.4313603],[-2.267453,53.4269831],[-2.2783082,53.4235508],[-2.2737065,53.422566],[-2.2658859,53.4206083],[-2.2628298,53.4160154],[-2.2530664,53.4187404],[-2.2515535,53.4221188],[-2.2538688,53.4120927],[-2.2420952,53.4209826]]],"type":"Polygon"},"id":"E02001086","properties":{"code":"E02001086","geography":"MSOA","name":"Manchester 042"},"type":"Feature"},{"geometry":{"coordinates":[[[-2.2324498,53.4225068],[-2.2364741,53.4253566],[-2.2420952,53.4209826],[-2.2538688,53.4120927],[-2.2467782,53.4066881],[-2.2443188,53.4125272],[-2.2401435,53.4118481],[-2.2220403,53.4136079],[-2.218664,53.4216252],[-2.2324498,53.4225068]]],"type":"Polygon"},"id":"E02001087","properties":{"code":"E02001087","geography":"MSOA","name":"Manchester 043"},"type":"Feature"},{"geometry":{"coordinates":[[[-2.2674997,53.4068007],[-2.2684441,53.4132651],[-2.27807,53.4153962],[-2.2939346,53.4136013],[-2.2978618,53.4083688],[-2.2893,53.4036018],[-2.2878291,53.408002],[-2.2674997,53.4068007]]],"type":"Polygon"},"id":"E02001088","properties":{"code":"E02001088","geography":"MSOA","name":"Manchester 044"},"type":"Feature"},{"geometry":{"coordinates":[[[-2.2117306,53.4209136],[-2.2174168,53.4179615],[-2.218664,53.4216252],[-2.2220403,53.4136079],[-2.2401435,53.4118481],[-2.2382944,53.4075261],[-2.2447941,53.4035875],[-2.2384673,53.400777],[-2.2252301,53.4013103],[-2.2126917,53.4069661],[-2.2134878,53.4189247],[-2.209708,53.4179418],[-2.2092981,53.4184478],[-2.2117306,53.4209136]]],"type":"Polygon"},"id":"E02001089","properties":{"code":"E02001089","geography":"MSOA","name":"Manchester 045"},"type":"Feature"},{"geometry":{"coordinates":[[[-2.2538688,53.4120927],[-2.2515535,53.4221188],[-2.2530664,53.4187404],[-2.2628298,53.4160154],[-2.2658859,53.4206083],[-2.2737065,53.422566],[-2.27807,53.4153962],[-2.2684441,53.4132651],[-2.2674997,53.4068007],[-2.268801,53.3980592],[-2.2424687,53.3990244],[-2.2384673,53.400777],[-2.2447941,53.4035875],[-2.2382944,53.4075261],[-2.2401435,53.4118481],[-2.2443188,53.4125272],[-2.2467782,53.4066881],[-2.2538688,53.4120927]]],"type":"Polygon"},"id":"E02001090","properties":{"code":"E02001090","geography":"MSOA","name":"Manchester 046"},"type":"Feature"},{"geometry":{"coordinates":[[[-2.3167958,53.4111189],[-2.3198963,53.4116371],[-2.3122466,53.4029731],[-2.3001558,53.3910776],[-2.2951659,53.391944],[-2.2992201,53.3954035],[-2.295973,53.398339],[-2.2972532,53.4031429],[-2.2911982,53.4014627],[-2.2893,53.4036018],[-2.2978618,53.4083688],[-2.3152858,53.410722],[-2.3167958,53.4111189]]],"type":"Polygon"},"id":"E02001091","properties":{"code":"E02001091","geography":"MSOA","name":"Manchester 047"},"type":"Feature"},{"geometry":{"coordinates":[[[-2.2674997,53.4068007],[-2.2878291,53.408002],[-2.2893,53.4036018],[-2.2911982,53.4014627],[-2.2972532,53.4031429],[-2.295973,53.398339],[-2.274506,53.3879835],[-2.2714718,53.392823],[-2.268801,53.3980592],[-2.2674997,53.4068007]]],"type":"Polygon"},"id":"E02001092","properties":{"code":"E02001092","geography":"MSOA","name":"Manchester 048"},"type":"Feature"},{"geometry":{"coordinates":[[[-2.246235,53.3878342],[-2.2468678,53.396086],[-2.2424687,53.3990244],[-2.268801,53.3980592],[-2.2714718,53.392823],[-2.2645744,53.3935434],[-2.2635502,53.3854516],[-2.2523822,53.3835417],[-2.2525452,53.3863689],[-2.246235,53.3878342]]],"type":"Polygon"},"id":"E02001093","properties":{"code":"E02001093","geography":"MSOA","name":"Manchester 049"},"type":"Feature"},{"geometry":{"coordinates":[[[-2.2523822,53.3835417],[-2.2635502,53.3854516],[-2.2645744,53.3935434],[-2.2714718,53.392823],[-2.274506,53.3879835],[-2.2784121,53.3811926],[-2.266393,53.379327],[-2.2613792,53.3772996],[-2.260191,53.3798098],[-2.2478117,53.3806625],[-2.2523822,53.3835417]]],"type":"Polygon"},"id":"E02001094","properties":{"code":"E02001094","geography":"MSOA","name":"Manchester 050"},"type":"Feature"},{"geometry":{"coordinates":[[[-2.274506,53.3879835],[-2.295973,53.398339],[-2.2992201,53.3954035],[-2.2951659,53.391944],[-2.3001558,53.3910776],[-2.2996196,53.3876481],[-2.2999439,53.384342],[-2.2863183,53.3758203],[-2.2840287,53.3723733],[-2.2800552,53.3766353],[-2.2677431,53.3770573],[-2.266393,53.379327],[-2.2784121,53.3811926],[-2.274506,53.3879835]]],"type":"Polygon"},"id":"E02001095","properties":{"code":"E02001095","geography":"MSOA","name":"Manchester 051"},"type":"Feature"},{"geometry":{"coordinates":[[[-2.2428817,53.3844617],[-2.246235,53.3878342],[-2.2525452,53.3863689],[-2.2523822,53.3835417],[-2.2478117,53.3806625],[-2.260191,53.3798098],[-2.2613792,53.3772996],[-2.2543267,53.375725],[-2.2574015,53.3710318],[-2.2518312,53.370293],[-2.2577425,53.369185],[-2.2567049,53.3652227],[-2.264806,53.3656326],[-2.2663047,53.3625093],[-2.2588605,53.3585133],[-2.2549739,53.3608228],[-2.2407805,53.3595553],[-2.2398255,53.3621142],[-2.2370343,53.3700487],[-2.2411352,53.379485],[-2.2428817,53.3844617]]],"type":"Polygon"},"id":"E02001096","properties":{"code":"E02001096","geography":"MSOA","name":"Manchester 052"},"type":"Feature"},{"geometry":{"coordinates":[[[-2.2613792,53.3772996],[-2.266393,53.379327],[-2.2677431,53.3770573],[-2.2800552,53.3766353],[-2.2840287,53.3723733],[-2.2863183,53.3758203],[-2.2984491,53.3608708],[-2.3139952,53.3574157],[-2.2969314,53.3485674],[-2.3013444,53.3401054],[-2.2670701,53.3505655],[-2.2588605,53.3585133],[-2.2663047,53.3625093],[-2.264806,53.3656326],[-2.2567049,53.3652227],[-2.2577425,53.369185],[-2.2518312,53.370293],[-2.2574015,53.3710318],[-2.2543267,53.375725],[-2.2613792,53.3772996]]],"type":"Polygon"},"id":"E02001097","properties":{"code":"E02001097","geography":"MSOA","name":"Manchester 053"},"type":"Feature"},{"geometry":{"coordinates":[[[-2.2174599,53.4945218],[-2.2218096,53.4964514],[-2.2259916,53.4922676],[-2.2409318,53.4886829],[-2.2458535,53.4870212],[-2.2530529,53.4817977],[-2.2506341,53.4775897],[-2.245075,53.4803337],[-2.2423079,53.4786405],[-2.2324269,53.4851597],[-2.226609,53.4845678],[-2.219835,53.4880895],[-2.2227358,53.4902558],[-2.2174599,53.4945218]]],"type":"Polygon"},"id":"E02006902","properties":{"code":"E02006902","geography":"MSOA","name":"Manchester 054"},"type":"Feature"},{"geometry":{"coordinates":[[[-2.226609,53.4845678],[-2.2324269,53.4851597],[-2.2423079,53.4786405],[-2.2425176,53.4776372],[-2.2371994,53.4758374],[-2.2429885,53.4716613],[-2.2351373,53.472025],[-2.2168617,53.4753252],[-2.2224587,53.4817267],[-2.226609,53.4845678]]],"type":"Polygon"},"id":"E02006912","properties":{"code":"E02006912","geography":"MSOA","name":"Manchester 055"},"type":"Feature"},{"geometry":{"coordinates":[[[-2.2234265,53.5023273],[-2.2311339,53.50134],[-2.2313541,53.5063646],[-2.2401644,53.5047529],[-2.2372278,53.5024971],[-2.2417081,53.50082],[-2.234371,53.5007951],[-2.2374585,53.4952429],[-2.2455049,53.4921346],[-2.2409318,53.4886829],[-2.2259916,53.4922676],[-2.2218096,53.4964514],[-2.2185662,53.5024257],[-2.2234265,53.5023273]]],"type":"Polygon"},"id":"E02006913","properties":{"code":"E02006913","geography":"MSOA","name":"Manchester 056"},"type":"Feature"},{"geometry":{"coordinates":[[[-2.2351373,53.472025],[-2.2429885,53.4716613],[-2.2371994,53.4758374],[-2.2425176,53.4776372],[-2.242603,53.474302],[-2.250249,53.4736086],[-2.2493321,53.4706327],[-2.2497373,53.4684592],[-2.2409816,53.4660273],[-2.2433346,53.4684815],[-2.2361393,53.4690246],[-2.2383628,53.4715737],[-2.2351373,53.472025]]],"type":"Polygon"},"id":"E02006914","properties":{"code":"E02006914","geography":"MSOA","name":"Manchester 057"},"type":"Feature"},{"geometry":{"coordinates":[[[-2.2401644,53.5047529],[-2.2451853,53.5120776],[-2.2492153,53.5095151],[-2.2452804,53.5048079],[-2.2471049,53.5023962],[-2.2515181,53.5038853],[-2.2552934,53.4991292],[-2.2547928,53.4973689],[-2.2458535,53.4870212],[-2.2409318,53.4886829],[-2.2455049,53.4921346],[-2.2374585,53.4952429],[-2.234371,53.5007951],[-2.2417081,53.50082],[-2.2372278,53.5024971],[-2.2401644,53.5047529]]],"type":"Polygon"},"id":"E02006915","properties":{"code":"E02006915","geography":"MSOA","name":"Manchester 058"},"type":"Feature"},{"geometry":{"coordinates":[[[-2.2493321,53.4706327],[-2.263333,53.4756964],[-2.2653465,53.4726984],[-2.2679322,53.4698381],[-2.2596604,53.4650991],[-2.2497373,53.4684592],[-2.2493321,53.4706327]]],"type":"Polygon"},"id":"E02006916","properties":{"code":"E02006916","geography":"MSOA","name":"Manchester 059"},"type":"Feature"},{"geometry":{"coordinates":[[[-2.2423079,53.4786405],[-2.245075,53.4803337],[-2.2506341,53.4775897],[-2.2530529,53.4817977],[-2.2601955,53.4777705],[-2.263333,53.4756964],[-2.2493321,53.4706327],[-2.250249,53.4736086],[-2.242603,53.474302],[-2.2425176,53.4776372],[-2.2423079,53.4786405]]],"type":"Polygon"},"id":"E02006917","properties":{"code":"E02006917","geography":"MSOA","name":"Manchester 060"},"type":"Feature"},{"geometry":{"coordinates":[[[-2.2030865,53.4905767],[-2.2120998,53.4967461],[-2.2174599,53.4945218],[-2.2227358,53.4902558],[-2.219835,53.4880895],[-2.226609,53.4845678],[-2.2224587,53.4817267],[-2.2052266,53.4893733],[-2.2030865,53.4905767]]],"type":"Polygon"},"id":"E02006983","properties":{"code":"E02006983","geography":"MSOA","name":"Manchester 061"},"type":"Feature"},{"geometry":{"coordinates":[[[-2.2097303,53.4749908],[-2.2064331,53.4819618],[-2.2014167,53.482276],[-2.2052266,53.4893733],[-2.2224587,53.4817267],[-2.2168617,53.4753252],[-2.2097303,53.4749908]]],"type":"Polygon"},"id":"E02006984","properties":{"code":"E02006984","geography":"MSOA","name":"Manchester 062"},"type":"Feature"},{"geometry":{"coordinates":[[[-2.1904061,53.4570045],[-2.1955282,53.4553634],[-2.1975278,53.4593659],[-2.2006157,53.4562557],[-2.2011767,53.4491555],[-2.1973727,53.4482662],[-2.1920527,53.4485944],[-2.1862821,53.4500773],[-2.1870175,53.4538919],[-2.1902093,53.4524252],[-2.1904061,53.4570045]]],"type":"Polygon"},"id":"E02006985","properties":{"code":"E02006985","geography":"MSOA","name":"Manchester 063"},"type":"Feature"},{"geometry":{"coordinates":[[[-2.171978,53.4483038],[-2.1870175,53.4538919],[-2.1862821,53.4500773],[-2.1920527,53.4485944],[-2.1914433,53.4459978],[-2.1794033,53.4480585],[-2.1825723,53.4431966],[-2.173994,53.4436564],[-2.171978,53.4483038]]],"type":"Polygon"},"id":"E02006986","properties":{"code":"E02006986","geography":"MSOA","name":"Manchester 064"},"type":"Feature"}],"type":"FeatureCollection"}
