{"features":[{"geometry":{"coordinates":[[[-2.4229824,53.6246373],[-2.4261454,53.6349942],[-2.4387263,53.6460293],[-2.4502722,53.6414159],[-2.4484996,53.6318689],[-2.458291,53.6246153],[-2.4537828,53.6219584],[-2.4660211,53.6216831],[-2.4730271,53.6165668],[-2.4496103,53.6013241],[-2.4463813,53.6088399],[-2.4391011,53.6078539],[-2.4379387,53.6174113],[-2.4273204,53.6139738],[-2.4292586,53.6186935],[-2.4225346,53.6183247],[-2.4229824,53.6246373]]],"type":"Polygon"},"id":"E02000984","properties":{"code":"E02000984","geography":"MSOA","name":"Bolton 001"},"type":"Feature"},{"geometry":{"coordinates":[[[-2.4098881,53.5989539],[-2.4035962,53.6027837],[-2.3943212,53.6026916],[-2.3977722,53.6053649],[-2.392215,53.6071058],[-2.3945576,53.6095918],[-2.3977819,53.6080074],[-2.3978501,53.6107658],[-2.390493,53.6139418],[-2.4019831,53.6167329],[-2.4052881,53.6251167],[-2.4229824,53.6246373],[-2.4225346,53.6183247],[-2.4171216,53.6163276],[-2.4158031,53.6183461],[-2.4170442,53.612905],[-2.420772,53.6127824],[-2.4163201,53.6055399],[-2.4216968,53.6026887],[-2.4184883,53.6009583],[-2.4078975,53.6019345],[-2.4098881,53.5989539]]],"type":"Polygon"},"id":"E02000985","properties":{"code":"E02000985","geography":"MSOA","name":"Bolton 002"},"type":"Feature"},{"geometry":{"coordinates":[[[-2.4225346,53.6183247],[-2.4292586,53.6186935],[-2.4273204,53.6139738],[-2.4379387,53.6174113],[-2.4391011,53.6078539],[-2.4311265,53.6016096],[-2.4216968,53.6026887],[-2.4163201,53.6055399],[-2.420772,53.6127824],[-2.4170442,53.612905],[-2.4158031,53.6183461],[-2.4171216,53.6163276],[-2.4225346,53.6183247]]],"type":"Polygon"},"id":"E02000986","properties":{"code":"E02000986","geography":"MSOA","name":"Bolton 003"},"type":"Feature"},{"geometry":{"coordinates":[[[-2.5593667,53.5985685],[-2.5530245,53.5988627],[-2.5552895,53.5944488],[-2.5507286,53.5930735],[-2.5443097,53.5939277],[-2.5464439,53.5980612],[-2.5367169,53.5986012],[-2.5411493,53.6102338],[-2.5517012,53.6078889],[-2.5599246,53.5988926],[-2.5593667,53.5985685]]],"type":"Polygon"},"id":"E02000987","properties":{"code":"E02000987","geography":"MSOA","name":"Bolton 004"},"type":"Feature"},{"geometry":{"coordinates":[[[-2.4391011,53.6078539],[-2.4463813,53.6088399],[-2.4496103,53.6013241],[-2.4447409,53.5980274],[-2.4322765,53.5967749],[-2.4322089,53.5915382],[-2.428641,53.5942216],[-2.4267104,53.5901108],[-2.423458,53.5919956],[-2.4251148,53.5958106],[-2.4193017,53.5963597],[-2.4243544,53.6007372],[-2.4184883,53.6009583],[-2.4216968,53.6026887],[-2.4311265,53.6016096],[-2.4391011,53.6078539]]],"type":"Polygon"},"id":"E02000988","properties":{"code":"E02000988","geography":"MSOA","name":"Bolton 005"},"type":"Feature"},{"geometry":{"coordinates":[[[-2.3791339,53.6308541],[-2.3978474,53.6321921],[-2.4012113,53.624583],[-2.4052881,53.6251167],[-2.4019831,53.6167329],[-2.390493,53.6139418],[-2.3978501,53.6107658],[-2.3977819,53.6080074],[-2.3945576,53.6095918],[-2.392215,53.6071058],[-2.3977722,53.6053649],[-2.3943212,53.6026916],[-2.4035962,53.6027837],[-2.4098881,53.5989539],[-2.4094696,53.5963101],[-2.3990806,53.595379],[-2.3925843,53.5943255],[-2.3918754,53.5882472],[-2.3902962,53.5915963],[-2.3829286,53.5922577],[-2.38285,53.5870961],[-2.3760353,53.5869678],[-2.3769017,53.5932695],[-2.3682895,53.5960657],[-2.3664545,53.6018278],[-2.3630091,53.6103244],[-2.3794243,53.6204116],[-2.3763033,53.6220464],[-2.3834107,53.6255618],[-2.3791339,53.6308541]]],"type":"Polygon"},"id":"E02000989","properties":{"code":"E02000989","geography":"MSOA","name":"Bolton 006"},"type":"Feature"},{"geometry":{"coordinates":[[[-2.5103843,53.6263782],[-2.5113248,53.6269791],[-2.5411493,53.6102338],[-2.5367169,53.5986012],[-2.5464439,53.5980612],[-2.5443097,53.5939277],[-2.5507286,53.5930735],[-2.5552895,53.5944488],[-2.5530245,53.5988627],[-2.5593667,53.5985685],[-2.5653132,53.5923472],[-2.5520613,53.5791597],[-2.5424191,53.581619],[-2.5238788,53.581032],[-2.5206545,53.5836172],[-2.535364,53.5903349],[-2.5210301,53.59636],[-2.5175731,53.5943823],[-2.5162233,53.5977126],[-2.510206,53.5955587],[-2.5136497,53.5999789],[-2.5021919,53.6042631],[-2.5013413,53.6024894],[-2.4775405,53.6020465],[-2.516841,53.614769],[-2.5103843,53.6263782]]],"type":"Polygon"},"id":"E02000990","properties":{"code":"E02000990","geography":"MSOA","name":"Bolton 007"},"type":"Feature"},{"geometry":{"coordinates":[[[-2.4730271,53.6165668],[-2.5103843,53.6263782],[-2.516841,53.614769],[-2.4775405,53.6020465],[-2.4631846,53.5977464],[-2.4588421,53.5924811],[-2.4654306,53.5915034],[-2.4643532,53.5884759],[-2.4622401,53.5877658],[-2.4528805,53.5905089],[-2.4484827,53.5875053],[-2.443228,53.5923328],[-2.4499538,53.5951669],[-2.4447409,53.5980274],[-2.4496103,53.6013241],[-2.4730271,53.6165668]]],"type":"Polygon"},"id":"E02000991","properties":{"code":"E02000991","geography":"MSOA","name":"Bolton 008"},"type":"Feature"},{"geometry":{"coordinates":[[[-2.5599246,53.5988926],[-2.5740048,53.5942752],[-2.5828374,53.604599],[-2.5959277,53.6107997],[-2.6151599,53.6028085],[-2.6173971,53.5958211],[-2.6259082,53.5936683],[-2.6275658,53.5893988],[-2.6180623,53.5910996],[-2.5850877,53.5850528],[-2.5678537,53.5715066],[-2.5520613,53.5791597],[-2.5653132,53.5923472],[-2.5593667,53.5985685],[-2.5599246,53.5988926]]],"type":"Polygon"},"id":"E02000992","properties":{"code":"E02000992","geography":"MSOA","name":"Bolton 009"},"type":"Feature"},{"geometry":{"coordinates":[[[-2.4098881,53.5989539],[-2.4078975,53.6019345],[-2.4184883,53.6009583],[-2.4243544,53.6007372],[-2.4193017,53.5963597],[-2.4251148,53.5958106],[-2.423458,53.5919956],[-2.4138992,53.5834246],[-2.4084649,53.5860897],[-2.4134592,53.5883507],[-2.4128339,53.5923886],[-2.4104925,53.5893137],[-2.4059338,53.5896888],[-2.3991931,53.5939701],[-2.3990806,53.595379],[-2.4094696,53.5963101],[-2.4098881,53.5989539]]],"type":"Polygon"},"id":"E02000993","properties":{"code":"E02000993","geography":"MSOA","name":"Bolton 010"},"type":"Feature"},{"geometry":{"coordinates":[[[-2.4322089,53.5915382],[-2.4322765,53.5967749],[-2.4447409,53.5980274],[-2.4499538,53.5951669],[-2.443228,53.5923328],[-2.4484827,53.5875053],[-2.441055,53.5841615],[-2.4372847,53.5887883],[-2.4333694,53.5870536],[-2.4322089,53.5915382]]],"type":"Polygon"},"id":"E02000994","properties":{"code":"E02000994","geography":"MSOA","name":"Bolton 011"},"type":"Feature"},{"geometry":{"coordinates":[[[-2.4775405,53.6020465],[-2.5013413,53.6024894],[-2.5081915,53.5882267],[-2.4972465,53.583869],[-2.4923172,53.5813958],[-2.4849957,53.5823114],[-2.480867,53.5786881],[-2.4770162,53.5834319],[-2.4621524,53.5859711],[-2.4670931,53.5875088],[-2.4643532,53.5884759],[-2.4654306,53.5915034],[-2.4588421,53.5924811],[-2.4631846,53.5977464],[-2.4775405,53.6020465]]],"type":"Polygon"},"id":"E02000995","properties":{"code":"E02000995","geography":"MSOA","name":"Bolton 012"},"type":"Feature"},{"geometry":{"coordinates":[[[-2.3760353,53.5869678],[-2.38285,53.5870961],[-2.3829286,53.5922577],[-2.3902962,53.5915963],[-2.3918754,53.5882472],[-2.3925843,53.5943255],[-2.3990806,53.595379],[-2.3991931,53.5939701],[-2.3991627,53.5804456],[-2.3906467,53.5831424],[-2.3764137,53.5817481],[-2.3760353,53.5869678]]],"type":"Polygon"},"id":"E02000996","properties":{"code":"E02000996","geography":"MSOA","name":"Bolton 013"},"type":"Feature"},{"geometry":{"coordinates":[[[-2.5013413,53.6024894],[-2.5021919,53.6042631],[-2.5136497,53.5999789],[-2.510206,53.5955587],[-2.5162233,53.5977126],[-2.5175731,53.5943823],[-2.5210301,53.59636],[-2.535364,53.5903349],[-2.5206545,53.5836172],[-2.5238788,53.581032],[-2.5424191,53.581619],[-2.5520613,53.5791597],[-2.5678537,53.5715066],[-2.5657423,53.5699866],[-2.5684717,53.5646986],[-2.5600623,53.5620847],[-2.5633797,53.5595239],[-2.5599656,53.5558106],[-2.5555927,53.5620135],[-2.5576701,53.5679646],[-2.547606,53.5675288],[-2.5424545,53.5727944],[-2.5309201,53.5677285],[-2.5354894,53.5635709],[-2.532106,53.5621158],[-2.5189077,53.5640645],[-2.5090736,53.5615588],[-2.4944679,53.5726287],[-2.5012421,53.575673],[-2.4972465,53.583869],[-2.5081915,53.5882267],[-2.5013413,53.6024894]]],"type":"Polygon"},"id":"E02000997","properties":{"code":"E02000997","geography":"MSOA","name":"Bolton 014"},"type":"Feature"},{"geometry":{"coordinates":[[[-2.4484827,53.5875053],[-2.4528805,53.5905089],[-2.4622401,53.5877658],[-2.4610319,53.5840544],[-2.4557227,53.5842137],[-2.4576176,53.5788501],[-2.4514759,53.5741203],[-2.442286,53.5757788],[-2.4485894,53.5792498],[-2.441055,53.5841615],[-2.4484827,53.5875053]]],"type":"Polygon"},"id":"E02000998","properties":{"code":"E02000998","geography":"MSOA","name":"Bolton 015"},"type":"Feature"},{"geometry":{"coordinates":[[[-2.423458,53.5919956],[-2.4267104,53.5901108],[-2.428641,53.5942216],[-2.4322089,53.5915382],[-2.4333694,53.5870536],[-2.4372847,53.5887883],[-2.441055,53.5841615],[-2.4485894,53.5792498],[-2.442286,53.5757788],[-2.4338997,53.5737261],[-2.437107,53.5698944],[-2.4333047,53.5687038],[-2.4366943,53.5639141],[-2.4314563,53.5630475],[-2.433319,53.5659178],[-2.4207921,53.5707304],[-2.4303666,53.5795928],[-2.422225,53.5798799],[-2.4113795,53.5798341],[-2.4163324,53.5818809],[-2.4138992,53.5834246],[-2.423458,53.5919956]]],"type":"Polygon"},"id":"E02000999","properties":{"code":"E02000999","geography":"MSOA","name":"Bolton 016"},"type":"Feature"},{"geometry":{"coordinates":[[[-2.3991627,53.5804456],[-2.3991931,53.5939701],[-2.4059338,53.5896888],[-2.4104925,53.5893137],[-2.4128339,53.5923886],[-2.4134592,53.5883507],[-2.4084649,53.5860897],[-2.4138992,53.5834246],[-2.4163324,53.5818809],[-2.4113795,53.5798341],[-2.422225,53.5798799],[-2.4093859,53.5691825],[-2.4044125,53.5691555],[-2.3991627,53.5804456]]],"type":"Polygon"},"id":"E02001000","properties":{"code":"E02001000","geography":"MSOA","name":"Bolton 017"},"type":"Feature"},{"geometry":{"coordinates":[[[-2.4622401,53.5877658],[-2.4643532,53.5884759],[-2.4670931,53.5875088],[-2.4621524,53.5859711],[-2.4770162,53.5834319],[-2.46737,53.5800203],[-2.4718505,53.5793132],[-2.4714954,53.5753039],[-2.4685153,53.577303],[-2.4644483,53.5749506],[-2.4687085,53.5651123],[-2.4603729,53.5661994],[-2.4543955,53.5679873],[-2.4514759,53.5741203],[-2.4576176,53.5788501],[-2.4557227,53.5842137],[-2.4610319,53.5840544],[-2.4622401,53.5877658]]],"type":"Polygon"},"id":"E02001001","properties":{"code":"E02001001","geography":"MSOA","name":"Bolton 018"},"type":"Feature"},{"geometry":{"coordinates":[[[-2.3764137,53.5817481],[-2.3906467,53.5831424],[-2.3991627,53.5804456],[-2.4044125,53.5691555],[-2.4065814,53.5625927],[-2.4011198,53.5645202],[-2.3923057,53.5626327],[-2.390814,53.5593694],[-2.3827037,53.5613897],[-2.3879325,53.5628384],[-2.3853242,53.5654796],[-2.3758965,53.5657733],[-2.3738173,53.5705484],[-2.3764137,53.5817481]]],"type":"Polygon"},"id":"E02001002","properties":{"code":"E02001002","geography":"MSOA","name":"Bolton 019"},"type":"Feature"},{"geometry":{"coordinates":[[[-2.4770162,53.5834319],[-2.480867,53.5786881],[-2.4849957,53.5823114],[-2.4923172,53.5813958],[-2.4972465,53.583869],[-2.5012421,53.575673],[-2.4944679,53.5726287],[-2.4960133,53.5694726],[-2.485533,53.5632081],[-2.4732326,53.5621695],[-2.4687085,53.5651123],[-2.4644483,53.5749506],[-2.4685153,53.577303],[-2.4714954,53.5753039],[-2.4718505,53.5793132],[-2.46737,53.5800203],[-2.4770162,53.5834319]]],"type":"Polygon"},"id":"E02001003","properties":{"code":"E02001003","geography":"MSOA","name":"Bolton 020"},"type":"Feature"},{"geometry":{"coordinates":[[[-2.437107,53.5698944],[-2.4338997,53.5737261],[-2.442286,53.5757788],[-2.4514759,53.5741203],[-2.4543955,53.5679873],[-2.4603729,53.5661994],[-2.4574048,53.5643409],[-2.4539957,53.5679986],[-2.4403401,53.5671501],[-2.437107,53.5698944]]],"type":"Polygon"},"id":"E02001004","properties":{"code":"E02001004","geography":"MSOA","name":"Bolton 021"},"type":"Feature"},{"geometry":{"coordinates":[[[-2.4044125,53.5691555],[-2.4093859,53.5691825],[-2.422225,53.5798799],[-2.4303666,53.5795928],[-2.4207921,53.5707304],[-2.433319,53.5659178],[-2.4314563,53.5630475],[-2.427787,53.5573973],[-2.418004,53.5591657],[-2.4185298,53.5618443],[-2.4121799,53.5593587],[-2.4065814,53.5625927],[-2.4044125,53.5691555]]],"type":"Polygon"},"id":"E02001005","properties":{"code":"E02001005","geography":"MSOA","name":"Bolton 022"},"type":"Feature"},{"geometry":{"coordinates":[[[-2.4403401,53.5671501],[-2.4539957,53.5679986],[-2.4574048,53.5643409],[-2.4494393,53.5652017],[-2.4507573,53.5599475],[-2.4552744,53.5603136],[-2.4540505,53.5567297],[-2.4472706,53.5556771],[-2.4479804,53.5592957],[-2.440865,53.5586353],[-2.4403401,53.5671501]]],"type":"Polygon"},"id":"E02001006","properties":{"code":"E02001006","geography":"MSOA","name":"Bolton 023"},"type":"Feature"},{"geometry":{"coordinates":[[[-2.3609782,53.5682898],[-2.3738173,53.5705484],[-2.3758965,53.5657733],[-2.3853242,53.5654796],[-2.3879325,53.5628384],[-2.3827037,53.5613897],[-2.390814,53.5593694],[-2.3792181,53.5559418],[-2.3820833,53.551903],[-2.3823896,53.5502887],[-2.3735908,53.5538984],[-2.3667166,53.5533309],[-2.3624068,53.5561043],[-2.357541,53.5537452],[-2.3559968,53.5605532],[-2.3609782,53.5682898]]],"type":"Polygon"},"id":"E02001007","properties":{"code":"E02001007","geography":"MSOA","name":"Bolton 024"},"type":"Feature"},{"geometry":{"coordinates":[[[-2.4314563,53.5630475],[-2.4366943,53.5639141],[-2.4333047,53.5687038],[-2.437107,53.5698944],[-2.4403401,53.5671501],[-2.440865,53.5586353],[-2.4479804,53.5592957],[-2.4472706,53.5556771],[-2.438939,53.5524986],[-2.427787,53.5573973],[-2.4314563,53.5630475]]],"type":"Polygon"},"id":"E02001008","properties":{"code":"E02001008","geography":"MSOA","name":"Bolton 025"},"type":"Feature"},{"geometry":{"coordinates":[[[-2.4574048,53.5643409],[-2.4603729,53.5661994],[-2.4687085,53.5651123],[-2.4732326,53.5621695],[-2.4646118,53.5620643],[-2.4647341,53.5568253],[-2.4696188,53.554347],[-2.4698413,53.5320711],[-2.4511156,53.5286349],[-2.4413318,53.5349539],[-2.4357634,53.5418977],[-2.4400522,53.5490215],[-2.4351542,53.548933],[-2.438939,53.5524986],[-2.4472706,53.5556771],[-2.4540505,53.5567297],[-2.4552744,53.5603136],[-2.4507573,53.5599475],[-2.4494393,53.5652017],[-2.4574048,53.5643409]]],"type":"Polygon"},"id":"E02001009","properties":{"code":"E02001009","geography":"MSOA","name":"Bolton 026"},"type":"Feature"},{"geometry":{"coordinates":[[[-2.390814,53.5593694],[-2.3923057,53.5626327],[-2.4011198,53.5645202],[-2.4065814,53.5625927],[-2.4121799,53.5593587],[-2.4128517,53.5499615],[-2.4073684,53.5532752],[-2.4011549,53.5500364],[-2.3935788,53.5509633],[-2.3929778,53.5485975],[-2.3917502,53.5514778],[-2.3820833,53.551903],[-2.3792181,53.5559418],[-2.390814,53.5593694]]],"type":"Polygon"},"id":"E02001010","properties":{"code":"E02001010","geography":"MSOA","name":"Bolton 027"},"type":"Feature"},{"geometry":{"coordinates":[[[-2.485533,53.5632081],[-2.4960133,53.5694726],[-2.4944679,53.5726287],[-2.5090736,53.5615588],[-2.5238818,53.5556352],[-2.5178127,53.5424982],[-2.5143885,53.5447852],[-2.5118623,53.5417776],[-2.5149181,53.5391932],[-2.5073095,53.5377837],[-2.5002488,53.5381037],[-2.4960439,53.5490792],[-2.4860279,53.5541988],[-2.4936348,53.556873],[-2.485533,53.5632081]]],"type":"Polygon"},"id":"E02001011","properties":{"code":"E02001011","geography":"MSOA","name":"Bolton 028"},"type":"Feature"},{"geometry":{"coordinates":[[[-2.4121799,53.5593587],[-2.4185298,53.5618443],[-2.418004,53.5591657],[-2.427787,53.5573973],[-2.438939,53.5524986],[-2.4351542,53.548933],[-2.4110747,53.5473092],[-2.4128517,53.5499615],[-2.4121799,53.5593587]]],"type":"Polygon"},"id":"E02001012","properties":{"code":"E02001012","geography":"MSOA","name":"Bolton 029"},"type":"Feature"},{"geometry":{"coordinates":[[[-2.4732326,53.5621695],[-2.485533,53.5632081],[-2.4936348,53.556873],[-2.4860279,53.5541988],[-2.4960439,53.5490792],[-2.5002488,53.5381037],[-2.4749393,53.5326115],[-2.4716036,53.531706],[-2.4698413,53.5320711],[-2.4696188,53.554347],[-2.4647341,53.5568253],[-2.4646118,53.5620643],[-2.4732326,53.5621695]]],"type":"Polygon"},"id":"E02001013","properties":{"code":"E02001013","geography":"MSOA","name":"Bolton 030"},"type":"Feature"},{"geometry":{"coordinates":[[[-2.5090736,53.5615588],[-2.5189077,53.5640645],[-2.532106,53.5621158],[-2.5354894,53.5635709],[-2.5309201,53.5677285],[-2.5424545,53.5727944],[-2.547606,53.5675288],[-2.5576701,53.5679646],[-2.5555927,53.5620135],[-2.5599656,53.5558106],[-2.5693323,53.5476019],[-2.5580212,53.5444617],[-2.541089,53.5496289],[-2.5399004,53.5424126],[-2.5149181,53.5391932],[-2.5118623,53.5417776],[-2.5143885,53.5447852],[-2.5178127,53.5424982],[-2.5238818,53.5556352],[-2.5090736,53.5615588]]],"type":"Polygon"},"id":"E02001014","properties":{"code":"E02001014","geography":"MSOA","name":"Bolton 031"},"type":"Feature"},{"geometry":{"coordinates":[[[-2.3820833,53.551903],[-2.3917502,53.5514778],[-2.3929778,53.5485975],[-2.3935788,53.5509633],[-2.4011549,53.5500364],[-2.4073684,53.5532752],[-2.4128517,53.5499615],[-2.4110747,53.5473092],[-2.403972,53.5469981],[-2.405338,53.5416479],[-2.3996924,53.5441912],[-2.400113,53.5385438],[-2.3956812,53.5374502],[-2.3857282,53.5457666],[-2.3734733,53.5463356],[-2.3823896,53.5502887],[-2.3820833,53.551903]]],"type":"Polygon"},"id":"E02001015","properties":{"code":"E02001015","geography":"MSOA","name":"Bolton 032"},"type":"Feature"},{"geometry":{"coordinates":[[[-2.4351542,53.548933],[-2.4400522,53.5490215],[-2.4357634,53.5418977],[-2.410345,53.5385037],[-2.400113,53.5385438],[-2.3996924,53.5441912],[-2.405338,53.5416479],[-2.403972,53.5469981],[-2.4110747,53.5473092],[-2.4351542,53.548933]]],"type":"Polygon"},"id":"E02001016","properties":{"code":"E02001016","geography":"MSOA","name":"Bolton 033"},"type":"Feature"},{"geometry":{"coordinates":[[[-2.344266,53.5456101],[-2.3735908,53.5538984],[-2.3823896,53.5502887],[-2.3734733,53.5463356],[-2.3857282,53.5457666],[-2.3956812,53.5374502],[-2.3852029,53.5314489],[-2.3544225,53.5262536],[-2.3508683,53.5296797],[-2.3536841,53.5350518],[-2.3462858,53.537513],[-2.3382381,53.5336315],[-2.344266,53.5456101]]],"type":"Polygon"},"id":"E02001017","properties":{"code":"E02001017","geography":"MSOA","name":"Bolton 034"},"type":"Feature"},{"geometry":{"coordinates":[[[-2.5149181,53.5391932],[-2.5399004,53.5424126],[-2.541089,53.5496289],[-2.5580212,53.5444617],[-2.5619342,53.5391897],[-2.5586411,53.5379514],[-2.5526894,53.5360904],[-2.536337,53.527732],[-2.5337473,53.5230992],[-2.5244962,53.5263652],[-2.515799,53.5292719],[-2.5155312,53.5357882],[-2.5101802,53.5340754],[-2.5073095,53.5377837],[-2.5149181,53.5391932]]],"type":"Polygon"},"id":"E02001018","properties":{"code":"E02001018","geography":"MSOA","name":"Bolton 035"},"type":"Feature"}],"type":"FeatureCollection"}
