{"features":[{"geometry":{"coordinates":[[[-2.0359727,53.5303024],[-2.0549404,53.531344],[-2.0541276,53.5222524],[-2.061852,53.5223615],[-2.0622742,53.5131706],[-2.0499232,53.5106376],[-2.0479544,53.5053748],[-2.0446444,53.5016254],[-2.0400903,53.5018506],[-2.0398271,53.5070567],[-2.0235319,53.5113509],[-2.0261609,53.5164218],[-2.0338579,53.5154813],[-2.0367069,53.5199834],[-2.0190382,53.5252947],[-2.024805,53.5285785],[-2.0359727,53.5303024]]],"type":"Polygon"},"id":"E02001229","properties":{"code":"E02001229","geography":"MSOA","name":"Tameside 001"},"type":"Feature"},{"geometry":{"coordinates":[[[-2.0479544,53.5053748],[-2.0499232,53.5106376],[-2.0622742,53.5131706],[-2.061852,53.5223615],[-2.0931859,53.5205637],[-2.0935469,53.5180115],[-2.0976663,53.5144939],[-2.1068452,53.5088608],[-2.1031753,53.5084119],[-2.1055191,53.5036516],[-2.0993204,53.5036605],[-2.0974496,53.4968765],[-2.0971277,53.5038836],[-2.0945512,53.5016748],[-2.084979,53.5056482],[-2.0815417,53.5015201],[-2.0748759,53.5024634],[-2.07473,53.5064996],[-2.0687439,53.5041431],[-2.0545983,53.5056077],[-2.0543277,53.499222],[-2.0479544,53.5053748]]],"type":"Polygon"},"id":"E02001230","properties":{"code":"E02001230","geography":"MSOA","name":"Tameside 002"},"type":"Feature"},{"geometry":{"coordinates":[[[-1.9857887,53.5164311],[-1.9969214,53.5220342],[-2.0091917,53.5192091],[-2.0188073,53.521386],[-2.0190382,53.5252947],[-2.0367069,53.5199834],[-2.0338579,53.5154813],[-2.0261609,53.5164218],[-2.0235319,53.5113509],[-2.0398271,53.5070567],[-2.0400903,53.5018506],[-2.0446444,53.5016254],[-2.0479544,53.5053748],[-2.0543277,53.499222],[-2.0636131,53.4975256],[-2.0601642,53.4937957],[-2.0516862,53.4938885],[-2.051488,53.4872426],[-2.0496527,53.4902826],[-2.0466578,53.4892421],[-2.0398196,53.4961827],[-2.0208825,53.4965136],[-2.0160046,53.500847],[-2.0112253,53.4995469],[-2.015603,53.5031058],[-2.011651,53.5063196],[-2.0004113,53.5081018],[-1.9857887,53.5164311]]],"type":"Polygon"},"id":"E02001231","properties":{"code":"E02001231","geography":"MSOA","name":"Tameside 003"},"type":"Feature"},{"geometry":{"coordinates":[[[-2.0543277,53.499222],[-2.0545983,53.5056077],[-2.0687439,53.5041431],[-2.07473,53.5064996],[-2.0748759,53.5024634],[-2.0895953,53.4931003],[-2.082879,53.4934244],[-2.0838308,53.490877],[-2.077284,53.4930183],[-2.0760199,53.4976067],[-2.0636131,53.4975256],[-2.0543277,53.499222]]],"type":"Polygon"},"id":"E02001232","properties":{"code":"E02001232","geography":"MSOA","name":"Tameside 004"},"type":"Feature"},{"geometry":{"coordinates":[[[-2.0974496,53.4968765],[-2.0993204,53.5036605],[-2.1055191,53.5036516],[-2.1031753,53.5084119],[-2.1068452,53.5088608],[-2.1197024,53.505621],[-2.1218081,53.5007255],[-2.1223847,53.4908684],[-2.1038212,53.4919132],[-2.0974496,53.4968765]]],"type":"Polygon"},"id":"E02001233","properties":{"code":"E02001233","geography":"MSOA","name":"Tameside 005"},"type":"Feature"},{"geometry":{"coordinates":[[[-2.0748759,53.5024634],[-2.0815417,53.5015201],[-2.084979,53.5056482],[-2.0945512,53.5016748],[-2.0971277,53.5038836],[-2.0974496,53.4968765],[-2.1038212,53.4919132],[-2.0963527,53.4939362],[-2.0879542,53.4904411],[-2.0895953,53.4931003],[-2.0748759,53.5024634]]],"type":"Polygon"},"id":"E02001234","properties":{"code":"E02001234","geography":"MSOA","name":"Tameside 006"},"type":"Feature"},{"geometry":{"coordinates":[[[-2.0636131,53.4975256],[-2.0760199,53.4976067],[-2.077284,53.4930183],[-2.0838308,53.490877],[-2.082879,53.4934244],[-2.0895953,53.4931003],[-2.0879542,53.4904411],[-2.0851645,53.4894504],[-2.0895446,53.4845931],[-2.087514,53.4818706],[-2.075835,53.4826851],[-2.0749034,53.4807371],[-2.072946,53.4859337],[-2.0636131,53.4975256]]],"type":"Polygon"},"id":"E02001235","properties":{"code":"E02001235","geography":"MSOA","name":"Tameside 007"},"type":"Feature"},{"geometry":{"coordinates":[[[-2.0466578,53.4892421],[-2.0496527,53.4902826],[-2.051488,53.4872426],[-2.0516862,53.4938885],[-2.0601642,53.4937957],[-2.0636131,53.4975256],[-2.072946,53.4859337],[-2.0620679,53.4825152],[-2.0536384,53.4837957],[-2.0585235,53.4857321],[-2.0484766,53.4862096],[-2.0466578,53.4892421]]],"type":"Polygon"},"id":"E02001236","properties":{"code":"E02001236","geography":"MSOA","name":"Tameside 008"},"type":"Feature"},{"geometry":{"coordinates":[[[-1.9633888,53.50981],[-1.9857887,53.5164311],[-2.0004113,53.5081018],[-2.011651,53.5063196],[-2.015603,53.5031058],[-2.0112253,53.4995469],[-2.0160046,53.500847],[-2.0208825,53.4965136],[-2.0398196,53.4961827],[-2.0466578,53.4892421],[-2.0484766,53.4862096],[-2.0585235,53.4857321],[-2.0536384,53.4837957],[-2.0277476,53.4770014],[-2.0270941,53.4725916],[-2.0117162,53.4724825],[-2.0120293,53.4749016],[-2.0026369,53.4739214],[-1.9869708,53.4815567],[-1.9746334,53.4879183],[-1.9727219,53.5024692],[-1.9633888,53.50981]]],"type":"Polygon"},"id":"E02001237","properties":{"code":"E02001237","geography":"MSOA","name":"Tameside 009"},"type":"Feature"},{"geometry":{"coordinates":[[[-2.1223847,53.4908684],[-2.1218081,53.5007255],[-2.140985,53.4911275],[-2.137504,53.4898181],[-2.1467196,53.4844599],[-2.1496214,53.4724657],[-2.1437439,53.4739049],[-2.1445871,53.4773796],[-2.1365649,53.4821798],[-2.1283446,53.4857243],[-2.1226759,53.4844306],[-2.1174371,53.4873866],[-2.1223847,53.4908684]]],"type":"Polygon"},"id":"E02001238","properties":{"code":"E02001238","geography":"MSOA","name":"Tameside 010"},"type":"Feature"},{"geometry":{"coordinates":[[[-2.140985,53.4911275],[-2.1563128,53.4939431],[-2.1591666,53.4932265],[-2.1567457,53.488572],[-2.1636275,53.4845939],[-2.1554619,53.4796032],[-2.1566852,53.4752687],[-2.1504736,53.4725707],[-2.1496214,53.4724657],[-2.1467196,53.4844599],[-2.137504,53.4898181],[-2.140985,53.4911275]]],"type":"Polygon"},"id":"E02001239","properties":{"code":"E02001239","geography":"MSOA","name":"Tameside 011"},"type":"Feature"},{"geometry":{"coordinates":[[[-2.1566852,53.4752687],[-2.1554619,53.4796032],[-2.1636275,53.4845939],[-2.1567457,53.488572],[-2.1591666,53.4932265],[-2.1630557,53.4928501],[-2.1660158,53.4915785],[-2.1696497,53.4867746],[-2.1660055,53.4786659],[-2.1614984,53.4748754],[-2.1566852,53.4752687]]],"type":"Polygon"},"id":"E02001240","properties":{"code":"E02001240","geography":"MSOA","name":"Tameside 012"},"type":"Feature"},{"geometry":{"coordinates":[[[-2.0879542,53.4904411],[-2.0963527,53.4939362],[-2.1038212,53.4919132],[-2.1223847,53.4908684],[-2.1174371,53.4873866],[-2.1226759,53.4844306],[-2.1286008,53.4782852],[-2.1257419,53.4755725],[-2.1062402,53.4744516],[-2.1007684,53.4817395],[-2.0895446,53.4845931],[-2.0851645,53.4894504],[-2.0879542,53.4904411]]],"type":"Polygon"},"id":"E02001241","properties":{"code":"E02001241","geography":"MSOA","name":"Tameside 013"},"type":"Feature"},{"geometry":{"coordinates":[[[-2.1226759,53.4844306],[-2.1283446,53.4857243],[-2.1365649,53.4821798],[-2.1445871,53.4773796],[-2.1437439,53.4739049],[-2.1496214,53.4724657],[-2.1504736,53.4725707],[-2.1498952,53.4708968],[-2.1468643,53.4674813],[-2.152784,53.4632305],[-2.149095,53.4605996],[-2.1481195,53.4628311],[-2.1302067,53.464869],[-2.126513,53.4622961],[-2.1243627,53.4618203],[-2.121874,53.4659484],[-2.129282,53.4726402],[-2.1257419,53.4755725],[-2.1286008,53.4782852],[-2.1226759,53.4844306]]],"type":"Polygon"},"id":"E02001242","properties":{"code":"E02001242","geography":"MSOA","name":"Tameside 014"},"type":"Feature"},{"geometry":{"coordinates":[[[-2.0536384,53.4837957],[-2.0620679,53.4825152],[-2.072946,53.4859337],[-2.0749034,53.4807371],[-2.0716867,53.4770508],[-2.0640934,53.4802857],[-2.0467273,53.475336],[-2.0503109,53.4682857],[-2.0440709,53.4625223],[-2.0307492,53.4584884],[-2.0251225,53.4635219],[-2.0246183,53.4665008],[-2.0114894,53.4694003],[-2.0117162,53.4724825],[-2.0270941,53.4725916],[-2.0277476,53.4770014],[-2.0536384,53.4837957]]],"type":"Polygon"},"id":"E02001243","properties":{"code":"E02001243","geography":"MSOA","name":"Tameside 015"},"type":"Feature"},{"geometry":{"coordinates":[[[-2.0749034,53.4807371],[-2.075835,53.4826851],[-2.087514,53.4818706],[-2.0820168,53.4787277],[-2.0849098,53.4762278],[-2.057226,53.4734438],[-2.0602106,53.4681549],[-2.0539024,53.4693303],[-2.0503109,53.4682857],[-2.0467273,53.475336],[-2.0640934,53.4802857],[-2.0716867,53.4770508],[-2.0749034,53.4807371]]],"type":"Polygon"},"id":"E02001244","properties":{"code":"E02001244","geography":"MSOA","name":"Tameside 016"},"type":"Feature"},{"geometry":{"coordinates":[[[-2.087514,53.4818706],[-2.0895446,53.4845931],[-2.1007684,53.4817395],[-2.1062402,53.4744516],[-2.1058994,53.4652248],[-2.0983823,53.4635585],[-2.0782151,53.4664577],[-2.0770546,53.4698953],[-2.0866095,53.4691629],[-2.0977521,53.472631],[-2.0908483,53.4742582],[-2.0880203,53.4723231],[-2.0849098,53.4762278],[-2.0820168,53.4787277],[-2.087514,53.4818706]]],"type":"Polygon"},"id":"E02001245","properties":{"code":"E02001245","geography":"MSOA","name":"Tameside 017"},"type":"Feature"},{"geometry":{"coordinates":[[[-2.0602106,53.4681549],[-2.057226,53.4734438],[-2.0849098,53.4762278],[-2.0880203,53.4723231],[-2.0908483,53.4742582],[-2.0977521,53.472631],[-2.0866095,53.4691629],[-2.0770546,53.4698953],[-2.0782151,53.4664577],[-2.0602106,53.4681549]]],"type":"Polygon"},"id":"E02001246","properties":{"code":"E02001246","geography":"MSOA","name":"Tameside 018"},"type":"Feature"},{"geometry":{"coordinates":[[[-2.1062402,53.4744516],[-2.1257419,53.4755725],[-2.129282,53.4726402],[-2.121874,53.4659484],[-2.1243627,53.4618203],[-2.1178935,53.4620994],[-2.1058994,53.4652248],[-2.1062402,53.4744516]]],"type":"Polygon"},"id":"E02001247","properties":{"code":"E02001247","geography":"MSOA","name":"Tameside 019"},"type":"Feature"},{"geometry":{"coordinates":[[[-2.0723636,53.4532223],[-2.0634687,53.4560271],[-2.0684925,53.4589529],[-2.0680001,53.4641536],[-2.0620078,53.4611086],[-2.0539024,53.4693303],[-2.0602106,53.4681549],[-2.0782151,53.4664577],[-2.0983823,53.4635585],[-2.0985752,53.4610285],[-2.0937701,53.4586869],[-2.0954703,53.4560823],[-2.0723636,53.4532223]]],"type":"Polygon"},"id":"E02001248","properties":{"code":"E02001248","geography":"MSOA","name":"Tameside 020"},"type":"Feature"},{"geometry":{"coordinates":[[[-2.0983823,53.4635585],[-2.1058994,53.4652248],[-2.1178935,53.4620994],[-2.1149473,53.4584363],[-2.1230594,53.4572506],[-2.1176067,53.456156],[-2.1147198,53.4511109],[-2.119406,53.4496735],[-2.1193063,53.4457296],[-2.1138299,53.4461125],[-2.112034,53.4496153],[-2.1048647,53.4555265],[-2.105498,53.4605542],[-2.0985752,53.4610285],[-2.0983823,53.4635585]]],"type":"Polygon"},"id":"E02001249","properties":{"code":"E02001249","geography":"MSOA","name":"Tameside 021"},"type":"Feature"},{"geometry":{"coordinates":[[[-2.0503109,53.4682857],[-2.0539024,53.4693303],[-2.0620078,53.4611086],[-2.0680001,53.4641536],[-2.0684925,53.4589529],[-2.0634687,53.4560271],[-2.0723636,53.4532223],[-2.0635293,53.4510989],[-2.0629705,53.445287],[-2.0526576,53.4401833],[-2.0336654,53.4420435],[-2.0453294,53.4470965],[-2.0438026,53.455402],[-2.0486452,53.4571536],[-2.0440709,53.4625223],[-2.0503109,53.4682857]]],"type":"Polygon"},"id":"E02001250","properties":{"code":"E02001250","geography":"MSOA","name":"Tameside 022"},"type":"Feature"},{"geometry":{"coordinates":[[[-1.9815349,53.464488],[-1.9884633,53.4700053],[-1.9869708,53.4815567],[-2.0026369,53.4739214],[-2.0120293,53.4749016],[-2.0117162,53.4724825],[-2.0114894,53.4694003],[-2.0246183,53.4665008],[-2.0251225,53.4635219],[-2.0240531,53.4589908],[-2.0153909,53.4574564],[-2.021037,53.4556638],[-2.0131566,53.4571922],[-2.0117938,53.4534772],[-2.0036979,53.4536116],[-2.0118282,53.4525628],[-2.014014,53.4487677],[-2.0208005,53.4497892],[-2.0207683,53.4455376],[-2.0317099,53.441433],[-2.0272571,53.432343],[-2.0131138,53.4399282],[-2.0041611,53.4359063],[-2.0082809,53.4414017],[-1.9982161,53.4457819],[-1.9857349,53.4551968],[-1.988101,53.4605134],[-1.9815349,53.464488]]],"type":"Polygon"},"id":"E02001251","properties":{"code":"E02001251","geography":"MSOA","name":"Tameside 023"},"type":"Feature"},{"geometry":{"coordinates":[[[-2.126513,53.4622961],[-2.1302067,53.464869],[-2.1481195,53.4628311],[-2.149095,53.4605996],[-2.1584419,53.4548794],[-2.1550042,53.4515927],[-2.1433744,53.4447934],[-2.126513,53.4622961]]],"type":"Polygon"},"id":"E02001252","properties":{"code":"E02001252","geography":"MSOA","name":"Tameside 024"},"type":"Feature"},{"geometry":{"coordinates":[[[-2.1243627,53.4618203],[-2.126513,53.4622961],[-2.1433744,53.4447934],[-2.1445376,53.4436119],[-2.1416736,53.4384529],[-2.1336116,53.43817],[-2.1228845,53.4377369],[-2.123326,53.4410159],[-2.1193063,53.4457296],[-2.119406,53.4496735],[-2.1147198,53.4511109],[-2.1176067,53.456156],[-2.1230594,53.4572506],[-2.1149473,53.4584363],[-2.1178935,53.4620994],[-2.1243627,53.4618203]]],"type":"Polygon"},"id":"E02001253","properties":{"code":"E02001253","geography":"MSOA","name":"Tameside 025"},"type":"Feature"},{"geometry":{"coordinates":[[[-2.0954703,53.4560823],[-2.0937701,53.4586869],[-2.0985752,53.4610285],[-2.105498,53.4605542],[-2.1048647,53.4555265],[-2.112034,53.4496153],[-2.091146,53.4455903],[-2.0876913,53.4491213],[-2.0962557,53.4504459],[-2.0954703,53.4560823]]],"type":"Polygon"},"id":"E02001254","properties":{"code":"E02001254","geography":"MSOA","name":"Tameside 026"},"type":"Feature"},{"geometry":{"coordinates":[[[-2.0317099,53.441433],[-2.0207683,53.4455376],[-2.0208005,53.4497892],[-2.014014,53.4487677],[-2.0118282,53.4525628],[-2.0036979,53.4536116],[-2.0117938,53.4534772],[-2.0131566,53.4571922],[-2.021037,53.4556638],[-2.0153909,53.4574564],[-2.0240531,53.4589908],[-2.0251225,53.4635219],[-2.0307492,53.4584884],[-2.0440709,53.4625223],[-2.0486452,53.4571536],[-2.0438026,53.455402],[-2.0453294,53.4470965],[-2.0336654,53.4420435],[-2.0317099,53.441433]]],"type":"Polygon"},"id":"E02001255","properties":{"code":"E02001255","geography":"MSOA","name":"Tameside 027"},"type":"Feature"},{"geometry":{"coordinates":[[[-2.0723636,53.4532223],[-2.0954703,53.4560823],[-2.0962557,53.4504459],[-2.0876913,53.4491213],[-2.091146,53.4455903],[-2.0896917,53.4429625],[-2.0833234,53.4423901],[-2.0795926,53.4446997],[-2.0849908,53.44645],[-2.0801813,53.4470535],[-2.0738005,53.4415108],[-2.070217,53.4454233],[-2.067666,53.440092],[-2.0526576,53.4401833],[-2.0629705,53.445287],[-2.0635293,53.4510989],[-2.0723636,53.4532223]]],"type":"Polygon"},"id":"E02001256","properties":{"code":"E02001256","geography":"MSOA","name":"Tameside 028"},"type":"Feature"},{"geometry":{"coordinates":[[[-2.091146,53.4455903],[-2.112034,53.4496153],[-2.1138299,53.4461125],[-2.1193063,53.4457296],[-2.123326,53.4410159],[-2.1204168,53.4364409],[-2.11581,53.4406702],[-2.1070008,53.4335978],[-2.0970647,53.4334274],[-2.0978041,53.4368694],[-2.0927944,53.4375467],[-2.0896917,53.4429625],[-2.091146,53.4455903]]],"type":"Polygon"},"id":"E02001257","properties":{"code":"E02001257","geography":"MSOA","name":"Tameside 029"},"type":"Feature"},{"geometry":{"coordinates":[[[-2.0526576,53.4401833],[-2.067666,53.440092],[-2.070217,53.4454233],[-2.0738005,53.4415108],[-2.0801813,53.4470535],[-2.0849908,53.44645],[-2.0795926,53.4446997],[-2.0833234,53.4423901],[-2.0896917,53.4429625],[-2.0927944,53.4375467],[-2.0840375,53.4340809],[-2.0860151,53.4295464],[-2.0820946,53.4266523],[-2.0747211,53.4259202],[-2.0557789,53.4317326],[-2.0378116,53.4271483],[-2.0262251,53.4297859],[-2.0272571,53.432343],[-2.0317099,53.441433],[-2.0336654,53.4420435],[-2.0526576,53.4401833]]],"type":"Polygon"},"id":"E02001258","properties":{"code":"E02001258","geography":"MSOA","name":"Tameside 030"},"type":"Feature"}],"type":"FeatureCollection"}
