{"features":[{"geometry":{"coordinates":[[[-2.8434916,53.488265],[-2.8502678,53.4932373],[-2.8655017,53.4921768],[-2.8733353,53.5000239],[-2.8816682,53.5027406],[-2.8790476,53.4985821],[-2.8942098,53.4953524],[-2.884723,53.4843768],[-2.8786884,53.4900977],[-2.8737694,53.4889579],[-2.8747062,53.4840773],[-2.8718834,53.4830831],[-2.8681949,53.4874457],[-2.8689685,53.4848761],[-2.8545742,53.4855193],[-2.8532643,53.4893308],[-2.8481833,53.4884861],[-2.8465336,53.4820889],[-2.8434916,53.488265]]],"type":"Polygon"},"id":"E02001327","properties":{"code":"E02001327","geography":"MSOA","name":"Knowsley 001"},"type":"Feature"},{"geometry":{"coordinates":[[[-2.8816682,53.5027406],[-2.8879905,53.503816],[-2.8977458,53.5013844],[-2.8994178,53.491769],[-2.9052503,53.4919604],[-2.9126809,53.4831704],[-2.9195601,53.482057],[-2.9169919,53.4797262],[-2.9017952,53.486664],[-2.8910307,53.4830525],[-2.884723,53.4843768],[-2.8942098,53.4953524],[-2.8790476,53.4985821],[-2.8816682,53.5027406]]],"type":"Polygon"},"id":"E02001328","properties":{"code":"E02001328","geography":"MSOA","name":"Knowsley 002"},"type":"Feature"},{"geometry":{"coordinates":[[[-2.8747062,53.4840773],[-2.8737694,53.4889579],[-2.8786884,53.4900977],[-2.884723,53.4843768],[-2.8910307,53.4830525],[-2.9058723,53.470157],[-2.8914413,53.4630999],[-2.881821,53.4638119],[-2.8900884,53.4683851],[-2.8743738,53.4691074],[-2.8773882,53.4733691],[-2.8823021,53.4706158],[-2.8856853,53.4755301],[-2.8791051,53.4790263],[-2.8768549,53.475605],[-2.8705551,53.4762533],[-2.8764545,53.4806703],[-2.8747062,53.4840773]]],"type":"Polygon"},"id":"E02001329","properties":{"code":"E02001329","geography":"MSOA","name":"Knowsley 003"},"type":"Feature"},{"geometry":{"coordinates":[[[-2.8910307,53.4830525],[-2.9017952,53.486664],[-2.9169919,53.4797262],[-2.9225683,53.474983],[-2.9137687,53.4648565],[-2.9049247,53.4652298],[-2.9058723,53.470157],[-2.8910307,53.4830525]]],"type":"Polygon"},"id":"E02001330","properties":{"code":"E02001330","geography":"MSOA","name":"Knowsley 004"},"type":"Feature"},{"geometry":{"coordinates":[[[-2.8434916,53.488265],[-2.8465336,53.4820889],[-2.8481833,53.4884861],[-2.8532643,53.4893308],[-2.8545742,53.4855193],[-2.8689685,53.4848761],[-2.8681949,53.4874457],[-2.8718834,53.4830831],[-2.8747062,53.4840773],[-2.8764545,53.4806703],[-2.8705551,53.4762533],[-2.8768549,53.475605],[-2.8791051,53.4790263],[-2.8856853,53.4755301],[-2.8823021,53.4706158],[-2.8773882,53.4733691],[-2.8743738,53.4691074],[-2.8900884,53.4683851],[-2.881821,53.4638119],[-2.8914413,53.4630999],[-2.8881563,53.4606444],[-2.8678728,53.4492744],[-2.8701236,53.4416795],[-2.8579697,53.4409377],[-2.8510084,53.4331043],[-2.8386025,53.4301707],[-2.8413707,53.4283097],[-2.8296275,53.4301015],[-2.833693,53.4336934],[-2.825413,53.4342907],[-2.8289985,53.4398569],[-2.8239282,53.443901],[-2.8054084,53.4400389],[-2.7951112,53.4430725],[-2.8069423,53.4559018],[-2.8045086,53.4671914],[-2.8186721,53.466882],[-2.8167935,53.4778673],[-2.8249646,53.4851931],[-2.8255751,53.4827659],[-2.8444218,53.4841145],[-2.8434916,53.488265]]],"type":"Polygon"},"id":"E02001331","properties":{"code":"E02001331","geography":"MSOA","name":"Knowsley 005"},"type":"Feature"},{"geometry":{"coordinates":[[[-2.8413707,53.4283097],[-2.8386025,53.4301707],[-2.8510084,53.4331043],[-2.8579697,53.4409377],[-2.8701236,53.4416795],[-2.873261,53.4363945],[-2.86689,53.4282476],[-2.8613511,53.4303658],[-2.8527767,53.4269325],[-2.8413707,53.4283097]]],"type":"Polygon"},"id":"E02001332","properties":{"code":"E02001332","geography":"MSOA","name":"Knowsley 006"},"type":"Feature"},{"geometry":{"coordinates":[[[-2.7926665,53.4310421],[-2.7973396,53.4336393],[-2.8173416,53.4326931],[-2.8235757,53.4310556],[-2.8232991,53.42733],[-2.8141946,53.4202023],[-2.8176741,53.4155161],[-2.8175753,53.4151688],[-2.7952557,53.4192999],[-2.7982334,53.4208935],[-2.7937478,53.4225783],[-2.7990483,53.4241609],[-2.7926665,53.4310421]]],"type":"Polygon"},"id":"E02001333","properties":{"code":"E02001333","geography":"MSOA","name":"Knowsley 007"},"type":"Feature"},{"geometry":{"coordinates":[[[-2.8527767,53.4269325],[-2.8613511,53.4303658],[-2.86689,53.4282476],[-2.8701644,53.4251382],[-2.8680076,53.4205243],[-2.8593382,53.4202941],[-2.8592533,53.4180967],[-2.8486534,53.4204387],[-2.8527767,53.4269325]]],"type":"Polygon"},"id":"E02001334","properties":{"code":"E02001334","geography":"MSOA","name":"Knowsley 008"},"type":"Feature"},{"geometry":{"coordinates":[[[-2.7762156,53.4266521],[-2.7926665,53.4310421],[-2.7990483,53.4241609],[-2.7937478,53.4225783],[-2.7982334,53.4208935],[-2.7952557,53.4192999],[-2.7908267,53.4192285],[-2.7948227,53.414069],[-2.7856749,53.4149395],[-2.7781694,53.4162063],[-2.7803041,53.4205786],[-2.7762156,53.4266521]]],"type":"Polygon"},"id":"E02001335","properties":{"code":"E02001335","geography":"MSOA","name":"Knowsley 009"},"type":"Feature"},{"geometry":{"coordinates":[[[-2.8054084,53.4400389],[-2.8239282,53.443901],[-2.8289985,53.4398569],[-2.825413,53.4342907],[-2.833693,53.4336934],[-2.8296275,53.4301015],[-2.8413707,53.4283097],[-2.8527767,53.4269325],[-2.8486534,53.4204387],[-2.8454777,53.4126778],[-2.8404458,53.414158],[-2.8424695,53.4215382],[-2.8232991,53.42733],[-2.8235757,53.4310556],[-2.8173416,53.4326931],[-2.7973396,53.4336393],[-2.7969076,53.436045],[-2.8054084,53.4400389]]],"type":"Polygon"},"id":"E02001336","properties":{"code":"E02001336","geography":"MSOA","name":"Knowsley 010"},"type":"Feature"},{"geometry":{"coordinates":[[[-2.8176741,53.4155161],[-2.8141946,53.4202023],[-2.8232991,53.42733],[-2.8424695,53.4215382],[-2.8404458,53.414158],[-2.8401564,53.413761],[-2.8234296,53.4174627],[-2.8176741,53.4155161]]],"type":"Polygon"},"id":"E02001337","properties":{"code":"E02001337","geography":"MSOA","name":"Knowsley 011"},"type":"Feature"},{"geometry":{"coordinates":[[[-2.8486534,53.4204387],[-2.8592533,53.4180967],[-2.8593382,53.4202941],[-2.8680076,53.4205243],[-2.8687146,53.4155532],[-2.8621926,53.4101565],[-2.8556789,53.410029],[-2.8548069,53.414109],[-2.8454777,53.4126778],[-2.8486534,53.4204387]]],"type":"Polygon"},"id":"E02001338","properties":{"code":"E02001338","geography":"MSOA","name":"Knowsley 012"},"type":"Feature"},{"geometry":{"coordinates":[[[-2.7856749,53.4149395],[-2.7948227,53.414069],[-2.7908267,53.4192285],[-2.7952557,53.4192999],[-2.8175753,53.4151688],[-2.8165527,53.4118859],[-2.8021341,53.4099716],[-2.799396,53.4040314],[-2.7933205,53.402345],[-2.7908627,53.406864],[-2.7842581,53.4075868],[-2.7856749,53.4149395]]],"type":"Polygon"},"id":"E02001339","properties":{"code":"E02001339","geography":"MSOA","name":"Knowsley 013"},"type":"Feature"},{"geometry":{"coordinates":[[[-2.8804691,53.4157558],[-2.884794,53.4165817],[-2.8923637,53.4109545],[-2.8905353,53.4068965],[-2.8812326,53.4069768],[-2.8722856,53.400961],[-2.8681647,53.4041626],[-2.8727281,53.4084224],[-2.8621926,53.4101565],[-2.8687146,53.4155532],[-2.8712131,53.4123779],[-2.8804691,53.4157558]]],"type":"Polygon"},"id":"E02001340","properties":{"code":"E02001340","geography":"MSOA","name":"Knowsley 014"},"type":"Feature"},{"geometry":{"coordinates":[[[-2.8176741,53.4155161],[-2.8234296,53.4174627],[-2.8401564,53.413761],[-2.8415045,53.4095564],[-2.8339425,53.4098816],[-2.8415999,53.4052509],[-2.8366226,53.4034134],[-2.8261228,53.39973],[-2.8159781,53.402938],[-2.8129271,53.4074729],[-2.8165527,53.4118859],[-2.8175753,53.4151688],[-2.8176741,53.4155161]]],"type":"Polygon"},"id":"E02001341","properties":{"code":"E02001341","geography":"MSOA","name":"Knowsley 015"},"type":"Feature"},{"geometry":{"coordinates":[[[-2.8454777,53.4126778],[-2.8548069,53.414109],[-2.8556789,53.410029],[-2.8621926,53.4101565],[-2.8727281,53.4084224],[-2.8681647,53.4041626],[-2.8722856,53.400961],[-2.8714597,53.4000996],[-2.8562881,53.3949756],[-2.8479883,53.3969521],[-2.8373456,53.3998532],[-2.8366226,53.4034134],[-2.8415999,53.4052509],[-2.8339425,53.4098816],[-2.8415045,53.4095564],[-2.8401564,53.413761],[-2.8404458,53.414158],[-2.8454777,53.4126778]]],"type":"Polygon"},"id":"E02001342","properties":{"code":"E02001342","geography":"MSOA","name":"Knowsley 016"},"type":"Feature"},{"geometry":{"coordinates":[[[-2.7842581,53.4075868],[-2.7908627,53.406864],[-2.7933205,53.402345],[-2.799396,53.4040314],[-2.8021341,53.4099716],[-2.8165527,53.4118859],[-2.8129271,53.4074729],[-2.8159781,53.402938],[-2.8261228,53.39973],[-2.8366226,53.4034134],[-2.8373456,53.3998532],[-2.8336497,53.3889254],[-2.8228387,53.3822497],[-2.824223,53.3800299],[-2.8204427,53.3741246],[-2.8327505,53.3744608],[-2.8350034,53.3715239],[-2.8198358,53.3668985],[-2.8232145,53.36548],[-2.8216523,53.356122],[-2.8114936,53.3533451],[-2.7871982,53.3563175],[-2.7812267,53.3716479],[-2.7726048,53.3819969],[-2.7676654,53.3837697],[-2.7576537,53.3807221],[-2.7602701,53.3843196],[-2.7494598,53.3881612],[-2.7471061,53.3923767],[-2.7506472,53.3937721],[-2.743396,53.3952694],[-2.745204,53.401914],[-2.7867763,53.4011717],[-2.7842581,53.4075868]]],"type":"Polygon"},"id":"E02001343","properties":{"code":"E02001343","geography":"MSOA","name":"Knowsley 017"},"type":"Feature"},{"geometry":{"coordinates":[[[-2.824223,53.3800299],[-2.8447624,53.3820427],[-2.8539055,53.3798436],[-2.8524255,53.37221],[-2.8535961,53.3649244],[-2.8450065,53.3636147],[-2.8453855,53.3724834],[-2.8374296,53.3695879],[-2.8350034,53.3715239],[-2.8327505,53.3744608],[-2.8204427,53.3741246],[-2.824223,53.3800299]]],"type":"Polygon"},"id":"E02001344","properties":{"code":"E02001344","geography":"MSOA","name":"Knowsley 018"},"type":"Feature"},{"geometry":{"coordinates":[[[-2.8350034,53.3715239],[-2.8374296,53.3695879],[-2.8453855,53.3724834],[-2.8450065,53.3636147],[-2.8461359,53.3610844],[-2.833107,53.3573819],[-2.8314955,53.3596342],[-2.836846,53.3615606],[-2.8232145,53.36548],[-2.8198358,53.3668985],[-2.8350034,53.3715239]]],"type":"Polygon"},"id":"E02001345","properties":{"code":"E02001345","geography":"MSOA","name":"Knowsley 019"},"type":"Feature"},{"geometry":{"coordinates":[[[-2.8114936,53.3533451],[-2.8216523,53.356122],[-2.8232145,53.36548],[-2.836846,53.3615606],[-2.8314955,53.3596342],[-2.833107,53.3573819],[-2.8461359,53.3610844],[-2.8450065,53.3636147],[-2.8535961,53.3649244],[-2.8463109,53.3539909],[-2.840489,53.3473853],[-2.8184391,53.347992],[-2.8114936,53.3533451]]],"type":"Polygon"},"id":"E02001346","properties":{"code":"E02001346","geography":"MSOA","name":"Knowsley 020"},"type":"Feature"}],"type":"FeatureCollection"}
