{"features":[{"geometry":{"coordinates":[[[-1.6816781,53.7564789],[-1.7047488,53.7648354],[-1.7222139,53.7588183],[-1.7295336,53.7513129],[-1.7196096,53.7495124],[-1.7157899,53.7444898],[-1.699998,53.7444963],[-1.702081,53.7404684],[-1.6922384,53.7371811],[-1.6907965,53.7407114],[-1.6800197,53.7374315],[-1.6724238,53.7365576],[-1.6671082,53.7405992],[-1.6786183,53.7467011],[-1.6757275,53.7521148],[-1.6816781,53.7564789]]],"type":"Polygon"},"id":"E02002271","properties":{"code":"E02002271","geography":"MSOA","name":"Kirklees 001"},"type":"Feature"},{"geometry":{"coordinates":[[[-1.6385738,53.7461785],[-1.6583646,53.7454733],[-1.6757275,53.7521148],[-1.6786183,53.7467011],[-1.6671082,53.7405992],[-1.6724238,53.7365576],[-1.6800197,53.7374315],[-1.6682077,53.7320657],[-1.6728262,53.7261584],[-1.6718173,53.7222354],[-1.6674826,53.7226503],[-1.6662186,53.7223666],[-1.6576316,53.7301529],[-1.6535333,53.7290635],[-1.6450117,53.7332683],[-1.6393182,53.728719],[-1.6319903,53.7315779],[-1.6385738,53.7461785]]],"type":"Polygon"},"id":"E02002272","properties":{"code":"E02002272","geography":"MSOA","name":"Kirklees 002"},"type":"Feature"},{"geometry":{"coordinates":[[[-1.6922384,53.7371811],[-1.702081,53.7404684],[-1.699998,53.7444963],[-1.7157899,53.7444898],[-1.7196096,53.7495124],[-1.7295336,53.7513129],[-1.7363019,53.7471548],[-1.7470244,53.7462236],[-1.7459414,53.7344518],[-1.7609852,53.7345324],[-1.7700836,53.7262373],[-1.7536813,53.7257902],[-1.7553992,53.7207154],[-1.745007,53.7178785],[-1.7474708,53.72008],[-1.7361628,53.7253902],[-1.7244313,53.7308776],[-1.7119558,53.7307718],[-1.709523,53.7374821],[-1.6922384,53.7371811]]],"type":"Polygon"},"id":"E02002273","properties":{"code":"E02002273","geography":"MSOA","name":"Kirklees 003"},"type":"Feature"},{"geometry":{"coordinates":[[[-1.6800197,53.7374315],[-1.6907965,53.7407114],[-1.6922384,53.7371811],[-1.709523,53.7374821],[-1.7119558,53.7307718],[-1.7057406,53.723743],[-1.7012184,53.7246772],[-1.6839803,53.7253332],[-1.6791473,53.7224573],[-1.6728262,53.7261584],[-1.6682077,53.7320657],[-1.6800197,53.7374315]]],"type":"Polygon"},"id":"E02002274","properties":{"code":"E02002274","geography":"MSOA","name":"Kirklees 004"},"type":"Feature"},{"geometry":{"coordinates":[[[-1.7195128,53.7162271],[-1.7153821,53.7222793],[-1.7038604,53.7148299],[-1.69811,53.7204459],[-1.7012184,53.7246772],[-1.7057406,53.723743],[-1.7119558,53.7307718],[-1.7244313,53.7308776],[-1.7361628,53.7253902],[-1.7235022,53.7202092],[-1.7195579,53.716272],[-1.719608,53.7161867],[-1.72449,53.7165564],[-1.7219956,53.7125885],[-1.7195128,53.7162271]]],"type":"Polygon"},"id":"E02002275","properties":{"code":"E02002275","geography":"MSOA","name":"Kirklees 005"},"type":"Feature"},{"geometry":{"coordinates":[[[-1.6319903,53.7315779],[-1.6393182,53.728719],[-1.6450117,53.7332683],[-1.6535333,53.7290635],[-1.6576316,53.7301529],[-1.6662186,53.7223666],[-1.6612727,53.7106477],[-1.6576604,53.716405],[-1.6524393,53.7158287],[-1.6450521,53.7177612],[-1.6471732,53.7195139],[-1.6302512,53.7226124],[-1.6267823,53.7239976],[-1.6319903,53.7315779]]],"type":"Polygon"},"id":"E02002276","properties":{"code":"E02002276","geography":"MSOA","name":"Kirklees 006"},"type":"Feature"},{"geometry":{"coordinates":[[[-1.5889044,53.71734],[-1.6055401,53.7211664],[-1.6231278,53.7184521],[-1.6267823,53.7239976],[-1.6302512,53.7226124],[-1.6348476,53.7170196],[-1.6270708,53.7112041],[-1.6204926,53.7088714],[-1.611226,53.7083204],[-1.6137228,53.713351],[-1.601502,53.7120474],[-1.5842156,53.703093],[-1.5711292,53.7064158],[-1.5889044,53.71734]]],"type":"Polygon"},"id":"E02002277","properties":{"code":"E02002277","geography":"MSOA","name":"Kirklees 007"},"type":"Feature"},{"geometry":{"coordinates":[[[-1.7195579,53.716272],[-1.7235022,53.7202092],[-1.7361628,53.7253902],[-1.7474708,53.72008],[-1.745007,53.7178785],[-1.7358692,53.7132692],[-1.7367915,53.7080972],[-1.7283505,53.7070717],[-1.7189219,53.7102317],[-1.7031118,53.7075999],[-1.7031962,53.7121304],[-1.6964189,53.7111304],[-1.7038604,53.7148299],[-1.7153821,53.7222793],[-1.7195128,53.7162271],[-1.7219956,53.7125885],[-1.72449,53.7165564],[-1.719608,53.7161867],[-1.7195579,53.716272]]],"type":"Polygon"},"id":"E02002278","properties":{"code":"E02002278","geography":"MSOA","name":"Kirklees 008"},"type":"Feature"},{"geometry":{"coordinates":[[[-1.6674826,53.7226503],[-1.6718173,53.7222354],[-1.6728262,53.7261584],[-1.6791473,53.7224573],[-1.6839803,53.7253332],[-1.7012184,53.7246772],[-1.69811,53.7204459],[-1.7038604,53.7148299],[-1.6964189,53.7111304],[-1.7031962,53.7121304],[-1.7031118,53.7075999],[-1.6940672,53.7093055],[-1.6868377,53.7055972],[-1.6782406,53.7059494],[-1.6835929,53.7120745],[-1.6674826,53.7226503]]],"type":"Polygon"},"id":"E02002279","properties":{"code":"E02002279","geography":"MSOA","name":"Kirklees 009"},"type":"Feature"},{"geometry":{"coordinates":[[[-1.6270708,53.7112041],[-1.6348476,53.7170196],[-1.6302512,53.7226124],[-1.6471732,53.7195139],[-1.6450521,53.7177612],[-1.6524393,53.7158287],[-1.6465826,53.7125154],[-1.6474404,53.7074796],[-1.6415201,53.7076879],[-1.6374718,53.7110631],[-1.6316102,53.7091398],[-1.6270708,53.7112041]]],"type":"Polygon"},"id":"E02002280","properties":{"code":"E02002280","geography":"MSOA","name":"Kirklees 010"},"type":"Feature"},{"geometry":{"coordinates":[[[-1.6662186,53.7223666],[-1.6674826,53.7226503],[-1.6835929,53.7120745],[-1.6782406,53.7059494],[-1.6761194,53.7092772],[-1.6690904,53.7040992],[-1.674209,53.7009828],[-1.66538,53.6989063],[-1.6614504,53.7012617],[-1.657227,53.7033931],[-1.6612727,53.7106477],[-1.6662186,53.7223666]]],"type":"Polygon"},"id":"E02002281","properties":{"code":"E02002281","geography":"MSOA","name":"Kirklees 011"},"type":"Feature"},{"geometry":{"coordinates":[[[-1.6524393,53.7158287],[-1.6576604,53.716405],[-1.6612727,53.7106477],[-1.657227,53.7033931],[-1.6614504,53.7012617],[-1.6468104,53.7060464],[-1.6421483,53.7043792],[-1.6415201,53.7076879],[-1.6474404,53.7074796],[-1.6465826,53.7125154],[-1.6524393,53.7158287]]],"type":"Polygon"},"id":"E02002282","properties":{"code":"E02002282","geography":"MSOA","name":"Kirklees 012"},"type":"Feature"},{"geometry":{"coordinates":[[[-1.6204926,53.7088714],[-1.6270708,53.7112041],[-1.6316102,53.7091398],[-1.6374718,53.7110631],[-1.6415201,53.7076879],[-1.6421483,53.7043792],[-1.6424646,53.7015228],[-1.6291692,53.6993102],[-1.6241426,53.6970814],[-1.6169783,53.6985761],[-1.6236308,53.7036162],[-1.6183453,53.7058641],[-1.6204926,53.7088714]]],"type":"Polygon"},"id":"E02002283","properties":{"code":"E02002283","geography":"MSOA","name":"Kirklees 013"},"type":"Feature"},{"geometry":{"coordinates":[[[-1.5842156,53.703093],[-1.601502,53.7120474],[-1.6137228,53.713351],[-1.611226,53.7083204],[-1.6204926,53.7088714],[-1.6183453,53.7058641],[-1.6236308,53.7036162],[-1.6169783,53.6985761],[-1.6241426,53.6970814],[-1.6291692,53.6993102],[-1.6250217,53.6958749],[-1.6155011,53.6973248],[-1.6106209,53.6939459],[-1.6068221,53.6988325],[-1.6011338,53.6967957],[-1.5842156,53.703093]]],"type":"Polygon"},"id":"E02002284","properties":{"code":"E02002284","geography":"MSOA","name":"Kirklees 014"},"type":"Feature"},{"geometry":{"coordinates":[[[-1.7031118,53.7075999],[-1.7189219,53.7102317],[-1.7283505,53.7070717],[-1.7367915,53.7080972],[-1.7394933,53.6993731],[-1.7331973,53.6947834],[-1.732182,53.6845661],[-1.727223,53.6827958],[-1.7243393,53.6844799],[-1.7269897,53.6860948],[-1.7022524,53.6941454],[-1.6987049,53.6967572],[-1.6946919,53.69354],[-1.666139,53.6937138],[-1.66538,53.6989063],[-1.674209,53.7009828],[-1.6690904,53.7040992],[-1.6761194,53.7092772],[-1.6782406,53.7059494],[-1.6868377,53.7055972],[-1.6940672,53.7093055],[-1.7031118,53.7075999]]],"type":"Polygon"},"id":"E02002285","properties":{"code":"E02002285","geography":"MSOA","name":"Kirklees 015"},"type":"Feature"},{"geometry":{"coordinates":[[[-1.6421483,53.7043792],[-1.6468104,53.7060464],[-1.6614504,53.7012617],[-1.66538,53.6989063],[-1.666139,53.6937138],[-1.6634537,53.6905792],[-1.6512686,53.6928367],[-1.6466178,53.6959206],[-1.6519015,53.6991283],[-1.6424646,53.7015228],[-1.6421483,53.7043792]]],"type":"Polygon"},"id":"E02002286","properties":{"code":"E02002286","geography":"MSOA","name":"Kirklees 016"},"type":"Feature"},{"geometry":{"coordinates":[[[-1.6291692,53.6993102],[-1.6424646,53.7015228],[-1.6519015,53.6991283],[-1.6466178,53.6959206],[-1.6512686,53.6928367],[-1.640742,53.6923048],[-1.6347877,53.6889099],[-1.6269534,53.6875068],[-1.6207937,53.6902953],[-1.6250217,53.6958749],[-1.6291692,53.6993102]]],"type":"Polygon"},"id":"E02002287","properties":{"code":"E02002287","geography":"MSOA","name":"Kirklees 017"},"type":"Feature"},{"geometry":{"coordinates":[[[-1.6011338,53.6967957],[-1.6068221,53.6988325],[-1.6106209,53.6939459],[-1.6155011,53.6973248],[-1.6250217,53.6958749],[-1.6207937,53.6902953],[-1.6269534,53.6875068],[-1.6151853,53.6772588],[-1.6050973,53.6793961],[-1.5963068,53.6864206],[-1.5922186,53.691495],[-1.6026079,53.692147],[-1.6011338,53.6967957]]],"type":"Polygon"},"id":"E02002288","properties":{"code":"E02002288","geography":"MSOA","name":"Kirklees 018"},"type":"Feature"},{"geometry":{"coordinates":[[[-1.6347877,53.6889099],[-1.640742,53.6923048],[-1.6512686,53.6928367],[-1.6634537,53.6905792],[-1.6658939,53.6883104],[-1.6613166,53.684605],[-1.6467145,53.680735],[-1.6366296,53.6786599],[-1.6347877,53.6889099]]],"type":"Polygon"},"id":"E02002289","properties":{"code":"E02002289","geography":"MSOA","name":"Kirklees 019"},"type":"Feature"},{"geometry":{"coordinates":[[[-1.666139,53.6937138],[-1.6946919,53.69354],[-1.6987049,53.6967572],[-1.7022524,53.6941454],[-1.693257,53.6838919],[-1.6857875,53.6793858],[-1.6854066,53.6748162],[-1.6778306,53.6750055],[-1.6704873,53.6855169],[-1.6613166,53.684605],[-1.6658939,53.6883104],[-1.6634537,53.6905792],[-1.666139,53.6937138]]],"type":"Polygon"},"id":"E02002290","properties":{"code":"E02002290","geography":"MSOA","name":"Kirklees 020"},"type":"Feature"},{"geometry":{"coordinates":[[[-1.693257,53.6838919],[-1.7022524,53.6941454],[-1.7269897,53.6860948],[-1.7243393,53.6844799],[-1.7067205,53.6768869],[-1.6991135,53.6817882],[-1.6948006,53.6787007],[-1.693257,53.6838919]]],"type":"Polygon"},"id":"E02002291","properties":{"code":"E02002291","geography":"MSOA","name":"Kirklees 021"},"type":"Feature"},{"geometry":{"coordinates":[[[-1.7319565,53.6803585],[-1.7463181,53.6944091],[-1.7598043,53.6925028],[-1.7629299,53.6892308],[-1.787679,53.6825957],[-1.7968498,53.6810413],[-1.7930595,53.679088],[-1.798973,53.6785922],[-1.7968142,53.6735654],[-1.7908291,53.6759659],[-1.778389,53.6748165],[-1.7676464,53.6766716],[-1.7624737,53.6706569],[-1.754067,53.6809154],[-1.7510342,53.6761012],[-1.7379142,53.6803479],[-1.7319565,53.6803585]]],"type":"Polygon"},"id":"E02002292","properties":{"code":"E02002292","geography":"MSOA","name":"Kirklees 022"},"type":"Feature"},{"geometry":{"coordinates":[[[-1.6613166,53.684605],[-1.6704873,53.6855169],[-1.6778306,53.6750055],[-1.6648818,53.6735139],[-1.6588628,53.6765883],[-1.6473116,53.67335],[-1.6482825,53.6682387],[-1.6401517,53.6677909],[-1.6381154,53.6713283],[-1.643009,53.6753559],[-1.6399439,53.6766388],[-1.6467145,53.680735],[-1.6613166,53.684605]]],"type":"Polygon"},"id":"E02002293","properties":{"code":"E02002293","geography":"MSOA","name":"Kirklees 023"},"type":"Feature"},{"geometry":{"coordinates":[[[-1.6269534,53.6875068],[-1.6347877,53.6889099],[-1.6366296,53.6786599],[-1.6467145,53.680735],[-1.6399439,53.6766388],[-1.643009,53.6753559],[-1.6381154,53.6713283],[-1.6401517,53.6677909],[-1.6264072,53.6674636],[-1.6284858,53.6647734],[-1.6251869,53.6642789],[-1.6233627,53.6673204],[-1.6150897,53.6667261],[-1.6158672,53.6697844],[-1.6082712,53.6711016],[-1.6151853,53.6772588],[-1.6269534,53.6875068]]],"type":"Polygon"},"id":"E02002294","properties":{"code":"E02002294","geography":"MSOA","name":"Kirklees 024"},"type":"Feature"},{"geometry":{"coordinates":[[[-1.7379142,53.6803479],[-1.7510342,53.6761012],[-1.754067,53.6809154],[-1.7624737,53.6706569],[-1.7676464,53.6766716],[-1.778389,53.6748165],[-1.7791593,53.6716262],[-1.745187,53.6648147],[-1.7459848,53.6671968],[-1.7373702,53.6683647],[-1.7314035,53.680347],[-1.7319565,53.6803585],[-1.7379142,53.6803479]]],"type":"Polygon"},"id":"E02002295","properties":{"code":"E02002295","geography":"MSOA","name":"Kirklees 025"},"type":"Feature"},{"geometry":{"coordinates":[[[-1.6778306,53.6750055],[-1.6854066,53.6748162],[-1.6857875,53.6793858],[-1.693257,53.6838919],[-1.6948006,53.6787007],[-1.6991135,53.6817882],[-1.7067205,53.6768869],[-1.7173926,53.6632614],[-1.7042453,53.6555835],[-1.6986219,53.6561302],[-1.689353,53.6512065],[-1.6779604,53.651063],[-1.6752782,53.6539797],[-1.6610477,53.6630858],[-1.6648818,53.6735139],[-1.6778306,53.6750055]]],"type":"Polygon"},"id":"E02002296","properties":{"code":"E02002296","geography":"MSOA","name":"Kirklees 026"},"type":"Feature"},{"geometry":{"coordinates":[[[-1.778389,53.6748165],[-1.7908291,53.6759659],[-1.7968142,53.6735654],[-1.798973,53.6785922],[-1.7930595,53.679088],[-1.7968498,53.6810413],[-1.8128508,53.6773039],[-1.8207098,53.672027],[-1.8274459,53.6700391],[-1.821634,53.6655761],[-1.8264498,53.6621061],[-1.819184,53.6611],[-1.8145052,53.6597209],[-1.8162148,53.6629522],[-1.8112065,53.662794],[-1.8056888,53.6598491],[-1.802533,53.6576124],[-1.7934251,53.6635115],[-1.7973412,53.6658781],[-1.7835563,53.6640017],[-1.7805281,53.6634315],[-1.7791593,53.6716262],[-1.778389,53.6748165]]],"type":"Polygon"},"id":"E02002297","properties":{"code":"E02002297","geography":"MSOA","name":"Kirklees 027"},"type":"Feature"},{"geometry":{"coordinates":[[[-1.6401517,53.6677909],[-1.6482825,53.6682387],[-1.6473116,53.67335],[-1.6588628,53.6765883],[-1.6648818,53.6735139],[-1.6610477,53.6630858],[-1.6752782,53.6539797],[-1.6704789,53.6510589],[-1.6703579,53.6430925],[-1.6628293,53.6416099],[-1.6348244,53.6539038],[-1.6242027,53.6540613],[-1.5908336,53.6604509],[-1.6082712,53.6711016],[-1.6158672,53.6697844],[-1.6150897,53.6667261],[-1.6233627,53.6673204],[-1.6251869,53.6642789],[-1.6284858,53.6647734],[-1.6264072,53.6674636],[-1.6401517,53.6677909]]],"type":"Polygon"},"id":"E02002298","properties":{"code":"E02002298","geography":"MSOA","name":"Kirklees 028"},"type":"Feature"},{"geometry":{"coordinates":[[[-1.745187,53.6648147],[-1.7791593,53.6716262],[-1.7805281,53.6634315],[-1.7835563,53.6640017],[-1.7765738,53.6585267],[-1.7793168,53.6557579],[-1.7873616,53.6558499],[-1.7829252,53.6504954],[-1.7823874,53.6468562],[-1.785823,53.6469803],[-1.78617,53.6451165],[-1.7670443,53.6428169],[-1.7691358,53.6506506],[-1.7642161,53.6571745],[-1.7581306,53.6613714],[-1.7496748,53.6613656],[-1.745187,53.6648147]]],"type":"Polygon"},"id":"E02002299","properties":{"code":"E02002299","geography":"MSOA","name":"Kirklees 029"},"type":"Feature"},{"geometry":{"coordinates":[[[-1.8274459,53.6700391],[-1.8355708,53.6689898],[-1.8536266,53.6725681],[-1.8435991,53.6660937],[-1.8542028,53.6635758],[-1.8404807,53.656831],[-1.8353166,53.6560075],[-1.834617,53.6582445],[-1.8201184,53.6564173],[-1.819184,53.6611],[-1.8264498,53.6621061],[-1.821634,53.6655761],[-1.8274459,53.6700391]]],"type":"Polygon"},"id":"E02002300","properties":{"code":"E02002300","geography":"MSOA","name":"Kirklees 030"},"type":"Feature"},{"geometry":{"coordinates":[[[-1.7835563,53.6640017],[-1.7973412,53.6658781],[-1.7934251,53.6635115],[-1.802533,53.6576124],[-1.7873616,53.6558499],[-1.7793168,53.6557579],[-1.7765738,53.6585267],[-1.7835563,53.6640017]]],"type":"Polygon"},"id":"E02002301","properties":{"code":"E02002301","geography":"MSOA","name":"Kirklees 031"},"type":"Feature"},{"geometry":{"coordinates":[[[-1.7067205,53.6768869],[-1.7243393,53.6844799],[-1.727223,53.6827958],[-1.7314035,53.680347],[-1.7373702,53.6683647],[-1.7386315,53.6619409],[-1.7317951,53.6518194],[-1.7340543,53.6452389],[-1.727451,53.6374988],[-1.723098,53.6355121],[-1.7160538,53.6417874],[-1.7077084,53.6433579],[-1.7018626,53.6395449],[-1.696775,53.6415625],[-1.7053192,53.6454556],[-1.6998493,53.6482014],[-1.6986219,53.6561302],[-1.7042453,53.6555835],[-1.7173926,53.6632614],[-1.7067205,53.6768869]]],"type":"Polygon"},"id":"E02002302","properties":{"code":"E02002302","geography":"MSOA","name":"Kirklees 032"},"type":"Feature"},{"geometry":{"coordinates":[[[-1.8056888,53.6598491],[-1.8112065,53.662794],[-1.8162148,53.6629522],[-1.8145052,53.6597209],[-1.819184,53.6611],[-1.8201184,53.6564173],[-1.834617,53.6582445],[-1.8216336,53.6482421],[-1.8096945,53.6495033],[-1.8107698,53.656263],[-1.8056888,53.6598491]]],"type":"Polygon"},"id":"E02002303","properties":{"code":"E02002303","geography":"MSOA","name":"Kirklees 033"},"type":"Feature"},{"geometry":{"coordinates":[[[-1.802533,53.6576124],[-1.8056888,53.6598491],[-1.8107698,53.656263],[-1.8096945,53.6495033],[-1.8102057,53.6463597],[-1.8044238,53.6468568],[-1.8034955,53.6499959],[-1.785823,53.6469803],[-1.7823874,53.6468562],[-1.7829252,53.6504954],[-1.7873616,53.6558499],[-1.802533,53.6576124]]],"type":"Polygon"},"id":"E02002304","properties":{"code":"E02002304","geography":"MSOA","name":"Kirklees 034"},"type":"Feature"},{"geometry":{"coordinates":[[[-1.7576732,53.6456744],[-1.7607867,53.6500461],[-1.7458964,53.651785],[-1.7496748,53.6613656],[-1.7581306,53.6613714],[-1.7642161,53.6571745],[-1.7691358,53.6506506],[-1.7670443,53.6428169],[-1.7624881,53.6442728],[-1.7576732,53.6456744]]],"type":"Polygon"},"id":"E02002305","properties":{"code":"E02002305","geography":"MSOA","name":"Kirklees 035"},"type":"Feature"},{"geometry":{"coordinates":[[[-1.8404807,53.656831],[-1.8542028,53.6635758],[-1.87499,53.6580906],[-1.8967509,53.6449194],[-1.8923921,53.6404305],[-1.8787425,53.637491],[-1.8777001,53.6332683],[-1.8766661,53.6281088],[-1.8721253,53.6306],[-1.8638131,53.6287896],[-1.8623138,53.6358252],[-1.8568427,53.6343518],[-1.856385,53.6408882],[-1.850426,53.6450453],[-1.8545396,53.6494004],[-1.8455694,53.649011],[-1.8520434,53.6518092],[-1.8404807,53.656831]]],"type":"Polygon"},"id":"E02002306","properties":{"code":"E02002306","geography":"MSOA","name":"Kirklees 036"},"type":"Feature"},{"geometry":{"coordinates":[[[-1.7340543,53.6452389],[-1.7317951,53.6518194],[-1.7386315,53.6619409],[-1.7373702,53.6683647],[-1.7459848,53.6671968],[-1.745187,53.6648147],[-1.7496748,53.6613656],[-1.7458964,53.651785],[-1.7607867,53.6500461],[-1.7576732,53.6456744],[-1.736078,53.6451188],[-1.7340543,53.6452389]]],"type":"Polygon"},"id":"E02002307","properties":{"code":"E02002307","geography":"MSOA","name":"Kirklees 037"},"type":"Feature"},{"geometry":{"coordinates":[[[-1.8216336,53.6482421],[-1.834617,53.6582445],[-1.8353166,53.6560075],[-1.8404807,53.656831],[-1.8520434,53.6518092],[-1.8455694,53.649011],[-1.8545396,53.6494004],[-1.850426,53.6450453],[-1.8373953,53.6462374],[-1.8376527,53.6432168],[-1.8328198,53.6421552],[-1.8239723,53.6425247],[-1.8247721,53.6444319],[-1.8202283,53.642692],[-1.8150588,53.6429523],[-1.8216336,53.6482421]]],"type":"Polygon"},"id":"E02002308","properties":{"code":"E02002308","geography":"MSOA","name":"Kirklees 038"},"type":"Feature"},{"geometry":{"coordinates":[[[-1.785823,53.6469803],[-1.8034955,53.6499959],[-1.8044238,53.6468568],[-1.8102057,53.6463597],[-1.8096945,53.6495033],[-1.8216336,53.6482421],[-1.8150588,53.6429523],[-1.8202283,53.642692],[-1.8125361,53.6410595],[-1.815771,53.6383473],[-1.8101295,53.6393443],[-1.7962748,53.6410596],[-1.7853942,53.6408063],[-1.78617,53.6451165],[-1.785823,53.6469803]]],"type":"Polygon"},"id":"E02002309","properties":{"code":"E02002309","geography":"MSOA","name":"Kirklees 039"},"type":"Feature"},{"geometry":{"coordinates":[[[-1.736078,53.6451188],[-1.7576732,53.6456744],[-1.7624881,53.6442728],[-1.7588339,53.6386779],[-1.7533756,53.6373564],[-1.7440108,53.6406815],[-1.7440869,53.6370277],[-1.7374381,53.6356667],[-1.7403781,53.6381789],[-1.7329824,53.6420556],[-1.736078,53.6451188]]],"type":"Polygon"},"id":"E02002310","properties":{"code":"E02002310","geography":"MSOA","name":"Kirklees 040"},"type":"Feature"},{"geometry":{"coordinates":[[[-1.8328198,53.6421552],[-1.8376527,53.6432168],[-1.8373953,53.6462374],[-1.850426,53.6450453],[-1.856385,53.6408882],[-1.8568427,53.6343518],[-1.8623138,53.6358252],[-1.8638131,53.6287896],[-1.8624043,53.6268277],[-1.8541967,53.6275623],[-1.8328198,53.6421552]]],"type":"Polygon"},"id":"E02002311","properties":{"code":"E02002311","geography":"MSOA","name":"Kirklees 041"},"type":"Feature"},{"geometry":{"coordinates":[[[-1.7670443,53.6428169],[-1.78617,53.6451165],[-1.7853942,53.6408063],[-1.7962748,53.6410596],[-1.7897975,53.6397622],[-1.7899917,53.636155],[-1.7832307,53.6371185],[-1.7699789,53.6253855],[-1.7581421,53.6291732],[-1.7588339,53.6386779],[-1.7624881,53.6442728],[-1.7670443,53.6428169]]],"type":"Polygon"},"id":"E02002312","properties":{"code":"E02002312","geography":"MSOA","name":"Kirklees 042"},"type":"Feature"},{"geometry":{"coordinates":[[[-1.7899917,53.636155],[-1.7897975,53.6397622],[-1.7962748,53.6410596],[-1.8101295,53.6393443],[-1.8066032,53.6339329],[-1.8009762,53.6338871],[-1.8084825,53.6302074],[-1.8068675,53.6283304],[-1.7975022,53.6301402],[-1.7949313,53.632141],[-1.7899917,53.636155]]],"type":"Polygon"},"id":"E02002313","properties":{"code":"E02002313","geography":"MSOA","name":"Kirklees 043"},"type":"Feature"},{"geometry":{"coordinates":[[[-1.727451,53.6374988],[-1.7340543,53.6452389],[-1.736078,53.6451188],[-1.7329824,53.6420556],[-1.7403781,53.6381789],[-1.7374381,53.6356667],[-1.7440869,53.6370277],[-1.7440108,53.6406815],[-1.7533756,53.6373564],[-1.7588339,53.6386779],[-1.7581421,53.6291732],[-1.7699789,53.6253855],[-1.7776659,53.6194489],[-1.773506,53.6170977],[-1.7560454,53.6203332],[-1.7292167,53.6310392],[-1.7252244,53.6336727],[-1.727451,53.6374988]]],"type":"Polygon"},"id":"E02002314","properties":{"code":"E02002314","geography":"MSOA","name":"Kirklees 044"},"type":"Feature"},{"geometry":{"coordinates":[[[-1.8202283,53.642692],[-1.8247721,53.6444319],[-1.8239723,53.6425247],[-1.8328198,53.6421552],[-1.8541967,53.6275623],[-1.8624043,53.6268277],[-1.8622642,53.623906],[-1.8534557,53.6274266],[-1.8447623,53.623823],[-1.8407692,53.6267223],[-1.8350445,53.6307761],[-1.815771,53.6383473],[-1.8125361,53.6410595],[-1.8202283,53.642692]]],"type":"Polygon"},"id":"E02002315","properties":{"code":"E02002315","geography":"MSOA","name":"Kirklees 045"},"type":"Feature"},{"geometry":{"coordinates":[[[-1.6752782,53.6539797],[-1.6779604,53.651063],[-1.689353,53.6512065],[-1.6986219,53.6561302],[-1.6998493,53.6482014],[-1.7053192,53.6454556],[-1.696775,53.6415625],[-1.7018626,53.6395449],[-1.7077084,53.6433579],[-1.7160538,53.6417874],[-1.723098,53.6355121],[-1.7232255,53.63311],[-1.7168889,53.6329666],[-1.7195247,53.6291217],[-1.712811,53.629286],[-1.7083409,53.6249281],[-1.6988793,53.6301171],[-1.6923229,53.6250065],[-1.6887652,53.6258435],[-1.6844038,53.6277247],[-1.6861479,53.6330239],[-1.6719425,53.634592],[-1.6711763,53.6320013],[-1.6551522,53.6296086],[-1.6512445,53.623122],[-1.628947,53.6289236],[-1.6145096,53.6259217],[-1.610296,53.628004],[-1.6156724,53.6302435],[-1.6121867,53.6326681],[-1.6172802,53.6377493],[-1.6232044,53.638095],[-1.6192445,53.6463582],[-1.6242027,53.6540613],[-1.6348244,53.6539038],[-1.6628293,53.6416099],[-1.6703579,53.6430925],[-1.6704789,53.6510589],[-1.6752782,53.6539797]]],"type":"Polygon"},"id":"E02002316","properties":{"code":"E02002316","geography":"MSOA","name":"Kirklees 046"},"type":"Feature"},{"geometry":{"coordinates":[[[-1.7975022,53.6301402],[-1.8068675,53.6283304],[-1.8084825,53.6302074],[-1.8009762,53.6338871],[-1.8066032,53.6339329],[-1.8101295,53.6393443],[-1.815771,53.6383473],[-1.8350445,53.6307761],[-1.8150278,53.6263231],[-1.8061255,53.6212117],[-1.8044324,53.627192],[-1.7975022,53.6301402]]],"type":"Polygon"},"id":"E02002317","properties":{"code":"E02002317","geography":"MSOA","name":"Kirklees 047"},"type":"Feature"},{"geometry":{"coordinates":[[[-1.7699789,53.6253855],[-1.7832307,53.6371185],[-1.7899917,53.636155],[-1.7949313,53.632141],[-1.7913795,53.632546],[-1.7908716,53.6282792],[-1.7966973,53.6274084],[-1.7987323,53.6235228],[-1.7937748,53.6220643],[-1.7973797,53.6206593],[-1.7868593,53.6114651],[-1.7765005,53.6142468],[-1.773506,53.6170977],[-1.7776659,53.6194489],[-1.7699789,53.6253855]]],"type":"Polygon"},"id":"E02002318","properties":{"code":"E02002318","geography":"MSOA","name":"Kirklees 048"},"type":"Feature"},{"geometry":{"coordinates":[[[-1.8777001,53.6332683],[-1.881823,53.6338052],[-1.8829221,53.6289179],[-1.8881708,53.628454],[-1.8842883,53.6237688],[-1.8876983,53.6187128],[-1.8839087,53.6180177],[-1.8926084,53.6147411],[-1.8892415,53.5976315],[-1.8809985,53.6080011],[-1.8692919,53.6132612],[-1.8527623,53.6144647],[-1.8377013,53.6222173],[-1.8407692,53.6267223],[-1.8447623,53.623823],[-1.8534557,53.6274266],[-1.8622642,53.623906],[-1.8624043,53.6268277],[-1.8638131,53.6287896],[-1.8721253,53.6306],[-1.8766661,53.6281088],[-1.8777001,53.6332683]]],"type":"Polygon"},"id":"E02002319","properties":{"code":"E02002319","geography":"MSOA","name":"Kirklees 049"},"type":"Feature"},{"geometry":{"coordinates":[[[-1.7868593,53.6114651],[-1.7973797,53.6206593],[-1.7937748,53.6220643],[-1.7987323,53.6235228],[-1.7966973,53.6274084],[-1.7908716,53.6282792],[-1.7913795,53.632546],[-1.7949313,53.632141],[-1.7975022,53.6301402],[-1.8044324,53.627192],[-1.8061255,53.6212117],[-1.8150278,53.6263231],[-1.8350445,53.6307761],[-1.8407692,53.6267223],[-1.8377013,53.6222173],[-1.8390576,53.6190066],[-1.8303958,53.609931],[-1.8159937,53.6135148],[-1.8072239,53.6082035],[-1.7868593,53.6114651]]],"type":"Polygon"},"id":"E02002320","properties":{"code":"E02002320","geography":"MSOA","name":"Kirklees 050"},"type":"Feature"},{"geometry":{"coordinates":[[[-1.723098,53.6355121],[-1.727451,53.6374988],[-1.7252244,53.6336727],[-1.7292167,53.6310392],[-1.7560454,53.6203332],[-1.773506,53.6170977],[-1.7765005,53.6142468],[-1.7673057,53.612385],[-1.758444,53.6048479],[-1.7513472,53.5844847],[-1.7331249,53.5848048],[-1.7311843,53.5927966],[-1.7237498,53.5912846],[-1.7178518,53.5934029],[-1.7202365,53.5967248],[-1.7305463,53.5943282],[-1.7263284,53.6113777],[-1.7217492,53.6064602],[-1.7158722,53.6120691],[-1.707524,53.6084245],[-1.704483,53.6027307],[-1.7017547,53.607124],[-1.6977314,53.6029338],[-1.676896,53.6130904],[-1.6737861,53.6159607],[-1.6804255,53.6203039],[-1.6739628,53.6236202],[-1.6512445,53.623122],[-1.6551522,53.6296086],[-1.6711763,53.6320013],[-1.6719425,53.634592],[-1.6861479,53.6330239],[-1.6844038,53.6277247],[-1.6887652,53.6258435],[-1.6923229,53.6250065],[-1.6988793,53.6301171],[-1.7083409,53.6249281],[-1.712811,53.629286],[-1.7195247,53.6291217],[-1.7168889,53.6329666],[-1.7232255,53.63311],[-1.723098,53.6355121]]],"type":"Polygon"},"id":"E02002321","properties":{"code":"E02002321","geography":"MSOA","name":"Kirklees 051"},"type":"Feature"},{"geometry":{"coordinates":[[[-1.897804,53.6446372],[-1.9342412,53.6483658],[-1.9420874,53.6403226],[-1.9630559,53.6327476],[-1.9727448,53.6257591],[-1.9795605,53.6230145],[-2.004543,53.6224237],[-2.0094718,53.6167645],[-1.9816476,53.5893224],[-1.9481111,53.5728326],[-1.9427275,53.5616254],[-1.9275227,53.5546216],[-1.8819631,53.5644672],[-1.8884394,53.5744666],[-1.9026786,53.5817309],[-1.9066877,53.5899449],[-1.905068,53.5948939],[-1.8892415,53.5976315],[-1.8926084,53.6147411],[-1.8839087,53.6180177],[-1.8876983,53.6187128],[-1.8842883,53.6237688],[-1.8881708,53.628454],[-1.8829221,53.6289179],[-1.881823,53.6338052],[-1.8777001,53.6332683],[-1.8787425,53.637491],[-1.8923921,53.6404305],[-1.8967509,53.6449194],[-1.897804,53.6446372]]],"type":"Polygon"},"id":"E02002322","properties":{"code":"E02002322","geography":"MSOA","name":"Kirklees 052"},"type":"Feature"},{"geometry":{"coordinates":[[[-1.7513472,53.5844847],[-1.758444,53.6048479],[-1.7673057,53.612385],[-1.7765005,53.6142468],[-1.7868593,53.6114651],[-1.8072239,53.6082035],[-1.8159937,53.6135148],[-1.8303958,53.609931],[-1.8161553,53.6077705],[-1.8298475,53.6002346],[-1.8145514,53.5907725],[-1.8153268,53.585208],[-1.7804906,53.5936305],[-1.7704287,53.588317],[-1.7614731,53.5830116],[-1.7513472,53.5844847]]],"type":"Polygon"},"id":"E02002323","properties":{"code":"E02002323","geography":"MSOA","name":"Kirklees 053"},"type":"Feature"},{"geometry":{"coordinates":[[[-1.6145096,53.6259217],[-1.628947,53.6289236],[-1.6512445,53.623122],[-1.6739628,53.6236202],[-1.6804255,53.6203039],[-1.6737861,53.6159607],[-1.676896,53.6130904],[-1.6597757,53.5985232],[-1.6680438,53.594302],[-1.665463,53.5904259],[-1.6594991,53.587657],[-1.6605304,53.5844392],[-1.642683,53.5875715],[-1.6396546,53.5848443],[-1.6357716,53.5876619],[-1.6394466,53.5888643],[-1.6372503,53.5941781],[-1.6214308,53.5948956],[-1.6167124,53.5978996],[-1.6209452,53.6009726],[-1.6109765,53.6044947],[-1.6074317,53.6015008],[-1.6016589,53.6047355],[-1.6001576,53.5973738],[-1.5918043,53.5921392],[-1.5852036,53.6002232],[-1.5911222,53.6067849],[-1.5864501,53.6071575],[-1.5975561,53.6170962],[-1.6075811,53.6196299],[-1.6145096,53.6259217]]],"type":"Polygon"},"id":"E02002324","properties":{"code":"E02002324","geography":"MSOA","name":"Kirklees 054"},"type":"Feature"},{"geometry":{"coordinates":[[[-1.8303958,53.609931],[-1.8390576,53.6190066],[-1.8377013,53.6222173],[-1.8527623,53.6144647],[-1.8692919,53.6132612],[-1.8809985,53.6080011],[-1.8892415,53.5976315],[-1.905068,53.5948939],[-1.9066877,53.5899449],[-1.9026786,53.5817309],[-1.8884394,53.5744666],[-1.8819631,53.5644672],[-1.8376827,53.571047],[-1.8132853,53.5822946],[-1.8153268,53.585208],[-1.8145514,53.5907725],[-1.8298475,53.6002346],[-1.8161553,53.6077705],[-1.8303958,53.609931]]],"type":"Polygon"},"id":"E02002325","properties":{"code":"E02002325","geography":"MSOA","name":"Kirklees 055"},"type":"Feature"},{"geometry":{"coordinates":[[[-1.665463,53.5904259],[-1.6680438,53.594302],[-1.6597757,53.5985232],[-1.676896,53.6130904],[-1.6977314,53.6029338],[-1.7017547,53.607124],[-1.704483,53.6027307],[-1.707524,53.6084245],[-1.7158722,53.6120691],[-1.7217492,53.6064602],[-1.7263284,53.6113777],[-1.7305463,53.5943282],[-1.7202365,53.5967248],[-1.7178518,53.5934029],[-1.7237498,53.5912846],[-1.7311843,53.5927966],[-1.7331249,53.5848048],[-1.72876,53.5807505],[-1.7305998,53.575251],[-1.7261551,53.5744335],[-1.7222006,53.5779398],[-1.7142764,53.5734489],[-1.6994268,53.576092],[-1.6823662,53.5867179],[-1.665463,53.5904259]]],"type":"Polygon"},"id":"E02002326","properties":{"code":"E02002326","geography":"MSOA","name":"Kirklees 056"},"type":"Feature"},{"geometry":{"coordinates":[[[-1.5918043,53.5921392],[-1.6001576,53.5973738],[-1.6016589,53.6047355],[-1.6074317,53.6015008],[-1.6109765,53.6044947],[-1.6209452,53.6009726],[-1.6167124,53.5978996],[-1.6214308,53.5948956],[-1.6372503,53.5941781],[-1.6394466,53.5888643],[-1.6357716,53.5876619],[-1.6396546,53.5848443],[-1.642683,53.5875715],[-1.6605304,53.5844392],[-1.6594991,53.587657],[-1.665463,53.5904259],[-1.6823662,53.5867179],[-1.6994268,53.576092],[-1.7142764,53.5734489],[-1.7041256,53.5602339],[-1.6990352,53.5537945],[-1.6695203,53.5532196],[-1.6619847,53.5536274],[-1.6640999,53.5575396],[-1.6565784,53.5605405],[-1.6194016,53.5631224],[-1.6156961,53.563027],[-1.6096657,53.5720767],[-1.5961959,53.5769703],[-1.6002388,53.5773859],[-1.6017323,53.5877547],[-1.5918043,53.5921392]]],"type":"Polygon"},"id":"E02002327","properties":{"code":"E02002327","geography":"MSOA","name":"Kirklees 057"},"type":"Feature"},{"geometry":{"coordinates":[[[-1.7704287,53.588317],[-1.7804906,53.5936305],[-1.8153268,53.585208],[-1.8132853,53.5822946],[-1.8376827,53.571047],[-1.8819631,53.5644672],[-1.9275227,53.5546216],[-1.9256232,53.5531363],[-1.9128861,53.5516278],[-1.9096224,53.538375],[-1.8993236,53.5380963],[-1.8941108,53.5335957],[-1.8734939,53.5404136],[-1.841822,53.5198926],[-1.8271525,53.523492],[-1.8222296,53.5210753],[-1.8043488,53.5369399],[-1.8081593,53.5470899],[-1.804581,53.5569434],[-1.8084943,53.5598269],[-1.7981627,53.5673741],[-1.7875483,53.5703304],[-1.7846203,53.5730262],[-1.788228,53.5763403],[-1.7813679,53.5776038],[-1.7704287,53.588317]]],"type":"Polygon"},"id":"E02002328","properties":{"code":"E02002328","geography":"MSOA","name":"Kirklees 058"},"type":"Feature"},{"geometry":{"coordinates":[[[-1.7513472,53.5844847],[-1.7614731,53.5830116],[-1.7704287,53.588317],[-1.7813679,53.5776038],[-1.788228,53.5763403],[-1.7846203,53.5730262],[-1.7875483,53.5703304],[-1.7981627,53.5673741],[-1.8084943,53.5598269],[-1.804581,53.5569434],[-1.8081593,53.5470899],[-1.8043488,53.5369399],[-1.7970351,53.5338758],[-1.7559789,53.536626],[-1.7300153,53.5468162],[-1.7231705,53.559865],[-1.7041256,53.5602339],[-1.7142764,53.5734489],[-1.7222006,53.5779398],[-1.7261551,53.5744335],[-1.7305998,53.575251],[-1.72876,53.5807505],[-1.7331249,53.5848048],[-1.7513472,53.5844847]]],"type":"Polygon"},"id":"E02002329","properties":{"code":"E02002329","geography":"MSOA","name":"Kirklees 059"},"type":"Feature"}],"type":"FeatureCollection"}
