{"features":[{"geometry":{"coordinates":[[[-2.6593719,53.6036319],[-2.6893139,53.6042864],[-2.6932712,53.5896461],[-2.6811786,53.5825658],[-2.6805746,53.5769467],[-2.6681955,53.582832],[-2.664021,53.5864585],[-2.6668534,53.5883597],[-2.65992,53.590414],[-2.6555492,53.5972414],[-2.6593719,53.6036319]]],"type":"Polygon"},"id":"E02001287","properties":{"code":"E02001287","geography":"MSOA","name":"Wigan 001"},"type":"Feature"},{"geometry":{"coordinates":[[[-2.6398856,53.5724873],[-2.6446264,53.5750349],[-2.6408196,53.5756732],[-2.642856,53.5783696],[-2.6397861,53.5773616],[-2.6417002,53.5859891],[-2.6372027,53.585594],[-2.6438452,53.5971224],[-2.6555492,53.5972414],[-2.65992,53.590414],[-2.6668534,53.5883597],[-2.664021,53.5864585],[-2.6681955,53.582832],[-2.6805746,53.5769467],[-2.6804441,53.5705354],[-2.6721224,53.5693036],[-2.6679333,53.5684817],[-2.6635594,53.5722953],[-2.647427,53.5654629],[-2.6402471,53.5665335],[-2.6398856,53.5724873]]],"type":"Polygon"},"id":"E02001288","properties":{"code":"E02001288","geography":"MSOA","name":"Wigan 002"},"type":"Feature"},{"geometry":{"coordinates":[[[-2.6932712,53.5896461],[-2.7000685,53.5911899],[-2.7103446,53.5851006],[-2.7192235,53.5760975],[-2.7163888,53.5712896],[-2.7047386,53.5618445],[-2.7014204,53.5609275],[-2.6814279,53.5608057],[-2.6647979,53.557461],[-2.6616438,53.5639191],[-2.6721224,53.5693036],[-2.6804441,53.5705354],[-2.6805746,53.5769467],[-2.6811786,53.5825658],[-2.6932712,53.5896461]]],"type":"Polygon"},"id":"E02001289","properties":{"code":"E02001289","geography":"MSOA","name":"Wigan 003"},"type":"Feature"},{"geometry":{"coordinates":[[[-2.6312852,53.6052028],[-2.6361627,53.6082751],[-2.6593719,53.6036319],[-2.6555492,53.5972414],[-2.6438452,53.5971224],[-2.6372027,53.585594],[-2.6417002,53.5859891],[-2.6397861,53.5773616],[-2.642856,53.5783696],[-2.6408196,53.5756732],[-2.6446264,53.5750349],[-2.6398856,53.5724873],[-2.633936,53.5741213],[-2.6245322,53.5577458],[-2.6157134,53.5580479],[-2.5996913,53.5604671],[-2.6009154,53.5682432],[-2.5914651,53.5666738],[-2.5899311,53.5603711],[-2.5848524,53.569209],[-2.5798448,53.566818],[-2.5755247,53.5712785],[-2.5657423,53.5699866],[-2.5678537,53.5715066],[-2.5850877,53.5850528],[-2.6180623,53.5910996],[-2.6275658,53.5893988],[-2.6259082,53.5936683],[-2.6312852,53.6052028]]],"type":"Polygon"},"id":"E02001290","properties":{"code":"E02001290","geography":"MSOA","name":"Wigan 004"},"type":"Feature"},{"geometry":{"coordinates":[[[-2.6402471,53.5665335],[-2.647427,53.5654629],[-2.6635594,53.5722953],[-2.6679333,53.5684817],[-2.6721224,53.5693036],[-2.6616438,53.5639191],[-2.6647979,53.557461],[-2.6547909,53.5519581],[-2.6543148,53.5573849],[-2.6442909,53.5549387],[-2.6405325,53.5566435],[-2.6402471,53.5665335]]],"type":"Polygon"},"id":"E02001291","properties":{"code":"E02001291","geography":"MSOA","name":"Wigan 005"},"type":"Feature"},{"geometry":{"coordinates":[[[-2.6157134,53.5580479],[-2.6245322,53.5577458],[-2.633936,53.5741213],[-2.6398856,53.5724873],[-2.6402471,53.5665335],[-2.6405325,53.5566435],[-2.6340443,53.5543467],[-2.6305256,53.5569257],[-2.6279023,53.5537752],[-2.6322014,53.5486631],[-2.6273416,53.5470389],[-2.6210169,53.5544215],[-2.6152732,53.5524342],[-2.6157134,53.5580479]]],"type":"Polygon"},"id":"E02001292","properties":{"code":"E02001292","geography":"MSOA","name":"Wigan 006"},"type":"Feature"},{"geometry":{"coordinates":[[[-2.5657423,53.5699866],[-2.5755247,53.5712785],[-2.5798448,53.566818],[-2.5848524,53.569209],[-2.5899311,53.5603711],[-2.5914651,53.5666738],[-2.6009154,53.5682432],[-2.5996913,53.5604671],[-2.6157134,53.5580479],[-2.6152732,53.5524342],[-2.6118112,53.5473748],[-2.6064196,53.5483947],[-2.5916351,53.5558936],[-2.585173,53.5472504],[-2.5693323,53.5476019],[-2.5599656,53.5558106],[-2.5633797,53.5595239],[-2.5600623,53.5620847],[-2.5684717,53.5646986],[-2.5657423,53.5699866]]],"type":"Polygon"},"id":"E02001293","properties":{"code":"E02001293","geography":"MSOA","name":"Wigan 007"},"type":"Feature"},{"geometry":{"coordinates":[[[-2.6405325,53.5566435],[-2.6442909,53.5549387],[-2.6543148,53.5573849],[-2.6547909,53.5519581],[-2.6488058,53.5494185],[-2.6299208,53.5420506],[-2.6276035,53.5430599],[-2.6273416,53.5470389],[-2.6322014,53.5486631],[-2.6279023,53.5537752],[-2.6305256,53.5569257],[-2.6340443,53.5543467],[-2.6405325,53.5566435]]],"type":"Polygon"},"id":"E02001294","properties":{"code":"E02001294","geography":"MSOA","name":"Wigan 008"},"type":"Feature"},{"geometry":{"coordinates":[[[-2.6152732,53.5524342],[-2.6210169,53.5544215],[-2.6273416,53.5470389],[-2.6276035,53.5430599],[-2.621589,53.5412144],[-2.6159278,53.5441463],[-2.616423,53.5409849],[-2.6103542,53.5400703],[-2.6104929,53.5434907],[-2.6022146,53.5461573],[-2.6064196,53.5483947],[-2.6118112,53.5473748],[-2.6152732,53.5524342]]],"type":"Polygon"},"id":"E02001295","properties":{"code":"E02001295","geography":"MSOA","name":"Wigan 009"},"type":"Feature"},{"geometry":{"coordinates":[[[-2.6647979,53.557461],[-2.6814279,53.5608057],[-2.6832051,53.5523734],[-2.6809169,53.5472117],[-2.6757689,53.5469155],[-2.6814811,53.5443317],[-2.6781524,53.5397823],[-2.6573614,53.5376514],[-2.6628062,53.5416604],[-2.655772,53.5474216],[-2.6504198,53.5435884],[-2.6488058,53.5494185],[-2.6547909,53.5519581],[-2.6647979,53.557461]]],"type":"Polygon"},"id":"E02001296","properties":{"code":"E02001296","geography":"MSOA","name":"Wigan 010"},"type":"Feature"},{"geometry":{"coordinates":[[[-2.6814279,53.5608057],[-2.7014204,53.5609275],[-2.6976016,53.536254],[-2.6895963,53.5320227],[-2.6851383,53.5396845],[-2.6781524,53.5397823],[-2.6814811,53.5443317],[-2.6757689,53.5469155],[-2.6809169,53.5472117],[-2.6832051,53.5523734],[-2.6814279,53.5608057]]],"type":"Polygon"},"id":"E02001297","properties":{"code":"E02001297","geography":"MSOA","name":"Wigan 011"},"type":"Feature"},{"geometry":{"coordinates":[[[-2.585173,53.5472504],[-2.5916351,53.5558936],[-2.6064196,53.5483947],[-2.6022146,53.5461573],[-2.6104929,53.5434907],[-2.6103542,53.5400703],[-2.616423,53.5409849],[-2.6159278,53.5441463],[-2.621589,53.5412144],[-2.6276035,53.5430599],[-2.6299208,53.5420506],[-2.6260168,53.5396909],[-2.6373259,53.5349509],[-2.6346087,53.5316182],[-2.6301524,53.5203719],[-2.6237156,53.5180406],[-2.6115217,53.5350929],[-2.6071112,53.5383587],[-2.5811562,53.5415794],[-2.585173,53.5472504]]],"type":"Polygon"},"id":"E02001298","properties":{"code":"E02001298","geography":"MSOA","name":"Wigan 012"},"type":"Feature"},{"geometry":{"coordinates":[[[-2.5580212,53.5444617],[-2.5693323,53.5476019],[-2.585173,53.5472504],[-2.5811562,53.5415794],[-2.6071112,53.5383587],[-2.6115217,53.5350929],[-2.5895612,53.5289822],[-2.5811411,53.5221023],[-2.5756104,53.5217478],[-2.5701939,53.5270752],[-2.5751404,53.5289527],[-2.5741032,53.5369073],[-2.5643007,53.5386794],[-2.5608327,53.5357934],[-2.5586411,53.5379514],[-2.5619342,53.5391897],[-2.5580212,53.5444617]]],"type":"Polygon"},"id":"E02001299","properties":{"code":"E02001299","geography":"MSOA","name":"Wigan 013"},"type":"Feature"},{"geometry":{"coordinates":[[[-2.6573614,53.5376514],[-2.6781524,53.5397823],[-2.6851383,53.5396845],[-2.6895963,53.5320227],[-2.6639208,53.5316296],[-2.6558487,53.5348535],[-2.6573614,53.5376514]]],"type":"Polygon"},"id":"E02001300","properties":{"code":"E02001300","geography":"MSOA","name":"Wigan 014"},"type":"Feature"},{"geometry":{"coordinates":[[[-2.6299208,53.5420506],[-2.6488058,53.5494185],[-2.6504198,53.5435884],[-2.655772,53.5474216],[-2.6628062,53.5416604],[-2.6573614,53.5376514],[-2.6558487,53.5348535],[-2.6639208,53.5316296],[-2.6547884,53.5248635],[-2.6536776,53.5271522],[-2.6513189,53.5250863],[-2.6520707,53.5307386],[-2.6431383,53.530532],[-2.6446085,53.5287149],[-2.6346087,53.5316182],[-2.6373259,53.5349509],[-2.6260168,53.5396909],[-2.6299208,53.5420506]]],"type":"Polygon"},"id":"E02001301","properties":{"code":"E02001301","geography":"MSOA","name":"Wigan 015"},"type":"Feature"},{"geometry":{"coordinates":[[[-2.5586411,53.5379514],[-2.5608327,53.5357934],[-2.5643007,53.5386794],[-2.5741032,53.5369073],[-2.5751404,53.5289527],[-2.5701939,53.5270752],[-2.5756104,53.5217478],[-2.5654292,53.5210875],[-2.5526894,53.5360904],[-2.5586411,53.5379514]]],"type":"Polygon"},"id":"E02001302","properties":{"code":"E02001302","geography":"MSOA","name":"Wigan 016"},"type":"Feature"},{"geometry":{"coordinates":[[[-2.4749393,53.5326115],[-2.5002488,53.5381037],[-2.5073095,53.5377837],[-2.5101802,53.5340754],[-2.5155312,53.5357882],[-2.515799,53.5292719],[-2.5043113,53.5300358],[-2.4995063,53.5261763],[-2.4890493,53.524606],[-2.4902619,53.5278253],[-2.4832631,53.5277679],[-2.4749393,53.5326115]]],"type":"Polygon"},"id":"E02001303","properties":{"code":"E02001303","geography":"MSOA","name":"Wigan 017"},"type":"Feature"},{"geometry":{"coordinates":[[[-2.7014204,53.5609275],[-2.7047386,53.5618445],[-2.7186082,53.5435435],[-2.7145592,53.5382641],[-2.7179256,53.5272942],[-2.7305245,53.5205815],[-2.7230266,53.5099874],[-2.7100064,53.514626],[-2.7054606,53.5047728],[-2.6830657,53.5006083],[-2.6663086,53.4997475],[-2.6631135,53.4928521],[-2.6567315,53.4925069],[-2.6565836,53.4939601],[-2.6640325,53.5057133],[-2.6935811,53.5167693],[-2.6976016,53.536254],[-2.7014204,53.5609275]]],"type":"Polygon"},"id":"E02001304","properties":{"code":"E02001304","geography":"MSOA","name":"Wigan 018"},"type":"Feature"},{"geometry":{"coordinates":[[[-2.5244962,53.5263652],[-2.5337473,53.5230992],[-2.536337,53.527732],[-2.5526894,53.5360904],[-2.5654292,53.5210875],[-2.5388496,53.5202519],[-2.525355,53.5194052],[-2.5244962,53.5263652]]],"type":"Polygon"},"id":"E02001305","properties":{"code":"E02001305","geography":"MSOA","name":"Wigan 019"},"type":"Feature"},{"geometry":{"coordinates":[[[-2.6237156,53.5180406],[-2.6301524,53.5203719],[-2.6346087,53.5316182],[-2.6446085,53.5287149],[-2.6431383,53.530532],[-2.6520707,53.5307386],[-2.6513189,53.5250863],[-2.6536776,53.5271522],[-2.6547884,53.5248635],[-2.6522632,53.5143658],[-2.6435997,53.5128594],[-2.6347406,53.5166379],[-2.6294487,53.5134983],[-2.6237156,53.5180406]]],"type":"Polygon"},"id":"E02001306","properties":{"code":"E02001306","geography":"MSOA","name":"Wigan 020"},"type":"Feature"},{"geometry":{"coordinates":[[[-2.6895963,53.5320227],[-2.6976016,53.536254],[-2.6935811,53.5167693],[-2.6640325,53.5057133],[-2.6522632,53.5143658],[-2.6547884,53.5248635],[-2.6639208,53.5316296],[-2.6895963,53.5320227]]],"type":"Polygon"},"id":"E02001307","properties":{"code":"E02001307","geography":"MSOA","name":"Wigan 021"},"type":"Feature"},{"geometry":{"coordinates":[[[-2.4716036,53.531706],[-2.4749393,53.5326115],[-2.4832631,53.5277679],[-2.4902619,53.5278253],[-2.4890493,53.524606],[-2.4882474,53.509036],[-2.478122,53.5114052],[-2.4730685,53.5123456],[-2.4716036,53.531706]]],"type":"Polygon"},"id":"E02001308","properties":{"code":"E02001308","geography":"MSOA","name":"Wigan 022"},"type":"Feature"},{"geometry":{"coordinates":[[[-2.4890493,53.524606],[-2.4995063,53.5261763],[-2.5043113,53.5300358],[-2.515799,53.5292719],[-2.5244962,53.5263652],[-2.525355,53.5194052],[-2.5105621,53.5127937],[-2.5137043,53.5057942],[-2.5075453,53.507043],[-2.5022542,53.5029279],[-2.4882474,53.509036],[-2.4890493,53.524606]]],"type":"Polygon"},"id":"E02001309","properties":{"code":"E02001309","geography":"MSOA","name":"Wigan 023"},"type":"Feature"},{"geometry":{"coordinates":[[[-2.5811411,53.5221023],[-2.5895612,53.5289822],[-2.6115217,53.5350929],[-2.6237156,53.5180406],[-2.6294487,53.5134983],[-2.6331916,53.510551],[-2.6251046,53.5103582],[-2.6257027,53.5073394],[-2.6142225,53.5016174],[-2.6028419,53.5017367],[-2.5958369,53.5048249],[-2.601936,53.5120512],[-2.5985222,53.520334],[-2.5780541,53.5151605],[-2.5811411,53.5221023]]],"type":"Polygon"},"id":"E02001310","properties":{"code":"E02001310","geography":"MSOA","name":"Wigan 024"},"type":"Feature"},{"geometry":{"coordinates":[[[-2.4511156,53.5286349],[-2.4698413,53.5320711],[-2.4716036,53.531706],[-2.4730685,53.5123456],[-2.4589418,53.5129498],[-2.4605267,53.5099965],[-2.4564181,53.5083174],[-2.4530335,53.5135229],[-2.4454666,53.5101246],[-2.4433372,53.5151072],[-2.4374073,53.5142687],[-2.4375154,53.5189934],[-2.4508,53.5255167],[-2.4541785,53.5260364],[-2.4511156,53.5286349]]],"type":"Polygon"},"id":"E02001311","properties":{"code":"E02001311","geography":"MSOA","name":"Wigan 025"},"type":"Feature"},{"geometry":{"coordinates":[[[-2.5756104,53.5217478],[-2.5811411,53.5221023],[-2.5780541,53.5151605],[-2.5985222,53.520334],[-2.601936,53.5120512],[-2.5958369,53.5048249],[-2.6028419,53.5017367],[-2.5967933,53.4904863],[-2.5816701,53.4965228],[-2.5878291,53.4990351],[-2.5821344,53.5037934],[-2.572179,53.4999753],[-2.573003,53.5024014],[-2.5644847,53.5014054],[-2.562044,53.510369],[-2.5535388,53.505139],[-2.5396585,53.5066528],[-2.5390643,53.508803],[-2.5432012,53.5130668],[-2.5388495,53.5134218],[-2.5388496,53.5202519],[-2.5654292,53.5210875],[-2.5756104,53.5217478]]],"type":"Polygon"},"id":"E02001312","properties":{"code":"E02001312","geography":"MSOA","name":"Wigan 026"},"type":"Feature"},{"geometry":{"coordinates":[[[-2.525355,53.5194052],[-2.5388496,53.5202519],[-2.5388495,53.5134218],[-2.5432012,53.5130668],[-2.5390643,53.508803],[-2.5303709,53.4991374],[-2.5255924,53.4997768],[-2.5246448,53.5075095],[-2.5174487,53.507901],[-2.5150086,53.5046446],[-2.5137043,53.5057942],[-2.5105621,53.5127937],[-2.525355,53.5194052]]],"type":"Polygon"},"id":"E02001313","properties":{"code":"E02001313","geography":"MSOA","name":"Wigan 027"},"type":"Feature"},{"geometry":{"coordinates":[[[-2.4454666,53.5101246],[-2.4530335,53.5135229],[-2.4564181,53.5083174],[-2.4605267,53.5099965],[-2.4589418,53.5129498],[-2.4730685,53.5123456],[-2.478122,53.5114052],[-2.4698868,53.5010446],[-2.4610949,53.4982734],[-2.4536096,53.5037613],[-2.4588106,53.5060728],[-2.4435066,53.5047023],[-2.4454666,53.5101246]]],"type":"Polygon"},"id":"E02001314","properties":{"code":"E02001314","geography":"MSOA","name":"Wigan 028"},"type":"Feature"},{"geometry":{"coordinates":[[[-2.4169102,53.5167041],[-2.4271444,53.5215593],[-2.4508,53.5255167],[-2.4375154,53.5189934],[-2.4374073,53.5142687],[-2.4433372,53.5151072],[-2.4454666,53.5101246],[-2.4435066,53.5047023],[-2.4588106,53.5060728],[-2.4536096,53.5037613],[-2.4610949,53.4982734],[-2.4698868,53.5010446],[-2.4746175,53.4979257],[-2.4714311,53.4942405],[-2.4670964,53.493803],[-2.476663,53.4912936],[-2.473089,53.488577],[-2.476663,53.4867652],[-2.4837811,53.4927098],[-2.4887108,53.4916057],[-2.4963492,53.4809111],[-2.4891427,53.47582],[-2.4897313,53.4601262],[-2.4459097,53.4640606],[-2.4345223,53.4650518],[-2.4362011,53.4718713],[-2.4384961,53.4923463],[-2.4304719,53.5047712],[-2.4205077,53.5067343],[-2.4222419,53.5090889],[-2.4146642,53.5145397],[-2.4169102,53.5167041]]],"type":"Polygon"},"id":"E02001315","properties":{"code":"E02001315","geography":"MSOA","name":"Wigan 029"},"type":"Feature"},{"geometry":{"coordinates":[[[-2.5150086,53.5046446],[-2.5174487,53.507901],[-2.5246448,53.5075095],[-2.5255924,53.4997768],[-2.5223264,53.499592],[-2.5237186,53.496032],[-2.5321358,53.4958331],[-2.5140606,53.4927376],[-2.5150086,53.5046446]]],"type":"Polygon"},"id":"E02001316","properties":{"code":"E02001316","geography":"MSOA","name":"Wigan 030"},"type":"Feature"},{"geometry":{"coordinates":[[[-2.4698868,53.5010446],[-2.478122,53.5114052],[-2.4882474,53.509036],[-2.5022542,53.5029279],[-2.5075453,53.507043],[-2.5137043,53.5057942],[-2.5150086,53.5046446],[-2.5140606,53.4927376],[-2.5095703,53.4929312],[-2.492986,53.4991867],[-2.4943598,53.4947837],[-2.478716,53.4917911],[-2.4788212,53.4948798],[-2.4714311,53.4942405],[-2.4746175,53.4979257],[-2.4698868,53.5010446]]],"type":"Polygon"},"id":"E02001317","properties":{"code":"E02001317","geography":"MSOA","name":"Wigan 031"},"type":"Feature"},{"geometry":{"coordinates":[[[-2.6294487,53.5134983],[-2.6347406,53.5166379],[-2.6435997,53.5128594],[-2.6522632,53.5143658],[-2.6640325,53.5057133],[-2.6565836,53.4939601],[-2.6531248,53.4974442],[-2.6507398,53.4940498],[-2.6464314,53.4960221],[-2.6427074,53.4917443],[-2.637027,53.4926768],[-2.6288683,53.4960826],[-2.6331916,53.510551],[-2.6294487,53.5134983]]],"type":"Polygon"},"id":"E02001318","properties":{"code":"E02001318","geography":"MSOA","name":"Wigan 032"},"type":"Feature"},{"geometry":{"coordinates":[[[-2.5390643,53.508803],[-2.5396585,53.5066528],[-2.5535388,53.505139],[-2.562044,53.510369],[-2.5644847,53.5014054],[-2.573003,53.5024014],[-2.572179,53.4999753],[-2.5821344,53.5037934],[-2.5878291,53.4990351],[-2.5816701,53.4965228],[-2.5670646,53.4931173],[-2.5444599,53.4922645],[-2.5321358,53.4958331],[-2.5237186,53.496032],[-2.5223264,53.499592],[-2.5255924,53.4997768],[-2.5303709,53.4991374],[-2.5390643,53.508803]]],"type":"Polygon"},"id":"E02001319","properties":{"code":"E02001319","geography":"MSOA","name":"Wigan 033"},"type":"Feature"},{"geometry":{"coordinates":[[[-2.4714311,53.4942405],[-2.4788212,53.4948798],[-2.478716,53.4917911],[-2.4943598,53.4947837],[-2.492986,53.4991867],[-2.5095703,53.4929312],[-2.5065507,53.4876236],[-2.5175822,53.4874144],[-2.512876,53.4771822],[-2.4963492,53.4809111],[-2.4887108,53.4916057],[-2.4837811,53.4927098],[-2.476663,53.4867652],[-2.473089,53.488577],[-2.476663,53.4912936],[-2.4670964,53.493803],[-2.4714311,53.4942405]]],"type":"Polygon"},"id":"E02001320","properties":{"code":"E02001320","geography":"MSOA","name":"Wigan 034"},"type":"Feature"},{"geometry":{"coordinates":[[[-2.6028419,53.5017367],[-2.6142225,53.5016174],[-2.6257027,53.5073394],[-2.6251046,53.5103582],[-2.6331916,53.510551],[-2.6288683,53.4960826],[-2.637027,53.4926768],[-2.636696,53.4886689],[-2.6270405,53.487727],[-2.63821,53.4841628],[-2.6337134,53.4809239],[-2.6159182,53.4817403],[-2.6122995,53.4791773],[-2.6114643,53.4827143],[-2.6057191,53.4828682],[-2.609479,53.4892861],[-2.6030271,53.4872449],[-2.5964527,53.4895781],[-2.5967933,53.4904863],[-2.6028419,53.5017367]]],"type":"Polygon"},"id":"E02001321","properties":{"code":"E02001321","geography":"MSOA","name":"Wigan 035"},"type":"Feature"},{"geometry":{"coordinates":[[[-2.637027,53.4926768],[-2.6427074,53.4917443],[-2.6464314,53.4960221],[-2.6507398,53.4940498],[-2.6531248,53.4974442],[-2.6565836,53.4939601],[-2.6567315,53.4925069],[-2.6445485,53.480166],[-2.6337134,53.4809239],[-2.63821,53.4841628],[-2.6270405,53.487727],[-2.636696,53.4886689],[-2.637027,53.4926768]]],"type":"Polygon"},"id":"E02001322","properties":{"code":"E02001322","geography":"MSOA","name":"Wigan 036"},"type":"Feature"},{"geometry":{"coordinates":[[[-2.5140606,53.4927376],[-2.5321358,53.4958331],[-2.5444599,53.4922645],[-2.5346355,53.4831782],[-2.5383131,53.4710253],[-2.512876,53.4771822],[-2.5175822,53.4874144],[-2.5065507,53.4876236],[-2.5095703,53.4929312],[-2.5140606,53.4927376]]],"type":"Polygon"},"id":"E02001323","properties":{"code":"E02001323","geography":"MSOA","name":"Wigan 037"},"type":"Feature"},{"geometry":{"coordinates":[[[-2.6078874,53.4708336],[-2.587812,53.4679209],[-2.5850303,53.4749565],[-2.5812887,53.4751033],[-2.5919391,53.4819587],[-2.5949224,53.4802643],[-2.5964527,53.4895781],[-2.6030271,53.4872449],[-2.609479,53.4892861],[-2.6057191,53.4828682],[-2.6114643,53.4827143],[-2.6122995,53.4791773],[-2.6078874,53.4708336]]],"type":"Polygon"},"id":"E02001324","properties":{"code":"E02001324","geography":"MSOA","name":"Wigan 038"},"type":"Feature"},{"geometry":{"coordinates":[[[-2.5670646,53.4931173],[-2.5816701,53.4965228],[-2.5967933,53.4904863],[-2.5964527,53.4895781],[-2.5949224,53.4802643],[-2.5919391,53.4819587],[-2.5812887,53.4751033],[-2.5850303,53.4749565],[-2.587812,53.4679209],[-2.6078874,53.4708336],[-2.6145494,53.4703453],[-2.6167618,53.4662231],[-2.6132634,53.4618082],[-2.5992984,53.4610856],[-2.5961853,53.4564749],[-2.5845759,53.4542067],[-2.583319,53.4488557],[-2.5767429,53.4460409],[-2.5702534,53.4584794],[-2.5722931,53.4642346],[-2.5668717,53.4691339],[-2.5733746,53.466234],[-2.5780581,53.4690003],[-2.5704972,53.4741169],[-2.5627125,53.4711159],[-2.5702258,53.4767204],[-2.5586286,53.4793142],[-2.5670646,53.4931173]]],"type":"Polygon"},"id":"E02001325","properties":{"code":"E02001325","geography":"MSOA","name":"Wigan 039"},"type":"Feature"},{"geometry":{"coordinates":[[[-2.5444599,53.4922645],[-2.5670646,53.4931173],[-2.5586286,53.4793142],[-2.5702258,53.4767204],[-2.5627125,53.4711159],[-2.5704972,53.4741169],[-2.5780581,53.4690003],[-2.5733746,53.466234],[-2.5668717,53.4691339],[-2.5722931,53.4642346],[-2.5702534,53.4584794],[-2.5490759,53.4614703],[-2.5526389,53.4677976],[-2.5383131,53.4710253],[-2.5346355,53.4831782],[-2.5444599,53.4922645]]],"type":"Polygon"},"id":"E02001326","properties":{"code":"E02001326","geography":"MSOA","name":"Wigan 040"},"type":"Feature"}],"type":"FeatureCollection"}
