{"features":[{"geometry":{"coordinates":[[[-1.2779185,53.7266743],[-1.2919331,53.738716],[-1.3020392,53.7417072],[-1.3082001,53.7390876],[-1.3137857,53.7409362],[-1.3222558,53.7349532],[-1.3321419,53.7357764],[-1.3297101,53.7318457],[-1.3254147,53.729002],[-1.31988,53.7311316],[-1.3173038,53.7288171],[-1.3215792,53.7258399],[-1.3020319,53.7181264],[-1.29605,53.7225001],[-1.2779185,53.7266743]]],"type":"Polygon"},"id":"E02002438","properties":{"code":"E02002438","geography":"MSOA","name":"Wakefield 001"},"type":"Feature"},{"geometry":{"coordinates":[[[-1.3297101,53.7318457],[-1.3321419,53.7357764],[-1.3586173,53.7315419],[-1.3720261,53.7295674],[-1.3656174,53.7271771],[-1.3683868,53.7244592],[-1.3588286,53.7245295],[-1.3521875,53.7194554],[-1.3455754,53.7157],[-1.3396025,53.7199211],[-1.3423167,53.7236378],[-1.3330184,53.728541],[-1.3297101,53.7318457]]],"type":"Polygon"},"id":"E02002439","properties":{"code":"E02002439","geography":"MSOA","name":"Wakefield 002"},"type":"Feature"},{"geometry":{"coordinates":[[[-1.3020319,53.7181264],[-1.3215792,53.7258399],[-1.3173038,53.7288171],[-1.31988,53.7311316],[-1.3254147,53.729002],[-1.3297101,53.7318457],[-1.3330184,53.728541],[-1.332731,53.722123],[-1.3391319,53.7181278],[-1.3286948,53.7204301],[-1.3270813,53.7177402],[-1.3220183,53.7186277],[-1.3118521,53.7100569],[-1.2955537,53.7114767],[-1.3020319,53.7181264]]],"type":"Polygon"},"id":"E02002440","properties":{"code":"E02002440","geography":"MSOA","name":"Wakefield 003"},"type":"Feature"},{"geometry":{"coordinates":[[[-1.3521875,53.7194554],[-1.3588286,53.7245295],[-1.3683868,53.7244592],[-1.3656174,53.7271771],[-1.3720261,53.7295674],[-1.3906895,53.7246253],[-1.3778772,53.722669],[-1.3761454,53.7187875],[-1.386883,53.7128567],[-1.3848864,53.7096641],[-1.3768641,53.7149613],[-1.3673553,53.7138113],[-1.3604603,53.7089714],[-1.3521875,53.7194554]]],"type":"Polygon"},"id":"E02002441","properties":{"code":"E02002441","geography":"MSOA","name":"Wakefield 004"},"type":"Feature"},{"geometry":{"coordinates":[[[-1.3118521,53.7100569],[-1.3220183,53.7186277],[-1.3270813,53.7177402],[-1.3286948,53.7204301],[-1.3391319,53.7181278],[-1.332731,53.722123],[-1.3330184,53.728541],[-1.3423167,53.7236378],[-1.3396025,53.7199211],[-1.3455754,53.7157],[-1.3521875,53.7194554],[-1.3604603,53.7089714],[-1.3520608,53.7042246],[-1.3225318,53.7095522],[-1.3118521,53.7100569]]],"type":"Polygon"},"id":"E02002442","properties":{"code":"E02002442","geography":"MSOA","name":"Wakefield 005"},"type":"Feature"},{"geometry":{"coordinates":[[[-1.489129,53.7235044],[-1.5013201,53.7236707],[-1.5097978,53.7297196],[-1.5152568,53.7260711],[-1.4986521,53.717942],[-1.5019125,53.7151962],[-1.4944817,53.7150499],[-1.4997463,53.7120271],[-1.4910102,53.7101093],[-1.495449,53.7089185],[-1.4932647,53.7069044],[-1.5019682,53.706354],[-1.4986957,53.7042211],[-1.5018983,53.7016886],[-1.4961476,53.7018526],[-1.4980801,53.697898],[-1.4890403,53.6961412],[-1.4877807,53.7007087],[-1.480332,53.7018355],[-1.4829041,53.715504],[-1.4750221,53.7172034],[-1.4740155,53.7207238],[-1.489129,53.7235044]]],"type":"Polygon"},"id":"E02002443","properties":{"code":"E02002443","geography":"MSOA","name":"Wakefield 006"},"type":"Feature"},{"geometry":{"coordinates":[[[-1.4282542,53.721325],[-1.4429426,53.7281288],[-1.4830666,53.7276576],[-1.4879606,53.7277175],[-1.489129,53.7235044],[-1.4740155,53.7207238],[-1.4750221,53.7172034],[-1.4829041,53.715504],[-1.480332,53.7018355],[-1.4877807,53.7007087],[-1.4890403,53.6961412],[-1.4844014,53.6949678],[-1.4751266,53.6949135],[-1.4679877,53.6846571],[-1.4596566,53.6825643],[-1.4578567,53.6891319],[-1.4488294,53.6888281],[-1.4508204,53.6979415],[-1.4702242,53.7050388],[-1.4617867,53.7084706],[-1.4697649,53.711936],[-1.4618659,53.7153273],[-1.4402956,53.7145904],[-1.4371831,53.7171228],[-1.446687,53.7184094],[-1.432059,53.7172029],[-1.4343789,53.7217144],[-1.4282542,53.721325]]],"type":"Polygon"},"id":"E02002444","properties":{"code":"E02002444","geography":"MSOA","name":"Wakefield 007"},"type":"Feature"},{"geometry":{"coordinates":[[[-1.4986957,53.7042211],[-1.5019682,53.706354],[-1.4932647,53.7069044],[-1.495449,53.7089185],[-1.4910102,53.7101093],[-1.4997463,53.7120271],[-1.4944817,53.7150499],[-1.5019125,53.7151962],[-1.4986521,53.717942],[-1.5152568,53.7260711],[-1.5171799,53.7247656],[-1.523161,53.7213918],[-1.5178115,53.7177692],[-1.5198589,53.7136249],[-1.5120702,53.7125587],[-1.5141737,53.7098351],[-1.5087867,53.7043397],[-1.5129911,53.7037969],[-1.5139649,53.6960396],[-1.5201444,53.6930823],[-1.5194622,53.6906813],[-1.5033418,53.6951273],[-1.5044565,53.7045521],[-1.4986957,53.7042211]]],"type":"Polygon"},"id":"E02002445","properties":{"code":"E02002445","geography":"MSOA","name":"Wakefield 008"},"type":"Feature"},{"geometry":{"coordinates":[[[-1.3989479,53.7193705],[-1.4119751,53.723086],[-1.4280771,53.721423],[-1.4282542,53.721325],[-1.4343789,53.7217144],[-1.432059,53.7172029],[-1.446687,53.7184094],[-1.4371831,53.7171228],[-1.4402956,53.7145904],[-1.4618659,53.7153273],[-1.4697649,53.711936],[-1.4617867,53.7084706],[-1.4702242,53.7050388],[-1.4508204,53.6979415],[-1.4534365,53.7018785],[-1.4443813,53.7022407],[-1.4467482,53.6977862],[-1.4283856,53.6998896],[-1.4212481,53.7016099],[-1.4157501,53.7076745],[-1.3989479,53.7193705]]],"type":"Polygon"},"id":"E02002446","properties":{"code":"E02002446","geography":"MSOA","name":"Wakefield 009"},"type":"Feature"},{"geometry":{"coordinates":[[[-1.2198084,53.7144005],[-1.2260718,53.7098662],[-1.2295698,53.7148868],[-1.2391948,53.7123167],[-1.2600205,53.7127296],[-1.2569365,53.7083196],[-1.2643452,53.7064365],[-1.2466313,53.7034558],[-1.2445813,53.6993345],[-1.2396725,53.7008239],[-1.2278236,53.6930988],[-1.1990005,53.6948741],[-1.1988144,53.7007138],[-1.2184394,53.7070769],[-1.2198084,53.7144005]]],"type":"Polygon"},"id":"E02002447","properties":{"code":"E02002447","geography":"MSOA","name":"Wakefield 010"},"type":"Feature"},{"geometry":{"coordinates":[[[-1.2600205,53.7127296],[-1.269026,53.7151435],[-1.2718592,53.7247869],[-1.2779185,53.7266743],[-1.29605,53.7225001],[-1.3020319,53.7181264],[-1.2955537,53.7114767],[-1.2810793,53.7070573],[-1.2736322,53.6975558],[-1.2739555,53.6910008],[-1.2584491,53.6918238],[-1.2580075,53.6938476],[-1.2439905,53.6911348],[-1.2278236,53.6930988],[-1.2396725,53.7008239],[-1.2445813,53.6993345],[-1.2466313,53.7034558],[-1.2643452,53.7064365],[-1.2569365,53.7083196],[-1.2600205,53.7127296]]],"type":"Polygon"},"id":"E02002448","properties":{"code":"E02002448","geography":"MSOA","name":"Wakefield 011"},"type":"Feature"},{"geometry":{"coordinates":[[[-1.2739555,53.6910008],[-1.2736322,53.6975558],[-1.2810793,53.7070573],[-1.2955537,53.7114767],[-1.3118521,53.7100569],[-1.3225318,53.7095522],[-1.3124267,53.7024747],[-1.3001361,53.702167],[-1.2995718,53.694772],[-1.2845507,53.6876329],[-1.2739555,53.6910008]]],"type":"Polygon"},"id":"E02002449","properties":{"code":"E02002449","geography":"MSOA","name":"Wakefield 012"},"type":"Feature"},{"geometry":{"coordinates":[[[-1.3848864,53.7096641],[-1.386883,53.7128567],[-1.3761454,53.7187875],[-1.3778772,53.722669],[-1.3906895,53.7246253],[-1.3989479,53.7193705],[-1.4157501,53.7076745],[-1.4071729,53.7021355],[-1.4150799,53.702023],[-1.4176746,53.6991854],[-1.4054662,53.6918459],[-1.3968758,53.6953424],[-1.3892198,53.6947357],[-1.3862908,53.6977534],[-1.3944658,53.7016899],[-1.3935019,53.7056396],[-1.3848864,53.7096641]]],"type":"Polygon"},"id":"E02002450","properties":{"code":"E02002450","geography":"MSOA","name":"Wakefield 013"},"type":"Feature"},{"geometry":{"coordinates":[[[-1.5201444,53.6930823],[-1.5139649,53.6960396],[-1.5129911,53.7037969],[-1.5087867,53.7043397],[-1.5141737,53.7098351],[-1.5120702,53.7125587],[-1.5198589,53.7136249],[-1.5178115,53.7177692],[-1.523161,53.7213918],[-1.5434221,53.7119016],[-1.5531102,53.7035686],[-1.5443553,53.6957261],[-1.5287369,53.6913479],[-1.5201444,53.6930823]]],"type":"Polygon"},"id":"E02002451","properties":{"code":"E02002451","geography":"MSOA","name":"Wakefield 014"},"type":"Feature"},{"geometry":{"coordinates":[[[-1.2995718,53.694772],[-1.3001361,53.702167],[-1.3124267,53.7024747],[-1.3225318,53.7095522],[-1.3520608,53.7042246],[-1.3553416,53.6985184],[-1.3524066,53.6858707],[-1.3386195,53.6831289],[-1.3333252,53.681252],[-1.316234,53.6910953],[-1.3125654,53.6856055],[-1.3030601,53.6841963],[-1.3022676,53.6863917],[-1.3099402,53.688624],[-1.3067567,53.6920885],[-1.2980571,53.6926204],[-1.3022229,53.6938318],[-1.2995718,53.694772]]],"type":"Polygon"},"id":"E02002452","properties":{"code":"E02002452","geography":"MSOA","name":"Wakefield 015"},"type":"Feature"},{"geometry":{"coordinates":[[[-1.4054662,53.6918459],[-1.4176746,53.6991854],[-1.4150799,53.702023],[-1.4071729,53.7021355],[-1.4157501,53.7076745],[-1.4212481,53.7016099],[-1.4283856,53.6998896],[-1.4467482,53.6977862],[-1.4443813,53.7022407],[-1.4534365,53.7018785],[-1.4508204,53.6979415],[-1.4488294,53.6888281],[-1.4578567,53.6891319],[-1.4596566,53.6825643],[-1.4679877,53.6846571],[-1.4685541,53.6825872],[-1.4730599,53.6754101],[-1.4681942,53.6705534],[-1.4725719,53.6686917],[-1.4550295,53.6654575],[-1.4474749,53.6686541],[-1.42519,53.6792839],[-1.4115167,53.6800139],[-1.4187027,53.6842394],[-1.4054662,53.6918459]]],"type":"Polygon"},"id":"E02002453","properties":{"code":"E02002453","geography":"MSOA","name":"Wakefield 016"},"type":"Feature"},{"geometry":{"coordinates":[[[-1.4986957,53.7042211],[-1.5044565,53.7045521],[-1.5033418,53.6951273],[-1.4976623,53.6826534],[-1.5049019,53.6813008],[-1.5005817,53.6775092],[-1.4864514,53.6791306],[-1.4907005,53.6811642],[-1.4832731,53.6860327],[-1.4891539,53.6854997],[-1.4844014,53.6949678],[-1.4890403,53.6961412],[-1.4980801,53.697898],[-1.4961476,53.7018526],[-1.5018983,53.7016886],[-1.4986957,53.7042211]]],"type":"Polygon"},"id":"E02002454","properties":{"code":"E02002454","geography":"MSOA","name":"Wakefield 017"},"type":"Feature"},{"geometry":{"coordinates":[[[-1.2845507,53.6876329],[-1.2995718,53.694772],[-1.3022229,53.6938318],[-1.2980571,53.6926204],[-1.3067567,53.6920885],[-1.3099402,53.688624],[-1.3022676,53.6863917],[-1.3030601,53.6841963],[-1.3043547,53.6818708],[-1.296067,53.6769446],[-1.299354,53.6698077],[-1.2890716,53.6728516],[-1.2852903,53.6791046],[-1.2765713,53.6807151],[-1.2845507,53.6876329]]],"type":"Polygon"},"id":"E02002455","properties":{"code":"E02002455","geography":"MSOA","name":"Wakefield 018"},"type":"Feature"},{"geometry":{"coordinates":[[[-1.5049019,53.6813008],[-1.4976623,53.6826534],[-1.5033418,53.6951273],[-1.5194622,53.6906813],[-1.5277492,53.6878045],[-1.5176732,53.6837939],[-1.5130527,53.6858216],[-1.511562,53.6818815],[-1.5177214,53.6811644],[-1.5152407,53.6790645],[-1.5049019,53.6813008]]],"type":"Polygon"},"id":"E02002456","properties":{"code":"E02002456","geography":"MSOA","name":"Wakefield 019"},"type":"Feature"},{"geometry":{"coordinates":[[[-1.4679877,53.6846571],[-1.4751266,53.6949135],[-1.4844014,53.6949678],[-1.4891539,53.6854997],[-1.4832731,53.6860327],[-1.4907005,53.6811642],[-1.4864514,53.6791306],[-1.4685541,53.6825872],[-1.4679877,53.6846571]]],"type":"Polygon"},"id":"E02002457","properties":{"code":"E02002457","geography":"MSOA","name":"Wakefield 020"},"type":"Feature"},{"geometry":{"coordinates":[[[-1.5592619,53.6989844],[-1.5711292,53.7064158],[-1.5842156,53.703093],[-1.6011338,53.6967957],[-1.6026079,53.692147],[-1.5922186,53.691495],[-1.5963068,53.6864206],[-1.5872952,53.6819843],[-1.5866651,53.6850988],[-1.5845551,53.6832974],[-1.5780655,53.6855002],[-1.5832921,53.6817996],[-1.578618,53.6785813],[-1.5712227,53.6804025],[-1.5668357,53.6767479],[-1.5542089,53.6799153],[-1.5495308,53.6819182],[-1.5559599,53.6870233],[-1.5513016,53.6872315],[-1.5487281,53.6914165],[-1.5592619,53.6989844]]],"type":"Polygon"},"id":"E02002458","properties":{"code":"E02002458","geography":"MSOA","name":"Wakefield 021"},"type":"Feature"},{"geometry":{"coordinates":[[[-1.5201444,53.6930823],[-1.5287369,53.6913479],[-1.5443553,53.6957261],[-1.5531102,53.7035686],[-1.5592619,53.6989844],[-1.5487281,53.6914165],[-1.5513016,53.6872315],[-1.5559599,53.6870233],[-1.5495308,53.6819182],[-1.5450459,53.6799913],[-1.5405168,53.684801],[-1.5331218,53.6816523],[-1.5378139,53.6786867],[-1.534716,53.6760726],[-1.5238445,53.6780352],[-1.5152407,53.6790645],[-1.5177214,53.6811644],[-1.511562,53.6818815],[-1.5130527,53.6858216],[-1.5176732,53.6837939],[-1.5277492,53.6878045],[-1.5194622,53.6906813],[-1.5201444,53.6930823]]],"type":"Polygon"},"id":"E02002459","properties":{"code":"E02002459","geography":"MSOA","name":"Wakefield 022"},"type":"Feature"},{"geometry":{"coordinates":[[[-1.3030601,53.6841963],[-1.3125654,53.6856055],[-1.316234,53.6910953],[-1.3333252,53.681252],[-1.3185876,53.671326],[-1.312111,53.6666518],[-1.3017518,53.6656931],[-1.299354,53.6698077],[-1.296067,53.6769446],[-1.3043547,53.6818708],[-1.3030601,53.6841963]]],"type":"Polygon"},"id":"E02002460","properties":{"code":"E02002460","geography":"MSOA","name":"Wakefield 023"},"type":"Feature"},{"geometry":{"coordinates":[[[-1.3604603,53.7089714],[-1.3673553,53.7138113],[-1.3768641,53.7149613],[-1.3848864,53.7096641],[-1.3935019,53.7056396],[-1.3944658,53.7016899],[-1.3862908,53.6977534],[-1.3892198,53.6947357],[-1.3968758,53.6953424],[-1.4054662,53.6918459],[-1.4187027,53.6842394],[-1.4115167,53.6800139],[-1.42519,53.6792839],[-1.4474749,53.6686541],[-1.4312521,53.6696029],[-1.4163519,53.6667799],[-1.411804,53.6610133],[-1.4135192,53.652784],[-1.4053835,53.650655],[-1.4041965,53.6540618],[-1.3952883,53.6566589],[-1.3948686,53.664305],[-1.3908477,53.6651354],[-1.3960983,53.6739941],[-1.3786553,53.6737968],[-1.3741842,53.6926664],[-1.3697172,53.6927313],[-1.367034,53.687466],[-1.3584172,53.6873301],[-1.3505839,53.6796305],[-1.3386195,53.6831289],[-1.3524066,53.6858707],[-1.3553416,53.6985184],[-1.3520608,53.7042246],[-1.3604603,53.7089714]]],"type":"Polygon"},"id":"E02002461","properties":{"code":"E02002461","geography":"MSOA","name":"Wakefield 024"},"type":"Feature"},{"geometry":{"coordinates":[[[-1.5668357,53.6767479],[-1.5712227,53.6804025],[-1.578618,53.6785813],[-1.5832921,53.6817996],[-1.5780655,53.6855002],[-1.5845551,53.6832974],[-1.5866651,53.6850988],[-1.5872952,53.6819843],[-1.5963068,53.6864206],[-1.6050973,53.6793961],[-1.6151853,53.6772588],[-1.6082712,53.6711016],[-1.5908336,53.6604509],[-1.5804561,53.657649],[-1.5835273,53.6615328],[-1.5748998,53.661557],[-1.5751927,53.6713509],[-1.5693026,53.671498],[-1.5723634,53.6747708],[-1.5668357,53.6767479]]],"type":"Polygon"},"id":"E02002462","properties":{"code":"E02002462","geography":"MSOA","name":"Wakefield 025"},"type":"Feature"},{"geometry":{"coordinates":[[[-1.5238445,53.6780352],[-1.534716,53.6760726],[-1.5378139,53.6786867],[-1.5331218,53.6816523],[-1.5405168,53.684801],[-1.5450459,53.6799913],[-1.5495308,53.6819182],[-1.5542089,53.6799153],[-1.5461953,53.6698906],[-1.5427047,53.6679923],[-1.5368209,53.6718705],[-1.5250897,53.6678335],[-1.5231176,53.6720478],[-1.5175477,53.672838],[-1.5174543,53.6761344],[-1.5238445,53.6780352]]],"type":"Polygon"},"id":"E02002463","properties":{"code":"E02002463","geography":"MSOA","name":"Wakefield 026"},"type":"Feature"},{"geometry":{"coordinates":[[[-1.3386195,53.6831289],[-1.3505839,53.6796305],[-1.3584172,53.6873301],[-1.367034,53.687466],[-1.3697172,53.6927313],[-1.3741842,53.6926664],[-1.3786553,53.6737968],[-1.3774528,53.6689228],[-1.3633712,53.6672929],[-1.3506766,53.6588478],[-1.3422907,53.6580524],[-1.3446266,53.6627534],[-1.3372369,53.6697147],[-1.3298122,53.6728472],[-1.3185876,53.671326],[-1.3333252,53.681252],[-1.3386195,53.6831289]]],"type":"Polygon"},"id":"E02002464","properties":{"code":"E02002464","geography":"MSOA","name":"Wakefield 027"},"type":"Feature"},{"geometry":{"coordinates":[[[-1.5005817,53.6775092],[-1.5049019,53.6813008],[-1.5152407,53.6790645],[-1.5238445,53.6780352],[-1.5174543,53.6761344],[-1.5175477,53.672838],[-1.5231176,53.6720478],[-1.5250897,53.6678335],[-1.5368209,53.6718705],[-1.5427047,53.6679923],[-1.5286725,53.6562485],[-1.5137468,53.6640482],[-1.5012854,53.6620277],[-1.5016709,53.6599117],[-1.4921498,53.670565],[-1.5017231,53.6717351],[-1.4973035,53.6737595],[-1.5005817,53.6775092]]],"type":"Polygon"},"id":"E02002465","properties":{"code":"E02002465","geography":"MSOA","name":"Wakefield 028"},"type":"Feature"},{"geometry":{"coordinates":[[[-1.5461953,53.6698906],[-1.5542089,53.6799153],[-1.5668357,53.6767479],[-1.5723634,53.6747708],[-1.5693026,53.671498],[-1.5751927,53.6713509],[-1.5748998,53.661557],[-1.5835273,53.6615328],[-1.5804561,53.657649],[-1.5660413,53.6565523],[-1.5622775,53.6619248],[-1.5505834,53.6608982],[-1.556185,53.6663653],[-1.5461953,53.6698906]]],"type":"Polygon"},"id":"E02002466","properties":{"code":"E02002466","geography":"MSOA","name":"Wakefield 029"},"type":"Feature"},{"geometry":{"coordinates":[[[-1.4725719,53.6686917],[-1.4681942,53.6705534],[-1.4730599,53.6754101],[-1.4685541,53.6825872],[-1.4864514,53.6791306],[-1.5005817,53.6775092],[-1.4973035,53.6737595],[-1.5017231,53.6717351],[-1.4921498,53.670565],[-1.5016709,53.6599117],[-1.5037137,53.6536913],[-1.4946878,53.6550305],[-1.4963815,53.6586447],[-1.4885094,53.665821],[-1.4726372,53.6598115],[-1.4709278,53.65522],[-1.4675659,53.6527407],[-1.4654083,53.6571113],[-1.4579571,53.6546386],[-1.4524823,53.6577489],[-1.4607082,53.6622544],[-1.4679381,53.6610627],[-1.4755986,53.6655555],[-1.4725719,53.6686917]]],"type":"Polygon"},"id":"E02002467","properties":{"code":"E02002467","geography":"MSOA","name":"Wakefield 030"},"type":"Feature"},{"geometry":{"coordinates":[[[-1.5427047,53.6679923],[-1.5461953,53.6698906],[-1.556185,53.6663653],[-1.5505834,53.6608982],[-1.5622775,53.6619248],[-1.5660413,53.6565523],[-1.5406338,53.6480032],[-1.5286725,53.6562485],[-1.5427047,53.6679923]]],"type":"Polygon"},"id":"E02002468","properties":{"code":"E02002468","geography":"MSOA","name":"Wakefield 031"},"type":"Feature"},{"geometry":{"coordinates":[[[-1.3786553,53.6737968],[-1.3960983,53.6739941],[-1.3908477,53.6651354],[-1.3948686,53.664305],[-1.3952883,53.6566589],[-1.4041965,53.6540618],[-1.4053835,53.650655],[-1.4135192,53.652784],[-1.411804,53.6610133],[-1.4163519,53.6667799],[-1.4312521,53.6696029],[-1.4474749,53.6686541],[-1.4550295,53.6654575],[-1.4725719,53.6686917],[-1.4755986,53.6655555],[-1.4679381,53.6610627],[-1.4607082,53.6622544],[-1.4524823,53.6577489],[-1.4461148,53.6530164],[-1.4294233,53.6520303],[-1.4207783,53.6483699],[-1.4241956,53.645396],[-1.4390651,53.6439414],[-1.4416522,53.6400062],[-1.4378125,53.6361112],[-1.4427251,53.6308864],[-1.4397902,53.6267862],[-1.4183166,53.6275078],[-1.4002708,53.6396151],[-1.3776671,53.6460191],[-1.3820052,53.6492701],[-1.3776993,53.6555613],[-1.3848709,53.6620177],[-1.377808,53.6647235],[-1.3815375,53.667798],[-1.3774528,53.6689228],[-1.3786553,53.6737968]]],"type":"Polygon"},"id":"E02002469","properties":{"code":"E02002469","geography":"MSOA","name":"Wakefield 032"},"type":"Feature"},{"geometry":{"coordinates":[[[-1.4709278,53.65522],[-1.4726372,53.6598115],[-1.4885094,53.665821],[-1.4963815,53.6586447],[-1.4946878,53.6550305],[-1.5037137,53.6536913],[-1.5079479,53.6507842],[-1.49709,53.6446367],[-1.4936901,53.6400655],[-1.4882205,53.6413094],[-1.4884034,53.6456999],[-1.4840004,53.6424495],[-1.4797046,53.6435539],[-1.4795232,53.6394008],[-1.4757781,53.640825],[-1.4709278,53.65522]]],"type":"Polygon"},"id":"E02002470","properties":{"code":"E02002470","geography":"MSOA","name":"Wakefield 033"},"type":"Feature"},{"geometry":{"coordinates":[[[-1.2439905,53.6911348],[-1.2580075,53.6938476],[-1.2584491,53.6918238],[-1.2739555,53.6910008],[-1.2845507,53.6876329],[-1.2765713,53.6807151],[-1.2852903,53.6791046],[-1.2890716,53.6728516],[-1.299354,53.6698077],[-1.3017518,53.6656931],[-1.312111,53.6666518],[-1.3185876,53.671326],[-1.3298122,53.6728472],[-1.3372369,53.6697147],[-1.3446266,53.6627534],[-1.3422907,53.6580524],[-1.3506766,53.6588478],[-1.3633712,53.6672929],[-1.3774528,53.6689228],[-1.3815375,53.667798],[-1.377808,53.6647235],[-1.3848709,53.6620177],[-1.3776993,53.6555613],[-1.3820052,53.6492701],[-1.3776671,53.6460191],[-1.3559445,53.6395403],[-1.3486629,53.6307043],[-1.331304,53.6356383],[-1.3224212,53.6271727],[-1.3225916,53.6210686],[-1.3140725,53.6238604],[-1.3087144,53.6192977],[-1.2956309,53.6195731],[-1.2887552,53.6162379],[-1.2805852,53.6191018],[-1.2803013,53.6255416],[-1.2741657,53.6295089],[-1.2616789,53.6324212],[-1.2504941,53.6291817],[-1.2500701,53.6381692],[-1.2632322,53.648567],[-1.2552132,53.6489432],[-1.2487741,53.6496111],[-1.2469574,53.6555953],[-1.2523161,53.6666365],[-1.2439544,53.6732315],[-1.2439905,53.6911348]]],"type":"Polygon"},"id":"E02002471","properties":{"code":"E02002471","geography":"MSOA","name":"Wakefield 034"},"type":"Feature"},{"geometry":{"coordinates":[[[-1.5804561,53.657649],[-1.5908336,53.6604509],[-1.6242027,53.6540613],[-1.6192445,53.6463582],[-1.6232044,53.638095],[-1.6172802,53.6377493],[-1.6121867,53.6326681],[-1.6156724,53.6302435],[-1.610296,53.628004],[-1.6145096,53.6259217],[-1.6075811,53.6196299],[-1.5975561,53.6170962],[-1.596185,53.6217158],[-1.5775299,53.634619],[-1.5660424,53.6397757],[-1.5565054,53.6400194],[-1.5406338,53.6480032],[-1.5660413,53.6565523],[-1.5804561,53.657649]]],"type":"Polygon"},"id":"E02002472","properties":{"code":"E02002472","geography":"MSOA","name":"Wakefield 035"},"type":"Feature"},{"geometry":{"coordinates":[[[-1.5016709,53.6599117],[-1.5012854,53.6620277],[-1.5137468,53.6640482],[-1.5286725,53.6562485],[-1.5406338,53.6480032],[-1.5565054,53.6400194],[-1.5591178,53.6383887],[-1.5542062,53.632227],[-1.5364665,53.6204777],[-1.5185659,53.625736],[-1.5252358,53.6307887],[-1.5284762,53.6419914],[-1.5079479,53.6507842],[-1.5037137,53.6536913],[-1.5016709,53.6599117]]],"type":"Polygon"},"id":"E02002473","properties":{"code":"E02002473","geography":"MSOA","name":"Wakefield 036"},"type":"Feature"},{"geometry":{"coordinates":[[[-1.49709,53.6446367],[-1.5079479,53.6507842],[-1.5284762,53.6419914],[-1.5252358,53.6307887],[-1.5185659,53.625736],[-1.5003432,53.6241884],[-1.4918153,53.6289136],[-1.5004006,53.6405814],[-1.49709,53.6446367]]],"type":"Polygon"},"id":"E02002474","properties":{"code":"E02002474","geography":"MSOA","name":"Wakefield 037"},"type":"Feature"},{"geometry":{"coordinates":[[[-1.4397902,53.6267862],[-1.4427251,53.6308864],[-1.4378125,53.6361112],[-1.4416522,53.6400062],[-1.4390651,53.6439414],[-1.4241956,53.645396],[-1.4207783,53.6483699],[-1.4294233,53.6520303],[-1.4461148,53.6530164],[-1.4524823,53.6577489],[-1.4579571,53.6546386],[-1.4654083,53.6571113],[-1.4675659,53.6527407],[-1.4709278,53.65522],[-1.4757781,53.640825],[-1.4795232,53.6394008],[-1.4797046,53.6435539],[-1.4840004,53.6424495],[-1.4884034,53.6456999],[-1.4882205,53.6413094],[-1.4936901,53.6400655],[-1.49709,53.6446367],[-1.5004006,53.6405814],[-1.4918153,53.6289136],[-1.5003432,53.6241884],[-1.5185659,53.625736],[-1.5364665,53.6204777],[-1.5542062,53.632227],[-1.5591178,53.6383887],[-1.5565054,53.6400194],[-1.5660424,53.6397757],[-1.5775299,53.634619],[-1.596185,53.6217158],[-1.5975561,53.6170962],[-1.5864501,53.6071575],[-1.5818937,53.6057819],[-1.5719268,53.6085923],[-1.5575967,53.6058977],[-1.5473445,53.6031734],[-1.5362078,53.5936297],[-1.530267,53.5933214],[-1.5271031,53.5971717],[-1.518673,53.5996911],[-1.510404,53.5968389],[-1.5014796,53.5998626],[-1.4965606,53.5973559],[-1.4950577,53.6031771],[-1.4915302,53.6027203],[-1.4919141,53.5967368],[-1.483828,53.594811],[-1.4468072,53.6127993],[-1.4430274,53.6149247],[-1.4476202,53.6215551],[-1.4561012,53.6207239],[-1.4633487,53.6242045],[-1.4397902,53.6267862]]],"type":"Polygon"},"id":"E02002475","properties":{"code":"E02002475","geography":"MSOA","name":"Wakefield 038"},"type":"Feature"},{"geometry":{"coordinates":[[[-1.3486629,53.6307043],[-1.3559445,53.6395403],[-1.3776671,53.6460191],[-1.4002708,53.6396151],[-1.4000733,53.6287795],[-1.4057264,53.6236134],[-1.3942991,53.6251722],[-1.3912561,53.6199526],[-1.377811,53.6128096],[-1.3790531,53.6065447],[-1.3718276,53.6049835],[-1.3598819,53.6131332],[-1.357812,53.6226857],[-1.3491872,53.6215372],[-1.3486629,53.6307043]]],"type":"Polygon"},"id":"E02002476","properties":{"code":"E02002476","geography":"MSOA","name":"Wakefield 039"},"type":"Feature"},{"geometry":{"coordinates":[[[-1.3790531,53.6065447],[-1.377811,53.6128096],[-1.3912561,53.6199526],[-1.3942991,53.6251722],[-1.4057264,53.6236134],[-1.4000733,53.6287795],[-1.4002708,53.6396151],[-1.4183166,53.6275078],[-1.4397902,53.6267862],[-1.4633487,53.6242045],[-1.4561012,53.6207239],[-1.4476202,53.6215551],[-1.4430274,53.6149247],[-1.4468072,53.6127993],[-1.4410375,53.6087073],[-1.4366061,53.6065795],[-1.4328867,53.6089341],[-1.4249358,53.604443],[-1.399848,53.5987151],[-1.3790531,53.6065447]]],"type":"Polygon"},"id":"E02002477","properties":{"code":"E02002477","geography":"MSOA","name":"Wakefield 040"},"type":"Feature"},{"geometry":{"coordinates":[[[-1.2328412,53.6210943],[-1.2428969,53.6345961],[-1.2536591,53.6411802],[-1.2552132,53.6489432],[-1.2632322,53.648567],[-1.2500701,53.6381692],[-1.2504941,53.6291817],[-1.2616789,53.6324212],[-1.2741657,53.6295089],[-1.2803013,53.6255416],[-1.2805852,53.6191018],[-1.2887552,53.6162379],[-1.2956309,53.6195731],[-1.3087144,53.6192977],[-1.3140725,53.6238604],[-1.3225916,53.6210686],[-1.3202992,53.609333],[-1.3276367,53.6117437],[-1.3379535,53.6088036],[-1.3113795,53.6026491],[-1.2990488,53.6004715],[-1.2898288,53.6040848],[-1.2898818,53.6077602],[-1.2667638,53.6035637],[-1.2521966,53.6070951],[-1.2448002,53.6081165],[-1.2481769,53.6162749],[-1.2312947,53.6168916],[-1.2278992,53.6173188],[-1.2328412,53.6210943]]],"type":"Polygon"},"id":"E02002478","properties":{"code":"E02002478","geography":"MSOA","name":"Wakefield 041"},"type":"Feature"},{"geometry":{"coordinates":[[[-1.3225916,53.6210686],[-1.3224212,53.6271727],[-1.331304,53.6356383],[-1.3486629,53.6307043],[-1.3491872,53.6215372],[-1.357812,53.6226857],[-1.3598819,53.6131332],[-1.3718276,53.6049835],[-1.3561569,53.5953549],[-1.3479099,53.5986232],[-1.3496251,53.604918],[-1.3379535,53.6088036],[-1.3276367,53.6117437],[-1.3202992,53.609333],[-1.3225916,53.6210686]]],"type":"Polygon"},"id":"E02002479","properties":{"code":"E02002479","geography":"MSOA","name":"Wakefield 042"},"type":"Feature"},{"geometry":{"coordinates":[[[-1.2985427,53.5922551],[-1.2852151,53.5967698],[-1.2826115,53.6014783],[-1.2898288,53.6040848],[-1.2990488,53.6004715],[-1.3113795,53.6026491],[-1.3140663,53.59643],[-1.3184223,53.5963423],[-1.3150389,53.5899033],[-1.3075117,53.5875956],[-1.2985427,53.5922551]]],"type":"Polygon"},"id":"E02002480","properties":{"code":"E02002480","geography":"MSOA","name":"Wakefield 043"},"type":"Feature"},{"geometry":{"coordinates":[[[-1.2521966,53.6070951],[-1.2667638,53.6035637],[-1.2898818,53.6077602],[-1.2898288,53.6040848],[-1.2826115,53.6014783],[-1.2852151,53.5967698],[-1.2985427,53.5922551],[-1.3044841,53.5844492],[-1.3142028,53.5824801],[-1.3103907,53.575984],[-1.2822634,53.583056],[-1.276691,53.5899536],[-1.2580827,53.5919771],[-1.2530061,53.5971319],[-1.2576957,53.5998315],[-1.2472166,53.6007449],[-1.2521966,53.6070951]]],"type":"Polygon"},"id":"E02002481","properties":{"code":"E02002481","geography":"MSOA","name":"Wakefield 044"},"type":"Feature"},{"geometry":{"coordinates":[[[-1.3113795,53.6026491],[-1.3379535,53.6088036],[-1.3496251,53.604918],[-1.3479099,53.5986232],[-1.3561569,53.5953549],[-1.3514322,53.5810635],[-1.3486462,53.5833134],[-1.3103907,53.575984],[-1.3142028,53.5824801],[-1.3044841,53.5844492],[-1.2985427,53.5922551],[-1.3075117,53.5875956],[-1.3150389,53.5899033],[-1.3184223,53.5963423],[-1.3140663,53.59643],[-1.3113795,53.6026491]]],"type":"Polygon"},"id":"E02002482","properties":{"code":"E02002482","geography":"MSOA","name":"Wakefield 045"},"type":"Feature"}],"type":"FeatureCollection"}
