{"features":[{"geometry":{"coordinates":[[[-1.8788788,53.9542601],[-1.8787712,53.9624874],[-1.8839972,53.963129],[-1.8931346,53.9553693],[-1.9062703,53.9583641],[-1.922767,53.9556194],[-1.9308584,53.9502539],[-1.9192441,53.9446735],[-1.9189641,53.9382813],[-1.8987234,53.924201],[-1.8610911,53.9064763],[-1.817754,53.8995671],[-1.786629,53.9106679],[-1.7823288,53.9148346],[-1.7778337,53.9233177],[-1.7823731,53.9294018],[-1.7926523,53.9292816],[-1.7917934,53.9267949],[-1.7919223,53.9288787],[-1.7815202,53.9250285],[-1.7880162,53.9246731],[-1.7952061,53.9170199],[-1.8141484,53.9193487],[-1.8129376,53.9233315],[-1.8234115,53.9251512],[-1.8229208,53.9223733],[-1.8411552,53.9199473],[-1.8361545,53.9157532],[-1.8417864,53.9184629],[-1.8539008,53.9162677],[-1.848034,53.9220187],[-1.8502739,53.9275103],[-1.8463488,53.9303238],[-1.8405719,53.9280084],[-1.8370594,53.9313551],[-1.8622048,53.9336291],[-1.8621035,53.9405546],[-1.8741472,53.9450735],[-1.8788788,53.9542601]]],"type":"Polygon"},"id":"E02002183","properties":{"code":"E02002183","geography":"MSOA","name":"Bradford 001"},"type":"Feature"},{"geometry":{"coordinates":[[[-1.7926523,53.9292816],[-1.7980061,53.9296995],[-1.7974923,53.9364701],[-1.8028603,53.9359429],[-1.8050859,53.9390082],[-1.830197,53.9380038],[-1.830124,53.9403688],[-1.8476861,53.9407583],[-1.8486535,53.9360123],[-1.8370594,53.9313551],[-1.8405719,53.9280084],[-1.8463488,53.9303238],[-1.8502739,53.9275103],[-1.848034,53.9220187],[-1.8539008,53.9162677],[-1.8417864,53.9184629],[-1.8361545,53.9157532],[-1.8411552,53.9199473],[-1.8229208,53.9223733],[-1.8234115,53.9251512],[-1.8129376,53.9233315],[-1.8141484,53.9193487],[-1.7952061,53.9170199],[-1.7880162,53.9246731],[-1.7815202,53.9250285],[-1.7919223,53.9288787],[-1.7917934,53.9267949],[-1.7926523,53.9292816]]],"type":"Polygon"},"id":"E02002184","properties":{"code":"E02002184","geography":"MSOA","name":"Bradford 002"},"type":"Feature"},{"geometry":{"coordinates":[[[-1.7272128,53.9101816],[-1.7421597,53.9145649],[-1.7456219,53.9229887],[-1.7555034,53.921026],[-1.7654214,53.9247078],[-1.7728619,53.9208744],[-1.7778337,53.9233177],[-1.7823288,53.9148346],[-1.7667144,53.9078502],[-1.7590504,53.9114324],[-1.7489182,53.9051086],[-1.7441275,53.9061745],[-1.7435672,53.8955942],[-1.7312104,53.9024581],[-1.7272409,53.909509],[-1.7272128,53.9101816]]],"type":"Polygon"},"id":"E02002185","properties":{"code":"E02002185","geography":"MSOA","name":"Bradford 003"},"type":"Feature"},{"geometry":{"coordinates":[[[-1.7312104,53.9024581],[-1.7435672,53.8955942],[-1.7441275,53.9061745],[-1.7489182,53.9051086],[-1.7590504,53.9114324],[-1.7667144,53.9078502],[-1.7823288,53.9148346],[-1.786629,53.9106679],[-1.817754,53.8995671],[-1.8003593,53.8858998],[-1.7949598,53.894613],[-1.7874622,53.8968856],[-1.7766765,53.8938373],[-1.7795236,53.8911768],[-1.7672983,53.8902013],[-1.7564324,53.8846483],[-1.725455,53.8856682],[-1.7267498,53.8881931],[-1.7172892,53.8922833],[-1.7320699,53.8958811],[-1.7312104,53.9024581]]],"type":"Polygon"},"id":"E02002187","properties":{"code":"E02002187","geography":"MSOA","name":"Bradford 005"},"type":"Feature"},{"geometry":{"coordinates":[[[-1.817754,53.8995671],[-1.8610911,53.9064763],[-1.9093415,53.88549],[-1.9012732,53.8792596],[-1.905542,53.8753586],[-1.8969511,53.8738893],[-1.8956382,53.8758655],[-1.8892747,53.8722557],[-1.8873053,53.8772225],[-1.8810897,53.876854],[-1.877982,53.8708719],[-1.8723509,53.872574],[-1.8650576,53.8683835],[-1.8681083,53.8651577],[-1.8570999,53.8622029],[-1.8553096,53.8620078],[-1.8477719,53.8725977],[-1.8406536,53.8763951],[-1.8352887,53.8756452],[-1.8385828,53.8861026],[-1.817754,53.8995671]]],"type":"Polygon"},"id":"E02002188","properties":{"code":"E02002188","geography":"MSOA","name":"Bradford 006"},"type":"Feature"},{"geometry":{"coordinates":[[[-1.9093415,53.88549],[-1.9220664,53.8884983],[-1.9298847,53.8857864],[-1.9279589,53.8835857],[-1.9399862,53.875433],[-1.9379193,53.872501],[-1.9248583,53.8728733],[-1.9238753,53.8675549],[-1.9189545,53.8696714],[-1.9154134,53.8679251],[-1.9096043,53.869696],[-1.9097983,53.8760584],[-1.905542,53.8753586],[-1.9012732,53.8792596],[-1.9093415,53.88549]]],"type":"Polygon"},"id":"E02002189","properties":{"code":"E02002189","geography":"MSOA","name":"Bradford 007"},"type":"Feature"},{"geometry":{"coordinates":[[[-1.8570999,53.8622029],[-1.8681083,53.8651577],[-1.8650576,53.8683835],[-1.8723509,53.872574],[-1.877982,53.8708719],[-1.8810897,53.876854],[-1.8873053,53.8772225],[-1.8892747,53.8722557],[-1.8956382,53.8758655],[-1.8969511,53.8738893],[-1.905542,53.8753586],[-1.9097983,53.8760584],[-1.9096043,53.869696],[-1.9154134,53.8679251],[-1.9125378,53.8656778],[-1.9196829,53.8666158],[-1.9200872,53.8643905],[-1.9136677,53.8647739],[-1.8980943,53.8591278],[-1.9021206,53.8439759],[-1.9017387,53.8439197],[-1.8919613,53.851799],[-1.8814012,53.8529067],[-1.8690568,53.8603652],[-1.8559199,53.8583521],[-1.8570999,53.8622029]]],"type":"Polygon"},"id":"E02002190","properties":{"code":"E02002190","geography":"MSOA","name":"Bradford 008"},"type":"Feature"},{"geometry":{"coordinates":[[[-1.9154134,53.8679251],[-1.9189545,53.8696714],[-1.9238753,53.8675549],[-1.9248583,53.8728733],[-1.9379193,53.872501],[-1.939036,53.8650801],[-1.9305355,53.8705789],[-1.9321522,53.8671808],[-1.9254932,53.8658794],[-1.9322582,53.8635203],[-1.9278584,53.8581855],[-1.9228382,53.860312],[-1.9186837,53.8585277],[-1.9136807,53.8592085],[-1.9136677,53.8647739],[-1.9200872,53.8643905],[-1.9196829,53.8666158],[-1.9125378,53.8656778],[-1.9154134,53.8679251]]],"type":"Polygon"},"id":"E02002191","properties":{"code":"E02002191","geography":"MSOA","name":"Bradford 009"},"type":"Feature"},{"geometry":{"coordinates":[[[-1.8003593,53.8858998],[-1.817754,53.8995671],[-1.8385828,53.8861026],[-1.8352887,53.8756452],[-1.8406536,53.8763951],[-1.8477719,53.8725977],[-1.8553096,53.8620078],[-1.8334783,53.8520636],[-1.8196363,53.8525324],[-1.8180751,53.8487871],[-1.8053271,53.8543225],[-1.8004602,53.863992],[-1.7913252,53.868801],[-1.7609752,53.8638326],[-1.7782487,53.8718657],[-1.7787215,53.8785816],[-1.7946488,53.8805052],[-1.8003593,53.8858998]]],"type":"Polygon"},"id":"E02002192","properties":{"code":"E02002192","geography":"MSOA","name":"Bradford 010"},"type":"Feature"},{"geometry":{"coordinates":[[[-1.9021206,53.8439759],[-1.8980943,53.8591278],[-1.9136677,53.8647739],[-1.9136807,53.8592085],[-1.9186837,53.8585277],[-1.9215764,53.8531555],[-1.9170563,53.8520468],[-1.9274796,53.8444254],[-1.9265547,53.842747],[-1.9207227,53.8433584],[-1.9145729,53.8400296],[-1.9021206,53.8439759]]],"type":"Polygon"},"id":"E02002193","properties":{"code":"E02002193","geography":"MSOA","name":"Bradford 011"},"type":"Feature"},{"geometry":{"coordinates":[[[-1.9322582,53.8635203],[-1.9390386,53.8636408],[-1.9367733,53.8608665],[-1.9424406,53.8545662],[-1.9334209,53.8559303],[-1.9331511,53.8514484],[-1.94051,53.8531977],[-1.9391471,53.8490666],[-1.9274796,53.8444254],[-1.9170563,53.8520468],[-1.9215764,53.8531555],[-1.9186837,53.8585277],[-1.9228382,53.860312],[-1.9278584,53.8581855],[-1.9322582,53.8635203]]],"type":"Polygon"},"id":"E02002194","properties":{"code":"E02002194","geography":"MSOA","name":"Bradford 012"},"type":"Feature"},{"geometry":{"coordinates":[[[-1.7609752,53.8638326],[-1.7913252,53.868801],[-1.8004602,53.863992],[-1.8053271,53.8543225],[-1.8069675,53.8496804],[-1.8019281,53.8471393],[-1.8003447,53.8499708],[-1.7893514,53.8507723],[-1.7839288,53.849589],[-1.7851721,53.8472692],[-1.7769812,53.8471225],[-1.7793224,53.8456486],[-1.7586213,53.8499987],[-1.7593853,53.8533675],[-1.7513783,53.8531183],[-1.7483889,53.856072],[-1.7426419,53.8544157],[-1.7431416,53.8502579],[-1.7507242,53.8475721],[-1.7466294,53.8469174],[-1.7362205,53.8536174],[-1.7414912,53.8552896],[-1.7428877,53.8633401],[-1.7534849,53.8674098],[-1.7609752,53.8638326]]],"type":"Polygon"},"id":"E02002195","properties":{"code":"E02002195","geography":"MSOA","name":"Bradford 013"},"type":"Feature"},{"geometry":{"coordinates":[[[-1.9298847,53.8857864],[-1.9337898,53.8842153],[-1.9419584,53.8871521],[-1.9407289,53.8797672],[-1.9470304,53.8776252],[-1.9769766,53.8755869],[-1.9876504,53.867723],[-2.0027984,53.8717038],[-1.9972875,53.8588427],[-1.9880442,53.8578613],[-1.9893646,53.8548418],[-1.9797905,53.8521027],[-1.9841356,53.8454588],[-1.9618306,53.843818],[-1.9577956,53.840581],[-1.9510545,53.8421519],[-1.9529342,53.8365225],[-1.9472325,53.8400755],[-1.9265547,53.842747],[-1.9274796,53.8444254],[-1.9391471,53.8490666],[-1.94051,53.8531977],[-1.9331511,53.8514484],[-1.9334209,53.8559303],[-1.9424406,53.8545662],[-1.9367733,53.8608665],[-1.9390386,53.8636408],[-1.9322582,53.8635203],[-1.9254932,53.8658794],[-1.9321522,53.8671808],[-1.9305355,53.8705789],[-1.939036,53.8650801],[-1.9379193,53.872501],[-1.9399862,53.875433],[-1.9279589,53.8835857],[-1.9298847,53.8857864]]],"type":"Polygon"},"id":"E02002196","properties":{"code":"E02002196","geography":"MSOA","name":"Bradford 014"},"type":"Feature"},{"geometry":{"coordinates":[[[-1.8553096,53.8620078],[-1.8570999,53.8622029],[-1.8559199,53.8583521],[-1.8690568,53.8603652],[-1.8814012,53.8529067],[-1.8919613,53.851799],[-1.9017387,53.8439197],[-1.8843624,53.8386315],[-1.8833114,53.8411677],[-1.874976,53.8419205],[-1.8731902,53.8458988],[-1.8613625,53.8388582],[-1.8526727,53.8391978],[-1.8505527,53.8438723],[-1.8343487,53.8410145],[-1.8290788,53.8424876],[-1.8266482,53.8458731],[-1.8174919,53.8437845],[-1.8180751,53.8487871],[-1.8196363,53.8525324],[-1.8334783,53.8520636],[-1.8553096,53.8620078]]],"type":"Polygon"},"id":"E02002197","properties":{"code":"E02002197","geography":"MSOA","name":"Bradford 015"},"type":"Feature"},{"geometry":{"coordinates":[[[-1.7466294,53.8469174],[-1.7507242,53.8475721],[-1.7431416,53.8502579],[-1.7426419,53.8544157],[-1.7483889,53.856072],[-1.7513783,53.8531183],[-1.7593853,53.8533675],[-1.7586213,53.8499987],[-1.7793224,53.8456486],[-1.7892036,53.8400621],[-1.7735435,53.8371584],[-1.7638055,53.8409719],[-1.7528087,53.8431079],[-1.7466294,53.8469174]]],"type":"Polygon"},"id":"E02002198","properties":{"code":"E02002198","geography":"MSOA","name":"Bradford 016"},"type":"Feature"},{"geometry":{"coordinates":[[[-1.703372,53.8603791],[-1.7151841,53.8662213],[-1.7229163,53.8648329],[-1.7428877,53.8633401],[-1.7414912,53.8552896],[-1.7362205,53.8536174],[-1.7466294,53.8469174],[-1.7528087,53.8431079],[-1.7488367,53.8394537],[-1.7392617,53.8417878],[-1.7393037,53.8387499],[-1.732551,53.840947],[-1.7279168,53.8375598],[-1.7266309,53.8402932],[-1.7253587,53.8358881],[-1.7188818,53.8336388],[-1.7087691,53.8353524],[-1.7038464,53.8326672],[-1.7031387,53.836339],[-1.703744,53.8422824],[-1.693987,53.8512675],[-1.6950879,53.857523],[-1.7020607,53.8578399],[-1.703372,53.8603791]]],"type":"Polygon"},"id":"E02002199","properties":{"code":"E02002199","geography":"MSOA","name":"Bradford 017"},"type":"Feature"},{"geometry":{"coordinates":[[[-1.7793224,53.8456486],[-1.7769812,53.8471225],[-1.7851721,53.8472692],[-1.7839288,53.849589],[-1.7893514,53.8507723],[-1.8003447,53.8499708],[-1.8019281,53.8471393],[-1.8069675,53.8496804],[-1.8053271,53.8543225],[-1.8180751,53.8487871],[-1.8174919,53.8437845],[-1.8266482,53.8458731],[-1.8290788,53.8424876],[-1.8119438,53.8385171],[-1.8103156,53.8339468],[-1.8198536,53.8271048],[-1.8095926,53.8261669],[-1.807314,53.8224772],[-1.807237,53.8225607],[-1.7968649,53.8267175],[-1.7976172,53.831339],[-1.791754,53.833597],[-1.7892036,53.8400621],[-1.7793224,53.8456486]]],"type":"Polygon"},"id":"E02002200","properties":{"code":"E02002200","geography":"MSOA","name":"Bradford 018"},"type":"Feature"},{"geometry":{"coordinates":[[[-1.7038464,53.8326672],[-1.7087691,53.8353524],[-1.7188818,53.8336388],[-1.7253587,53.8358881],[-1.7266309,53.8402932],[-1.7279168,53.8375598],[-1.732551,53.840947],[-1.7393037,53.8387499],[-1.7392617,53.8417878],[-1.7488367,53.8394537],[-1.7520586,53.8378305],[-1.7471197,53.8319325],[-1.7335665,53.8260663],[-1.7310683,53.8313822],[-1.7189285,53.8249767],[-1.7156946,53.8264105],[-1.7121556,53.8314138],[-1.7062916,53.8292124],[-1.7038464,53.8326672]]],"type":"Polygon"},"id":"E02002201","properties":{"code":"E02002201","geography":"MSOA","name":"Bradford 019"},"type":"Feature"},{"geometry":{"coordinates":[[[-1.7786608,53.8304993],[-1.761846,53.8320847],[-1.7650613,53.8345408],[-1.7594773,53.8379129],[-1.7638055,53.8409719],[-1.7735435,53.8371584],[-1.7892036,53.8400621],[-1.791754,53.833597],[-1.7976172,53.831339],[-1.7968649,53.8267175],[-1.7938106,53.8200397],[-1.7851182,53.8219113],[-1.7879307,53.8261332],[-1.7786608,53.8304993]]],"type":"Polygon"},"id":"E02002202","properties":{"code":"E02002202","geography":"MSOA","name":"Bradford 020"},"type":"Feature"},{"geometry":{"coordinates":[[[-1.7488367,53.8394537],[-1.7528087,53.8431079],[-1.7638055,53.8409719],[-1.7594773,53.8379129],[-1.7650613,53.8345408],[-1.761846,53.8320847],[-1.7786608,53.8304993],[-1.7673679,53.8190342],[-1.7648785,53.8192405],[-1.7643925,53.8241434],[-1.757781,53.823783],[-1.753962,53.8309173],[-1.7471197,53.8319325],[-1.7520586,53.8378305],[-1.7488367,53.8394537]]],"type":"Polygon"},"id":"E02002203","properties":{"code":"E02002203","geography":"MSOA","name":"Bradford 021"},"type":"Feature"},{"geometry":{"coordinates":[[[-1.8290788,53.8424876],[-1.8343487,53.8410145],[-1.8505527,53.8438723],[-1.8526727,53.8391978],[-1.8613625,53.8388582],[-1.8731902,53.8458988],[-1.874976,53.8419205],[-1.8833114,53.8411677],[-1.8843624,53.8386315],[-1.8778077,53.8350646],[-1.880541,53.8308663],[-1.8735322,53.8339758],[-1.869848,53.8317872],[-1.8771676,53.828804],[-1.8634063,53.8200163],[-1.8685825,53.816298],[-1.8630789,53.8165123],[-1.8601568,53.8127166],[-1.8549239,53.8133979],[-1.8522117,53.8107665],[-1.8491212,53.8150356],[-1.8360659,53.8215679],[-1.8298917,53.818716],[-1.807314,53.8224772],[-1.8095926,53.8261669],[-1.8198536,53.8271048],[-1.8103156,53.8339468],[-1.8119438,53.8385171],[-1.8290788,53.8424876]]],"type":"Polygon"},"id":"E02002204","properties":{"code":"E02002204","geography":"MSOA","name":"Bradford 022"},"type":"Feature"},{"geometry":{"coordinates":[[[-1.9265547,53.842747],[-1.9472325,53.8400755],[-1.9529342,53.8365225],[-1.9510545,53.8421519],[-1.9577956,53.840581],[-1.9618306,53.843818],[-1.9841356,53.8454588],[-1.9797905,53.8521027],[-1.9893646,53.8548418],[-1.9880442,53.8578613],[-1.9972875,53.8588427],[-2.0027984,53.8717038],[-2.013482,53.8697234],[-2.021628,53.8714835],[-2.0317058,53.8585795],[-2.0461285,53.8501277],[-2.0469224,53.8294962],[-2.0612482,53.8256212],[-2.0369301,53.8145418],[-2.0316149,53.8090888],[-2.0096558,53.8070872],[-1.986763,53.7961359],[-1.9808468,53.7863383],[-1.959714,53.784256],[-1.9507182,53.7859974],[-1.9269768,53.7874746],[-1.9285438,53.7897863],[-1.9188192,53.7972474],[-1.9293671,53.8074284],[-1.9270495,53.8212986],[-1.9373845,53.8239642],[-1.9268447,53.8294482],[-1.9266704,53.8360165],[-1.9145729,53.8400296],[-1.9207227,53.8433584],[-1.9265547,53.842747]]],"type":"Polygon"},"id":"E02002205","properties":{"code":"E02002205","geography":"MSOA","name":"Bradford 023"},"type":"Feature"},{"geometry":{"coordinates":[[[-1.7335665,53.8260663],[-1.7471197,53.8319325],[-1.753962,53.8309173],[-1.757781,53.823783],[-1.7643925,53.8241434],[-1.7648785,53.8192405],[-1.7549028,53.8170455],[-1.7451176,53.8222328],[-1.7464774,53.8193364],[-1.7353479,53.8193409],[-1.7335665,53.8260663]]],"type":"Polygon"},"id":"E02002206","properties":{"code":"E02002206","geography":"MSOA","name":"Bradford 024"},"type":"Feature"},{"geometry":{"coordinates":[[[-1.7673679,53.8190342],[-1.7786608,53.8304993],[-1.7879307,53.8261332],[-1.7851182,53.8219113],[-1.7810927,53.8226327],[-1.7777794,53.8150756],[-1.7652675,53.8165663],[-1.7673679,53.8190342]]],"type":"Polygon"},"id":"E02002207","properties":{"code":"E02002207","geography":"MSOA","name":"Bradford 025"},"type":"Feature"},{"geometry":{"coordinates":[[[-1.7156946,53.8264105],[-1.7189285,53.8249767],[-1.7310683,53.8313822],[-1.7335665,53.8260663],[-1.7353479,53.8193409],[-1.7336232,53.8165913],[-1.7289352,53.8164307],[-1.7271507,53.8196748],[-1.7198309,53.8164349],[-1.7183154,53.8231641],[-1.7087242,53.8266942],[-1.7124028,53.8289178],[-1.7156946,53.8264105]]],"type":"Polygon"},"id":"E02002208","properties":{"code":"E02002208","geography":"MSOA","name":"Bradford 026"},"type":"Feature"},{"geometry":{"coordinates":[[[-1.7062916,53.8292124],[-1.7121556,53.8314138],[-1.7156946,53.8264105],[-1.7124028,53.8289178],[-1.7087242,53.8266942],[-1.7183154,53.8231641],[-1.7198309,53.8164349],[-1.7182856,53.8066287],[-1.7083136,53.8099569],[-1.7075335,53.811269],[-1.7062916,53.8292124]]],"type":"Polygon"},"id":"E02002209","properties":{"code":"E02002209","geography":"MSOA","name":"Bradford 027"},"type":"Feature"},{"geometry":{"coordinates":[[[-1.7353479,53.8193409],[-1.7464774,53.8193364],[-1.7451176,53.8222328],[-1.7549028,53.8170455],[-1.7572669,53.8102007],[-1.75298,53.8100237],[-1.7332029,53.811084],[-1.7374042,53.8135064],[-1.7336232,53.8165913],[-1.7353479,53.8193409]]],"type":"Polygon"},"id":"E02002210","properties":{"code":"E02002210","geography":"MSOA","name":"Bradford 028"},"type":"Feature"},{"geometry":{"coordinates":[[[-1.7851182,53.8219113],[-1.7938106,53.8200397],[-1.7968649,53.8267175],[-1.807237,53.8225607],[-1.7985327,53.8187345],[-1.8001818,53.8149748],[-1.8055976,53.8163437],[-1.8036156,53.8107449],[-1.7874074,53.812111],[-1.7869867,53.8097023],[-1.7782835,53.8097222],[-1.775,53.812039],[-1.7777794,53.8150756],[-1.7810927,53.8226327],[-1.7851182,53.8219113]]],"type":"Polygon"},"id":"E02002211","properties":{"code":"E02002211","geography":"MSOA","name":"Bradford 029"},"type":"Feature"},{"geometry":{"coordinates":[[[-1.8036156,53.8107449],[-1.8055976,53.8163437],[-1.8001818,53.8149748],[-1.7985327,53.8187345],[-1.807237,53.8225607],[-1.807314,53.8224772],[-1.8298917,53.818716],[-1.8298549,53.8120843],[-1.8079302,53.8046182],[-1.8035579,53.8034561],[-1.8023656,53.8058315],[-1.8036156,53.8107449]]],"type":"Polygon"},"id":"E02002212","properties":{"code":"E02002212","geography":"MSOA","name":"Bradford 030"},"type":"Feature"},{"geometry":{"coordinates":[[[-1.9017387,53.8439197],[-1.9021206,53.8439759],[-1.9145729,53.8400296],[-1.9266704,53.8360165],[-1.9268447,53.8294482],[-1.9373845,53.8239642],[-1.9270495,53.8212986],[-1.9293671,53.8074284],[-1.9188192,53.7972474],[-1.9285438,53.7897863],[-1.9269768,53.7874746],[-1.9146262,53.7815732],[-1.8954816,53.7809101],[-1.8950034,53.7840436],[-1.8665315,53.797615],[-1.8819881,53.8088715],[-1.8721887,53.8074568],[-1.8601568,53.8127166],[-1.8630789,53.8165123],[-1.8685825,53.816298],[-1.8634063,53.8200163],[-1.8771676,53.828804],[-1.869848,53.8317872],[-1.8735322,53.8339758],[-1.880541,53.8308663],[-1.8778077,53.8350646],[-1.8843624,53.8386315],[-1.9017387,53.8439197]]],"type":"Polygon"},"id":"E02002213","properties":{"code":"E02002213","geography":"MSOA","name":"Bradford 031"},"type":"Feature"},{"geometry":{"coordinates":[[[-1.7198309,53.8164349],[-1.7271507,53.8196748],[-1.7289352,53.8164307],[-1.7336232,53.8165913],[-1.7374042,53.8135064],[-1.7332029,53.811084],[-1.7272033,53.8116584],[-1.724996,53.8055494],[-1.7182856,53.8066287],[-1.7198309,53.8164349]]],"type":"Polygon"},"id":"E02002214","properties":{"code":"E02002214","geography":"MSOA","name":"Bradford 032"},"type":"Feature"},{"geometry":{"coordinates":[[[-1.7782835,53.8097222],[-1.7869867,53.8097023],[-1.7874074,53.812111],[-1.8036156,53.8107449],[-1.8023656,53.8058315],[-1.7882731,53.8060591],[-1.7824593,53.8011596],[-1.7814816,53.8043147],[-1.7769253,53.8043361],[-1.7782835,53.8097222]]],"type":"Polygon"},"id":"E02002215","properties":{"code":"E02002215","geography":"MSOA","name":"Bradford 033"},"type":"Feature"},{"geometry":{"coordinates":[[[-1.7549028,53.8170455],[-1.7648785,53.8192405],[-1.7673679,53.8190342],[-1.7652675,53.8165663],[-1.7777794,53.8150756],[-1.775,53.812039],[-1.7782835,53.8097222],[-1.7769253,53.8043361],[-1.7731424,53.8037438],[-1.7644225,53.8024029],[-1.7626165,53.8043362],[-1.766797,53.808053],[-1.7572669,53.8102007],[-1.7549028,53.8170455]]],"type":"Polygon"},"id":"E02002216","properties":{"code":"E02002216","geography":"MSOA","name":"Bradford 034"},"type":"Feature"},{"geometry":{"coordinates":[[[-1.724996,53.8055494],[-1.7272033,53.8116584],[-1.7332029,53.811084],[-1.75298,53.8100237],[-1.7502656,53.8009708],[-1.730169,53.7996457],[-1.7233659,53.8027202],[-1.724996,53.8055494]]],"type":"Polygon"},"id":"E02002217","properties":{"code":"E02002217","geography":"MSOA","name":"Bradford 035"},"type":"Feature"},{"geometry":{"coordinates":[[[-1.8298917,53.818716],[-1.8360659,53.8215679],[-1.8491212,53.8150356],[-1.8490413,53.8126933],[-1.8362835,53.808946],[-1.8395025,53.807577],[-1.83524,53.8058377],[-1.8369997,53.803079],[-1.831881,53.8020189],[-1.837289,53.7976277],[-1.8304979,53.794504],[-1.8285726,53.797266],[-1.8215604,53.7966612],[-1.8079302,53.8046182],[-1.8298549,53.8120843],[-1.8298917,53.818716]]],"type":"Polygon"},"id":"E02002218","properties":{"code":"E02002218","geography":"MSOA","name":"Bradford 036"},"type":"Feature"},{"geometry":{"coordinates":[[[-1.7824593,53.8011596],[-1.7882731,53.8060591],[-1.8023656,53.8058315],[-1.8035579,53.8034561],[-1.7929232,53.7988841],[-1.7822149,53.7989657],[-1.7824593,53.8011596]]],"type":"Polygon"},"id":"E02002219","properties":{"code":"E02002219","geography":"MSOA","name":"Bradford 037"},"type":"Feature"},{"geometry":{"coordinates":[[[-1.7084672,53.7943693],[-1.7012779,53.8022459],[-1.7066111,53.8040656],[-1.7083136,53.8099569],[-1.7182856,53.8066287],[-1.724996,53.8055494],[-1.7233659,53.8027202],[-1.7175877,53.7992133],[-1.7195889,53.7964636],[-1.7111742,53.7972618],[-1.7084672,53.7943693]]],"type":"Polygon"},"id":"E02002220","properties":{"code":"E02002220","geography":"MSOA","name":"Bradford 038"},"type":"Feature"},{"geometry":{"coordinates":[[[-1.8035579,53.8034561],[-1.8079302,53.8046182],[-1.8215604,53.7966612],[-1.8086999,53.7925763],[-1.7999066,53.7935371],[-1.8006557,53.7898355],[-1.7999947,53.7903524],[-1.799125,53.7937931],[-1.7919408,53.7951918],[-1.7929232,53.7988841],[-1.8035579,53.8034561]]],"type":"Polygon"},"id":"E02002222","properties":{"code":"E02002222","geography":"MSOA","name":"Bradford 040"},"type":"Feature"},{"geometry":{"coordinates":[[[-1.7731424,53.8037438],[-1.7769253,53.8043361],[-1.7814816,53.8043147],[-1.7824593,53.8011596],[-1.7822149,53.7989657],[-1.7929232,53.7988841],[-1.7919408,53.7951918],[-1.799125,53.7937931],[-1.7999947,53.7903524],[-1.791564,53.7915943],[-1.7921698,53.7883984],[-1.7867131,53.7890159],[-1.7663418,53.7931474],[-1.7678646,53.7978424],[-1.7722498,53.7982732],[-1.7731424,53.8037438]]],"type":"Polygon"},"id":"E02002223","properties":{"code":"E02002223","geography":"MSOA","name":"Bradford 041"},"type":"Feature"},{"geometry":{"coordinates":[[[-1.7084672,53.7943693],[-1.7111742,53.7972618],[-1.7195889,53.7964636],[-1.7175877,53.7992133],[-1.7233659,53.8027202],[-1.730169,53.7996457],[-1.7282322,53.7979579],[-1.7279851,53.7922854],[-1.7191903,53.7930925],[-1.7176721,53.7899386],[-1.7096842,53.7931066],[-1.7084672,53.7943693]]],"type":"Polygon"},"id":"E02002224","properties":{"code":"E02002224","geography":"MSOA","name":"Bradford 042"},"type":"Feature"},{"geometry":{"coordinates":[[[-1.8215604,53.7966612],[-1.8285726,53.797266],[-1.8304979,53.794504],[-1.837289,53.7976277],[-1.831881,53.8020189],[-1.8369997,53.803079],[-1.83524,53.8058377],[-1.8395025,53.807577],[-1.8362835,53.808946],[-1.8490413,53.8126933],[-1.8491212,53.8150356],[-1.8522117,53.8107665],[-1.8549239,53.8133979],[-1.8601568,53.8127166],[-1.8721887,53.8074568],[-1.8819881,53.8088715],[-1.8665315,53.797615],[-1.8950034,53.7840436],[-1.8954816,53.7809101],[-1.8733493,53.7785806],[-1.8595783,53.7744277],[-1.8520284,53.7777571],[-1.8452057,53.7785816],[-1.8351401,53.7875553],[-1.8086999,53.7925763],[-1.8215604,53.7966612]]],"type":"Polygon"},"id":"E02002225","properties":{"code":"E02002225","geography":"MSOA","name":"Bradford 043"},"type":"Feature"},{"geometry":{"coordinates":[[[-1.7538951,53.7895262],[-1.7527657,53.7917097],[-1.7678646,53.7978424],[-1.7663418,53.7931474],[-1.7867131,53.7890159],[-1.7866665,53.7839248],[-1.7804638,53.7806982],[-1.7671314,53.7835537],[-1.766424,53.7871197],[-1.7596202,53.7904855],[-1.755831,53.7891479],[-1.7538951,53.7895262]]],"type":"Polygon"},"id":"E02002226","properties":{"code":"E02002226","geography":"MSOA","name":"Bradford 044"},"type":"Feature"},{"geometry":{"coordinates":[[[-1.7279851,53.7922854],[-1.7282322,53.7979579],[-1.7363343,53.7959196],[-1.7322477,53.7955302],[-1.7325551,53.7916515],[-1.7415504,53.7935912],[-1.7479395,53.790557],[-1.7538951,53.7895262],[-1.755831,53.7891479],[-1.757075,53.783867],[-1.7536926,53.7861297],[-1.7515364,53.7835281],[-1.7460992,53.7849178],[-1.7465751,53.7772485],[-1.7343631,53.7780349],[-1.7379587,53.7803383],[-1.7296989,53.7834036],[-1.7331664,53.7871195],[-1.7279851,53.7922854]]],"type":"Polygon"},"id":"E02002227","properties":{"code":"E02002227","geography":"MSOA","name":"Bradford 045"},"type":"Feature"},{"geometry":{"coordinates":[[[-1.7099091,53.7928816],[-1.7096842,53.7931066],[-1.7176721,53.7899386],[-1.7191903,53.7930925],[-1.7279851,53.7922854],[-1.7331664,53.7871195],[-1.7296989,53.7834036],[-1.7379587,53.7803383],[-1.7343631,53.7780349],[-1.730158,53.77925],[-1.7239638,53.7727284],[-1.7208328,53.7729426],[-1.7139393,53.7808322],[-1.710789,53.780192],[-1.7120081,53.7830667],[-1.7073296,53.7876912],[-1.7099091,53.7928816]]],"type":"Polygon"},"id":"E02002228","properties":{"code":"E02002228","geography":"MSOA","name":"Bradford 046"},"type":"Feature"},{"geometry":{"coordinates":[[[-1.8006557,53.7898355],[-1.7999066,53.7935371],[-1.8086999,53.7925763],[-1.8351401,53.7875553],[-1.8452057,53.7785816],[-1.8520284,53.7777571],[-1.8464719,53.7722217],[-1.8398608,53.7754917],[-1.8273873,53.7741793],[-1.8205231,53.7770139],[-1.8128707,53.7745488],[-1.8006557,53.7898355]]],"type":"Polygon"},"id":"E02002229","properties":{"code":"E02002229","geography":"MSOA","name":"Bradford 047"},"type":"Feature"},{"geometry":{"coordinates":[[[-1.755831,53.7891479],[-1.7596202,53.7904855],[-1.766424,53.7871197],[-1.7671314,53.7835537],[-1.7702897,53.7808461],[-1.7615482,53.7792248],[-1.7606914,53.7754115],[-1.7465751,53.7772485],[-1.7460992,53.7849178],[-1.7515364,53.7835281],[-1.7536926,53.7861297],[-1.757075,53.783867],[-1.755831,53.7891479]]],"type":"Polygon"},"id":"E02002230","properties":{"code":"E02002230","geography":"MSOA","name":"Bradford 048"},"type":"Feature"},{"geometry":{"coordinates":[[[-1.7867131,53.7890159],[-1.7921698,53.7883984],[-1.791564,53.7915943],[-1.7999947,53.7903524],[-1.8006557,53.7898355],[-1.8128707,53.7745488],[-1.8205231,53.7770139],[-1.8273873,53.7741793],[-1.8241461,53.771562],[-1.8178621,53.7723668],[-1.8155169,53.7638136],[-1.8094957,53.7643177],[-1.8061232,53.7615675],[-1.8066483,53.7633973],[-1.8104515,53.7704061],[-1.8034679,53.7711397],[-1.8040214,53.7757759],[-1.7995395,53.7762938],[-1.7866665,53.7839248],[-1.7867131,53.7890159]]],"type":"Polygon"},"id":"E02002231","properties":{"code":"E02002231","geography":"MSOA","name":"Bradford 049"},"type":"Feature"},{"geometry":{"coordinates":[[[-1.7804638,53.7806982],[-1.7866665,53.7839248],[-1.7995395,53.7762938],[-1.7931892,53.7736185],[-1.7892022,53.7751781],[-1.7863115,53.7720617],[-1.772679,53.7758948],[-1.7804638,53.7806982]]],"type":"Polygon"},"id":"E02002232","properties":{"code":"E02002232","geography":"MSOA","name":"Bradford 050"},"type":"Feature"},{"geometry":{"coordinates":[[[-1.7606914,53.7754115],[-1.7615482,53.7792248],[-1.7702897,53.7808461],[-1.7671314,53.7835537],[-1.7804638,53.7806982],[-1.772679,53.7758948],[-1.7685989,53.7725595],[-1.7617391,53.7723134],[-1.7606914,53.7754115]]],"type":"Polygon"},"id":"E02002233","properties":{"code":"E02002233","geography":"MSOA","name":"Bradford 051"},"type":"Feature"},{"geometry":{"coordinates":[[[-1.7208328,53.7729426],[-1.7083662,53.7686862],[-1.702193,53.7704144],[-1.6974207,53.7759443],[-1.7034182,53.7833924],[-1.7120081,53.7830667],[-1.710789,53.780192],[-1.7139393,53.7808322],[-1.7208328,53.7729426]]],"type":"Polygon"},"id":"E02002234","properties":{"code":"E02002234","geography":"MSOA","name":"Bradford 052"},"type":"Feature"},{"geometry":{"coordinates":[[[-1.7239638,53.7727284],[-1.730158,53.77925],[-1.7343631,53.7780349],[-1.7465751,53.7772485],[-1.7606914,53.7754115],[-1.7617391,53.7723134],[-1.7573365,53.7731497],[-1.760415,53.7713635],[-1.7573208,53.7705714],[-1.7509857,53.7730852],[-1.7506016,53.769882],[-1.7484599,53.7685501],[-1.7239638,53.7727284]]],"type":"Polygon"},"id":"E02002235","properties":{"code":"E02002235","geography":"MSOA","name":"Bradford 053"},"type":"Feature"},{"geometry":{"coordinates":[[[-1.7685989,53.7725595],[-1.772679,53.7758948],[-1.7863115,53.7720617],[-1.7886103,53.7705674],[-1.7839111,53.7687692],[-1.7907385,53.7683049],[-1.7865062,53.7649512],[-1.7769314,53.7657134],[-1.7670412,53.7688312],[-1.7685989,53.7725595]]],"type":"Polygon"},"id":"E02002236","properties":{"code":"E02002236","geography":"MSOA","name":"Bradford 054"},"type":"Feature"},{"geometry":{"coordinates":[[[-1.7863115,53.7720617],[-1.7892022,53.7751781],[-1.7931892,53.7736185],[-1.7995395,53.7762938],[-1.8040214,53.7757759],[-1.8034679,53.7711397],[-1.8104515,53.7704061],[-1.8066483,53.7633973],[-1.8014904,53.763805],[-1.7990467,53.7694696],[-1.7946638,53.7694063],[-1.790027,53.7620014],[-1.7865062,53.7649512],[-1.7907385,53.7683049],[-1.7839111,53.7687692],[-1.7886103,53.7705674],[-1.7863115,53.7720617]]],"type":"Polygon"},"id":"E02002237","properties":{"code":"E02002237","geography":"MSOA","name":"Bradford 055"},"type":"Feature"},{"geometry":{"coordinates":[[[-1.7506016,53.769882],[-1.7509857,53.7730852],[-1.7573208,53.7705714],[-1.760415,53.7713635],[-1.7573365,53.7731497],[-1.7617391,53.7723134],[-1.7685989,53.7725595],[-1.7670412,53.7688312],[-1.7769314,53.7657134],[-1.7744337,53.7624402],[-1.7672167,53.7623398],[-1.7631014,53.7617932],[-1.7645633,53.7658324],[-1.7506016,53.769882]]],"type":"Polygon"},"id":"E02002238","properties":{"code":"E02002238","geography":"MSOA","name":"Bradford 056"},"type":"Feature"},{"geometry":{"coordinates":[[[-1.6587494,53.7797993],[-1.6757787,53.7803549],[-1.6823739,53.7864386],[-1.7034182,53.7833924],[-1.6974207,53.7759443],[-1.702193,53.7704144],[-1.7083662,53.7686862],[-1.7208328,53.7729426],[-1.7239638,53.7727284],[-1.7484599,53.7685501],[-1.7363019,53.7471548],[-1.7295336,53.7513129],[-1.7222139,53.7588183],[-1.7047488,53.7648354],[-1.6816781,53.7564789],[-1.6628387,53.7667338],[-1.6516107,53.7673427],[-1.6410611,53.7733794],[-1.6405259,53.7799165],[-1.6587494,53.7797993]]],"type":"Polygon"},"id":"E02002239","properties":{"code":"E02002239","geography":"MSOA","name":"Bradford 057"},"type":"Feature"},{"geometry":{"coordinates":[[[-1.8520284,53.7777571],[-1.8595783,53.7744277],[-1.8733493,53.7785806],[-1.8693897,53.7597126],[-1.8725695,53.7548112],[-1.8657055,53.7524188],[-1.8537119,53.7490834],[-1.8529878,53.7524112],[-1.8402154,53.7556261],[-1.8278478,53.7636856],[-1.8155169,53.7638136],[-1.8178621,53.7723668],[-1.8241461,53.771562],[-1.8273873,53.7741793],[-1.8398608,53.7754917],[-1.8464719,53.7722217],[-1.8520284,53.7777571]]],"type":"Polygon"},"id":"E02002240","properties":{"code":"E02002240","geography":"MSOA","name":"Bradford 058"},"type":"Feature"},{"geometry":{"coordinates":[[[-1.7865062,53.7649512],[-1.790027,53.7620014],[-1.7946638,53.7694063],[-1.7990467,53.7694696],[-1.8014904,53.763805],[-1.8066483,53.7633973],[-1.8061232,53.7615675],[-1.7954578,53.7535312],[-1.7861891,53.7550256],[-1.7758764,53.7511719],[-1.7673703,53.755418],[-1.7738337,53.7612364],[-1.7672167,53.7623398],[-1.7744337,53.7624402],[-1.7769314,53.7657134],[-1.7865062,53.7649512]]],"type":"Polygon"},"id":"E02002241","properties":{"code":"E02002241","geography":"MSOA","name":"Bradford 059"},"type":"Feature"},{"geometry":{"coordinates":[[[-1.7484599,53.7685501],[-1.7506016,53.769882],[-1.7645633,53.7658324],[-1.7631014,53.7617932],[-1.7672167,53.7623398],[-1.7738337,53.7612364],[-1.7673703,53.755418],[-1.7758764,53.7511719],[-1.7470244,53.7462236],[-1.7363019,53.7471548],[-1.7484599,53.7685501]]],"type":"Polygon"},"id":"E02002242","properties":{"code":"E02002242","geography":"MSOA","name":"Bradford 060"},"type":"Feature"},{"geometry":{"coordinates":[[[-1.7758764,53.7511719],[-1.7861891,53.7550256],[-1.7954578,53.7535312],[-1.7924622,53.7448536],[-1.7895364,53.7434728],[-1.7797674,53.7377403],[-1.7794716,53.7296288],[-1.7737308,53.7243324],[-1.7700836,53.7262373],[-1.7609852,53.7345324],[-1.7459414,53.7344518],[-1.7470244,53.7462236],[-1.7758764,53.7511719]]],"type":"Polygon"},"id":"E02002243","properties":{"code":"E02002243","geography":"MSOA","name":"Bradford 061"},"type":"Feature"},{"geometry":{"coordinates":[[[-1.9308584,53.9502539],[-1.9506795,53.9567281],[-1.9493584,53.9529982],[-1.9661703,53.951546],[-1.9650467,53.948221],[-1.9622864,53.9431935],[-1.9705208,53.9433271],[-1.9630732,53.9333897],[-1.9680154,53.9318104],[-1.9658986,53.9278669],[-1.9719183,53.9299662],[-1.9768546,53.9264114],[-1.9601997,53.9161892],[-1.9494471,53.9179254],[-1.946807,53.9154388],[-1.9441543,53.917377],[-1.9371902,53.9153629],[-1.9314767,53.9176128],[-1.9300237,53.9112279],[-1.9378949,53.9098655],[-1.943307,53.9025244],[-1.9525646,53.9035191],[-1.9794163,53.9011181],[-1.9769766,53.8755869],[-1.9470304,53.8776252],[-1.9407289,53.8797672],[-1.9419584,53.8871521],[-1.9337898,53.8842153],[-1.9298847,53.8857864],[-1.9220664,53.8884983],[-1.9093415,53.88549],[-1.8610911,53.9064763],[-1.8987234,53.924201],[-1.9189641,53.9382813],[-1.9192441,53.9446735],[-1.9308584,53.9502539]]],"type":"Polygon"},"id":"E02006945","properties":{"code":"E02006945","geography":"MSOA","name":"Bradford 062"},"type":"Feature"},{"geometry":{"coordinates":[[[-1.9525646,53.9035191],[-1.943307,53.9025244],[-1.9378949,53.9098655],[-1.9300237,53.9112279],[-1.9314767,53.9176128],[-1.9371902,53.9153629],[-1.9441543,53.917377],[-1.946807,53.9154388],[-1.9494471,53.9179254],[-1.9601997,53.9161892],[-1.953224,53.9116927],[-1.9525646,53.9035191]]],"type":"Polygon"},"id":"E02006946","properties":{"code":"E02006946","geography":"MSOA","name":"Bradford 063"},"type":"Feature"},{"geometry":{"coordinates":[[[-1.75298,53.8100237],[-1.7572669,53.8102007],[-1.766797,53.808053],[-1.7626165,53.8043362],[-1.7522138,53.7970811],[-1.7481323,53.7982008],[-1.7479395,53.790557],[-1.7415504,53.7935912],[-1.7325551,53.7916515],[-1.7322477,53.7955302],[-1.7363343,53.7959196],[-1.7282322,53.7979579],[-1.730169,53.7996457],[-1.7502656,53.8009708],[-1.75298,53.8100237]]],"type":"Polygon"},"id":"E02006947","properties":{"code":"E02006947","geography":"MSOA","name":"Bradford 064"},"type":"Feature"},{"geometry":{"coordinates":[[[-1.7479395,53.790557],[-1.7481323,53.7982008],[-1.7522138,53.7970811],[-1.7626165,53.8043362],[-1.7644225,53.8024029],[-1.7731424,53.8037438],[-1.7722498,53.7982732],[-1.7678646,53.7978424],[-1.7527657,53.7917097],[-1.7538951,53.7895262],[-1.7479395,53.790557]]],"type":"Polygon"},"id":"E02006948","properties":{"code":"E02006948","geography":"MSOA","name":"Bradford 065"},"type":"Feature"}],"type":"FeatureCollection"}
