{"features":[{"geometry":{"coordinates":[[[-2.410345,53.5385037],[-2.4357634,53.5418977],[-2.4413318,53.5349539],[-2.4326784,53.5310001],[-2.4282258,53.5323266],[-2.4290382,53.528401],[-2.4261477,53.531742],[-2.4223558,53.5272741],[-2.4265721,53.5238171],[-2.4105019,53.5250477],[-2.4092017,53.5263778],[-2.4238714,53.531088],[-2.4139146,53.5369378],[-2.410345,53.5385037]]],"type":"Polygon"},"id":"E02001157","properties":{"code":"E02001157","geography":"MSOA","name":"Salford 001"},"type":"Feature"},{"geometry":{"coordinates":[[[-2.3972172,53.5234879],[-2.3963491,53.5286506],[-2.4060926,53.5293864],[-2.4139146,53.5369378],[-2.4238714,53.531088],[-2.4092017,53.5263778],[-2.3972172,53.5234879]]],"type":"Polygon"},"id":"E02001158","properties":{"code":"E02001158","geography":"MSOA","name":"Salford 002"},"type":"Feature"},{"geometry":{"coordinates":[[[-2.3956812,53.5374502],[-2.400113,53.5385438],[-2.410345,53.5385037],[-2.4139146,53.5369378],[-2.4060926,53.5293864],[-2.3963491,53.5286506],[-2.3972172,53.5234879],[-2.3665354,53.5200951],[-2.3543851,53.524712],[-2.3544225,53.5262536],[-2.3852029,53.5314489],[-2.3956812,53.5374502]]],"type":"Polygon"},"id":"E02001159","properties":{"code":"E02001159","geography":"MSOA","name":"Salford 003"},"type":"Feature"},{"geometry":{"coordinates":[[[-2.4105019,53.5250477],[-2.4265721,53.5238171],[-2.4223558,53.5272741],[-2.4261477,53.531742],[-2.4290382,53.528401],[-2.4282258,53.5323266],[-2.4326784,53.5310001],[-2.4413318,53.5349539],[-2.4511156,53.5286349],[-2.4541785,53.5260364],[-2.4508,53.5255167],[-2.4271444,53.5215593],[-2.4169102,53.5167041],[-2.4045891,53.5180528],[-2.4105019,53.5250477]]],"type":"Polygon"},"id":"E02001160","properties":{"code":"E02001160","geography":"MSOA","name":"Salford 004"},"type":"Feature"},{"geometry":{"coordinates":[[[-2.3382381,53.5336315],[-2.3462858,53.537513],[-2.3536841,53.5350518],[-2.3508683,53.5296797],[-2.3544225,53.5262536],[-2.3543851,53.524712],[-2.3372354,53.526291],[-2.333177,53.5191347],[-2.3402949,53.5122264],[-2.3326158,53.5098172],[-2.3362432,53.5143186],[-2.3271594,53.5181489],[-2.321213,53.5151109],[-2.3267936,53.5189132],[-2.325497,53.5220187],[-2.3320097,53.5237001],[-2.3249935,53.5232425],[-2.3233781,53.5271224],[-2.3267907,53.5284807],[-2.3382381,53.5336315]]],"type":"Polygon"},"id":"E02001161","properties":{"code":"E02001161","geography":"MSOA","name":"Salford 005"},"type":"Feature"},{"geometry":{"coordinates":[[[-2.3402949,53.5122264],[-2.333177,53.5191347],[-2.3372354,53.526291],[-2.3543851,53.524712],[-2.3665354,53.5200951],[-2.3594334,53.5174066],[-2.3493612,53.5213938],[-2.3458414,53.5162808],[-2.349725,53.5161874],[-2.3402949,53.5122264]]],"type":"Polygon"},"id":"E02001162","properties":{"code":"E02001162","geography":"MSOA","name":"Salford 006"},"type":"Feature"},{"geometry":{"coordinates":[[[-2.3972172,53.5234879],[-2.4092017,53.5263778],[-2.4105019,53.5250477],[-2.4045891,53.5180528],[-2.4169102,53.5167041],[-2.4146642,53.5145397],[-2.4060834,53.5120376],[-2.4037544,53.5148828],[-2.3991662,53.5102732],[-2.3858581,53.5129992],[-2.3698778,53.5129352],[-2.3665354,53.5200951],[-2.3972172,53.5234879]]],"type":"Polygon"},"id":"E02001163","properties":{"code":"E02001163","geography":"MSOA","name":"Salford 007"},"type":"Feature"},{"geometry":{"coordinates":[[[-2.2907974,53.5120044],[-2.3022612,53.5170704],[-2.3104743,53.5271703],[-2.3233781,53.5271224],[-2.3249935,53.5232425],[-2.3320097,53.5237001],[-2.325497,53.5220187],[-2.3267936,53.5189132],[-2.321213,53.5151109],[-2.3260111,53.5104133],[-2.317894,53.5099388],[-2.310369,53.5022656],[-2.3031087,53.503557],[-2.2959649,53.5006519],[-2.2894343,53.5042263],[-2.2907974,53.5120044]]],"type":"Polygon"},"id":"E02001164","properties":{"code":"E02001164","geography":"MSOA","name":"Salford 008"},"type":"Feature"},{"geometry":{"coordinates":[[[-2.3402949,53.5122264],[-2.349725,53.5161874],[-2.3458414,53.5162808],[-2.3493612,53.5213938],[-2.3594334,53.5174066],[-2.3665354,53.5200951],[-2.3698778,53.5129352],[-2.3456205,53.5053821],[-2.3402949,53.5122264]]],"type":"Polygon"},"id":"E02001165","properties":{"code":"E02001165","geography":"MSOA","name":"Salford 009"},"type":"Feature"},{"geometry":{"coordinates":[[[-2.2569275,53.5179235],[-2.2603838,53.5182545],[-2.2666714,53.5153807],[-2.2659859,53.5093063],[-2.2711639,53.5032365],[-2.2612621,53.5077219],[-2.2492153,53.5095151],[-2.2451853,53.5120776],[-2.2499267,53.5160584],[-2.2569275,53.5179235]]],"type":"Polygon"},"id":"E02001166","properties":{"code":"E02001166","geography":"MSOA","name":"Salford 010"},"type":"Feature"},{"geometry":{"coordinates":[[[-2.2659859,53.5093063],[-2.2666714,53.5153807],[-2.2603838,53.5182545],[-2.2716111,53.517468],[-2.2801245,53.5158787],[-2.2907974,53.5120044],[-2.2894343,53.5042263],[-2.2782082,53.5003576],[-2.2740099,53.50897],[-2.2659859,53.5093063]]],"type":"Polygon"},"id":"E02001167","properties":{"code":"E02001167","geography":"MSOA","name":"Salford 011"},"type":"Feature"},{"geometry":{"coordinates":[[[-2.321213,53.5151109],[-2.3271594,53.5181489],[-2.3362432,53.5143186],[-2.3326158,53.5098172],[-2.3402949,53.5122264],[-2.3456205,53.5053821],[-2.3489987,53.4967032],[-2.3395687,53.4949432],[-2.3294626,53.4975781],[-2.3261558,53.5014011],[-2.3297787,53.5078379],[-2.3192343,53.5053613],[-2.317894,53.5099388],[-2.3260111,53.5104133],[-2.321213,53.5151109]]],"type":"Polygon"},"id":"E02001168","properties":{"code":"E02001168","geography":"MSOA","name":"Salford 012"},"type":"Feature"},{"geometry":{"coordinates":[[[-2.3858581,53.5129992],[-2.3991662,53.5102732],[-2.4037544,53.5148828],[-2.4060834,53.5120376],[-2.4146642,53.5145397],[-2.4222419,53.5090889],[-2.4205077,53.5067343],[-2.4304719,53.5047712],[-2.4384961,53.4923463],[-2.4362011,53.4718713],[-2.4055772,53.4776519],[-2.3967537,53.4793184],[-2.3924085,53.5034104],[-2.3831173,53.502043],[-2.3773669,53.5060656],[-2.3842415,53.5095125],[-2.3870354,53.5071032],[-2.3858581,53.5129992]]],"type":"Polygon"},"id":"E02001169","properties":{"code":"E02001169","geography":"MSOA","name":"Salford 013"},"type":"Feature"},{"geometry":{"coordinates":[[[-2.3698778,53.5129352],[-2.3858581,53.5129992],[-2.3870354,53.5071032],[-2.3842415,53.5095125],[-2.3773669,53.5060656],[-2.3831173,53.502043],[-2.3924085,53.5034104],[-2.3967537,53.4793184],[-2.3759669,53.4831038],[-2.3827337,53.49457],[-2.3712555,53.4969542],[-2.3589988,53.4925522],[-2.3489987,53.4967032],[-2.3456205,53.5053821],[-2.3698778,53.5129352]]],"type":"Polygon"},"id":"E02001170","properties":{"code":"E02001170","geography":"MSOA","name":"Salford 014"},"type":"Feature"},{"geometry":{"coordinates":[[[-2.310369,53.5022656],[-2.317894,53.5099388],[-2.3192343,53.5053613],[-2.3297787,53.5078379],[-2.3261558,53.5014011],[-2.3294626,53.4975781],[-2.3269611,53.4944009],[-2.3170842,53.4955218],[-2.3213647,53.496458],[-2.3183009,53.4979218],[-2.322287,53.5025321],[-2.3122494,53.5025246],[-2.310369,53.5022656]]],"type":"Polygon"},"id":"E02001171","properties":{"code":"E02001171","geography":"MSOA","name":"Salford 015"},"type":"Feature"},{"geometry":{"coordinates":[[[-2.2711639,53.5032365],[-2.2659859,53.5093063],[-2.2740099,53.50897],[-2.2782082,53.5003576],[-2.2894343,53.5042263],[-2.2959649,53.5006519],[-2.3031087,53.503557],[-2.310369,53.5022656],[-2.3122494,53.5025246],[-2.2950738,53.4919507],[-2.2910943,53.4885135],[-2.2873917,53.4877807],[-2.2869843,53.492168],[-2.28219,53.4937682],[-2.2787993,53.4906],[-2.2701261,53.4945811],[-2.2711639,53.5032365]]],"type":"Polygon"},"id":"E02001173","properties":{"code":"E02001173","geography":"MSOA","name":"Salford 017"},"type":"Feature"},{"geometry":{"coordinates":[[[-2.3122494,53.5025246],[-2.322287,53.5025321],[-2.3183009,53.4979218],[-2.3213647,53.496458],[-2.3170842,53.4955218],[-2.3106041,53.5000773],[-2.3070065,53.4956794],[-2.3111017,53.4947173],[-2.3066796,53.4924902],[-2.2950738,53.4919507],[-2.3122494,53.5025246]]],"type":"Polygon"},"id":"E02001174","properties":{"code":"E02001174","geography":"MSOA","name":"Salford 018"},"type":"Feature"},{"geometry":{"coordinates":[[[-2.3589988,53.4925522],[-2.3712555,53.4969542],[-2.3827337,53.49457],[-2.3759669,53.4831038],[-2.3710159,53.4873254],[-2.359811,53.4846991],[-2.3598071,53.4875961],[-2.3589988,53.4925522]]],"type":"Polygon"},"id":"E02001175","properties":{"code":"E02001175","geography":"MSOA","name":"Salford 019"},"type":"Feature"},{"geometry":{"coordinates":[[[-2.3269611,53.4944009],[-2.3294626,53.4975781],[-2.3395687,53.4949432],[-2.3489987,53.4967032],[-2.3589988,53.4925522],[-2.3598071,53.4875961],[-2.3583015,53.4846963],[-2.3439603,53.4831885],[-2.3305973,53.4835864],[-2.3269611,53.4944009]]],"type":"Polygon"},"id":"E02001176","properties":{"code":"E02001176","geography":"MSOA","name":"Salford 020"},"type":"Feature"},{"geometry":{"coordinates":[[[-2.3066796,53.4924902],[-2.3111017,53.4947173],[-2.3070065,53.4956794],[-2.3106041,53.5000773],[-2.3170842,53.4955218],[-2.3269611,53.4944009],[-2.3305973,53.4835864],[-2.3306651,53.4797077],[-2.319936,53.4798105],[-2.3084702,53.4749464],[-2.3023376,53.472137],[-2.3023807,53.4738327],[-2.294582,53.4816069],[-2.3015585,53.4825117],[-2.3023429,53.4879055],[-2.3081574,53.4875191],[-2.3066796,53.4924902]]],"type":"Polygon"},"id":"E02001177","properties":{"code":"E02001177","geography":"MSOA","name":"Salford 021"},"type":"Feature"},{"geometry":{"coordinates":[[[-2.2950738,53.4919507],[-2.3066796,53.4924902],[-2.3081574,53.4875191],[-2.3023429,53.4879055],[-2.3015585,53.4825117],[-2.294582,53.4816069],[-2.2941251,53.481548],[-2.2910943,53.4885135],[-2.2950738,53.4919507]]],"type":"Polygon"},"id":"E02001179","properties":{"code":"E02001179","geography":"MSOA","name":"Salford 023"},"type":"Feature"},{"geometry":{"coordinates":[[[-2.2787993,53.4906],[-2.28219,53.4937682],[-2.2869843,53.492168],[-2.2873917,53.4877807],[-2.2910943,53.4885135],[-2.2941251,53.481548],[-2.2818585,53.4799452],[-2.2787993,53.4906]]],"type":"Polygon"},"id":"E02001180","properties":{"code":"E02001180","geography":"MSOA","name":"Salford 024"},"type":"Feature"},{"geometry":{"coordinates":[[[-2.359811,53.4846991],[-2.3710159,53.4873254],[-2.3759669,53.4831038],[-2.3967537,53.4793184],[-2.4055772,53.4776519],[-2.3975524,53.4683212],[-2.3907779,53.4678175],[-2.3595499,53.4807028],[-2.359811,53.4846991]]],"type":"Polygon"},"id":"E02001181","properties":{"code":"E02001181","geography":"MSOA","name":"Salford 025"},"type":"Feature"},{"geometry":{"coordinates":[[[-2.3306651,53.4797077],[-2.3305973,53.4835864],[-2.3439603,53.4831885],[-2.3556802,53.4822459],[-2.3535248,53.4795563],[-2.357044,53.4804102],[-2.355547,53.4775571],[-2.360634,53.4770658],[-2.3538176,53.4743203],[-2.3306651,53.4797077]]],"type":"Polygon"},"id":"E02001182","properties":{"code":"E02001182","geography":"MSOA","name":"Salford 026"},"type":"Feature"},{"geometry":{"coordinates":[[[-2.3439603,53.4831885],[-2.3583015,53.4846963],[-2.3598071,53.4875961],[-2.359811,53.4846991],[-2.3595499,53.4807028],[-2.3907779,53.4678175],[-2.3831043,53.4642641],[-2.3691062,53.4692752],[-2.3538176,53.4743203],[-2.360634,53.4770658],[-2.355547,53.4775571],[-2.357044,53.4804102],[-2.3535248,53.4795563],[-2.3556802,53.4822459],[-2.3439603,53.4831885]]],"type":"Polygon"},"id":"E02001183","properties":{"code":"E02001183","geography":"MSOA","name":"Salford 027"},"type":"Feature"},{"geometry":{"coordinates":[[[-2.3907779,53.4678175],[-2.3975524,53.4683212],[-2.4055772,53.4776519],[-2.4362011,53.4718713],[-2.4345223,53.4650518],[-2.4459097,53.4640606],[-2.4318711,53.4467694],[-2.4101993,53.4433971],[-2.403236,53.4532104],[-2.3881816,53.4625771],[-2.3831043,53.4642641],[-2.3907779,53.4678175]]],"type":"Polygon"},"id":"E02001185","properties":{"code":"E02001185","geography":"MSOA","name":"Salford 029"},"type":"Feature"},{"geometry":{"coordinates":[[[-2.4101993,53.4433971],[-2.4318711,53.4467694],[-2.4459097,53.4640606],[-2.4897313,53.4601262],[-2.4864446,53.4562911],[-2.475988,53.4482219],[-2.4783096,53.4437074],[-2.4743366,53.439541],[-2.461725,53.4363526],[-2.4516295,53.4267931],[-2.4493787,53.4158752],[-2.4223883,53.4273226],[-2.4135206,53.4375161],[-2.4101993,53.4433971]]],"type":"Polygon"},"id":"E02001186","properties":{"code":"E02001186","geography":"MSOA","name":"Salford 030"},"type":"Feature"},{"geometry":{"coordinates":[[[-2.2552934,53.4991292],[-2.2515181,53.5038853],[-2.2471049,53.5023962],[-2.2452804,53.5048079],[-2.2492153,53.5095151],[-2.2612621,53.5077219],[-2.2619014,53.5010022],[-2.2552934,53.4991292]]],"type":"Polygon"},"id":"E02006957","properties":{"code":"E02006957","geography":"MSOA","name":"Salford 031"},"type":"Feature"},{"geometry":{"coordinates":[[[-2.2552934,53.4991292],[-2.2619014,53.5010022],[-2.2612621,53.5077219],[-2.2711639,53.5032365],[-2.2701261,53.4945811],[-2.2603062,53.4921853],[-2.2593932,53.4968638],[-2.2547928,53.4973689],[-2.2552934,53.4991292]]],"type":"Polygon"},"id":"E02006958","properties":{"code":"E02006958","geography":"MSOA","name":"Salford 032"},"type":"Feature"},{"geometry":{"coordinates":[[[-2.2458535,53.4870212],[-2.2547928,53.4973689],[-2.2593932,53.4968638],[-2.2603062,53.4921853],[-2.2596671,53.4837814],[-2.2530529,53.4817977],[-2.2458535,53.4870212]]],"type":"Polygon"},"id":"E02006959","properties":{"code":"E02006959","geography":"MSOA","name":"Salford 033"},"type":"Feature"},{"geometry":{"coordinates":[[[-2.2603062,53.4921853],[-2.2701261,53.4945811],[-2.2787993,53.4906],[-2.2818585,53.4799452],[-2.2717749,53.478791],[-2.2601955,53.4777705],[-2.2530529,53.4817977],[-2.2596671,53.4837814],[-2.2603062,53.4921853]]],"type":"Polygon"},"id":"E02006960","properties":{"code":"E02006960","geography":"MSOA","name":"Salford 034"},"type":"Feature"},{"geometry":{"coordinates":[[[-2.2941251,53.481548],[-2.294582,53.4816069],[-2.3023807,53.4738327],[-2.2843746,53.4752334],[-2.2793044,53.4679188],[-2.2842158,53.46545],[-2.2727794,53.4695937],[-2.2760195,53.4740989],[-2.2717749,53.478791],[-2.2818585,53.4799452],[-2.2941251,53.481548]]],"type":"Polygon"},"id":"E02006961","properties":{"code":"E02006961","geography":"MSOA","name":"Salford 035"},"type":"Feature"},{"geometry":{"coordinates":[[[-2.2601955,53.4777705],[-2.2717749,53.478791],[-2.2760195,53.4740989],[-2.2727794,53.4695937],[-2.2653465,53.4726984],[-2.263333,53.4756964],[-2.2601955,53.4777705]]],"type":"Polygon"},"id":"E02006962","properties":{"code":"E02006962","geography":"MSOA","name":"Salford 036"},"type":"Feature"},{"geometry":{"coordinates":[[[-2.2842158,53.46545],[-2.2793044,53.4679188],[-2.2843746,53.4752334],[-2.3023807,53.4738327],[-2.3023376,53.472137],[-2.2842158,53.46545]]],"type":"Polygon"},"id":"E02006963","properties":{"code":"E02006963","geography":"MSOA","name":"Salford 037"},"type":"Feature"}],"type":"FeatureCollection"}
