{"features":[{"geometry":{"coordinates":[[[-1.8954816,53.7809101],[-1.9146262,53.7815732],[-1.9269768,53.7874746],[-1.9507182,53.7859974],[-1.9469134,53.7785456],[-1.9329366,53.7724547],[-1.9078028,53.7712255],[-1.9018006,53.7732826],[-1.8937519,53.7616012],[-1.8983621,53.7601886],[-1.8891266,53.7566576],[-1.8926414,53.7539439],[-1.8819721,53.7515808],[-1.8816202,53.7485318],[-1.8763766,53.7495636],[-1.8657055,53.7524188],[-1.8725695,53.7548112],[-1.8693897,53.7597126],[-1.8733493,53.7785806],[-1.8954816,53.7809101]]],"type":"Polygon"},"id":"E02002244","properties":{"code":"E02002244","geography":"MSOA","name":"Calderdale 001"},"type":"Feature"},{"geometry":{"coordinates":[[[-1.8926414,53.7539439],[-1.8891266,53.7566576],[-1.8983621,53.7601886],[-1.8937519,53.7616012],[-1.9018006,53.7732826],[-1.9078028,53.7712255],[-1.9329366,53.7724547],[-1.9250607,53.7620248],[-1.9264651,53.7519453],[-1.9072315,53.7483656],[-1.8998755,53.742855],[-1.9012579,53.7503097],[-1.8926414,53.7539439]]],"type":"Polygon"},"id":"E02002245","properties":{"code":"E02002245","geography":"MSOA","name":"Calderdale 002"},"type":"Feature"},{"geometry":{"coordinates":[[[-1.8061232,53.7615675],[-1.8094957,53.7643177],[-1.8155169,53.7638136],[-1.8278478,53.7636856],[-1.8402154,53.7556261],[-1.8529878,53.7524112],[-1.8537119,53.7490834],[-1.8498016,53.7459703],[-1.8416725,53.747919],[-1.8463356,53.7438817],[-1.8350725,53.7384528],[-1.8376932,53.7369059],[-1.841032,53.7404051],[-1.847087,53.738436],[-1.840059,53.732116],[-1.8444643,53.7299627],[-1.8414738,53.7289113],[-1.8301751,53.7300672],[-1.820555,53.7363174],[-1.8213594,53.7398867],[-1.8143347,53.7393338],[-1.7924622,53.7448536],[-1.7954578,53.7535312],[-1.8061232,53.7615675]]],"type":"Polygon"},"id":"E02002246","properties":{"code":"E02002246","geography":"MSOA","name":"Calderdale 003"},"type":"Feature"},{"geometry":{"coordinates":[[[-1.959714,53.784256],[-1.9808468,53.7863383],[-1.986763,53.7961359],[-2.0096558,53.8070872],[-2.0316149,53.8090888],[-2.0369301,53.8145418],[-2.0612482,53.8256212],[-2.1122771,53.8056939],[-2.1283594,53.7990045],[-2.12972,53.7916172],[-2.124814,53.7880407],[-2.1363615,53.78009],[-2.1302307,53.7703145],[-2.1295208,53.7545763],[-2.1334346,53.7496607],[-2.1305805,53.7446432],[-2.1034507,53.7418753],[-2.0938097,53.736532],[-2.0834102,53.7355339],[-2.0852623,53.7292223],[-2.0580653,53.7197427],[-2.0580659,53.717789],[-2.0628183,53.7188385],[-2.0563505,53.7095301],[-2.0591932,53.7084512],[-2.0473558,53.7040694],[-2.0049468,53.7319579],[-2.0056311,53.7392516],[-1.9853587,53.7379297],[-1.981289,53.7416909],[-1.9857422,53.7431597],[-1.9525723,53.7500434],[-1.9673157,53.7589832],[-1.9690446,53.7717098],[-1.959714,53.784256]]],"type":"Polygon"},"id":"E02002247","properties":{"code":"E02002247","geography":"MSOA","name":"Calderdale 004"},"type":"Feature"},{"geometry":{"coordinates":[[[-1.8816202,53.7485318],[-1.8819721,53.7515808],[-1.8926414,53.7539439],[-1.9012579,53.7503097],[-1.8998755,53.742855],[-1.8939506,53.7354702],[-1.8817213,53.7320022],[-1.8800471,53.7322758],[-1.88588,53.736134],[-1.878106,53.7430217],[-1.8803504,53.7463728],[-1.8865118,53.746422],[-1.8816202,53.7485318]]],"type":"Polygon"},"id":"E02002248","properties":{"code":"E02002248","geography":"MSOA","name":"Calderdale 005"},"type":"Feature"},{"geometry":{"coordinates":[[[-1.8696566,53.7296601],[-1.8763766,53.7495636],[-1.8816202,53.7485318],[-1.8865118,53.746422],[-1.8803504,53.7463728],[-1.878106,53.7430217],[-1.88588,53.736134],[-1.8800471,53.7322758],[-1.8696566,53.7296601]]],"type":"Polygon"},"id":"E02002249","properties":{"code":"E02002249","geography":"MSOA","name":"Calderdale 006"},"type":"Feature"},{"geometry":{"coordinates":[[[-1.9329366,53.7724547],[-1.9469134,53.7785456],[-1.9507182,53.7859974],[-1.959714,53.784256],[-1.9690446,53.7717098],[-1.9673157,53.7589832],[-1.9525723,53.7500434],[-1.9857422,53.7431597],[-1.981289,53.7416909],[-1.9853587,53.7379297],[-2.0056311,53.7392516],[-2.0049468,53.7319579],[-2.0473558,53.7040694],[-2.0552776,53.6943767],[-2.031217,53.6774526],[-2.0266886,53.6742711],[-2.0138216,53.6775711],[-2.0166975,53.6802006],[-2.0057534,53.6892671],[-1.9971585,53.6836487],[-1.9921006,53.6864708],[-1.9761115,53.705012],[-1.9682816,53.7090262],[-1.9725917,53.7156495],[-1.9494353,53.7279376],[-1.9307879,53.7150494],[-1.9207145,53.7174606],[-1.9329287,53.7287737],[-1.929778,53.7310638],[-1.9258472,53.7278994],[-1.9204333,53.7283179],[-1.9209011,53.7422448],[-1.9264651,53.7519453],[-1.9250607,53.7620248],[-1.9329366,53.7724547]]],"type":"Polygon"},"id":"E02002250","properties":{"code":"E02002250","geography":"MSOA","name":"Calderdale 007"},"type":"Feature"},{"geometry":{"coordinates":[[[-1.8537119,53.7490834],[-1.8657055,53.7524188],[-1.8763766,53.7495636],[-1.8696566,53.7296601],[-1.8648443,53.7275008],[-1.8697424,53.7259428],[-1.8658013,53.7246703],[-1.8693903,53.7180711],[-1.8654314,53.7168432],[-1.8388709,53.7268058],[-1.8275987,53.7263202],[-1.8143347,53.7393338],[-1.8213594,53.7398867],[-1.820555,53.7363174],[-1.8301751,53.7300672],[-1.8414738,53.7289113],[-1.8444643,53.7299627],[-1.840059,53.732116],[-1.847087,53.738436],[-1.841032,53.7404051],[-1.8376932,53.7369059],[-1.8350725,53.7384528],[-1.8463356,53.7438817],[-1.8416725,53.747919],[-1.8498016,53.7459703],[-1.8537119,53.7490834]]],"type":"Polygon"},"id":"E02002251","properties":{"code":"E02002251","geography":"MSOA","name":"Calderdale 008"},"type":"Feature"},{"geometry":{"coordinates":[[[-1.8998755,53.742855],[-1.9072315,53.7483656],[-1.9264651,53.7519453],[-1.9209011,53.7422448],[-1.9204333,53.7283179],[-1.9258472,53.7278994],[-1.929778,53.7310638],[-1.9329287,53.7287737],[-1.9207145,53.7174606],[-1.9179464,53.7152194],[-1.9107249,53.7146381],[-1.9038491,53.7196627],[-1.9075659,53.7221633],[-1.9010437,53.7234863],[-1.8983381,53.7281277],[-1.9032854,53.7286926],[-1.8980656,53.7313039],[-1.8964203,53.7292541],[-1.8970644,53.733634],[-1.8906256,53.7321571],[-1.8939506,53.7354702],[-1.8998755,53.742855]]],"type":"Polygon"},"id":"E02002252","properties":{"code":"E02002252","geography":"MSOA","name":"Calderdale 009"},"type":"Feature"},{"geometry":{"coordinates":[[[-1.8817213,53.7320022],[-1.8939506,53.7354702],[-1.8906256,53.7321571],[-1.8970644,53.733634],[-1.8964203,53.7292541],[-1.8980656,53.7313039],[-1.9032854,53.7286926],[-1.8983381,53.7281277],[-1.9010437,53.7234863],[-1.9075659,53.7221633],[-1.9038491,53.7196627],[-1.8993234,53.7221117],[-1.8947774,53.7180522],[-1.88902,53.7183475],[-1.8864444,53.7224682],[-1.885779,53.7306547],[-1.8817213,53.7320022]]],"type":"Polygon"},"id":"E02002253","properties":{"code":"E02002253","geography":"MSOA","name":"Calderdale 010"},"type":"Feature"},{"geometry":{"coordinates":[[[-1.7895364,53.7434728],[-1.7924622,53.7448536],[-1.8143347,53.7393338],[-1.8275987,53.7263202],[-1.8145548,53.7173033],[-1.8044412,53.714691],[-1.7939972,53.7170323],[-1.7980583,53.7256242],[-1.7931465,53.7283359],[-1.7882097,53.7266178],[-1.7882935,53.7325552],[-1.7948961,53.7315631],[-1.7912828,53.7359255],[-1.7988975,53.7401673],[-1.7895364,53.7434728]]],"type":"Polygon"},"id":"E02002254","properties":{"code":"E02002254","geography":"MSOA","name":"Calderdale 011"},"type":"Feature"},{"geometry":{"coordinates":[[[-1.8696566,53.7296601],[-1.8800471,53.7322758],[-1.8817213,53.7320022],[-1.885779,53.7306547],[-1.8864444,53.7224682],[-1.8754924,53.7192761],[-1.8800933,53.7156524],[-1.8693903,53.7180711],[-1.8658013,53.7246703],[-1.8697424,53.7259428],[-1.8648443,53.7275008],[-1.8696566,53.7296601]]],"type":"Polygon"},"id":"E02002255","properties":{"code":"E02002255","geography":"MSOA","name":"Calderdale 012"},"type":"Feature"},{"geometry":{"coordinates":[[[-2.0852623,53.7292223],[-2.0834102,53.7355339],[-2.0938097,53.736532],[-2.1034507,53.7418753],[-2.1305805,53.7446432],[-2.1334346,53.7496607],[-2.1416452,53.7457263],[-2.1454072,53.7360405],[-2.1490915,53.7338817],[-2.15609,53.7353103],[-2.1732927,53.722998],[-2.1625322,53.707237],[-2.1625826,53.6992064],[-2.1465473,53.6930295],[-2.1204261,53.6937768],[-2.1101126,53.7036431],[-2.1031776,53.7053104],[-2.0955125,53.7005334],[-2.088032,53.7030583],[-2.087615,53.7108596],[-2.0943422,53.7143955],[-2.0850928,53.7170479],[-2.0852623,53.7292223]]],"type":"Polygon"},"id":"E02002256","properties":{"code":"E02002256","geography":"MSOA","name":"Calderdale 013"},"type":"Feature"},{"geometry":{"coordinates":[[[-1.8800933,53.7156524],[-1.8754924,53.7192761],[-1.8864444,53.7224682],[-1.88902,53.7183475],[-1.8947774,53.7180522],[-1.8893192,53.7147552],[-1.8800933,53.7156524]]],"type":"Polygon"},"id":"E02002257","properties":{"code":"E02002257","geography":"MSOA","name":"Calderdale 014"},"type":"Feature"},{"geometry":{"coordinates":[[[-1.7700836,53.7262373],[-1.7737308,53.7243324],[-1.7794716,53.7296288],[-1.7797674,53.7377403],[-1.7895364,53.7434728],[-1.7988975,53.7401673],[-1.7912828,53.7359255],[-1.7948961,53.7315631],[-1.7882935,53.7325552],[-1.7882097,53.7266178],[-1.7931465,53.7283359],[-1.7980583,53.7256242],[-1.7939972,53.7170323],[-1.7726118,53.7159761],[-1.7761281,53.7099811],[-1.7861908,53.7077803],[-1.7789804,53.7044747],[-1.7791904,53.699353],[-1.7689063,53.6973402],[-1.7598043,53.6925028],[-1.7463181,53.6944091],[-1.7319565,53.6803585],[-1.7314035,53.680347],[-1.727223,53.6827958],[-1.732182,53.6845661],[-1.7331973,53.6947834],[-1.7394933,53.6993731],[-1.7367915,53.7080972],[-1.7358692,53.7132692],[-1.745007,53.7178785],[-1.7553992,53.7207154],[-1.7536813,53.7257902],[-1.7700836,53.7262373]]],"type":"Polygon"},"id":"E02002258","properties":{"code":"E02002258","geography":"MSOA","name":"Calderdale 015"},"type":"Feature"},{"geometry":{"coordinates":[[[-1.8654314,53.7168432],[-1.8693903,53.7180711],[-1.8800933,53.7156524],[-1.8893192,53.7147552],[-1.8946585,53.7148405],[-1.8927813,53.7072644],[-1.8779943,53.7015154],[-1.8850261,53.7055788],[-1.8647907,53.7076342],[-1.8631634,53.7093994],[-1.8693961,53.7109556],[-1.8650035,53.7106272],[-1.8675875,53.7125445],[-1.8626282,53.7148733],[-1.8654314,53.7168432]]],"type":"Polygon"},"id":"E02002259","properties":{"code":"E02002259","geography":"MSOA","name":"Calderdale 016"},"type":"Feature"},{"geometry":{"coordinates":[[[-1.8947774,53.7180522],[-1.8993234,53.7221117],[-1.9038491,53.7196627],[-1.9107249,53.7146381],[-1.9179464,53.7152194],[-1.9286283,53.7100221],[-1.9198245,53.7086495],[-1.9181341,53.7037226],[-1.9117508,53.7008843],[-1.9070743,53.7058153],[-1.9096941,53.7077435],[-1.8927813,53.7072644],[-1.8946585,53.7148405],[-1.8893192,53.7147552],[-1.8947774,53.7180522]]],"type":"Polygon"},"id":"E02002260","properties":{"code":"E02002260","geography":"MSOA","name":"Calderdale 017"},"type":"Feature"},{"geometry":{"coordinates":[[[-1.8275987,53.7263202],[-1.8388709,53.7268058],[-1.8654314,53.7168432],[-1.8626282,53.7148733],[-1.8563594,53.7149146],[-1.8527628,53.7047248],[-1.8592134,53.6963798],[-1.850966,53.6923451],[-1.8443653,53.6938312],[-1.8446597,53.7009131],[-1.8359546,53.7058885],[-1.828586,53.7003306],[-1.814267,53.7002006],[-1.8145548,53.7173033],[-1.8275987,53.7263202]]],"type":"Polygon"},"id":"E02002261","properties":{"code":"E02002261","geography":"MSOA","name":"Calderdale 018"},"type":"Feature"},{"geometry":{"coordinates":[[[-1.7939972,53.7170323],[-1.8044412,53.714691],[-1.8145548,53.7173033],[-1.814267,53.7002006],[-1.828586,53.7003306],[-1.826416,53.6964789],[-1.8192033,53.6959953],[-1.8141227,53.6927402],[-1.8130221,53.6970952],[-1.8045966,53.6964515],[-1.7925826,53.7039788],[-1.7875009,53.6995418],[-1.7791616,53.6948524],[-1.7791031,53.6986804],[-1.7689063,53.6973402],[-1.7791904,53.699353],[-1.7789804,53.7044747],[-1.7861908,53.7077803],[-1.7761281,53.7099811],[-1.7726118,53.7159761],[-1.7939972,53.7170323]]],"type":"Polygon"},"id":"E02002262","properties":{"code":"E02002262","geography":"MSOA","name":"Calderdale 019"},"type":"Feature"},{"geometry":{"coordinates":[[[-1.9207145,53.7174606],[-1.9307879,53.7150494],[-1.9494353,53.7279376],[-1.9725917,53.7156495],[-1.9682816,53.7090262],[-1.9761115,53.705012],[-1.9921006,53.6864708],[-1.9832388,53.685511],[-1.9805776,53.6909978],[-1.9634977,53.6933476],[-1.9496839,53.6870277],[-1.9366797,53.6929362],[-1.934787,53.6902644],[-1.9339278,53.6936219],[-1.9282223,53.6906748],[-1.9257807,53.6967306],[-1.9332378,53.6955373],[-1.9371681,53.6986298],[-1.9285277,53.6981648],[-1.9181341,53.7037226],[-1.9198245,53.7086495],[-1.9286283,53.7100221],[-1.9179464,53.7152194],[-1.9207145,53.7174606]]],"type":"Polygon"},"id":"E02002263","properties":{"code":"E02002263","geography":"MSOA","name":"Calderdale 020"},"type":"Feature"},{"geometry":{"coordinates":[[[-1.8592134,53.6963798],[-1.8527628,53.7047248],[-1.8563594,53.7149146],[-1.8626282,53.7148733],[-1.8675875,53.7125445],[-1.8650035,53.7106272],[-1.8693961,53.7109556],[-1.8631634,53.7093994],[-1.8647907,53.7076342],[-1.8850261,53.7055788],[-1.8779943,53.7015154],[-1.8779183,53.6988298],[-1.8592134,53.6963798]]],"type":"Polygon"},"id":"E02002264","properties":{"code":"E02002264","geography":"MSOA","name":"Calderdale 021"},"type":"Feature"},{"geometry":{"coordinates":[[[-2.0473558,53.7040694],[-2.0591932,53.7084512],[-2.0563505,53.7095301],[-2.0628183,53.7188385],[-2.0580659,53.717789],[-2.0580653,53.7197427],[-2.0852623,53.7292223],[-2.0850928,53.7170479],[-2.0943422,53.7143955],[-2.087615,53.7108596],[-2.088032,53.7030583],[-2.0955125,53.7005334],[-2.1031776,53.7053104],[-2.1101126,53.7036431],[-2.1204261,53.6937768],[-2.1465473,53.6930295],[-2.146328,53.6822162],[-2.1422576,53.6779905],[-2.1341272,53.6857187],[-2.1253866,53.6748231],[-2.1141068,53.6711205],[-2.0871216,53.6707944],[-2.084058,53.6776492],[-2.0733988,53.6774945],[-2.0618059,53.6828314],[-2.0512423,53.6836762],[-2.0507343,53.6795005],[-2.044386,53.6729642],[-2.0364432,53.671137],[-2.031217,53.6774526],[-2.0552776,53.6943767],[-2.0473558,53.7040694]]],"type":"Polygon"},"id":"E02002265","properties":{"code":"E02002265","geography":"MSOA","name":"Calderdale 022"},"type":"Feature"},{"geometry":{"coordinates":[[[-1.7689063,53.6973402],[-1.7791031,53.6986804],[-1.7791616,53.6948524],[-1.7875009,53.6995418],[-1.7925786,53.6986188],[-1.7881797,53.697008],[-1.7926921,53.694115],[-1.7878975,53.6937169],[-1.787679,53.6825957],[-1.7629299,53.6892308],[-1.7598043,53.6925028],[-1.7689063,53.6973402]]],"type":"Polygon"},"id":"E02002266","properties":{"code":"E02002266","geography":"MSOA","name":"Calderdale 023"},"type":"Feature"},{"geometry":{"coordinates":[[[-1.7875009,53.6995418],[-1.7925826,53.7039788],[-1.8045966,53.6964515],[-1.8130221,53.6970952],[-1.8141227,53.6927402],[-1.8192033,53.6959953],[-1.8250629,53.6890311],[-1.8224999,53.6839694],[-1.8279561,53.6867182],[-1.8305621,53.6841716],[-1.8222211,53.6777288],[-1.8284661,53.6734161],[-1.8207098,53.672027],[-1.8128508,53.6773039],[-1.7968498,53.6810413],[-1.787679,53.6825957],[-1.7878975,53.6937169],[-1.7926921,53.694115],[-1.7881797,53.697008],[-1.7925786,53.6986188],[-1.7875009,53.6995418]]],"type":"Polygon"},"id":"E02002267","properties":{"code":"E02002267","geography":"MSOA","name":"Calderdale 024"},"type":"Feature"},{"geometry":{"coordinates":[[[-1.828586,53.7003306],[-1.8359546,53.7058885],[-1.8446597,53.7009131],[-1.8443653,53.6938312],[-1.850966,53.6923451],[-1.8500162,53.6858394],[-1.8658236,53.6810323],[-1.8693258,53.6738399],[-1.8661044,53.6713972],[-1.8610033,53.6735967],[-1.8617555,53.6707252],[-1.8573816,53.6700219],[-1.8536266,53.6725681],[-1.8355708,53.6689898],[-1.8274459,53.6700391],[-1.8207098,53.672027],[-1.8284661,53.6734161],[-1.8222211,53.6777288],[-1.8305621,53.6841716],[-1.8279561,53.6867182],[-1.8224999,53.6839694],[-1.8250629,53.6890311],[-1.8192033,53.6959953],[-1.826416,53.6964789],[-1.828586,53.7003306]]],"type":"Polygon"},"id":"E02002268","properties":{"code":"E02002268","geography":"MSOA","name":"Calderdale 025"},"type":"Feature"},{"geometry":{"coordinates":[[[-1.8779183,53.6988298],[-1.8838256,53.7004086],[-1.9030764,53.6913727],[-1.9180878,53.688399],[-1.9171223,53.6854494],[-1.9010559,53.6864402],[-1.8950308,53.6809408],[-1.8892418,53.682558],[-1.9002943,53.6767161],[-1.9022223,53.6730893],[-1.8967594,53.6668677],[-1.9107769,53.6553803],[-1.897804,53.6446372],[-1.8967509,53.6449194],[-1.87499,53.6580906],[-1.8542028,53.6635758],[-1.8435991,53.6660937],[-1.8536266,53.6725681],[-1.8573816,53.6700219],[-1.8617555,53.6707252],[-1.8610033,53.6735967],[-1.8661044,53.6713972],[-1.8693258,53.6738399],[-1.8658236,53.6810323],[-1.8500162,53.6858394],[-1.850966,53.6923451],[-1.8592134,53.6963798],[-1.8779183,53.6988298]]],"type":"Polygon"},"id":"E02002269","properties":{"code":"E02002269","geography":"MSOA","name":"Calderdale 026"},"type":"Feature"},{"geometry":{"coordinates":[[[-1.8927813,53.7072644],[-1.9096941,53.7077435],[-1.9070743,53.7058153],[-1.9117508,53.7008843],[-1.9181341,53.7037226],[-1.9285277,53.6981648],[-1.9371681,53.6986298],[-1.9332378,53.6955373],[-1.9257807,53.6967306],[-1.9282223,53.6906748],[-1.9339278,53.6936219],[-1.934787,53.6902644],[-1.9366797,53.6929362],[-1.9496839,53.6870277],[-1.9634977,53.6933476],[-1.9805776,53.6909978],[-1.9832388,53.685511],[-1.9921006,53.6864708],[-1.9971585,53.6836487],[-2.0057534,53.6892671],[-2.0166975,53.6802006],[-2.0138216,53.6775711],[-2.0266886,53.6742711],[-2.031217,53.6774526],[-2.0364432,53.671137],[-2.044386,53.6729642],[-2.0507343,53.6795005],[-2.0545481,53.6735469],[-2.0370958,53.6623275],[-2.041581,53.642472],[-2.0299976,53.6361543],[-2.0308877,53.629225],[-2.0268698,53.6242293],[-2.0230371,53.6158242],[-2.0094718,53.6167645],[-2.004543,53.6224237],[-1.9795605,53.6230145],[-1.9727448,53.6257591],[-1.9630559,53.6327476],[-1.9420874,53.6403226],[-1.9342412,53.6483658],[-1.897804,53.6446372],[-1.9107769,53.6553803],[-1.8967594,53.6668677],[-1.9022223,53.6730893],[-1.9002943,53.6767161],[-1.8892418,53.682558],[-1.8950308,53.6809408],[-1.9010559,53.6864402],[-1.9171223,53.6854494],[-1.9180878,53.688399],[-1.9030764,53.6913727],[-1.8838256,53.7004086],[-1.8779183,53.6988298],[-1.8779943,53.7015154],[-1.8927813,53.7072644]]],"type":"Polygon"},"id":"E02002270","properties":{"code":"E02002270","geography":"MSOA","name":"Calderdale 027"},"type":"Feature"}],"type":"FeatureCollection"}
