{"features":[{"geometry":{"coordinates":[[[-1.3840822,54.9386464],[-1.3967453,54.939713],[-1.4060266,54.9373377],[-1.3962309,54.9266904],[-1.3910028,54.9257543],[-1.3849133,54.9258894],[-1.376818,54.9303644],[-1.3793908,54.9373735],[-1.3840822,54.9386464]]],"type":"Polygon"},"id":"E02001791","properties":{"code":"E02001791","geography":"MSOA","name":"Sunderland 001"},"type":"Feature"},{"geometry":{"coordinates":[[[-1.3626839,54.9219354],[-1.3633975,54.9227346],[-1.3612952,54.9224614],[-1.3613352,54.9226546],[-1.3632818,54.9229479],[-1.3639897,54.9256938],[-1.3642938,54.9258081],[-1.3644615,54.9275236],[-1.3653809,54.9310887],[-1.3651851,54.9330183],[-1.3650862,54.9339111],[-1.3654518,54.937648],[-1.3645412,54.9388301],[-1.3639616,54.94406],[-1.3743353,54.9435274],[-1.3756697,54.9369017],[-1.3793908,54.9373735],[-1.376818,54.9303644],[-1.3849133,54.9258894],[-1.3840844,54.9240014],[-1.3730416,54.9263433],[-1.3752214,54.9248774],[-1.3690891,54.9258544],[-1.3655757,54.9215185],[-1.3626839,54.9219354]]],"type":"Polygon"},"id":"E02001792","properties":{"code":"E02001792","geography":"MSOA","name":"Sunderland 002"},"type":"Feature"},{"geometry":{"coordinates":[[[-1.4273966,54.9309331],[-1.4490801,54.9340803],[-1.466434,54.9301311],[-1.4628748,54.9257549],[-1.440602,54.9226599],[-1.4273966,54.9309331]]],"type":"Polygon"},"id":"E02001793","properties":{"code":"E02001793","geography":"MSOA","name":"Sunderland 003"},"type":"Feature"},{"geometry":{"coordinates":[[[-1.3910028,54.9257543],[-1.3962309,54.9266904],[-1.4060266,54.9373377],[-1.4167444,54.9339559],[-1.419329,54.9299126],[-1.4273966,54.9309331],[-1.440602,54.9226599],[-1.4256459,54.9224399],[-1.4072938,54.9222154],[-1.4027659,54.925851],[-1.3920227,54.9235055],[-1.3910028,54.9257543]]],"type":"Polygon"},"id":"E02001794","properties":{"code":"E02001794","geography":"MSOA","name":"Sunderland 004"},"type":"Feature"},{"geometry":{"coordinates":[[[-1.3840844,54.9240014],[-1.3849133,54.9258894],[-1.3910028,54.9257543],[-1.3920227,54.9235055],[-1.4027659,54.925851],[-1.4072938,54.9222154],[-1.4256459,54.9224399],[-1.4261655,54.9164474],[-1.4159157,54.9168137],[-1.406552,54.9137456],[-1.3951481,54.9171626],[-1.3924553,54.9136523],[-1.3825243,54.9146009],[-1.3840844,54.9240014]]],"type":"Polygon"},"id":"E02001795","properties":{"code":"E02001795","geography":"MSOA","name":"Sunderland 005"},"type":"Feature"},{"geometry":{"coordinates":[[[-1.3626839,54.9219354],[-1.3655757,54.9215185],[-1.3690891,54.9258544],[-1.3752214,54.9248774],[-1.3730416,54.9263433],[-1.3840844,54.9240014],[-1.3825243,54.9146009],[-1.3924553,54.9136523],[-1.3863177,54.910018],[-1.3781937,54.9103545],[-1.3776243,54.9104599],[-1.3709794,54.9116901],[-1.367485,54.9197733],[-1.3658773,54.9173359],[-1.3605634,54.9186096],[-1.3610748,54.9201334],[-1.3626839,54.9219354]]],"type":"Polygon"},"id":"E02001796","properties":{"code":"E02001796","geography":"MSOA","name":"Sunderland 006"},"type":"Feature"},{"geometry":{"coordinates":[[[-1.5112043,54.9316582],[-1.5257605,54.9332643],[-1.5479862,54.9303147],[-1.5532933,54.9276977],[-1.556502,54.9299102],[-1.5688793,54.9246171],[-1.5663662,54.9216706],[-1.5543556,54.9163833],[-1.5442327,54.9207367],[-1.5413696,54.9186052],[-1.5373883,54.9201089],[-1.5370218,54.9169172],[-1.5310183,54.9172385],[-1.5322253,54.9219633],[-1.5249713,54.9216106],[-1.527781,54.9187957],[-1.5171056,54.9177833],[-1.5137993,54.9138162],[-1.5050441,54.9179685],[-1.5036059,54.9055272],[-1.4609954,54.9092389],[-1.4628748,54.9257549],[-1.466434,54.9301311],[-1.4832255,54.9284126],[-1.5112043,54.9316582]]],"type":"Polygon"},"id":"E02001797","properties":{"code":"E02001797","geography":"MSOA","name":"Sunderland 007"},"type":"Feature"},{"geometry":{"coordinates":[[[-1.440602,54.9226599],[-1.4628748,54.9257549],[-1.4609954,54.9092389],[-1.4581857,54.9042857],[-1.4284964,54.9158822],[-1.4261655,54.9164474],[-1.4256459,54.9224399],[-1.440602,54.9226599]]],"type":"Polygon"},"id":"E02001798","properties":{"code":"E02001798","geography":"MSOA","name":"Sunderland 008"},"type":"Feature"},{"geometry":{"coordinates":[[[-1.5036059,54.9055272],[-1.5050441,54.9179685],[-1.5137993,54.9138162],[-1.5171056,54.9177833],[-1.527781,54.9187957],[-1.5249713,54.9216106],[-1.5322253,54.9219633],[-1.5310183,54.9172385],[-1.5370218,54.9169172],[-1.5373883,54.9201089],[-1.5413696,54.9186052],[-1.5417471,54.9149971],[-1.5304467,54.9129919],[-1.5257471,54.9059474],[-1.5148189,54.905559],[-1.5036059,54.9055272]]],"type":"Polygon"},"id":"E02001799","properties":{"code":"E02001799","geography":"MSOA","name":"Sunderland 009"},"type":"Feature"},{"geometry":{"coordinates":[[[-1.5413696,54.9186052],[-1.5442327,54.9207367],[-1.5543556,54.9163833],[-1.5663662,54.9216706],[-1.5602528,54.9145547],[-1.5570579,54.907887],[-1.5627732,54.9050814],[-1.5583997,54.9003124],[-1.5383155,54.9018907],[-1.5257471,54.9059474],[-1.5304467,54.9129919],[-1.5417471,54.9149971],[-1.5413696,54.9186052]]],"type":"Polygon"},"id":"E02001800","properties":{"code":"E02001800","geography":"MSOA","name":"Sunderland 010"},"type":"Feature"},{"geometry":{"coordinates":[[[-1.3974212,54.9027229],[-1.3966505,54.9065065],[-1.4165927,54.9126779],[-1.4148092,54.9096991],[-1.4095984,54.900542],[-1.3974212,54.9027229]]],"type":"Polygon"},"id":"E02001801","properties":{"code":"E02001801","geography":"MSOA","name":"Sunderland 011"},"type":"Feature"},{"geometry":{"coordinates":[[[-1.4165927,54.9126779],[-1.4159157,54.9168137],[-1.4261655,54.9164474],[-1.4284964,54.9158822],[-1.4285222,54.908332],[-1.4404542,54.9035798],[-1.4395693,54.9013761],[-1.4319668,54.9021674],[-1.4290524,54.8981119],[-1.4240446,54.8988539],[-1.425478,54.9019851],[-1.4166021,54.9035901],[-1.4207786,54.9053062],[-1.4148092,54.9096991],[-1.4165927,54.9126779]]],"type":"Polygon"},"id":"E02001802","properties":{"code":"E02001802","geography":"MSOA","name":"Sunderland 012"},"type":"Feature"},{"geometry":{"coordinates":[[[-1.3924553,54.9136523],[-1.3951481,54.9171626],[-1.406552,54.9137456],[-1.4159157,54.9168137],[-1.4165927,54.9126779],[-1.3966505,54.9065065],[-1.3974212,54.9027229],[-1.3959225,54.9019479],[-1.3885365,54.8995644],[-1.39118,54.8969536],[-1.3856456,54.8966529],[-1.375579,54.9011446],[-1.3877128,54.9035989],[-1.3712597,54.9052657],[-1.3717512,54.909831],[-1.3720583,54.9096144],[-1.3776383,54.9095495],[-1.3828191,54.9094933],[-1.3798735,54.9100434],[-1.3781937,54.9103545],[-1.3863177,54.910018],[-1.3924553,54.9136523]]],"type":"Polygon"},"id":"E02001803","properties":{"code":"E02001803","geography":"MSOA","name":"Sunderland 013"},"type":"Feature"},{"geometry":{"coordinates":[[[-1.4290524,54.8981119],[-1.4319668,54.9021674],[-1.4395693,54.9013761],[-1.4404542,54.9035798],[-1.4285222,54.908332],[-1.4284964,54.9158822],[-1.4581857,54.9042857],[-1.455794,54.8968432],[-1.4442617,54.9005811],[-1.4369246,54.8931032],[-1.4296033,54.8948557],[-1.4290524,54.8981119]]],"type":"Polygon"},"id":"E02001804","properties":{"code":"E02001804","geography":"MSOA","name":"Sunderland 014"},"type":"Feature"},{"geometry":{"coordinates":[[[-1.4095984,54.900542],[-1.4148092,54.9096991],[-1.4207786,54.9053062],[-1.4166021,54.9035901],[-1.425478,54.9019851],[-1.4240446,54.8988539],[-1.4290524,54.8981119],[-1.4296033,54.8948557],[-1.4274113,54.8924173],[-1.4152484,54.8931472],[-1.4095984,54.900542]]],"type":"Polygon"},"id":"E02001805","properties":{"code":"E02001805","geography":"MSOA","name":"Sunderland 015"},"type":"Feature"},{"geometry":{"coordinates":[[[-1.3556229,54.9146421],[-1.3576987,54.9138619],[-1.3583946,54.9137047],[-1.3611715,54.9172888],[-1.3717512,54.909831],[-1.3712597,54.9052657],[-1.3877128,54.9035989],[-1.375579,54.9011446],[-1.3856456,54.8966529],[-1.3903693,54.892289],[-1.3816723,54.8952848],[-1.371159,54.8915035],[-1.3606524,54.8949234],[-1.3616264,54.8982892],[-1.360216,54.8992626],[-1.3602281,54.9003857],[-1.3515424,54.905357],[-1.3548365,54.9076021],[-1.3506632,54.9059493],[-1.3587052,54.9129569],[-1.358538,54.9131309],[-1.3553731,54.9146656],[-1.3538995,54.9158045],[-1.3527893,54.9190894],[-1.3539597,54.9159158],[-1.3556229,54.9146421]]],"type":"Polygon"},"id":"E02001806","properties":{"code":"E02001806","geography":"MSOA","name":"Sunderland 016"},"type":"Feature"},{"geometry":{"coordinates":[[[-1.4581857,54.9042857],[-1.4609954,54.9092389],[-1.5036059,54.9055272],[-1.5148189,54.905559],[-1.5138593,54.9030428],[-1.523311,54.9009134],[-1.5142495,54.89919],[-1.5181991,54.8941355],[-1.5107116,54.8916635],[-1.5305157,54.8875485],[-1.5284631,54.8850348],[-1.5078604,54.8908508],[-1.5028383,54.8846676],[-1.481153,54.8956573],[-1.473763,54.9030438],[-1.4669875,54.903494],[-1.461819,54.8983461],[-1.4581857,54.9042857]]],"type":"Polygon"},"id":"E02001807","properties":{"code":"E02001807","geography":"MSOA","name":"Sunderland 017"},"type":"Feature"},{"geometry":{"coordinates":[[[-1.3959225,54.9019479],[-1.3974212,54.9027229],[-1.4095984,54.900542],[-1.4152484,54.8931472],[-1.4104428,54.8913034],[-1.4027151,54.8932932],[-1.4049082,54.894974],[-1.3959225,54.9019479]]],"type":"Polygon"},"id":"E02001808","properties":{"code":"E02001808","geography":"MSOA","name":"Sunderland 018"},"type":"Feature"},{"geometry":{"coordinates":[[[-1.5148189,54.905559],[-1.5257471,54.9059474],[-1.5383155,54.9018907],[-1.5332349,54.8918173],[-1.5305157,54.8875485],[-1.5107116,54.8916635],[-1.5181991,54.8941355],[-1.5142495,54.89919],[-1.523311,54.9009134],[-1.5138593,54.9030428],[-1.5148189,54.905559]]],"type":"Polygon"},"id":"E02001809","properties":{"code":"E02001809","geography":"MSOA","name":"Sunderland 019"},"type":"Feature"},{"geometry":{"coordinates":[[[-1.5332349,54.8918173],[-1.5383155,54.9018907],[-1.5583997,54.9003124],[-1.5570743,54.8847274],[-1.5497241,54.884773],[-1.5483487,54.8887997],[-1.5346829,54.8882423],[-1.5332349,54.8918173]]],"type":"Polygon"},"id":"E02001810","properties":{"code":"E02001810","geography":"MSOA","name":"Sunderland 020"},"type":"Feature"},{"geometry":{"coordinates":[[[-1.4296033,54.8948557],[-1.4369246,54.8931032],[-1.4442617,54.9005811],[-1.455794,54.8968432],[-1.4550192,54.8828395],[-1.4437975,54.8826538],[-1.4274113,54.8924173],[-1.4296033,54.8948557]]],"type":"Polygon"},"id":"E02001811","properties":{"code":"E02001811","geography":"MSOA","name":"Sunderland 021"},"type":"Feature"},{"geometry":{"coordinates":[[[-1.3856456,54.8966529],[-1.39118,54.8969536],[-1.3885365,54.8995644],[-1.3959225,54.9019479],[-1.4049082,54.894974],[-1.4027151,54.8932932],[-1.4104428,54.8913034],[-1.4073532,54.8867231],[-1.395492,54.8827832],[-1.3945414,54.8849103],[-1.3913822,54.8866381],[-1.38208,54.8824131],[-1.3797287,54.8859399],[-1.3706394,54.8876953],[-1.3757025,54.8897703],[-1.371159,54.8915035],[-1.3816723,54.8952848],[-1.3903693,54.892289],[-1.3856456,54.8966529]]],"type":"Polygon"},"id":"E02001812","properties":{"code":"E02001812","geography":"MSOA","name":"Sunderland 022"},"type":"Feature"},{"geometry":{"coordinates":[[[-1.4104428,54.8913034],[-1.4152484,54.8931472],[-1.4274113,54.8924173],[-1.4437975,54.8826538],[-1.4385497,54.8764545],[-1.4247891,54.8822233],[-1.4212909,54.8787818],[-1.4195844,54.8826681],[-1.4073532,54.8867231],[-1.4104428,54.8913034]]],"type":"Polygon"},"id":"E02001813","properties":{"code":"E02001813","geography":"MSOA","name":"Sunderland 023"},"type":"Feature"},{"geometry":{"coordinates":[[[-1.3546646,54.8773671],[-1.3552024,54.8790977],[-1.3579885,54.8857149],[-1.3606524,54.8949234],[-1.371159,54.8915035],[-1.3757025,54.8897703],[-1.3706394,54.8876953],[-1.3797287,54.8859399],[-1.38208,54.8824131],[-1.3913822,54.8866381],[-1.3945414,54.8849103],[-1.3809481,54.8807452],[-1.3546646,54.8773671]]],"type":"Polygon"},"id":"E02001814","properties":{"code":"E02001814","geography":"MSOA","name":"Sunderland 024"},"type":"Feature"},{"geometry":{"coordinates":[[[-1.5305157,54.8875485],[-1.5332349,54.8918173],[-1.5346829,54.8882423],[-1.5483487,54.8887997],[-1.5497241,54.884773],[-1.5570743,54.8847274],[-1.5593989,54.8820287],[-1.5617978,54.8757087],[-1.5415559,54.8734509],[-1.5319485,54.8781815],[-1.5195562,54.8759817],[-1.5066622,54.8711351],[-1.5018095,54.8706501],[-1.4963137,54.8745693],[-1.500122,54.8783003],[-1.5049419,54.8787478],[-1.5028383,54.8846676],[-1.5078604,54.8908508],[-1.5284631,54.8850348],[-1.5305157,54.8875485]]],"type":"Polygon"},"id":"E02001815","properties":{"code":"E02001815","geography":"MSOA","name":"Sunderland 025"},"type":"Feature"},{"geometry":{"coordinates":[[[-1.395492,54.8827832],[-1.4073532,54.8867231],[-1.4195844,54.8826681],[-1.4212909,54.8787818],[-1.4247891,54.8822233],[-1.4385497,54.8764545],[-1.4322936,54.8766112],[-1.4317884,54.869995],[-1.4180132,54.8710961],[-1.4122019,54.8757908],[-1.4070005,54.8745069],[-1.4068405,54.8795883],[-1.3918935,54.8785313],[-1.395492,54.8827832]]],"type":"Polygon"},"id":"E02001816","properties":{"code":"E02001816","geography":"MSOA","name":"Sunderland 026"},"type":"Feature"},{"geometry":{"coordinates":[[[-1.3918935,54.8785313],[-1.4068405,54.8795883],[-1.4070005,54.8745069],[-1.4065219,54.8718271],[-1.4141712,54.8707335],[-1.4111928,54.8678503],[-1.4150558,54.8654554],[-1.4000563,54.8653787],[-1.3896695,54.8737125],[-1.3918935,54.8785313]]],"type":"Polygon"},"id":"E02001817","properties":{"code":"E02001817","geography":"MSOA","name":"Sunderland 027"},"type":"Feature"},{"geometry":{"coordinates":[[[-1.3546646,54.8773671],[-1.3809481,54.8807452],[-1.3866508,54.8774318],[-1.3751643,54.8747501],[-1.3883468,54.8663524],[-1.3832477,54.8655254],[-1.3827447,54.861319],[-1.3688519,54.8576181],[-1.3473602,54.8605158],[-1.3474194,54.8606003],[-1.3542598,54.8768583],[-1.3546646,54.8773671]]],"type":"Polygon"},"id":"E02001818","properties":{"code":"E02001818","geography":"MSOA","name":"Sunderland 028"},"type":"Feature"},{"geometry":{"coordinates":[[[-1.4437975,54.8826538],[-1.4550192,54.8828395],[-1.4477478,54.8659519],[-1.4235731,54.8567695],[-1.4217916,54.8657734],[-1.4150558,54.8654554],[-1.4111928,54.8678503],[-1.4141712,54.8707335],[-1.4065219,54.8718271],[-1.4070005,54.8745069],[-1.4122019,54.8757908],[-1.4180132,54.8710961],[-1.4317884,54.869995],[-1.4322936,54.8766112],[-1.4385497,54.8764545],[-1.4437975,54.8826538]]],"type":"Polygon"},"id":"E02001819","properties":{"code":"E02001819","geography":"MSOA","name":"Sunderland 029"},"type":"Feature"},{"geometry":{"coordinates":[[[-1.4814962,54.855099],[-1.4892547,54.8603996],[-1.4982357,54.8601372],[-1.4882928,54.8662049],[-1.4922458,54.8674803],[-1.4807965,54.8685768],[-1.476397,54.8759816],[-1.4826855,54.8782112],[-1.4875658,54.8741771],[-1.500122,54.8783003],[-1.4963137,54.8745693],[-1.5018095,54.8706501],[-1.5066622,54.8711351],[-1.5103816,54.8620063],[-1.5076388,54.8504005],[-1.4952763,54.8506154],[-1.4814962,54.855099]]],"type":"Polygon"},"id":"E02001820","properties":{"code":"E02001820","geography":"MSOA","name":"Sunderland 030"},"type":"Feature"},{"geometry":{"coordinates":[[[-1.3809481,54.8807452],[-1.3945414,54.8849103],[-1.395492,54.8827832],[-1.3918935,54.8785313],[-1.3896695,54.8737125],[-1.4000563,54.8653787],[-1.4150558,54.8654554],[-1.4217916,54.8657734],[-1.4235731,54.8567695],[-1.4195727,54.8557333],[-1.4328138,54.8534195],[-1.4135666,54.8448527],[-1.3816498,54.8471516],[-1.3688519,54.8576181],[-1.3827447,54.861319],[-1.3832477,54.8655254],[-1.3883468,54.8663524],[-1.3751643,54.8747501],[-1.3866508,54.8774318],[-1.3809481,54.8807452]]],"type":"Polygon"},"id":"E02001821","properties":{"code":"E02001821","geography":"MSOA","name":"Sunderland 031"},"type":"Feature"},{"geometry":{"coordinates":[[[-1.455794,54.8968432],[-1.4581857,54.9042857],[-1.461819,54.8983461],[-1.4669875,54.903494],[-1.473763,54.9030438],[-1.481153,54.8956573],[-1.5028383,54.8846676],[-1.5049419,54.8787478],[-1.500122,54.8783003],[-1.4875658,54.8741771],[-1.4826855,54.8782112],[-1.476397,54.8759816],[-1.4807965,54.8685768],[-1.4922458,54.8674803],[-1.4882928,54.8662049],[-1.4982357,54.8601372],[-1.4892547,54.8603996],[-1.4814962,54.855099],[-1.4763389,54.8543003],[-1.4742766,54.8478349],[-1.4673834,54.8432487],[-1.466939,54.8463612],[-1.4542525,54.8433942],[-1.457089,54.8416273],[-1.4529399,54.8383947],[-1.4381914,54.8411814],[-1.4328138,54.8534195],[-1.4195727,54.8557333],[-1.4235731,54.8567695],[-1.4477478,54.8659519],[-1.4550192,54.8828395],[-1.455794,54.8968432]]],"type":"Polygon"},"id":"E02001822","properties":{"code":"E02001822","geography":"MSOA","name":"Sunderland 032"},"type":"Feature"},{"geometry":{"coordinates":[[[-1.4742766,54.8478349],[-1.4763389,54.8543003],[-1.4814962,54.855099],[-1.4952763,54.8506154],[-1.5076388,54.8504005],[-1.5035564,54.8374697],[-1.5033055,54.8366211],[-1.4933393,54.8352601],[-1.483718,54.8383086],[-1.4871187,54.8450283],[-1.4820389,54.8479749],[-1.4768775,54.8447447],[-1.4742766,54.8478349]]],"type":"Polygon"},"id":"E02001823","properties":{"code":"E02001823","geography":"MSOA","name":"Sunderland 033"},"type":"Feature"},{"geometry":{"coordinates":[[[-1.4742766,54.8478349],[-1.4768775,54.8447447],[-1.4820389,54.8479749],[-1.4871187,54.8450283],[-1.483718,54.8383086],[-1.468725,54.830305],[-1.4351621,54.8377259],[-1.4381914,54.8411814],[-1.4529399,54.8383947],[-1.457089,54.8416273],[-1.4542525,54.8433942],[-1.466939,54.8463612],[-1.4673834,54.8432487],[-1.4742766,54.8478349]]],"type":"Polygon"},"id":"E02001824","properties":{"code":"E02001824","geography":"MSOA","name":"Sunderland 034"},"type":"Feature"},{"geometry":{"coordinates":[[[-1.4135666,54.8448527],[-1.4328138,54.8534195],[-1.4381914,54.8411814],[-1.4351621,54.8377259],[-1.468725,54.830305],[-1.483718,54.8383086],[-1.4933393,54.8352601],[-1.5033055,54.8366211],[-1.5042669,54.8312208],[-1.4974959,54.8226192],[-1.4937271,54.8234634],[-1.4903806,54.8203198],[-1.4860077,54.8206874],[-1.4845295,54.8175556],[-1.4779425,54.8204957],[-1.4663544,54.820014],[-1.4647757,54.8158193],[-1.4546023,54.817166],[-1.4510213,54.8146871],[-1.4460639,54.8174878],[-1.4393487,54.8158124],[-1.4426785,54.818625],[-1.4375977,54.8269398],[-1.4245117,54.8278165],[-1.4129996,54.8232968],[-1.4131124,54.8245493],[-1.4215942,54.8380822],[-1.4119943,54.8418922],[-1.4135666,54.8448527]]],"type":"Polygon"},"id":"E02001825","properties":{"code":"E02001825","geography":"MSOA","name":"Sunderland 035"},"type":"Feature"},{"geometry":{"coordinates":[[[-1.4129996,54.8232968],[-1.4245117,54.8278165],[-1.4375977,54.8269398],[-1.4426785,54.818625],[-1.4393487,54.8158124],[-1.4460639,54.8174878],[-1.4510213,54.8146871],[-1.4546023,54.817166],[-1.4647757,54.8158193],[-1.4663544,54.820014],[-1.4779425,54.8204957],[-1.4845295,54.8175556],[-1.4860077,54.8206874],[-1.4903806,54.8203198],[-1.4942934,54.8160035],[-1.4818428,54.8096426],[-1.4931894,54.7998631],[-1.4545898,54.8000121],[-1.444009,54.8024606],[-1.4375186,54.8005174],[-1.4225352,54.8031634],[-1.4217121,54.813277],[-1.4129996,54.8232968]]],"type":"Polygon"},"id":"E02001826","properties":{"code":"E02001826","geography":"MSOA","name":"Sunderland 036"},"type":"Feature"}],"type":"FeatureCollection"}
