{"features":[{"geometry":{"coordinates":[[[-3.0344186,53.4337754],[-3.0403218,53.4428808],[-3.0567156,53.4400762],[-3.0602136,53.4386898],[-3.0619478,53.4369159],[-3.055616,53.4374513],[-3.0526868,53.4333612],[-3.0467074,53.4306338],[-3.0344186,53.4337754]]],"type":"Polygon"},"id":"E02001467","properties":{"code":"E02001467","geography":"MSOA","name":"Wirral 001"},"type":"Feature"},{"geometry":{"coordinates":[[[-3.029617,53.4264643],[-3.0300968,53.4271066],[-3.0344186,53.4337754],[-3.0467074,53.4306338],[-3.0464589,53.4254465],[-3.0418559,53.4234756],[-3.0349137,53.4182386],[-3.0322555,53.4263313],[-3.029617,53.4264643]]],"type":"Polygon"},"id":"E02001468","properties":{"code":"E02001468","geography":"MSOA","name":"Wirral 002"},"type":"Feature"},{"geometry":{"coordinates":[[[-3.0526868,53.4333612],[-3.055616,53.4374513],[-3.0619478,53.4369159],[-3.0602136,53.4386898],[-3.0603557,53.4386335],[-3.0790327,53.4312286],[-3.0678497,53.4278587],[-3.0700338,53.4237198],[-3.0754115,53.4241361],[-3.0739668,53.4178777],[-3.0688414,53.4202141],[-3.0679743,53.4155018],[-3.0660688,53.4155962],[-3.0543836,53.4242433],[-3.0600764,53.4238357],[-3.0642502,53.4270939],[-3.0526868,53.4333612]]],"type":"Polygon"},"id":"E02001469","properties":{"code":"E02001469","geography":"MSOA","name":"Wirral 003"},"type":"Feature"},{"geometry":{"coordinates":[[[-3.0467074,53.4306338],[-3.0526868,53.4333612],[-3.0642502,53.4270939],[-3.0600764,53.4238357],[-3.0543836,53.4242433],[-3.0660688,53.4155962],[-3.0599849,53.4139109],[-3.0591525,53.4177405],[-3.0563473,53.4164091],[-3.0423519,53.4233829],[-3.0418559,53.4234756],[-3.0464589,53.4254465],[-3.0467074,53.4306338]]],"type":"Polygon"},"id":"E02001470","properties":{"code":"E02001470","geography":"MSOA","name":"Wirral 004"},"type":"Feature"},{"geometry":{"coordinates":[[[-3.0242804,53.4193101],[-3.0291995,53.4259053],[-3.029617,53.4264643],[-3.0322555,53.4263313],[-3.0349137,53.4182386],[-3.0418559,53.4234756],[-3.0423519,53.4233829],[-3.041206,53.4164869],[-3.0344422,53.4151979],[-3.032619,53.4114652],[-3.0242804,53.4193101]]],"type":"Polygon"},"id":"E02001471","properties":{"code":"E02001471","geography":"MSOA","name":"Wirral 005"},"type":"Feature"},{"geometry":{"coordinates":[[[-3.0679743,53.4155018],[-3.0688414,53.4202141],[-3.0739668,53.4178777],[-3.0754115,53.4241361],[-3.0700338,53.4237198],[-3.0678497,53.4278587],[-3.0790327,53.4312286],[-3.089896,53.426919],[-3.1183161,53.4166009],[-3.1188788,53.4163965],[-3.1196724,53.4162329],[-3.1167812,53.4110566],[-3.1155237,53.408774],[-3.1097352,53.4120764],[-3.0923708,53.4100946],[-3.0976946,53.4144925],[-3.0941658,53.4175025],[-3.0892546,53.4161212],[-3.0920129,53.4136045],[-3.085612,53.415095],[-3.0807605,53.4111361],[-3.0679743,53.4155018]]],"type":"Polygon"},"id":"E02001472","properties":{"code":"E02001472","geography":"MSOA","name":"Wirral 006"},"type":"Feature"},{"geometry":{"coordinates":[[[-3.0344422,53.4151979],[-3.041206,53.4164869],[-3.0423519,53.4233829],[-3.0563473,53.4164091],[-3.0591525,53.4177405],[-3.0599849,53.4139109],[-3.0528353,53.4111301],[-3.0464856,53.4135849],[-3.0416758,53.4108703],[-3.0344422,53.4151979]]],"type":"Polygon"},"id":"E02001473","properties":{"code":"E02001473","geography":"MSOA","name":"Wirral 007"},"type":"Feature"},{"geometry":{"coordinates":[[[-3.0130739,53.4019044],[-3.0241199,53.4190744],[-3.0242575,53.4192879],[-3.0242804,53.4193101],[-3.032619,53.4114652],[-3.0214384,53.4046934],[-3.0216403,53.4014542],[-3.0130739,53.4019044]]],"type":"Polygon"},"id":"E02001474","properties":{"code":"E02001474","geography":"MSOA","name":"Wirral 008"},"type":"Feature"},{"geometry":{"coordinates":[[[-3.0807605,53.4111361],[-3.085612,53.415095],[-3.0920129,53.4136045],[-3.0892546,53.4161212],[-3.0941658,53.4175025],[-3.0976946,53.4144925],[-3.0923708,53.4100946],[-3.1097352,53.4120764],[-3.1155237,53.408774],[-3.1125061,53.4033666],[-3.0978133,53.4017739],[-3.1065869,53.3992781],[-3.1003777,53.3947375],[-3.0883269,53.3971735],[-3.0877404,53.4051341],[-3.0807605,53.4111361]]],"type":"Polygon"},"id":"E02001475","properties":{"code":"E02001475","geography":"MSOA","name":"Wirral 009"},"type":"Feature"},{"geometry":{"coordinates":[[[-3.032619,53.4114652],[-3.0344422,53.4151979],[-3.0416758,53.4108703],[-3.0464856,53.4135849],[-3.0528353,53.4111301],[-3.0584718,53.4061947],[-3.0515384,53.4036886],[-3.0548773,53.4006955],[-3.0494448,53.3990262],[-3.0438751,53.3976301],[-3.0335577,53.3947792],[-3.0428385,53.3989622],[-3.0370651,53.399588],[-3.0365159,53.4038758],[-3.0216403,53.4014542],[-3.0214384,53.4046934],[-3.032619,53.4114652]]],"type":"Polygon"},"id":"E02001476","properties":{"code":"E02001476","geography":"MSOA","name":"Wirral 010"},"type":"Feature"},{"geometry":{"coordinates":[[[-3.0599849,53.4139109],[-3.0660688,53.4155962],[-3.0679743,53.4155018],[-3.0807605,53.4111361],[-3.0877404,53.4051341],[-3.0883269,53.3971735],[-3.0876814,53.3938968],[-3.0832778,53.3937788],[-3.0821723,53.3967423],[-3.0798481,53.3951215],[-3.079417,53.4004267],[-3.0624329,53.3981704],[-3.0598568,53.4015769],[-3.0494448,53.3990262],[-3.0548773,53.4006955],[-3.0515384,53.4036886],[-3.0584718,53.4061947],[-3.0528353,53.4111301],[-3.0599849,53.4139109]]],"type":"Polygon"},"id":"E02001477","properties":{"code":"E02001477","geography":"MSOA","name":"Wirral 011"},"type":"Feature"},{"geometry":{"coordinates":[[[-3.1155237,53.408774],[-3.1167812,53.4110566],[-3.1331236,53.404953],[-3.1230043,53.3974767],[-3.1159397,53.3971342],[-3.1145671,53.4001927],[-3.10967,53.3936576],[-3.1003777,53.3947375],[-3.1065869,53.3992781],[-3.0978133,53.4017739],[-3.1125061,53.4033666],[-3.1155237,53.408774]]],"type":"Polygon"},"id":"E02001478","properties":{"code":"E02001478","geography":"MSOA","name":"Wirral 012"},"type":"Feature"},{"geometry":{"coordinates":[[[-3.1167812,53.4110566],[-3.1196724,53.4162329],[-3.1405851,53.4119212],[-3.1409594,53.411844],[-3.1776073,53.3997097],[-3.1776758,53.399673],[-3.1766328,53.3989161],[-3.1625846,53.403756],[-3.1624637,53.4010033],[-3.1551633,53.3991105],[-3.1680387,53.3965185],[-3.1588651,53.391456],[-3.1628989,53.3877859],[-3.1540968,53.3814523],[-3.1413802,53.3825189],[-3.1276759,53.3874681],[-3.1350115,53.3961645],[-3.1230043,53.3974767],[-3.1331236,53.404953],[-3.1167812,53.4110566]]],"type":"Polygon"},"id":"E02001479","properties":{"code":"E02001479","geography":"MSOA","name":"Wirral 013"},"type":"Feature"},{"geometry":{"coordinates":[[[-3.1628989,53.3877859],[-3.1588651,53.391456],[-3.1680387,53.3965185],[-3.1551633,53.3991105],[-3.1624637,53.4010033],[-3.1625846,53.403756],[-3.1766328,53.3989161],[-3.1776758,53.399673],[-3.2003689,53.3874978],[-3.2000224,53.3852931],[-3.1943411,53.3825969],[-3.1867826,53.3882983],[-3.1829725,53.3790753],[-3.1651001,53.3866089],[-3.1628989,53.3877859]]],"type":"Polygon"},"id":"E02001480","properties":{"code":"E02001480","geography":"MSOA","name":"Wirral 014"},"type":"Feature"},{"geometry":{"coordinates":[[[-3.0494448,53.3990262],[-3.0598568,53.4015769],[-3.0624329,53.3981704],[-3.079417,53.4004267],[-3.0798481,53.3951215],[-3.0785885,53.3894307],[-3.0678477,53.383959],[-3.0652217,53.3840553],[-3.0682819,53.3891189],[-3.0630002,53.3872669],[-3.0545905,53.3918954],[-3.0460708,53.3899515],[-3.0438751,53.3976301],[-3.0494448,53.3990262]]],"type":"Polygon"},"id":"E02001481","properties":{"code":"E02001481","geography":"MSOA","name":"Wirral 015"},"type":"Feature"},{"geometry":{"coordinates":[[[-3.0216403,53.4014542],[-3.0365159,53.4038758],[-3.0370651,53.399588],[-3.0428385,53.3989622],[-3.0335577,53.3947792],[-3.0357036,53.3901665],[-3.0395236,53.3902644],[-3.0378568,53.3849721],[-3.0323916,53.3860619],[-3.0281627,53.3874956],[-3.0254201,53.3851172],[-3.0222357,53.388698],[-3.0085208,53.3904681],[-3.0127936,53.4014685],[-3.0130739,53.4019044],[-3.0216403,53.4014542]]],"type":"Polygon"},"id":"E02001482","properties":{"code":"E02001482","geography":"MSOA","name":"Wirral 016"},"type":"Feature"},{"geometry":{"coordinates":[[[-3.10967,53.3936576],[-3.1145671,53.4001927],[-3.1159397,53.3971342],[-3.1230043,53.3974767],[-3.1350115,53.3961645],[-3.1276759,53.3874681],[-3.1171777,53.3855464],[-3.1146354,53.3807185],[-3.1081222,53.3831467],[-3.10967,53.3936576]]],"type":"Polygon"},"id":"E02001483","properties":{"code":"E02001483","geography":"MSOA","name":"Wirral 017"},"type":"Feature"},{"geometry":{"coordinates":[[[-3.0876814,53.3938968],[-3.0883269,53.3971735],[-3.1003777,53.3947375],[-3.10967,53.3936576],[-3.1081222,53.3831467],[-3.1066731,53.3738151],[-3.0965757,53.3761305],[-3.0949561,53.3780536],[-3.0937641,53.3841847],[-3.0856778,53.386422],[-3.0876814,53.3938968]]],"type":"Polygon"},"id":"E02001484","properties":{"code":"E02001484","geography":"MSOA","name":"Wirral 018"},"type":"Feature"},{"geometry":{"coordinates":[[[-3.0798481,53.3951215],[-3.0821723,53.3967423],[-3.0832778,53.3937788],[-3.0876814,53.3938968],[-3.0856778,53.386422],[-3.0937641,53.3841847],[-3.0949561,53.3780536],[-3.0811492,53.381509],[-3.0748321,53.380339],[-3.0678477,53.383959],[-3.0785885,53.3894307],[-3.0798481,53.3951215]]],"type":"Polygon"},"id":"E02001485","properties":{"code":"E02001485","geography":"MSOA","name":"Wirral 019"},"type":"Feature"},{"geometry":{"coordinates":[[[-3.0335577,53.3947792],[-3.0438751,53.3976301],[-3.0460708,53.3899515],[-3.0545905,53.3918954],[-3.0630002,53.3872669],[-3.0682819,53.3891189],[-3.0652217,53.3840553],[-3.0634322,53.3781701],[-3.0569754,53.3796838],[-3.0469104,53.3749085],[-3.0449433,53.3802284],[-3.0415631,53.3789909],[-3.0435469,53.3835496],[-3.0378568,53.3849721],[-3.0395236,53.3902644],[-3.0357036,53.3901665],[-3.0335577,53.3947792]]],"type":"Polygon"},"id":"E02001486","properties":{"code":"E02001486","geography":"MSOA","name":"Wirral 020"},"type":"Feature"},{"geometry":{"coordinates":[[[-3.0057082,53.3840755],[-3.0065403,53.3853669],[-3.0067456,53.3858958],[-3.0085208,53.3904681],[-3.0222357,53.388698],[-3.0254201,53.3851172],[-3.0281627,53.3874956],[-3.0323916,53.3860619],[-3.0334428,53.3794443],[-3.0251059,53.3753379],[-3.021691,53.373819],[-3.0147609,53.3828102],[-3.0057082,53.3840755]]],"type":"Polygon"},"id":"E02001487","properties":{"code":"E02001487","geography":"MSOA","name":"Wirral 021"},"type":"Feature"},{"geometry":{"coordinates":[[[-3.0251059,53.3753379],[-3.0334428,53.3794443],[-3.0323916,53.3860619],[-3.0378568,53.3849721],[-3.0435469,53.3835496],[-3.0415631,53.3789909],[-3.0449433,53.3802284],[-3.0469104,53.3749085],[-3.0450632,53.3737218],[-3.0396805,53.3739913],[-3.0384583,53.3708958],[-3.0251059,53.3753379]]],"type":"Polygon"},"id":"E02001488","properties":{"code":"E02001488","geography":"MSOA","name":"Wirral 022"},"type":"Feature"},{"geometry":{"coordinates":[[[-3.1081222,53.3831467],[-3.1146354,53.3807185],[-3.1171777,53.3855464],[-3.1276759,53.3874681],[-3.1413802,53.3825189],[-3.1408535,53.3717021],[-3.14772,53.3710146],[-3.1488868,53.3627763],[-3.1353559,53.3615151],[-3.1288294,53.3630065],[-3.1281821,53.3660815],[-3.1142035,53.3662337],[-3.1073095,53.3735276],[-3.1066731,53.3738151],[-3.1081222,53.3831467]]],"type":"Polygon"},"id":"E02001489","properties":{"code":"E02001489","geography":"MSOA","name":"Wirral 023"},"type":"Feature"},{"geometry":{"coordinates":[[[-3.0469104,53.3749085],[-3.0569754,53.3796838],[-3.0634322,53.3781701],[-3.0652217,53.3840553],[-3.0678477,53.383959],[-3.0748321,53.380339],[-3.0811492,53.381509],[-3.0721783,53.3695088],[-3.063546,53.3596008],[-3.0592443,53.3604432],[-3.0612925,53.3693298],[-3.0450632,53.3737218],[-3.0469104,53.3749085]]],"type":"Polygon"},"id":"E02001490","properties":{"code":"E02001490","geography":"MSOA","name":"Wirral 024"},"type":"Feature"},{"geometry":{"coordinates":[[[-3.0721783,53.3695088],[-3.0811492,53.381509],[-3.0949561,53.3780536],[-3.0965757,53.3761305],[-3.0957436,53.3670224],[-3.0826698,53.3663376],[-3.0782289,53.3698469],[-3.0721783,53.3695088]]],"type":"Polygon"},"id":"E02001491","properties":{"code":"E02001491","geography":"MSOA","name":"Wirral 025"},"type":"Feature"},{"geometry":{"coordinates":[[[-3.1651001,53.3866089],[-3.1829725,53.3790753],[-3.1867826,53.3882983],[-3.1943411,53.3825969],[-3.2000224,53.3852931],[-3.1985196,53.3757298],[-3.1908569,53.3684953],[-3.1905718,53.3682261],[-3.1799395,53.3612683],[-3.1788209,53.3619058],[-3.1796324,53.366747],[-3.1705002,53.3687887],[-3.1714999,53.3726827],[-3.1661327,53.3759951],[-3.155916,53.3766886],[-3.1651001,53.3866089]]],"type":"Polygon"},"id":"E02001492","properties":{"code":"E02001492","geography":"MSOA","name":"Wirral 026"},"type":"Feature"},{"geometry":{"coordinates":[[[-2.9929151,53.366345],[-2.9953485,53.3679889],[-2.9956039,53.3683856],[-3.0057082,53.3840755],[-3.0147609,53.3828102],[-3.021691,53.373819],[-3.0161315,53.3728118],[-3.0218163,53.3707837],[-3.0199079,53.3678107],[-3.0149039,53.3670785],[-3.010307,53.3721788],[-3.0080062,53.3679087],[-3.0042092,53.3703699],[-3.0048711,53.3671394],[-2.9988672,53.3688624],[-2.9995481,53.3657842],[-2.9929151,53.366345]]],"type":"Polygon"},"id":"E02001493","properties":{"code":"E02001493","geography":"MSOA","name":"Wirral 027"},"type":"Feature"},{"geometry":{"coordinates":[[[-3.1413802,53.3825189],[-3.1540968,53.3814523],[-3.1628989,53.3877859],[-3.1651001,53.3866089],[-3.155916,53.3766886],[-3.1661327,53.3759951],[-3.1714999,53.3726827],[-3.1705002,53.3687887],[-3.1796324,53.366747],[-3.1788209,53.3619058],[-3.1799395,53.3612683],[-3.1581958,53.3470293],[-3.148826,53.3514705],[-3.1452011,53.3548673],[-3.1484626,53.3570151],[-3.1448584,53.358605],[-3.1417799,53.3557274],[-3.1353559,53.3615151],[-3.1488868,53.3627763],[-3.14772,53.3710146],[-3.1408535,53.3717021],[-3.1413802,53.3825189]]],"type":"Polygon"},"id":"E02001494","properties":{"code":"E02001494","geography":"MSOA","name":"Wirral 028"},"type":"Feature"},{"geometry":{"coordinates":[[[-3.021691,53.373819],[-3.0251059,53.3753379],[-3.0384583,53.3708958],[-3.0332477,53.3658758],[-3.0165684,53.3653497],[-3.0087245,53.3610157],[-3.0055815,53.3631296],[-3.0080062,53.3679087],[-3.010307,53.3721788],[-3.0149039,53.3670785],[-3.0199079,53.3678107],[-3.0218163,53.3707837],[-3.0161315,53.3728118],[-3.021691,53.373819]]],"type":"Polygon"},"id":"E02001495","properties":{"code":"E02001495","geography":"MSOA","name":"Wirral 029"},"type":"Feature"},{"geometry":{"coordinates":[[[-3.0384583,53.3708958],[-3.0396805,53.3739913],[-3.0450632,53.3737218],[-3.0612925,53.3693298],[-3.0592443,53.3604432],[-3.0483759,53.3610971],[-3.0332477,53.3658758],[-3.0384583,53.3708958]]],"type":"Polygon"},"id":"E02001496","properties":{"code":"E02001496","geography":"MSOA","name":"Wirral 030"},"type":"Feature"},{"geometry":{"coordinates":[[[-2.9929151,53.366345],[-2.9995481,53.3657842],[-2.9988672,53.3688624],[-3.0048711,53.3671394],[-3.0042092,53.3703699],[-3.0080062,53.3679087],[-3.0055815,53.3631296],[-3.005616,53.3568323],[-3.007932,53.3595666],[-3.0137714,53.3589554],[-3.0169043,53.3554973],[-3.0075276,53.353016],[-2.9919618,53.3533169],[-2.9961327,53.359405],[-2.9895794,53.3640914],[-2.9929151,53.366345]]],"type":"Polygon"},"id":"E02001497","properties":{"code":"E02001497","geography":"MSOA","name":"Wirral 031"},"type":"Feature"},{"geometry":{"coordinates":[[[-3.0055815,53.3631296],[-3.0087245,53.3610157],[-3.0165684,53.3653497],[-3.0332477,53.3658758],[-3.0483759,53.3610971],[-3.0407514,53.3581652],[-3.0312491,53.3606618],[-3.0283381,53.3539721],[-3.0169043,53.3554973],[-3.0137714,53.3589554],[-3.007932,53.3595666],[-3.005616,53.3568323],[-3.0055815,53.3631296]]],"type":"Polygon"},"id":"E02001498","properties":{"code":"E02001498","geography":"MSOA","name":"Wirral 032"},"type":"Feature"},{"geometry":{"coordinates":[[[-3.1026125,53.3456052],[-3.0945169,53.3467593],[-3.0961078,53.3523663],[-3.1087545,53.3515453],[-3.1037185,53.3623503],[-3.1073095,53.3735276],[-3.1142035,53.3662337],[-3.1281821,53.3660815],[-3.1288294,53.3630065],[-3.1353559,53.3615151],[-3.1417799,53.3557274],[-3.1448584,53.358605],[-3.1484626,53.3570151],[-3.1452011,53.3548673],[-3.148826,53.3514705],[-3.1581958,53.3470293],[-3.138918,53.3343937],[-3.1278103,53.3388943],[-3.1184951,53.3412624],[-3.1124757,53.3472554],[-3.1092011,53.3471447],[-3.1121516,53.3447571],[-3.1026125,53.3456052]]],"type":"Polygon"},"id":"E02001499","properties":{"code":"E02001499","geography":"MSOA","name":"Wirral 033"},"type":"Feature"},{"geometry":{"coordinates":[[[-3.0721783,53.3695088],[-3.0782289,53.3698469],[-3.0826698,53.3663376],[-3.0957436,53.3670224],[-3.0965757,53.3761305],[-3.1066731,53.3738151],[-3.1073095,53.3735276],[-3.1037185,53.3623503],[-3.1087545,53.3515453],[-3.0961078,53.3523663],[-3.0945169,53.3467593],[-3.1026125,53.3456052],[-3.0964307,53.3370955],[-3.0915447,53.3391055],[-3.0849979,53.3359835],[-3.0719072,53.3357632],[-3.0682802,53.346056],[-3.063546,53.3596008],[-3.0721783,53.3695088]]],"type":"Polygon"},"id":"E02001500","properties":{"code":"E02001500","geography":"MSOA","name":"Wirral 034"},"type":"Feature"},{"geometry":{"coordinates":[[[-3.0169043,53.3554973],[-3.0283381,53.3539721],[-3.0312491,53.3606618],[-3.0407514,53.3581652],[-3.0483759,53.3610971],[-3.0592443,53.3604432],[-3.063546,53.3596008],[-3.0682802,53.346056],[-3.06479,53.3406514],[-3.0437288,53.3449913],[-3.0358577,53.3368737],[-3.0219082,53.3375451],[-3.0138127,53.3404924],[-3.0138181,53.3435974],[-3.0051335,53.340254],[-3.0006001,53.3442122],[-3.0112096,53.3455834],[-3.0075276,53.353016],[-3.0169043,53.3554973]]],"type":"Polygon"},"id":"E02001501","properties":{"code":"E02001501","geography":"MSOA","name":"Wirral 035"},"type":"Feature"},{"geometry":{"coordinates":[[[-2.9586594,53.333166],[-2.9731818,53.3530082],[-2.9895794,53.3640914],[-2.9961327,53.359405],[-2.9919618,53.3533169],[-3.0075276,53.353016],[-3.0112096,53.3455834],[-3.0006001,53.3442122],[-2.9961448,53.3447047],[-2.9918544,53.334737],[-2.9837746,53.3351513],[-2.9849412,53.3391001],[-2.9812344,53.3366281],[-2.9839492,53.3408238],[-2.9789123,53.3384744],[-2.9760124,53.3409821],[-2.9730887,53.3377178],[-2.9671907,53.3414135],[-2.9625639,53.3367137],[-2.9647145,53.3323407],[-2.9586594,53.333166]]],"type":"Polygon"},"id":"E02001502","properties":{"code":"E02001502","geography":"MSOA","name":"Wirral 036"},"type":"Feature"},{"geometry":{"coordinates":[[[-3.1026125,53.3456052],[-3.1121516,53.3447571],[-3.1092011,53.3471447],[-3.1124757,53.3472554],[-3.1184951,53.3412624],[-3.1278103,53.3388943],[-3.1184043,53.3366557],[-3.1203067,53.3329623],[-3.1150877,53.3308901],[-3.1062943,53.3311615],[-3.1011037,53.3249441],[-3.0947855,53.3275417],[-3.0909452,53.3251813],[-3.0901701,53.3325044],[-3.0964307,53.3370955],[-3.1026125,53.3456052]]],"type":"Polygon"},"id":"E02001503","properties":{"code":"E02001503","geography":"MSOA","name":"Wirral 037"},"type":"Feature"},{"geometry":{"coordinates":[[[-3.0006001,53.3442122],[-3.0051335,53.340254],[-3.0138181,53.3435974],[-3.0138127,53.3404924],[-3.0219082,53.3375451],[-3.0358577,53.3368737],[-3.0437288,53.3449913],[-3.06479,53.3406514],[-3.0682802,53.346056],[-3.0719072,53.3357632],[-3.0725986,53.3158209],[-3.0596597,53.308988],[-3.0483913,53.3109449],[-3.0296986,53.2989553],[-3.0127829,53.2989339],[-2.9901218,53.3065966],[-2.9894634,53.3127984],[-2.9950121,53.3178983],[-2.9896917,53.3204219],[-2.9917988,53.3261278],[-2.987271,53.3230584],[-2.9918544,53.334737],[-2.9961448,53.3447047],[-3.0006001,53.3442122]]],"type":"Polygon"},"id":"E02001504","properties":{"code":"E02001504","geography":"MSOA","name":"Wirral 038"},"type":"Feature"},{"geometry":{"coordinates":[[[-2.9586594,53.333166],[-2.9647145,53.3323407],[-2.9625639,53.3367137],[-2.9671907,53.3414135],[-2.9730887,53.3377178],[-2.9760124,53.3409821],[-2.9789123,53.3384744],[-2.9839492,53.3408238],[-2.9812344,53.3366281],[-2.9849412,53.3391001],[-2.9837746,53.3351513],[-2.9918544,53.334737],[-2.987271,53.3230584],[-2.9707279,53.3245573],[-2.972034,53.3266988],[-2.9583658,53.3327647],[-2.9586594,53.333166]]],"type":"Polygon"},"id":"E02001505","properties":{"code":"E02001505","geography":"MSOA","name":"Wirral 039"},"type":"Feature"},{"geometry":{"coordinates":[[[-3.0964307,53.3370955],[-3.0901701,53.3325044],[-3.0909452,53.3251813],[-3.0947855,53.3275417],[-3.1011037,53.3249441],[-3.1062943,53.3311615],[-3.1150877,53.3308901],[-3.1203067,53.3329623],[-3.1184043,53.3366557],[-3.1278103,53.3388943],[-3.138918,53.3343937],[-3.1387838,53.3343057],[-3.1378852,53.3337164],[-3.1223408,53.3225258],[-3.1203476,53.311668],[-3.1200152,53.3098568],[-3.1158362,53.3048288],[-3.1069766,53.3021247],[-3.1164011,53.3032432],[-3.1107236,53.2962825],[-3.109453,53.2970048],[-3.1090236,53.2972478],[-3.10529,53.2985319],[-3.0725986,53.3158209],[-3.0719072,53.3357632],[-3.0849979,53.3359835],[-3.0915447,53.3391055],[-3.0964307,53.3370955]]],"type":"Polygon"},"id":"E02001506","properties":{"code":"E02001506","geography":"MSOA","name":"Wirral 040"},"type":"Feature"},{"geometry":{"coordinates":[[[-2.987271,53.3230584],[-2.9917988,53.3261278],[-2.9896917,53.3204219],[-2.9950121,53.3178983],[-2.9894634,53.3127984],[-2.9901218,53.3065966],[-2.9800878,53.3046268],[-2.9743183,53.3096677],[-2.9790243,53.3101745],[-2.9782908,53.3169547],[-2.9720521,53.3200779],[-2.9645986,53.318867],[-2.9707279,53.3245573],[-2.987271,53.3230584]]],"type":"Polygon"},"id":"E02001507","properties":{"code":"E02001507","geography":"MSOA","name":"Wirral 041"},"type":"Feature"},{"geometry":{"coordinates":[[[-2.928764,53.3083905],[-2.9346972,53.3132675],[-2.9581293,53.3325148],[-2.9582638,53.3326252],[-2.9583658,53.3327647],[-2.972034,53.3266988],[-2.9707279,53.3245573],[-2.9645986,53.318867],[-2.9720521,53.3200779],[-2.9782908,53.3169547],[-2.9790243,53.3101745],[-2.9743183,53.3096677],[-2.9800878,53.3046268],[-2.9680334,53.3012391],[-2.9465871,53.30551],[-2.9395513,53.3103992],[-2.9316028,53.3060524],[-2.928764,53.3083905]]],"type":"Polygon"},"id":"E02001508","properties":{"code":"E02001508","geography":"MSOA","name":"Wirral 042"},"type":"Feature"}],"type":"FeatureCollection"}
