{"features":[{"geometry":{"coordinates":[[[-2.0740272,52.5498448],[-2.0780497,52.5569097],[-2.082198,52.5525152],[-2.089033,52.5514656],[-2.094408,52.5479322],[-2.0862918,52.5442085],[-2.086174,52.5314187],[-2.0786489,52.5298804],[-2.0792985,52.5353971],[-2.0759557,52.5341487],[-2.073104,52.5418438],[-2.0740272,52.5498448]]],"type":"Polygon"},"id":"E02002000","properties":{"code":"E02002000","geography":"MSOA","name":"Dudley 001"},"type":"Feature"},{"geometry":{"coordinates":[[[-2.1144663,52.5473044],[-2.1215332,52.5568001],[-2.123918,52.5495414],[-2.1334186,52.5466106],[-2.1237483,52.5382438],[-2.1209287,52.5402187],[-2.1194221,52.5382235],[-2.1164149,52.5362389],[-2.1140984,52.539175],[-2.1064932,52.5383119],[-2.1025482,52.5412245],[-2.1055679,52.5456834],[-2.1082503,52.5439302],[-2.1144663,52.5473044]]],"type":"Polygon"},"id":"E02002001","properties":{"code":"E02002001","geography":"MSOA","name":"Dudley 002"},"type":"Feature"},{"geometry":{"coordinates":[[[-2.1215332,52.5568001],[-2.127604,52.5581916],[-2.1283877,52.5538217],[-2.1334929,52.5540514],[-2.1391567,52.5480499],[-2.135429,52.5348415],[-2.1403574,52.5322065],[-2.1317095,52.5297867],[-2.1254241,52.5288088],[-2.1205534,52.5318208],[-2.1194221,52.5382235],[-2.1209287,52.5402187],[-2.1237483,52.5382438],[-2.1334186,52.5466106],[-2.123918,52.5495414],[-2.1215332,52.5568001]]],"type":"Polygon"},"id":"E02002002","properties":{"code":"E02002002","geography":"MSOA","name":"Dudley 003"},"type":"Feature"},{"geometry":{"coordinates":[[[-2.086174,52.5314187],[-2.0862918,52.5442085],[-2.094408,52.5479322],[-2.1055679,52.5456834],[-2.1025482,52.5412245],[-2.1064932,52.5383119],[-2.0984306,52.5321561],[-2.0889559,52.5259014],[-2.0848973,52.5276698],[-2.086174,52.5314187]]],"type":"Polygon"},"id":"E02002003","properties":{"code":"E02002003","geography":"MSOA","name":"Dudley 004"},"type":"Feature"},{"geometry":{"coordinates":[[[-2.1064932,52.5383119],[-2.1140984,52.539175],[-2.1164149,52.5362389],[-2.1194221,52.5382235],[-2.1205534,52.5318208],[-2.1135468,52.5260491],[-2.1152981,52.5310315],[-2.1098316,52.529695],[-2.1095776,52.5245013],[-2.1070254,52.5233198],[-2.0998412,52.5239616],[-2.0984306,52.5321561],[-2.1064932,52.5383119]]],"type":"Polygon"},"id":"E02002004","properties":{"code":"E02002004","geography":"MSOA","name":"Dudley 005"},"type":"Feature"},{"geometry":{"coordinates":[[[-2.086174,52.5314187],[-2.0848973,52.5276698],[-2.0889559,52.5259014],[-2.0984306,52.5321561],[-2.0998412,52.5239616],[-2.1070254,52.5233198],[-2.093188,52.5176673],[-2.0815874,52.510939],[-2.0632374,52.5136943],[-2.066112,52.517066],[-2.0663069,52.5173297],[-2.0796317,52.5240966],[-2.0786489,52.5298804],[-2.086174,52.5314187]]],"type":"Polygon"},"id":"E02002005","properties":{"code":"E02002005","geography":"MSOA","name":"Dudley 006"},"type":"Feature"},{"geometry":{"coordinates":[[[-2.1095776,52.5245013],[-2.1098316,52.529695],[-2.1152981,52.5310315],[-2.1135468,52.5260491],[-2.1205534,52.5318208],[-2.1254241,52.5288088],[-2.1317095,52.5297867],[-2.1231181,52.5249512],[-2.1268472,52.5205555],[-2.1222687,52.5185218],[-2.1289733,52.5142393],[-2.1195316,52.514785],[-2.1163381,52.5229383],[-2.1095776,52.5245013]]],"type":"Polygon"},"id":"E02002006","properties":{"code":"E02002006","geography":"MSOA","name":"Dudley 007"},"type":"Feature"},{"geometry":{"coordinates":[[[-2.1317095,52.5297867],[-2.1403574,52.5322065],[-2.1519948,52.526184],[-2.144589,52.5213697],[-2.1486987,52.5147764],[-2.1472195,52.5134927],[-2.1327548,52.5085592],[-2.1287397,52.5086872],[-2.1289733,52.5142393],[-2.1222687,52.5185218],[-2.1268472,52.5205555],[-2.1231181,52.5249512],[-2.1317095,52.5297867]]],"type":"Polygon"},"id":"E02002007","properties":{"code":"E02002007","geography":"MSOA","name":"Dudley 008"},"type":"Feature"},{"geometry":{"coordinates":[[[-2.1070254,52.5233198],[-2.1095776,52.5245013],[-2.1163381,52.5229383],[-2.1195316,52.514785],[-2.1289733,52.5142393],[-2.1287397,52.5086872],[-2.1327548,52.5085592],[-2.1318172,52.5063084],[-2.1195663,52.5115938],[-2.1034304,52.5092718],[-2.0992098,52.5181415],[-2.093188,52.5176673],[-2.1070254,52.5233198]]],"type":"Polygon"},"id":"E02002008","properties":{"code":"E02002008","geography":"MSOA","name":"Dudley 009"},"type":"Feature"},{"geometry":{"coordinates":[[[-2.0571866,52.5122132],[-2.0632374,52.5136943],[-2.0815874,52.510939],[-2.0837354,52.5097919],[-2.0748988,52.5089914],[-2.0737529,52.504635],[-2.0686962,52.5051666],[-2.0677809,52.5014639],[-2.0633845,52.5015223],[-2.0614358,52.5072054],[-2.0571866,52.5122132]]],"type":"Polygon"},"id":"E02002009","properties":{"code":"E02002009","geography":"MSOA","name":"Dudley 010"},"type":"Feature"},{"geometry":{"coordinates":[[[-2.093188,52.5176673],[-2.0992098,52.5181415],[-2.1034304,52.5092718],[-2.1006557,52.5084549],[-2.1055235,52.5089765],[-2.1034135,52.5066648],[-2.1079068,52.5037951],[-2.1023778,52.499318],[-2.108407,52.4993638],[-2.1072621,52.4967695],[-2.1011898,52.4942776],[-2.0979977,52.4970383],[-2.0934815,52.4973228],[-2.0914205,52.5003788],[-2.0985216,52.5019716],[-2.0906594,52.5070261],[-2.0837354,52.5097919],[-2.0815874,52.510939],[-2.093188,52.5176673]]],"type":"Polygon"},"id":"E02002010","properties":{"code":"E02002010","geography":"MSOA","name":"Dudley 011"},"type":"Feature"},{"geometry":{"coordinates":[[[-2.1472195,52.5134927],[-2.1486987,52.5147764],[-2.1647283,52.5145887],[-2.1626282,52.5119262],[-2.1751552,52.5107162],[-2.1805005,52.5069772],[-2.1657507,52.4975887],[-2.1425122,52.5023366],[-2.1416217,52.5075634],[-2.1472195,52.5134927]]],"type":"Polygon"},"id":"E02002011","properties":{"code":"E02002011","geography":"MSOA","name":"Dudley 012"},"type":"Feature"},{"geometry":{"coordinates":[[[-2.1034304,52.5092718],[-2.1195663,52.5115938],[-2.1318172,52.5063084],[-2.1314169,52.5052114],[-2.1300179,52.5008417],[-2.1249947,52.5012561],[-2.1266591,52.4970268],[-2.1189447,52.4974865],[-2.1152657,52.4941898],[-2.1124496,52.4988585],[-2.1127794,52.4945146],[-2.1072621,52.4967695],[-2.108407,52.4993638],[-2.1023778,52.499318],[-2.1079068,52.5037951],[-2.1034135,52.5066648],[-2.1055235,52.5089765],[-2.1006557,52.5084549],[-2.1034304,52.5092718]]],"type":"Polygon"},"id":"E02002012","properties":{"code":"E02002012","geography":"MSOA","name":"Dudley 013"},"type":"Feature"},{"geometry":{"coordinates":[[[-2.1657507,52.4975887],[-2.1805005,52.5069772],[-2.1751552,52.5107162],[-2.1626282,52.5119262],[-2.1647283,52.5145887],[-2.1875965,52.508525],[-2.1866248,52.5047725],[-2.1917539,52.5033826],[-2.184789,52.5003326],[-2.1886649,52.4944929],[-2.1851814,52.4947987],[-2.1740943,52.4961371],[-2.1716372,52.4929621],[-2.1671716,52.4948764],[-2.1657507,52.4975887]]],"type":"Polygon"},"id":"E02002013","properties":{"code":"E02002013","geography":"MSOA","name":"Dudley 014"},"type":"Feature"},{"geometry":{"coordinates":[[[-2.0633845,52.5015223],[-2.0677809,52.5014639],[-2.0686962,52.5051666],[-2.0737529,52.504635],[-2.0748988,52.5089914],[-2.0837354,52.5097919],[-2.0906594,52.5070261],[-2.0911296,52.5008213],[-2.0850408,52.503584],[-2.0851126,52.4980748],[-2.0702841,52.4918431],[-2.0633845,52.5015223]]],"type":"Polygon"},"id":"E02002014","properties":{"code":"E02002014","geography":"MSOA","name":"Dudley 015"},"type":"Feature"},{"geometry":{"coordinates":[[[-2.1327548,52.5085592],[-2.1472195,52.5134927],[-2.1416217,52.5075634],[-2.1425122,52.5023366],[-2.1657507,52.4975887],[-2.1671716,52.4948764],[-2.1628242,52.4973825],[-2.1572862,52.49281],[-2.1446357,52.4938402],[-2.1405768,52.4905372],[-2.1425336,52.4941322],[-2.1363357,52.4958406],[-2.1376979,52.4992288],[-2.1318514,52.5006109],[-2.1347554,52.5032595],[-2.1314169,52.5052114],[-2.1318172,52.5063084],[-2.1327548,52.5085592]]],"type":"Polygon"},"id":"E02002015","properties":{"code":"E02002015","geography":"MSOA","name":"Dudley 016"},"type":"Feature"},{"geometry":{"coordinates":[[[-2.1072621,52.4967695],[-2.1127794,52.4945146],[-2.1124496,52.4988585],[-2.1152657,52.4941898],[-2.1189447,52.4974865],[-2.1266591,52.4970268],[-2.1249947,52.5012561],[-2.1300179,52.5008417],[-2.1314169,52.5052114],[-2.1347554,52.5032595],[-2.1318514,52.5006109],[-2.1376979,52.4992288],[-2.1363357,52.4958406],[-2.1425336,52.4941322],[-2.1405768,52.4905372],[-2.139995,52.4901123],[-2.1364361,52.4872229],[-2.1257555,52.4859283],[-2.1087036,52.4929528],[-2.1069211,52.4904171],[-2.0984747,52.4921387],[-2.0979977,52.4970383],[-2.1011898,52.4942776],[-2.1072621,52.4967695]]],"type":"Polygon"},"id":"E02002016","properties":{"code":"E02002016","geography":"MSOA","name":"Dudley 017"},"type":"Feature"},{"geometry":{"coordinates":[[[-2.0702841,52.4918431],[-2.0851126,52.4980748],[-2.0850408,52.503584],[-2.0911296,52.5008213],[-2.0906594,52.5070261],[-2.0985216,52.5019716],[-2.0914205,52.5003788],[-2.0934815,52.4973228],[-2.0979977,52.4970383],[-2.0984747,52.4921387],[-2.0871346,52.4927061],[-2.0823262,52.4842657],[-2.0727518,52.4790721],[-2.0668773,52.4854054],[-2.0642608,52.4871159],[-2.0702841,52.4918431]]],"type":"Polygon"},"id":"E02002017","properties":{"code":"E02002017","geography":"MSOA","name":"Dudley 018"},"type":"Feature"},{"geometry":{"coordinates":[[[-2.1405768,52.4905372],[-2.1446357,52.4938402],[-2.1572862,52.49281],[-2.1628242,52.4973825],[-2.1671716,52.4948764],[-2.1716372,52.4929621],[-2.1740943,52.4961371],[-2.1851814,52.4947987],[-2.1776828,52.4849656],[-2.1647169,52.4825524],[-2.161638,52.489069],[-2.139995,52.4901123],[-2.1405768,52.4905372]]],"type":"Polygon"},"id":"E02002018","properties":{"code":"E02002018","geography":"MSOA","name":"Dudley 019"},"type":"Feature"},{"geometry":{"coordinates":[[[-2.0727518,52.4790721],[-2.0823262,52.4842657],[-2.0871346,52.4927061],[-2.0984747,52.4921387],[-2.1069211,52.4904171],[-2.1061532,52.4809286],[-2.0885806,52.4800458],[-2.0908714,52.4770414],[-2.0844874,52.4801027],[-2.0798901,52.4785318],[-2.0819702,52.4759195],[-2.0800541,52.4763773],[-2.0727518,52.4790721]]],"type":"Polygon"},"id":"E02002019","properties":{"code":"E02002019","geography":"MSOA","name":"Dudley 020"},"type":"Feature"},{"geometry":{"coordinates":[[[-2.1364361,52.4872229],[-2.139995,52.4901123],[-2.161638,52.489069],[-2.1647169,52.4825524],[-2.1776828,52.4849656],[-2.1760607,52.4770092],[-2.174468,52.4817153],[-2.1724059,52.4784483],[-2.1576698,52.4762267],[-2.1417234,52.4834436],[-2.1364361,52.4872229]]],"type":"Polygon"},"id":"E02002020","properties":{"code":"E02002020","geography":"MSOA","name":"Dudley 021"},"type":"Feature"},{"geometry":{"coordinates":[[[-2.1069211,52.4904171],[-2.1087036,52.4929528],[-2.1257555,52.4859283],[-2.1364361,52.4872229],[-2.1417234,52.4834436],[-2.1287136,52.4820496],[-2.1319591,52.4755552],[-2.1257769,52.4753862],[-2.1089516,52.4735703],[-2.1061532,52.4809286],[-2.1069211,52.4904171]]],"type":"Polygon"},"id":"E02002021","properties":{"code":"E02002021","geography":"MSOA","name":"Dudley 022"},"type":"Feature"},{"geometry":{"coordinates":[[[-2.1257769,52.4753862],[-2.1319591,52.4755552],[-2.1287136,52.4820496],[-2.1417234,52.4834436],[-2.1576698,52.4762267],[-2.1549719,52.4709387],[-2.1588855,52.4695206],[-2.1436164,52.4677069],[-2.1420627,52.4732504],[-2.1337172,52.4730151],[-2.1257769,52.4753862]]],"type":"Polygon"},"id":"E02002022","properties":{"code":"E02002022","geography":"MSOA","name":"Dudley 023"},"type":"Feature"},{"geometry":{"coordinates":[[[-2.1576698,52.4762267],[-2.1724059,52.4784483],[-2.174468,52.4817153],[-2.1760607,52.4770092],[-2.167537,52.4711318],[-2.1589592,52.4694824],[-2.1588855,52.4695206],[-2.1549719,52.4709387],[-2.1576698,52.4762267]]],"type":"Polygon"},"id":"E02002023","properties":{"code":"E02002023","geography":"MSOA","name":"Dudley 024"},"type":"Feature"},{"geometry":{"coordinates":[[[-2.0819702,52.4759195],[-2.0798901,52.4785318],[-2.0844874,52.4801027],[-2.0908714,52.4770414],[-2.0885806,52.4800458],[-2.1061532,52.4809286],[-2.1089516,52.4735703],[-2.1164064,52.4623636],[-2.1133279,52.4610584],[-2.1043113,52.463656],[-2.1011024,52.4706045],[-2.0970967,52.4683834],[-2.0942604,52.4735649],[-2.0819702,52.4759195]]],"type":"Polygon"},"id":"E02002024","properties":{"code":"E02002024","geography":"MSOA","name":"Dudley 025"},"type":"Feature"},{"geometry":{"coordinates":[[[-2.02035,52.4764679],[-2.0227303,52.4805827],[-2.0445263,52.4708209],[-2.0475029,52.4674998],[-2.0401273,52.461577],[-2.0389614,52.4548136],[-2.0371637,52.4563526],[-2.0332767,52.4604942],[-2.037525,52.4624729],[-2.030983,52.46383],[-2.0309777,52.4686571],[-2.0248469,52.4696201],[-2.0196805,52.4668532],[-2.0217137,52.4706106],[-2.0179306,52.4711507],[-2.023642,52.4752492],[-2.02035,52.4764679]]],"type":"Polygon"},"id":"E02002025","properties":{"code":"E02002025","geography":"MSOA","name":"Dudley 026"},"type":"Feature"},{"geometry":{"coordinates":[[[-2.1089516,52.4735703],[-2.1257769,52.4753862],[-2.1337172,52.4730151],[-2.1234497,52.4689083],[-2.1277528,52.4673629],[-2.1254502,52.4636385],[-2.1320588,52.4615307],[-2.1281066,52.4599897],[-2.1164064,52.4623636],[-2.1089516,52.4735703]]],"type":"Polygon"},"id":"E02002026","properties":{"code":"E02002026","geography":"MSOA","name":"Dudley 027"},"type":"Feature"},{"geometry":{"coordinates":[[[-2.1337172,52.4730151],[-2.1420627,52.4732504],[-2.1436164,52.4677069],[-2.1366964,52.4608139],[-2.1320588,52.4615307],[-2.1254502,52.4636385],[-2.1277528,52.4673629],[-2.1234497,52.4689083],[-2.1337172,52.4730151]]],"type":"Polygon"},"id":"E02002027","properties":{"code":"E02002027","geography":"MSOA","name":"Dudley 028"},"type":"Feature"},{"geometry":{"coordinates":[[[-2.1589592,52.4694824],[-2.167537,52.4711318],[-2.1749287,52.4585641],[-2.1674027,52.4575071],[-2.1640664,52.461275],[-2.1577117,52.4615217],[-2.1589592,52.4694824]]],"type":"Polygon"},"id":"E02002028","properties":{"code":"E02002028","geography":"MSOA","name":"Dudley 029"},"type":"Feature"},{"geometry":{"coordinates":[[[-2.0131789,52.4621703],[-2.02035,52.4764679],[-2.023642,52.4752492],[-2.0179306,52.4711507],[-2.0217137,52.4706106],[-2.0196805,52.4668532],[-2.0248469,52.4696201],[-2.0309777,52.4686571],[-2.030983,52.46383],[-2.037525,52.4624729],[-2.0332767,52.4604942],[-2.0371637,52.4563526],[-2.023383,52.4540328],[-2.0182883,52.4582385],[-2.0220745,52.4580492],[-2.021976,52.4625686],[-2.0131789,52.4621703]]],"type":"Polygon"},"id":"E02002029","properties":{"code":"E02002029","geography":"MSOA","name":"Dudley 030"},"type":"Feature"},{"geometry":{"coordinates":[[[-2.1436164,52.4677069],[-2.1588855,52.4695206],[-2.1589592,52.4694824],[-2.1577117,52.4615217],[-2.1339951,52.4572656],[-2.1335527,52.4538478],[-2.1232285,52.4535074],[-2.1216229,52.454088],[-2.1281066,52.4599897],[-2.1320588,52.4615307],[-2.1366964,52.4608139],[-2.1436164,52.4677069]]],"type":"Polygon"},"id":"E02002030","properties":{"code":"E02002030","geography":"MSOA","name":"Dudley 031"},"type":"Feature"},{"geometry":{"coordinates":[[[-2.0970967,52.4683834],[-2.1011024,52.4706045],[-2.1043113,52.463656],[-2.1133279,52.4610584],[-2.1099021,52.4499356],[-2.10022,52.451919],[-2.0986122,52.4577651],[-2.1030027,52.4591439],[-2.0888665,52.4612026],[-2.086181,52.466747],[-2.0970967,52.4683834]]],"type":"Polygon"},"id":"E02002031","properties":{"code":"E02002031","geography":"MSOA","name":"Dudley 032"},"type":"Feature"},{"geometry":{"coordinates":[[[-2.0708175,52.4609369],[-2.086181,52.466747],[-2.0888665,52.4612026],[-2.1030027,52.4591439],[-2.0986122,52.4577651],[-2.10022,52.451919],[-2.0952264,52.4486528],[-2.0744871,52.4525012],[-2.0708175,52.4609369]]],"type":"Polygon"},"id":"E02002032","properties":{"code":"E02002032","geography":"MSOA","name":"Dudley 033"},"type":"Feature"},{"geometry":{"coordinates":[[[-2.0389614,52.4548136],[-2.0401273,52.461577],[-2.0475029,52.4674998],[-2.0546944,52.4634708],[-2.0708175,52.4609369],[-2.0744871,52.4525012],[-2.0687819,52.4461396],[-2.0625203,52.4479723],[-2.0671683,52.4503344],[-2.0661045,52.4539171],[-2.0563707,52.4506953],[-2.0545372,52.4532745],[-2.0531609,52.4489258],[-2.0408383,52.4535829],[-2.0389614,52.4548136]]],"type":"Polygon"},"id":"E02002033","properties":{"code":"E02002033","geography":"MSOA","name":"Dudley 034"},"type":"Feature"},{"geometry":{"coordinates":[[[-2.1335527,52.4538478],[-2.1339951,52.4572656],[-2.1577117,52.4615217],[-2.1640664,52.461275],[-2.1674027,52.4575071],[-2.1572737,52.4520325],[-2.1506889,52.450485],[-2.1430695,52.4509103],[-2.142229,52.4550847],[-2.1373552,52.4496489],[-2.1335527,52.4538478]]],"type":"Polygon"},"id":"E02002034","properties":{"code":"E02002034","geography":"MSOA","name":"Dudley 035"},"type":"Feature"},{"geometry":{"coordinates":[[[-2.0131789,52.4621703],[-2.021976,52.4625686],[-2.0220745,52.4580492],[-2.0182883,52.4582385],[-2.023383,52.4540328],[-2.0371637,52.4563526],[-2.0389614,52.4548136],[-2.0408383,52.4535829],[-2.0358555,52.4463881],[-2.0473047,52.4452021],[-2.0474371,52.4402728],[-2.0371588,52.4407743],[-2.0369945,52.4275312],[-2.0297132,52.4272869],[-2.0247722,52.4348674],[-2.0169969,52.4326683],[-2.0171653,52.4393216],[-2.0119219,52.4524841],[-2.0131789,52.4621703]]],"type":"Polygon"},"id":"E02002035","properties":{"code":"E02002035","geography":"MSOA","name":"Dudley 036"},"type":"Feature"},{"geometry":{"coordinates":[[[-2.1133279,52.4610584],[-2.1164064,52.4623636],[-2.1281066,52.4599897],[-2.1216229,52.454088],[-2.1158674,52.4465839],[-2.118057,52.444255],[-2.1087633,52.4412277],[-2.1052555,52.4441935],[-2.0932862,52.445268],[-2.0952264,52.4486528],[-2.10022,52.451919],[-2.1099021,52.4499356],[-2.1133279,52.4610584]]],"type":"Polygon"},"id":"E02002036","properties":{"code":"E02002036","geography":"MSOA","name":"Dudley 037"},"type":"Feature"},{"geometry":{"coordinates":[[[-2.1674027,52.4575071],[-2.1749287,52.4585641],[-2.1735553,52.4468428],[-2.1687915,52.4438545],[-2.1627508,52.4470857],[-2.1651241,52.4424794],[-2.1615928,52.4458522],[-2.1527696,52.4456988],[-2.1592966,52.45017],[-2.1537773,52.4496418],[-2.1572737,52.4520325],[-2.1674027,52.4575071]]],"type":"Polygon"},"id":"E02002037","properties":{"code":"E02002037","geography":"MSOA","name":"Dudley 038"},"type":"Feature"},{"geometry":{"coordinates":[[[-2.0408383,52.4535829],[-2.0531609,52.4489258],[-2.0545372,52.4532745],[-2.0563707,52.4506953],[-2.0661045,52.4539171],[-2.0671683,52.4503344],[-2.0625203,52.4479723],[-2.0687819,52.4461396],[-2.0592692,52.4399697],[-2.0474371,52.4402728],[-2.0473047,52.4452021],[-2.0358555,52.4463881],[-2.0408383,52.4535829]]],"type":"Polygon"},"id":"E02002038","properties":{"code":"E02002038","geography":"MSOA","name":"Dudley 039"},"type":"Feature"},{"geometry":{"coordinates":[[[-2.1335527,52.4538478],[-2.1373552,52.4496489],[-2.142229,52.4550847],[-2.1430695,52.4509103],[-2.1506889,52.450485],[-2.1405266,52.4483837],[-2.140443,52.4387266],[-2.136576,52.4418503],[-2.1355378,52.4387112],[-2.1283748,52.4376851],[-2.1255781,52.4424114],[-2.1227675,52.4412785],[-2.1292203,52.4510696],[-2.1232285,52.4535074],[-2.1335527,52.4538478]]],"type":"Polygon"},"id":"E02002039","properties":{"code":"E02002039","geography":"MSOA","name":"Dudley 040"},"type":"Feature"},{"geometry":{"coordinates":[[[-2.1506889,52.450485],[-2.1572737,52.4520325],[-2.1537773,52.4496418],[-2.1592966,52.45017],[-2.1527696,52.4456988],[-2.1615928,52.4458522],[-2.1651241,52.4424794],[-2.1627508,52.4470857],[-2.1687915,52.4438545],[-2.1735553,52.4468428],[-2.1648564,52.4301896],[-2.1435509,52.4260455],[-2.140443,52.4387266],[-2.1405266,52.4483837],[-2.1506889,52.450485]]],"type":"Polygon"},"id":"E02002040","properties":{"code":"E02002040","geography":"MSOA","name":"Dudley 041"},"type":"Feature"},{"geometry":{"coordinates":[[[-2.1087633,52.4412277],[-2.118057,52.444255],[-2.1158674,52.4465839],[-2.1216229,52.454088],[-2.1232285,52.4535074],[-2.1292203,52.4510696],[-2.1227675,52.4412785],[-2.1255781,52.4424114],[-2.1283748,52.4376851],[-2.1355378,52.4387112],[-2.136576,52.4418503],[-2.140443,52.4387266],[-2.1435509,52.4260455],[-2.1360323,52.4262539],[-2.1297026,52.4321961],[-2.1175243,52.4339296],[-2.1087633,52.4412277]]],"type":"Polygon"},"id":"E02002041","properties":{"code":"E02002041","geography":"MSOA","name":"Dudley 042"},"type":"Feature"},{"geometry":{"coordinates":[[[-2.0687819,52.4461396],[-2.0744871,52.4525012],[-2.0952264,52.4486528],[-2.0932862,52.445268],[-2.086056,52.4329105],[-2.0798978,52.4322575],[-2.068058,52.4351805],[-2.0675524,52.4325439],[-2.0623557,52.4324408],[-2.065793,52.4280724],[-2.0607191,52.4275231],[-2.0592692,52.4399697],[-2.0687819,52.4461396]]],"type":"Polygon"},"id":"E02002042","properties":{"code":"E02002042","geography":"MSOA","name":"Dudley 043"},"type":"Feature"}],"type":"FeatureCollection"}
