{"features":[{"geometry":{"coordinates":[[[-2.1433744,53.4447934],[-2.1550042,53.4515927],[-2.1635886,53.4450206],[-2.1569264,53.4387479],[-2.1445376,53.4436119],[-2.1433744,53.4447934]]],"type":"Polygon"},"id":"E02001187","properties":{"code":"E02001187","geography":"MSOA","name":"Stockport 001"},"type":"Feature"},{"geometry":{"coordinates":[[[-2.1550042,53.4515927],[-2.1584419,53.4548794],[-2.1614241,53.4518326],[-2.1659578,53.453745],[-2.171978,53.4483038],[-2.173994,53.4436564],[-2.1748262,53.4367872],[-2.1772044,53.4330878],[-2.1737099,53.4328612],[-2.1569264,53.4387479],[-2.1635886,53.4450206],[-2.1550042,53.4515927]]],"type":"Polygon"},"id":"E02001188","properties":{"code":"E02001188","geography":"MSOA","name":"Stockport 002"},"type":"Feature"},{"geometry":{"coordinates":[[[-2.1416736,53.4384529],[-2.1445376,53.4436119],[-2.1569264,53.4387479],[-2.1737099,53.4328612],[-2.1704221,53.4311798],[-2.1734801,53.4271934],[-2.16821,53.425068],[-2.162444,53.4298426],[-2.1604578,53.4259802],[-2.1470429,53.426322],[-2.1489867,53.4321351],[-2.1416736,53.4384529]]],"type":"Polygon"},"id":"E02001189","properties":{"code":"E02001189","geography":"MSOA","name":"Stockport 003"},"type":"Feature"},{"geometry":{"coordinates":[[[-2.1336116,53.43817],[-2.1416736,53.4384529],[-2.1489867,53.4321351],[-2.1470429,53.426322],[-2.142649,53.4274492],[-2.1421946,53.4234412],[-2.1354003,53.4242598],[-2.1351976,53.4211318],[-2.1298427,53.4207654],[-2.1269792,53.4307773],[-2.1336116,53.43817]]],"type":"Polygon"},"id":"E02001190","properties":{"code":"E02001190","geography":"MSOA","name":"Stockport 004"},"type":"Feature"},{"geometry":{"coordinates":[[[-2.0820946,53.4266523],[-2.0860151,53.4295464],[-2.0840375,53.4340809],[-2.0927944,53.4375467],[-2.0978041,53.4368694],[-2.0970647,53.4334274],[-2.1070008,53.4335978],[-2.1051941,53.4282245],[-2.1005405,53.4279757],[-2.1042163,53.4268644],[-2.1032857,53.4219017],[-2.0976866,53.4216626],[-2.0835374,53.4239806],[-2.0820946,53.4266523]]],"type":"Polygon"},"id":"E02001191","properties":{"code":"E02001191","geography":"MSOA","name":"Stockport 005"},"type":"Feature"},{"geometry":{"coordinates":[[[-2.1772044,53.4330878],[-2.1874635,53.4366265],[-2.1913539,53.435112],[-2.1921581,53.4323533],[-2.1850597,53.4328574],[-2.181951,53.4290529],[-2.1894626,53.4228419],[-2.186837,53.421043],[-2.1817402,53.4238705],[-2.1783982,53.4202678],[-2.1753296,53.4211415],[-2.16821,53.425068],[-2.1734801,53.4271934],[-2.1704221,53.4311798],[-2.1737099,53.4328612],[-2.1772044,53.4330878]]],"type":"Polygon"},"id":"E02001192","properties":{"code":"E02001192","geography":"MSOA","name":"Stockport 006"},"type":"Feature"},{"geometry":{"coordinates":[[[-2.1470429,53.426322],[-2.1604578,53.4259802],[-2.162444,53.4298426],[-2.16821,53.425068],[-2.1753296,53.4211415],[-2.1656249,53.4092006],[-2.1628401,53.4095009],[-2.1593693,53.4125888],[-2.1682114,53.41519],[-2.1608392,53.4153987],[-2.1589867,53.4190311],[-2.1513209,53.4186191],[-2.1474193,53.4237977],[-2.1421946,53.4234412],[-2.142649,53.4274492],[-2.1470429,53.426322]]],"type":"Polygon"},"id":"E02001193","properties":{"code":"E02001193","geography":"MSOA","name":"Stockport 007"},"type":"Feature"},{"geometry":{"coordinates":[[[-2.1783982,53.4202678],[-2.1817402,53.4238705],[-2.186837,53.421043],[-2.1894626,53.4228419],[-2.181951,53.4290529],[-2.1850597,53.4328574],[-2.1921581,53.4323533],[-2.1931856,53.4276532],[-2.1993889,53.4268681],[-2.2092981,53.4184478],[-2.209708,53.4179418],[-2.1861116,53.4175246],[-2.1833948,53.4205912],[-2.1783982,53.4202678]]],"type":"Polygon"},"id":"E02001194","properties":{"code":"E02001194","geography":"MSOA","name":"Stockport 008"},"type":"Feature"},{"geometry":{"coordinates":[[[-2.1070008,53.4335978],[-2.11581,53.4406702],[-2.1204168,53.4364409],[-2.123326,53.4410159],[-2.1228845,53.4377369],[-2.1336116,53.43817],[-2.1269792,53.4307773],[-2.1298427,53.4207654],[-2.1351976,53.4211318],[-2.1366876,53.415602],[-2.1390273,53.4119041],[-2.1244266,53.4138042],[-2.106941,53.4193004],[-2.1067959,53.4223313],[-2.1003277,53.4185511],[-2.0976145,53.4205004],[-2.0976866,53.4216626],[-2.1032857,53.4219017],[-2.1042163,53.4268644],[-2.1005405,53.4279757],[-2.1051941,53.4282245],[-2.1070008,53.4335978]]],"type":"Polygon"},"id":"E02001195","properties":{"code":"E02001195","geography":"MSOA","name":"Stockport 009"},"type":"Feature"},{"geometry":{"coordinates":[[[-2.0378116,53.4271483],[-2.0557789,53.4317326],[-2.0747211,53.4259202],[-2.0820946,53.4266523],[-2.0835374,53.4239806],[-2.0976866,53.4216626],[-2.0976145,53.4205004],[-2.0980002,53.4135984],[-2.0903695,53.4134083],[-2.0941867,53.4112251],[-2.0889126,53.4062688],[-2.0778728,53.408163],[-2.0703091,53.4030306],[-2.0676781,53.4081406],[-2.0585684,53.4091547],[-2.0611731,53.4139875],[-2.0484497,53.4125381],[-2.0434288,53.4149284],[-2.0434517,53.4193544],[-2.0343547,53.4252339],[-2.0378116,53.4271483]]],"type":"Polygon"},"id":"E02001196","properties":{"code":"E02001196","geography":"MSOA","name":"Stockport 010"},"type":"Feature"},{"geometry":{"coordinates":[[[-2.1656249,53.4092006],[-2.1753296,53.4211415],[-2.1783982,53.4202678],[-2.1833948,53.4205912],[-2.1861116,53.4175246],[-2.1830041,53.4161919],[-2.1903401,53.4140841],[-2.190974,53.405859],[-2.1795181,53.4065667],[-2.1656249,53.4092006]]],"type":"Polygon"},"id":"E02001197","properties":{"code":"E02001197","geography":"MSOA","name":"Stockport 011"},"type":"Feature"},{"geometry":{"coordinates":[[[-2.0976145,53.4205004],[-2.1003277,53.4185511],[-2.1067959,53.4223313],[-2.106941,53.4193004],[-2.1244266,53.4138042],[-2.1226058,53.4115643],[-2.1274285,53.4094236],[-2.123028,53.40568],[-2.0984227,53.3985165],[-2.0968629,53.403075],[-2.0929016,53.4011726],[-2.0889126,53.4062688],[-2.0941867,53.4112251],[-2.0903695,53.4134083],[-2.0980002,53.4135984],[-2.0976145,53.4205004]]],"type":"Polygon"},"id":"E02001198","properties":{"code":"E02001198","geography":"MSOA","name":"Stockport 012"},"type":"Feature"},{"geometry":{"coordinates":[[[-2.209708,53.4179418],[-2.2134878,53.4189247],[-2.2126917,53.4069661],[-2.2069932,53.4051621],[-2.190974,53.405859],[-2.1903401,53.4140841],[-2.1830041,53.4161919],[-2.1861116,53.4175246],[-2.209708,53.4179418]]],"type":"Polygon"},"id":"E02001199","properties":{"code":"E02001199","geography":"MSOA","name":"Stockport 013"},"type":"Feature"},{"geometry":{"coordinates":[[[-2.1351976,53.4211318],[-2.1354003,53.4242598],[-2.1421946,53.4234412],[-2.1474193,53.4237977],[-2.1513209,53.4186191],[-2.1589867,53.4190311],[-2.1608392,53.4153987],[-2.1682114,53.41519],[-2.1593693,53.4125888],[-2.1628401,53.4095009],[-2.1587275,53.4051963],[-2.1666991,53.4018451],[-2.1629594,53.4001416],[-2.1587177,53.3976158],[-2.1540765,53.3994319],[-2.154719,53.406755],[-2.1451008,53.4095598],[-2.1366876,53.415602],[-2.1351976,53.4211318]]],"type":"Polygon"},"id":"E02001200","properties":{"code":"E02001200","geography":"MSOA","name":"Stockport 014"},"type":"Feature"},{"geometry":{"coordinates":[[[-2.1244266,53.4138042],[-2.1390273,53.4119041],[-2.1366876,53.415602],[-2.1451008,53.4095598],[-2.1392686,53.4047642],[-2.1407414,53.4014654],[-2.13673,53.4012985],[-2.1300507,53.4011198],[-2.123028,53.40568],[-2.1274285,53.4094236],[-2.1226058,53.4115643],[-2.1244266,53.4138042]]],"type":"Polygon"},"id":"E02001201","properties":{"code":"E02001201","geography":"MSOA","name":"Stockport 015"},"type":"Feature"},{"geometry":{"coordinates":[[[-2.1629594,53.4001416],[-2.1666991,53.4018451],[-2.1587275,53.4051963],[-2.1628401,53.4095009],[-2.1656249,53.4092006],[-2.1795181,53.4065667],[-2.1732163,53.3966223],[-2.1714119,53.3957185],[-2.1629594,53.4001416]]],"type":"Polygon"},"id":"E02001202","properties":{"code":"E02001202","geography":"MSOA","name":"Stockport 016"},"type":"Feature"},{"geometry":{"coordinates":[[[-1.9923317,53.4151769],[-2.0136988,53.4158737],[-2.0237113,53.4205356],[-2.0197259,53.4251025],[-2.0262251,53.4297859],[-2.0378116,53.4271483],[-2.0343547,53.4252339],[-2.0434517,53.4193544],[-2.0434288,53.4149284],[-2.0484497,53.4125381],[-2.0611731,53.4139875],[-2.0585684,53.4091547],[-2.0676781,53.4081406],[-2.0703091,53.4030306],[-2.0660958,53.3969103],[-2.0537618,53.4019041],[-2.0529225,53.3999973],[-2.0512979,53.3958591],[-2.0403535,53.3937434],[-2.0478523,53.3909425],[-2.0423485,53.3898352],[-2.0452825,53.3782786],[-2.0339312,53.3720307],[-2.0310596,53.3702461],[-2.0337761,53.3755256],[-2.021473,53.3750432],[-2.0170849,53.3778166],[-2.0197156,53.3805794],[-2.0046442,53.3863114],[-2.0050209,53.3928324],[-1.9923317,53.4151769]]],"type":"Polygon"},"id":"E02001203","properties":{"code":"E02001203","geography":"MSOA","name":"Stockport 017"},"type":"Feature"},{"geometry":{"coordinates":[[[-2.1732163,53.3966223],[-2.1795181,53.4065667],[-2.190974,53.405859],[-2.2069932,53.4051621],[-2.2011276,53.3976353],[-2.1861245,53.3968902],[-2.1732163,53.3966223]]],"type":"Polygon"},"id":"E02001204","properties":{"code":"E02001204","geography":"MSOA","name":"Stockport 018"},"type":"Feature"},{"geometry":{"coordinates":[[[-2.13673,53.4012985],[-2.1407414,53.4014654],[-2.1392686,53.4047642],[-2.1451008,53.4095598],[-2.154719,53.406755],[-2.1540765,53.3994319],[-2.147983,53.3943957],[-2.1427613,53.3909091],[-2.1374526,53.3944862],[-2.1406702,53.3964958],[-2.1345009,53.397285],[-2.13673,53.4012985]]],"type":"Polygon"},"id":"E02001205","properties":{"code":"E02001205","geography":"MSOA","name":"Stockport 019"},"type":"Feature"},{"geometry":{"coordinates":[[[-2.0703091,53.4030306],[-2.0778728,53.408163],[-2.0889126,53.4062688],[-2.0929016,53.4011726],[-2.0968629,53.403075],[-2.0984227,53.3985165],[-2.0873225,53.3888408],[-2.0795403,53.3853301],[-2.0779188,53.3914605],[-2.0654261,53.3893493],[-2.0635455,53.3945386],[-2.053948,53.3955743],[-2.0529225,53.3999973],[-2.0537618,53.4019041],[-2.0660958,53.3969103],[-2.0703091,53.4030306]]],"type":"Polygon"},"id":"E02001206","properties":{"code":"E02001206","geography":"MSOA","name":"Stockport 020"},"type":"Feature"},{"geometry":{"coordinates":[[[-2.0984227,53.3985165],[-2.123028,53.40568],[-2.1300507,53.4011198],[-2.1300578,53.397407],[-2.1190356,53.3964025],[-2.1125593,53.390708],[-2.1070584,53.3814869],[-2.1018394,53.3837164],[-2.0873225,53.3888408],[-2.0984227,53.3985165]]],"type":"Polygon"},"id":"E02001207","properties":{"code":"E02001207","geography":"MSOA","name":"Stockport 021"},"type":"Feature"},{"geometry":{"coordinates":[[[-2.2069932,53.4051621],[-2.2126917,53.4069661],[-2.2252301,53.4013103],[-2.2194299,53.3987858],[-2.221069,53.3942037],[-2.2127737,53.393328],[-2.2114302,53.3975054],[-2.2102553,53.3931123],[-2.1999068,53.3893896],[-2.1943176,53.3863568],[-2.1859635,53.387769],[-2.1861245,53.3968902],[-2.2011276,53.3976353],[-2.2069932,53.4051621]]],"type":"Polygon"},"id":"E02001208","properties":{"code":"E02001208","geography":"MSOA","name":"Stockport 022"},"type":"Feature"},{"geometry":{"coordinates":[[[-2.1540765,53.3994319],[-2.1587177,53.3976158],[-2.1629594,53.4001416],[-2.1714119,53.3957185],[-2.1602791,53.3901579],[-2.1597086,53.3834784],[-2.1583242,53.3830627],[-2.1531156,53.3856777],[-2.1581078,53.3888966],[-2.1541742,53.3890135],[-2.1528496,53.3942966],[-2.147983,53.3943957],[-2.1540765,53.3994319]]],"type":"Polygon"},"id":"E02001209","properties":{"code":"E02001209","geography":"MSOA","name":"Stockport 023"},"type":"Feature"},{"geometry":{"coordinates":[[[-2.1300507,53.4011198],[-2.13673,53.4012985],[-2.1345009,53.397285],[-2.1406702,53.3964958],[-2.1374526,53.3944862],[-2.1345407,53.3961687],[-2.1329971,53.392173],[-2.1279936,53.3922727],[-2.1310394,53.3893791],[-2.1241879,53.3846105],[-2.1125593,53.390708],[-2.1190356,53.3964025],[-2.1300578,53.397407],[-2.1300507,53.4011198]]],"type":"Polygon"},"id":"E02001210","properties":{"code":"E02001210","geography":"MSOA","name":"Stockport 024"},"type":"Feature"},{"geometry":{"coordinates":[[[-2.221069,53.3942037],[-2.2194299,53.3987858],[-2.2252301,53.4013103],[-2.2384673,53.400777],[-2.2424687,53.3990244],[-2.2468678,53.396086],[-2.246235,53.3878342],[-2.2428817,53.3844617],[-2.221069,53.3942037]]],"type":"Polygon"},"id":"E02001211","properties":{"code":"E02001211","geography":"MSOA","name":"Stockport 025"},"type":"Feature"},{"geometry":{"coordinates":[[[-2.1732163,53.3966223],[-2.1861245,53.3968902],[-2.1859635,53.387769],[-2.1763659,53.3867039],[-2.1713209,53.3876865],[-2.1597086,53.3834784],[-2.1602791,53.3901579],[-2.1714119,53.3957185],[-2.1732163,53.3966223]]],"type":"Polygon"},"id":"E02001212","properties":{"code":"E02001212","geography":"MSOA","name":"Stockport 026"},"type":"Feature"},{"geometry":{"coordinates":[[[-2.1241879,53.3846105],[-2.1310394,53.3893791],[-2.1279936,53.3922727],[-2.1329971,53.392173],[-2.1345407,53.3961687],[-2.1374526,53.3944862],[-2.1427613,53.3909091],[-2.147983,53.3943957],[-2.1528496,53.3942966],[-2.1541742,53.3890135],[-2.1581078,53.3888966],[-2.1531156,53.3856777],[-2.1583242,53.3830627],[-2.1554539,53.3823114],[-2.1446636,53.380126],[-2.1345863,53.3781105],[-2.1279714,53.3848581],[-2.1241879,53.3846105]]],"type":"Polygon"},"id":"E02001213","properties":{"code":"E02001213","geography":"MSOA","name":"Stockport 027"},"type":"Feature"},{"geometry":{"coordinates":[[[-2.1999068,53.3893896],[-2.2102553,53.3931123],[-2.2114302,53.3975054],[-2.2127737,53.393328],[-2.221069,53.3942037],[-2.2428817,53.3844617],[-2.2411352,53.379485],[-2.2204105,53.3813545],[-2.2127539,53.386106],[-2.2041421,53.3833347],[-2.1999068,53.3893896]]],"type":"Polygon"},"id":"E02001214","properties":{"code":"E02001214","geography":"MSOA","name":"Stockport 028"},"type":"Feature"},{"geometry":{"coordinates":[[[-2.0339312,53.3720307],[-2.0452825,53.3782786],[-2.0423485,53.3898352],[-2.0478523,53.3909425],[-2.0403535,53.3937434],[-2.0512979,53.3958591],[-2.0529225,53.3999973],[-2.053948,53.3955743],[-2.0635455,53.3945386],[-2.0654261,53.3893493],[-2.0779188,53.3914605],[-2.0795403,53.3853301],[-2.0853063,53.3690991],[-2.0748438,53.3809443],[-2.070838,53.3721748],[-2.0594955,53.3740896],[-2.0520282,53.3673763],[-2.0405645,53.3740716],[-2.0339312,53.3720307]]],"type":"Polygon"},"id":"E02001215","properties":{"code":"E02001215","geography":"MSOA","name":"Stockport 029"},"type":"Feature"},{"geometry":{"coordinates":[[[-2.1859635,53.387769],[-2.1943176,53.3863568],[-2.1999068,53.3893896],[-2.2041421,53.3833347],[-2.2127539,53.386106],[-2.2204105,53.3813545],[-2.2172167,53.3763461],[-2.2102545,53.3809078],[-2.2092582,53.3771214],[-2.203613,53.3787732],[-2.190973,53.3737996],[-2.1828469,53.3809836],[-2.1763659,53.3867039],[-2.1859635,53.387769]]],"type":"Polygon"},"id":"E02001216","properties":{"code":"E02001216","geography":"MSOA","name":"Stockport 030"},"type":"Feature"},{"geometry":{"coordinates":[[[-2.1070584,53.3814869],[-2.1125593,53.390708],[-2.1241879,53.3846105],[-2.1279714,53.3848581],[-2.1345863,53.3781105],[-2.1135395,53.3729583],[-2.1070584,53.3814869]]],"type":"Polygon"},"id":"E02001217","properties":{"code":"E02001217","geography":"MSOA","name":"Stockport 031"},"type":"Feature"},{"geometry":{"coordinates":[[[-2.1597086,53.3834784],[-2.1713209,53.3876865],[-2.1763659,53.3867039],[-2.1828469,53.3809836],[-2.1756958,53.3776829],[-2.1808673,53.369653],[-2.1761769,53.36725],[-2.1790935,53.3639415],[-2.1654466,53.3618245],[-2.1636078,53.3608641],[-2.161149,53.378009],[-2.1554539,53.3823114],[-2.1583242,53.3830627],[-2.1597086,53.3834784]]],"type":"Polygon"},"id":"E02001218","properties":{"code":"E02001218","geography":"MSOA","name":"Stockport 032"},"type":"Feature"},{"geometry":{"coordinates":[[[-2.1345863,53.3781105],[-2.1446636,53.380126],[-2.1504732,53.3734434],[-2.1390268,53.3672937],[-2.1322096,53.3649458],[-2.1225553,53.3729428],[-2.1135395,53.3729583],[-2.1345863,53.3781105]]],"type":"Polygon"},"id":"E02001219","properties":{"code":"E02001219","geography":"MSOA","name":"Stockport 033"},"type":"Feature"},{"geometry":{"coordinates":[[[-2.190973,53.3737996],[-2.203613,53.3787732],[-2.2092582,53.3771214],[-2.2102545,53.3809078],[-2.2172167,53.3763461],[-2.2168814,53.374917],[-2.2117389,53.3736864],[-2.2106337,53.3669399],[-2.2035661,53.3678707],[-2.2027737,53.3630374],[-2.188438,53.3697595],[-2.190973,53.3737996]]],"type":"Polygon"},"id":"E02001220","properties":{"code":"E02001220","geography":"MSOA","name":"Stockport 034"},"type":"Feature"},{"geometry":{"coordinates":[[[-2.1144072,53.3646235],[-2.1114336,53.3709858],[-2.1063924,53.3692368],[-2.1043855,53.3753726],[-2.0972889,53.3778992],[-2.1018394,53.3837164],[-2.1070584,53.3814869],[-2.1135395,53.3729583],[-2.1225553,53.3729428],[-2.1322096,53.3649458],[-2.1231964,53.3619299],[-2.1144072,53.3646235]]],"type":"Polygon"},"id":"E02001221","properties":{"code":"E02001221","geography":"MSOA","name":"Stockport 035"},"type":"Feature"},{"geometry":{"coordinates":[[[-2.2172167,53.3763461],[-2.2204105,53.3813545],[-2.2411352,53.379485],[-2.2370343,53.3700487],[-2.2398255,53.3621142],[-2.2261947,53.365295],[-2.2261616,53.3693266],[-2.2208203,53.3683254],[-2.2218822,53.3725058],[-2.2168814,53.374917],[-2.2172167,53.3763461]]],"type":"Polygon"},"id":"E02001222","properties":{"code":"E02001222","geography":"MSOA","name":"Stockport 036"},"type":"Feature"},{"geometry":{"coordinates":[[[-2.1446636,53.380126],[-2.1554539,53.3823114],[-2.161149,53.378009],[-2.1636078,53.3608641],[-2.1425334,53.3541725],[-2.138197,53.3568742],[-2.1390268,53.3672937],[-2.1504732,53.3734434],[-2.1446636,53.380126]]],"type":"Polygon"},"id":"E02001223","properties":{"code":"E02001223","geography":"MSOA","name":"Stockport 037"},"type":"Feature"},{"geometry":{"coordinates":[[[-2.0795403,53.3853301],[-2.0873225,53.3888408],[-2.1018394,53.3837164],[-2.0972889,53.3778992],[-2.1043855,53.3753726],[-2.1063924,53.3692368],[-2.1114336,53.3709858],[-2.1144072,53.3646235],[-2.1040889,53.3659588],[-2.095034,53.3660427],[-2.0837579,53.3595372],[-2.0680781,53.3573773],[-2.0596772,53.3588936],[-2.0520282,53.3673763],[-2.0594955,53.3740896],[-2.070838,53.3721748],[-2.0748438,53.3809443],[-2.0853063,53.3690991],[-2.0795403,53.3853301]]],"type":"Polygon"},"id":"E02001224","properties":{"code":"E02001224","geography":"MSOA","name":"Stockport 038"},"type":"Feature"},{"geometry":{"coordinates":[[[-2.1808673,53.369653],[-2.1756958,53.3776829],[-2.1828469,53.3809836],[-2.190973,53.3737996],[-2.188438,53.3697595],[-2.2027737,53.3630374],[-2.2082926,53.3549801],[-2.1906334,53.3532389],[-2.1830286,53.3536085],[-2.1871008,53.3569082],[-2.1827329,53.3603888],[-2.1882873,53.3605338],[-2.1887856,53.3661827],[-2.1808673,53.369653]]],"type":"Polygon"},"id":"E02001225","properties":{"code":"E02001225","geography":"MSOA","name":"Stockport 039"},"type":"Feature"},{"geometry":{"coordinates":[[[-2.2027737,53.3630374],[-2.2035661,53.3678707],[-2.2106337,53.3669399],[-2.2117389,53.3736864],[-2.2168814,53.374917],[-2.2218822,53.3725058],[-2.2208203,53.3683254],[-2.2261616,53.3693266],[-2.2261947,53.365295],[-2.2398255,53.3621142],[-2.2407805,53.3595553],[-2.232982,53.3587787],[-2.2161429,53.3588501],[-2.2082926,53.3549801],[-2.2027737,53.3630374]]],"type":"Polygon"},"id":"E02001226","properties":{"code":"E02001226","geography":"MSOA","name":"Stockport 040"},"type":"Feature"},{"geometry":{"coordinates":[[[-2.1654466,53.3618245],[-2.1790935,53.3639415],[-2.1761769,53.36725],[-2.1808673,53.369653],[-2.1887856,53.3661827],[-2.1882873,53.3605338],[-2.1827329,53.3603888],[-2.1871008,53.3569082],[-2.1830286,53.3536085],[-2.1906334,53.3532389],[-2.1854155,53.3525614],[-2.1758059,53.3489391],[-2.1697419,53.3501318],[-2.1663626,53.3526317],[-2.1702208,53.3516457],[-2.176242,53.3554606],[-2.173208,53.3592315],[-2.1673389,53.3571944],[-2.1691258,53.3605434],[-2.1654466,53.3618245]]],"type":"Polygon"},"id":"E02001227","properties":{"code":"E02001227","geography":"MSOA","name":"Stockport 041"},"type":"Feature"},{"geometry":{"coordinates":[[[-2.1636078,53.3608641],[-2.1654466,53.3618245],[-2.1691258,53.3605434],[-2.1673389,53.3571944],[-2.173208,53.3592315],[-2.176242,53.3554606],[-2.1702208,53.3516457],[-2.1663626,53.3526317],[-2.1697419,53.3501318],[-2.1758059,53.3489391],[-2.1854155,53.3525614],[-2.1880158,53.3487199],[-2.1809777,53.3440271],[-2.1941636,53.3386337],[-2.1848771,53.3326744],[-2.1538905,53.3277999],[-2.1468111,53.3400816],[-2.1440995,53.3428539],[-2.1511901,53.3481153],[-2.1425334,53.3541725],[-2.1636078,53.3608641]]],"type":"Polygon"},"id":"E02001228","properties":{"code":"E02001228","geography":"MSOA","name":"Stockport 042"},"type":"Feature"}],"type":"FeatureCollection"}
