{"features":[{"geometry":{"coordinates":[[[-1.5917384,55.0394638],[-1.6245577,55.0400194],[-1.6255047,55.0353865],[-1.6473323,55.0234112],[-1.6471981,55.0234149],[-1.6418555,55.0229567],[-1.64138,55.0176873],[-1.635224,55.0142609],[-1.6298222,55.013288],[-1.6333926,55.0110212],[-1.629354,55.0091453],[-1.6207563,55.012246],[-1.6100319,55.016543],[-1.6010627,55.0097353],[-1.6004558,55.0097413],[-1.5991086,55.0175487],[-1.5887621,55.0278826],[-1.5917384,55.0394638]]],"type":"Polygon"},"id":"E02001709","properties":{"code":"E02001709","geography":"MSOA","name":"Newcastle upon Tyne 002"},"type":"Feature"},{"geometry":{"coordinates":[[[-1.635224,55.0142609],[-1.64138,55.0176873],[-1.6418555,55.0229567],[-1.6471981,55.0234149],[-1.6578453,55.0139202],[-1.6621458,55.0100842],[-1.6590354,55.0061974],[-1.6412119,55.0067299],[-1.635224,55.0142609]]],"type":"Polygon"},"id":"E02001710","properties":{"code":"E02001710","geography":"MSOA","name":"Newcastle upon Tyne 003"},"type":"Feature"},{"geometry":{"coordinates":[[[-1.6563643,55.0249824],[-1.6650026,55.0244791],[-1.667662,55.0411052],[-1.6788403,55.0386599],[-1.6802541,55.0412938],[-1.6872445,55.0398455],[-1.6949021,55.0428871],[-1.7086392,55.042254],[-1.716929,55.0386192],[-1.7144335,55.0340173],[-1.7269093,55.0331458],[-1.7393072,55.0295889],[-1.7400187,55.0245746],[-1.7502315,55.0240142],[-1.7568631,55.0078107],[-1.7379493,55.012228],[-1.721105,55.0095078],[-1.7128858,55.0100117],[-1.7118218,55.0072666],[-1.6837128,54.9988084],[-1.6802855,55.0036731],[-1.6735207,55.0026336],[-1.675707,55.0042816],[-1.6718378,55.0048408],[-1.6671612,55.0019429],[-1.6657027,55.0089422],[-1.6801831,55.0102472],[-1.666464,55.0221837],[-1.659249,55.0210391],[-1.6563643,55.0249824]]],"type":"Polygon"},"id":"E02001711","properties":{"code":"E02001711","geography":"MSOA","name":"Newcastle upon Tyne 004"},"type":"Feature"},{"geometry":{"coordinates":[[[-1.6010627,55.0097353],[-1.6100319,55.016543],[-1.6207563,55.012246],[-1.6156495,55.0092983],[-1.6157896,55.0024312],[-1.6252055,55.0039251],[-1.6272368,55.001248],[-1.6190279,55.0005382],[-1.6229934,54.9987036],[-1.6162253,54.9954579],[-1.6090658,54.9987488],[-1.5977009,54.9975621],[-1.6043017,55.0009159],[-1.6010627,55.0097353]]],"type":"Polygon"},"id":"E02001712","properties":{"code":"E02001712","geography":"MSOA","name":"Newcastle upon Tyne 005"},"type":"Feature"},{"geometry":{"coordinates":[[[-1.6207563,55.012246],[-1.629354,55.0091453],[-1.6333926,55.0110212],[-1.6298222,55.013288],[-1.635224,55.0142609],[-1.6412119,55.0067299],[-1.6384395,55.0020645],[-1.6433576,54.9983632],[-1.6396576,54.999533],[-1.640921,54.9972789],[-1.6286316,54.9950987],[-1.6163682,54.9953841],[-1.6162253,54.9954579],[-1.6229934,54.9987036],[-1.6190279,55.0005382],[-1.6272368,55.001248],[-1.6252055,55.0039251],[-1.6157896,55.0024312],[-1.6156495,55.0092983],[-1.6207563,55.012246]]],"type":"Polygon"},"id":"E02001713","properties":{"code":"E02001713","geography":"MSOA","name":"Newcastle upon Tyne 006"},"type":"Feature"},{"geometry":{"coordinates":[[[-1.5584896,55.0055363],[-1.5719662,55.0039158],[-1.5791999,55.0097848],[-1.6004558,55.0097413],[-1.6010627,55.0097353],[-1.6043017,55.0009159],[-1.5977009,54.9975621],[-1.5926237,54.989651],[-1.5886029,54.9937028],[-1.5917247,54.9978552],[-1.586667,54.999368],[-1.5703756,55.0003337],[-1.5602649,54.9964008],[-1.5584896,55.0055363]]],"type":"Polygon"},"id":"E02001714","properties":{"code":"E02001714","geography":"MSOA","name":"Newcastle upon Tyne 007"},"type":"Feature"},{"geometry":{"coordinates":[[[-1.6578453,55.0139202],[-1.6661414,55.0144161],[-1.6657027,55.0089422],[-1.6671612,55.0019429],[-1.6630085,54.9966012],[-1.6561316,54.9896249],[-1.6386264,54.9887369],[-1.6286316,54.9950987],[-1.640921,54.9972789],[-1.6396576,54.999533],[-1.6433576,54.9983632],[-1.6384395,55.0020645],[-1.6412119,55.0067299],[-1.6590354,55.0061974],[-1.6621458,55.0100842],[-1.6578453,55.0139202]]],"type":"Polygon"},"id":"E02001715","properties":{"code":"E02001715","geography":"MSOA","name":"Newcastle upon Tyne 008"},"type":"Feature"},{"geometry":{"coordinates":[[[-1.6671612,55.0019429],[-1.6718378,55.0048408],[-1.675707,55.0042816],[-1.6735207,55.0026336],[-1.6802855,55.0036731],[-1.6837128,54.9988084],[-1.6797542,54.9951007],[-1.6691519,54.9899361],[-1.6640249,54.9908143],[-1.6664833,54.9947668],[-1.6630085,54.9966012],[-1.6671612,55.0019429]]],"type":"Polygon"},"id":"E02001718","properties":{"code":"E02001718","geography":"MSOA","name":"Newcastle upon Tyne 011"},"type":"Feature"},{"geometry":{"coordinates":[[[-1.5602649,54.9964008],[-1.5703756,55.0003337],[-1.586667,54.999368],[-1.5917247,54.9978552],[-1.5886029,54.9937028],[-1.5926237,54.989651],[-1.5889569,54.9888803],[-1.5850621,54.9869576],[-1.5821432,54.9858425],[-1.5772088,54.9867794],[-1.5811218,54.9919715],[-1.577015,54.9930349],[-1.5736316,54.9895886],[-1.5651194,54.9889103],[-1.5630569,54.9915575],[-1.5625567,54.9922332],[-1.5605332,54.9959455],[-1.5602649,54.9964008]]],"type":"Polygon"},"id":"E02001719","properties":{"code":"E02001719","geography":"MSOA","name":"Newcastle upon Tyne 012"},"type":"Feature"},{"geometry":{"coordinates":[[[-1.5977009,54.9975621],[-1.6090658,54.9987488],[-1.6162253,54.9954579],[-1.6163682,54.9953841],[-1.6137745,54.9872075],[-1.6056629,54.9878542],[-1.603969,54.9928302],[-1.5948078,54.989607],[-1.5966865,54.9878438],[-1.5889569,54.9888803],[-1.5926237,54.989651],[-1.5977009,54.9975621]]],"type":"Polygon"},"id":"E02001720","properties":{"code":"E02001720","geography":"MSOA","name":"Newcastle upon Tyne 013"},"type":"Feature"},{"geometry":{"coordinates":[[[[-1.7651244,54.9806686],[-1.7656501,54.9806577],[-1.7654043,54.9806386],[-1.7651244,54.9806686]]],[[[-1.7278062,55.0032226],[-1.721105,55.0095078],[-1.7379493,55.012228],[-1.7568631,55.0078107],[-1.7566624,55.0023098],[-1.7738006,55.0039626],[-1.7756721,54.9896233],[-1.7700507,54.9814223],[-1.7698012,54.9813816],[-1.7524428,54.9834354],[-1.7390978,54.9797228],[-1.7381096,54.9793899],[-1.7283187,54.9760915],[-1.7231999,54.991458],[-1.7299542,54.9950149],[-1.7240487,54.9950859],[-1.7241236,54.9983077],[-1.7180658,54.9985028],[-1.7278062,55.0032226]]]],"type":"MultiPolygon"},"id":"E02001721","properties":{"code":"E02001721","geography":"MSOA","name":"Newcastle upon Tyne 014"},"type":"Feature"},{"geometry":{"coordinates":[[[-1.6821275,54.9931991],[-1.6874111,54.9959287],[-1.7080653,54.9963653],[-1.7096705,54.993443],[-1.7240487,54.9950859],[-1.7299542,54.9950149],[-1.7231999,54.991458],[-1.6937767,54.9849434],[-1.6821275,54.9931991]]],"type":"Polygon"},"id":"E02001722","properties":{"code":"E02001722","geography":"MSOA","name":"Newcastle upon Tyne 015"},"type":"Feature"},{"geometry":{"coordinates":[[[-1.6386264,54.9887369],[-1.6561316,54.9896249],[-1.6630085,54.9966012],[-1.6664833,54.9947668],[-1.6640249,54.9908143],[-1.6691519,54.9899361],[-1.6691554,54.9874297],[-1.656683,54.9838626],[-1.6531474,54.9860106],[-1.6499772,54.9828993],[-1.6413801,54.9848949],[-1.6386264,54.9887369]]],"type":"Polygon"},"id":"E02001723","properties":{"code":"E02001723","geography":"MSOA","name":"Newcastle upon Tyne 016"},"type":"Feature"},{"geometry":{"coordinates":[[[-1.5889569,54.9888803],[-1.5966865,54.9878438],[-1.5948078,54.989607],[-1.603969,54.9928302],[-1.6056629,54.9878542],[-1.6137745,54.9872075],[-1.6075319,54.9812665],[-1.6035701,54.9829939],[-1.5950077,54.9808654],[-1.5899945,54.9873152],[-1.5850621,54.9869576],[-1.5889569,54.9888803]]],"type":"Polygon"},"id":"E02001724","properties":{"code":"E02001724","geography":"MSOA","name":"Newcastle upon Tyne 017"},"type":"Feature"},{"geometry":{"coordinates":[[[-1.5651194,54.9889103],[-1.5736316,54.9895886],[-1.577015,54.9930349],[-1.5811218,54.9919715],[-1.5772088,54.9867794],[-1.5821432,54.9858425],[-1.5839954,54.9791454],[-1.5764709,54.9739602],[-1.573067,54.9754906],[-1.5751947,54.9820696],[-1.5651194,54.9889103]]],"type":"Polygon"},"id":"E02001725","properties":{"code":"E02001725","geography":"MSOA","name":"Newcastle upon Tyne 018"},"type":"Feature"},{"geometry":{"coordinates":[[[-1.6691519,54.9899361],[-1.6797542,54.9951007],[-1.6821275,54.9931991],[-1.6937767,54.9849434],[-1.6827403,54.9821384],[-1.6648318,54.9774874],[-1.6535798,54.9756026],[-1.656683,54.9838626],[-1.6691554,54.9874297],[-1.6691519,54.9899361]]],"type":"Polygon"},"id":"E02001726","properties":{"code":"E02001726","geography":"MSOA","name":"Newcastle upon Tyne 019"},"type":"Feature"},{"geometry":{"coordinates":[[[-1.5305994,54.9840849],[-1.5336862,54.9857426],[-1.5399726,54.9833115],[-1.5404288,54.9898839],[-1.5457679,54.9890177],[-1.5479032,54.9926139],[-1.5523399,54.9897248],[-1.5563442,54.9933639],[-1.5625567,54.9922332],[-1.5630569,54.9915575],[-1.5574606,54.9808737],[-1.5492015,54.9833016],[-1.5474942,54.9809742],[-1.5494771,54.9787026],[-1.5529008,54.9812328],[-1.5540902,54.9750572],[-1.5350676,54.9773887],[-1.5350191,54.9775116],[-1.5308312,54.9840079],[-1.5305994,54.9840849]]],"type":"Polygon"},"id":"E02001727","properties":{"code":"E02001727","geography":"MSOA","name":"Newcastle upon Tyne 020"},"type":"Feature"},{"geometry":{"coordinates":[[[[-1.7000387,54.9698433],[-1.7003705,54.9699463],[-1.7014579,54.9702839],[-1.7028611,54.9695914],[-1.7032162,54.9694162],[-1.7000387,54.9698433]]],[[[-1.6937767,54.9849434],[-1.7231999,54.991458],[-1.7283187,54.9760915],[-1.7260965,54.9753426],[-1.7202235,54.9681951],[-1.7149588,54.9678666],[-1.7148068,54.9678571],[-1.7084663,54.9687101],[-1.7081814,54.9688331],[-1.7025629,54.9712571],[-1.7119887,54.9743054],[-1.6976793,54.9710364],[-1.6972665,54.9708828],[-1.6937767,54.9849434]]]],"type":"MultiPolygon"},"id":"E02001728","properties":{"code":"E02001728","geography":"MSOA","name":"Newcastle upon Tyne 021"},"type":"Feature"},{"geometry":{"coordinates":[[[-1.6413801,54.9848949],[-1.6499772,54.9828993],[-1.6531474,54.9860106],[-1.656683,54.9838626],[-1.6535798,54.9756026],[-1.6429547,54.9738959],[-1.6377047,54.9731211],[-1.6307631,54.9719141],[-1.6369262,54.9757303],[-1.6354703,54.978646],[-1.6301329,54.9777378],[-1.6239865,54.9807459],[-1.6288456,54.9851958],[-1.6360321,54.9815138],[-1.6413801,54.9848949]]],"type":"Polygon"},"id":"E02001729","properties":{"code":"E02001729","geography":"MSOA","name":"Newcastle upon Tyne 022"},"type":"Feature"},{"geometry":{"coordinates":[[[-1.6827403,54.9821384],[-1.6937767,54.9849434],[-1.6972665,54.9708828],[-1.6891358,54.9678553],[-1.6867452,54.966965],[-1.6866933,54.9669481],[-1.6831061,54.9658654],[-1.6739176,54.9652392],[-1.6739545,54.9746231],[-1.6833831,54.9752568],[-1.6872226,54.9785647],[-1.6827403,54.9821384]]],"type":"Polygon"},"id":"E02001732","properties":{"code":"E02001732","geography":"MSOA","name":"Newcastle upon Tyne 025"},"type":"Feature"},{"geometry":{"coordinates":[[[-1.6648318,54.9774874],[-1.6827403,54.9821384],[-1.6872226,54.9785647],[-1.6833831,54.9752568],[-1.6739545,54.9746231],[-1.6739176,54.9652392],[-1.6677012,54.9648151],[-1.6673965,54.9647669],[-1.6569633,54.9631168],[-1.6528266,54.9663918],[-1.647849,54.9658101],[-1.6472044,54.9687972],[-1.665301,54.9721041],[-1.6648318,54.9774874]]],"type":"Polygon"},"id":"E02001734","properties":{"code":"E02001734","geography":"MSOA","name":"Newcastle upon Tyne 027"},"type":"Feature"},{"geometry":{"coordinates":[[[-1.5357227,54.9757265],[-1.5351538,54.9771699],[-1.5350676,54.9773887],[-1.5540902,54.9750572],[-1.5680428,54.9757859],[-1.5654502,54.971748],[-1.5653838,54.9675231],[-1.5604187,54.9664078],[-1.5564535,54.9700399],[-1.5468746,54.9706649],[-1.5475984,54.9753682],[-1.5416696,54.9734383],[-1.5403369,54.9760595],[-1.5357227,54.9757265]]],"type":"Polygon"},"id":"E02001735","properties":{"code":"E02001735","geography":"MSOA","name":"Newcastle upon Tyne 028"},"type":"Feature"},{"geometry":{"coordinates":[[[-1.5357227,54.9757265],[-1.5403369,54.9760595],[-1.5416696,54.9734383],[-1.5475984,54.9753682],[-1.5468746,54.9706649],[-1.5564535,54.9700399],[-1.5604187,54.9664078],[-1.5653838,54.9675231],[-1.5654815,54.9645517],[-1.5551413,54.9604473],[-1.5540177,54.9599983],[-1.5502938,54.960839],[-1.5429898,54.9624874],[-1.5405929,54.9633659],[-1.5357227,54.9757265]]],"type":"Polygon"},"id":"E02001737","properties":{"code":"E02001737","geography":"MSOA","name":"Newcastle upon Tyne 030"},"type":"Feature"},{"geometry":{"coordinates":[[[-1.6837128,54.9988084],[-1.7118218,55.0072666],[-1.7128858,55.0100117],[-1.721105,55.0095078],[-1.7278062,55.0032226],[-1.7180658,54.9985028],[-1.7241236,54.9983077],[-1.7240487,54.9950859],[-1.7096705,54.993443],[-1.7080653,54.9963653],[-1.6874111,54.9959287],[-1.6821275,54.9931991],[-1.6797542,54.9951007],[-1.6837128,54.9988084]]],"type":"Polygon"},"id":"E02006893","properties":{"code":"E02006893","geography":"MSOA","name":"Newcastle upon Tyne 031"},"type":"Feature"},{"geometry":{"coordinates":[[[-1.6378755,55.0647628],[-1.6476672,55.0793826],[-1.6911049,55.0728196],[-1.6913249,55.0697202],[-1.7045997,55.0709268],[-1.7040938,55.0658215],[-1.7137464,55.0654733],[-1.7105265,55.0527442],[-1.6979131,55.0523727],[-1.6949021,55.0428871],[-1.6872445,55.0398455],[-1.6802541,55.0412938],[-1.6788403,55.0386599],[-1.667662,55.0411052],[-1.6650026,55.0244791],[-1.6563643,55.0249824],[-1.6473323,55.0234112],[-1.6255047,55.0353865],[-1.6245577,55.0400194],[-1.6384946,55.0415443],[-1.6387757,55.0454176],[-1.6322255,55.0482314],[-1.6378755,55.0647628]]],"type":"Polygon"},"id":"E02007095","properties":{"code":"E02007095","geography":"MSOA","name":"Newcastle upon Tyne 032"},"type":"Feature"},{"geometry":{"coordinates":[[[-1.6473323,55.0234112],[-1.6563643,55.0249824],[-1.659249,55.0210391],[-1.666464,55.0221837],[-1.6801831,55.0102472],[-1.6657027,55.0089422],[-1.6661414,55.0144161],[-1.6578453,55.0139202],[-1.6471981,55.0234149],[-1.6473323,55.0234112]]],"type":"Polygon"},"id":"E02007096","properties":{"code":"E02007096","geography":"MSOA","name":"Newcastle upon Tyne 033"},"type":"Feature"},{"geometry":{"coordinates":[[[-1.5850621,54.9869576],[-1.5899945,54.9873152],[-1.5950077,54.9808654],[-1.6035701,54.9829939],[-1.6075319,54.9812665],[-1.606403,54.9754263],[-1.5993519,54.9789847],[-1.5912493,54.9769083],[-1.5839954,54.9791454],[-1.5821432,54.9858425],[-1.5850621,54.9869576]]],"type":"Polygon"},"id":"E02007097","properties":{"code":"E02007097","geography":"MSOA","name":"Newcastle upon Tyne 034"},"type":"Feature"},{"geometry":{"coordinates":[[[-1.5540902,54.9750572],[-1.5529008,54.9812328],[-1.5494771,54.9787026],[-1.5474942,54.9809742],[-1.5492015,54.9833016],[-1.5574606,54.9808737],[-1.5630569,54.9915575],[-1.5651194,54.9889103],[-1.5751947,54.9820696],[-1.573067,54.9754906],[-1.5774827,54.9711083],[-1.5654502,54.971748],[-1.5680428,54.9757859],[-1.5540902,54.9750572]]],"type":"Polygon"},"id":"E02007098","properties":{"code":"E02007098","geography":"MSOA","name":"Newcastle upon Tyne 035"},"type":"Feature"},{"geometry":{"coordinates":[[[-1.6137745,54.9872075],[-1.6163682,54.9953841],[-1.6286316,54.9950987],[-1.6386264,54.9887369],[-1.6413801,54.9848949],[-1.6360321,54.9815138],[-1.6288456,54.9851958],[-1.6239865,54.9807459],[-1.6301329,54.9777378],[-1.6189411,54.9704414],[-1.6269304,54.9686818],[-1.6196385,54.9627399],[-1.6064366,54.9677729],[-1.6060455,54.9679628],[-1.606403,54.9754263],[-1.6075319,54.9812665],[-1.6137745,54.9872075]]],"type":"Polygon"},"id":"E02007099","properties":{"code":"E02007099","geography":"MSOA","name":"Newcastle upon Tyne 036"},"type":"Feature"},{"geometry":{"coordinates":[[[[-1.5927421,54.9693787],[-1.5937942,54.9698057],[-1.5940765,54.969921],[-1.5944366,54.9697904],[-1.596746,54.9689527],[-1.5927421,54.9693787]]],[[[-1.5912493,54.9769083],[-1.5993519,54.9789847],[-1.606403,54.9754263],[-1.6060455,54.9679628],[-1.6058969,54.9679786],[-1.6001636,54.9701634],[-1.5887126,54.9705667],[-1.5884213,54.9705769],[-1.5928189,54.9762873],[-1.5898167,54.973768],[-1.5912493,54.9769083]]]],"type":"MultiPolygon"},"id":"E02007100","properties":{"code":"E02007100","geography":"MSOA","name":"Newcastle upon Tyne 037"},"type":"Feature"},{"geometry":{"coordinates":[[[-1.6535798,54.9756026],[-1.6648318,54.9774874],[-1.665301,54.9721041],[-1.6472044,54.9687972],[-1.640701,54.9687291],[-1.6429547,54.9738959],[-1.6535798,54.9756026]]],"type":"Polygon"},"id":"E02007101","properties":{"code":"E02007101","geography":"MSOA","name":"Newcastle upon Tyne 038"},"type":"Feature"},{"geometry":{"coordinates":[[[-1.6301329,54.9777378],[-1.6354703,54.978646],[-1.6369262,54.9757303],[-1.6307631,54.9719141],[-1.6377047,54.9731211],[-1.6363809,54.9669132],[-1.6269304,54.9686818],[-1.6189411,54.9704414],[-1.6301329,54.9777378]]],"type":"Polygon"},"id":"E02007102","properties":{"code":"E02007102","geography":"MSOA","name":"Newcastle upon Tyne 039"},"type":"Feature"},{"geometry":{"coordinates":[[[-1.573067,54.9754906],[-1.5764709,54.9739602],[-1.5839954,54.9791454],[-1.5912493,54.9769083],[-1.5898167,54.973768],[-1.5806469,54.9660707],[-1.565549,54.9645784],[-1.5654815,54.9645517],[-1.5653838,54.9675231],[-1.5654502,54.971748],[-1.5774827,54.9711083],[-1.573067,54.9754906]]],"type":"Polygon"},"id":"E02007103","properties":{"code":"E02007103","geography":"MSOA","name":"Newcastle upon Tyne 040"},"type":"Feature"},{"geometry":{"coordinates":[[[-1.6377047,54.9731211],[-1.6429547,54.9738959],[-1.640701,54.9687291],[-1.6472044,54.9687972],[-1.647849,54.9658101],[-1.6528266,54.9663918],[-1.6569633,54.9631168],[-1.6394418,54.9603434],[-1.6204554,54.9624284],[-1.6196385,54.9627399],[-1.6269304,54.9686818],[-1.6363809,54.9669132],[-1.6377047,54.9731211]]],"type":"Polygon"},"id":"E02007104","properties":{"code":"E02007104","geography":"MSOA","name":"Newcastle upon Tyne 041"},"type":"Feature"}],"type":"FeatureCollection"}
