{"features":[{"geometry":{"coordinates":[[[-1.4603332,52.4552146],[-1.4639293,52.4583002],[-1.4708232,52.4569207],[-1.4830251,52.4580702],[-1.492815,52.4584247],[-1.4943077,52.4526702],[-1.5037659,52.4505204],[-1.4969183,52.4443432],[-1.4923627,52.4497221],[-1.4880375,52.4416644],[-1.483367,52.4441224],[-1.483942,52.4483737],[-1.4772229,52.4460449],[-1.4675649,52.4471496],[-1.4716806,52.4494537],[-1.4603332,52.4552146]]],"type":"Polygon"},"id":"E02001958","properties":{"code":"E02001958","geography":"MSOA","name":"Coventry 001"},"type":"Feature"},{"geometry":{"coordinates":[[[-1.5173468,52.4528573],[-1.5175785,52.4567672],[-1.529686,52.4570712],[-1.5397895,52.4647873],[-1.5539914,52.4565683],[-1.547224,52.4487285],[-1.5516777,52.4439608],[-1.5406305,52.4432034],[-1.5211259,52.4466002],[-1.5256279,52.4439929],[-1.5226583,52.4370316],[-1.5167522,52.4375335],[-1.5191745,52.4429719],[-1.5162286,52.4455919],[-1.5095663,52.4451712],[-1.5173468,52.4528573]]],"type":"Polygon"},"id":"E02001959","properties":{"code":"E02001959","geography":"MSOA","name":"Coventry 002"},"type":"Feature"},{"geometry":{"coordinates":[[[-1.4675649,52.4471496],[-1.4772229,52.4460449],[-1.483942,52.4483737],[-1.483367,52.4441224],[-1.4777712,52.4377228],[-1.4830114,52.4367962],[-1.4825163,52.4319049],[-1.4779256,52.4298381],[-1.4701165,52.4334839],[-1.4675649,52.4471496]]],"type":"Polygon"},"id":"E02001961","properties":{"code":"E02001961","geography":"MSOA","name":"Coventry 004"},"type":"Feature"},{"geometry":{"coordinates":[[[-1.483367,52.4441224],[-1.4880375,52.4416644],[-1.4923627,52.4497221],[-1.4969183,52.4443432],[-1.5012104,52.4390234],[-1.4898965,52.4364558],[-1.4880508,52.4324801],[-1.4857213,52.4301655],[-1.4825163,52.4319049],[-1.4830114,52.4367962],[-1.4777712,52.4377228],[-1.483367,52.4441224]]],"type":"Polygon"},"id":"E02001962","properties":{"code":"E02001962","geography":"MSOA","name":"Coventry 005"},"type":"Feature"},{"geometry":{"coordinates":[[[-1.5226583,52.4370316],[-1.5256279,52.4439929],[-1.5211259,52.4466002],[-1.5406305,52.4432034],[-1.5331738,52.4372377],[-1.5370371,52.4340725],[-1.5331746,52.4307855],[-1.5321299,52.4330088],[-1.5248623,52.431697],[-1.5224723,52.4353708],[-1.5226583,52.4370316]]],"type":"Polygon"},"id":"E02001963","properties":{"code":"E02001963","geography":"MSOA","name":"Coventry 006"},"type":"Feature"},{"geometry":{"coordinates":[[[-1.4590611,52.45514],[-1.4603332,52.4552146],[-1.4716806,52.4494537],[-1.4675649,52.4471496],[-1.4701165,52.4334839],[-1.4602845,52.4296914],[-1.4620063,52.4259236],[-1.4466771,52.4287966],[-1.4526216,52.433111],[-1.4500681,52.4362521],[-1.4581388,52.4353697],[-1.4605499,52.4380256],[-1.4554302,52.4415901],[-1.4545754,52.4389191],[-1.4474405,52.4415808],[-1.4471934,52.4379507],[-1.442331,52.4410872],[-1.4466635,52.4425842],[-1.4436555,52.4474042],[-1.4590611,52.45514]]],"type":"Polygon"},"id":"E02001964","properties":{"code":"E02001964","geography":"MSOA","name":"Coventry 007"},"type":"Feature"},{"geometry":{"coordinates":[[[-1.442331,52.4410872],[-1.4471934,52.4379507],[-1.4474405,52.4415808],[-1.4545754,52.4389191],[-1.4554302,52.4415901],[-1.4605499,52.4380256],[-1.4581388,52.4353697],[-1.4500681,52.4362521],[-1.4526216,52.433111],[-1.4466771,52.4287966],[-1.4439288,52.4251619],[-1.4387662,52.4268985],[-1.4362327,52.4247058],[-1.4374909,52.4273307],[-1.4271025,52.4319987],[-1.4287677,52.4357491],[-1.442331,52.4410872]]],"type":"Polygon"},"id":"E02001965","properties":{"code":"E02001965","geography":"MSOA","name":"Coventry 008"},"type":"Feature"},{"geometry":{"coordinates":[[[-1.4880508,52.4324801],[-1.4898965,52.4364558],[-1.5012104,52.4390234],[-1.5089264,52.426616],[-1.5096769,52.4254242],[-1.5050786,52.4219064],[-1.4985447,52.4295383],[-1.4880508,52.4324801]]],"type":"Polygon"},"id":"E02001966","properties":{"code":"E02001966","geography":"MSOA","name":"Coventry 009"},"type":"Feature"},{"geometry":{"coordinates":[[[-1.5539914,52.4565683],[-1.5684298,52.4560726],[-1.5898719,52.4618962],[-1.5949301,52.4606739],[-1.5954962,52.4559037],[-1.595238,52.4399107],[-1.6082801,52.4388252],[-1.6065609,52.4309695],[-1.6114019,52.4320839],[-1.6144589,52.4279527],[-1.6064623,52.4253711],[-1.6112257,52.4223328],[-1.602158,52.4160169],[-1.6005646,52.4197289],[-1.6039319,52.4200315],[-1.6002853,52.4220061],[-1.5878498,52.4179552],[-1.5801429,52.4178266],[-1.5739387,52.4262617],[-1.57029,52.4218765],[-1.5514553,52.4196873],[-1.5484346,52.4234412],[-1.553405,52.4250389],[-1.5408092,52.429818],[-1.5355107,52.4325998],[-1.5331746,52.4307855],[-1.5370371,52.4340725],[-1.5331738,52.4372377],[-1.5406305,52.4432034],[-1.5516777,52.4439608],[-1.547224,52.4487285],[-1.5539914,52.4565683]]],"type":"Polygon"},"id":"E02001967","properties":{"code":"E02001967","geography":"MSOA","name":"Coventry 010"},"type":"Feature"},{"geometry":{"coordinates":[[[-1.5012104,52.4390234],[-1.504395,52.4416958],[-1.5167522,52.4375335],[-1.5226583,52.4370316],[-1.5224723,52.4353708],[-1.516446,52.4342466],[-1.5216525,52.4274292],[-1.5173351,52.4254956],[-1.5184865,52.4203177],[-1.5140718,52.421357],[-1.513399,52.4275625],[-1.5089264,52.426616],[-1.5012104,52.4390234]]],"type":"Polygon"},"id":"E02001968","properties":{"code":"E02001968","geography":"MSOA","name":"Coventry 011"},"type":"Feature"},{"geometry":{"coordinates":[[[-1.5184865,52.4203177],[-1.5173351,52.4254956],[-1.5216525,52.4274292],[-1.516446,52.4342466],[-1.5224723,52.4353708],[-1.5248623,52.431697],[-1.5291948,52.4186672],[-1.5268531,52.4170748],[-1.5246283,52.4213409],[-1.5184865,52.4203177]]],"type":"Polygon"},"id":"E02001969","properties":{"code":"E02001969","geography":"MSOA","name":"Coventry 012"},"type":"Feature"},{"geometry":{"coordinates":[[[-1.4466771,52.4287966],[-1.4620063,52.4259236],[-1.4602845,52.4296914],[-1.4701165,52.4334839],[-1.4779256,52.4298381],[-1.473652,52.423219],[-1.4692386,52.4204704],[-1.465101,52.4190355],[-1.4672088,52.4211611],[-1.4466085,52.4234601],[-1.4439288,52.4251619],[-1.4466771,52.4287966]]],"type":"Polygon"},"id":"E02001970","properties":{"code":"E02001970","geography":"MSOA","name":"Coventry 013"},"type":"Feature"},{"geometry":{"coordinates":[[[-1.5248623,52.431697],[-1.5321299,52.4330088],[-1.5331746,52.4307855],[-1.5355107,52.4325998],[-1.5408092,52.429818],[-1.5344225,52.4211919],[-1.5399808,52.4180517],[-1.5291948,52.4186672],[-1.5248623,52.431697]]],"type":"Polygon"},"id":"E02001971","properties":{"code":"E02001971","geography":"MSOA","name":"Coventry 014"},"type":"Feature"},{"geometry":{"coordinates":[[[-1.4857213,52.4301655],[-1.4880508,52.4324801],[-1.4985447,52.4295383],[-1.5050786,52.4219064],[-1.5096769,52.4254242],[-1.5125356,52.4209264],[-1.5056121,52.4213104],[-1.5092481,52.41304],[-1.4979133,52.4196426],[-1.4909565,52.4175991],[-1.4868049,52.4222425],[-1.4857213,52.4301655]]],"type":"Polygon"},"id":"E02001972","properties":{"code":"E02001972","geography":"MSOA","name":"Coventry 015"},"type":"Feature"},{"geometry":{"coordinates":[[[-1.4779256,52.4298381],[-1.4825163,52.4319049],[-1.4857213,52.4301655],[-1.4868049,52.4222425],[-1.4873491,52.4131491],[-1.4853095,52.4119984],[-1.473652,52.423219],[-1.4779256,52.4298381]]],"type":"Polygon"},"id":"E02001973","properties":{"code":"E02001973","geography":"MSOA","name":"Coventry 016"},"type":"Feature"},{"geometry":{"coordinates":[[[-1.5291948,52.4186672],[-1.5399808,52.4180517],[-1.5344225,52.4211919],[-1.5408092,52.429818],[-1.553405,52.4250389],[-1.5484346,52.4234412],[-1.5514553,52.4196873],[-1.5456447,52.4139422],[-1.529985,52.408504],[-1.5297279,52.4085341],[-1.5229654,52.4134815],[-1.5268531,52.4170748],[-1.5291948,52.4186672]]],"type":"Polygon"},"id":"E02001974","properties":{"code":"E02001974","geography":"MSOA","name":"Coventry 017"},"type":"Feature"},{"geometry":{"coordinates":[[[-1.4552934,52.4095099],[-1.4563892,52.4139521],[-1.4633847,52.4151531],[-1.4545464,52.4166351],[-1.4458386,52.4209599],[-1.4466085,52.4234601],[-1.4672088,52.4211611],[-1.465101,52.4190355],[-1.4692386,52.4204704],[-1.4670466,52.4179525],[-1.4722694,52.418045],[-1.4661409,52.4100369],[-1.4595258,52.4095766],[-1.4552934,52.4095099]]],"type":"Polygon"},"id":"E02001975","properties":{"code":"E02001975","geography":"MSOA","name":"Coventry 018"},"type":"Feature"},{"geometry":{"coordinates":[[[-1.4373408,52.4080536],[-1.4243274,52.4309621],[-1.4287677,52.4357491],[-1.4271025,52.4319987],[-1.4374909,52.4273307],[-1.4362327,52.4247058],[-1.4387662,52.4268985],[-1.4439288,52.4251619],[-1.4466085,52.4234601],[-1.4458386,52.4209599],[-1.4545464,52.4166351],[-1.4633847,52.4151531],[-1.4563892,52.4139521],[-1.4552934,52.4095099],[-1.4555868,52.4062673],[-1.4485719,52.4064338],[-1.4499569,52.4026248],[-1.4450273,52.4039399],[-1.4470634,52.4083417],[-1.4373408,52.4080536]]],"type":"Polygon"},"id":"E02001976","properties":{"code":"E02001976","geography":"MSOA","name":"Coventry 019"},"type":"Feature"},{"geometry":{"coordinates":[[[-1.5089264,52.426616],[-1.513399,52.4275625],[-1.5140718,52.421357],[-1.5184865,52.4203177],[-1.5246283,52.4213409],[-1.5268531,52.4170748],[-1.5229654,52.4134815],[-1.5297279,52.4085341],[-1.5257375,52.407937],[-1.5095106,52.4129825],[-1.5092481,52.41304],[-1.5056121,52.4213104],[-1.5125356,52.4209264],[-1.5096769,52.4254242],[-1.5089264,52.426616]]],"type":"Polygon"},"id":"E02001977","properties":{"code":"E02001977","geography":"MSOA","name":"Coventry 020"},"type":"Feature"},{"geometry":{"coordinates":[[[-1.4692386,52.4204704],[-1.473652,52.423219],[-1.4853095,52.4119984],[-1.4802429,52.41147],[-1.4723017,52.4113286],[-1.4695798,52.4082389],[-1.4661409,52.4100369],[-1.4722694,52.418045],[-1.4670466,52.4179525],[-1.4692386,52.4204704]]],"type":"Polygon"},"id":"E02001978","properties":{"code":"E02001978","geography":"MSOA","name":"Coventry 021"},"type":"Feature"},{"geometry":{"coordinates":[[[-1.5514553,52.4196873],[-1.57029,52.4218765],[-1.5618725,52.4115309],[-1.5456447,52.4139422],[-1.5514553,52.4196873]]],"type":"Polygon"},"id":"E02001979","properties":{"code":"E02001979","geography":"MSOA","name":"Coventry 022"},"type":"Feature"},{"geometry":{"coordinates":[[[-1.57029,52.4218765],[-1.5739387,52.4262617],[-1.5801429,52.4178266],[-1.5878498,52.4179552],[-1.5878605,52.4158151],[-1.5793889,52.4152782],[-1.5787915,52.4111917],[-1.5745101,52.4145334],[-1.5708693,52.412321],[-1.5738734,52.4098162],[-1.5590026,52.4069512],[-1.5618725,52.4115309],[-1.57029,52.4218765]]],"type":"Polygon"},"id":"E02001980","properties":{"code":"E02001980","geography":"MSOA","name":"Coventry 023"},"type":"Feature"},{"geometry":{"coordinates":[[[-1.4873491,52.4131491],[-1.4868049,52.4222425],[-1.4909565,52.4175991],[-1.4979133,52.4196426],[-1.5092481,52.41304],[-1.5095106,52.4129825],[-1.5109245,52.4104933],[-1.5032696,52.4103711],[-1.5023575,52.4080428],[-1.4938063,52.4106647],[-1.4906078,52.4091127],[-1.4873491,52.4131491]]],"type":"Polygon"},"id":"E02001981","properties":{"code":"E02001981","geography":"MSOA","name":"Coventry 024"},"type":"Feature"},{"geometry":{"coordinates":[[[-1.5878498,52.4179552],[-1.6002853,52.4220061],[-1.6039319,52.4200315],[-1.6005646,52.4197289],[-1.602158,52.4160169],[-1.603782,52.4085128],[-1.605762,52.405763],[-1.6010649,52.4037175],[-1.6042977,52.4000458],[-1.5936631,52.4009347],[-1.5967095,52.4071215],[-1.5911889,52.4082435],[-1.5891256,52.4130261],[-1.5787915,52.4111917],[-1.5793889,52.4152782],[-1.5878605,52.4158151],[-1.5878498,52.4179552]]],"type":"Polygon"},"id":"E02001982","properties":{"code":"E02001982","geography":"MSOA","name":"Coventry 025"},"type":"Feature"},{"geometry":{"coordinates":[[[-1.529985,52.408504],[-1.5456447,52.4139422],[-1.5618725,52.4115309],[-1.5590026,52.4069512],[-1.5569818,52.3979047],[-1.5410806,52.4005879],[-1.53941,52.408596],[-1.529985,52.408504]]],"type":"Polygon"},"id":"E02001983","properties":{"code":"E02001983","geography":"MSOA","name":"Coventry 026"},"type":"Feature"},{"geometry":{"coordinates":[[[-1.4661409,52.4100369],[-1.4695798,52.4082389],[-1.4723017,52.4113286],[-1.4802429,52.41147],[-1.4844937,52.4063081],[-1.4810832,52.3981071],[-1.4750257,52.4007286],[-1.4696883,52.3993212],[-1.4658842,52.4040481],[-1.4603607,52.404637],[-1.4595258,52.4095766],[-1.4661409,52.4100369]]],"type":"Polygon"},"id":"E02001984","properties":{"code":"E02001984","geography":"MSOA","name":"Coventry 027"},"type":"Feature"},{"geometry":{"coordinates":[[[-1.4853095,52.4119984],[-1.4873491,52.4131491],[-1.4906078,52.4091127],[-1.4938063,52.4106647],[-1.5023575,52.4080428],[-1.4938268,52.3974036],[-1.4862454,52.3960813],[-1.4900546,52.4008131],[-1.4885594,52.4069506],[-1.4844937,52.4063081],[-1.4802429,52.41147],[-1.4853095,52.4119984]]],"type":"Polygon"},"id":"E02001985","properties":{"code":"E02001985","geography":"MSOA","name":"Coventry 028"},"type":"Feature"},{"geometry":{"coordinates":[[[-1.5738734,52.4098162],[-1.5708693,52.412321],[-1.5745101,52.4145334],[-1.5787915,52.4111917],[-1.5891256,52.4130261],[-1.5911889,52.4082435],[-1.5967095,52.4071215],[-1.5936631,52.4009347],[-1.5881221,52.401266],[-1.5890879,52.3984966],[-1.574471,52.3995371],[-1.5738734,52.4098162]]],"type":"Polygon"},"id":"E02001986","properties":{"code":"E02001986","geography":"MSOA","name":"Coventry 029"},"type":"Feature"},{"geometry":{"coordinates":[[[-1.529985,52.408504],[-1.53941,52.408596],[-1.5410806,52.4005879],[-1.5268752,52.4019331],[-1.5225158,52.4057881],[-1.5257375,52.407937],[-1.5297279,52.4085341],[-1.529985,52.408504]]],"type":"Polygon"},"id":"E02001987","properties":{"code":"E02001987","geography":"MSOA","name":"Coventry 030"},"type":"Feature"},{"geometry":{"coordinates":[[[-1.5023575,52.4080428],[-1.5032696,52.4103711],[-1.5109245,52.4104933],[-1.5095106,52.4129825],[-1.5257375,52.407937],[-1.5225158,52.4057881],[-1.5268752,52.4019331],[-1.5158108,52.4011115],[-1.5166028,52.3960198],[-1.5119982,52.4005999],[-1.4954184,52.3955294],[-1.4938268,52.3974036],[-1.5023575,52.4080428]]],"type":"Polygon"},"id":"E02001988","properties":{"code":"E02001988","geography":"MSOA","name":"Coventry 031"},"type":"Feature"},{"geometry":{"coordinates":[[[-1.5590026,52.4069512],[-1.5738734,52.4098162],[-1.574471,52.3995371],[-1.5617243,52.395184],[-1.5557887,52.3962264],[-1.5569818,52.3979047],[-1.5590026,52.4069512]]],"type":"Polygon"},"id":"E02001989","properties":{"code":"E02001989","geography":"MSOA","name":"Coventry 032"},"type":"Feature"},{"geometry":{"coordinates":[[[-1.4552934,52.4095099],[-1.4595258,52.4095766],[-1.4603607,52.404637],[-1.4540657,52.3936483],[-1.4478403,52.3973473],[-1.4436515,52.3949428],[-1.4413147,52.3990908],[-1.4348444,52.3930428],[-1.4307782,52.3990885],[-1.4350909,52.4053388],[-1.4373408,52.4080536],[-1.4470634,52.4083417],[-1.4450273,52.4039399],[-1.4499569,52.4026248],[-1.4485719,52.4064338],[-1.4555868,52.4062673],[-1.4552934,52.4095099]]],"type":"Polygon"},"id":"E02001990","properties":{"code":"E02001990","geography":"MSOA","name":"Coventry 033"},"type":"Feature"},{"geometry":{"coordinates":[[[-1.5166028,52.3960198],[-1.5158108,52.4011115],[-1.5268752,52.4019331],[-1.5410806,52.4005879],[-1.5569818,52.3979047],[-1.5557887,52.3962264],[-1.5538734,52.394451],[-1.534945,52.3863571],[-1.531264,52.3887988],[-1.5197388,52.3878357],[-1.5155415,52.391512],[-1.5166028,52.3960198]]],"type":"Polygon"},"id":"E02001991","properties":{"code":"E02001991","geography":"MSOA","name":"Coventry 034"},"type":"Feature"},{"geometry":{"coordinates":[[[-1.4348444,52.3930428],[-1.4413147,52.3990908],[-1.4436515,52.3949428],[-1.4478403,52.3973473],[-1.4540657,52.3936483],[-1.4603607,52.404637],[-1.4658842,52.4040481],[-1.4696883,52.3993212],[-1.4750257,52.4007286],[-1.4810832,52.3981071],[-1.4809629,52.3951717],[-1.4656327,52.3917623],[-1.4592796,52.390283],[-1.4620365,52.3873893],[-1.4514853,52.3884934],[-1.446704,52.3854326],[-1.4348444,52.3930428]]],"type":"Polygon"},"id":"E02001992","properties":{"code":"E02001992","geography":"MSOA","name":"Coventry 035"},"type":"Feature"},{"geometry":{"coordinates":[[[-1.574471,52.3995371],[-1.5890879,52.3984966],[-1.5881221,52.401266],[-1.5936631,52.4009347],[-1.6042977,52.4000458],[-1.6010776,52.3892839],[-1.5730271,52.3825421],[-1.5678601,52.3847478],[-1.5668346,52.3893912],[-1.5538734,52.394451],[-1.5557887,52.3962264],[-1.5617243,52.395184],[-1.574471,52.3995371]]],"type":"Polygon"},"id":"E02001993","properties":{"code":"E02001993","geography":"MSOA","name":"Coventry 036"},"type":"Feature"},{"geometry":{"coordinates":[[[-1.4954184,52.3955294],[-1.5119982,52.4005999],[-1.5166028,52.3960198],[-1.5155415,52.391512],[-1.5037063,52.3863413],[-1.4971598,52.3869372],[-1.4954184,52.3955294]]],"type":"Polygon"},"id":"E02001994","properties":{"code":"E02001994","geography":"MSOA","name":"Coventry 037"},"type":"Feature"},{"geometry":{"coordinates":[[[-1.4844937,52.4063081],[-1.4885594,52.4069506],[-1.4900546,52.4008131],[-1.4862454,52.3960813],[-1.4938268,52.3974036],[-1.4954184,52.3955294],[-1.4971598,52.3869372],[-1.4938103,52.3858805],[-1.5008539,52.3775764],[-1.482288,52.377102],[-1.4804199,52.3743016],[-1.4665523,52.3771796],[-1.4640236,52.3732501],[-1.4604117,52.3747907],[-1.4630156,52.3763338],[-1.474644,52.3852115],[-1.4743362,52.3897134],[-1.4656327,52.3917623],[-1.4809629,52.3951717],[-1.4810832,52.3981071],[-1.4844937,52.4063081]]],"type":"Polygon"},"id":"E02001995","properties":{"code":"E02001995","geography":"MSOA","name":"Coventry 038"},"type":"Feature"},{"geometry":{"coordinates":[[[-1.446704,52.3854326],[-1.4514853,52.3884934],[-1.4620365,52.3873893],[-1.4592796,52.390283],[-1.4656327,52.3917623],[-1.4743362,52.3897134],[-1.474644,52.3852115],[-1.4630156,52.3763338],[-1.4631358,52.3796471],[-1.446704,52.3854326]]],"type":"Polygon"},"id":"E02001996","properties":{"code":"E02001996","geography":"MSOA","name":"Coventry 039"},"type":"Feature"},{"geometry":{"coordinates":[[[-1.4971598,52.3869372],[-1.5037063,52.3863413],[-1.5155415,52.391512],[-1.5197388,52.3878357],[-1.5155429,52.3796756],[-1.5178525,52.3737707],[-1.519822,52.3755366],[-1.5139279,52.3690469],[-1.5069428,52.3767006],[-1.5008539,52.3775764],[-1.4938103,52.3858805],[-1.4971598,52.3869372]]],"type":"Polygon"},"id":"E02001997","properties":{"code":"E02001997","geography":"MSOA","name":"Coventry 040"},"type":"Feature"},{"geometry":{"coordinates":[[[-1.5197388,52.3878357],[-1.531264,52.3887988],[-1.5292691,52.3838918],[-1.5372356,52.3806317],[-1.535498,52.3775853],[-1.5245822,52.379391],[-1.519822,52.3755366],[-1.5178525,52.3737707],[-1.5155429,52.3796756],[-1.5197388,52.3878357]]],"type":"Polygon"},"id":"E02001998","properties":{"code":"E02001998","geography":"MSOA","name":"Coventry 041"},"type":"Feature"},{"geometry":{"coordinates":[[[-1.531264,52.3887988],[-1.534945,52.3863571],[-1.5538734,52.394451],[-1.5668346,52.3893912],[-1.5678601,52.3847478],[-1.5626459,52.3768753],[-1.555004,52.3744076],[-1.5582649,52.3686391],[-1.5524236,52.363876],[-1.5419052,52.3666171],[-1.5456888,52.3692543],[-1.535498,52.3775853],[-1.5372356,52.3806317],[-1.5292691,52.3838918],[-1.531264,52.3887988]]],"type":"Polygon"},"id":"E02001999","properties":{"code":"E02001999","geography":"MSOA","name":"Coventry 042"},"type":"Feature"},{"geometry":{"coordinates":[[[-1.5037659,52.4505204],[-1.5173468,52.4528573],[-1.5095663,52.4451712],[-1.5162286,52.4455919],[-1.5191745,52.4429719],[-1.5167522,52.4375335],[-1.504395,52.4416958],[-1.5012104,52.4390234],[-1.4969183,52.4443432],[-1.5037659,52.4505204]]],"type":"Polygon"},"id":"E02006805","properties":{"code":"E02006805","geography":"MSOA","name":"Coventry 043"},"type":"Feature"}],"type":"FeatureCollection"}
