{"features":[{"geometry":{"coordinates":[[[-2.9552321,53.6964809],[-2.9622854,53.6938166],[-2.957329,53.6910357],[-2.9540547,53.6913621],[-2.9583042,53.6875692],[-2.9629497,53.6928657],[-2.9714899,53.6921477],[-2.9645944,53.6934637],[-2.9652781,53.698187],[-2.9771476,53.6965195],[-2.9799164,53.6900924],[-2.971065,53.6820057],[-2.9819667,53.6764663],[-2.9751397,53.6720163],[-2.9703734,53.674296],[-2.9714565,53.6690308],[-2.9600439,53.672007],[-2.9418422,53.6627588],[-2.9474395,53.6673335],[-2.9443094,53.6791141],[-2.9524953,53.6822638],[-2.9467873,53.6880024],[-2.9552321,53.6964809]]],"type":"Polygon"},"id":"E02001429","properties":{"code":"E02001429","geography":"MSOA","name":"Sefton 001"},"type":"Feature"},{"geometry":{"coordinates":[[[-2.9418422,53.6627588],[-2.9600439,53.672007],[-2.9714565,53.6690308],[-2.9766618,53.6665363],[-2.9754936,53.661014],[-2.9698675,53.662794],[-2.965389,53.6588027],[-2.9747933,53.6557539],[-2.9746208,53.6530008],[-2.9499693,53.652319],[-2.9401454,53.6585949],[-2.9418422,53.6627588]]],"type":"Polygon"},"id":"E02001430","properties":{"code":"E02001430","geography":"MSOA","name":"Sefton 002"},"type":"Feature"},{"geometry":{"coordinates":[[[-2.9714565,53.6690308],[-2.9703734,53.674296],[-2.9751397,53.6720163],[-2.9814767,53.6708393],[-2.9770921,53.6676454],[-2.9953495,53.6576136],[-2.9908414,53.6543907],[-2.9944752,53.6530811],[-2.9872369,53.6502013],[-2.9798851,53.6520068],[-2.9746208,53.6530008],[-2.9747933,53.6557539],[-2.965389,53.6588027],[-2.9698675,53.662794],[-2.9754936,53.661014],[-2.9766618,53.6665363],[-2.9714565,53.6690308]]],"type":"Polygon"},"id":"E02001431","properties":{"code":"E02001431","geography":"MSOA","name":"Sefton 003"},"type":"Feature"},{"geometry":{"coordinates":[[[-2.9751397,53.6720163],[-2.9819667,53.6764663],[-2.971065,53.6820057],[-2.9799164,53.6900924],[-2.9800721,53.6897309],[-2.9801633,53.6889981],[-2.9804496,53.6866961],[-2.9846875,53.68972],[-2.9884621,53.6873618],[-2.9829752,53.6825208],[-2.9879061,53.6846374],[-3.0023699,53.6769417],[-3.0140942,53.6791135],[-3.0156094,53.6729345],[-3.015009,53.6721643],[-3.0109538,53.6669606],[-3.0064187,53.6713205],[-3.0032002,53.6700936],[-3.0176623,53.6543135],[-3.017761,53.6542058],[-3.0148166,53.6530777],[-3.0127056,53.6481314],[-3.0196638,53.6470731],[-3.0121853,53.6437029],[-2.9953334,53.6440645],[-2.9872369,53.6502013],[-2.9944752,53.6530811],[-2.9908414,53.6543907],[-2.9953495,53.6576136],[-2.9770921,53.6676454],[-2.9814767,53.6708393],[-2.9751397,53.6720163]]],"type":"Polygon"},"id":"E02001432","properties":{"code":"E02001432","geography":"MSOA","name":"Sefton 004"},"type":"Feature"},{"geometry":{"coordinates":[[[-2.9499693,53.652319],[-2.9746208,53.6530008],[-2.9798851,53.6520068],[-2.9717468,53.6418453],[-2.9662351,53.6417767],[-2.9630405,53.6451511],[-2.9583456,53.6429667],[-2.9499693,53.652319]]],"type":"Polygon"},"id":"E02001433","properties":{"code":"E02001433","geography":"MSOA","name":"Sefton 005"},"type":"Feature"},{"geometry":{"coordinates":[[[-2.9583456,53.6429667],[-2.9630405,53.6451511],[-2.9662351,53.6417767],[-2.9717468,53.6418453],[-2.9798851,53.6520068],[-2.9872369,53.6502013],[-2.9953334,53.6440645],[-2.9874126,53.641831],[-2.9728143,53.6388467],[-2.9677703,53.6310474],[-2.9603526,53.6387206],[-2.9583456,53.6429667]]],"type":"Polygon"},"id":"E02001434","properties":{"code":"E02001434","geography":"MSOA","name":"Sefton 006"},"type":"Feature"},{"geometry":{"coordinates":[[[-2.9874126,53.641831],[-2.9953334,53.6440645],[-3.0121853,53.6437029],[-3.0091358,53.6380773],[-3.0161365,53.6321525],[-3.0085543,53.6308672],[-2.9997333,53.6355447],[-2.9998352,53.6389529],[-2.9922945,53.6377023],[-2.9874126,53.641831]]],"type":"Polygon"},"id":"E02001435","properties":{"code":"E02001435","geography":"MSOA","name":"Sefton 007"},"type":"Feature"},{"geometry":{"coordinates":[[[-2.9677703,53.6310474],[-2.9728143,53.6388467],[-2.9874126,53.641831],[-2.9922945,53.6377023],[-2.9998352,53.6389529],[-2.9997333,53.6355447],[-3.0085543,53.6308672],[-3.005284,53.6264481],[-3.0004865,53.6247952],[-2.9937231,53.6282554],[-2.9818252,53.6221893],[-2.9677703,53.6310474]]],"type":"Polygon"},"id":"E02001436","properties":{"code":"E02001436","geography":"MSOA","name":"Sefton 008"},"type":"Feature"},{"geometry":{"coordinates":[[[-3.0121853,53.6437029],[-3.0196638,53.6470731],[-3.0127056,53.6481314],[-3.0148166,53.6530777],[-3.017761,53.6542058],[-3.0178027,53.6541603],[-3.0311538,53.6476345],[-3.042726,53.6363137],[-3.0619889,53.6103282],[-3.0373719,53.6107686],[-3.036693,53.6088843],[-3.0301023,53.616239],[-3.0235774,53.6236881],[-3.0118117,53.6227137],[-3.0093729,53.627171],[-3.005284,53.6264481],[-3.0085543,53.6308672],[-3.0161365,53.6321525],[-3.0091358,53.6380773],[-3.0121853,53.6437029]]],"type":"Polygon"},"id":"E02001437","properties":{"code":"E02001437","geography":"MSOA","name":"Sefton 009"},"type":"Feature"},{"geometry":{"coordinates":[[[-3.005284,53.6264481],[-3.0093729,53.627171],[-3.0118117,53.6227137],[-3.0235774,53.6236881],[-3.0301023,53.616239],[-3.0257006,53.6169276],[-3.0247295,53.6127247],[-3.0140998,53.611262],[-3.0004865,53.6247952],[-3.005284,53.6264481]]],"type":"Polygon"},"id":"E02001438","properties":{"code":"E02001438","geography":"MSOA","name":"Sefton 010"},"type":"Feature"},{"geometry":{"coordinates":[[[-3.0140998,53.611262],[-3.0247295,53.6127247],[-3.0257006,53.6169276],[-3.0301023,53.616239],[-3.036693,53.6088843],[-3.0428904,53.6004212],[-3.0360613,53.5971772],[-3.0396977,53.5887915],[-3.035466,53.58702],[-3.0288248,53.602304],[-3.0140998,53.611262]]],"type":"Polygon"},"id":"E02001439","properties":{"code":"E02001439","geography":"MSOA","name":"Sefton 011"},"type":"Feature"},{"geometry":{"coordinates":[[[-3.036693,53.6088843],[-3.0373719,53.6107686],[-3.0619889,53.6103282],[-3.0621178,53.6101542],[-3.0861187,53.587346],[-3.0862262,53.587212],[-3.0552842,53.5873635],[-3.0517616,53.5894448],[-3.0477104,53.5892144],[-3.048601,53.5866402],[-3.0333482,53.5850869],[-3.035466,53.58702],[-3.0396977,53.5887915],[-3.0360613,53.5971772],[-3.0428904,53.6004212],[-3.036693,53.6088843]]],"type":"Polygon"},"id":"E02001440","properties":{"code":"E02001440","geography":"MSOA","name":"Sefton 012"},"type":"Feature"},{"geometry":{"coordinates":[[[-3.0333482,53.5850869],[-3.048601,53.5866402],[-3.0477104,53.5892144],[-3.0517616,53.5894448],[-3.0552842,53.5873635],[-3.0862262,53.587212],[-3.1005215,53.5693775],[-3.1044908,53.5550431],[-3.0863795,53.5558971],[-3.0895961,53.5583804],[-3.0847113,53.5611739],[-3.0833139,53.5560013],[-3.077887,53.556274],[-3.0776238,53.5530316],[-3.0708023,53.5538127],[-3.0717671,53.56484],[-3.060704,53.567648],[-3.0580271,53.564571],[-3.0507586,53.5676746],[-3.0377805,53.5665356],[-3.0226228,53.5695819],[-3.0207119,53.5836591],[-3.0333482,53.5850869]]],"type":"Polygon"},"id":"E02001441","properties":{"code":"E02001441","geography":"MSOA","name":"Sefton 013"},"type":"Feature"},{"geometry":{"coordinates":[[[-3.0377805,53.5665356],[-3.0507586,53.5676746],[-3.0580271,53.564571],[-3.060704,53.567648],[-3.0717671,53.56484],[-3.0708023,53.5538127],[-3.0583294,53.5545539],[-3.0561896,53.5579689],[-3.0392816,53.5591708],[-3.0377805,53.5665356]]],"type":"Polygon"},"id":"E02001442","properties":{"code":"E02001442","geography":"MSOA","name":"Sefton 014"},"type":"Feature"},{"geometry":{"coordinates":[[[-3.0708023,53.5538127],[-3.0776238,53.5530316],[-3.077887,53.556274],[-3.0833139,53.5560013],[-3.0847113,53.5611739],[-3.0895961,53.5583804],[-3.0863795,53.5558971],[-3.1044908,53.5550431],[-3.1054717,53.5514989],[-3.1012166,53.5363214],[-3.0939785,53.5316055],[-3.0854051,53.5337295],[-3.0662796,53.545379],[-3.0660493,53.5511639],[-3.0555516,53.5529654],[-3.0583294,53.5545539],[-3.0708023,53.5538127]]],"type":"Polygon"},"id":"E02001443","properties":{"code":"E02001443","geography":"MSOA","name":"Sefton 015"},"type":"Feature"},{"geometry":{"coordinates":[[[-2.9915247,53.5229753],[-3.0250931,53.5389897],[-3.0319349,53.5372466],[-3.0390513,53.5384273],[-3.0405906,53.5417162],[-3.0444971,53.5406369],[-3.0392816,53.5591708],[-3.0561896,53.5579689],[-3.0583294,53.5545539],[-3.0555516,53.5529654],[-3.0660493,53.5511639],[-3.0662796,53.545379],[-3.0854051,53.5337295],[-3.0939785,53.5316055],[-3.0864334,53.5259397],[-3.0791255,53.5261302],[-3.0633683,53.5264618],[-3.0640917,53.5305916],[-3.062695,53.527351],[-3.0627189,53.5270501],[-3.0583685,53.5310416],[-3.0136853,53.5087294],[-3.0050424,53.5102698],[-2.9915247,53.5229753]]],"type":"Polygon"},"id":"E02001444","properties":{"code":"E02001444","geography":"MSOA","name":"Sefton 016"},"type":"Feature"},{"geometry":{"coordinates":[[[-2.9419878,53.5409995],[-2.9658987,53.5478854],[-2.977616,53.5459072],[-2.9632496,53.5248209],[-2.9656597,53.5184447],[-2.9621762,53.5131557],[-2.9472584,53.5166704],[-2.9488223,53.5218973],[-2.942215,53.5188532],[-2.9410457,53.5253828],[-2.9297291,53.5308895],[-2.9419878,53.5409995]]],"type":"Polygon"},"id":"E02001445","properties":{"code":"E02001445","geography":"MSOA","name":"Sefton 017"},"type":"Feature"},{"geometry":{"coordinates":[[[-2.9167447,53.5232425],[-2.9297291,53.5308895],[-2.9410457,53.5253828],[-2.942215,53.5188532],[-2.9488223,53.5218973],[-2.9472584,53.5166704],[-2.9414381,53.5158751],[-2.9235764,53.5155598],[-2.9179242,53.5116682],[-2.9147224,53.5176694],[-2.9167447,53.5232425]]],"type":"Polygon"},"id":"E02001446","properties":{"code":"E02001446","geography":"MSOA","name":"Sefton 018"},"type":"Feature"},{"geometry":{"coordinates":[[[-2.9395656,53.4993555],[-2.9179437,53.5007076],[-2.9059109,53.5092247],[-2.9147224,53.5176694],[-2.9179242,53.5116682],[-2.9235764,53.5155598],[-2.9414381,53.5158751],[-2.944436,53.5016248],[-2.9395656,53.4993555]]],"type":"Polygon"},"id":"E02001447","properties":{"code":"E02001447","geography":"MSOA","name":"Sefton 019"},"type":"Feature"},{"geometry":{"coordinates":[[[-2.9472584,53.5166704],[-2.9621762,53.5131557],[-2.9656597,53.5184447],[-2.9729449,53.5154303],[-2.9477665,53.4983922],[-2.9433463,53.4966822],[-2.9395656,53.4993555],[-2.944436,53.5016248],[-2.9414381,53.5158751],[-2.9472584,53.5166704]]],"type":"Polygon"},"id":"E02001448","properties":{"code":"E02001448","geography":"MSOA","name":"Sefton 020"},"type":"Feature"},{"geometry":{"coordinates":[[[[-3.0633683,53.5264618],[-3.0791255,53.5261302],[-3.0864334,53.5259397],[-3.0701992,53.5199846],[-3.0633683,53.5264618]]],[[[-3.0583685,53.5310416],[-3.0627189,53.5270501],[-3.0627409,53.5267731],[-3.0639704,53.5113046],[-3.0541706,53.5118613],[-3.0263412,53.4934686],[-3.0195319,53.4963212],[-3.0059365,53.4911895],[-3.0007163,53.4918268],[-2.9970166,53.4998545],[-2.9922457,53.4965129],[-2.99944,53.4934749],[-2.9886903,53.4895541],[-2.9802303,53.4973058],[-2.9644747,53.4950174],[-2.9475273,53.4919008],[-2.9477665,53.4983922],[-2.9729449,53.5154303],[-2.9915247,53.5229753],[-3.0050424,53.5102698],[-3.0136853,53.5087294],[-3.0583685,53.5310416]]]],"type":"MultiPolygon"},"id":"E02001449","properties":{"code":"E02001449","geography":"MSOA","name":"Sefton 021"},"type":"Feature"},{"geometry":{"coordinates":[[[-3.0263412,53.4934686],[-3.0541706,53.5118613],[-3.0639704,53.5113046],[-3.064036,53.5104787],[-3.0650643,53.5047805],[-3.0548122,53.4920449],[-3.0463721,53.4815537],[-3.0409632,53.4838313],[-3.0458639,53.4899732],[-3.0377255,53.4856632],[-3.029481,53.489268],[-3.0263412,53.4934686]]],"type":"Polygon"},"id":"E02001450","properties":{"code":"E02001450","geography":"MSOA","name":"Sefton 022"},"type":"Feature"},{"geometry":{"coordinates":[[[-2.9644747,53.4950174],[-2.9802303,53.4973058],[-2.9886903,53.4895541],[-2.988018,53.4865577],[-2.986367,53.4890009],[-2.9816406,53.486329],[-2.9648125,53.4907277],[-2.9644747,53.4950174]]],"type":"Polygon"},"id":"E02001451","properties":{"code":"E02001451","geography":"MSOA","name":"Sefton 023"},"type":"Feature"},{"geometry":{"coordinates":[[[-2.9886903,53.4895541],[-2.99944,53.4934749],[-2.9922457,53.4965129],[-2.9970166,53.4998545],[-3.0007163,53.4918268],[-3.0059365,53.4911895],[-3.0134296,53.4891282],[-3.0088194,53.4852968],[-3.0029969,53.4822435],[-2.9905276,53.4824013],[-2.988018,53.4865577],[-2.9886903,53.4895541]]],"type":"Polygon"},"id":"E02001452","properties":{"code":"E02001452","geography":"MSOA","name":"Sefton 024"},"type":"Feature"},{"geometry":{"coordinates":[[[-3.0059365,53.4911895],[-3.0195319,53.4963212],[-3.0263412,53.4934686],[-3.029481,53.489268],[-3.02514,53.491018],[-3.023722,53.4853403],[-3.0227245,53.4812773],[-3.0132752,53.4789556],[-3.0088194,53.4852968],[-3.0134296,53.4891282],[-3.0059365,53.4911895]]],"type":"Polygon"},"id":"E02001453","properties":{"code":"E02001453","geography":"MSOA","name":"Sefton 025"},"type":"Feature"},{"geometry":{"coordinates":[[[-2.8916639,53.5221354],[-2.9167447,53.5232425],[-2.9147224,53.5176694],[-2.9059109,53.5092247],[-2.9179437,53.5007076],[-2.9395656,53.4993555],[-2.9433463,53.4966822],[-2.9477665,53.4983922],[-2.9475273,53.4919008],[-2.9464757,53.4860934],[-2.9410989,53.4864418],[-2.9350378,53.4820139],[-2.9405192,53.4782235],[-2.9361385,53.4737152],[-2.9225683,53.474983],[-2.9169919,53.4797262],[-2.9195601,53.482057],[-2.9126809,53.4831704],[-2.9052503,53.4919604],[-2.8994178,53.491769],[-2.8977458,53.5013844],[-2.8879905,53.503816],[-2.8923903,53.5111303],[-2.881209,53.5199867],[-2.8916639,53.5221354]]],"type":"Polygon"},"id":"E02001454","properties":{"code":"E02001454","geography":"MSOA","name":"Sefton 026"},"type":"Feature"},{"geometry":{"coordinates":[[[-2.9475273,53.4919008],[-2.9644747,53.4950174],[-2.9648125,53.4907277],[-2.9567741,53.4889628],[-2.967859,53.4812937],[-2.9589401,53.4727263],[-2.9602308,53.4679564],[-2.9603001,53.4676978],[-2.9563073,53.4729774],[-2.947434,53.4724707],[-2.9361385,53.4737152],[-2.9405192,53.4782235],[-2.9350378,53.4820139],[-2.9410989,53.4864418],[-2.9464757,53.4860934],[-2.9475273,53.4919008]]],"type":"Polygon"},"id":"E02001455","properties":{"code":"E02001455","geography":"MSOA","name":"Sefton 027"},"type":"Feature"},{"geometry":{"coordinates":[[[-3.023722,53.4853403],[-3.02514,53.491018],[-3.029481,53.489268],[-3.0377255,53.4856632],[-3.0458639,53.4899732],[-3.0409632,53.4838313],[-3.0463721,53.4815537],[-3.0434095,53.4778698],[-3.0375847,53.4684501],[-3.0387055,53.4676291],[-3.0277178,53.471654],[-3.0300547,53.473025],[-3.0351451,53.4829427],[-3.023722,53.4853403]]],"type":"Polygon"},"id":"E02001456","properties":{"code":"E02001456","geography":"MSOA","name":"Sefton 028"},"type":"Feature"},{"geometry":{"coordinates":[[[-2.9589401,53.4727263],[-2.967859,53.4812937],[-2.9567741,53.4889628],[-2.9648125,53.4907277],[-2.9816406,53.486329],[-2.986367,53.4890009],[-2.988018,53.4865577],[-2.9905276,53.4824013],[-2.9827089,53.4811681],[-2.9802233,53.4765735],[-2.9687211,53.4710842],[-2.9589401,53.4727263]]],"type":"Polygon"},"id":"E02001457","properties":{"code":"E02001457","geography":"MSOA","name":"Sefton 029"},"type":"Feature"},{"geometry":{"coordinates":[[[-3.0132752,53.4789556],[-3.0227245,53.4812773],[-3.023722,53.4853403],[-3.0351451,53.4829427],[-3.0300547,53.473025],[-3.0132752,53.4789556]]],"type":"Polygon"},"id":"E02001458","properties":{"code":"E02001458","geography":"MSOA","name":"Sefton 030"},"type":"Feature"},{"geometry":{"coordinates":[[[-2.9802233,53.4765735],[-2.9827089,53.4811681],[-2.9905276,53.4824013],[-3.0029969,53.4822435],[-3.0089365,53.4753864],[-3.0045061,53.4725088],[-3.0100636,53.4724676],[-3.0057083,53.4701319],[-3.0004832,53.4713932],[-3.0015826,53.4750739],[-2.9973982,53.4740353],[-2.9802233,53.4765735]]],"type":"Polygon"},"id":"E02001459","properties":{"code":"E02001459","geography":"MSOA","name":"Sefton 031"},"type":"Feature"},{"geometry":{"coordinates":[[[-3.0029969,53.4822435],[-3.0088194,53.4852968],[-3.0132752,53.4789556],[-3.0300547,53.473025],[-3.0277178,53.471654],[-3.0387055,53.4676291],[-3.041458,53.4656124],[-3.0404248,53.4647295],[-3.0364,53.4614218],[-2.9980343,53.4698844],[-2.9973982,53.4740353],[-3.0015826,53.4750739],[-3.0004832,53.4713932],[-3.0057083,53.4701319],[-3.0100636,53.4724676],[-3.0045061,53.4725088],[-3.0089365,53.4753864],[-3.0029969,53.4822435]]],"type":"Polygon"},"id":"E02001460","properties":{"code":"E02001460","geography":"MSOA","name":"Sefton 032"},"type":"Feature"},{"geometry":{"coordinates":[[[-2.9687211,53.4710842],[-2.9802233,53.4765735],[-2.9973982,53.4740353],[-2.9980343,53.4698844],[-2.9904482,53.4640835],[-2.9865911,53.4629294],[-2.9838369,53.4693474],[-2.9736157,53.4672957],[-2.9750901,53.4696399],[-2.9687211,53.4710842]]],"type":"Polygon"},"id":"E02001461","properties":{"code":"E02001461","geography":"MSOA","name":"Sefton 033"},"type":"Feature"},{"geometry":{"coordinates":[[[-2.9904482,53.4640835],[-2.9980343,53.4698844],[-3.0364,53.4614218],[-3.0342763,53.4597803],[-3.0277754,53.4551075],[-3.0235559,53.4562151],[-3.0229823,53.4555236],[-3.0096085,53.4590062],[-3.0010105,53.4570465],[-3.0067683,53.4611875],[-2.9904482,53.4640835]]],"type":"Polygon"},"id":"E02001462","properties":{"code":"E02001462","geography":"MSOA","name":"Sefton 034"},"type":"Feature"},{"geometry":{"coordinates":[[[-2.9602308,53.4679564],[-2.9589401,53.4727263],[-2.9687211,53.4710842],[-2.9750901,53.4696399],[-2.9736157,53.4672957],[-2.9838369,53.4693474],[-2.9865911,53.4629294],[-2.9858902,53.4559337],[-2.972607,53.4583747],[-2.9691594,53.4664759],[-2.9602308,53.4679564]]],"type":"Polygon"},"id":"E02001463","properties":{"code":"E02001463","geography":"MSOA","name":"Sefton 035"},"type":"Feature"},{"geometry":{"coordinates":[[[-2.9865911,53.4629294],[-2.9904482,53.4640835],[-3.0067683,53.4611875],[-3.0010105,53.4570465],[-2.9982823,53.4535354],[-2.9920445,53.4570657],[-2.9907481,53.45211],[-2.9863766,53.4520506],[-2.9858902,53.4559337],[-2.9865911,53.4629294]]],"type":"Polygon"},"id":"E02001464","properties":{"code":"E02001464","geography":"MSOA","name":"Sefton 036"},"type":"Feature"},{"geometry":{"coordinates":[[[-3.0010105,53.4570465],[-3.0096085,53.4590062],[-3.0229823,53.4555236],[-3.0088281,53.4384518],[-3.000097,53.4403843],[-2.9878775,53.441068],[-2.9893481,53.4468797],[-2.9801788,53.4482462],[-2.9818388,53.4519367],[-2.9863766,53.4520506],[-2.9907481,53.45211],[-2.9920445,53.4570657],[-2.9982823,53.4535354],[-3.0010105,53.4570465]]],"type":"Polygon"},"id":"E02001465","properties":{"code":"E02001465","geography":"MSOA","name":"Sefton 037"},"type":"Feature"},{"geometry":{"coordinates":[[[-2.9733774,53.4474309],[-2.972607,53.4583747],[-2.9858902,53.4559337],[-2.9863766,53.4520506],[-2.9818388,53.4519367],[-2.9801788,53.4482462],[-2.9893481,53.4468797],[-2.9878775,53.441068],[-2.9769542,53.4429255],[-2.976136,53.4450025],[-2.9733774,53.4474309]]],"type":"Polygon"},"id":"E02001466","properties":{"code":"E02001466","geography":"MSOA","name":"Sefton 038"},"type":"Feature"}],"type":"FeatureCollection"}
