{"features":[{"geometry":{"coordinates":[[[-1.4075488,54.9968346],[-1.4108807,54.9988755],[-1.4110902,54.9992883],[-1.4141432,55.0052671],[-1.4186444,55.003255],[-1.4238226,55.0081494],[-1.4290505,55.007313],[-1.4384324,55.0043401],[-1.4274202,54.991034],[-1.4151715,54.9927523],[-1.4075488,54.9968346]]],"type":"Polygon"},"id":"E02001768","properties":{"code":"E02001768","geography":"MSOA","name":"South Tyneside 001"},"type":"Feature"},{"geometry":{"coordinates":[[[[-1.4487024,54.9930615],[-1.4488891,54.9933226],[-1.4492745,54.9927308],[-1.4487024,54.9930615]]],[[[-1.431323,54.9861304],[-1.4229492,54.9875083],[-1.4274202,54.991034],[-1.4384324,55.0043401],[-1.4397909,55.0039095],[-1.4435558,54.9931567],[-1.4436637,54.9930046],[-1.4477643,54.9872256],[-1.4444749,54.9865767],[-1.4384127,54.9796115],[-1.431323,54.9861304]]]],"type":"MultiPolygon"},"id":"E02001769","properties":{"code":"E02001769","geography":"MSOA","name":"South Tyneside 002"},"type":"Feature"},{"geometry":{"coordinates":[[[-1.4108111,54.9850551],[-1.4151715,54.9927523],[-1.4274202,54.991034],[-1.4229492,54.9875083],[-1.431323,54.9861304],[-1.4235019,54.9806594],[-1.4203275,54.9825326],[-1.4176778,54.9873069],[-1.4145496,54.9831941],[-1.4108111,54.9850551]]],"type":"Polygon"},"id":"E02001770","properties":{"code":"E02001770","geography":"MSOA","name":"South Tyneside 003"},"type":"Feature"},{"geometry":{"coordinates":[[[-1.3808973,54.9802985],[-1.3808925,54.9804012],[-1.3807338,54.9837853],[-1.381119,54.9857654],[-1.3934076,54.9881696],[-1.4075488,54.9968346],[-1.4151715,54.9927523],[-1.4108111,54.9850551],[-1.3994628,54.9807738],[-1.3844764,54.9782498],[-1.3808973,54.9802985]]],"type":"Polygon"},"id":"E02001771","properties":{"code":"E02001771","geography":"MSOA","name":"South Tyneside 004"},"type":"Feature"},{"geometry":{"coordinates":[[[-1.4203275,54.9825326],[-1.4235019,54.9806594],[-1.431323,54.9861304],[-1.4384127,54.9796115],[-1.4245378,54.9699755],[-1.4170926,54.9718093],[-1.4221215,54.9759516],[-1.4152242,54.979473],[-1.4203275,54.9825326]]],"type":"Polygon"},"id":"E02001772","properties":{"code":"E02001772","geography":"MSOA","name":"South Tyneside 005"},"type":"Feature"},{"geometry":{"coordinates":[[[-1.4108111,54.9850551],[-1.4145496,54.9831941],[-1.4176778,54.9873069],[-1.4203275,54.9825326],[-1.4152242,54.979473],[-1.4221215,54.9759516],[-1.4170926,54.9718093],[-1.4167068,54.9719096],[-1.4105766,54.9716628],[-1.4038323,54.9766407],[-1.4077587,54.9802788],[-1.3994628,54.9807738],[-1.4108111,54.9850551]]],"type":"Polygon"},"id":"E02001773","properties":{"code":"E02001773","geography":"MSOA","name":"South Tyneside 006"},"type":"Feature"},{"geometry":{"coordinates":[[[-1.4568608,54.9846862],[-1.4643009,54.9840325],[-1.4718067,54.9861313],[-1.4709994,54.9837672],[-1.4722916,54.9862151],[-1.4807556,54.9858637],[-1.4813523,54.9858389],[-1.5058157,54.9860899],[-1.5035899,54.9823739],[-1.4964873,54.980677],[-1.4927155,54.9711124],[-1.4886675,54.9744197],[-1.4768089,54.9740616],[-1.4627214,54.9736655],[-1.4580972,54.9763685],[-1.4568608,54.9846862]]],"type":"Polygon"},"id":"E02001774","properties":{"code":"E02001774","geography":"MSOA","name":"South Tyneside 007"},"type":"Feature"},{"geometry":{"coordinates":[[[-1.3844764,54.9782498],[-1.3994628,54.9807738],[-1.4077587,54.9802788],[-1.4038323,54.9766407],[-1.4105766,54.9716628],[-1.3966581,54.9737946],[-1.3844764,54.9782498]]],"type":"Polygon"},"id":"E02001775","properties":{"code":"E02001775","geography":"MSOA","name":"South Tyneside 008"},"type":"Feature"},{"geometry":{"coordinates":[[[-1.5058157,54.9860899],[-1.5060759,54.9860926],[-1.5063992,54.9860959],[-1.5167109,54.9842239],[-1.5192531,54.9751178],[-1.510347,54.9741024],[-1.5069877,54.9704157],[-1.4990673,54.9723246],[-1.497545,54.968935],[-1.4928886,54.969246],[-1.4927155,54.9711124],[-1.4964873,54.980677],[-1.5035899,54.9823739],[-1.5058157,54.9860899]]],"type":"Polygon"},"id":"E02001776","properties":{"code":"E02001776","geography":"MSOA","name":"South Tyneside 009"},"type":"Feature"},{"geometry":{"coordinates":[[[-1.510347,54.9741024],[-1.5192531,54.9751178],[-1.5167109,54.9842239],[-1.5283753,54.982105],[-1.5341598,54.9650911],[-1.5343565,54.9648756],[-1.5291671,54.9632943],[-1.5304324,54.9582011],[-1.5228505,54.9684809],[-1.510347,54.9741024]]],"type":"Polygon"},"id":"E02001777","properties":{"code":"E02001777","geography":"MSOA","name":"South Tyneside 010"},"type":"Feature"},{"geometry":{"coordinates":[[[-1.4245378,54.9699755],[-1.4384127,54.9796115],[-1.4435037,54.9734292],[-1.4435345,54.9665679],[-1.4390431,54.9669481],[-1.4245378,54.9699755]]],"type":"Polygon"},"id":"E02001778","properties":{"code":"E02001778","geography":"MSOA","name":"South Tyneside 011"},"type":"Feature"},{"geometry":{"coordinates":[[[-1.4384127,54.9796115],[-1.4444749,54.9865767],[-1.4477643,54.9872256],[-1.4490814,54.9853691],[-1.4515748,54.9851503],[-1.4568608,54.9846862],[-1.4580972,54.9763685],[-1.4627214,54.9736655],[-1.4768089,54.9740616],[-1.4749268,54.9690716],[-1.4534539,54.9696978],[-1.4574201,54.9649382],[-1.4505586,54.9647288],[-1.4435037,54.9734292],[-1.4384127,54.9796115]]],"type":"Polygon"},"id":"E02001779","properties":{"code":"E02001779","geography":"MSOA","name":"South Tyneside 012"},"type":"Feature"},{"geometry":{"coordinates":[[[-1.3964864,54.9689763],[-1.3966581,54.9737946],[-1.4105766,54.9716628],[-1.4167068,54.9719096],[-1.4138751,54.9630828],[-1.3963063,54.9635894],[-1.3964864,54.9689763]]],"type":"Polygon"},"id":"E02001780","properties":{"code":"E02001780","geography":"MSOA","name":"South Tyneside 013"},"type":"Feature"},{"geometry":{"coordinates":[[[-1.4574201,54.9649382],[-1.4534539,54.9696978],[-1.4749268,54.9690716],[-1.4712381,54.9586548],[-1.4603914,54.9595355],[-1.4574201,54.9649382]]],"type":"Polygon"},"id":"E02001781","properties":{"code":"E02001781","geography":"MSOA","name":"South Tyneside 014"},"type":"Feature"},{"geometry":{"coordinates":[[[-1.4928886,54.969246],[-1.497545,54.968935],[-1.4990673,54.9723246],[-1.5069877,54.9704157],[-1.510347,54.9741024],[-1.5228505,54.9684809],[-1.5304324,54.9582011],[-1.5189691,54.9592569],[-1.5162805,54.9549684],[-1.4945787,54.9567466],[-1.4928886,54.969246]]],"type":"Polygon"},"id":"E02001782","properties":{"code":"E02001782","geography":"MSOA","name":"South Tyneside 015"},"type":"Feature"},{"geometry":{"coordinates":[[[-1.4390431,54.9669481],[-1.4435345,54.9665679],[-1.4435037,54.9734292],[-1.4505586,54.9647288],[-1.4574201,54.9649382],[-1.4603914,54.9595355],[-1.4534098,54.9592609],[-1.4361942,54.9530046],[-1.4353935,54.9555259],[-1.4390431,54.9669481]]],"type":"Polygon"},"id":"E02001783","properties":{"code":"E02001783","geography":"MSOA","name":"South Tyneside 016"},"type":"Feature"},{"geometry":{"coordinates":[[[-1.4768089,54.9740616],[-1.4886675,54.9744197],[-1.4927155,54.9711124],[-1.4928886,54.969246],[-1.4945787,54.9567466],[-1.4712381,54.9586548],[-1.4749268,54.9690716],[-1.4768089,54.9740616]]],"type":"Polygon"},"id":"E02001784","properties":{"code":"E02001784","geography":"MSOA","name":"South Tyneside 017"},"type":"Feature"},{"geometry":{"coordinates":[[[-1.3639616,54.94406],[-1.3537921,54.9568175],[-1.353662,54.9585955],[-1.3566164,54.9651904],[-1.3607268,54.9713236],[-1.3765753,54.9783514],[-1.3808987,54.9802678],[-1.3808973,54.9802985],[-1.3844764,54.9782498],[-1.3966581,54.9737946],[-1.3964864,54.9689763],[-1.387024,54.971424],[-1.3806391,54.964234],[-1.3858967,54.947005],[-1.3840822,54.9386464],[-1.3793908,54.9373735],[-1.3756697,54.9369017],[-1.3743353,54.9435274],[-1.3639616,54.94406]]],"type":"Polygon"},"id":"E02001785","properties":{"code":"E02001785","geography":"MSOA","name":"South Tyneside 018"},"type":"Feature"},{"geometry":{"coordinates":[[[-1.4138751,54.9630828],[-1.4167068,54.9719096],[-1.4170926,54.9718093],[-1.4245378,54.9699755],[-1.4390431,54.9669481],[-1.4353935,54.9555259],[-1.4244442,54.9563867],[-1.4241561,54.9588554],[-1.4137433,54.9602491],[-1.4138751,54.9630828]]],"type":"Polygon"},"id":"E02001786","properties":{"code":"E02001786","geography":"MSOA","name":"South Tyneside 019"},"type":"Feature"},{"geometry":{"coordinates":[[[-1.4738153,54.952829],[-1.4712381,54.9586548],[-1.4945787,54.9567466],[-1.5162805,54.9549684],[-1.5180494,54.9470405],[-1.5112043,54.9316582],[-1.4832255,54.9284126],[-1.466434,54.9301311],[-1.473727,54.9397846],[-1.4738153,54.952829]]],"type":"Polygon"},"id":"E02001787","properties":{"code":"E02001787","geography":"MSOA","name":"South Tyneside 020"},"type":"Feature"},{"geometry":{"coordinates":[[[-1.4534098,54.9592609],[-1.4603914,54.9595355],[-1.4712381,54.9586548],[-1.4738153,54.952829],[-1.4710016,54.9466715],[-1.4631034,54.9489104],[-1.4623437,54.9447744],[-1.453366,54.9444029],[-1.4475201,54.9497082],[-1.4534098,54.9592609]]],"type":"Polygon"},"id":"E02001788","properties":{"code":"E02001788","geography":"MSOA","name":"South Tyneside 021"},"type":"Feature"},{"geometry":{"coordinates":[[[-1.3858967,54.947005],[-1.3806391,54.964234],[-1.387024,54.971424],[-1.3964864,54.9689763],[-1.3963063,54.9635894],[-1.4138751,54.9630828],[-1.4137433,54.9602491],[-1.4241561,54.9588554],[-1.4244442,54.9563867],[-1.4353935,54.9555259],[-1.4361942,54.9530046],[-1.4409957,54.9512304],[-1.4400011,54.9476287],[-1.4331159,54.9476277],[-1.4283264,54.9428375],[-1.4220334,54.9454212],[-1.4300425,54.9489686],[-1.4228413,54.9474602],[-1.4220106,54.9521998],[-1.4142156,54.9503162],[-1.4183415,54.9478599],[-1.4131425,54.9446538],[-1.3858967,54.947005]]],"type":"Polygon"},"id":"E02001789","properties":{"code":"E02001789","geography":"MSOA","name":"South Tyneside 022"},"type":"Feature"},{"geometry":{"coordinates":[[[-1.4361942,54.9530046],[-1.4534098,54.9592609],[-1.4475201,54.9497082],[-1.453366,54.9444029],[-1.4623437,54.9447744],[-1.4631034,54.9489104],[-1.4710016,54.9466715],[-1.4738153,54.952829],[-1.473727,54.9397846],[-1.466434,54.9301311],[-1.4490801,54.9340803],[-1.4273966,54.9309331],[-1.419329,54.9299126],[-1.4167444,54.9339559],[-1.4060266,54.9373377],[-1.3967453,54.939713],[-1.3840822,54.9386464],[-1.3858967,54.947005],[-1.4131425,54.9446538],[-1.4183415,54.9478599],[-1.4142156,54.9503162],[-1.4220106,54.9521998],[-1.4228413,54.9474602],[-1.4300425,54.9489686],[-1.4220334,54.9454212],[-1.4283264,54.9428375],[-1.4331159,54.9476277],[-1.4400011,54.9476287],[-1.4409957,54.9512304],[-1.4361942,54.9530046]]],"type":"Polygon"},"id":"E02001790","properties":{"code":"E02001790","geography":"MSOA","name":"South Tyneside 023"},"type":"Feature"}],"type":"FeatureCollection"}
