{"features":[{"geometry":{"coordinates":[[[-2.7305245,53.5205815],[-2.7598473,53.5125219],[-2.768873,53.5135556],[-2.7824679,53.5314024],[-2.7945921,53.5212856],[-2.8167413,53.5121583],[-2.8225909,53.5051045],[-2.8199166,53.4965109],[-2.8249646,53.4851931],[-2.8167935,53.4778673],[-2.8145602,53.4762222],[-2.7950727,53.4796964],[-2.7685911,53.4745925],[-2.7592483,53.4786216],[-2.7516612,53.477581],[-2.7293867,53.4926799],[-2.7372492,53.5009488],[-2.731864,53.5071811],[-2.7230266,53.5099874],[-2.7305245,53.5205815]]],"type":"Polygon"},"id":"E02001406","properties":{"code":"E02001406","geography":"MSOA","name":"St. Helens 001"},"type":"Feature"},{"geometry":{"coordinates":[[[-2.6830657,53.5006083],[-2.7054606,53.5047728],[-2.7100064,53.514626],[-2.7230266,53.5099874],[-2.731864,53.5071811],[-2.7372492,53.5009488],[-2.7293867,53.4926799],[-2.7145889,53.4780296],[-2.6897041,53.4909928],[-2.6830657,53.5006083]]],"type":"Polygon"},"id":"E02001407","properties":{"code":"E02001407","geography":"MSOA","name":"St. Helens 002"},"type":"Feature"},{"geometry":{"coordinates":[[[-2.6567315,53.4925069],[-2.6631135,53.4928521],[-2.6663086,53.4997475],[-2.6830657,53.5006083],[-2.6897041,53.4909928],[-2.7145889,53.4780296],[-2.7162536,53.4739819],[-2.708711,53.4701033],[-2.7007274,53.463964],[-2.6897495,53.4695436],[-2.6747414,53.4694129],[-2.671319,53.4726323],[-2.6659207,53.4795791],[-2.6445485,53.480166],[-2.6567315,53.4925069]]],"type":"Polygon"},"id":"E02001408","properties":{"code":"E02001408","geography":"MSOA","name":"St. Helens 003"},"type":"Feature"},{"geometry":{"coordinates":[[[-2.7145889,53.4780296],[-2.7293867,53.4926799],[-2.7516612,53.477581],[-2.7424718,53.4724433],[-2.741166,53.4623293],[-2.7344632,53.4599037],[-2.7211391,53.4616767],[-2.7172434,53.4675464],[-2.708711,53.4701033],[-2.7162536,53.4739819],[-2.7145889,53.4780296]]],"type":"Polygon"},"id":"E02001409","properties":{"code":"E02001409","geography":"MSOA","name":"St. Helens 004"},"type":"Feature"},{"geometry":{"coordinates":[[[-2.6122995,53.4791773],[-2.6159182,53.4817403],[-2.6337134,53.4809239],[-2.6445485,53.480166],[-2.6659207,53.4795791],[-2.671319,53.4726323],[-2.6664689,53.4728594],[-2.6663502,53.4682986],[-2.6587787,53.4684323],[-2.6680259,53.4655029],[-2.6664359,53.4600866],[-2.6524963,53.4573928],[-2.6433182,53.4612359],[-2.6423336,53.4671573],[-2.6334049,53.4670272],[-2.6167618,53.4662231],[-2.6145494,53.4703453],[-2.6078874,53.4708336],[-2.6122995,53.4791773]]],"type":"Polygon"},"id":"E02001410","properties":{"code":"E02001410","geography":"MSOA","name":"St. Helens 005"},"type":"Feature"},{"geometry":{"coordinates":[[[-2.6664359,53.4600866],[-2.6680259,53.4655029],[-2.6587787,53.4684323],[-2.6663502,53.4682986],[-2.6664689,53.4728594],[-2.671319,53.4726323],[-2.6747414,53.4694129],[-2.6897495,53.4695436],[-2.6886409,53.4641581],[-2.6837992,53.4645948],[-2.685428,53.4613909],[-2.687103,53.457357],[-2.6816835,53.4547998],[-2.6771682,53.452737],[-2.6739427,53.4528193],[-2.6664359,53.4600866]]],"type":"Polygon"},"id":"E02001411","properties":{"code":"E02001411","geography":"MSOA","name":"St. Helens 006"},"type":"Feature"},{"geometry":{"coordinates":[[[-2.7516612,53.477581],[-2.7592483,53.4786216],[-2.7685911,53.4745925],[-2.7950727,53.4796964],[-2.8145602,53.4762222],[-2.8167935,53.4778673],[-2.8186721,53.466882],[-2.8045086,53.4671914],[-2.7913174,53.4711938],[-2.7651517,53.4599496],[-2.7553558,53.4557841],[-2.7534499,53.4590559],[-2.7465863,53.4571901],[-2.741166,53.4623293],[-2.7424718,53.4724433],[-2.7516612,53.477581]]],"type":"Polygon"},"id":"E02001412","properties":{"code":"E02001412","geography":"MSOA","name":"St. Helens 007"},"type":"Feature"},{"geometry":{"coordinates":[[[-2.6897495,53.4695436],[-2.7007274,53.463964],[-2.708711,53.4701033],[-2.7172434,53.4675464],[-2.7211391,53.4616767],[-2.709453,53.4573341],[-2.7025782,53.4575725],[-2.695497,53.4631181],[-2.6940137,53.459899],[-2.685428,53.4613909],[-2.6837992,53.4645948],[-2.6886409,53.4641581],[-2.6897495,53.4695436]]],"type":"Polygon"},"id":"E02001413","properties":{"code":"E02001413","geography":"MSOA","name":"St. Helens 008"},"type":"Feature"},{"geometry":{"coordinates":[[[-2.7651517,53.4599496],[-2.7913174,53.4711938],[-2.8045086,53.4671914],[-2.8069423,53.4559018],[-2.7951112,53.4430725],[-2.8054084,53.4400389],[-2.7969076,53.436045],[-2.7895056,53.4429435],[-2.792653,53.4460812],[-2.7864208,53.4502212],[-2.7871988,53.4537138],[-2.7742645,53.4492985],[-2.770006,53.4540279],[-2.7651517,53.4599496]]],"type":"Polygon"},"id":"E02001414","properties":{"code":"E02001414","geography":"MSOA","name":"St. Helens 009"},"type":"Feature"},{"geometry":{"coordinates":[[[-2.6334049,53.4670272],[-2.6423336,53.4671573],[-2.6433182,53.4612359],[-2.6524963,53.4573928],[-2.6664359,53.4600866],[-2.6739427,53.4528193],[-2.6731453,53.451735],[-2.6648799,53.4544384],[-2.6557731,53.4530127],[-2.6509943,53.4563665],[-2.6396431,53.4531509],[-2.6348938,53.4582868],[-2.6288624,53.4565952],[-2.6230137,53.458566],[-2.6334049,53.4670272]]],"type":"Polygon"},"id":"E02001415","properties":{"code":"E02001415","geography":"MSOA","name":"St. Helens 010"},"type":"Feature"},{"geometry":{"coordinates":[[[-2.685428,53.4613909],[-2.6940137,53.459899],[-2.695497,53.4631181],[-2.7025782,53.4575725],[-2.709453,53.4573341],[-2.7097817,53.4504843],[-2.7071554,53.447454],[-2.6958651,53.4520165],[-2.6869565,53.4488393],[-2.6874714,53.4522002],[-2.6816835,53.4547998],[-2.687103,53.457357],[-2.685428,53.4613909]]],"type":"Polygon"},"id":"E02001416","properties":{"code":"E02001416","geography":"MSOA","name":"St. Helens 011"},"type":"Feature"},{"geometry":{"coordinates":[[[-2.7344632,53.4599037],[-2.741166,53.4623293],[-2.7465863,53.4571901],[-2.7569148,53.4531804],[-2.7582667,53.4488382],[-2.7490939,53.4471458],[-2.7484195,53.4441862],[-2.7404192,53.4460349],[-2.7310387,53.4514099],[-2.738378,53.4537378],[-2.7344632,53.4599037]]],"type":"Polygon"},"id":"E02001417","properties":{"code":"E02001417","geography":"MSOA","name":"St. Helens 012"},"type":"Feature"},{"geometry":{"coordinates":[[[-2.6288624,53.4565952],[-2.6348938,53.4582868],[-2.6396431,53.4531509],[-2.6509943,53.4563665],[-2.6557731,53.4530127],[-2.6648799,53.4544384],[-2.6731453,53.451735],[-2.6388413,53.4442624],[-2.634464,53.4514631],[-2.6267607,53.4525392],[-2.6288624,53.4565952]]],"type":"Polygon"},"id":"E02001418","properties":{"code":"E02001418","geography":"MSOA","name":"St. Helens 013"},"type":"Feature"},{"geometry":{"coordinates":[[[-2.709453,53.4573341],[-2.7211391,53.4616767],[-2.7344632,53.4599037],[-2.738378,53.4537378],[-2.7310387,53.4514099],[-2.721558,53.4493606],[-2.7181779,53.4441001],[-2.7221322,53.4437056],[-2.7217752,53.437518],[-2.7156037,53.4385768],[-2.7156168,53.4341592],[-2.7055516,53.4351759],[-2.7021683,53.4421221],[-2.7031753,53.4447772],[-2.714683,53.4459014],[-2.7097817,53.4504843],[-2.709453,53.4573341]]],"type":"Polygon"},"id":"E02001419","properties":{"code":"E02001419","geography":"MSOA","name":"St. Helens 014"},"type":"Feature"},{"geometry":{"coordinates":[[[-2.6167618,53.4662231],[-2.6334049,53.4670272],[-2.6230137,53.458566],[-2.6288624,53.4565952],[-2.6267607,53.4525392],[-2.634464,53.4514631],[-2.6388413,53.4442624],[-2.6274119,53.4343744],[-2.6111874,53.4422903],[-2.5967329,53.442465],[-2.5987377,53.4503658],[-2.5846223,53.440394],[-2.5767429,53.4460409],[-2.583319,53.4488557],[-2.5845759,53.4542067],[-2.5961853,53.4564749],[-2.5992984,53.4610856],[-2.6132634,53.4618082],[-2.6167618,53.4662231]]],"type":"Polygon"},"id":"E02001420","properties":{"code":"E02001420","geography":"MSOA","name":"St. Helens 015"},"type":"Feature"},{"geometry":{"coordinates":[[[-2.7465863,53.4571901],[-2.7534499,53.4590559],[-2.7553558,53.4557841],[-2.7651517,53.4599496],[-2.770006,53.4540279],[-2.7635486,53.4503246],[-2.7718814,53.4480869],[-2.7715668,53.4409609],[-2.7673029,53.439022],[-2.7657536,53.4377172],[-2.7541557,53.4393974],[-2.7404192,53.4460349],[-2.7484195,53.4441862],[-2.7490939,53.4471458],[-2.7582667,53.4488382],[-2.7569148,53.4531804],[-2.7465863,53.4571901]]],"type":"Polygon"},"id":"E02001421","properties":{"code":"E02001421","geography":"MSOA","name":"St. Helens 016"},"type":"Feature"},{"geometry":{"coordinates":[[[-2.6771682,53.452737],[-2.6816835,53.4547998],[-2.6874714,53.4522002],[-2.6869565,53.4488393],[-2.6958651,53.4520165],[-2.7071554,53.447454],[-2.7097817,53.4504843],[-2.714683,53.4459014],[-2.7031753,53.4447772],[-2.7021683,53.4421221],[-2.7002733,53.4346482],[-2.6821693,53.4392183],[-2.6771682,53.452737]]],"type":"Polygon"},"id":"E02001422","properties":{"code":"E02001422","geography":"MSOA","name":"St. Helens 017"},"type":"Feature"},{"geometry":{"coordinates":[[[-2.7673029,53.439022],[-2.7715668,53.4409609],[-2.7718814,53.4480869],[-2.7635486,53.4503246],[-2.770006,53.4540279],[-2.7742645,53.4492985],[-2.7871988,53.4537138],[-2.7864208,53.4502212],[-2.792653,53.4460812],[-2.7895056,53.4429435],[-2.7969076,53.436045],[-2.7973396,53.4336393],[-2.7926665,53.4310421],[-2.7762156,53.4266521],[-2.7654042,53.4224829],[-2.7630716,53.4300329],[-2.7687501,53.4353091],[-2.7765772,53.4366265],[-2.7673029,53.439022]]],"type":"Polygon"},"id":"E02001423","properties":{"code":"E02001423","geography":"MSOA","name":"St. Helens 018"},"type":"Feature"},{"geometry":{"coordinates":[[[-2.7002733,53.4346482],[-2.7021683,53.4421221],[-2.7055516,53.4351759],[-2.7156168,53.4341592],[-2.7156037,53.4385768],[-2.7217752,53.437518],[-2.7246012,53.4272592],[-2.7195172,53.4214584],[-2.7105665,53.4167811],[-2.7082549,53.4185128],[-2.7081496,53.414891],[-2.6965077,53.4236171],[-2.7036826,53.4304679],[-2.7120397,53.4304539],[-2.7002733,53.4346482]]],"type":"Polygon"},"id":"E02001425","properties":{"code":"E02001425","geography":"MSOA","name":"St. Helens 020"},"type":"Feature"},{"geometry":{"coordinates":[[[-2.7654042,53.4224829],[-2.7762156,53.4266521],[-2.7803041,53.4205786],[-2.7766525,53.4209849],[-2.7747521,53.4154847],[-2.7621636,53.4165816],[-2.7528125,53.4110214],[-2.7475783,53.415455],[-2.7578707,53.4189076],[-2.7654042,53.4224829]]],"type":"Polygon"},"id":"E02001426","properties":{"code":"E02001426","geography":"MSOA","name":"St. Helens 021"},"type":"Feature"},{"geometry":{"coordinates":[[[-2.6720182,53.4134693],[-2.6668569,53.4162484],[-2.6723199,53.4220089],[-2.6639563,53.4301904],[-2.675303,53.4329402],[-2.6687685,53.4410849],[-2.6821693,53.4392183],[-2.7002733,53.4346482],[-2.7120397,53.4304539],[-2.7036826,53.4304679],[-2.6965077,53.4236171],[-2.7081496,53.414891],[-2.7082549,53.4185128],[-2.7105665,53.4167811],[-2.7195172,53.4214584],[-2.7246012,53.4272592],[-2.7308593,53.4237136],[-2.7266703,53.4202777],[-2.730172,53.4168055],[-2.7449557,53.418631],[-2.7415638,53.4222603],[-2.7578707,53.4189076],[-2.7475783,53.415455],[-2.7385171,53.4101118],[-2.7285096,53.410266],[-2.7388243,53.4011433],[-2.7153235,53.3990128],[-2.712732,53.3905845],[-2.7049148,53.3867192],[-2.6906324,53.3853721],[-2.6762545,53.387613],[-2.6765177,53.3938114],[-2.6713603,53.400166],[-2.6720182,53.4134693]]],"type":"Polygon"},"id":"E02001427","properties":{"code":"E02001427","geography":"MSOA","name":"St. Helens 022"},"type":"Feature"},{"geometry":{"coordinates":[[[-2.7475783,53.415455],[-2.7528125,53.4110214],[-2.7621636,53.4165816],[-2.7747521,53.4154847],[-2.7766525,53.4209849],[-2.7803041,53.4205786],[-2.7781694,53.4162063],[-2.7856749,53.4149395],[-2.7842581,53.4075868],[-2.7867763,53.4011717],[-2.745204,53.401914],[-2.7388243,53.4011433],[-2.7285096,53.410266],[-2.7385171,53.4101118],[-2.7475783,53.415455]]],"type":"Polygon"},"id":"E02001428","properties":{"code":"E02001428","geography":"MSOA","name":"St. Helens 023"},"type":"Feature"},{"geometry":{"coordinates":[[[-2.7217752,53.437518],[-2.7221322,53.4437056],[-2.7181779,53.4441001],[-2.721558,53.4493606],[-2.7310387,53.4514099],[-2.7404192,53.4460349],[-2.7541557,53.4393974],[-2.7657536,53.4377172],[-2.758494,53.4333508],[-2.7493243,53.4328061],[-2.7442348,53.4243883],[-2.7375905,53.4232582],[-2.7415638,53.4222603],[-2.7449557,53.418631],[-2.730172,53.4168055],[-2.7266703,53.4202777],[-2.7308593,53.4237136],[-2.7246012,53.4272592],[-2.7217752,53.437518]]],"type":"Polygon"},"id":"E02006935","properties":{"code":"E02006935","geography":"MSOA","name":"St. Helens 024"},"type":"Feature"},{"geometry":{"coordinates":[[[-2.7657536,53.4377172],[-2.7673029,53.439022],[-2.7765772,53.4366265],[-2.7687501,53.4353091],[-2.7630716,53.4300329],[-2.7654042,53.4224829],[-2.7578707,53.4189076],[-2.7415638,53.4222603],[-2.7375905,53.4232582],[-2.7442348,53.4243883],[-2.7493243,53.4328061],[-2.758494,53.4333508],[-2.7657536,53.4377172]]],"type":"Polygon"},"id":"E02006936","properties":{"code":"E02006936","geography":"MSOA","name":"St. Helens 025"},"type":"Feature"}],"type":"FeatureCollection"}
