{"features":[{"geometry":{"coordinates":[[[-2.0980322,53.5963167],[-2.1074082,53.5993434],[-2.1125156,53.5988701],[-2.1126872,53.5927523],[-2.1186541,53.5923347],[-2.1258693,53.5864558],[-2.1242544,53.5750701],[-2.1129326,53.5745548],[-2.1076004,53.5782134],[-2.1099255,53.5811514],[-2.100106,53.5794],[-2.0930475,53.5866008],[-2.0953018,53.5910182],[-2.0980322,53.5963167]]],"type":"Polygon"},"id":"E02001098","properties":{"code":"E02001098","geography":"MSOA","name":"Oldham 001"},"type":"Feature"},{"geometry":{"coordinates":[[[-2.100106,53.5794],[-2.0920412,53.5767344],[-2.0883575,53.5813025],[-2.0816056,53.5803419],[-2.0834184,53.5859414],[-2.0771501,53.5864474],[-2.0847646,53.593768],[-2.0953018,53.5910182],[-2.0930475,53.5866008],[-2.100106,53.5794]]],"type":"Polygon"},"id":"E02001099","properties":{"code":"E02001099","geography":"MSOA","name":"Oldham 002"},"type":"Feature"},{"geometry":{"coordinates":[[[-2.0551425,53.5946168],[-2.0673256,53.5924399],[-2.0699388,53.5949523],[-2.0980322,53.5963167],[-2.0953018,53.5910182],[-2.0847646,53.593768],[-2.0771501,53.5864474],[-2.0834184,53.5859414],[-2.0816056,53.5803419],[-2.0883575,53.5813025],[-2.0920412,53.5767344],[-2.100106,53.5794],[-2.1099255,53.5811514],[-2.1076004,53.5782134],[-2.1129326,53.5745548],[-2.098158,53.5742195],[-2.0997064,53.5667786],[-2.0936232,53.566153],[-2.0855682,53.5752353],[-2.0753435,53.5723187],[-2.0672747,53.5738477],[-2.0606353,53.5701849],[-2.056908,53.5730792],[-2.0598776,53.5789497],[-2.0504651,53.5889052],[-2.0551425,53.5946168]]],"type":"Polygon"},"id":"E02001100","properties":{"code":"E02001100","geography":"MSOA","name":"Oldham 003"},"type":"Feature"},{"geometry":{"coordinates":[[[-2.1242544,53.5750701],[-2.1258693,53.5864558],[-2.1368983,53.5830657],[-2.1566184,53.5822955],[-2.1512762,53.5698812],[-2.1379398,53.5714607],[-2.1302023,53.565589],[-2.1314888,53.5698126],[-2.125403,53.5696147],[-2.1242544,53.5750701]]],"type":"Polygon"},"id":"E02001101","properties":{"code":"E02001101","geography":"MSOA","name":"Oldham 004"},"type":"Feature"},{"geometry":{"coordinates":[[[-2.1129326,53.5745548],[-2.1242544,53.5750701],[-2.125403,53.5696147],[-2.1233091,53.567227],[-2.1146175,53.567638],[-2.1110417,53.5618796],[-2.0997064,53.5667786],[-2.098158,53.5742195],[-2.1129326,53.5745548]]],"type":"Polygon"},"id":"E02001102","properties":{"code":"E02001102","geography":"MSOA","name":"Oldham 005"},"type":"Feature"},{"geometry":{"coordinates":[[[-2.0094718,53.6167645],[-2.0230371,53.6158242],[-2.0268698,53.6242293],[-2.035807,53.6029474],[-2.0568247,53.59741],[-2.0551425,53.5946168],[-2.0504651,53.5889052],[-2.0598776,53.5789497],[-2.056908,53.5730792],[-2.0486482,53.5698782],[-2.032067,53.5646047],[-2.0229872,53.5694802],[-2.0176353,53.566098],[-2.0083169,53.5678215],[-2.0195428,53.5593925],[-2.0121785,53.5628267],[-2.0077022,53.5590285],[-2.0170032,53.5541182],[-2.0088615,53.5553157],[-2.0079362,53.5490921],[-2.0027427,53.5493953],[-1.9946362,53.5538366],[-1.9730589,53.5443052],[-1.9643869,53.5509953],[-1.9256232,53.5531363],[-1.9275227,53.5546216],[-1.9427275,53.5616254],[-1.9481111,53.5728326],[-1.9816476,53.5893224],[-2.0094718,53.6167645]]],"type":"Polygon"},"id":"E02001103","properties":{"code":"E02001103","geography":"MSOA","name":"Oldham 006"},"type":"Feature"},{"geometry":{"coordinates":[[[-2.056908,53.5730792],[-2.0606353,53.5701849],[-2.0672747,53.5738477],[-2.0753435,53.5723187],[-2.0855682,53.5752353],[-2.0936232,53.566153],[-2.0944589,53.5608752],[-2.0889013,53.5556803],[-2.0909529,53.560516],[-2.0808353,53.5578722],[-2.0776666,53.555921],[-2.0686319,53.5577211],[-2.0486482,53.5698782],[-2.056908,53.5730792]]],"type":"Polygon"},"id":"E02001104","properties":{"code":"E02001104","geography":"MSOA","name":"Oldham 007"},"type":"Feature"},{"geometry":{"coordinates":[[[-2.125403,53.5696147],[-2.1314888,53.5698126],[-2.1302023,53.565589],[-2.1379398,53.5714607],[-2.1512762,53.5698812],[-2.1552394,53.5653823],[-2.13472,53.5543191],[-2.1285534,53.5566522],[-2.1223779,53.5547222],[-2.1205948,53.5590905],[-2.1288712,53.5577367],[-2.1275539,53.561624],[-2.1201476,53.5627432],[-2.1233091,53.567227],[-2.125403,53.5696147]]],"type":"Polygon"},"id":"E02001105","properties":{"code":"E02001105","geography":"MSOA","name":"Oldham 008"},"type":"Feature"},{"geometry":{"coordinates":[[[-2.0997064,53.5667786],[-2.1110417,53.5618796],[-2.1146175,53.567638],[-2.1233091,53.567227],[-2.1201476,53.5627432],[-2.1275539,53.561624],[-2.1288712,53.5577367],[-2.1205948,53.5590905],[-2.1223779,53.5547222],[-2.1155461,53.5525861],[-2.1084279,53.5515983],[-2.1045709,53.5568528],[-2.1011544,53.5542938],[-2.0944589,53.5608752],[-2.0936232,53.566153],[-2.0997064,53.5667786]]],"type":"Polygon"},"id":"E02001106","properties":{"code":"E02001106","geography":"MSOA","name":"Oldham 009"},"type":"Feature"},{"geometry":{"coordinates":[[[-2.13472,53.5543191],[-2.1552394,53.5653823],[-2.1720639,53.5581839],[-2.1700389,53.5514545],[-2.1590681,53.5485014],[-2.1609859,53.5534984],[-2.1521376,53.5562072],[-2.150216,53.5519177],[-2.1406377,53.5485625],[-2.1386588,53.5518415],[-2.1341012,53.5483914],[-2.1309909,53.551493],[-2.13472,53.5543191]]],"type":"Polygon"},"id":"E02001107","properties":{"code":"E02001107","geography":"MSOA","name":"Oldham 010"},"type":"Feature"},{"geometry":{"coordinates":[[[-2.0808353,53.5578722],[-2.0909529,53.560516],[-2.0889013,53.5556803],[-2.0944589,53.5608752],[-2.1011544,53.5542938],[-2.0983391,53.545566],[-2.0922736,53.5461424],[-2.0808353,53.5578722]]],"type":"Polygon"},"id":"E02001108","properties":{"code":"E02001108","geography":"MSOA","name":"Oldham 011"},"type":"Feature"},{"geometry":{"coordinates":[[[-2.0686319,53.5577211],[-2.0776666,53.555921],[-2.0808353,53.5578722],[-2.0922736,53.5461424],[-2.0897376,53.544522],[-2.086585,53.5473028],[-2.0839084,53.542229],[-2.0782796,53.5432772],[-2.0765729,53.5408386],[-2.0765534,53.5409133],[-2.0729783,53.5484057],[-2.0686319,53.5577211]]],"type":"Polygon"},"id":"E02001109","properties":{"code":"E02001109","geography":"MSOA","name":"Oldham 012"},"type":"Feature"},{"geometry":{"coordinates":[[[-2.0027427,53.5493953],[-2.0079362,53.5490921],[-2.0088615,53.5553157],[-2.0170032,53.5541182],[-2.0077022,53.5590285],[-2.0121785,53.5628267],[-2.0195428,53.5593925],[-2.0083169,53.5678215],[-2.0176353,53.566098],[-2.0229872,53.5694802],[-2.032067,53.5646047],[-2.0486482,53.5698782],[-2.0686319,53.5577211],[-2.0729783,53.5484057],[-2.0620233,53.5488504],[-2.0673081,53.5449038],[-2.0588702,53.5449182],[-2.0508634,53.5489744],[-2.0555941,53.5379421],[-2.0356543,53.5459038],[-2.037126,53.5392559],[-2.0274643,53.5380847],[-2.0359727,53.5303024],[-2.024805,53.5285785],[-2.0226857,53.5353111],[-2.0153441,53.5343078],[-2.0102125,53.5425919],[-2.0046934,53.5428451],[-2.0067983,53.5471623],[-2.0027427,53.5493953]]],"type":"Polygon"},"id":"E02001110","properties":{"code":"E02001110","geography":"MSOA","name":"Oldham 013"},"type":"Feature"},{"geometry":{"coordinates":[[[-2.1011544,53.5542938],[-2.1045709,53.5568528],[-2.1084279,53.5515983],[-2.1155461,53.5525861],[-2.1203666,53.5531777],[-2.1195582,53.5447548],[-2.1243949,53.5440907],[-2.1198141,53.5405461],[-2.1088746,53.5422606],[-2.1072269,53.5395858],[-2.0971131,53.5427815],[-2.0983391,53.545566],[-2.1011544,53.5542938]]],"type":"Polygon"},"id":"E02001111","properties":{"code":"E02001111","geography":"MSOA","name":"Oldham 014"},"type":"Feature"},{"geometry":{"coordinates":[[[-2.150216,53.5519177],[-2.1521376,53.5562072],[-2.1609859,53.5534984],[-2.1590681,53.5485014],[-2.1700389,53.5514545],[-2.1751083,53.5396287],[-2.1859244,53.5290417],[-2.1704839,53.5277237],[-2.1709006,53.5373011],[-2.1623022,53.5304461],[-2.1499303,53.5361533],[-2.1494616,53.5400344],[-2.1559667,53.5417787],[-2.1505622,53.5451097],[-2.157209,53.548222],[-2.156324,53.5523377],[-2.150216,53.5519177]]],"type":"Polygon"},"id":"E02001112","properties":{"code":"E02001112","geography":"MSOA","name":"Oldham 015"},"type":"Feature"},{"geometry":{"coordinates":[[[-2.1223779,53.5547222],[-2.1285534,53.5566522],[-2.13472,53.5543191],[-2.1309909,53.551493],[-2.1341012,53.5483914],[-2.1350578,53.539995],[-2.1296064,53.5391274],[-2.1257419,53.5381885],[-2.1198141,53.5405461],[-2.1243949,53.5440907],[-2.1195582,53.5447548],[-2.1203666,53.5531777],[-2.1155461,53.5525861],[-2.1223779,53.5547222]]],"type":"Polygon"},"id":"E02001113","properties":{"code":"E02001113","geography":"MSOA","name":"Oldham 016"},"type":"Feature"},{"geometry":{"coordinates":[[[-2.150216,53.5519177],[-2.156324,53.5523377],[-2.157209,53.548222],[-2.1505622,53.5451097],[-2.1559667,53.5417787],[-2.1494616,53.5400344],[-2.1499303,53.5361533],[-2.1411841,53.5350158],[-2.1296064,53.5391274],[-2.1350578,53.539995],[-2.1341012,53.5483914],[-2.1386588,53.5518415],[-2.1406377,53.5485625],[-2.150216,53.5519177]]],"type":"Polygon"},"id":"E02001114","properties":{"code":"E02001114","geography":"MSOA","name":"Oldham 017"},"type":"Feature"},{"geometry":{"coordinates":[[[-2.0588702,53.5449182],[-2.0673081,53.5449038],[-2.0620233,53.5488504],[-2.0729783,53.5484057],[-2.0765534,53.5409133],[-2.0698772,53.5400351],[-2.0754702,53.5376226],[-2.0681221,53.5357672],[-2.0719473,53.5300128],[-2.0670087,53.5263719],[-2.0600788,53.5337484],[-2.0563978,53.5330947],[-2.069333,53.5372101],[-2.0625821,53.5398474],[-2.0636276,53.5427411],[-2.0562423,53.5411067],[-2.0588702,53.5449182]]],"type":"Polygon"},"id":"E02001115","properties":{"code":"E02001115","geography":"MSOA","name":"Oldham 018"},"type":"Feature"},{"geometry":{"coordinates":[[[-2.0765729,53.5408386],[-2.0782796,53.5432772],[-2.0839084,53.542229],[-2.086585,53.5473028],[-2.0897376,53.544522],[-2.0922736,53.5461424],[-2.0983391,53.545566],[-2.0971131,53.5427815],[-2.0873575,53.5392746],[-2.088222,53.5305284],[-2.083293,53.5311969],[-2.0765729,53.5408386]]],"type":"Polygon"},"id":"E02001116","properties":{"code":"E02001116","geography":"MSOA","name":"Oldham 019"},"type":"Feature"},{"geometry":{"coordinates":[[[-1.9256232,53.5531363],[-1.9643869,53.5509953],[-1.9730589,53.5443052],[-1.9946362,53.5538366],[-2.0027427,53.5493953],[-2.0067983,53.5471623],[-2.0046934,53.5428451],[-2.0102125,53.5425919],[-2.0153441,53.5343078],[-2.0226857,53.5353111],[-2.024805,53.5285785],[-2.0190382,53.5252947],[-2.0188073,53.521386],[-2.0091917,53.5192091],[-1.9969214,53.5220342],[-1.9857887,53.5164311],[-1.9633888,53.50981],[-1.9513356,53.5041818],[-1.9219747,53.5099383],[-1.9167689,53.514479],[-1.9267821,53.5209323],[-1.9224466,53.5307986],[-1.9096224,53.538375],[-1.9128861,53.5516278],[-1.9256232,53.5531363]]],"type":"Polygon"},"id":"E02001117","properties":{"code":"E02001117","geography":"MSOA","name":"Oldham 020"},"type":"Feature"},{"geometry":{"coordinates":[[[-2.0359727,53.5303024],[-2.0274643,53.5380847],[-2.037126,53.5392559],[-2.0356543,53.5459038],[-2.0555941,53.5379421],[-2.0508634,53.5489744],[-2.0588702,53.5449182],[-2.0562423,53.5411067],[-2.0636276,53.5427411],[-2.0625821,53.5398474],[-2.069333,53.5372101],[-2.0563978,53.5330947],[-2.0549404,53.531344],[-2.0359727,53.5303024]]],"type":"Polygon"},"id":"E02001118","properties":{"code":"E02001118","geography":"MSOA","name":"Oldham 021"},"type":"Feature"},{"geometry":{"coordinates":[[[-2.088222,53.5305284],[-2.0873575,53.5392746],[-2.0971131,53.5427815],[-2.1072269,53.5395858],[-2.1103663,53.5348033],[-2.100559,53.5280998],[-2.0937757,53.5257703],[-2.0921007,53.5312057],[-2.088222,53.5305284]]],"type":"Polygon"},"id":"E02001119","properties":{"code":"E02001119","geography":"MSOA","name":"Oldham 022"},"type":"Feature"},{"geometry":{"coordinates":[[[-2.1072269,53.5395858],[-2.1088746,53.5422606],[-2.1198141,53.5405461],[-2.1257419,53.5381885],[-2.1238275,53.5357568],[-2.1146812,53.5317975],[-2.1197185,53.5300684],[-2.1193202,53.5253457],[-2.1175505,53.5254051],[-2.1143279,53.52889],[-2.100559,53.5280998],[-2.1103663,53.5348033],[-2.1072269,53.5395858]]],"type":"Polygon"},"id":"E02001121","properties":{"code":"E02001121","geography":"MSOA","name":"Oldham 024"},"type":"Feature"},{"geometry":{"coordinates":[[[-2.0563978,53.5330947],[-2.0600788,53.5337484],[-2.0670087,53.5263719],[-2.0719473,53.5300128],[-2.0681221,53.5357672],[-2.0754702,53.5376226],[-2.0698772,53.5400351],[-2.0765534,53.5409133],[-2.0765729,53.5408386],[-2.083293,53.5311969],[-2.088222,53.5305284],[-2.0921007,53.5312057],[-2.0937757,53.5257703],[-2.0935469,53.5180115],[-2.0931859,53.5205637],[-2.061852,53.5223615],[-2.0541276,53.5222524],[-2.0549404,53.531344],[-2.0563978,53.5330947]]],"type":"Polygon"},"id":"E02001123","properties":{"code":"E02001123","geography":"MSOA","name":"Oldham 026"},"type":"Feature"},{"geometry":{"coordinates":[[[-2.1425087,53.5309199],[-2.1509171,53.5314679],[-2.1535657,53.525649],[-2.1454773,53.5247821],[-2.134616,53.5222121],[-2.1270395,53.5251197],[-2.1348828,53.5291178],[-2.1425087,53.5309199]]],"type":"Polygon"},"id":"E02001124","properties":{"code":"E02001124","geography":"MSOA","name":"Oldham 027"},"type":"Feature"},{"geometry":{"coordinates":[[[-2.1499303,53.5361533],[-2.1623022,53.5304461],[-2.1709006,53.5373011],[-2.1704839,53.5277237],[-2.1647745,53.5201402],[-2.1591369,53.5221522],[-2.1562308,53.5158002],[-2.1476482,53.5196242],[-2.1454773,53.5247821],[-2.1535657,53.525649],[-2.1509171,53.5314679],[-2.1425087,53.5309199],[-2.1411841,53.5350158],[-2.1499303,53.5361533]]],"type":"Polygon"},"id":"E02001125","properties":{"code":"E02001125","geography":"MSOA","name":"Oldham 028"},"type":"Feature"},{"geometry":{"coordinates":[[[-2.100559,53.5280998],[-2.1143279,53.52889],[-2.1175505,53.5254051],[-2.1161695,53.5190145],[-2.1241013,53.5193356],[-2.1208037,53.5154442],[-2.1124512,53.5181046],[-2.0976663,53.5144939],[-2.0935469,53.5180115],[-2.0937757,53.5257703],[-2.100559,53.5280998]]],"type":"Polygon"},"id":"E02001126","properties":{"code":"E02001126","geography":"MSOA","name":"Oldham 029"},"type":"Feature"},{"geometry":{"coordinates":[[[-2.1208037,53.5154442],[-2.1241013,53.5193356],[-2.1161695,53.5190145],[-2.1175505,53.5254051],[-2.1193202,53.5253457],[-2.1270395,53.5251197],[-2.134616,53.5222121],[-2.1288772,53.5150603],[-2.1373676,53.5140077],[-2.1379446,53.5100223],[-2.1290164,53.5073477],[-2.1208037,53.5154442]]],"type":"Polygon"},"id":"E02001127","properties":{"code":"E02001127","geography":"MSOA","name":"Oldham 030"},"type":"Feature"},{"geometry":{"coordinates":[[[-2.134616,53.5222121],[-2.1454773,53.5247821],[-2.1476482,53.5196242],[-2.1562308,53.5158002],[-2.1578458,53.5129515],[-2.1482927,53.5127312],[-2.148637,53.5101543],[-2.1379446,53.5100223],[-2.1373676,53.5140077],[-2.1288772,53.5150603],[-2.134616,53.5222121]]],"type":"Polygon"},"id":"E02001128","properties":{"code":"E02001128","geography":"MSOA","name":"Oldham 031"},"type":"Feature"},{"geometry":{"coordinates":[[[-2.148637,53.5101543],[-2.1482927,53.5127312],[-2.1578458,53.5129515],[-2.1562308,53.5158002],[-2.1607008,53.5129236],[-2.1734331,53.5122963],[-2.1783465,53.5067629],[-2.1687543,53.5010463],[-2.161501,53.5069163],[-2.1551846,53.5063795],[-2.148637,53.5101543]]],"type":"Polygon"},"id":"E02001129","properties":{"code":"E02001129","geography":"MSOA","name":"Oldham 032"},"type":"Feature"},{"geometry":{"coordinates":[[[-2.0976663,53.5144939],[-2.1124512,53.5181046],[-2.1208037,53.5154442],[-2.1290164,53.5073477],[-2.1379446,53.5100223],[-2.148637,53.5101543],[-2.1551846,53.5063795],[-2.1509548,53.4973493],[-2.1563128,53.4939431],[-2.140985,53.4911275],[-2.1218081,53.5007255],[-2.1197024,53.505621],[-2.1068452,53.5088608],[-2.0976663,53.5144939]]],"type":"Polygon"},"id":"E02001130","properties":{"code":"E02001130","geography":"MSOA","name":"Oldham 033"},"type":"Feature"},{"geometry":{"coordinates":[[[-2.1551846,53.5063795],[-2.161501,53.5069163],[-2.1687543,53.5010463],[-2.1618389,53.4983045],[-2.1630557,53.4928501],[-2.1591666,53.4932265],[-2.1563128,53.4939431],[-2.1509548,53.4973493],[-2.1551846,53.5063795]]],"type":"Polygon"},"id":"E02001131","properties":{"code":"E02001131","geography":"MSOA","name":"Oldham 034"},"type":"Feature"},{"geometry":{"coordinates":[[[-2.1257419,53.5381885],[-2.1296064,53.5391274],[-2.1411841,53.5350158],[-2.1425087,53.5309199],[-2.1348828,53.5291178],[-2.1322316,53.5332732],[-2.1238275,53.5357568],[-2.1257419,53.5381885]]],"type":"Polygon"},"id":"E02007000","properties":{"code":"E02007000","geography":"MSOA","name":"Oldham 036"},"type":"Feature"},{"geometry":{"coordinates":[[[-2.1193202,53.5253457],[-2.1197185,53.5300684],[-2.1146812,53.5317975],[-2.1238275,53.5357568],[-2.1322316,53.5332732],[-2.1348828,53.5291178],[-2.1270395,53.5251197],[-2.1193202,53.5253457]]],"type":"Polygon"},"id":"E02007001","properties":{"code":"E02007001","geography":"MSOA","name":"Oldham 037"},"type":"Feature"}],"type":"FeatureCollection"}
