{"features":[{"geometry":{"coordinates":[[[-0.911679,53.6498019],[-0.9468404,53.6591217],[-0.9902302,53.6589636],[-0.9823919,53.6254023],[-0.9818436,53.6322232],[-0.9662884,53.6332046],[-0.9693767,53.6269954],[-0.9605194,53.6290051],[-0.9663903,53.6224314],[-0.9567143,53.6184418],[-0.9524374,53.6203825],[-0.9499641,53.6133504],[-0.9454445,53.6133466],[-0.9396374,53.6068055],[-0.9469604,53.607706],[-0.9498747,53.5972931],[-0.9597553,53.5979828],[-0.9593157,53.6017785],[-0.9651304,53.6029224],[-0.9670414,53.5995196],[-0.960896,53.5921004],[-0.9473787,53.5937287],[-0.8979223,53.5832565],[-0.8868926,53.6010061],[-0.8869912,53.6096668],[-0.8653331,53.6376881],[-0.911679,53.6498019]]],"type":"Polygon"},"id":"E02001539","properties":{"code":"E02001539","geography":"MSOA","name":"Doncaster 001"},"type":"Feature"},{"geometry":{"coordinates":[[[-1.0655057,53.6489641],[-1.0848141,53.6517074],[-1.1215443,53.6467467],[-1.1289928,53.6429703],[-1.1288695,53.6349337],[-1.1354044,53.6327097],[-1.1522947,53.6427583],[-1.1903103,53.635898],[-1.2098241,53.6431452],[-1.2108893,53.6409378],[-1.2156439,53.6419639],[-1.2193841,53.6366689],[-1.2174651,53.6242065],[-1.2328412,53.6210943],[-1.2278992,53.6173188],[-1.2312947,53.6168916],[-1.2168725,53.5974995],[-1.202755,53.5913153],[-1.2025007,53.5944744],[-1.1907784,53.5931634],[-1.1826575,53.5888522],[-1.158886,53.5890352],[-1.1540019,53.5778839],[-1.1370922,53.5749228],[-1.1128538,53.575407],[-1.095173,53.5664335],[-1.085677,53.5671973],[-1.0991559,53.5715618],[-1.0901073,53.5719031],[-1.0997702,53.5748374],[-1.090789,53.5744892],[-1.0923446,53.5806231],[-1.0864037,53.581909],[-1.0931139,53.5897012],[-1.0871489,53.5946274],[-1.0800771,53.5947413],[-1.0803325,53.6054469],[-1.0673778,53.5980981],[-1.0620507,53.5970193],[-1.0489959,53.6062942],[-1.0358303,53.6014544],[-1.0307861,53.6047632],[-1.0499066,53.6229582],[-1.0684569,53.6307973],[-1.0810284,53.6322149],[-1.0806669,53.6365418],[-1.0655057,53.6489641]]],"type":"Polygon"},"id":"E02001540","properties":{"code":"E02001540","geography":"MSOA","name":"Doncaster 002"},"type":"Feature"},{"geometry":{"coordinates":[[[-0.9651304,53.6029224],[-0.9593157,53.6017785],[-0.9597553,53.5979828],[-0.9498747,53.5972931],[-0.9469604,53.607706],[-0.9396374,53.6068055],[-0.9454445,53.6133466],[-0.9499641,53.6133504],[-0.9524374,53.6203825],[-0.9567143,53.6184418],[-0.9663903,53.6224314],[-0.9605194,53.6290051],[-0.9693767,53.6269954],[-0.9662884,53.6332046],[-0.9818436,53.6322232],[-0.9823919,53.6254023],[-0.9851336,53.6149194],[-0.9765467,53.6119508],[-0.9886987,53.6018691],[-0.9651304,53.6029224]]],"type":"Polygon"},"id":"E02001541","properties":{"code":"E02001541","geography":"MSOA","name":"Doncaster 003"},"type":"Feature"},{"geometry":{"coordinates":[[[-0.9902302,53.6589636],[-0.9904557,53.6612035],[-1.0293585,53.65495],[-1.0486592,53.6560377],[-1.0532742,53.6515173],[-1.0655057,53.6489641],[-1.0806669,53.6365418],[-1.0810284,53.6322149],[-1.0684569,53.6307973],[-1.0499066,53.6229582],[-1.0307861,53.6047632],[-1.0358303,53.6014544],[-1.0489959,53.6062942],[-1.0620507,53.5970193],[-1.0673778,53.5980981],[-1.0631162,53.595924],[-1.0641065,53.5916397],[-1.0486802,53.58799],[-1.0419969,53.5803034],[-1.0035673,53.5962152],[-0.9886987,53.6018691],[-0.9765467,53.6119508],[-0.9851336,53.6149194],[-0.9823919,53.6254023],[-0.9902302,53.6589636]]],"type":"Polygon"},"id":"E02001542","properties":{"code":"E02001542","geography":"MSOA","name":"Doncaster 004"},"type":"Feature"},{"geometry":{"coordinates":[[[-1.1540019,53.5778839],[-1.158886,53.5890352],[-1.1826575,53.5888522],[-1.1907784,53.5931634],[-1.2025007,53.5944744],[-1.202755,53.5913153],[-1.2168725,53.5974995],[-1.2103915,53.5788884],[-1.1991633,53.5759969],[-1.1972977,53.578487],[-1.1857499,53.5757178],[-1.1811468,53.5772725],[-1.1810383,53.5728617],[-1.1749091,53.5777448],[-1.1654574,53.5755904],[-1.1570871,53.5729984],[-1.1540019,53.5778839]]],"type":"Polygon"},"id":"E02001543","properties":{"code":"E02001543","geography":"MSOA","name":"Doncaster 005"},"type":"Feature"},{"geometry":{"coordinates":[[[-1.0432953,53.5494708],[-1.025169,53.554504],[-1.0281612,53.5608703],[-1.0228912,53.5648311],[-1.0263907,53.5662197],[-1.0162695,53.5670944],[-1.012944,53.5703002],[-1.0175558,53.5744035],[-1.0140194,53.5714596],[-1.0041324,53.5741845],[-1.0142957,53.5773493],[-1.0085478,53.578129],[-1.0115749,53.5817405],[-1.0048767,53.580448],[-1.0078959,53.5840395],[-0.9966295,53.5915936],[-0.9981516,53.5955883],[-1.0035673,53.5962152],[-1.0419969,53.5803034],[-1.0360739,53.5744168],[-1.039793,53.5610823],[-1.0450696,53.5584937],[-1.0409261,53.5556577],[-1.0432953,53.5494708]]],"type":"Polygon"},"id":"E02001544","properties":{"code":"E02001544","geography":"MSOA","name":"Doncaster 006"},"type":"Feature"},{"geometry":{"coordinates":[[[-1.0673778,53.5980981],[-1.0803325,53.6054469],[-1.0800771,53.5947413],[-1.0871489,53.5946274],[-1.0931139,53.5897012],[-1.0864037,53.581909],[-1.0923446,53.5806231],[-1.090789,53.5744892],[-1.0997702,53.5748374],[-1.0901073,53.5719031],[-1.0991559,53.5715618],[-1.085677,53.5671973],[-1.0913509,53.5634203],[-1.0898868,53.5562455],[-1.0849588,53.5585674],[-1.0840874,53.5525768],[-1.0757712,53.5579325],[-1.0450696,53.5584937],[-1.039793,53.5610823],[-1.0360739,53.5744168],[-1.0419969,53.5803034],[-1.0486802,53.58799],[-1.0641065,53.5916397],[-1.0631162,53.595924],[-1.0673778,53.5980981]]],"type":"Polygon"},"id":"E02001545","properties":{"code":"E02001545","geography":"MSOA","name":"Doncaster 007"},"type":"Feature"},{"geometry":{"coordinates":[[[-0.8979223,53.5832565],[-0.9473787,53.5937287],[-0.960896,53.5921004],[-0.9670414,53.5995196],[-0.9651304,53.6029224],[-0.9886987,53.6018691],[-1.0035673,53.5962152],[-0.9981516,53.5955883],[-0.9966295,53.5915936],[-1.0078959,53.5840395],[-1.0048767,53.580448],[-1.0115749,53.5817405],[-1.0085478,53.578129],[-1.0142957,53.5773493],[-1.0041324,53.5741845],[-1.0140194,53.5714596],[-1.0175558,53.5744035],[-1.012944,53.5703002],[-1.0162695,53.5670944],[-1.0263907,53.5662197],[-1.0228912,53.5648311],[-1.0281612,53.5608703],[-1.025169,53.554504],[-1.0432953,53.5494708],[-1.0388422,53.5447441],[-1.0218189,53.5396559],[-1.0021293,53.5501359],[-1.0008607,53.5402315],[-0.9948528,53.5345849],[-0.9812806,53.5356672],[-0.9792445,53.5268454],[-0.9725432,53.5228132],[-0.9484699,53.5203523],[-0.9437121,53.5306225],[-0.8980675,53.5327389],[-0.892265,53.5375734],[-0.8998297,53.5444568],[-0.9002992,53.5556378],[-0.8909912,53.5665382],[-0.9011136,53.5687035],[-0.8962339,53.5828958],[-0.8979223,53.5832565]]],"type":"Polygon"},"id":"E02001546","properties":{"code":"E02001546","geography":"MSOA","name":"Doncaster 008"},"type":"Feature"},{"geometry":{"coordinates":[[[-1.1654574,53.5755904],[-1.1749091,53.5777448],[-1.1810383,53.5728617],[-1.1811468,53.5772725],[-1.1857499,53.5757178],[-1.1972977,53.578487],[-1.1991633,53.5759969],[-1.2103915,53.5788884],[-1.2053523,53.566248],[-1.2196314,53.565592],[-1.2174949,53.5614301],[-1.198635,53.5600019],[-1.1878091,53.5481735],[-1.1767969,53.5502294],[-1.1745767,53.5537233],[-1.1667507,53.5539792],[-1.1661021,53.5514381],[-1.1568368,53.5496915],[-1.1541523,53.5550674],[-1.1674769,53.5668281],[-1.1654574,53.5755904]]],"type":"Polygon"},"id":"E02001547","properties":{"code":"E02001547","geography":"MSOA","name":"Doncaster 009"},"type":"Feature"},{"geometry":{"coordinates":[[[-1.085677,53.5671973],[-1.095173,53.5664335],[-1.1128538,53.575407],[-1.1370922,53.5749228],[-1.1540019,53.5778839],[-1.1570871,53.5729984],[-1.1654574,53.5755904],[-1.1674769,53.5668281],[-1.1541523,53.5550674],[-1.1568368,53.5496915],[-1.1504032,53.5433976],[-1.1465111,53.5462133],[-1.13536,53.5455607],[-1.1334579,53.5599699],[-1.1277364,53.5579698],[-1.1271445,53.5630076],[-1.1203951,53.5643799],[-1.1064839,53.5570659],[-1.1225072,53.5538777],[-1.1156768,53.5449931],[-1.0898868,53.5562455],[-1.0913509,53.5634203],[-1.085677,53.5671973]]],"type":"Polygon"},"id":"E02001548","properties":{"code":"E02001548","geography":"MSOA","name":"Doncaster 010"},"type":"Feature"},{"geometry":{"coordinates":[[[-1.0432953,53.5494708],[-1.0409261,53.5556577],[-1.0450696,53.5584937],[-1.0757712,53.5579325],[-1.0840874,53.5525768],[-1.0750588,53.5373714],[-1.0690398,53.5386422],[-1.0700777,53.5448296],[-1.0629708,53.5422181],[-1.0624102,53.5371907],[-1.0588737,53.5436331],[-1.0541481,53.5429816],[-1.055526,53.5472233],[-1.0388422,53.5447441],[-1.0432953,53.5494708]]],"type":"Polygon"},"id":"E02001549","properties":{"code":"E02001549","geography":"MSOA","name":"Doncaster 011"},"type":"Feature"},{"geometry":{"coordinates":[[[-1.1568368,53.5496915],[-1.1661021,53.5514381],[-1.1667507,53.5539792],[-1.1745767,53.5537233],[-1.1767969,53.5502294],[-1.1878091,53.5481735],[-1.1768453,53.542389],[-1.1633048,53.5365609],[-1.15811,53.5390656],[-1.1477442,53.5366672],[-1.1534932,53.5401152],[-1.1504032,53.5433976],[-1.1568368,53.5496915]]],"type":"Polygon"},"id":"E02001550","properties":{"code":"E02001550","geography":"MSOA","name":"Doncaster 012"},"type":"Feature"},{"geometry":{"coordinates":[[[-1.1156768,53.5449931],[-1.1225072,53.5538777],[-1.1064839,53.5570659],[-1.1203951,53.5643799],[-1.1271445,53.5630076],[-1.1277364,53.5579698],[-1.1334579,53.5599699],[-1.13536,53.5455607],[-1.1465111,53.5462133],[-1.1504032,53.5433976],[-1.1534932,53.5401152],[-1.1477442,53.5366672],[-1.15811,53.5390656],[-1.1633048,53.5365609],[-1.1558415,53.5331381],[-1.1443227,53.5286959],[-1.1361764,53.5313599],[-1.1298885,53.534398],[-1.1156768,53.5449931]]],"type":"Polygon"},"id":"E02001551","properties":{"code":"E02001551","geography":"MSOA","name":"Doncaster 013"},"type":"Feature"},{"geometry":{"coordinates":[[[-0.9948528,53.5345849],[-1.0008607,53.5402315],[-1.0021293,53.5501359],[-1.0218189,53.5396559],[-1.0388422,53.5447441],[-1.055526,53.5472233],[-1.0541481,53.5429816],[-1.0588737,53.5436331],[-1.0624102,53.5371907],[-1.0629708,53.5422181],[-1.0700777,53.5448296],[-1.0690398,53.5386422],[-1.0750588,53.5373714],[-1.0735607,53.5310773],[-1.0582746,53.5319079],[-1.0587367,53.5349499],[-1.049703,53.5344183],[-1.0461663,53.5385831],[-1.0340719,53.5351619],[-1.0281486,53.5263526],[-0.9948528,53.5345849]]],"type":"Polygon"},"id":"E02001552","properties":{"code":"E02001552","geography":"MSOA","name":"Doncaster 014"},"type":"Feature"},{"geometry":{"coordinates":[[[-1.0840874,53.5525768],[-1.0849588,53.5585674],[-1.0898868,53.5562455],[-1.1156768,53.5449931],[-1.1298885,53.534398],[-1.1216682,53.536074],[-1.1234131,53.5334082],[-1.1124811,53.5313669],[-1.1008671,53.5365992],[-1.0960802,53.5327616],[-1.0750588,53.5373714],[-1.0840874,53.5525768]]],"type":"Polygon"},"id":"E02001553","properties":{"code":"E02001553","geography":"MSOA","name":"Doncaster 015"},"type":"Feature"},{"geometry":{"coordinates":[[[-1.1633048,53.5365609],[-1.1768453,53.542389],[-1.1804652,53.5391907],[-1.2002991,53.5409411],[-1.2045189,53.5369352],[-1.19243,53.5347166],[-1.1922365,53.5321931],[-1.189195,53.5329832],[-1.183221,53.5231522],[-1.1720021,53.5216701],[-1.1558415,53.5331381],[-1.1633048,53.5365609]]],"type":"Polygon"},"id":"E02001554","properties":{"code":"E02001554","geography":"MSOA","name":"Doncaster 016"},"type":"Feature"},{"geometry":{"coordinates":[[[-1.0281486,53.5263526],[-1.0340719,53.5351619],[-1.0461663,53.5385831],[-1.049703,53.5344183],[-1.0587367,53.5349499],[-1.0582746,53.5319079],[-1.0735607,53.5310773],[-1.0736862,53.5280852],[-1.0687701,53.5209108],[-1.0406491,53.5184413],[-1.0281486,53.5263526]]],"type":"Polygon"},"id":"E02001555","properties":{"code":"E02001555","geography":"MSOA","name":"Doncaster 017"},"type":"Feature"},{"geometry":{"coordinates":[[[-1.0735607,53.5310773],[-1.0750588,53.5373714],[-1.0960802,53.5327616],[-1.1008671,53.5365992],[-1.1124811,53.5313669],[-1.1157474,53.5300513],[-1.1027463,53.5224874],[-1.0854101,53.5261169],[-1.0736862,53.5280852],[-1.0735607,53.5310773]]],"type":"Polygon"},"id":"E02001556","properties":{"code":"E02001556","geography":"MSOA","name":"Doncaster 018"},"type":"Feature"},{"geometry":{"coordinates":[[[-1.1124811,53.5313669],[-1.1234131,53.5334082],[-1.1216682,53.536074],[-1.1298885,53.534398],[-1.1361764,53.5313599],[-1.1210944,53.5310565],[-1.13106,53.5246821],[-1.1238719,53.5214117],[-1.1219291,53.523105],[-1.1231056,53.5198061],[-1.1098109,53.5150967],[-1.1224335,53.5142075],[-1.1211399,53.512426],[-1.1153203,53.509073],[-1.1152401,53.5041609],[-1.1057367,53.5032506],[-1.1108297,53.5144734],[-1.1058553,53.5153075],[-1.0990332,53.5171193],[-1.0954015,53.5152951],[-1.0844704,53.5200558],[-1.0854101,53.5261169],[-1.1027463,53.5224874],[-1.1157474,53.5300513],[-1.1124811,53.5313669]]],"type":"Polygon"},"id":"E02001557","properties":{"code":"E02001557","geography":"MSOA","name":"Doncaster 019"},"type":"Feature"},{"geometry":{"coordinates":[[[-1.2168725,53.5974995],[-1.2312947,53.6168916],[-1.2481769,53.6162749],[-1.2448002,53.6081165],[-1.2521966,53.6070951],[-1.2472166,53.6007449],[-1.2576957,53.5998315],[-1.2530061,53.5971319],[-1.2580827,53.5919771],[-1.276691,53.5899536],[-1.2822634,53.583056],[-1.3103907,53.575984],[-1.3486462,53.5833134],[-1.3314285,53.5621793],[-1.3267304,53.5581135],[-1.3040368,53.5547388],[-1.2886035,53.5438206],[-1.2870109,53.5376853],[-1.2938566,53.5358364],[-1.283776,53.5305136],[-1.2761551,53.5303375],[-1.2759108,53.5280903],[-1.286138,53.5266961],[-1.2765303,53.5205818],[-1.2846964,53.5150301],[-1.2910439,53.515527],[-1.3125632,53.513718],[-1.3129564,53.5013866],[-1.2779926,53.5035151],[-1.2715003,53.5093326],[-1.259033,53.5089799],[-1.2539146,53.5039723],[-1.2440358,53.5018822],[-1.2371124,53.4940748],[-1.2220689,53.4933631],[-1.222169,53.4826621],[-1.2136102,53.4800542],[-1.2050866,53.4848455],[-1.2125426,53.4848144],[-1.2134068,53.4871357],[-1.2023885,53.4967769],[-1.2010037,53.5012322],[-1.2080698,53.5032674],[-1.2052582,53.5073655],[-1.2096611,53.5067753],[-1.20676,53.5116504],[-1.2144278,53.516203],[-1.2089781,53.5199043],[-1.2089701,53.5286078],[-1.1922365,53.5321931],[-1.19243,53.5347166],[-1.2045189,53.5369352],[-1.2002991,53.5409411],[-1.1804652,53.5391907],[-1.1768453,53.542389],[-1.1878091,53.5481735],[-1.198635,53.5600019],[-1.2174949,53.5614301],[-1.2196314,53.565592],[-1.2053523,53.566248],[-1.2103915,53.5788884],[-1.2168725,53.5974995]]],"type":"Polygon"},"id":"E02001558","properties":{"code":"E02001558","geography":"MSOA","name":"Doncaster 020"},"type":"Feature"},{"geometry":{"coordinates":[[[-1.1443227,53.5286959],[-1.1558415,53.5331381],[-1.1720021,53.5216701],[-1.183221,53.5231522],[-1.189195,53.5329832],[-1.1922365,53.5321931],[-1.2089701,53.5286078],[-1.2089781,53.5199043],[-1.2144278,53.516203],[-1.20676,53.5116504],[-1.2096611,53.5067753],[-1.2052582,53.5073655],[-1.2080698,53.5032674],[-1.2010037,53.5012322],[-1.2023885,53.4967769],[-1.1852709,53.5099321],[-1.1719211,53.5070154],[-1.1618668,53.5082714],[-1.1605232,53.5124441],[-1.1634926,53.5172011],[-1.1468612,53.521897],[-1.1513769,53.5228847],[-1.1507401,53.5259937],[-1.1443227,53.5286959]]],"type":"Polygon"},"id":"E02001559","properties":{"code":"E02001559","geography":"MSOA","name":"Doncaster 021"},"type":"Feature"},{"geometry":{"coordinates":[[[-1.1211399,53.512426],[-1.1224335,53.5142075],[-1.1098109,53.5150967],[-1.1231056,53.5198061],[-1.1219291,53.523105],[-1.1238719,53.5214117],[-1.13106,53.5246821],[-1.1210944,53.5310565],[-1.1361764,53.5313599],[-1.1443227,53.5286959],[-1.1507401,53.5259937],[-1.1513769,53.5228847],[-1.1468612,53.521897],[-1.1634926,53.5172011],[-1.1605232,53.5124441],[-1.1550072,53.511574],[-1.1371414,53.520852],[-1.1326997,53.5171668],[-1.1416934,53.5150331],[-1.1415927,53.5125515],[-1.1341593,53.5111465],[-1.1298037,53.5138506],[-1.1247673,53.5086993],[-1.1211399,53.512426]]],"type":"Polygon"},"id":"E02001560","properties":{"code":"E02001560","geography":"MSOA","name":"Doncaster 022"},"type":"Feature"},{"geometry":{"coordinates":[[[-1.1415927,53.5125515],[-1.1416934,53.5150331],[-1.1326997,53.5171668],[-1.1371414,53.520852],[-1.1550072,53.511574],[-1.1605232,53.5124441],[-1.1618668,53.5082714],[-1.1562434,53.504557],[-1.1503635,53.5045512],[-1.1415927,53.5125515]]],"type":"Polygon"},"id":"E02001561","properties":{"code":"E02001561","geography":"MSOA","name":"Doncaster 023"},"type":"Feature"},{"geometry":{"coordinates":[[[-1.0687701,53.5209108],[-1.0736862,53.5280852],[-1.0854101,53.5261169],[-1.0844704,53.5200558],[-1.0847387,53.5167901],[-1.0798436,53.5165507],[-1.0893273,53.5152092],[-1.08049,53.5110726],[-1.079069,53.5055476],[-1.0728294,53.5027568],[-1.0689703,53.5048792],[-1.0650849,53.5012359],[-1.0601445,53.502985],[-1.0604326,53.5088345],[-1.0663668,53.5120887],[-1.0641202,53.5189852],[-1.0687701,53.5209108]]],"type":"Polygon"},"id":"E02001562","properties":{"code":"E02001562","geography":"MSOA","name":"Doncaster 024"},"type":"Feature"},{"geometry":{"coordinates":[[[-1.0650849,53.5012359],[-1.0689703,53.5048792],[-1.0728294,53.5027568],[-1.079069,53.5055476],[-1.08049,53.5110726],[-1.0893273,53.5152092],[-1.0798436,53.5165507],[-1.0847387,53.5167901],[-1.0844704,53.5200558],[-1.0954015,53.5152951],[-1.0990332,53.5171193],[-1.1058553,53.5153075],[-1.1015692,53.5147384],[-1.0988637,53.5091199],[-1.0888159,53.5101426],[-1.0931814,53.503087],[-1.0861073,53.4961957],[-1.0752,53.4959083],[-1.0779823,53.4971201],[-1.0713414,53.5003922],[-1.0649986,53.4975506],[-1.0650849,53.5012359]]],"type":"Polygon"},"id":"E02001563","properties":{"code":"E02001563","geography":"MSOA","name":"Doncaster 025"},"type":"Feature"},{"geometry":{"coordinates":[[[-0.9484699,53.5203523],[-0.9725432,53.5228132],[-0.9792445,53.5268454],[-0.9812806,53.5356672],[-0.9948528,53.5345849],[-1.0281486,53.5263526],[-1.0406491,53.5184413],[-1.0687701,53.5209108],[-1.0641202,53.5189852],[-1.0663668,53.5120887],[-1.0604326,53.5088345],[-1.0601445,53.502985],[-1.0569496,53.5043007],[-1.0393443,53.4949232],[-1.0383844,53.4980378],[-1.029113,53.4969892],[-1.0218038,53.5012362],[-1.0183343,53.4979043],[-1.0212442,53.4937813],[-1.0125702,53.4930832],[-1.0115293,53.4902231],[-1.0117161,53.4848852],[-1.0181847,53.4848019],[-1.0199111,53.4810399],[-0.9860175,53.4716209],[-0.9533251,53.4843923],[-0.9355782,53.502478],[-0.9320908,53.5106511],[-0.9500056,53.5136365],[-0.9484699,53.5203523]]],"type":"Polygon"},"id":"E02001564","properties":{"code":"E02001564","geography":"MSOA","name":"Doncaster 026"},"type":"Feature"},{"geometry":{"coordinates":[[[-1.0650849,53.5012359],[-1.0649986,53.4975506],[-1.0713414,53.5003922],[-1.0779823,53.4971201],[-1.0752,53.4959083],[-1.0861073,53.4961957],[-1.0931814,53.503087],[-1.0888159,53.5101426],[-1.0988637,53.5091199],[-1.1015692,53.5147384],[-1.1058553,53.5153075],[-1.1108297,53.5144734],[-1.1057367,53.5032506],[-1.1005354,53.5008835],[-1.1016881,53.4967664],[-1.0766998,53.4909103],[-1.078977,53.4889765],[-1.0782121,53.4885509],[-1.0639822,53.4825895],[-1.0536419,53.4903679],[-1.0469896,53.4913443],[-1.0393443,53.4949232],[-1.0569496,53.5043007],[-1.0601445,53.502985],[-1.0650849,53.5012359]]],"type":"Polygon"},"id":"E02001565","properties":{"code":"E02001565","geography":"MSOA","name":"Doncaster 027"},"type":"Feature"},{"geometry":{"coordinates":[[[-1.1211399,53.512426],[-1.1247673,53.5086993],[-1.1298037,53.5138506],[-1.1341593,53.5111465],[-1.1415927,53.5125515],[-1.1503635,53.5045512],[-1.1562434,53.504557],[-1.161181,53.5033516],[-1.1500756,53.5022616],[-1.1505795,53.4897157],[-1.1361709,53.4898115],[-1.1016881,53.4967664],[-1.1005354,53.5008835],[-1.1057367,53.5032506],[-1.1152401,53.5041609],[-1.1153203,53.509073],[-1.1211399,53.512426]]],"type":"Polygon"},"id":"E02001566","properties":{"code":"E02001566","geography":"MSOA","name":"Doncaster 028"},"type":"Feature"},{"geometry":{"coordinates":[[[-1.1562434,53.504557],[-1.1618668,53.5082714],[-1.1719211,53.5070154],[-1.1731071,53.4974451],[-1.1622003,53.4902647],[-1.1581879,53.4900422],[-1.1505795,53.4897157],[-1.1500756,53.5022616],[-1.161181,53.5033516],[-1.1562434,53.504557]]],"type":"Polygon"},"id":"E02001567","properties":{"code":"E02001567","geography":"MSOA","name":"Doncaster 029"},"type":"Feature"},{"geometry":{"coordinates":[[[-1.2371124,53.4940748],[-1.2440358,53.5018822],[-1.2539146,53.5039723],[-1.259033,53.5089799],[-1.2715003,53.5093326],[-1.2779926,53.5035151],[-1.2805037,53.4933065],[-1.2923141,53.4917093],[-1.2907143,53.4911276],[-1.2768046,53.4890435],[-1.2795843,53.4908231],[-1.2525057,53.4952443],[-1.2371124,53.4940748]]],"type":"Polygon"},"id":"E02001568","properties":{"code":"E02001568","geography":"MSOA","name":"Doncaster 030"},"type":"Feature"},{"geometry":{"coordinates":[[[-1.2923141,53.4917093],[-1.2805037,53.4933065],[-1.2779926,53.5035151],[-1.3129564,53.5013866],[-1.3059338,53.4960048],[-1.2923141,53.4917093]]],"type":"Polygon"},"id":"E02001569","properties":{"code":"E02001569","geography":"MSOA","name":"Doncaster 031"},"type":"Feature"},{"geometry":{"coordinates":[[[-1.2371124,53.4940748],[-1.2525057,53.4952443],[-1.2795843,53.4908231],[-1.2768046,53.4890435],[-1.2907143,53.4911276],[-1.2929626,53.485904],[-1.3011138,53.4826441],[-1.295988,53.4805036],[-1.2984378,53.4765383],[-1.2970103,53.4751479],[-1.2809064,53.4784041],[-1.2697321,53.4858714],[-1.2546919,53.4811789],[-1.2439575,53.4878766],[-1.2352054,53.4842884],[-1.2333783,53.4783627],[-1.2274897,53.4830823],[-1.2276293,53.4801323],[-1.222169,53.4826621],[-1.2220689,53.4933631],[-1.2371124,53.4940748]]],"type":"Polygon"},"id":"E02001570","properties":{"code":"E02001570","geography":"MSOA","name":"Doncaster 032"},"type":"Feature"},{"geometry":{"coordinates":[[[-1.1719211,53.5070154],[-1.1852709,53.5099321],[-1.2023885,53.4967769],[-1.2134068,53.4871357],[-1.2125426,53.4848144],[-1.2050866,53.4848455],[-1.2136102,53.4800542],[-1.2184159,53.4757619],[-1.230735,53.4764081],[-1.2410927,53.4716375],[-1.2552862,53.4712863],[-1.2588769,53.4597456],[-1.2521421,53.4544677],[-1.2577504,53.4541989],[-1.2518,53.4487651],[-1.2524279,53.441728],[-1.2373363,53.4411563],[-1.2402047,53.434556],[-1.2380571,53.4327581],[-1.2163945,53.4350567],[-1.2068303,53.4317273],[-1.1973431,53.4315836],[-1.1951016,53.4371048],[-1.1858057,53.4337557],[-1.1709511,53.435354],[-1.1603997,53.4243213],[-1.1434585,53.4258532],[-1.1409197,53.4294449],[-1.1492795,53.4335582],[-1.1514068,53.439571],[-1.1493388,53.4429378],[-1.1436665,53.4428552],[-1.1452619,53.450216],[-1.1305315,53.454187],[-1.1697583,53.4578663],[-1.1914098,53.4563383],[-1.2078126,53.4722396],[-1.1988005,53.4874448],[-1.1966156,53.4840533],[-1.1864115,53.4865101],[-1.1826766,53.4909332],[-1.1622003,53.4902647],[-1.1731071,53.4974451],[-1.1719211,53.5070154]]],"type":"Polygon"},"id":"E02001571","properties":{"code":"E02001571","geography":"MSOA","name":"Doncaster 033"},"type":"Feature"},{"geometry":{"coordinates":[[[-1.1622003,53.4902647],[-1.1826766,53.4909332],[-1.1864115,53.4865101],[-1.1966156,53.4840533],[-1.1988005,53.4874448],[-1.2078126,53.4722396],[-1.1914098,53.4563383],[-1.1697583,53.4578663],[-1.1677912,53.4789872],[-1.1715784,53.4853107],[-1.1581879,53.4900422],[-1.1622003,53.4902647]]],"type":"Polygon"},"id":"E02001572","properties":{"code":"E02001572","geography":"MSOA","name":"Doncaster 034"},"type":"Feature"},{"geometry":{"coordinates":[[[-1.222169,53.4826621],[-1.2276293,53.4801323],[-1.2274897,53.4830823],[-1.2333783,53.4783627],[-1.2352054,53.4842884],[-1.2439575,53.4878766],[-1.2546919,53.4811789],[-1.2498889,53.4767186],[-1.2552862,53.4712863],[-1.2410927,53.4716375],[-1.230735,53.4764081],[-1.2184159,53.4757619],[-1.2136102,53.4800542],[-1.222169,53.4826621]]],"type":"Polygon"},"id":"E02001573","properties":{"code":"E02001573","geography":"MSOA","name":"Doncaster 035"},"type":"Feature"},{"geometry":{"coordinates":[[[-1.060318,53.4570835],[-1.0283442,53.4551752],[-1.0469896,53.4913443],[-1.0536419,53.4903679],[-1.0639822,53.4825895],[-1.0782121,53.4885509],[-1.0645074,53.4739958],[-1.0697397,53.4720997],[-1.0665486,53.4672279],[-1.0748315,53.4599575],[-1.060318,53.4570835]]],"type":"Polygon"},"id":"E02001574","properties":{"code":"E02001574","geography":"MSOA","name":"Doncaster 036"},"type":"Feature"},{"geometry":{"coordinates":[[[-1.0782121,53.4885509],[-1.078977,53.4889765],[-1.0943564,53.4842822],[-1.1028229,53.4736379],[-1.0942783,53.4668077],[-1.0805431,53.4644214],[-1.0748315,53.4599575],[-1.0665486,53.4672279],[-1.0697397,53.4720997],[-1.0645074,53.4739958],[-1.0782121,53.4885509]]],"type":"Polygon"},"id":"E02001575","properties":{"code":"E02001575","geography":"MSOA","name":"Doncaster 037"},"type":"Feature"},{"geometry":{"coordinates":[[[-0.9860175,53.4716209],[-1.0199111,53.4810399],[-1.0181847,53.4848019],[-1.0117161,53.4848852],[-1.0115293,53.4902231],[-1.0125702,53.4930832],[-1.0212442,53.4937813],[-1.0183343,53.4979043],[-1.0218038,53.5012362],[-1.029113,53.4969892],[-1.0383844,53.4980378],[-1.0393443,53.4949232],[-1.0469896,53.4913443],[-1.0283442,53.4551752],[-1.060318,53.4570835],[-1.0683189,53.4475572],[-1.0555154,53.447746],[-1.0569895,53.4387545],[-1.052011,53.4350504],[-1.0570356,53.4253837],[-1.0309504,53.4309938],[-1.0304608,53.4251614],[-1.0142827,53.4262572],[-1.0123756,53.4327841],[-0.9959051,53.4368317],[-0.9973391,53.444238],[-0.9834469,53.4675999],[-0.9860175,53.4716209]]],"type":"Polygon"},"id":"E02001576","properties":{"code":"E02001576","geography":"MSOA","name":"Doncaster 038"},"type":"Feature"},{"geometry":{"coordinates":[[[-1.078977,53.4889765],[-1.0766998,53.4909103],[-1.1016881,53.4967664],[-1.1361709,53.4898115],[-1.1505795,53.4897157],[-1.1581879,53.4900422],[-1.1715784,53.4853107],[-1.1677912,53.4789872],[-1.1697583,53.4578663],[-1.1305315,53.454187],[-1.1452619,53.450216],[-1.1436665,53.4428552],[-1.1493388,53.4429378],[-1.1514068,53.439571],[-1.1492795,53.4335582],[-1.1409197,53.4294449],[-1.1434585,53.4258532],[-1.1356194,53.424069],[-1.1458736,53.412284],[-1.133355,53.4087365],[-1.1180283,53.4109373],[-1.1159804,53.4073889],[-1.1081963,53.4058648],[-1.0986714,53.4188007],[-1.087037,53.4255091],[-1.0813048,53.4225176],[-1.0803635,53.4268638],[-1.073166,53.4280711],[-1.0570356,53.4253837],[-1.052011,53.4350504],[-1.0569895,53.4387545],[-1.0555154,53.447746],[-1.0683189,53.4475572],[-1.060318,53.4570835],[-1.0748315,53.4599575],[-1.0805431,53.4644214],[-1.0942783,53.4668077],[-1.1028229,53.4736379],[-1.0943564,53.4842822],[-1.078977,53.4889765]]],"type":"Polygon"},"id":"E02001577","properties":{"code":"E02001577","geography":"MSOA","name":"Doncaster 039"},"type":"Feature"}],"type":"FeatureCollection"}
