{"features":[{"geometry":{"coordinates":[[[-2.0507343,53.6795005],[-2.0512423,53.6836762],[-2.0618059,53.6828314],[-2.0733988,53.6774945],[-2.084058,53.6776492],[-2.0871216,53.6707944],[-2.1141068,53.6711205],[-2.1172744,53.6574678],[-2.1075739,53.6557183],[-2.0999783,53.6504585],[-2.1055271,53.6490875],[-2.1012358,53.6482659],[-2.1067711,53.6453783],[-2.1032275,53.6420724],[-2.1143128,53.6399472],[-2.1189646,53.6382807],[-2.1153139,53.6348485],[-2.0773004,53.6505113],[-2.0673253,53.6577933],[-2.0695483,53.6639026],[-2.0545481,53.6735469],[-2.0507343,53.6795005]]],"type":"Polygon"},"id":"E02001132","properties":{"code":"E02001132","geography":"MSOA","name":"Rochdale 001"},"type":"Feature"},{"geometry":{"coordinates":[[[-2.1141068,53.6711205],[-2.1253866,53.6748231],[-2.1341272,53.6857187],[-2.1422576,53.6779905],[-2.146328,53.6822162],[-2.1639394,53.6547499],[-2.1626812,53.6411522],[-2.1458098,53.6418366],[-2.1444771,53.6396319],[-2.1316984,53.635547],[-2.1299891,53.6429707],[-2.1202802,53.6401912],[-2.1143128,53.6399472],[-2.1032275,53.6420724],[-2.1067711,53.6453783],[-2.1012358,53.6482659],[-2.1055271,53.6490875],[-2.0999783,53.6504585],[-2.1075739,53.6557183],[-2.1172744,53.6574678],[-2.1141068,53.6711205]]],"type":"Polygon"},"id":"E02001133","properties":{"code":"E02001133","geography":"MSOA","name":"Rochdale 002"},"type":"Feature"},{"geometry":{"coordinates":[[[-2.0308877,53.629225],[-2.0299976,53.6361543],[-2.041581,53.642472],[-2.0370958,53.6623275],[-2.0545481,53.6735469],[-2.0695483,53.6639026],[-2.0673253,53.6577933],[-2.0773004,53.6505113],[-2.1153139,53.6348485],[-2.1189646,53.6382807],[-2.1143128,53.6399472],[-2.1202802,53.6401912],[-2.1335566,53.6337526],[-2.1262567,53.6235786],[-2.1257076,53.6239945],[-2.1169236,53.6306286],[-2.1158591,53.6284104],[-2.0976249,53.6266013],[-2.0983611,53.6231823],[-2.0908456,53.6218995],[-2.0894709,53.6181955],[-2.0747349,53.6242575],[-2.0508772,53.624822],[-2.0308877,53.629225]]],"type":"Polygon"},"id":"E02001134","properties":{"code":"E02001134","geography":"MSOA","name":"Rochdale 003"},"type":"Feature"},{"geometry":{"coordinates":[[[-2.1202802,53.6401912],[-2.1299891,53.6429707],[-2.1316984,53.635547],[-2.1444771,53.6396319],[-2.1414144,53.6328214],[-2.1444332,53.6289444],[-2.1402856,53.629035],[-2.1306493,53.6199966],[-2.1262567,53.6235786],[-2.1335566,53.6337526],[-2.1202802,53.6401912]]],"type":"Polygon"},"id":"E02001135","properties":{"code":"E02001135","geography":"MSOA","name":"Rochdale 004"},"type":"Feature"},{"geometry":{"coordinates":[[[-2.1444771,53.6396319],[-2.1458098,53.6418366],[-2.1626812,53.6411522],[-2.1740979,53.6393011],[-2.169278,53.6349321],[-2.1785211,53.6352157],[-2.1805081,53.6326572],[-2.1795592,53.6264388],[-2.173098,53.6252501],[-2.1562508,53.6262594],[-2.1444332,53.6289444],[-2.1414144,53.6328214],[-2.1444771,53.6396319]]],"type":"Polygon"},"id":"E02001136","properties":{"code":"E02001136","geography":"MSOA","name":"Rochdale 005"},"type":"Feature"},{"geometry":{"coordinates":[[[-2.2177294,53.6689656],[-2.2258252,53.6707522],[-2.2365763,53.6669913],[-2.2614427,53.6541075],[-2.2698673,53.6461204],[-2.2629999,53.6249957],[-2.2567717,53.6203817],[-2.257919,53.6164497],[-2.2717895,53.614498],[-2.261649,53.6065275],[-2.2509844,53.6071616],[-2.2455825,53.5990783],[-2.235206,53.6009353],[-2.2328137,53.5988443],[-2.2276481,53.6016897],[-2.219134,53.5969991],[-2.2175258,53.6112974],[-2.2125809,53.6127938],[-2.2112294,53.6160443],[-2.2213604,53.618368],[-2.2110321,53.628859],[-2.2185919,53.6288815],[-2.219225,53.6312555],[-2.2071867,53.6350506],[-2.1930027,53.6275198],[-2.1856455,53.6282688],[-2.1868594,53.6326475],[-2.1805081,53.6326572],[-2.1785211,53.6352157],[-2.169278,53.6349321],[-2.1740979,53.6393011],[-2.1853971,53.6382081],[-2.180469,53.6405335],[-2.1824085,53.6482416],[-2.1895853,53.6480094],[-2.2052297,53.6543331],[-2.2071629,53.6607184],[-2.2177294,53.6689656]]],"type":"Polygon"},"id":"E02001137","properties":{"code":"E02001137","geography":"MSOA","name":"Rochdale 006"},"type":"Feature"},{"geometry":{"coordinates":[[[-2.1856455,53.6282688],[-2.1930027,53.6275198],[-2.2071867,53.6350506],[-2.219225,53.6312555],[-2.2185919,53.6288815],[-2.2110321,53.628859],[-2.2213604,53.618368],[-2.2112294,53.6160443],[-2.2125809,53.6127938],[-2.2125217,53.6126668],[-2.2046784,53.6126866],[-2.2068642,53.6144691],[-2.1987828,53.6148315],[-2.1882178,53.6200764],[-2.1886227,53.6236939],[-2.1805619,53.62601],[-2.1856455,53.6282688]]],"type":"Polygon"},"id":"E02001138","properties":{"code":"E02001138","geography":"MSOA","name":"Rochdale 007"},"type":"Feature"},{"geometry":{"coordinates":[[[-2.1306493,53.6199966],[-2.1402856,53.629035],[-2.1444332,53.6289444],[-2.1562508,53.6262594],[-2.1543802,53.6204465],[-2.1454838,53.6166312],[-2.1467781,53.6128265],[-2.1306493,53.6199966]]],"type":"Polygon"},"id":"E02001139","properties":{"code":"E02001139","geography":"MSOA","name":"Rochdale 008"},"type":"Feature"},{"geometry":{"coordinates":[[[-2.173098,53.6252501],[-2.1795592,53.6264388],[-2.1805081,53.6326572],[-2.1868594,53.6326475],[-2.1856455,53.6282688],[-2.1805619,53.62601],[-2.1886227,53.6236939],[-2.1882178,53.6200764],[-2.1888623,53.6152333],[-2.1820378,53.6132431],[-2.1804101,53.6084552],[-2.1674024,53.6145785],[-2.1663886,53.6199081],[-2.1739038,53.6208242],[-2.173098,53.6252501]]],"type":"Polygon"},"id":"E02001140","properties":{"code":"E02001140","geography":"MSOA","name":"Rochdale 009"},"type":"Feature"},{"geometry":{"coordinates":[[[-2.1467781,53.6128265],[-2.1454838,53.6166312],[-2.1543802,53.6204465],[-2.1562508,53.6262594],[-2.173098,53.6252501],[-2.1739038,53.6208242],[-2.1663886,53.6199081],[-2.1674024,53.6145785],[-2.1804101,53.6084552],[-2.1755627,53.6045915],[-2.1798662,53.6022259],[-2.1681185,53.6017093],[-2.1645956,53.6089421],[-2.1588877,53.6097769],[-2.160848,53.6125427],[-2.155063,53.6136559],[-2.1542049,53.6104751],[-2.1467781,53.6128265]]],"type":"Polygon"},"id":"E02001141","properties":{"code":"E02001141","geography":"MSOA","name":"Rochdale 010"},"type":"Feature"},{"geometry":{"coordinates":[[[-2.1804101,53.6084552],[-2.1820378,53.6132431],[-2.1888623,53.6152333],[-2.1882178,53.6200764],[-2.1987828,53.6148315],[-2.2068642,53.6144691],[-2.2046784,53.6126866],[-2.2125217,53.6126668],[-2.2152755,53.6058794],[-2.2088175,53.6072993],[-2.1915414,53.6019247],[-2.1798662,53.6022259],[-2.1755627,53.6045915],[-2.1804101,53.6084552]]],"type":"Polygon"},"id":"E02001142","properties":{"code":"E02001142","geography":"MSOA","name":"Rochdale 011"},"type":"Feature"},{"geometry":{"coordinates":[[[-2.1214418,53.620326],[-2.1257076,53.6239945],[-2.1262567,53.6235786],[-2.1306493,53.6199966],[-2.1467781,53.6128265],[-2.1425566,53.6069573],[-2.1467135,53.6074841],[-2.1458318,53.6041258],[-2.1508485,53.6029056],[-2.1350778,53.5968154],[-2.130929,53.5978422],[-2.134229,53.6093178],[-2.1214418,53.620326]]],"type":"Polygon"},"id":"E02001143","properties":{"code":"E02001143","geography":"MSOA","name":"Rochdale 012"},"type":"Feature"},{"geometry":{"coordinates":[[[-2.1074082,53.5993434],[-2.1025817,53.6012278],[-2.1035305,53.6059059],[-2.1109928,53.6155766],[-2.1165278,53.6160384],[-2.1112233,53.6189838],[-2.1214418,53.620326],[-2.134229,53.6093178],[-2.130929,53.5978422],[-2.1223755,53.599639],[-2.1186541,53.5923347],[-2.1126872,53.5927523],[-2.1125156,53.5988701],[-2.1074082,53.5993434]]],"type":"Polygon"},"id":"E02001144","properties":{"code":"E02001144","geography":"MSOA","name":"Rochdale 013"},"type":"Feature"},{"geometry":{"coordinates":[[[-2.0308877,53.629225],[-2.0508772,53.624822],[-2.0747349,53.6242575],[-2.0894709,53.6181955],[-2.0908456,53.6218995],[-2.0983611,53.6231823],[-2.0976249,53.6266013],[-2.1158591,53.6284104],[-2.1169236,53.6306286],[-2.1257076,53.6239945],[-2.1214418,53.620326],[-2.1112233,53.6189838],[-2.1165278,53.6160384],[-2.1109928,53.6155766],[-2.1035305,53.6059059],[-2.1025817,53.6012278],[-2.1074082,53.5993434],[-2.0980322,53.5963167],[-2.0699388,53.5949523],[-2.0673256,53.5924399],[-2.0551425,53.5946168],[-2.0568247,53.59741],[-2.035807,53.6029474],[-2.0268698,53.6242293],[-2.0308877,53.629225]]],"type":"Polygon"},"id":"E02001145","properties":{"code":"E02001145","geography":"MSOA","name":"Rochdale 014"},"type":"Feature"},{"geometry":{"coordinates":[[[-2.1467781,53.6128265],[-2.1542049,53.6104751],[-2.155063,53.6136559],[-2.160848,53.6125427],[-2.1588877,53.6097769],[-2.1645956,53.6089421],[-2.1681185,53.6017093],[-2.1666831,53.5974026],[-2.1508485,53.6029056],[-2.1458318,53.6041258],[-2.1467135,53.6074841],[-2.1425566,53.6069573],[-2.1467781,53.6128265]]],"type":"Polygon"},"id":"E02001146","properties":{"code":"E02001146","geography":"MSOA","name":"Rochdale 015"},"type":"Feature"},{"geometry":{"coordinates":[[[-2.130929,53.5978422],[-2.1350778,53.5968154],[-2.1508485,53.6029056],[-2.1666831,53.5974026],[-2.1574407,53.5864812],[-2.1583417,53.5822763],[-2.1566184,53.5822955],[-2.1368983,53.5830657],[-2.1258693,53.5864558],[-2.1186541,53.5923347],[-2.1223755,53.599639],[-2.130929,53.5978422]]],"type":"Polygon"},"id":"E02001147","properties":{"code":"E02001147","geography":"MSOA","name":"Rochdale 016"},"type":"Feature"},{"geometry":{"coordinates":[[[-2.1681185,53.6017093],[-2.1798662,53.6022259],[-2.1915414,53.6019247],[-2.1892531,53.5968059],[-2.1987232,53.58609],[-2.196757,53.5813033],[-2.1809988,53.5841567],[-2.177286,53.5704759],[-2.1600807,53.5739464],[-2.1583417,53.5822763],[-2.1574407,53.5864812],[-2.1666831,53.5974026],[-2.1681185,53.6017093]]],"type":"Polygon"},"id":"E02001148","properties":{"code":"E02001148","geography":"MSOA","name":"Rochdale 017"},"type":"Feature"},{"geometry":{"coordinates":[[[-2.219134,53.5969991],[-2.2276481,53.6016897],[-2.2328137,53.5988443],[-2.2346704,53.5833695],[-2.2248557,53.5825558],[-2.2204906,53.5873912],[-2.2187525,53.5853504],[-2.2104176,53.5876627],[-2.2090522,53.5932852],[-2.2145165,53.5944823],[-2.2104632,53.5948583],[-2.2117547,53.5984121],[-2.215386,53.5951781],[-2.2200248,53.594962],[-2.219134,53.5969991]]],"type":"Polygon"},"id":"E02001149","properties":{"code":"E02001149","geography":"MSOA","name":"Rochdale 018"},"type":"Feature"},{"geometry":{"coordinates":[[[-2.2328137,53.5988443],[-2.235206,53.6009353],[-2.2455825,53.5990783],[-2.255542,53.5970752],[-2.2592241,53.5921658],[-2.2699554,53.5919255],[-2.2700899,53.5891156],[-2.2736622,53.5908266],[-2.2784848,53.5895981],[-2.2782492,53.5855705],[-2.2825813,53.5864123],[-2.2814117,53.5828201],[-2.2721235,53.5794656],[-2.2652783,53.5857116],[-2.2591326,53.5852628],[-2.2514238,53.578898],[-2.2483467,53.5751662],[-2.2386317,53.5776325],[-2.2405311,53.5801626],[-2.2346704,53.5833695],[-2.2328137,53.5988443]]],"type":"Polygon"},"id":"E02001150","properties":{"code":"E02001150","geography":"MSOA","name":"Rochdale 019"},"type":"Feature"},{"geometry":{"coordinates":[[[-2.2125217,53.6126668],[-2.2125809,53.6127938],[-2.2175258,53.6112974],[-2.219134,53.5969991],[-2.2200248,53.594962],[-2.215386,53.5951781],[-2.2117547,53.5984121],[-2.2104632,53.5948583],[-2.2145165,53.5944823],[-2.2090522,53.5932852],[-2.2104176,53.5876627],[-2.2187525,53.5853504],[-2.2204906,53.5873912],[-2.2248557,53.5825558],[-2.2346704,53.5833695],[-2.2405311,53.5801626],[-2.2386317,53.5776325],[-2.2483467,53.5751662],[-2.2431803,53.5678224],[-2.2481691,53.5632228],[-2.2426261,53.561529],[-2.2258612,53.569806],[-2.2127626,53.5737776],[-2.2062685,53.5728202],[-2.1897883,53.5720054],[-2.1888709,53.5762368],[-2.196757,53.5813033],[-2.1987232,53.58609],[-2.1892531,53.5968059],[-2.1915414,53.6019247],[-2.2088175,53.6072993],[-2.2152755,53.6058794],[-2.2125217,53.6126668]]],"type":"Polygon"},"id":"E02001151","properties":{"code":"E02001151","geography":"MSOA","name":"Rochdale 020"},"type":"Feature"},{"geometry":{"coordinates":[[[-2.1583417,53.5822763],[-2.1600807,53.5739464],[-2.177286,53.5704759],[-2.1809988,53.5841567],[-2.196757,53.5813033],[-2.1888709,53.5762368],[-2.1897883,53.5720054],[-2.2062685,53.5728202],[-2.2050429,53.5675327],[-2.2090175,53.5659097],[-2.204767,53.564541],[-2.2045124,53.5527388],[-2.1966858,53.552672],[-2.1948259,53.5571263],[-2.1922476,53.5538926],[-2.1900527,53.5558556],[-2.1829437,53.5587701],[-2.1843378,53.5613887],[-2.1720639,53.5581839],[-2.1552394,53.5653823],[-2.1512762,53.5698812],[-2.1566184,53.5822955],[-2.1583417,53.5822763]]],"type":"Polygon"},"id":"E02001152","properties":{"code":"E02001152","geography":"MSOA","name":"Rochdale 021"},"type":"Feature"},{"geometry":{"coordinates":[[[-2.2062685,53.5728202],[-2.2127626,53.5737776],[-2.2258612,53.569806],[-2.2426261,53.561529],[-2.2364614,53.5592594],[-2.2416544,53.5571462],[-2.235741,53.5482105],[-2.2141998,53.5543218],[-2.213135,53.5520166],[-2.2045124,53.5527388],[-2.204767,53.564541],[-2.2090175,53.5659097],[-2.2050429,53.5675327],[-2.2062685,53.5728202]]],"type":"Polygon"},"id":"E02001153","properties":{"code":"E02001153","geography":"MSOA","name":"Rochdale 022"},"type":"Feature"},{"geometry":{"coordinates":[[[-2.1720639,53.5581839],[-2.1843378,53.5613887],[-2.1829437,53.5587701],[-2.1900527,53.5558556],[-2.1906176,53.5502752],[-2.1857221,53.5486995],[-2.1890191,53.5474268],[-2.1751083,53.5396287],[-2.1700389,53.5514545],[-2.1720639,53.5581839]]],"type":"Polygon"},"id":"E02001154","properties":{"code":"E02001154","geography":"MSOA","name":"Rochdale 023"},"type":"Feature"},{"geometry":{"coordinates":[[[-2.1900527,53.5558556],[-2.1922476,53.5538926],[-2.1948259,53.5571263],[-2.1966858,53.552672],[-2.2045124,53.5527388],[-2.213135,53.5520166],[-2.2141998,53.5543218],[-2.235741,53.5482105],[-2.2372303,53.5387877],[-2.2369391,53.538817],[-2.2190591,53.5438927],[-2.209304,53.5392663],[-2.209281,53.5441756],[-2.1937668,53.5432289],[-2.1890191,53.5474268],[-2.1857221,53.5486995],[-2.1906176,53.5502752],[-2.1900527,53.5558556]]],"type":"Polygon"},"id":"E02001155","properties":{"code":"E02001155","geography":"MSOA","name":"Rochdale 024"},"type":"Feature"},{"geometry":{"coordinates":[[[-2.1751083,53.5396287],[-2.1890191,53.5474268],[-2.1937668,53.5432289],[-2.209281,53.5441756],[-2.209304,53.5392663],[-2.2067453,53.5340614],[-2.2002451,53.5317094],[-2.1859244,53.5290417],[-2.1751083,53.5396287]]],"type":"Polygon"},"id":"E02001156","properties":{"code":"E02001156","geography":"MSOA","name":"Rochdale 025"},"type":"Feature"}],"type":"FeatureCollection"}
