{"features":[{"geometry":{"coordinates":[[[-1.7558898,52.5135572],[-1.7696527,52.514047],[-1.7872009,52.5094688],[-1.791496,52.5091239],[-1.799131,52.5052624],[-1.7969648,52.502637],[-1.7810758,52.5011188],[-1.7714504,52.5017959],[-1.7759305,52.5078451],[-1.7713607,52.5067328],[-1.7675418,52.509671],[-1.7718872,52.509776],[-1.7701835,52.5116719],[-1.7558898,52.5135572]]],"type":"Polygon"},"id":"E02002081","properties":{"code":"E02002081","geography":"MSOA","name":"Solihull 001"},"type":"Feature"},{"geometry":{"coordinates":[[[-1.7470633,52.5100758],[-1.7535301,52.5129513],[-1.7595462,52.5069004],[-1.7536325,52.5020085],[-1.7432536,52.5050764],[-1.7470633,52.5100758]]],"type":"Polygon"},"id":"E02002082","properties":{"code":"E02002082","geography":"MSOA","name":"Solihull 002"},"type":"Feature"},{"geometry":{"coordinates":[[[-1.7535301,52.5129513],[-1.7558898,52.5135572],[-1.7701835,52.5116719],[-1.7718872,52.509776],[-1.7675418,52.509671],[-1.7713607,52.5067328],[-1.7759305,52.5078451],[-1.7714504,52.5017959],[-1.7558063,52.4995002],[-1.7536325,52.5020085],[-1.7595462,52.5069004],[-1.7535301,52.5129513]]],"type":"Polygon"},"id":"E02002083","properties":{"code":"E02002083","geography":"MSOA","name":"Solihull 003"},"type":"Feature"},{"geometry":{"coordinates":[[[-1.7332205,52.4921337],[-1.7470633,52.5100758],[-1.7432536,52.5050764],[-1.7536325,52.5020085],[-1.7558063,52.4995002],[-1.758609,52.4955485],[-1.7491427,52.4934785],[-1.744519,52.4958691],[-1.7355836,52.4917229],[-1.7332205,52.4921337]]],"type":"Polygon"},"id":"E02002084","properties":{"code":"E02002084","geography":"MSOA","name":"Solihull 004"},"type":"Feature"},{"geometry":{"coordinates":[[[-1.7355836,52.4917229],[-1.744519,52.4958691],[-1.7491427,52.4934785],[-1.758609,52.4955485],[-1.7609724,52.4920968],[-1.7637007,52.4870887],[-1.759492,52.4824791],[-1.748387,52.48726],[-1.7355836,52.4917229]]],"type":"Polygon"},"id":"E02002085","properties":{"code":"E02002085","geography":"MSOA","name":"Solihull 005"},"type":"Feature"},{"geometry":{"coordinates":[[[-1.7307806,52.4895806],[-1.7332205,52.4921337],[-1.7355836,52.4917229],[-1.748387,52.48726],[-1.7415179,52.4821974],[-1.748633,52.4748395],[-1.7466442,52.4720601],[-1.7424,52.474514],[-1.7387472,52.4778171],[-1.7360137,52.4758729],[-1.7305217,52.4777555],[-1.7337305,52.4823061],[-1.7299152,52.4825224],[-1.7307806,52.4895806]]],"type":"Polygon"},"id":"E02002086","properties":{"code":"E02002086","geography":"MSOA","name":"Solihull 006"},"type":"Feature"},{"geometry":{"coordinates":[[[-1.748633,52.4748395],[-1.7415179,52.4821974],[-1.748387,52.48726],[-1.759492,52.4824791],[-1.759849,52.4802597],[-1.7558016,52.4718259],[-1.748633,52.4748395]]],"type":"Polygon"},"id":"E02002087","properties":{"code":"E02002087","geography":"MSOA","name":"Solihull 007"},"type":"Feature"},{"geometry":{"coordinates":[[[-1.715281,52.4784021],[-1.7307806,52.4895806],[-1.7299152,52.4825224],[-1.7337305,52.4823061],[-1.7305217,52.4777555],[-1.7360137,52.4758729],[-1.7387472,52.4778171],[-1.7424,52.474514],[-1.7379177,52.4717772],[-1.7340914,52.4736888],[-1.7343889,52.4690422],[-1.7251572,52.4712237],[-1.715281,52.4784021]]],"type":"Polygon"},"id":"E02002088","properties":{"code":"E02002088","geography":"MSOA","name":"Solihull 008"},"type":"Feature"},{"geometry":{"coordinates":[[[-1.7085201,52.4657328],[-1.715281,52.4784021],[-1.7251572,52.4712237],[-1.7343889,52.4690422],[-1.7340914,52.4736888],[-1.7379177,52.4717772],[-1.7424,52.474514],[-1.7466442,52.4720601],[-1.748633,52.4748395],[-1.7558016,52.4718259],[-1.7634239,52.4640025],[-1.7550552,52.4562831],[-1.761369,52.4509469],[-1.7496041,52.443871],[-1.7443514,52.4423547],[-1.7468903,52.4359207],[-1.7325604,52.4357578],[-1.7322955,52.4319112],[-1.7220775,52.4333047],[-1.7129721,52.4402527],[-1.7098447,52.4451214],[-1.6862326,52.4457615],[-1.7085201,52.4657328]]],"type":"Polygon"},"id":"E02002089","properties":{"code":"E02002089","geography":"MSOA","name":"Solihull 009"},"type":"Feature"},{"geometry":{"coordinates":[[[-1.7826249,52.4507945],[-1.798542,52.4573836],[-1.8053885,52.4546112],[-1.808216,52.4465045],[-1.8005877,52.4448874],[-1.7903599,52.4508998],[-1.7839092,52.4477983],[-1.7826249,52.4507945]]],"type":"Polygon"},"id":"E02002090","properties":{"code":"E02002090","geography":"MSOA","name":"Solihull 010"},"type":"Feature"},{"geometry":{"coordinates":[[[-1.7496041,52.443871],[-1.761369,52.4509469],[-1.7826249,52.4507945],[-1.7839092,52.4477983],[-1.7821002,52.4380006],[-1.787631,52.4342231],[-1.7863635,52.4338112],[-1.7832395,52.4329143],[-1.773125,52.4365258],[-1.7581894,52.4366687],[-1.7496041,52.443871]]],"type":"Polygon"},"id":"E02002091","properties":{"code":"E02002091","geography":"MSOA","name":"Solihull 011"},"type":"Feature"},{"geometry":{"coordinates":[[[-1.7839092,52.4477983],[-1.7903599,52.4508998],[-1.8005877,52.4448874],[-1.8025086,52.4396309],[-1.787631,52.4342231],[-1.7821002,52.4380006],[-1.7839092,52.4477983]]],"type":"Polygon"},"id":"E02002092","properties":{"code":"E02002092","geography":"MSOA","name":"Solihull 012"},"type":"Feature"},{"geometry":{"coordinates":[[[-1.8005877,52.4448874],[-1.808216,52.4465045],[-1.8129275,52.4393146],[-1.8299391,52.4237066],[-1.8264258,52.4268179],[-1.8040101,52.4296779],[-1.8075453,52.4351977],[-1.8025086,52.4396309],[-1.8005877,52.4448874]]],"type":"Polygon"},"id":"E02002093","properties":{"code":"E02002093","geography":"MSOA","name":"Solihull 013"},"type":"Feature"},{"geometry":{"coordinates":[[[-1.787631,52.4342231],[-1.8025086,52.4396309],[-1.8075453,52.4351977],[-1.8040101,52.4296779],[-1.8264258,52.4268179],[-1.8299391,52.4237066],[-1.8301064,52.4235599],[-1.8303064,52.4233062],[-1.8138163,52.420722],[-1.8025379,52.4227887],[-1.796548,52.4254656],[-1.7985463,52.4300009],[-1.7863635,52.4338112],[-1.787631,52.4342231]]],"type":"Polygon"},"id":"E02002094","properties":{"code":"E02002094","geography":"MSOA","name":"Solihull 014"},"type":"Feature"},{"geometry":{"coordinates":[[[-1.7129721,52.4402527],[-1.7220775,52.4333047],[-1.7322955,52.4319112],[-1.7325604,52.4357578],[-1.7468903,52.4359207],[-1.7443514,52.4423547],[-1.7496041,52.443871],[-1.7581894,52.4366687],[-1.773125,52.4365258],[-1.7832395,52.4329143],[-1.7844219,52.4300428],[-1.7646502,52.4255117],[-1.7655533,52.4179458],[-1.7573415,52.4103818],[-1.745912,52.4129381],[-1.7382402,52.4112807],[-1.7387589,52.4031798],[-1.7281929,52.3991476],[-1.7271767,52.3944918],[-1.7158605,52.3934403],[-1.7019552,52.396769],[-1.7036686,52.3999544],[-1.6996672,52.4015073],[-1.7083078,52.4037944],[-1.7019169,52.4074001],[-1.7145544,52.4100266],[-1.7056996,52.4240385],[-1.7205699,52.4235441],[-1.7177406,52.4290753],[-1.7001657,52.429059],[-1.7129721,52.4402527]]],"type":"Polygon"},"id":"E02002095","properties":{"code":"E02002095","geography":"MSOA","name":"Solihull 015"},"type":"Feature"},{"geometry":{"coordinates":[[[-1.7832395,52.4329143],[-1.7863635,52.4338112],[-1.7985463,52.4300009],[-1.796548,52.4254656],[-1.8025379,52.4227887],[-1.7987389,52.418075],[-1.782485,52.4178631],[-1.7636766,52.4117239],[-1.761058,52.4083201],[-1.7573415,52.4103818],[-1.7655533,52.4179458],[-1.7646502,52.4255117],[-1.7844219,52.4300428],[-1.7832395,52.4329143]]],"type":"Polygon"},"id":"E02002096","properties":{"code":"E02002096","geography":"MSOA","name":"Solihull 016"},"type":"Feature"},{"geometry":{"coordinates":[[[-1.5954962,52.4559037],[-1.598556,52.4543159],[-1.6107227,52.4585872],[-1.6142209,52.4629841],[-1.6244604,52.4635227],[-1.6246703,52.4570141],[-1.6399864,52.4440991],[-1.6528011,52.4406588],[-1.6622946,52.4442842],[-1.6665938,52.4354564],[-1.6771618,52.4363417],[-1.6862326,52.4457615],[-1.7098447,52.4451214],[-1.7129721,52.4402527],[-1.7001657,52.429059],[-1.7177406,52.4290753],[-1.7205699,52.4235441],[-1.7056996,52.4240385],[-1.7145544,52.4100266],[-1.7019169,52.4074001],[-1.7083078,52.4037944],[-1.6996672,52.4015073],[-1.7036686,52.3999544],[-1.7019552,52.396769],[-1.7158605,52.3934403],[-1.7230536,52.385244],[-1.7202766,52.3725568],[-1.718556,52.3557221],[-1.7183454,52.3586767],[-1.7102791,52.3550056],[-1.6981011,52.3557168],[-1.6938949,52.350998],[-1.684941,52.3559954],[-1.6843325,52.3632164],[-1.6608982,52.3656544],[-1.6513207,52.3564055],[-1.6464784,52.3595197],[-1.6364691,52.3651531],[-1.6234114,52.3655357],[-1.6209771,52.3678679],[-1.6266263,52.3691788],[-1.6404948,52.3801712],[-1.6472402,52.3760866],[-1.6504068,52.3812354],[-1.6603384,52.3787798],[-1.6736957,52.3827978],[-1.6706711,52.3899022],[-1.6656514,52.3887143],[-1.6617497,52.3921394],[-1.6673818,52.3932463],[-1.6689342,52.3974181],[-1.6806101,52.3999647],[-1.6714766,52.4058207],[-1.6827471,52.4094818],[-1.6884883,52.416708],[-1.6846034,52.4252242],[-1.6734684,52.4295666],[-1.6409281,52.4269922],[-1.6419412,52.4215274],[-1.6281472,52.4180323],[-1.6285069,52.4149352],[-1.6416903,52.4144853],[-1.649132,52.4086065],[-1.6389899,52.4097621],[-1.6258014,52.406009],[-1.603782,52.4085128],[-1.602158,52.4160169],[-1.6112257,52.4223328],[-1.6064623,52.4253711],[-1.6144589,52.4279527],[-1.6114019,52.4320839],[-1.6065609,52.4309695],[-1.6082801,52.4388252],[-1.595238,52.4399107],[-1.5954962,52.4559037]]],"type":"Polygon"},"id":"E02002097","properties":{"code":"E02002097","geography":"MSOA","name":"Solihull 017"},"type":"Feature"},{"geometry":{"coordinates":[[[-1.8138163,52.420722],[-1.8303064,52.4233062],[-1.8329487,52.4194399],[-1.8231603,52.4054515],[-1.8220312,52.4025595],[-1.8055564,52.4098476],[-1.8138163,52.420722]]],"type":"Polygon"},"id":"E02002098","properties":{"code":"E02002098","geography":"MSOA","name":"Solihull 018"},"type":"Feature"},{"geometry":{"coordinates":[[[-1.7636766,52.4117239],[-1.782485,52.4178631],[-1.7987389,52.418075],[-1.8025379,52.4227887],[-1.8138163,52.420722],[-1.8055564,52.4098476],[-1.7922059,52.4066882],[-1.7923593,52.4038039],[-1.7874521,52.4025358],[-1.7779582,52.4088341],[-1.7739694,52.4070398],[-1.7774953,52.4061592],[-1.7755957,52.4026927],[-1.7692909,52.4032897],[-1.7699774,52.40729],[-1.7636766,52.4117239]]],"type":"Polygon"},"id":"E02002099","properties":{"code":"E02002099","geography":"MSOA","name":"Solihull 019"},"type":"Feature"},{"geometry":{"coordinates":[[[-1.8460992,52.4101786],[-1.8494258,52.4108171],[-1.8543655,52.4085237],[-1.8641764,52.410159],[-1.8687537,52.4047233],[-1.8456051,52.3994129],[-1.8453627,52.3993845],[-1.8423667,52.4062293],[-1.8384302,52.4047257],[-1.8460992,52.4101786]]],"type":"Polygon"},"id":"E02002101","properties":{"code":"E02002101","geography":"MSOA","name":"Solihull 021"},"type":"Feature"},{"geometry":{"coordinates":[[[-1.7923593,52.4038039],[-1.7922059,52.4066882],[-1.8055564,52.4098476],[-1.8220312,52.4025595],[-1.8186339,52.3974831],[-1.824306,52.3965936],[-1.8251047,52.393363],[-1.8078412,52.3908086],[-1.7999547,52.3959949],[-1.7923593,52.4038039]]],"type":"Polygon"},"id":"E02002102","properties":{"code":"E02002102","geography":"MSOA","name":"Solihull 022"},"type":"Feature"},{"geometry":{"coordinates":[[[-1.8384302,52.4047257],[-1.8423667,52.4062293],[-1.8453627,52.3993845],[-1.8251047,52.393363],[-1.824306,52.3965936],[-1.8186339,52.3974831],[-1.8220312,52.4025595],[-1.8231603,52.4054515],[-1.8384302,52.4047257]]],"type":"Polygon"},"id":"E02002103","properties":{"code":"E02002103","geography":"MSOA","name":"Solihull 023"},"type":"Feature"},{"geometry":{"coordinates":[[[-1.761058,52.4083201],[-1.7636766,52.4117239],[-1.7699774,52.40729],[-1.7692909,52.4032897],[-1.7755957,52.4026927],[-1.7774953,52.4061592],[-1.7739694,52.4070398],[-1.7779582,52.4088341],[-1.7874521,52.4025358],[-1.7923593,52.4038039],[-1.7999547,52.3959949],[-1.7954216,52.3977428],[-1.7902262,52.3903079],[-1.7835546,52.3901492],[-1.7868712,52.3936211],[-1.7810901,52.395169],[-1.7844546,52.3964092],[-1.7817094,52.398422],[-1.774667,52.3968483],[-1.771992,52.3917578],[-1.7725349,52.3944699],[-1.7658812,52.3968237],[-1.7595125,52.4029687],[-1.761058,52.4083201]]],"type":"Polygon"},"id":"E02002104","properties":{"code":"E02002104","geography":"MSOA","name":"Solihull 024"},"type":"Feature"},{"geometry":{"coordinates":[[[-1.603782,52.4085128],[-1.6258014,52.406009],[-1.6389899,52.4097621],[-1.649132,52.4086065],[-1.6416903,52.4144853],[-1.6285069,52.4149352],[-1.6281472,52.4180323],[-1.6419412,52.4215274],[-1.6409281,52.4269922],[-1.6734684,52.4295666],[-1.6846034,52.4252242],[-1.6884883,52.416708],[-1.6827471,52.4094818],[-1.6714766,52.4058207],[-1.6806101,52.3999647],[-1.6689342,52.3974181],[-1.6673818,52.3932463],[-1.6617497,52.3921394],[-1.6656514,52.3887143],[-1.6706711,52.3899022],[-1.6736957,52.3827978],[-1.6603384,52.3787798],[-1.6504068,52.3812354],[-1.6472402,52.3760866],[-1.6404948,52.3801712],[-1.6266263,52.3691788],[-1.6236858,52.3717625],[-1.619033,52.3705411],[-1.6181556,52.3762403],[-1.6153816,52.3744399],[-1.6080304,52.3763394],[-1.610293,52.3824908],[-1.6010776,52.3892839],[-1.6042977,52.4000458],[-1.6010649,52.4037175],[-1.605762,52.405763],[-1.603782,52.4085128]]],"type":"Polygon"},"id":"E02002105","properties":{"code":"E02002105","geography":"MSOA","name":"Solihull 025"},"type":"Feature"},{"geometry":{"coordinates":[[[-1.7158605,52.3934403],[-1.7271767,52.3944918],[-1.7281929,52.3991476],[-1.7387589,52.4031798],[-1.7382402,52.4112807],[-1.745912,52.4129381],[-1.7573415,52.4103818],[-1.761058,52.4083201],[-1.7595125,52.4029687],[-1.7658812,52.3968237],[-1.7604314,52.3917976],[-1.7497082,52.3892631],[-1.7500092,52.3844026],[-1.7549045,52.3829695],[-1.7436896,52.3771041],[-1.738332,52.3649566],[-1.73404,52.3707023],[-1.7202766,52.3725568],[-1.7230536,52.385244],[-1.7158605,52.3934403]]],"type":"Polygon"},"id":"E02002106","properties":{"code":"E02002106","geography":"MSOA","name":"Solihull 026"},"type":"Feature"},{"geometry":{"coordinates":[[[-1.771992,52.3917578],[-1.774667,52.3968483],[-1.7817094,52.398422],[-1.7844546,52.3964092],[-1.7810901,52.395169],[-1.7868712,52.3936211],[-1.7835546,52.3901492],[-1.7902262,52.3903079],[-1.7954216,52.3977428],[-1.7999547,52.3959949],[-1.8078412,52.3908086],[-1.7864883,52.3796939],[-1.771992,52.3917578]]],"type":"Polygon"},"id":"E02002107","properties":{"code":"E02002107","geography":"MSOA","name":"Solihull 027"},"type":"Feature"},{"geometry":{"coordinates":[[[-1.738332,52.3649566],[-1.7436896,52.3771041],[-1.7549045,52.3829695],[-1.7500092,52.3844026],[-1.7497082,52.3892631],[-1.7604314,52.3917976],[-1.7658812,52.3968237],[-1.7725349,52.3944699],[-1.771992,52.3917578],[-1.7864883,52.3796939],[-1.7801776,52.3638121],[-1.7757486,52.3659012],[-1.7628084,52.3642594],[-1.75964,52.3583948],[-1.7487828,52.3547557],[-1.741417,52.357157],[-1.738332,52.3649566]]],"type":"Polygon"},"id":"E02002108","properties":{"code":"E02002108","geography":"MSOA","name":"Solihull 028"},"type":"Feature"},{"geometry":{"coordinates":[[[-1.8453627,52.3993845],[-1.8456051,52.3994129],[-1.8720419,52.3675844],[-1.8429441,52.3651489],[-1.8349886,52.3673891],[-1.8078092,52.3665931],[-1.7997212,52.358679],[-1.775761,52.3479487],[-1.7718686,52.3558607],[-1.7777741,52.3560678],[-1.7801776,52.3638121],[-1.7864883,52.3796939],[-1.8078412,52.3908086],[-1.8251047,52.393363],[-1.8453627,52.3993845]]],"type":"Polygon"},"id":"E02002109","properties":{"code":"E02002109","geography":"MSOA","name":"Solihull 029"},"type":"Feature"},{"geometry":{"coordinates":[[[-1.8231603,52.4054515],[-1.8329487,52.4194399],[-1.8460992,52.4101786],[-1.8384302,52.4047257],[-1.8231603,52.4054515]]],"type":"Polygon"},"id":"E02006808","properties":{"code":"E02006808","geography":"MSOA","name":"Solihull 030"},"type":"Feature"}],"type":"FeatureCollection"}
