{"features":[{"geometry":{"coordinates":[[[-1.9998234,52.5651811],[-2.0110381,52.5690209],[-2.0271245,52.5646017],[-2.0254428,52.5622448],[-2.0297338,52.5608169],[-2.0221093,52.5538661],[-2.0153306,52.5583328],[-2.013275,52.5560578],[-2.0097344,52.5535963],[-1.9998234,52.5651811]]],"type":"Polygon"},"id":"E02002043","properties":{"code":"E02002043","geography":"MSOA","name":"Sandwell 001"},"type":"Feature"},{"geometry":{"coordinates":[[[-1.9540236,52.562182],[-1.9641404,52.5631668],[-1.9671201,52.5594653],[-1.9744794,52.5590252],[-1.9755021,52.5555452],[-1.9778743,52.5576338],[-1.9783256,52.5532793],[-1.9775002,52.5508978],[-1.9556803,52.5499539],[-1.9527544,52.5570987],[-1.9540236,52.562182]]],"type":"Polygon"},"id":"E02002044","properties":{"code":"E02002044","geography":"MSOA","name":"Sandwell 002"},"type":"Feature"},{"geometry":{"coordinates":[[[-1.9866136,52.5614751],[-1.9998234,52.5651811],[-2.0097344,52.5535963],[-2.013275,52.5560578],[-2.0144757,52.5520681],[-2.0071849,52.5484967],[-2.0016052,52.5467482],[-1.9996523,52.547041],[-2.0012029,52.5521771],[-1.9934286,52.5549406],[-1.9969735,52.5562551],[-1.9943074,52.5573292],[-1.9888644,52.5581016],[-1.9888222,52.5540678],[-1.9783256,52.5532793],[-1.9778743,52.5576338],[-1.9866136,52.5614751]]],"type":"Polygon"},"id":"E02002045","properties":{"code":"E02002045","geography":"MSOA","name":"Sandwell 003"},"type":"Feature"},{"geometry":{"coordinates":[[[-1.9783256,52.5532793],[-1.9888222,52.5540678],[-1.9888644,52.5581016],[-1.9943074,52.5573292],[-1.9969735,52.5562551],[-1.9934286,52.5549406],[-2.0012029,52.5521771],[-1.9996523,52.547041],[-1.9798569,52.5504712],[-1.9775002,52.5508978],[-1.9783256,52.5532793]]],"type":"Polygon"},"id":"E02002046","properties":{"code":"E02002046","geography":"MSOA","name":"Sandwell 004"},"type":"Feature"},{"geometry":{"coordinates":[[[-2.013275,52.5560578],[-2.0153306,52.5583328],[-2.0221093,52.5538661],[-2.0297338,52.5608169],[-2.0332257,52.5593107],[-2.0412019,52.5542394],[-2.0367157,52.5492087],[-2.049202,52.5458195],[-2.0481155,52.5451647],[-2.0337498,52.5431901],[-2.0269063,52.5433946],[-2.0291983,52.5500786],[-2.0199245,52.5496772],[-2.0201576,52.5448088],[-2.0071849,52.5484967],[-2.0144757,52.5520681],[-2.013275,52.5560578]]],"type":"Polygon"},"id":"E02002047","properties":{"code":"E02002047","geography":"MSOA","name":"Sandwell 005"},"type":"Feature"},{"geometry":{"coordinates":[[[-1.9325654,52.5593717],[-1.9403442,52.5610011],[-1.9527544,52.5570987],[-1.9556803,52.5499539],[-1.9483327,52.5438019],[-1.9331552,52.5457973],[-1.9184834,52.5469873],[-1.9181631,52.547291],[-1.9329571,52.553808],[-1.9325654,52.5593717]]],"type":"Polygon"},"id":"E02002048","properties":{"code":"E02002048","geography":"MSOA","name":"Sandwell 006"},"type":"Feature"},{"geometry":{"coordinates":[[[-2.049202,52.5458195],[-2.0367157,52.5492087],[-2.0412019,52.5542394],[-2.0509875,52.5527137],[-2.061454,52.5469651],[-2.0740272,52.5498448],[-2.073104,52.5418438],[-2.0666893,52.5377749],[-2.0616537,52.5382447],[-2.0649484,52.5390089],[-2.0617096,52.5438528],[-2.0652785,52.5444558],[-2.049202,52.5458195]]],"type":"Polygon"},"id":"E02002049","properties":{"code":"E02002049","geography":"MSOA","name":"Sandwell 007"},"type":"Feature"},{"geometry":{"coordinates":[[[-2.0337498,52.5431901],[-2.0481155,52.5451647],[-2.0565145,52.5428749],[-2.0539926,52.5396624],[-2.0468504,52.5407105],[-2.0553847,52.5340861],[-2.0539531,52.5317473],[-2.0535402,52.5314634],[-2.0447193,52.5341365],[-2.0418602,52.5386286],[-2.0357777,52.5381507],[-2.0337498,52.5431901]]],"type":"Polygon"},"id":"E02002051","properties":{"code":"E02002051","geography":"MSOA","name":"Sandwell 009"},"type":"Feature"},{"geometry":{"coordinates":[[[-1.9913275,52.532938],[-1.9798569,52.5504712],[-1.9996523,52.547041],[-2.0016052,52.5467482],[-2.0012297,52.5418315],[-2.0111999,52.536921],[-2.0077824,52.5301032],[-1.9913275,52.532938]]],"type":"Polygon"},"id":"E02002052","properties":{"code":"E02002052","geography":"MSOA","name":"Sandwell 010"},"type":"Feature"},{"geometry":{"coordinates":[[[-1.9301582,52.5360192],[-1.9331552,52.5457973],[-1.9483327,52.5438019],[-1.9427548,52.5432687],[-1.9370931,52.5319852],[-1.9294499,52.5312865],[-1.9301582,52.5360192]]],"type":"Polygon"},"id":"E02002053","properties":{"code":"E02002053","geography":"MSOA","name":"Sandwell 011"},"type":"Feature"},{"geometry":{"coordinates":[[[-1.9370931,52.5319852],[-1.9427548,52.5432687],[-1.9483327,52.5438019],[-1.963798,52.5397757],[-1.9570401,52.5360218],[-1.9581888,52.5313455],[-1.9510318,52.5298435],[-1.9432946,52.5341731],[-1.9370931,52.5319852]]],"type":"Polygon"},"id":"E02002054","properties":{"code":"E02002054","geography":"MSOA","name":"Sandwell 012"},"type":"Feature"},{"geometry":{"coordinates":[[[-2.0071849,52.5484967],[-2.0201576,52.5448088],[-2.0199245,52.5496772],[-2.0291983,52.5500786],[-2.0269063,52.5433946],[-2.0337498,52.5431901],[-2.0357777,52.5381507],[-2.0305999,52.5309878],[-2.0223582,52.5333933],[-2.0169919,52.5292788],[-2.0102776,52.5293263],[-2.0077824,52.5301032],[-2.0111999,52.536921],[-2.0012297,52.5418315],[-2.0016052,52.5467482],[-2.0071849,52.5484967]]],"type":"Polygon"},"id":"E02002055","properties":{"code":"E02002055","geography":"MSOA","name":"Sandwell 013"},"type":"Feature"},{"geometry":{"coordinates":[[[-2.0481155,52.5451647],[-2.049202,52.5458195],[-2.0652785,52.5444558],[-2.0617096,52.5438528],[-2.0649484,52.5390089],[-2.0616537,52.5382447],[-2.0666893,52.5377749],[-2.073104,52.5418438],[-2.0759557,52.5341487],[-2.0792985,52.5353971],[-2.0786489,52.5298804],[-2.0677045,52.5295221],[-2.0567884,52.5336354],[-2.0539531,52.5317473],[-2.0553847,52.5340861],[-2.0468504,52.5407105],[-2.0539926,52.5396624],[-2.0565145,52.5428749],[-2.0481155,52.5451647]]],"type":"Polygon"},"id":"E02002056","properties":{"code":"E02002056","geography":"MSOA","name":"Sandwell 014"},"type":"Feature"},{"geometry":{"coordinates":[[[-2.0539531,52.5317473],[-2.0567884,52.5336354],[-2.0677045,52.5295221],[-2.0786489,52.5298804],[-2.0796317,52.5240966],[-2.0663069,52.5173297],[-2.0597493,52.5243371],[-2.0549603,52.5219267],[-2.0469526,52.5253761],[-2.0535402,52.5314634],[-2.0539531,52.5317473]]],"type":"Polygon"},"id":"E02002057","properties":{"code":"E02002057","geography":"MSOA","name":"Sandwell 015"},"type":"Feature"},{"geometry":{"coordinates":[[[-2.0357777,52.5381507],[-2.0418602,52.5386286],[-2.0447193,52.5341365],[-2.0535402,52.5314634],[-2.0469526,52.5253761],[-2.0549603,52.5219267],[-2.0597493,52.5243371],[-2.0663069,52.5173297],[-2.066112,52.517066],[-2.0561303,52.5193574],[-2.0520121,52.5163956],[-2.0504751,52.5189047],[-2.0413486,52.5146655],[-2.0367666,52.5176921],[-2.0312649,52.5138492],[-2.028968,52.5181149],[-2.0385349,52.5210035],[-2.0260327,52.5220803],[-2.0247595,52.5257856],[-2.0303795,52.5271104],[-2.0305999,52.5309878],[-2.0357777,52.5381507]]],"type":"Polygon"},"id":"E02002058","properties":{"code":"E02002058","geography":"MSOA","name":"Sandwell 016"},"type":"Feature"},{"geometry":{"coordinates":[[[-1.960346,52.5306538],[-1.9707044,52.5274549],[-1.9702354,52.5353095],[-1.9849487,52.5347908],[-1.9883859,52.5308293],[-1.9913275,52.532938],[-2.0077824,52.5301032],[-2.0102776,52.5293263],[-2.0065121,52.5221469],[-2.000597,52.5217113],[-2.0018418,52.5249155],[-1.9896781,52.5234684],[-1.9892106,52.5207488],[-1.9818239,52.515702],[-1.9844318,52.5133866],[-1.9748585,52.5134263],[-1.9704401,52.5244193],[-1.9618301,52.5274067],[-1.960346,52.5306538]]],"type":"Polygon"},"id":"E02002059","properties":{"code":"E02002059","geography":"MSOA","name":"Sandwell 017"},"type":"Feature"},{"geometry":{"coordinates":[[[-2.0102776,52.5293263],[-2.0169919,52.5292788],[-2.0223582,52.5333933],[-2.0305999,52.5309878],[-2.0303795,52.5271104],[-2.0247595,52.5257856],[-2.0260327,52.5220803],[-2.0385349,52.5210035],[-2.028968,52.5181149],[-2.0174714,52.5116587],[-2.0134693,52.5158043],[-2.0074482,52.5122124],[-2.0072963,52.5194732],[-2.0113653,52.5212906],[-2.0065121,52.5221469],[-2.0102776,52.5293263]]],"type":"Polygon"},"id":"E02002060","properties":{"code":"E02002060","geography":"MSOA","name":"Sandwell 018"},"type":"Feature"},{"geometry":{"coordinates":[[[-1.9892106,52.5207488],[-1.9896781,52.5234684],[-2.0018418,52.5249155],[-2.000597,52.5217113],[-2.0065121,52.5221469],[-2.0113653,52.5212906],[-2.0072963,52.5194732],[-2.0074482,52.5122124],[-2.0134693,52.5158043],[-2.0174714,52.5116587],[-2.0155574,52.5104366],[-1.9983237,52.5058291],[-1.9969794,52.5062843],[-2.0028343,52.5161875],[-1.9978295,52.5180519],[-1.9943256,52.5162329],[-1.9961101,52.5178907],[-1.9892106,52.5207488]]],"type":"Polygon"},"id":"E02002061","properties":{"code":"E02002061","geography":"MSOA","name":"Sandwell 019"},"type":"Feature"},{"geometry":{"coordinates":[[[-1.9581238,52.5202981],[-1.9618301,52.5274067],[-1.9704401,52.5244193],[-1.9748585,52.5134263],[-1.9844318,52.5133866],[-1.9818239,52.515702],[-1.9892106,52.5207488],[-1.9961101,52.5178907],[-1.9943256,52.5162329],[-1.9978295,52.5180519],[-2.0028343,52.5161875],[-1.9969794,52.5062843],[-1.9811672,52.5064272],[-1.9755056,52.511588],[-1.961982,52.5098604],[-1.9581238,52.5202981]]],"type":"Polygon"},"id":"E02002062","properties":{"code":"E02002062","geography":"MSOA","name":"Sandwell 020"},"type":"Feature"},{"geometry":{"coordinates":[[[-2.028968,52.5181149],[-2.0312649,52.5138492],[-2.0367666,52.5176921],[-2.0413486,52.5146655],[-2.0504751,52.5189047],[-2.0520121,52.5163956],[-2.0561303,52.5193574],[-2.066112,52.517066],[-2.0632374,52.5136943],[-2.0571866,52.5122132],[-2.0415246,52.5086471],[-2.0258916,52.4977172],[-2.0212394,52.4932314],[-2.0162568,52.4959072],[-2.0201099,52.5040625],[-2.0155574,52.5104366],[-2.0174714,52.5116587],[-2.028968,52.5181149]]],"type":"Polygon"},"id":"E02002063","properties":{"code":"E02002063","geography":"MSOA","name":"Sandwell 021"},"type":"Feature"},{"geometry":{"coordinates":[[[-2.0258916,52.4977172],[-2.0415246,52.5086471],[-2.0571866,52.5122132],[-2.0614358,52.5072054],[-2.0495507,52.499269],[-2.0407567,52.4940328],[-2.0258916,52.4977172]]],"type":"Polygon"},"id":"E02002064","properties":{"code":"E02002064","geography":"MSOA","name":"Sandwell 022"},"type":"Feature"},{"geometry":{"coordinates":[[[-1.961982,52.5098604],[-1.9755056,52.511588],[-1.9811672,52.5064272],[-1.9969794,52.5062843],[-1.9983237,52.5058291],[-1.9993882,52.5004337],[-1.9935988,52.495254],[-1.9786761,52.4923683],[-1.9729802,52.4968378],[-1.9574364,52.5031199],[-1.9629029,52.5049044],[-1.961982,52.5098604]]],"type":"Polygon"},"id":"E02002065","properties":{"code":"E02002065","geography":"MSOA","name":"Sandwell 023"},"type":"Feature"},{"geometry":{"coordinates":[[[-1.9983237,52.5058291],[-2.0155574,52.5104366],[-2.0201099,52.5040625],[-2.0162568,52.4959072],[-2.0125222,52.4921483],[-2.0006708,52.490366],[-1.9950323,52.4912116],[-1.9921896,52.4885],[-1.9875341,52.4884877],[-1.9875092,52.4914419],[-1.9935988,52.495254],[-1.9993882,52.5004337],[-1.9983237,52.5058291]]],"type":"Polygon"},"id":"E02002066","properties":{"code":"E02002066","geography":"MSOA","name":"Sandwell 024"},"type":"Feature"},{"geometry":{"coordinates":[[[-2.0495507,52.499269],[-2.0614358,52.5072054],[-2.0633845,52.5015223],[-2.0702841,52.4918431],[-2.0642608,52.4871159],[-2.0668773,52.4854054],[-2.0568597,52.4802229],[-2.0534744,52.481626],[-2.0580293,52.4878947],[-2.0530563,52.4876691],[-2.0554151,52.4919232],[-2.0504715,52.4920069],[-2.0495507,52.499269]]],"type":"Polygon"},"id":"E02002067","properties":{"code":"E02002067","geography":"MSOA","name":"Sandwell 025"},"type":"Feature"},{"geometry":{"coordinates":[[[-2.0212394,52.4932314],[-2.0258916,52.4977172],[-2.0407567,52.4940328],[-2.0335519,52.4894876],[-2.0392511,52.4872131],[-2.035825,52.4851806],[-2.0238534,52.4821303],[-2.0162277,52.483665],[-2.0247219,52.4852034],[-2.0212394,52.4932314]]],"type":"Polygon"},"id":"E02002069","properties":{"code":"E02002069","geography":"MSOA","name":"Sandwell 027"},"type":"Feature"},{"geometry":{"coordinates":[[[-1.9635765,52.4872989],[-1.9729802,52.4968378],[-1.9786761,52.4923683],[-1.9818532,52.486288],[-1.9717629,52.4880527],[-1.9705242,52.4827073],[-1.9662548,52.4818974],[-1.9635765,52.4872989]]],"type":"Polygon"},"id":"E02002070","properties":{"code":"E02002070","geography":"MSOA","name":"Sandwell 028"},"type":"Feature"},{"geometry":{"coordinates":[[[-2.0407567,52.4940328],[-2.0495507,52.499269],[-2.0504715,52.4920069],[-2.0554151,52.4919232],[-2.0530563,52.4876691],[-2.0580293,52.4878947],[-2.0534744,52.481626],[-2.0467133,52.4791568],[-2.035825,52.4851806],[-2.0392511,52.4872131],[-2.0335519,52.4894876],[-2.0407567,52.4940328]]],"type":"Polygon"},"id":"E02002071","properties":{"code":"E02002071","geography":"MSOA","name":"Sandwell 029"},"type":"Feature"},{"geometry":{"coordinates":[[[-2.0006708,52.490366],[-2.0125222,52.4921483],[-2.0162568,52.4959072],[-2.0212394,52.4932314],[-2.0247219,52.4852034],[-2.0162277,52.483665],[-2.0238534,52.4821303],[-2.0227396,52.4806159],[-2.0144229,52.4816069],[-2.0061116,52.4757368],[-2.0006708,52.490366]]],"type":"Polygon"},"id":"E02002072","properties":{"code":"E02002072","geography":"MSOA","name":"Sandwell 030"},"type":"Feature"},{"geometry":{"coordinates":[[[-1.9786761,52.4923683],[-1.9935988,52.495254],[-1.9875092,52.4914419],[-1.9875341,52.4884877],[-1.9921896,52.4885],[-1.9938674,52.4829002],[-1.9895412,52.4778879],[-1.9847758,52.4793962],[-1.9705242,52.4827073],[-1.9717629,52.4880527],[-1.9818532,52.486288],[-1.9786761,52.4923683]]],"type":"Polygon"},"id":"E02002073","properties":{"code":"E02002073","geography":"MSOA","name":"Sandwell 031"},"type":"Feature"},{"geometry":{"coordinates":[[[-1.9921896,52.4885],[-1.9950323,52.4912116],[-2.0006708,52.490366],[-2.0061116,52.4757368],[-2.0030665,52.4741359],[-1.9895412,52.4778879],[-1.9938674,52.4829002],[-1.9921896,52.4885]]],"type":"Polygon"},"id":"E02002074","properties":{"code":"E02002074","geography":"MSOA","name":"Sandwell 032"},"type":"Feature"},{"geometry":{"coordinates":[[[-2.0238534,52.4821303],[-2.035825,52.4851806],[-2.0467133,52.4791568],[-2.0534744,52.481626],[-2.0568597,52.4802229],[-2.0557244,52.472464],[-2.0481035,52.4743236],[-2.0445263,52.4708209],[-2.0227303,52.4805827],[-2.0227396,52.4806159],[-2.0238534,52.4821303]]],"type":"Polygon"},"id":"E02002075","properties":{"code":"E02002075","geography":"MSOA","name":"Sandwell 033"},"type":"Feature"},{"geometry":{"coordinates":[[[-1.9662548,52.4818974],[-1.9705242,52.4827073],[-1.9847758,52.4793962],[-1.9832515,52.4754897],[-1.989386,52.4734799],[-1.9817025,52.4662593],[-1.9656822,52.4733469],[-1.9690304,52.4767786],[-1.9646953,52.4814989],[-1.9662548,52.4818974]]],"type":"Polygon"},"id":"E02002076","properties":{"code":"E02002076","geography":"MSOA","name":"Sandwell 034"},"type":"Feature"},{"geometry":{"coordinates":[[[-2.0568597,52.4802229],[-2.0668773,52.4854054],[-2.0727518,52.4790721],[-2.0800541,52.4763773],[-2.0841974,52.4726942],[-2.0804845,52.4699254],[-2.0725982,52.4750974],[-2.07164,52.4687817],[-2.0622162,52.471049],[-2.0546944,52.4634708],[-2.0475029,52.4674998],[-2.0445263,52.4708209],[-2.0481035,52.4743236],[-2.0557244,52.472464],[-2.0568597,52.4802229]]],"type":"Polygon"},"id":"E02002077","properties":{"code":"E02002077","geography":"MSOA","name":"Sandwell 035"},"type":"Feature"},{"geometry":{"coordinates":[[[-1.9817025,52.4662593],[-1.989386,52.4734799],[-1.9832515,52.4754897],[-1.9847758,52.4793962],[-1.9895412,52.4778879],[-2.0030665,52.4741359],[-1.9951855,52.4666135],[-1.9982397,52.464347],[-1.9933533,52.4642291],[-1.9911609,52.4645931],[-1.9879857,52.4653465],[-1.9817025,52.4662593]]],"type":"Polygon"},"id":"E02002078","properties":{"code":"E02002078","geography":"MSOA","name":"Sandwell 036"},"type":"Feature"},{"geometry":{"coordinates":[[[-2.0061116,52.4757368],[-2.0144229,52.4816069],[-2.0227396,52.4806159],[-2.0227303,52.4805827],[-2.02035,52.4764679],[-2.0131789,52.4621703],[-1.9933533,52.4642291],[-1.9982397,52.464347],[-1.9951855,52.4666135],[-2.0030665,52.4741359],[-2.0061116,52.4757368]]],"type":"Polygon"},"id":"E02002079","properties":{"code":"E02002079","geography":"MSOA","name":"Sandwell 037"},"type":"Feature"},{"geometry":{"coordinates":[[[-2.0546944,52.4634708],[-2.0622162,52.471049],[-2.07164,52.4687817],[-2.0725982,52.4750974],[-2.0804845,52.4699254],[-2.0841974,52.4726942],[-2.0800541,52.4763773],[-2.0819702,52.4759195],[-2.0942604,52.4735649],[-2.0970967,52.4683834],[-2.086181,52.466747],[-2.0708175,52.4609369],[-2.0546944,52.4634708]]],"type":"Polygon"},"id":"E02002080","properties":{"code":"E02002080","geography":"MSOA","name":"Sandwell 038"},"type":"Feature"},{"geometry":{"coordinates":[[[-1.9556803,52.5499539],[-1.9775002,52.5508978],[-1.9798569,52.5504712],[-1.9913275,52.532938],[-1.9883859,52.5308293],[-1.9849487,52.5347908],[-1.9702354,52.5353095],[-1.9707044,52.5274549],[-1.960346,52.5306538],[-1.9581888,52.5313455],[-1.9570401,52.5360218],[-1.963798,52.5397757],[-1.9483327,52.5438019],[-1.9556803,52.5499539]]],"type":"Polygon"},"id":"E02006810","properties":{"code":"E02006810","geography":"MSOA","name":"Sandwell 039"},"type":"Feature"},{"geometry":{"coordinates":[[[-1.9466804,52.5002325],[-1.9574364,52.5031199],[-1.9729802,52.4968378],[-1.9635765,52.4872989],[-1.9511434,52.4907563],[-1.9480254,52.4875918],[-1.9439708,52.4943397],[-1.9382184,52.4982833],[-1.9466804,52.5002325]]],"type":"Polygon"},"id":"E02006943","properties":{"code":"E02006943","geography":"MSOA","name":"Sandwell 040"},"type":"Feature"},{"geometry":{"coordinates":[[[-1.9480254,52.4875918],[-1.9511434,52.4907563],[-1.9635765,52.4872989],[-1.9662548,52.4818974],[-1.9646953,52.4814989],[-1.9503281,52.4838985],[-1.9480254,52.4875918]]],"type":"Polygon"},"id":"E02006944","properties":{"code":"E02006944","geography":"MSOA","name":"Sandwell 041"},"type":"Feature"}],"type":"FeatureCollection"}
