{"features":[{"geometry":{"coordinates":[[[-2.0992544,52.632746],[-2.1138068,52.6378947],[-2.1316988,52.6370655],[-2.1250028,52.6345437],[-2.1304256,52.6182917],[-2.1186504,52.6146625],[-2.116564,52.6179025],[-2.1106822,52.616815],[-2.1051697,52.6262116],[-2.0988276,52.6289623],[-2.0992544,52.632746]]],"type":"Polygon"},"id":"E02002149","properties":{"code":"E02002149","geography":"MSOA","name":"Wolverhampton 001"},"type":"Feature"},{"geometry":{"coordinates":[[[-2.1304256,52.6182917],[-2.1250028,52.6345437],[-2.1316988,52.6370655],[-2.1339286,52.6335344],[-2.1371296,52.6297834],[-2.1508914,52.6297143],[-2.1442126,52.622147],[-2.1371391,52.6166009],[-2.1304256,52.6182917]]],"type":"Polygon"},"id":"E02002150","properties":{"code":"E02002150","geography":"MSOA","name":"Wolverhampton 002"},"type":"Feature"},{"geometry":{"coordinates":[[[-2.1442126,52.622147],[-2.1508914,52.6297143],[-2.1515591,52.6245754],[-2.162791,52.6212062],[-2.1617994,52.6192218],[-2.1553491,52.6131225],[-2.1534152,52.6187245],[-2.1460542,52.6157033],[-2.1442126,52.622147]]],"type":"Polygon"},"id":"E02002151","properties":{"code":"E02002151","geography":"MSOA","name":"Wolverhampton 003"},"type":"Feature"},{"geometry":{"coordinates":[[[-2.081008,52.6118892],[-2.0884027,52.6198154],[-2.0948161,52.6207122],[-2.0988276,52.6289623],[-2.1051697,52.6262116],[-2.1106822,52.616815],[-2.1072243,52.6140421],[-2.1115935,52.6130941],[-2.1096682,52.6091911],[-2.1037706,52.6080882],[-2.1033774,52.6125167],[-2.096153,52.6165328],[-2.0830329,52.6115578],[-2.081008,52.6118892]]],"type":"Polygon"},"id":"E02002152","properties":{"code":"E02002152","geography":"MSOA","name":"Wolverhampton 004"},"type":"Feature"},{"geometry":{"coordinates":[[[-2.0507241,52.6205067],[-2.0640065,52.6207304],[-2.068713,52.618101],[-2.0673319,52.6120607],[-2.0722444,52.6127547],[-2.0718553,52.6099818],[-2.0603898,52.6094165],[-2.0551905,52.6125244],[-2.0508736,52.6093292],[-2.0507241,52.6205067]]],"type":"Polygon"},"id":"E02002153","properties":{"code":"E02002153","geography":"MSOA","name":"Wolverhampton 005"},"type":"Feature"},{"geometry":{"coordinates":[[[-2.1304256,52.6182917],[-2.1371391,52.6166009],[-2.1442126,52.622147],[-2.1460542,52.6157033],[-2.1452668,52.6078876],[-2.1302398,52.6023287],[-2.1226815,52.6050505],[-2.1244914,52.6100967],[-2.1186504,52.6146625],[-2.1304256,52.6182917]]],"type":"Polygon"},"id":"E02002154","properties":{"code":"E02002154","geography":"MSOA","name":"Wolverhampton 006"},"type":"Feature"},{"geometry":{"coordinates":[[[-2.1106822,52.616815],[-2.116564,52.6179025],[-2.1186504,52.6146625],[-2.1244914,52.6100967],[-2.1226815,52.6050505],[-2.1224657,52.6029016],[-2.1224258,52.600875],[-2.1185708,52.6012949],[-2.1213328,52.6048164],[-2.1172385,52.6033258],[-2.1156805,52.6085299],[-2.1076023,52.6063418],[-2.1096682,52.6091911],[-2.1115935,52.6130941],[-2.1072243,52.6140421],[-2.1106822,52.616815]]],"type":"Polygon"},"id":"E02002155","properties":{"code":"E02002155","geography":"MSOA","name":"Wolverhampton 007"},"type":"Feature"},{"geometry":{"coordinates":[[[-2.0830329,52.6115578],[-2.096153,52.6165328],[-2.1033774,52.6125167],[-2.1037706,52.6080882],[-2.1035416,52.6016884],[-2.089515,52.6091566],[-2.0874869,52.6069273],[-2.0801511,52.6044355],[-2.0760501,52.6074139],[-2.0830329,52.6115578]]],"type":"Polygon"},"id":"E02002156","properties":{"code":"E02002156","geography":"MSOA","name":"Wolverhampton 008"},"type":"Feature"},{"geometry":{"coordinates":[[[-2.1617994,52.6192218],[-2.1675034,52.6203961],[-2.169385,52.6180244],[-2.1649351,52.6165637],[-2.1709685,52.6143186],[-2.169162,52.6093231],[-2.1738148,52.6092082],[-2.1711404,52.6044891],[-2.1754383,52.6019323],[-2.1602066,52.5970581],[-2.1452668,52.6078876],[-2.1460542,52.6157033],[-2.1534152,52.6187245],[-2.1553491,52.6131225],[-2.1617994,52.6192218]]],"type":"Polygon"},"id":"E02002157","properties":{"code":"E02002157","geography":"MSOA","name":"Wolverhampton 009"},"type":"Feature"},{"geometry":{"coordinates":[[[-2.0508736,52.6093292],[-2.0551905,52.6125244],[-2.0603898,52.6094165],[-2.0718553,52.6099818],[-2.0722444,52.6127547],[-2.081008,52.6118892],[-2.0830329,52.6115578],[-2.0760501,52.6074139],[-2.0801511,52.6044355],[-2.0728398,52.603856],[-2.0759629,52.5997367],[-2.0718769,52.5981187],[-2.0692521,52.6053502],[-2.0567284,52.6022287],[-2.0524046,52.6048878],[-2.0508736,52.6093292]]],"type":"Polygon"},"id":"E02002158","properties":{"code":"E02002158","geography":"MSOA","name":"Wolverhampton 010"},"type":"Feature"},{"geometry":{"coordinates":[[[-2.1037706,52.6080882],[-2.1096682,52.6091911],[-2.1076023,52.6063418],[-2.1156805,52.6085299],[-2.1172385,52.6033258],[-2.1213328,52.6048164],[-2.1185708,52.6012949],[-2.1224258,52.600875],[-2.116476,52.5957825],[-2.1035416,52.6016884],[-2.1037706,52.6080882]]],"type":"Polygon"},"id":"E02002159","properties":{"code":"E02002159","geography":"MSOA","name":"Wolverhampton 011"},"type":"Feature"},{"geometry":{"coordinates":[[[-2.0801511,52.6044355],[-2.0874869,52.6069273],[-2.0907881,52.6035741],[-2.0850932,52.5993723],[-2.1012619,52.5929753],[-2.0876847,52.58903],[-2.077799,52.5861122],[-2.0629172,52.5976615],[-2.0570005,52.5982596],[-2.0524046,52.6048878],[-2.0567284,52.6022287],[-2.0692521,52.6053502],[-2.0718769,52.5981187],[-2.0759629,52.5997367],[-2.0728398,52.603856],[-2.0801511,52.6044355]]],"type":"Polygon"},"id":"E02002160","properties":{"code":"E02002160","geography":"MSOA","name":"Wolverhampton 012"},"type":"Feature"},{"geometry":{"coordinates":[[[-2.1226815,52.6050505],[-2.1302398,52.6023287],[-2.1452668,52.6078876],[-2.1602066,52.5970581],[-2.1484965,52.59477],[-2.1387212,52.5983312],[-2.1354494,52.5960652],[-2.1340183,52.5999093],[-2.1272547,52.594946],[-2.1224657,52.6029016],[-2.1226815,52.6050505]]],"type":"Polygon"},"id":"E02002161","properties":{"code":"E02002161","geography":"MSOA","name":"Wolverhampton 013"},"type":"Feature"},{"geometry":{"coordinates":[[[-2.1602066,52.5970581],[-2.1754383,52.6019323],[-2.1711404,52.6044891],[-2.1738148,52.6092082],[-2.1803183,52.6048862],[-2.187214,52.6089945],[-2.1952037,52.6070505],[-2.1885491,52.5921756],[-2.1819138,52.591069],[-2.1787322,52.5854674],[-2.1769306,52.5892181],[-2.1709897,52.5885771],[-2.1654906,52.5928954],[-2.1602066,52.5970581]]],"type":"Polygon"},"id":"E02002162","properties":{"code":"E02002162","geography":"MSOA","name":"Wolverhampton 014"},"type":"Feature"},{"geometry":{"coordinates":[[[-2.0874869,52.6069273],[-2.089515,52.6091566],[-2.1035416,52.6016884],[-2.116476,52.5957825],[-2.118679,52.5889934],[-2.1127403,52.5852823],[-2.1012619,52.5929753],[-2.0850932,52.5993723],[-2.0907881,52.6035741],[-2.0874869,52.6069273]]],"type":"Polygon"},"id":"E02002163","properties":{"code":"E02002163","geography":"MSOA","name":"Wolverhampton 015"},"type":"Feature"},{"geometry":{"coordinates":[[[-2.1272547,52.594946],[-2.1340183,52.5999093],[-2.1354494,52.5960652],[-2.1387212,52.5983312],[-2.1484965,52.59477],[-2.1325377,52.5887144],[-2.1313792,52.5919478],[-2.1257565,52.5924574],[-2.1272547,52.594946]]],"type":"Polygon"},"id":"E02002164","properties":{"code":"E02002164","geography":"MSOA","name":"Wolverhampton 016"},"type":"Feature"},{"geometry":{"coordinates":[[[-2.1484965,52.59477],[-2.1602066,52.5970581],[-2.1654906,52.5928954],[-2.1578328,52.5921582],[-2.1568242,52.5872567],[-2.1495338,52.5865767],[-2.148093,52.5834728],[-2.1354843,52.584764],[-2.1325377,52.5887144],[-2.1484965,52.59477]]],"type":"Polygon"},"id":"E02002165","properties":{"code":"E02002165","geography":"MSOA","name":"Wolverhampton 017"},"type":"Feature"},{"geometry":{"coordinates":[[[-2.0876847,52.58903],[-2.1012619,52.5929753],[-2.1127403,52.5852823],[-2.1137982,52.5833939],[-2.1074631,52.5737316],[-2.0947248,52.5721767],[-2.0854199,52.5788084],[-2.0859854,52.5826778],[-2.0906379,52.5833169],[-2.0876847,52.58903]]],"type":"Polygon"},"id":"E02002166","properties":{"code":"E02002166","geography":"MSOA","name":"Wolverhampton 018"},"type":"Feature"},{"geometry":{"coordinates":[[[-2.1709897,52.5885771],[-2.1769306,52.5892181],[-2.1787322,52.5854674],[-2.1819138,52.591069],[-2.1885491,52.5921756],[-2.1893142,52.5885933],[-2.2068816,52.5865683],[-2.1999053,52.5838301],[-2.2039673,52.5838476],[-2.2018081,52.5787648],[-2.1894366,52.5772551],[-2.188283,52.5741603],[-2.1829631,52.5769149],[-2.175557,52.5784952],[-2.1709897,52.5885771]]],"type":"Polygon"},"id":"E02002167","properties":{"code":"E02002167","geography":"MSOA","name":"Wolverhampton 019"},"type":"Feature"},{"geometry":{"coordinates":[[[-2.1224258,52.600875],[-2.1224657,52.6029016],[-2.1272547,52.594946],[-2.1257565,52.5924574],[-2.1313792,52.5919478],[-2.1325377,52.5887144],[-2.1354843,52.584764],[-2.148093,52.5834728],[-2.1520012,52.5800764],[-2.1505722,52.5739889],[-2.1387729,52.5728446],[-2.132742,52.5803536],[-2.1236342,52.581408],[-2.1212047,52.5859674],[-2.1137982,52.5833939],[-2.1127403,52.5852823],[-2.118679,52.5889934],[-2.116476,52.5957825],[-2.1224258,52.600875]]],"type":"Polygon"},"id":"E02002168","properties":{"code":"E02002168","geography":"MSOA","name":"Wolverhampton 020"},"type":"Feature"},{"geometry":{"coordinates":[[[-2.148093,52.5834728],[-2.1495338,52.5865767],[-2.1568242,52.5872567],[-2.1578328,52.5921582],[-2.1654906,52.5928954],[-2.1709897,52.5885771],[-2.175557,52.5784952],[-2.1718941,52.5773869],[-2.1724642,52.570661],[-2.1648697,52.567893],[-2.1630527,52.5696986],[-2.1520012,52.5800764],[-2.148093,52.5834728]]],"type":"Polygon"},"id":"E02002169","properties":{"code":"E02002169","geography":"MSOA","name":"Wolverhampton 021"},"type":"Feature"},{"geometry":{"coordinates":[[[-2.0601637,52.5788507],[-2.0744273,52.5849764],[-2.0794732,52.5823751],[-2.0740291,52.5832518],[-2.0713,52.5785673],[-2.0773298,52.5795267],[-2.0782389,52.5762538],[-2.0733863,52.5750202],[-2.0688964,52.5746686],[-2.0680327,52.5705187],[-2.0581697,52.574731],[-2.0551711,52.5765591],[-2.0601637,52.5788507]]],"type":"Polygon"},"id":"E02002170","properties":{"code":"E02002170","geography":"MSOA","name":"Wolverhampton 022"},"type":"Feature"},{"geometry":{"coordinates":[[[-2.077799,52.5861122],[-2.0876847,52.58903],[-2.0906379,52.5833169],[-2.0859854,52.5826778],[-2.0854199,52.5788084],[-2.0947248,52.5721767],[-2.0843904,52.5690785],[-2.0796912,52.5691548],[-2.077362,52.5753924],[-2.0733863,52.5750202],[-2.0782389,52.5762538],[-2.0773298,52.5795267],[-2.0713,52.5785673],[-2.0740291,52.5832518],[-2.0794732,52.5823751],[-2.0744273,52.5849764],[-2.077799,52.5861122]]],"type":"Polygon"},"id":"E02002171","properties":{"code":"E02002171","geography":"MSOA","name":"Wolverhampton 023"},"type":"Feature"},{"geometry":{"coordinates":[[[-2.1387729,52.5728446],[-2.1505722,52.5739889],[-2.1520012,52.5800764],[-2.1630527,52.5696986],[-2.1603542,52.5631087],[-2.1471479,52.5609197],[-2.1441179,52.5630761],[-2.1492398,52.5690181],[-2.1436791,52.5686696],[-2.1387729,52.5728446]]],"type":"Polygon"},"id":"E02002174","properties":{"code":"E02002174","geography":"MSOA","name":"Wolverhampton 026"},"type":"Feature"},{"geometry":{"coordinates":[[[-2.0733863,52.5750202],[-2.077362,52.5753924],[-2.0796912,52.5691548],[-2.0843904,52.5690785],[-2.0784599,52.5633728],[-2.0723687,52.5658604],[-2.0650189,52.5596062],[-2.0629451,52.5615826],[-2.0578328,52.5598484],[-2.0500275,52.5721249],[-2.0581697,52.574731],[-2.0680327,52.5705187],[-2.0688964,52.5746686],[-2.0733863,52.5750202]]],"type":"Polygon"},"id":"E02002175","properties":{"code":"E02002175","geography":"MSOA","name":"Wolverhampton 027"},"type":"Feature"},{"geometry":{"coordinates":[[[-2.1648697,52.567893],[-2.1724642,52.570661],[-2.1718941,52.5773869],[-2.175557,52.5784952],[-2.1829631,52.5769149],[-2.1730545,52.5546259],[-2.1648697,52.567893]]],"type":"Polygon"},"id":"E02002176","properties":{"code":"E02002176","geography":"MSOA","name":"Wolverhampton 028"},"type":"Feature"},{"geometry":{"coordinates":[[[-2.0947248,52.5721767],[-2.1074631,52.5737316],[-2.1178551,52.5691626],[-2.1130289,52.5621234],[-2.1017883,52.5653591],[-2.0950586,52.5589261],[-2.089033,52.5514656],[-2.082198,52.5525152],[-2.0780497,52.5569097],[-2.0784599,52.5633728],[-2.0843904,52.5690785],[-2.0947248,52.5721767]]],"type":"Polygon"},"id":"E02002177","properties":{"code":"E02002177","geography":"MSOA","name":"Wolverhampton 029"},"type":"Feature"},{"geometry":{"coordinates":[[[-2.1188945,52.5617014],[-2.1239469,52.5695159],[-2.1327992,52.5679502],[-2.1323476,52.5705343],[-2.1375763,52.5643285],[-2.137083,52.5678442],[-2.1436791,52.5686696],[-2.1492398,52.5690181],[-2.1441179,52.5630761],[-2.1471479,52.5609197],[-2.1497606,52.558225],[-2.1433424,52.5561934],[-2.1401337,52.5584193],[-2.1334929,52.5540514],[-2.1283877,52.5538217],[-2.127604,52.5581916],[-2.1215332,52.5568001],[-2.1188945,52.5617014]]],"type":"Polygon"},"id":"E02002178","properties":{"code":"E02002178","geography":"MSOA","name":"Wolverhampton 030"},"type":"Feature"},{"geometry":{"coordinates":[[[-2.1471479,52.5609197],[-2.1603542,52.5631087],[-2.1630527,52.5696986],[-2.1648697,52.567893],[-2.1730545,52.5546259],[-2.1709677,52.5555469],[-2.1530605,52.5536602],[-2.1433424,52.5561934],[-2.1497606,52.558225],[-2.1471479,52.5609197]]],"type":"Polygon"},"id":"E02002179","properties":{"code":"E02002179","geography":"MSOA","name":"Wolverhampton 031"},"type":"Feature"},{"geometry":{"coordinates":[[[-2.0950586,52.5589261],[-2.1017883,52.5653591],[-2.1130289,52.5621234],[-2.1188945,52.5617014],[-2.1215332,52.5568001],[-2.1144663,52.5473044],[-2.1082667,52.5555587],[-2.100811,52.554778],[-2.0950586,52.5589261]]],"type":"Polygon"},"id":"E02002180","properties":{"code":"E02002180","geography":"MSOA","name":"Wolverhampton 032"},"type":"Feature"},{"geometry":{"coordinates":[[[-2.0578328,52.5598484],[-2.0629451,52.5615826],[-2.0650189,52.5596062],[-2.0723687,52.5658604],[-2.0784599,52.5633728],[-2.0780497,52.5569097],[-2.0740272,52.5498448],[-2.061454,52.5469651],[-2.0509875,52.5527137],[-2.0619579,52.5582335],[-2.0578328,52.5598484]]],"type":"Polygon"},"id":"E02002181","properties":{"code":"E02002181","geography":"MSOA","name":"Wolverhampton 033"},"type":"Feature"},{"geometry":{"coordinates":[[[-2.089033,52.5514656],[-2.0950586,52.5589261],[-2.100811,52.554778],[-2.1082667,52.5555587],[-2.1144663,52.5473044],[-2.1082503,52.5439302],[-2.1055679,52.5456834],[-2.094408,52.5479322],[-2.089033,52.5514656]]],"type":"Polygon"},"id":"E02002182","properties":{"code":"E02002182","geography":"MSOA","name":"Wolverhampton 034"},"type":"Feature"},{"geometry":{"coordinates":[[[-2.1137982,52.5833939],[-2.1212047,52.5859674],[-2.1236342,52.581408],[-2.132742,52.5803536],[-2.1387729,52.5728446],[-2.1436791,52.5686696],[-2.137083,52.5678442],[-2.1375763,52.5643285],[-2.1323476,52.5705343],[-2.1327992,52.5679502],[-2.1239469,52.5695159],[-2.1188945,52.5617014],[-2.1130289,52.5621234],[-2.1178551,52.5691626],[-2.1074631,52.5737316],[-2.1137982,52.5833939]]],"type":"Polygon"},"id":"E02006894","properties":{"code":"E02006894","geography":"MSOA","name":"Wolverhampton 035"},"type":"Feature"}],"type":"FeatureCollection"}
