{"features":[{"geometry":{"coordinates":[[[-1.3599834,53.5129708],[-1.3792482,53.5144032],[-1.395072,53.5066577],[-1.3963553,53.5052389],[-1.379547,53.4997868],[-1.378851,53.494922],[-1.367045,53.4928614],[-1.3684223,53.4991505],[-1.3429928,53.5056561],[-1.3423519,53.5077989],[-1.3599834,53.5129708]]],"type":"Polygon"},"id":"E02001578","properties":{"code":"E02001578","geography":"MSOA","name":"Rotherham 001"},"type":"Feature"},{"geometry":{"coordinates":[[[-1.3125632,53.513718],[-1.3435831,53.5142945],[-1.3599834,53.5129708],[-1.3423519,53.5077989],[-1.3429928,53.5056561],[-1.3684223,53.4991505],[-1.367045,53.4928614],[-1.3651031,53.4862999],[-1.3614263,53.4851713],[-1.3567095,53.4882506],[-1.3491241,53.4841115],[-1.34401,53.482541],[-1.3352525,53.4873853],[-1.3350229,53.4923457],[-1.319719,53.4883472],[-1.3146026,53.4941908],[-1.3059338,53.4960048],[-1.3129564,53.5013866],[-1.3125632,53.513718]]],"type":"Polygon"},"id":"E02001579","properties":{"code":"E02001579","geography":"MSOA","name":"Rotherham 002"},"type":"Feature"},{"geometry":{"coordinates":[[[-1.2923141,53.4917093],[-1.3059338,53.4960048],[-1.3146026,53.4941908],[-1.319719,53.4883472],[-1.3350229,53.4923457],[-1.3352525,53.4873853],[-1.34401,53.482541],[-1.3481049,53.4771776],[-1.3353617,53.4777158],[-1.3273448,53.4762348],[-1.3258945,53.4793339],[-1.3318908,53.4812102],[-1.3323696,53.4848732],[-1.3219821,53.4841824],[-1.3239863,53.4802967],[-1.3165773,53.4825848],[-1.3147964,53.4866441],[-1.3104719,53.4795019],[-1.3011138,53.4826441],[-1.2929626,53.485904],[-1.2907143,53.4911276],[-1.2923141,53.4917093]]],"type":"Polygon"},"id":"E02001580","properties":{"code":"E02001580","geography":"MSOA","name":"Rotherham 003"},"type":"Feature"},{"geometry":{"coordinates":[[[-1.3011138,53.4826441],[-1.3104719,53.4795019],[-1.3147964,53.4866441],[-1.3165773,53.4825848],[-1.3239863,53.4802967],[-1.3219821,53.4841824],[-1.3323696,53.4848732],[-1.3318908,53.4812102],[-1.3258945,53.4793339],[-1.3273448,53.4762348],[-1.3269855,53.4731433],[-1.3154907,53.4701226],[-1.3145751,53.4736693],[-1.3064801,53.4737091],[-1.3062367,53.4708909],[-1.2984378,53.4765383],[-1.295988,53.4805036],[-1.3011138,53.4826441]]],"type":"Polygon"},"id":"E02001581","properties":{"code":"E02001581","geography":"MSOA","name":"Rotherham 004"},"type":"Feature"},{"geometry":{"coordinates":[[[-1.34401,53.482541],[-1.3491241,53.4841115],[-1.3524958,53.4813067],[-1.3649412,53.4808027],[-1.371219,53.473545],[-1.3723588,53.4691938],[-1.3619331,53.4669784],[-1.3652742,53.4652415],[-1.3570007,53.461608],[-1.3442525,53.4617096],[-1.3399117,53.4646245],[-1.3353617,53.4777158],[-1.3481049,53.4771776],[-1.34401,53.482541]]],"type":"Polygon"},"id":"E02001582","properties":{"code":"E02001582","geography":"MSOA","name":"Rotherham 005"},"type":"Feature"},{"geometry":{"coordinates":[[[-1.3273448,53.4762348],[-1.3353617,53.4777158],[-1.3399117,53.4646245],[-1.3347758,53.4624048],[-1.333156,53.4654947],[-1.3210749,53.4606004],[-1.3260823,53.4549991],[-1.3158955,53.4573018],[-1.3062463,53.4633214],[-1.3024503,53.4623322],[-1.2970103,53.4751479],[-1.2984378,53.4765383],[-1.3062367,53.4708909],[-1.3064801,53.4737091],[-1.3145751,53.4736693],[-1.3154907,53.4701226],[-1.3269855,53.4731433],[-1.3273448,53.4762348]]],"type":"Polygon"},"id":"E02001583","properties":{"code":"E02001583","geography":"MSOA","name":"Rotherham 006"},"type":"Feature"},{"geometry":{"coordinates":[[[-1.367045,53.4928614],[-1.378851,53.494922],[-1.379547,53.4997868],[-1.3963553,53.5052389],[-1.4085058,53.5032823],[-1.4150344,53.4924718],[-1.4278751,53.485832],[-1.4407159,53.4911037],[-1.4500627,53.4859901],[-1.4552033,53.4717477],[-1.4450684,53.4577887],[-1.4431324,53.4475858],[-1.4333267,53.4382795],[-1.4260128,53.4469268],[-1.4178218,53.4476009],[-1.4096098,53.4442743],[-1.4060785,53.4459148],[-1.4107079,53.4483857],[-1.4062664,53.448764],[-1.4073114,53.4525577],[-1.4012611,53.4500485],[-1.3938244,53.4514141],[-1.3866763,53.460209],[-1.3721612,53.459623],[-1.3652742,53.4652415],[-1.3619331,53.4669784],[-1.3723588,53.4691938],[-1.371219,53.473545],[-1.3649412,53.4808027],[-1.3524958,53.4813067],[-1.3491241,53.4841115],[-1.3567095,53.4882506],[-1.3614263,53.4851713],[-1.3651031,53.4862999],[-1.367045,53.4928614]]],"type":"Polygon"},"id":"E02001584","properties":{"code":"E02001584","geography":"MSOA","name":"Rotherham 007"},"type":"Feature"},{"geometry":{"coordinates":[[[-1.3260823,53.4549991],[-1.3210749,53.4606004],[-1.333156,53.4654947],[-1.3347758,53.4624048],[-1.3399117,53.4646245],[-1.3442525,53.4617096],[-1.3570007,53.461608],[-1.3560998,53.4519508],[-1.3477888,53.4499313],[-1.3505247,53.4440011],[-1.3473285,53.4407559],[-1.3330189,53.4498118],[-1.3260823,53.4549991]]],"type":"Polygon"},"id":"E02001585","properties":{"code":"E02001585","geography":"MSOA","name":"Rotherham 008"},"type":"Feature"},{"geometry":{"coordinates":[[[-1.3570007,53.461608],[-1.3652742,53.4652415],[-1.3721612,53.459623],[-1.3866763,53.460209],[-1.3938244,53.4514141],[-1.4012611,53.4500485],[-1.3809926,53.446908],[-1.3813581,53.4420543],[-1.3660423,53.4373303],[-1.3607375,53.4394861],[-1.3505247,53.4440011],[-1.3477888,53.4499313],[-1.3560998,53.4519508],[-1.3570007,53.461608]]],"type":"Polygon"},"id":"E02001586","properties":{"code":"E02001586","geography":"MSOA","name":"Rotherham 009"},"type":"Feature"},{"geometry":{"coordinates":[[[-1.2546919,53.4811789],[-1.2697321,53.4858714],[-1.2809064,53.4784041],[-1.2970103,53.4751479],[-1.3024503,53.4623322],[-1.3062463,53.4633214],[-1.3158955,53.4573018],[-1.3124263,53.4554994],[-1.3191444,53.4411588],[-1.3089192,53.4373431],[-1.30092,53.4380642],[-1.2799017,53.4413602],[-1.2847462,53.4665385],[-1.2734374,53.4656133],[-1.2577504,53.4541989],[-1.2521421,53.4544677],[-1.2588769,53.4597456],[-1.2552862,53.4712863],[-1.2498889,53.4767186],[-1.2546919,53.4811789]]],"type":"Polygon"},"id":"E02001587","properties":{"code":"E02001587","geography":"MSOA","name":"Rotherham 010"},"type":"Feature"},{"geometry":{"coordinates":[[[-1.4012611,53.4500485],[-1.4073114,53.4525577],[-1.4062664,53.448764],[-1.4107079,53.4483857],[-1.4060785,53.4459148],[-1.4096098,53.4442743],[-1.4013327,53.4404687],[-1.3907046,53.4414091],[-1.3847686,53.4366044],[-1.3813581,53.4420543],[-1.3809926,53.446908],[-1.4012611,53.4500485]]],"type":"Polygon"},"id":"E02001588","properties":{"code":"E02001588","geography":"MSOA","name":"Rotherham 011"},"type":"Feature"},{"geometry":{"coordinates":[[[-1.2577504,53.4541989],[-1.2734374,53.4656133],[-1.2847462,53.4665385],[-1.2799017,53.4413602],[-1.30092,53.4380642],[-1.2921995,53.4308512],[-1.2766611,53.4278118],[-1.2812668,53.4315398],[-1.2727323,53.4354774],[-1.2673899,53.4276633],[-1.2611574,53.4243314],[-1.2536225,53.4298109],[-1.2505416,53.4257116],[-1.2402047,53.434556],[-1.2373363,53.4411563],[-1.2524279,53.441728],[-1.2518,53.4487651],[-1.2577504,53.4541989]]],"type":"Polygon"},"id":"E02001589","properties":{"code":"E02001589","geography":"MSOA","name":"Rotherham 012"},"type":"Feature"},{"geometry":{"coordinates":[[[-1.3089192,53.4373431],[-1.3191444,53.4411588],[-1.3124263,53.4554994],[-1.3158955,53.4573018],[-1.3260823,53.4549991],[-1.3330189,53.4498118],[-1.3214731,53.4422299],[-1.3357485,53.4365512],[-1.328562,53.4363247],[-1.3251243,53.4313791],[-1.3302038,53.4301618],[-1.3276788,53.4273676],[-1.3164703,53.4278807],[-1.3115899,53.4295415],[-1.3089192,53.4373431]]],"type":"Polygon"},"id":"E02001590","properties":{"code":"E02001590","geography":"MSOA","name":"Rotherham 013"},"type":"Feature"},{"geometry":{"coordinates":[[[-1.3302038,53.4301618],[-1.3251243,53.4313791],[-1.328562,53.4363247],[-1.3357485,53.4365512],[-1.3214731,53.4422299],[-1.3330189,53.4498118],[-1.3473285,53.4407559],[-1.3519547,53.4384444],[-1.3447054,53.4376878],[-1.348619,53.4326734],[-1.343828,53.4350228],[-1.3384127,53.4312],[-1.3424388,53.4277866],[-1.3357273,53.4289061],[-1.3302038,53.4301618]]],"type":"Polygon"},"id":"E02001591","properties":{"code":"E02001591","geography":"MSOA","name":"Rotherham 014"},"type":"Feature"},{"geometry":{"coordinates":[[[-1.4096098,53.4442743],[-1.4178218,53.4476009],[-1.4260128,53.4469268],[-1.4333267,53.4382795],[-1.4246014,53.4333282],[-1.4085445,53.4203431],[-1.3973851,53.4249098],[-1.3847686,53.4366044],[-1.3907046,53.4414091],[-1.4013327,53.4404687],[-1.4096098,53.4442743]]],"type":"Polygon"},"id":"E02001592","properties":{"code":"E02001592","geography":"MSOA","name":"Rotherham 015"},"type":"Feature"},{"geometry":{"coordinates":[[[-1.3607375,53.4394861],[-1.3660423,53.4373303],[-1.3813581,53.4420543],[-1.3847686,53.4366044],[-1.3973851,53.4249098],[-1.3815929,53.4253518],[-1.3797596,53.4223887],[-1.3837892,53.4206334],[-1.3720497,53.4222116],[-1.3644609,53.4252892],[-1.3651873,53.4324837],[-1.3590917,53.4324691],[-1.3607375,53.4394861]]],"type":"Polygon"},"id":"E02001593","properties":{"code":"E02001593","geography":"MSOA","name":"Rotherham 016"},"type":"Feature"},{"geometry":{"coordinates":[[[-1.3473285,53.4407559],[-1.3505247,53.4440011],[-1.3607375,53.4394861],[-1.3590917,53.4324691],[-1.3651873,53.4324837],[-1.3644609,53.4252892],[-1.3720497,53.4222116],[-1.3636507,53.4245115],[-1.3596311,53.4219944],[-1.3631637,53.4166422],[-1.3576267,53.4171697],[-1.3546956,53.4221214],[-1.34844,53.4231605],[-1.3535909,53.4239991],[-1.3508251,53.4277459],[-1.3316744,53.420357],[-1.3357273,53.4289061],[-1.3424388,53.4277866],[-1.3384127,53.4312],[-1.343828,53.4350228],[-1.348619,53.4326734],[-1.3447054,53.4376878],[-1.3519547,53.4384444],[-1.3473285,53.4407559]]],"type":"Polygon"},"id":"E02001594","properties":{"code":"E02001594","geography":"MSOA","name":"Rotherham 017"},"type":"Feature"},{"geometry":{"coordinates":[[[-1.2068303,53.4317273],[-1.2163945,53.4350567],[-1.2380571,53.4327581],[-1.2402047,53.434556],[-1.2505416,53.4257116],[-1.2536225,53.4298109],[-1.2611574,53.4243314],[-1.2557273,53.4241667],[-1.2555855,53.4201247],[-1.2643549,53.4178561],[-1.2655822,53.4139625],[-1.2552317,53.4100593],[-1.2519012,53.4094242],[-1.2488317,53.418298],[-1.2308127,53.4219567],[-1.2087205,53.4205062],[-1.2033425,53.4237948],[-1.2111942,53.4302811],[-1.2068303,53.4317273]]],"type":"Polygon"},"id":"E02001595","properties":{"code":"E02001595","geography":"MSOA","name":"Rotherham 018"},"type":"Feature"},{"geometry":{"coordinates":[[[-1.2673899,53.4276633],[-1.2727323,53.4354774],[-1.2812668,53.4315398],[-1.2766611,53.4278118],[-1.2921995,53.4308512],[-1.2866655,53.4279521],[-1.2949784,53.4218111],[-1.2926403,53.4195562],[-1.283946,53.4161054],[-1.2770706,53.425711],[-1.2702471,53.4231939],[-1.2673899,53.4276633]]],"type":"Polygon"},"id":"E02001596","properties":{"code":"E02001596","geography":"MSOA","name":"Rotherham 019"},"type":"Feature"},{"geometry":{"coordinates":[[[-1.1434585,53.4258532],[-1.1603997,53.4243213],[-1.1709511,53.435354],[-1.1858057,53.4337557],[-1.1951016,53.4371048],[-1.1973431,53.4315836],[-1.2068303,53.4317273],[-1.2111942,53.4302811],[-1.2033425,53.4237948],[-1.2087205,53.4205062],[-1.1949727,53.4110311],[-1.2051668,53.4076081],[-1.2114386,53.410768],[-1.2094777,53.4039145],[-1.1938828,53.398256],[-1.1795402,53.4024362],[-1.1686393,53.4017783],[-1.1452143,53.396305],[-1.142458,53.3919518],[-1.1335188,53.3915036],[-1.1332198,53.3913747],[-1.1228908,53.3982727],[-1.1156072,53.3971492],[-1.1159804,53.4073889],[-1.1180283,53.4109373],[-1.133355,53.4087365],[-1.1458736,53.412284],[-1.1356194,53.424069],[-1.1434585,53.4258532]]],"type":"Polygon"},"id":"E02001597","properties":{"code":"E02001597","geography":"MSOA","name":"Rotherham 020"},"type":"Feature"},{"geometry":{"coordinates":[[[-1.2921995,53.4308512],[-1.30092,53.4380642],[-1.3089192,53.4373431],[-1.3115899,53.4295415],[-1.3164703,53.4278807],[-1.3276788,53.4273676],[-1.3302038,53.4301618],[-1.3357273,53.4289061],[-1.3316744,53.420357],[-1.3213645,53.4132418],[-1.306465,53.4201006],[-1.2926403,53.4195562],[-1.2949784,53.4218111],[-1.2866655,53.4279521],[-1.2921995,53.4308512]]],"type":"Polygon"},"id":"E02001598","properties":{"code":"E02001598","geography":"MSOA","name":"Rotherham 021"},"type":"Feature"},{"geometry":{"coordinates":[[[-1.3316744,53.420357],[-1.3508251,53.4277459],[-1.3535909,53.4239991],[-1.34844,53.4231605],[-1.3546956,53.4221214],[-1.3576267,53.4171697],[-1.3525234,53.4148755],[-1.3546985,53.4061215],[-1.3622105,53.4072023],[-1.3550937,53.4033793],[-1.3445317,53.4036254],[-1.3213645,53.4132418],[-1.3316744,53.420357]]],"type":"Polygon"},"id":"E02001600","properties":{"code":"E02001600","geography":"MSOA","name":"Rotherham 023"},"type":"Feature"},{"geometry":{"coordinates":[[[-1.3576267,53.4171697],[-1.3631637,53.4166422],[-1.3596311,53.4219944],[-1.3636507,53.4245115],[-1.3720497,53.4222116],[-1.3837892,53.4206334],[-1.3935911,53.4200004],[-1.3777104,53.3978201],[-1.36354,53.3958672],[-1.3605124,53.3989669],[-1.3654083,53.4034873],[-1.3615651,53.4040743],[-1.3644343,53.4032395],[-1.3602115,53.4007766],[-1.3550937,53.4033793],[-1.3622105,53.4072023],[-1.3546985,53.4061215],[-1.3525234,53.4148755],[-1.3576267,53.4171697]]],"type":"Polygon"},"id":"E02001602","properties":{"code":"E02001602","geography":"MSOA","name":"Rotherham 025"},"type":"Feature"},{"geometry":{"coordinates":[[[-1.2516235,53.3751157],[-1.2532916,53.3874903],[-1.2350248,53.3880359],[-1.2292735,53.3990163],[-1.2354119,53.399553],[-1.2428565,53.4104993],[-1.2519012,53.4094242],[-1.2552317,53.4100593],[-1.2724292,53.3951527],[-1.3073842,53.389094],[-1.3168064,53.383685],[-1.3223818,53.3851673],[-1.3309735,53.3739933],[-1.3380659,53.3783937],[-1.3351819,53.3716577],[-1.3383927,53.3686087],[-1.3270514,53.3704874],[-1.3224055,53.3677589],[-1.3238571,53.3716095],[-1.3146522,53.3718565],[-1.3176483,53.3745769],[-1.3118243,53.3780532],[-1.3047931,53.3715626],[-1.2980113,53.3754221],[-1.2823825,53.3751697],[-1.2762763,53.3807541],[-1.2605279,53.3740967],[-1.2556408,53.3705795],[-1.2516235,53.3751157]]],"type":"Polygon"},"id":"E02001603","properties":{"code":"E02001603","geography":"MSOA","name":"Rotherham 026"},"type":"Feature"},{"geometry":{"coordinates":[[[-1.3550937,53.4033793],[-1.3602115,53.4007766],[-1.3644343,53.4032395],[-1.3615651,53.4040743],[-1.3654083,53.4034873],[-1.3605124,53.3989669],[-1.36354,53.3958672],[-1.3777104,53.3978201],[-1.3789636,53.3917973],[-1.3911692,53.3839182],[-1.3787985,53.3805106],[-1.3602517,53.3665043],[-1.3519463,53.3664427],[-1.3390067,53.3557765],[-1.3320763,53.3523959],[-1.3275134,53.3522928],[-1.3307095,53.3542151],[-1.3254065,53.3614859],[-1.329944,53.3586652],[-1.330285,53.3627201],[-1.3365155,53.3608225],[-1.3398849,53.3639176],[-1.3325225,53.3633041],[-1.3383927,53.3686087],[-1.3351819,53.3716577],[-1.3380659,53.3783937],[-1.3309735,53.3739933],[-1.3223818,53.3851673],[-1.3445317,53.4036254],[-1.3550937,53.4033793]]],"type":"Polygon"},"id":"E02001604","properties":{"code":"E02001604","geography":"MSOA","name":"Rotherham 027"},"type":"Feature"},{"geometry":{"coordinates":[[[-1.2087205,53.4205062],[-1.2308127,53.4219567],[-1.2488317,53.418298],[-1.2519012,53.4094242],[-1.2428565,53.4104993],[-1.2354119,53.399553],[-1.2292735,53.3990163],[-1.2350248,53.3880359],[-1.2532916,53.3874903],[-1.2516235,53.3751157],[-1.2223971,53.3656996],[-1.2135748,53.3638637],[-1.2092196,53.3724866],[-1.2131644,53.3738892],[-1.2026166,53.373894],[-1.2020707,53.3699094],[-1.1879101,53.3740078],[-1.1849803,53.3782732],[-1.1844017,53.367717],[-1.1761693,53.3645188],[-1.1706817,53.3558189],[-1.161995,53.3542411],[-1.1619493,53.3578894],[-1.1516929,53.3544658],[-1.1385279,53.3558214],[-1.1404728,53.3639605],[-1.1464743,53.363924],[-1.1461389,53.3691374],[-1.1305653,53.3755678],[-1.1335188,53.3915036],[-1.142458,53.3919518],[-1.1452143,53.396305],[-1.1686393,53.4017783],[-1.1795402,53.4024362],[-1.1938828,53.398256],[-1.2094777,53.4039145],[-1.2114386,53.410768],[-1.2051668,53.4076081],[-1.1949727,53.4110311],[-1.2087205,53.4205062]]],"type":"Polygon"},"id":"E02001605","properties":{"code":"E02001605","geography":"MSOA","name":"Rotherham 028"},"type":"Feature"},{"geometry":{"coordinates":[[[-1.161995,53.3542411],[-1.1706817,53.3558189],[-1.1761693,53.3645188],[-1.1844017,53.367717],[-1.1849803,53.3782732],[-1.1879101,53.3740078],[-1.2020707,53.3699094],[-1.2026166,53.373894],[-1.2131644,53.3738892],[-1.2092196,53.3724866],[-1.2135748,53.3638637],[-1.2223971,53.3656996],[-1.2245244,53.3604447],[-1.2152294,53.3594331],[-1.2173213,53.3571917],[-1.1985027,53.358364],[-1.1843421,53.3516984],[-1.1623046,53.3530846],[-1.161995,53.3542411]]],"type":"Polygon"},"id":"E02001606","properties":{"code":"E02001606","geography":"MSOA","name":"Rotherham 029"},"type":"Feature"},{"geometry":{"coordinates":[[[-1.2605279,53.3740967],[-1.2762763,53.3807541],[-1.2823825,53.3751697],[-1.2980113,53.3754221],[-1.3047931,53.3715626],[-1.3118243,53.3780532],[-1.3176483,53.3745769],[-1.3146522,53.3718565],[-1.3238571,53.3716095],[-1.3224055,53.3677589],[-1.313215,53.3576773],[-1.3061039,53.3582636],[-1.3054825,53.3558569],[-1.2979436,53.3626244],[-1.2921582,53.3568435],[-1.2752505,53.3630434],[-1.2786608,53.3662921],[-1.2760942,53.3712275],[-1.266442,53.3708],[-1.2605279,53.3740967]]],"type":"Polygon"},"id":"E02001607","properties":{"code":"E02001607","geography":"MSOA","name":"Rotherham 030"},"type":"Feature"},{"geometry":{"coordinates":[[[-1.3224055,53.3677589],[-1.3270514,53.3704874],[-1.3383927,53.3686087],[-1.3325225,53.3633041],[-1.3398849,53.3639176],[-1.3365155,53.3608225],[-1.330285,53.3627201],[-1.329944,53.3586652],[-1.3254065,53.3614859],[-1.3307095,53.3542151],[-1.3275134,53.3522928],[-1.3320763,53.3523959],[-1.3307893,53.350772],[-1.324726,53.3288136],[-1.3209123,53.3255587],[-1.3103273,53.3293768],[-1.3123331,53.334149],[-1.2989764,53.3324576],[-1.2847277,53.3320462],[-1.2886444,53.3426142],[-1.2823883,53.3383151],[-1.2610756,53.3419104],[-1.265143,53.3490579],[-1.3000027,53.3513025],[-1.2921582,53.3568435],[-1.2979436,53.3626244],[-1.3054825,53.3558569],[-1.3061039,53.3582636],[-1.313215,53.3576773],[-1.3224055,53.3677589]]],"type":"Polygon"},"id":"E02001608","properties":{"code":"E02001608","geography":"MSOA","name":"Rotherham 031"},"type":"Feature"},{"geometry":{"coordinates":[[[-1.2223971,53.3656996],[-1.2516235,53.3751157],[-1.2556408,53.3705795],[-1.2436884,53.3614527],[-1.2387806,53.3364971],[-1.2097272,53.3307129],[-1.2025809,53.3317703],[-1.1883002,53.3256384],[-1.1751115,53.3256567],[-1.1593504,53.3334621],[-1.1486276,53.3385049],[-1.1386862,53.3413756],[-1.1403284,53.3465597],[-1.1568508,53.3449463],[-1.1623046,53.3530846],[-1.1843421,53.3516984],[-1.1985027,53.358364],[-1.2173213,53.3571917],[-1.2152294,53.3594331],[-1.2245244,53.3604447],[-1.2223971,53.3656996]]],"type":"Polygon"},"id":"E02001609","properties":{"code":"E02001609","geography":"MSOA","name":"Rotherham 032"},"type":"Feature"},{"geometry":{"coordinates":[[[-1.2556408,53.3705795],[-1.2605279,53.3740967],[-1.266442,53.3708],[-1.2760942,53.3712275],[-1.2786608,53.3662921],[-1.2752505,53.3630434],[-1.2921582,53.3568435],[-1.3000027,53.3513025],[-1.265143,53.3490579],[-1.2610756,53.3419104],[-1.2823883,53.3383151],[-1.2886444,53.3426142],[-1.2847277,53.3320462],[-1.2989764,53.3324576],[-1.2885578,53.3261506],[-1.2951583,53.3217709],[-1.2957106,53.3150378],[-1.2820034,53.3094586],[-1.2735982,53.3104192],[-1.2542557,53.3017341],[-1.2434545,53.3015771],[-1.2305971,53.3086205],[-1.219532,53.303979],[-1.2031764,53.3041697],[-1.1997395,53.3114171],[-1.1902966,53.3198642],[-1.1720375,53.322743],[-1.1751115,53.3256567],[-1.1883002,53.3256384],[-1.2025809,53.3317703],[-1.2097272,53.3307129],[-1.2387806,53.3364971],[-1.2436884,53.3614527],[-1.2556408,53.3705795]]],"type":"Polygon"},"id":"E02001610","properties":{"code":"E02001610","geography":"MSOA","name":"Rotherham 033"},"type":"Feature"},{"geometry":{"coordinates":[[[-1.2611574,53.4243314],[-1.2673899,53.4276633],[-1.2702471,53.4231939],[-1.2770706,53.425711],[-1.283946,53.4161054],[-1.2926403,53.4195562],[-1.306465,53.4201006],[-1.3213645,53.4132418],[-1.3445317,53.4036254],[-1.3223818,53.3851673],[-1.3168064,53.383685],[-1.3073842,53.389094],[-1.2724292,53.3951527],[-1.2552317,53.4100593],[-1.2655822,53.4139625],[-1.2643549,53.4178561],[-1.2555855,53.4201247],[-1.2557273,53.4241667],[-1.2611574,53.4243314]]],"type":"Polygon"},"id":"E02007002","properties":{"code":"E02007002","geography":"MSOA","name":"Rotherham 034"},"type":"Feature"}],"type":"FeatureCollection"}
