{"features":[{"geometry":{"coordinates":[[[-2.2596604,53.4650991],[-2.2679322,53.4698381],[-2.2653465,53.4726984],[-2.2727794,53.4695937],[-2.2842158,53.46545],[-2.2841195,53.4640869],[-2.2811506,53.4609761],[-2.2766687,53.4620928],[-2.274871,53.4573151],[-2.2612472,53.4569838],[-2.2581791,53.4588488],[-2.2536045,53.4599351],[-2.2596604,53.4650991]]],"type":"Polygon"},"id":"E02001259","properties":{"code":"E02001259","geography":"MSOA","name":"Trafford 001"},"type":"Feature"},{"geometry":{"coordinates":[[[-2.3084702,53.4749464],[-2.319936,53.4798105],[-2.3306651,53.4797077],[-2.3538176,53.4743203],[-2.3691062,53.4692752],[-2.3571906,53.4637037],[-2.3579621,53.4612475],[-2.3645608,53.4612904],[-2.3647221,53.4541468],[-2.3586287,53.4568204],[-2.3505223,53.4520883],[-2.3395854,53.4519585],[-2.3389619,53.4576472],[-2.3291904,53.4671358],[-2.3172003,53.4673885],[-2.3099958,53.4672231],[-2.3084702,53.4749464]]],"type":"Polygon"},"id":"E02001260","properties":{"code":"E02001260","geography":"MSOA","name":"Trafford 002"},"type":"Feature"},{"geometry":{"coordinates":[[[-2.2811506,53.4609761],[-2.2841195,53.4640869],[-2.3010384,53.463729],[-2.3075559,53.4559738],[-2.3163853,53.4530045],[-2.290956,53.4495649],[-2.2867477,53.4519869],[-2.2921175,53.4517703],[-2.2920824,53.4555034],[-2.2811506,53.4609761]]],"type":"Polygon"},"id":"E02001261","properties":{"code":"E02001261","geography":"MSOA","name":"Trafford 003"},"type":"Feature"},{"geometry":{"coordinates":[[[-2.2612472,53.4569838],[-2.274871,53.4573151],[-2.2766687,53.4620928],[-2.2811506,53.4609761],[-2.2920824,53.4555034],[-2.2921175,53.4517703],[-2.2867477,53.4519869],[-2.290956,53.4495649],[-2.2881816,53.4467919],[-2.2716512,53.4506906],[-2.2612472,53.4569838]]],"type":"Polygon"},"id":"E02001262","properties":{"code":"E02001262","geography":"MSOA","name":"Trafford 004"},"type":"Feature"},{"geometry":{"coordinates":[[[-2.3647221,53.4541468],[-2.3645608,53.4612904],[-2.3579621,53.4612475],[-2.3571906,53.4637037],[-2.3691062,53.4692752],[-2.3831043,53.4642641],[-2.3881816,53.4625771],[-2.384757,53.4564533],[-2.3904512,53.4568771],[-2.3926389,53.4526955],[-2.3828222,53.4525069],[-2.3816227,53.4483897],[-2.3909121,53.4486629],[-2.3909464,53.4453263],[-2.3779567,53.4418109],[-2.3734243,53.4420539],[-2.3762174,53.4483463],[-2.3647221,53.4541468]]],"type":"Polygon"},"id":"E02001263","properties":{"code":"E02001263","geography":"MSOA","name":"Trafford 005"},"type":"Feature"},{"geometry":{"coordinates":[[[-2.3023376,53.472137],[-2.3084702,53.4749464],[-2.3099958,53.4672231],[-2.3172003,53.4673885],[-2.3215505,53.4642596],[-2.3261796,53.4659489],[-2.329552,53.4553721],[-2.3329623,53.4555973],[-2.3284404,53.4521343],[-2.3341026,53.4521725],[-2.3352406,53.4494071],[-2.331634,53.4458866],[-2.3279587,53.4480164],[-2.3213089,53.4449629],[-2.3139119,53.4463758],[-2.3163853,53.4530045],[-2.3075559,53.4559738],[-2.3010384,53.463729],[-2.2841195,53.4640869],[-2.2842158,53.46545],[-2.3023376,53.472137]]],"type":"Polygon"},"id":"E02001264","properties":{"code":"E02001264","geography":"MSOA","name":"Trafford 006"},"type":"Feature"},{"geometry":{"coordinates":[[[-2.3779567,53.4418109],[-2.3909464,53.4453263],[-2.3909121,53.4486629],[-2.3816227,53.4483897],[-2.3828222,53.4525069],[-2.3926389,53.4526955],[-2.3904512,53.4568771],[-2.384757,53.4564533],[-2.3881816,53.4625771],[-2.403236,53.4532104],[-2.4101993,53.4433971],[-2.4135206,53.4375161],[-2.4011277,53.4395567],[-2.3993774,53.434528],[-2.3914099,53.432405],[-2.3907822,53.4394463],[-2.3847394,53.4407341],[-2.3852501,53.4369205],[-2.3805811,53.4398821],[-2.3779567,53.4418109]]],"type":"Polygon"},"id":"E02001265","properties":{"code":"E02001265","geography":"MSOA","name":"Trafford 007"},"type":"Feature"},{"geometry":{"coordinates":[[[-2.3139119,53.4463758],[-2.3213089,53.4449629],[-2.3279587,53.4480164],[-2.331634,53.4458866],[-2.3352406,53.4494071],[-2.3341026,53.4521725],[-2.3284404,53.4521343],[-2.3329623,53.4555973],[-2.329552,53.4553721],[-2.3261796,53.4659489],[-2.3215505,53.4642596],[-2.3172003,53.4673885],[-2.3291904,53.4671358],[-2.3389619,53.4576472],[-2.3395854,53.4519585],[-2.3352816,53.4376311],[-2.3336983,53.4349974],[-2.3234206,53.4326041],[-2.3159871,53.434696],[-2.3097225,53.4437891],[-2.3139119,53.4463758]]],"type":"Polygon"},"id":"E02001266","properties":{"code":"E02001266","geography":"MSOA","name":"Trafford 008"},"type":"Feature"},{"geometry":{"coordinates":[[[-2.3505223,53.4520883],[-2.3610881,53.4522478],[-2.3602021,53.4482856],[-2.3648117,53.447423],[-2.3575951,53.4442285],[-2.3599625,53.4419689],[-2.3630556,53.4444473],[-2.3628206,53.437379],[-2.3675093,53.4364731],[-2.3663523,53.4323453],[-2.3608139,53.431511],[-2.3607212,53.435105],[-2.3508045,53.4376674],[-2.3515284,53.4403969],[-2.3463799,53.4407373],[-2.3409811,53.4363962],[-2.3352816,53.4376311],[-2.3395854,53.4519585],[-2.3505223,53.4520883]]],"type":"Polygon"},"id":"E02001267","properties":{"code":"E02001267","geography":"MSOA","name":"Trafford 009"},"type":"Feature"},{"geometry":{"coordinates":[[[-2.3505223,53.4520883],[-2.3586287,53.4568204],[-2.3647221,53.4541468],[-2.3762174,53.4483463],[-2.3734243,53.4420539],[-2.3779567,53.4418109],[-2.3805811,53.4398821],[-2.3775909,53.4352082],[-2.3675093,53.4364731],[-2.3628206,53.437379],[-2.3630556,53.4444473],[-2.3599625,53.4419689],[-2.3575951,53.4442285],[-2.3648117,53.447423],[-2.3602021,53.4482856],[-2.3610881,53.4522478],[-2.3505223,53.4520883]]],"type":"Polygon"},"id":"E02001268","properties":{"code":"E02001268","geography":"MSOA","name":"Trafford 010"},"type":"Feature"},{"geometry":{"coordinates":[[[-2.290956,53.4495649],[-2.3163853,53.4530045],[-2.3139119,53.4463758],[-2.3097225,53.4437891],[-2.3159871,53.434696],[-2.2996981,53.4373087],[-2.2942162,53.4360487],[-2.2953974,53.4387766],[-2.2901733,53.4408453],[-2.2932989,53.4445255],[-2.2881816,53.4467919],[-2.290956,53.4495649]]],"type":"Polygon"},"id":"E02001269","properties":{"code":"E02001269","geography":"MSOA","name":"Trafford 011"},"type":"Feature"},{"geometry":{"coordinates":[[[-2.2999451,53.435129],[-2.2996981,53.4373087],[-2.3159871,53.434696],[-2.3234206,53.4326041],[-2.3336983,53.4349974],[-2.3330284,53.4309598],[-2.339158,53.4273247],[-2.333816,53.4265568],[-2.3332347,53.4184181],[-2.331819,53.4196592],[-2.3223153,53.428173],[-2.3173837,53.4265319],[-2.3136803,53.4287559],[-2.2999451,53.435129]]],"type":"Polygon"},"id":"E02001270","properties":{"code":"E02001270","geography":"MSOA","name":"Trafford 012"},"type":"Feature"},{"geometry":{"coordinates":[[[-2.3352816,53.4376311],[-2.3409811,53.4363962],[-2.3463799,53.4407373],[-2.3515284,53.4403969],[-2.3508045,53.4376674],[-2.3607212,53.435105],[-2.3608139,53.431511],[-2.3610082,53.4211207],[-2.3530046,53.419688],[-2.3498822,53.4271569],[-2.339158,53.4273247],[-2.3330284,53.4309598],[-2.3336983,53.4349974],[-2.3352816,53.4376311]]],"type":"Polygon"},"id":"E02001271","properties":{"code":"E02001271","geography":"MSOA","name":"Trafford 013"},"type":"Feature"},{"geometry":{"coordinates":[[[-2.2867458,53.4302147],[-2.2999451,53.435129],[-2.3136803,53.4287559],[-2.312091,53.4259742],[-2.3054848,53.4272577],[-2.3084837,53.4213937],[-2.312262,53.4226123],[-2.3104533,53.4176763],[-2.3180997,53.4166952],[-2.3167958,53.4111189],[-2.3152858,53.410722],[-2.3028114,53.4131196],[-2.3035208,53.4194959],[-2.2909532,53.4225164],[-2.2930372,53.4273471],[-2.2867458,53.4302147]]],"type":"Polygon"},"id":"E02001272","properties":{"code":"E02001272","geography":"MSOA","name":"Trafford 014"},"type":"Feature"},{"geometry":{"coordinates":[[[-2.3167958,53.4111189],[-2.3180997,53.4166952],[-2.3104533,53.4176763],[-2.312262,53.4226123],[-2.3084837,53.4213937],[-2.3054848,53.4272577],[-2.312091,53.4259742],[-2.3136803,53.4287559],[-2.3173837,53.4265319],[-2.3223153,53.428173],[-2.331819,53.4196592],[-2.3280937,53.4181309],[-2.3278802,53.4124693],[-2.3198963,53.4116371],[-2.3167958,53.4111189]]],"type":"Polygon"},"id":"E02001273","properties":{"code":"E02001273","geography":"MSOA","name":"Trafford 015"},"type":"Feature"},{"geometry":{"coordinates":[[[-2.3332347,53.4184181],[-2.333816,53.4265568],[-2.339158,53.4273247],[-2.3498822,53.4271569],[-2.3530046,53.419688],[-2.3521004,53.4137074],[-2.3600364,53.411823],[-2.3535067,53.4116185],[-2.3411357,53.4114947],[-2.3332347,53.4184181]]],"type":"Polygon"},"id":"E02001274","properties":{"code":"E02001274","geography":"MSOA","name":"Trafford 016"},"type":"Feature"},{"geometry":{"coordinates":[[[-2.3805811,53.4398821],[-2.3852501,53.4369205],[-2.3847394,53.4407341],[-2.3907822,53.4394463],[-2.3914099,53.432405],[-2.3993774,53.434528],[-2.4011277,53.4395567],[-2.4135206,53.4375161],[-2.4223883,53.4273226],[-2.4493787,53.4158752],[-2.4535107,53.4133308],[-2.44616,53.4142189],[-2.4334436,53.4095853],[-2.4155383,53.4098783],[-2.4066558,53.4105146],[-2.4048874,53.4151093],[-2.3796491,53.4153541],[-2.3685733,53.4145591],[-2.3610082,53.4211207],[-2.3608139,53.431511],[-2.3663523,53.4323453],[-2.3675093,53.4364731],[-2.3775909,53.4352082],[-2.3805811,53.4398821]]],"type":"Polygon"},"id":"E02001275","properties":{"code":"E02001275","geography":"MSOA","name":"Trafford 017"},"type":"Feature"},{"geometry":{"coordinates":[[[-2.2783082,53.4235508],[-2.2867458,53.4302147],[-2.2930372,53.4273471],[-2.2909532,53.4225164],[-2.3035208,53.4194959],[-2.3028114,53.4131196],[-2.3152858,53.410722],[-2.2978618,53.4083688],[-2.2939346,53.4136013],[-2.27807,53.4153962],[-2.2737065,53.422566],[-2.2783082,53.4235508]]],"type":"Polygon"},"id":"E02001276","properties":{"code":"E02001276","geography":"MSOA","name":"Trafford 018"},"type":"Feature"},{"geometry":{"coordinates":[[[-2.3530046,53.419688],[-2.3610082,53.4211207],[-2.3685733,53.4145591],[-2.3796491,53.4153541],[-2.3777217,53.4082187],[-2.3681352,53.4052762],[-2.3704884,53.3972411],[-2.3655022,53.3953851],[-2.3579313,53.3971682],[-2.3555655,53.4020658],[-2.3589703,53.4035306],[-2.3536442,53.4050893],[-2.3454853,53.4078866],[-2.3535067,53.4116185],[-2.3600364,53.411823],[-2.3521004,53.4137074],[-2.3530046,53.419688]]],"type":"Polygon"},"id":"E02001277","properties":{"code":"E02001277","geography":"MSOA","name":"Trafford 019"},"type":"Feature"},{"geometry":{"coordinates":[[[-2.3280937,53.4181309],[-2.331819,53.4196592],[-2.3332347,53.4184181],[-2.3411357,53.4114947],[-2.3535067,53.4116185],[-2.3454853,53.4078866],[-2.3536442,53.4050893],[-2.3455342,53.4034583],[-2.3476208,53.3994126],[-2.3438765,53.3996616],[-2.3427034,53.3960956],[-2.3372024,53.403573],[-2.3338998,53.4167313],[-2.3280937,53.4181309]]],"type":"Polygon"},"id":"E02001278","properties":{"code":"E02001278","geography":"MSOA","name":"Trafford 020"},"type":"Feature"},{"geometry":{"coordinates":[[[-2.3198963,53.4116371],[-2.3278802,53.4124693],[-2.3280937,53.4181309],[-2.3338998,53.4167313],[-2.3372024,53.403573],[-2.332358,53.402308],[-2.3319903,53.3982978],[-2.3253771,53.3997384],[-2.3260453,53.3969871],[-2.3216709,53.3971644],[-2.3204318,53.3993576],[-2.3243772,53.4009556],[-2.321143,53.406709],[-2.3122466,53.4029731],[-2.3198963,53.4116371]]],"type":"Polygon"},"id":"E02001279","properties":{"code":"E02001279","geography":"MSOA","name":"Trafford 021"},"type":"Feature"},{"geometry":{"coordinates":[[[-2.3122466,53.4029731],[-2.321143,53.406709],[-2.3243772,53.4009556],[-2.3204318,53.3993576],[-2.3169911,53.3887869],[-2.3040484,53.3859061],[-2.2996196,53.3876481],[-2.3001558,53.3910776],[-2.3122466,53.4029731]]],"type":"Polygon"},"id":"E02001280","properties":{"code":"E02001280","geography":"MSOA","name":"Trafford 022"},"type":"Feature"},{"geometry":{"coordinates":[[[-2.3204318,53.3993576],[-2.3216709,53.3971644],[-2.3260453,53.3969871],[-2.3253771,53.3997384],[-2.3319903,53.3982978],[-2.332358,53.402308],[-2.3372024,53.403573],[-2.3427034,53.3960956],[-2.3354702,53.3954978],[-2.3412068,53.3897808],[-2.333864,53.386097],[-2.3256445,53.3861605],[-2.3106905,53.3827227],[-2.3040484,53.3859061],[-2.3169911,53.3887869],[-2.3204318,53.3993576]]],"type":"Polygon"},"id":"E02001281","properties":{"code":"E02001281","geography":"MSOA","name":"Trafford 023"},"type":"Feature"},{"geometry":{"coordinates":[[[-2.3427034,53.3960956],[-2.3438765,53.3996616],[-2.3476208,53.3994126],[-2.3455342,53.4034583],[-2.3536442,53.4050893],[-2.3589703,53.4035306],[-2.3555655,53.4020658],[-2.3579313,53.3971682],[-2.3541048,53.3970058],[-2.3555494,53.3931545],[-2.3522439,53.3951688],[-2.3459659,53.3899236],[-2.3481234,53.3842238],[-2.3472752,53.3816245],[-2.333864,53.386097],[-2.3412068,53.3897808],[-2.3354702,53.3954978],[-2.3427034,53.3960956]]],"type":"Polygon"},"id":"E02001282","properties":{"code":"E02001282","geography":"MSOA","name":"Trafford 024"},"type":"Feature"},{"geometry":{"coordinates":[[[-2.3579313,53.3971682],[-2.3655022,53.3953851],[-2.3704884,53.3972411],[-2.3681352,53.4052762],[-2.3777217,53.4082187],[-2.3796491,53.4153541],[-2.4048874,53.4151093],[-2.4066558,53.4105146],[-2.4155383,53.4098783],[-2.4334436,53.4095853],[-2.44616,53.4142189],[-2.4535107,53.4133308],[-2.465977,53.400731],[-2.4783344,53.3962297],[-2.4710443,53.3923217],[-2.4659062,53.3948033],[-2.458503,53.3929947],[-2.4484392,53.3947832],[-2.4265903,53.3874447],[-2.4105974,53.383849],[-2.4006989,53.3752041],[-2.3861898,53.370247],[-2.3843388,53.3743602],[-2.3719373,53.3735655],[-2.3748928,53.3802499],[-2.3702723,53.3844979],[-2.3609173,53.3815467],[-2.3481234,53.3842238],[-2.3459659,53.3899236],[-2.3522439,53.3951688],[-2.3555494,53.3931545],[-2.3541048,53.3970058],[-2.3579313,53.3971682]]],"type":"Polygon"},"id":"E02001283","properties":{"code":"E02001283","geography":"MSOA","name":"Trafford 025"},"type":"Feature"},{"geometry":{"coordinates":[[[-2.3432461,53.3666677],[-2.343701,53.3693972],[-2.3393713,53.3688613],[-2.3268334,53.3779219],[-2.3193266,53.3794055],[-2.3256445,53.3861605],[-2.333864,53.386097],[-2.3472752,53.3816245],[-2.3432375,53.3715235],[-2.3463917,53.3675053],[-2.3432461,53.3666677]]],"type":"Polygon"},"id":"E02001284","properties":{"code":"E02001284","geography":"MSOA","name":"Trafford 026"},"type":"Feature"},{"geometry":{"coordinates":[[[-2.3481234,53.3842238],[-2.3609173,53.3815467],[-2.3702723,53.3844979],[-2.3748928,53.3802499],[-2.3719373,53.3735655],[-2.3843388,53.3743602],[-2.3861898,53.370247],[-2.3650288,53.3630895],[-2.356892,53.3685037],[-2.3490077,53.3658815],[-2.3463917,53.3675053],[-2.3432375,53.3715235],[-2.3472752,53.3816245],[-2.3481234,53.3842238]]],"type":"Polygon"},"id":"E02001285","properties":{"code":"E02001285","geography":"MSOA","name":"Trafford 027"},"type":"Feature"},{"geometry":{"coordinates":[[[-2.2863183,53.3758203],[-2.2999439,53.384342],[-2.2996196,53.3876481],[-2.3040484,53.3859061],[-2.3106905,53.3827227],[-2.3256445,53.3861605],[-2.3193266,53.3794055],[-2.3268334,53.3779219],[-2.3393713,53.3688613],[-2.343701,53.3693972],[-2.3432461,53.3666677],[-2.3329064,53.3654756],[-2.3234251,53.3582504],[-2.3139952,53.3574157],[-2.2984491,53.3608708],[-2.2863183,53.3758203]]],"type":"Polygon"},"id":"E02001286","properties":{"code":"E02001286","geography":"MSOA","name":"Trafford 028"},"type":"Feature"}],"type":"FeatureCollection"}
