{"features":[{"geometry":{"coordinates":[[[-1.7193651,54.9669723],[-1.7194897,54.9670168],[-1.7268615,54.9696525],[-1.7284798,54.9749787],[-1.7467294,54.9810468],[-1.7651244,54.9806686],[-1.7654043,54.9806386],[-1.7617585,54.978269],[-1.7669055,54.9789225],[-1.7679844,54.9727464],[-1.7794373,54.9670945],[-1.7741331,54.9653484],[-1.781394,54.9639378],[-1.7741225,54.9588069],[-1.7659741,54.9633638],[-1.7557865,54.9605087],[-1.7728285,54.9542603],[-1.7701405,54.951535],[-1.765652,54.9475868],[-1.7432121,54.9548207],[-1.7193651,54.9669723]]],"type":"Polygon"},"id":"E02001682","properties":{"code":"E02001682","geography":"MSOA","name":"Gateshead 001"},"type":"Feature"},{"geometry":{"coordinates":[[[-1.782795,54.9838205],[-1.7859232,54.9845019],[-1.8027182,54.9787977],[-1.8128007,54.9763148],[-1.8155131,54.9672863],[-1.8225816,54.9648249],[-1.822987,54.9557459],[-1.8326875,54.9536628],[-1.8132325,54.9413889],[-1.8016862,54.9431082],[-1.7841667,54.9406531],[-1.7793725,54.9506842],[-1.7701405,54.951535],[-1.7728285,54.9542603],[-1.7557865,54.9605087],[-1.7659741,54.9633638],[-1.7741225,54.9588069],[-1.781394,54.9639378],[-1.7741331,54.9653484],[-1.7794373,54.9670945],[-1.7679844,54.9727464],[-1.7669055,54.9789225],[-1.7617585,54.978269],[-1.7654043,54.9806386],[-1.7656501,54.9806577],[-1.7725285,54.9805155],[-1.7787643,54.982523],[-1.7817449,54.9834824],[-1.782795,54.9838205]]],"type":"Polygon"},"id":"E02001683","properties":{"code":"E02001683","geography":"MSOA","name":"Gateshead 002"},"type":"Feature"},{"geometry":{"coordinates":[[[[-1.5407389,54.9629953],[-1.5405929,54.9633659],[-1.5429898,54.9624874],[-1.5407389,54.9629953]]],[[[-1.5291671,54.9632943],[-1.5343565,54.9648756],[-1.5382138,54.9606484],[-1.5524201,54.9580299],[-1.5578753,54.9594659],[-1.5585077,54.9596324],[-1.5682423,54.963867],[-1.5789225,54.9637682],[-1.5791764,54.9638713],[-1.5846939,54.9594032],[-1.5776345,54.9524562],[-1.5672084,54.9542054],[-1.5726043,54.9494522],[-1.5697834,54.9475192],[-1.5683652,54.9502011],[-1.5551867,54.9505249],[-1.55371,54.9557413],[-1.5469937,54.9555152],[-1.5501064,54.9512206],[-1.540447,54.9521556],[-1.5162805,54.9549684],[-1.5189691,54.9592569],[-1.5304324,54.9582011],[-1.5291671,54.9632943]]]],"type":"MultiPolygon"},"id":"E02001684","properties":{"code":"E02001684","geography":"MSOA","name":"Gateshead 003"},"type":"Feature"},{"geometry":{"coordinates":[[[-1.7077617,54.9583169],[-1.7133507,54.9623144],[-1.7321925,54.9574171],[-1.7278633,54.9531148],[-1.7323715,54.9500466],[-1.7260496,54.9512296],[-1.7211956,54.945618],[-1.7101713,54.9482355],[-1.7077617,54.9583169]]],"type":"Polygon"},"id":"E02001685","properties":{"code":"E02001685","geography":"MSOA","name":"Gateshead 004"},"type":"Feature"},{"geometry":{"coordinates":[[[-1.616237,54.962017],[-1.6377131,54.9570332],[-1.6373811,54.9578265],[-1.6785093,54.9632258],[-1.6795907,54.9635071],[-1.6797158,54.9633253],[-1.6603648,54.9567832],[-1.6540707,54.956475],[-1.6490797,54.9523199],[-1.6402657,54.9534183],[-1.6420818,54.9503942],[-1.6357554,54.9501979],[-1.6395472,54.9453052],[-1.6336394,54.944617],[-1.6334995,54.9486221],[-1.6252254,54.9471095],[-1.624875,54.9361092],[-1.6315359,54.936498],[-1.6319928,54.9330575],[-1.6287898,54.928439],[-1.6176697,54.9287977],[-1.6046339,54.9215816],[-1.6097957,54.934092],[-1.6153038,54.9466608],[-1.6192165,54.9454633],[-1.6250914,54.949029],[-1.6207184,54.950831],[-1.6241246,54.955891],[-1.6165627,54.9594659],[-1.616237,54.962017]]],"type":"Polygon"},"id":"E02001688","properties":{"code":"E02001688","geography":"MSOA","name":"Gateshead 007"},"type":"Feature"},{"geometry":{"coordinates":[[[-1.6055082,54.9550942],[-1.6077855,54.9607867],[-1.6147253,54.957817],[-1.6165627,54.9594659],[-1.6241246,54.955891],[-1.6207184,54.950831],[-1.6250914,54.949029],[-1.6192165,54.9454633],[-1.6153038,54.9466608],[-1.6173827,54.9491799],[-1.6046055,54.9531449],[-1.6055082,54.9550942]]],"type":"Polygon"},"id":"E02001689","properties":{"code":"E02001689","geography":"MSOA","name":"Gateshead 008"},"type":"Feature"},{"geometry":{"coordinates":[[[-1.6603648,54.9567832],[-1.6797158,54.9633253],[-1.6997658,54.9472382],[-1.6941623,54.9429504],[-1.6921295,54.9393505],[-1.6802623,54.9461839],[-1.6720449,54.9452228],[-1.661494,54.9455765],[-1.6628491,54.9503558],[-1.6666832,54.9504528],[-1.6603648,54.9567832]]],"type":"Polygon"},"id":"E02001690","properties":{"code":"E02001690","geography":"MSOA","name":"Gateshead 009"},"type":"Feature"},{"geometry":{"coordinates":[[[-1.5995781,54.943367],[-1.5998121,54.9543973],[-1.6046055,54.9531449],[-1.6173827,54.9491799],[-1.6153038,54.9466608],[-1.6097957,54.934092],[-1.6066896,54.9390767],[-1.5996014,54.9398925],[-1.5995781,54.943367]]],"type":"Polygon"},"id":"E02001691","properties":{"code":"E02001691","geography":"MSOA","name":"Gateshead 010"},"type":"Feature"},{"geometry":{"coordinates":[[[-1.5772034,54.9505363],[-1.5942389,54.9561278],[-1.5918444,54.9464896],[-1.5870067,54.9399547],[-1.583363,54.9412878],[-1.5772034,54.9505363]]],"type":"Polygon"},"id":"E02001692","properties":{"code":"E02001692","geography":"MSOA","name":"Gateshead 011"},"type":"Feature"},{"geometry":{"coordinates":[[[-1.5551867,54.9505249],[-1.5683652,54.9502011],[-1.5697834,54.9475192],[-1.5726043,54.9494522],[-1.5672084,54.9542054],[-1.5776345,54.9524562],[-1.5772034,54.9505363],[-1.583363,54.9412878],[-1.5805242,54.9406037],[-1.5731038,54.9447925],[-1.5608567,54.9453323],[-1.5551867,54.9505249]]],"type":"Polygon"},"id":"E02001693","properties":{"code":"E02001693","geography":"MSOA","name":"Gateshead 012"},"type":"Feature"},{"geometry":{"coordinates":[[[-1.6395472,54.9453052],[-1.6357554,54.9501979],[-1.6420818,54.9503942],[-1.6402657,54.9534183],[-1.6490797,54.9523199],[-1.6540707,54.956475],[-1.6603648,54.9567832],[-1.6666832,54.9504528],[-1.6628491,54.9503558],[-1.661494,54.9455765],[-1.6563344,54.9448137],[-1.6522874,54.9351213],[-1.6404938,54.9401013],[-1.6395472,54.9453052]]],"type":"Polygon"},"id":"E02001694","properties":{"code":"E02001694","geography":"MSOA","name":"Gateshead 013"},"type":"Feature"},{"geometry":{"coordinates":[[[-1.5112043,54.9316582],[-1.5180494,54.9470405],[-1.5162805,54.9549684],[-1.540447,54.9521556],[-1.5329316,54.9426069],[-1.544477,54.9350259],[-1.5505955,54.9323895],[-1.5479862,54.9303147],[-1.5257605,54.9332643],[-1.5112043,54.9316582]]],"type":"Polygon"},"id":"E02001695","properties":{"code":"E02001695","geography":"MSOA","name":"Gateshead 014"},"type":"Feature"},{"geometry":{"coordinates":[[[-1.540447,54.9521556],[-1.5501064,54.9512206],[-1.5469937,54.9555152],[-1.55371,54.9557413],[-1.5551867,54.9505249],[-1.5608567,54.9453323],[-1.5533168,54.9432164],[-1.5587791,54.9416207],[-1.5572245,54.9366197],[-1.5504866,54.9377179],[-1.5480963,54.935136],[-1.5475111,54.9381425],[-1.544477,54.9350259],[-1.5329316,54.9426069],[-1.540447,54.9521556]]],"type":"Polygon"},"id":"E02001696","properties":{"code":"E02001696","geography":"MSOA","name":"Gateshead 015"},"type":"Feature"},{"geometry":{"coordinates":[[[-1.583363,54.9412878],[-1.5870067,54.9399547],[-1.5918444,54.9464896],[-1.5995781,54.943367],[-1.5996014,54.9398925],[-1.5940414,54.9319502],[-1.5891909,54.9317288],[-1.5866659,54.9347632],[-1.5860847,54.932429],[-1.5749937,54.9368101],[-1.5805242,54.9406037],[-1.583363,54.9412878]]],"type":"Polygon"},"id":"E02001697","properties":{"code":"E02001697","geography":"MSOA","name":"Gateshead 016"},"type":"Feature"},{"geometry":{"coordinates":[[[-1.6720449,54.9452228],[-1.6802623,54.9461839],[-1.6921295,54.9393505],[-1.6941623,54.9429504],[-1.7026549,54.9371868],[-1.6999782,54.934035],[-1.6763038,54.931969],[-1.6720449,54.9452228]]],"type":"Polygon"},"id":"E02001698","properties":{"code":"E02001698","geography":"MSOA","name":"Gateshead 017"},"type":"Feature"},{"geometry":{"coordinates":[[[-1.544477,54.9350259],[-1.5475111,54.9381425],[-1.5480963,54.935136],[-1.5504866,54.9377179],[-1.5572245,54.9366197],[-1.5587791,54.9416207],[-1.5533168,54.9432164],[-1.5608567,54.9453323],[-1.5731038,54.9447925],[-1.5805242,54.9406037],[-1.5749937,54.9368101],[-1.5610299,54.9308906],[-1.5549948,54.9320675],[-1.556502,54.9299102],[-1.5532933,54.9276977],[-1.5479862,54.9303147],[-1.5505955,54.9323895],[-1.544477,54.9350259]]],"type":"Polygon"},"id":"E02001699","properties":{"code":"E02001699","geography":"MSOA","name":"Gateshead 018"},"type":"Feature"},{"geometry":{"coordinates":[[[-1.6319928,54.9330575],[-1.6315359,54.936498],[-1.624875,54.9361092],[-1.6252254,54.9471095],[-1.6334995,54.9486221],[-1.6336394,54.944617],[-1.6395472,54.9453052],[-1.6404938,54.9401013],[-1.6522874,54.9351213],[-1.6563344,54.9448137],[-1.661494,54.9455765],[-1.6720449,54.9452228],[-1.6763038,54.931969],[-1.6999782,54.934035],[-1.7026549,54.9371868],[-1.6941623,54.9429504],[-1.6997658,54.9472382],[-1.7061856,54.94618],[-1.7120352,54.936318],[-1.7202905,54.9375227],[-1.7188327,54.9311489],[-1.7261257,54.9292289],[-1.7308743,54.9231137],[-1.737219,54.9239565],[-1.7375798,54.9186924],[-1.7248962,54.908793],[-1.6986213,54.9090458],[-1.6916823,54.9026016],[-1.6876444,54.90791],[-1.674826,54.909295],[-1.6703478,54.9093392],[-1.666716,54.9228712],[-1.652413,54.9302842],[-1.6450001,54.9282229],[-1.6436414,54.9355999],[-1.6319928,54.9330575]]],"type":"Polygon"},"id":"E02001700","properties":{"code":"E02001700","geography":"MSOA","name":"Gateshead 019"},"type":"Feature"},{"geometry":{"coordinates":[[[-1.5940414,54.9319502],[-1.5996014,54.9398925],[-1.6066896,54.9390767],[-1.6097957,54.934092],[-1.6046339,54.9215816],[-1.5988934,54.9198541],[-1.5991323,54.9225656],[-1.5929728,54.9231537],[-1.5940414,54.9319502]]],"type":"Polygon"},"id":"E02001701","properties":{"code":"E02001701","geography":"MSOA","name":"Gateshead 020"},"type":"Feature"},{"geometry":{"coordinates":[[[-1.556502,54.9299102],[-1.5549948,54.9320675],[-1.5610299,54.9308906],[-1.5749937,54.9368101],[-1.5860847,54.932429],[-1.5866659,54.9347632],[-1.5891909,54.9317288],[-1.5853605,54.9280709],[-1.5789899,54.9307415],[-1.5739169,54.9286625],[-1.5768668,54.9213157],[-1.576673,54.918823],[-1.5602528,54.9145547],[-1.5663662,54.9216706],[-1.5688793,54.9246171],[-1.556502,54.9299102]]],"type":"Polygon"},"id":"E02001702","properties":{"code":"E02001702","geography":"MSOA","name":"Gateshead 021"},"type":"Feature"},{"geometry":{"coordinates":[[[-1.7261257,54.9292289],[-1.7188327,54.9311489],[-1.7202905,54.9375227],[-1.7313456,54.9445746],[-1.7293723,54.9471736],[-1.7336953,54.9473022],[-1.7311849,54.9490971],[-1.7368711,54.9504199],[-1.7381003,54.9546364],[-1.7432121,54.9548207],[-1.765652,54.9475868],[-1.7712718,54.9421489],[-1.7694415,54.9292159],[-1.7748623,54.9262033],[-1.7705925,54.9239704],[-1.7604997,54.9274222],[-1.7611492,54.9234535],[-1.7568662,54.9234599],[-1.7605291,54.922441],[-1.7553219,54.9198789],[-1.7606662,54.9193332],[-1.7670163,54.911123],[-1.7642253,54.9094058],[-1.7631775,54.9087612],[-1.759906,54.9107398],[-1.7506688,54.9173749],[-1.7375798,54.9186924],[-1.737219,54.9239565],[-1.7308743,54.9231137],[-1.7261257,54.9292289]]],"type":"Polygon"},"id":"E02001703","properties":{"code":"E02001703","geography":"MSOA","name":"Gateshead 022"},"type":"Feature"},{"geometry":{"coordinates":[[[-1.5891909,54.9317288],[-1.5940414,54.9319502],[-1.5929728,54.9231537],[-1.5991323,54.9225656],[-1.5988934,54.9198541],[-1.5870983,54.9171998],[-1.5768668,54.9213157],[-1.5739169,54.9286625],[-1.5789899,54.9307415],[-1.5853605,54.9280709],[-1.5891909,54.9317288]]],"type":"Polygon"},"id":"E02001704","properties":{"code":"E02001704","geography":"MSOA","name":"Gateshead 023"},"type":"Feature"},{"geometry":{"coordinates":[[[-1.6319928,54.9330575],[-1.6436414,54.9355999],[-1.6450001,54.9282229],[-1.652413,54.9302842],[-1.666716,54.9228712],[-1.6703478,54.9093392],[-1.674826,54.909295],[-1.6762664,54.9053332],[-1.6781227,54.8998373],[-1.6630332,54.8959351],[-1.6599401,54.890656],[-1.650001,54.8936185],[-1.6463346,54.8813876],[-1.6509704,54.8796594],[-1.6436781,54.8787957],[-1.6276057,54.8863001],[-1.6187424,54.8870464],[-1.6119038,54.8952795],[-1.5976815,54.9015772],[-1.5937578,54.9017387],[-1.5875509,54.8943332],[-1.5860393,54.8998598],[-1.5703904,54.8984728],[-1.5627732,54.9050814],[-1.5570579,54.907887],[-1.5602528,54.9145547],[-1.576673,54.918823],[-1.5768668,54.9213157],[-1.5870983,54.9171998],[-1.5988934,54.9198541],[-1.6046339,54.9215816],[-1.6176697,54.9287977],[-1.6287898,54.928439],[-1.6319928,54.9330575]]],"type":"Polygon"},"id":"E02001706","properties":{"code":"E02001706","geography":"MSOA","name":"Gateshead 025"},"type":"Feature"},{"geometry":{"coordinates":[[[-1.5583997,54.9003124],[-1.5627732,54.9050814],[-1.5703904,54.8984728],[-1.5860393,54.8998598],[-1.5875509,54.8943332],[-1.5807013,54.8810497],[-1.5798977,54.8777619],[-1.5593989,54.8820287],[-1.5570743,54.8847274],[-1.5583997,54.9003124]]],"type":"Polygon"},"id":"E02001707","properties":{"code":"E02001707","geography":"MSOA","name":"Gateshead 026"},"type":"Feature"},{"geometry":{"coordinates":[[[[-1.6058969,54.9679786],[-1.6060455,54.9679628],[-1.6064366,54.9677729],[-1.6058969,54.9679786]]],[[[-1.5791764,54.9638713],[-1.5927421,54.9693787],[-1.596746,54.9689527],[-1.6151907,54.9622597],[-1.6158413,54.9621087],[-1.616237,54.962017],[-1.6165627,54.9594659],[-1.6147253,54.957817],[-1.6077855,54.9607867],[-1.6055082,54.9550942],[-1.5981219,54.95923],[-1.5942389,54.9561278],[-1.5772034,54.9505363],[-1.5776345,54.9524562],[-1.5846939,54.9594032],[-1.5791764,54.9638713]]]],"type":"MultiPolygon"},"id":"E02006841","properties":{"code":"E02006841","geography":"MSOA","name":"Gateshead 027"},"type":"Feature"},{"geometry":{"coordinates":[[[-1.5942389,54.9561278],[-1.5981219,54.95923],[-1.6055082,54.9550942],[-1.6046055,54.9531449],[-1.5998121,54.9543973],[-1.5995781,54.943367],[-1.5918444,54.9464896],[-1.5942389,54.9561278]]],"type":"Polygon"},"id":"E02006842","properties":{"code":"E02006842","geography":"MSOA","name":"Gateshead 028"},"type":"Feature"},{"geometry":{"coordinates":[[[-1.765652,54.9475868],[-1.7701405,54.951535],[-1.7793725,54.9506842],[-1.7841667,54.9406531],[-1.8016862,54.9431082],[-1.8132325,54.9413889],[-1.8326875,54.9536628],[-1.8310673,54.9443225],[-1.8248463,54.9403114],[-1.8269408,54.9302183],[-1.8411446,54.9297148],[-1.8527111,54.9174062],[-1.8267105,54.9101246],[-1.821003,54.9056544],[-1.8074518,54.907219],[-1.7949164,54.9035394],[-1.7912412,54.908666],[-1.7817462,54.9115356],[-1.7711053,54.9072805],[-1.7610223,54.9084273],[-1.759906,54.9107398],[-1.7631775,54.9087612],[-1.7642253,54.9094058],[-1.7670163,54.911123],[-1.7606662,54.9193332],[-1.7553219,54.9198789],[-1.7605291,54.922441],[-1.7568662,54.9234599],[-1.7611492,54.9234535],[-1.7604997,54.9274222],[-1.7705925,54.9239704],[-1.7748623,54.9262033],[-1.7694415,54.9292159],[-1.7712718,54.9421489],[-1.765652,54.9475868]]],"type":"Polygon"},"id":"E02007094","properties":{"code":"E02007094","geography":"MSOA","name":"Gateshead 029"},"type":"Feature"}],"type":"FeatureCollection"}
