{"features":[{"geometry":{"coordinates":[[[-0.1821101,51.6686008],[-0.1910326,51.6639452],[-0.1998965,51.6701665],[-0.2111589,51.6669513],[-0.2078893,51.6628575],[-0.2215619,51.65979],[-0.2162746,51.6509858],[-0.2068373,51.6529331],[-0.2056346,51.6456423],[-0.2006193,51.644901],[-0.1935624,51.6494508],[-0.1916966,51.6543457],[-0.1862939,51.6547377],[-0.1945722,51.6570362],[-0.1894268,51.6596268],[-0.1931443,51.6610062],[-0.1854501,51.6635366],[-0.1821101,51.6686008]]],"type":"Polygon"},"id":"E02000024","properties":{"code":"E02000024","geography":"MSOA","name":"Barnet 001"},"type":"Feature"},{"geometry":{"coordinates":[[[-0.1637882,51.6581763],[-0.1854501,51.6635366],[-0.1931443,51.6610062],[-0.1894268,51.6596268],[-0.1945722,51.6570362],[-0.1862939,51.6547377],[-0.1916966,51.6543457],[-0.1935624,51.6494508],[-0.1900043,51.647681],[-0.1736127,51.6501389],[-0.1748376,51.6533226],[-0.1684149,51.6510178],[-0.1604615,51.6538184],[-0.1650126,51.6555073],[-0.1637882,51.6581763]]],"type":"Polygon"},"id":"E02000025","properties":{"code":"E02000025","geography":"MSOA","name":"Barnet 002"},"type":"Feature"},{"geometry":{"coordinates":[[[-0.1449871,51.6424804],[-0.1521681,51.6458223],[-0.149921,51.6487918],[-0.1547878,51.6555309],[-0.1637882,51.6581763],[-0.1650126,51.6555073],[-0.1604615,51.6538184],[-0.1684149,51.6510178],[-0.167267,51.6473506],[-0.1599205,51.6484045],[-0.1544357,51.6406223],[-0.1531981,51.6430086],[-0.1501592,51.6353081],[-0.1423211,51.6393128],[-0.1449871,51.6424804]]],"type":"Polygon"},"id":"E02000026","properties":{"code":"E02000026","geography":"MSOA","name":"Barnet 003"},"type":"Feature"},{"geometry":{"coordinates":[[[-0.1935624,51.6494508],[-0.2006193,51.644901],[-0.2056346,51.6456423],[-0.2068373,51.6529331],[-0.2162746,51.6509858],[-0.2125982,51.6476493],[-0.2192669,51.6457888],[-0.2174288,51.6418233],[-0.1840819,51.6399442],[-0.1900043,51.647681],[-0.1935624,51.6494508]]],"type":"Polygon"},"id":"E02000027","properties":{"code":"E02000027","geography":"MSOA","name":"Barnet 004"},"type":"Feature"},{"geometry":{"coordinates":[[[-0.1669491,51.6384372],[-0.1736127,51.6501389],[-0.1900043,51.647681],[-0.1840819,51.6399442],[-0.1833962,51.639052],[-0.1764486,51.6434855],[-0.1770922,51.6396297],[-0.1669491,51.6384372]]],"type":"Polygon"},"id":"E02000028","properties":{"code":"E02000028","geography":"MSOA","name":"Barnet 005"},"type":"Feature"},{"geometry":{"coordinates":[[[-0.1684149,51.6510178],[-0.1748376,51.6533226],[-0.1736127,51.6501389],[-0.1669491,51.6384372],[-0.1622389,51.6335755],[-0.1577338,51.6368019],[-0.1502203,51.6352842],[-0.1501592,51.6353081],[-0.1531981,51.6430086],[-0.1544357,51.6406223],[-0.1599205,51.6484045],[-0.167267,51.6473506],[-0.1684149,51.6510178]]],"type":"Polygon"},"id":"E02000029","properties":{"code":"E02000029","geography":"MSOA","name":"Barnet 006"},"type":"Feature"},{"geometry":{"coordinates":[[[-0.2215619,51.65979],[-0.2264874,51.6571586],[-0.2289438,51.6599717],[-0.2493738,51.6560546],[-0.2515818,51.647949],[-0.2573569,51.6418288],[-0.2632291,51.6448094],[-0.273095,51.6412322],[-0.2730573,51.6410616],[-0.2665901,51.6355151],[-0.2624917,51.628673],[-0.2520951,51.6236265],[-0.2465198,51.6249769],[-0.2334634,51.6304685],[-0.2310553,51.6252596],[-0.2162203,51.6229736],[-0.202785,51.6248384],[-0.1941943,51.6257057],[-0.1833323,51.6287516],[-0.1791285,51.6315531],[-0.1833962,51.639052],[-0.1840819,51.6399442],[-0.2174288,51.6418233],[-0.2192669,51.6457888],[-0.2125982,51.6476493],[-0.2162746,51.6509858],[-0.2215619,51.65979]]],"type":"Polygon"},"id":"E02000030","properties":{"code":"E02000030","geography":"MSOA","name":"Barnet 007"},"type":"Feature"},{"geometry":{"coordinates":[[[-0.1669491,51.6384372],[-0.1770922,51.6396297],[-0.1764486,51.6434855],[-0.1833962,51.639052],[-0.1791285,51.6315531],[-0.1833323,51.6287516],[-0.1874053,51.6242397],[-0.1752316,51.6277513],[-0.1709821,51.6255269],[-0.160323,51.6315845],[-0.1622389,51.6335755],[-0.1669491,51.6384372]]],"type":"Polygon"},"id":"E02000031","properties":{"code":"E02000031","geography":"MSOA","name":"Barnet 008"},"type":"Feature"},{"geometry":{"coordinates":[[[-0.1308959,51.6300033],[-0.1291629,51.6322679],[-0.1423211,51.6393128],[-0.1501592,51.6353081],[-0.1502203,51.6352842],[-0.1354309,51.6222119],[-0.1342971,51.6240805],[-0.1308959,51.6300033]]],"type":"Polygon"},"id":"E02000032","properties":{"code":"E02000032","geography":"MSOA","name":"Barnet 009"},"type":"Feature"},{"geometry":{"coordinates":[[[-0.1502203,51.6352842],[-0.1577338,51.6368019],[-0.1622389,51.6335755],[-0.160323,51.6315845],[-0.1516284,51.6227689],[-0.1445372,51.6154838],[-0.1354309,51.6222119],[-0.1502203,51.6352842]]],"type":"Polygon"},"id":"E02000033","properties":{"code":"E02000033","geography":"MSOA","name":"Barnet 010"},"type":"Feature"},{"geometry":{"coordinates":[[[-0.1516284,51.6227689],[-0.160323,51.6315845],[-0.1709821,51.6255269],[-0.1775716,51.6216332],[-0.175974,51.6174499],[-0.1721707,51.6175894],[-0.1726524,51.614131],[-0.1678787,51.6146828],[-0.1630029,51.6208228],[-0.1516284,51.6227689]]],"type":"Polygon"},"id":"E02000034","properties":{"code":"E02000034","geography":"MSOA","name":"Barnet 011"},"type":"Feature"},{"geometry":{"coordinates":[[[-0.1709821,51.6255269],[-0.1752316,51.6277513],[-0.1874053,51.6242397],[-0.1833323,51.6287516],[-0.1941943,51.6257057],[-0.1903638,51.6219099],[-0.1930916,51.6191837],[-0.1876134,51.6161434],[-0.175974,51.6174499],[-0.1775716,51.6216332],[-0.1709821,51.6255269]]],"type":"Polygon"},"id":"E02000035","properties":{"code":"E02000035","geography":"MSOA","name":"Barnet 012"},"type":"Feature"},{"geometry":{"coordinates":[[[-0.2520951,51.6236265],[-0.2624917,51.628673],[-0.2665901,51.6355151],[-0.2729159,51.6310017],[-0.2687046,51.6287023],[-0.2694552,51.6181475],[-0.2639122,51.6180659],[-0.2654692,51.6116948],[-0.261986,51.611973],[-0.2543071,51.613805],[-0.2602264,51.615766],[-0.2554176,51.6194791],[-0.2520951,51.6236265]]],"type":"Polygon"},"id":"E02000036","properties":{"code":"E02000036","geography":"MSOA","name":"Barnet 013"},"type":"Feature"},{"geometry":{"coordinates":[[[-0.2665901,51.6355151],[-0.2730573,51.6410616],[-0.2737374,51.6386707],[-0.2878106,51.6365091],[-0.3044823,51.6363471],[-0.3039534,51.6314642],[-0.289113,51.6187478],[-0.2839632,51.6146474],[-0.2856326,51.616393],[-0.2798005,51.618478],[-0.2694552,51.6181475],[-0.2687046,51.6287023],[-0.2729159,51.6310017],[-0.2665901,51.6355151]]],"type":"Polygon"},"id":"E02000037","properties":{"code":"E02000037","geography":"MSOA","name":"Barnet 014"},"type":"Feature"},{"geometry":{"coordinates":[[[-0.1445372,51.6154838],[-0.1516284,51.6227689],[-0.1630029,51.6208228],[-0.1678787,51.6146828],[-0.1674887,51.6113128],[-0.1602838,51.6093962],[-0.1470012,51.6125942],[-0.1433408,51.6088816],[-0.1387867,51.6101925],[-0.1445372,51.6154838]]],"type":"Polygon"},"id":"E02000038","properties":{"code":"E02000038","geography":"MSOA","name":"Barnet 015"},"type":"Feature"},{"geometry":{"coordinates":[[[-0.2283869,51.608201],[-0.2258145,51.6108257],[-0.2302977,51.6100713],[-0.2325772,51.6195779],[-0.236448,51.617054],[-0.242828,51.6185349],[-0.2392248,51.6189269],[-0.2399358,51.6220092],[-0.2465198,51.6249769],[-0.2520951,51.6236265],[-0.2554176,51.6194791],[-0.2446813,51.6083248],[-0.238435,51.6049566],[-0.2355661,51.6092255],[-0.2346793,51.6070491],[-0.2283869,51.608201]]],"type":"Polygon"},"id":"E02000039","properties":{"code":"E02000039","geography":"MSOA","name":"Barnet 016"},"type":"Feature"},{"geometry":{"coordinates":[[[-0.202785,51.6248384],[-0.2162203,51.6229736],[-0.2310553,51.6252596],[-0.2334634,51.6304685],[-0.2465198,51.6249769],[-0.2399358,51.6220092],[-0.2392248,51.6189269],[-0.242828,51.6185349],[-0.236448,51.617054],[-0.2325772,51.6195779],[-0.2302977,51.6100713],[-0.2258145,51.6108257],[-0.2283869,51.608201],[-0.2215008,51.608106],[-0.2173701,51.6125395],[-0.2200948,51.608975],[-0.2018607,51.6049759],[-0.1952052,51.6105054],[-0.199599,51.6138918],[-0.197145,51.6200073],[-0.202785,51.6248384]]],"type":"Polygon"},"id":"E02000040","properties":{"code":"E02000040","geography":"MSOA","name":"Barnet 017"},"type":"Feature"},{"geometry":{"coordinates":[[[-0.2694552,51.6181475],[-0.2798005,51.618478],[-0.2856326,51.616393],[-0.2839632,51.6146474],[-0.2793406,51.6107194],[-0.2748925,51.6069331],[-0.2638175,51.6095425],[-0.261986,51.611973],[-0.2654692,51.6116948],[-0.2639122,51.6180659],[-0.2694552,51.6181475]]],"type":"Polygon"},"id":"E02000041","properties":{"code":"E02000041","geography":"MSOA","name":"Barnet 018"},"type":"Feature"},{"geometry":{"coordinates":[[[-0.1678787,51.6146828],[-0.1726524,51.614131],[-0.1721707,51.6175894],[-0.175974,51.6174499],[-0.1876134,51.6161434],[-0.1831043,51.611903],[-0.1876808,51.6103695],[-0.1849364,51.6073492],[-0.1828834,51.6047765],[-0.1783377,51.6082863],[-0.1706342,51.6075761],[-0.1674887,51.6113128],[-0.1678787,51.6146828]]],"type":"Polygon"},"id":"E02000042","properties":{"code":"E02000042","geography":"MSOA","name":"Barnet 019"},"type":"Feature"},{"geometry":{"coordinates":[[[-0.1876134,51.6161434],[-0.1930916,51.6191837],[-0.1903638,51.6219099],[-0.1941943,51.6257057],[-0.202785,51.6248384],[-0.197145,51.6200073],[-0.199599,51.6138918],[-0.1952052,51.6105054],[-0.2018607,51.6049759],[-0.2001256,51.6042323],[-0.1940303,51.6045551],[-0.1928709,51.6083466],[-0.1915822,51.6061492],[-0.1849364,51.6073492],[-0.1876808,51.6103695],[-0.1831043,51.611903],[-0.1876134,51.6161434]]],"type":"Polygon"},"id":"E02000043","properties":{"code":"E02000043","geography":"MSOA","name":"Barnet 020"},"type":"Feature"},{"geometry":{"coordinates":[[[-0.2446813,51.6083248],[-0.2554176,51.6194791],[-0.2602264,51.615766],[-0.2543071,51.613805],[-0.261986,51.611973],[-0.2638175,51.6095425],[-0.2599356,51.6070863],[-0.2554198,51.6088155],[-0.2592749,51.603982],[-0.2549038,51.6024277],[-0.2500828,51.6026044],[-0.2446265,51.6082678],[-0.2446813,51.6083248]]],"type":"Polygon"},"id":"E02000044","properties":{"code":"E02000044","geography":"MSOA","name":"Barnet 021"},"type":"Feature"},{"geometry":{"coordinates":[[[-0.1433408,51.6088816],[-0.1470012,51.6125942],[-0.1602838,51.6093962],[-0.1674887,51.6113128],[-0.1706342,51.6075761],[-0.1686683,51.6033794],[-0.1563677,51.6053568],[-0.1508952,51.597624],[-0.1450436,51.5999249],[-0.1420512,51.6036634],[-0.1433408,51.6088816]]],"type":"Polygon"},"id":"E02000045","properties":{"code":"E02000045","geography":"MSOA","name":"Barnet 022"},"type":"Feature"},{"geometry":{"coordinates":[[[-0.1849364,51.6073492],[-0.1915822,51.6061492],[-0.1928709,51.6083466],[-0.1940303,51.6045551],[-0.2001256,51.6042323],[-0.1939464,51.6011107],[-0.1923469,51.5960266],[-0.1853121,51.5941661],[-0.1847234,51.5944815],[-0.1814953,51.5962112],[-0.1880644,51.6001776],[-0.1802699,51.6011936],[-0.1828834,51.6047765],[-0.1849364,51.6073492]]],"type":"Polygon"},"id":"E02000046","properties":{"code":"E02000046","geography":"MSOA","name":"Barnet 023"},"type":"Feature"},{"geometry":{"coordinates":[[[-0.2549038,51.6024277],[-0.2592749,51.603982],[-0.2554198,51.6088155],[-0.2599356,51.6070863],[-0.2638175,51.6095425],[-0.2748925,51.6069331],[-0.2671559,51.6003696],[-0.2623646,51.5963428],[-0.2597696,51.5941732],[-0.2509769,51.596279],[-0.2506194,51.5992508],[-0.2556707,51.600184],[-0.2549038,51.6024277]]],"type":"Polygon"},"id":"E02000047","properties":{"code":"E02000047","geography":"MSOA","name":"Barnet 024"},"type":"Feature"},{"geometry":{"coordinates":[[[-0.2018607,51.6049759],[-0.2200948,51.608975],[-0.2173701,51.6125395],[-0.2215008,51.608106],[-0.2283869,51.608201],[-0.2346793,51.6070491],[-0.2355661,51.6092255],[-0.238435,51.6049566],[-0.2446813,51.6083248],[-0.2446265,51.6082678],[-0.2387469,51.6020764],[-0.2384896,51.6017117],[-0.2179688,51.5958284],[-0.2117906,51.5912434],[-0.2075961,51.5938935],[-0.2099314,51.5974559],[-0.1939464,51.6011107],[-0.2001256,51.6042323],[-0.2018607,51.6049759]]],"type":"Polygon"},"id":"E02000048","properties":{"code":"E02000048","geography":"MSOA","name":"Barnet 025"},"type":"Feature"},{"geometry":{"coordinates":[[[-0.2387469,51.6020764],[-0.2446265,51.6082678],[-0.2500828,51.6026044],[-0.2549038,51.6024277],[-0.2556707,51.600184],[-0.2506194,51.5992508],[-0.2423273,51.5968557],[-0.2387469,51.6020764]]],"type":"Polygon"},"id":"E02000049","properties":{"code":"E02000049","geography":"MSOA","name":"Barnet 026"},"type":"Feature"},{"geometry":{"coordinates":[[[-0.1706342,51.6075761],[-0.1783377,51.6082863],[-0.1828834,51.6047765],[-0.1802699,51.6011936],[-0.1880644,51.6001776],[-0.1814953,51.5962112],[-0.1847234,51.5944815],[-0.1792376,51.5922056],[-0.1785407,51.5965212],[-0.1705807,51.5987088],[-0.1711516,51.5938174],[-0.1590019,51.5917664],[-0.1617823,51.5975364],[-0.1563677,51.6053568],[-0.1686683,51.6033794],[-0.1706342,51.6075761]]],"type":"Polygon"},"id":"E02000050","properties":{"code":"E02000050","geography":"MSOA","name":"Barnet 027"},"type":"Feature"},{"geometry":{"coordinates":[[[-0.1853121,51.5941661],[-0.1923469,51.5960266],[-0.1939464,51.6011107],[-0.2099314,51.5974559],[-0.2075961,51.5938935],[-0.2117906,51.5912434],[-0.2115603,51.5910257],[-0.2051311,51.5888287],[-0.1997974,51.5897786],[-0.1900177,51.5915984],[-0.1853121,51.5941661]]],"type":"Polygon"},"id":"E02000051","properties":{"code":"E02000051","geography":"MSOA","name":"Barnet 028"},"type":"Feature"},{"geometry":{"coordinates":[[[-0.1590019,51.5917664],[-0.1711516,51.5938174],[-0.1705807,51.5987088],[-0.1785407,51.5965212],[-0.1792376,51.5922056],[-0.1717384,51.5912025],[-0.1763947,51.5894033],[-0.1737859,51.5877984],[-0.1688809,51.5871804],[-0.1680891,51.5893942],[-0.1613975,51.5853007],[-0.1574362,51.586562],[-0.1590019,51.5917664]]],"type":"Polygon"},"id":"E02000052","properties":{"code":"E02000052","geography":"MSOA","name":"Barnet 029"},"type":"Feature"},{"geometry":{"coordinates":[[[-0.2179688,51.5958284],[-0.2384896,51.6017117],[-0.2367564,51.5941126],[-0.2387726,51.5870356],[-0.2394182,51.5837086],[-0.2333955,51.5803713],[-0.2324078,51.5868121],[-0.2267715,51.5899584],[-0.2337581,51.593806],[-0.2253243,51.5910955],[-0.2261599,51.593893],[-0.2215713,51.5918523],[-0.2179688,51.5958284]]],"type":"Polygon"},"id":"E02000054","properties":{"code":"E02000054","geography":"MSOA","name":"Barnet 031"},"type":"Feature"},{"geometry":{"coordinates":[[[-0.2117906,51.5912434],[-0.2179688,51.5958284],[-0.2215713,51.5918523],[-0.2261599,51.593893],[-0.2253243,51.5910955],[-0.2337581,51.593806],[-0.2267715,51.5899584],[-0.2324078,51.5868121],[-0.2333955,51.5803713],[-0.2325774,51.57867],[-0.2313614,51.5786977],[-0.2251171,51.5796599],[-0.2292972,51.5846707],[-0.2268082,51.5827341],[-0.2182026,51.5842366],[-0.2175529,51.5898008],[-0.2115603,51.5910257],[-0.2117906,51.5912434]]],"type":"Polygon"},"id":"E02000055","properties":{"code":"E02000055","geography":"MSOA","name":"Barnet 032"},"type":"Feature"},{"geometry":{"coordinates":[[[-0.1792376,51.5922056],[-0.1847234,51.5944815],[-0.1853121,51.5941661],[-0.1900177,51.5915984],[-0.1839135,51.5860088],[-0.1909381,51.5804655],[-0.1858164,51.578494],[-0.1884179,51.5750247],[-0.1835678,51.5680066],[-0.1734624,51.5710984],[-0.1712851,51.5724301],[-0.1613975,51.5853007],[-0.1680891,51.5893942],[-0.1688809,51.5871804],[-0.1737859,51.5877984],[-0.1763947,51.5894033],[-0.1717384,51.5912025],[-0.1792376,51.5922056]]],"type":"Polygon"},"id":"E02000056","properties":{"code":"E02000056","geography":"MSOA","name":"Barnet 033"},"type":"Feature"},{"geometry":{"coordinates":[[[-0.2051311,51.5888287],[-0.2115603,51.5910257],[-0.2175529,51.5898008],[-0.2182026,51.5842366],[-0.2268082,51.5827341],[-0.2292972,51.5846707],[-0.2251171,51.5796599],[-0.2313614,51.5786977],[-0.2314727,51.5765135],[-0.2272813,51.57846],[-0.2181091,51.5769339],[-0.2051311,51.5888287]]],"type":"Polygon"},"id":"E02000057","properties":{"code":"E02000057","geography":"MSOA","name":"Barnet 034"},"type":"Feature"},{"geometry":{"coordinates":[[[-0.1884179,51.5750247],[-0.1858164,51.578494],[-0.1909381,51.5804655],[-0.1839135,51.5860088],[-0.1900177,51.5915984],[-0.1997974,51.5897786],[-0.2063644,51.5839965],[-0.2038703,51.5763856],[-0.2004699,51.5763355],[-0.1933298,51.5741344],[-0.1958218,51.5759458],[-0.1922312,51.578182],[-0.1884179,51.5750247]]],"type":"Polygon"},"id":"E02000058","properties":{"code":"E02000058","geography":"MSOA","name":"Barnet 035"},"type":"Feature"},{"geometry":{"coordinates":[[[-0.2387726,51.5870356],[-0.2439955,51.5896442],[-0.2502015,51.5862328],[-0.2521241,51.5829714],[-0.2517604,51.5710832],[-0.2473561,51.5684204],[-0.2435015,51.5723288],[-0.2322353,51.5709526],[-0.2325774,51.57867],[-0.2333955,51.5803713],[-0.2394182,51.5837086],[-0.2387726,51.5870356]]],"type":"Polygon"},"id":"E02000059","properties":{"code":"E02000059","geography":"MSOA","name":"Barnet 036"},"type":"Feature"},{"geometry":{"coordinates":[[[-0.2004699,51.5763355],[-0.2038703,51.5763856],[-0.2063644,51.5839965],[-0.1997974,51.5897786],[-0.2051311,51.5888287],[-0.2181091,51.5769339],[-0.2107001,51.571951],[-0.2090876,51.5703377],[-0.2016829,51.5719011],[-0.2004699,51.5763355]]],"type":"Polygon"},"id":"E02000060","properties":{"code":"E02000060","geography":"MSOA","name":"Barnet 037"},"type":"Feature"},{"geometry":{"coordinates":[[[-0.1884179,51.5750247],[-0.1922312,51.578182],[-0.1958218,51.5759458],[-0.1933298,51.5741344],[-0.2004699,51.5763355],[-0.2016829,51.5719011],[-0.2090876,51.5703377],[-0.2035118,51.5665516],[-0.1948765,51.5659423],[-0.1924782,51.5614568],[-0.1903721,51.5627659],[-0.1835678,51.5680066],[-0.1884179,51.5750247]]],"type":"Polygon"},"id":"E02000061","properties":{"code":"E02000061","geography":"MSOA","name":"Barnet 038"},"type":"Feature"},{"geometry":{"coordinates":[[[-0.2181091,51.5769339],[-0.2272813,51.57846],[-0.2314727,51.5765135],[-0.2313614,51.5786977],[-0.2325774,51.57867],[-0.2322353,51.5709526],[-0.2206507,51.5616608],[-0.2134627,51.5551496],[-0.211595,51.556193],[-0.2107474,51.5596511],[-0.2205217,51.5703821],[-0.2107001,51.571951],[-0.2181091,51.5769339]]],"type":"Polygon"},"id":"E02000062","properties":{"code":"E02000062","geography":"MSOA","name":"Barnet 039"},"type":"Feature"},{"geometry":{"coordinates":[[[-0.2090876,51.5703377],[-0.2107001,51.571951],[-0.2205217,51.5703821],[-0.2107474,51.5596511],[-0.2012705,51.5618307],[-0.2035118,51.5665516],[-0.2090876,51.5703377]]],"type":"Polygon"},"id":"E02000063","properties":{"code":"E02000063","geography":"MSOA","name":"Barnet 040"},"type":"Feature"},{"geometry":{"coordinates":[[[-0.1924782,51.5614568],[-0.1948765,51.5659423],[-0.2035118,51.5665516],[-0.2012705,51.5618307],[-0.2107474,51.5596511],[-0.211595,51.556193],[-0.1994103,51.556192],[-0.1968175,51.5591832],[-0.1924782,51.5614568]]],"type":"Polygon"},"id":"E02000064","properties":{"code":"E02000064","geography":"MSOA","name":"Barnet 041"},"type":"Feature"},{"geometry":{"coordinates":[[[-0.2384896,51.6017117],[-0.2387469,51.6020764],[-0.2423273,51.5968557],[-0.2506194,51.5992508],[-0.2509769,51.596279],[-0.2488914,51.5914051],[-0.2418533,51.5901895],[-0.2399978,51.5946063],[-0.2367564,51.5941126],[-0.2384896,51.6017117]]],"type":"Polygon"},"id":"E02006953","properties":{"code":"E02006953","geography":"MSOA","name":"Barnet 042"},"type":"Feature"},{"geometry":{"coordinates":[[[-0.2367564,51.5941126],[-0.2399978,51.5946063],[-0.2418533,51.5901895],[-0.2488914,51.5914051],[-0.2509769,51.596279],[-0.2597696,51.5941732],[-0.2502015,51.5862328],[-0.2439955,51.5896442],[-0.2387726,51.5870356],[-0.2367564,51.5941126]]],"type":"Polygon"},"id":"E02006954","properties":{"code":"E02006954","geography":"MSOA","name":"Barnet 043"},"type":"Feature"}],"type":"FeatureCollection"}
