{"features":[{"geometry":{"coordinates":[[[-0.0852184,51.5203339],[-0.0967858,51.5232496],[-0.105346,51.5185433],[-0.1106722,51.5180948],[-0.1138207,51.5182195],[-0.1115532,51.5152228],[-0.1114773,51.5107567],[-0.1084722,51.5108101],[-0.1082467,51.5108086],[-0.0999028,51.5107511],[-0.0993558,51.5106766],[-0.0963588,51.5102685],[-0.0952599,51.5101188],[-0.0923221,51.5094757],[-0.0919884,51.5094027],[-0.0886036,51.5089226],[-0.085481,51.5085961],[-0.0851724,51.5085615],[-0.0811815,51.5081134],[-0.0804021,51.5080259],[-0.0793794,51.5078428],[-0.0787324,51.507678],[-0.0784989,51.5076187],[-0.0732299,51.5100024],[-0.0727644,51.5108049],[-0.073969,51.514453],[-0.0784716,51.5215099],[-0.0852184,51.5203339]]],"type":"Polygon"},"id":"E02000001","properties":{"code":"E02000001","geography":"MSOA","name":"City of London 001"},"type":"Feature"}],"type":"FeatureCollection"}
