{"features":[{"geometry":{"coordinates":[[[-0.110413,51.6083049],[-0.1264046,51.6093044],[-0.1158611,51.600993],[-0.1117085,51.6007869],[-0.110413,51.6083049]]],"type":"Polygon"},"id":"E02000397","properties":{"code":"E02000397","geography":"MSOA","name":"Haringey 001"},"type":"Feature"},{"geometry":{"coordinates":[[[-0.0414515,51.6056308],[-0.0655998,51.6085902],[-0.0606119,51.6031491],[-0.0639355,51.6010364],[-0.0621017,51.5989924],[-0.0487284,51.6018318],[-0.0502977,51.5968505],[-0.0461289,51.6001305],[-0.0414515,51.6056308]]],"type":"Polygon"},"id":"E02000398","properties":{"code":"E02000398","geography":"MSOA","name":"Haringey 002"},"type":"Feature"},{"geometry":{"coordinates":[[[-0.1264721,51.6093429],[-0.1387867,51.6101925],[-0.1433408,51.6088816],[-0.1420512,51.6036634],[-0.134769,51.6050289],[-0.1354966,51.6028688],[-0.1299562,51.6032525],[-0.1354778,51.599802],[-0.1261188,51.6022498],[-0.1200894,51.5975552],[-0.1188778,51.5974964],[-0.1158611,51.600993],[-0.1264046,51.6093044],[-0.1264721,51.6093429]]],"type":"Polygon"},"id":"E02000400","properties":{"code":"E02000400","geography":"MSOA","name":"Haringey 004"},"type":"Feature"},{"geometry":{"coordinates":[[[-0.0889412,51.6087355],[-0.0897305,51.6087956],[-0.0991383,51.6084211],[-0.096836,51.6050116],[-0.0912353,51.6014493],[-0.0921371,51.5980496],[-0.087309,51.5978599],[-0.0834946,51.6015549],[-0.0889412,51.6087355]]],"type":"Polygon"},"id":"E02000401","properties":{"code":"E02000401","geography":"MSOA","name":"Haringey 005"},"type":"Feature"},{"geometry":{"coordinates":[[[-0.0756271,51.6084525],[-0.0889412,51.6087355],[-0.0834946,51.6015549],[-0.087309,51.5978599],[-0.0795046,51.5981586],[-0.0720258,51.5987042],[-0.0756271,51.6084525]]],"type":"Polygon"},"id":"E02000402","properties":{"code":"E02000402","geography":"MSOA","name":"Haringey 006"},"type":"Feature"},{"geometry":{"coordinates":[[[-0.096836,51.6050116],[-0.0991383,51.6084211],[-0.102129,51.6084015],[-0.110413,51.6083049],[-0.1117085,51.6007869],[-0.1158611,51.600993],[-0.1188778,51.5974964],[-0.1058836,51.5980282],[-0.1056259,51.5981054],[-0.108505,51.6027363],[-0.096836,51.6050116]]],"type":"Polygon"},"id":"E02000403","properties":{"code":"E02000403","geography":"MSOA","name":"Haringey 007"},"type":"Feature"},{"geometry":{"coordinates":[[[-0.0921371,51.5980496],[-0.0912353,51.6014493],[-0.096836,51.6050116],[-0.108505,51.6027363],[-0.1056259,51.5981054],[-0.0932125,51.5981554],[-0.0921371,51.5980496]]],"type":"Polygon"},"id":"E02000404","properties":{"code":"E02000404","geography":"MSOA","name":"Haringey 008"},"type":"Feature"},{"geometry":{"coordinates":[[[-0.1200894,51.5975552],[-0.1261188,51.6022498],[-0.1354778,51.599802],[-0.1299562,51.6032525],[-0.1354966,51.6028688],[-0.134769,51.6050289],[-0.1420512,51.6036634],[-0.1450436,51.5999249],[-0.1437993,51.5969887],[-0.1382195,51.5981193],[-0.1326904,51.5950998],[-0.1352065,51.5934222],[-0.1330454,51.5882407],[-0.125926,51.5912807],[-0.1163677,51.5930999],[-0.1200894,51.5975552]]],"type":"Polygon"},"id":"E02000405","properties":{"code":"E02000405","geography":"MSOA","name":"Haringey 009"},"type":"Feature"},{"geometry":{"coordinates":[[[-0.0965769,51.5943777],[-0.0932125,51.5981554],[-0.1056259,51.5981054],[-0.1058836,51.5980282],[-0.1079303,51.5959081],[-0.100826,51.5919687],[-0.0965769,51.5943777]]],"type":"Polygon"},"id":"E02000406","properties":{"code":"E02000406","geography":"MSOA","name":"Haringey 010"},"type":"Feature"},{"geometry":{"coordinates":[[[-0.0680632,51.5985949],[-0.0720258,51.5987042],[-0.0795046,51.5981586],[-0.079002,51.5940698],[-0.0725697,51.5924574],[-0.0715616,51.5885363],[-0.0704562,51.5890277],[-0.0680632,51.5985949]]],"type":"Polygon"},"id":"E02000407","properties":{"code":"E02000407","geography":"MSOA","name":"Haringey 011"},"type":"Feature"},{"geometry":{"coordinates":[[[-0.0621017,51.5989924],[-0.0639355,51.6010364],[-0.0680632,51.5985949],[-0.0704562,51.5890277],[-0.064489,51.5895363],[-0.0667534,51.5925496],[-0.0607143,51.5948068],[-0.0621017,51.5989924]]],"type":"Polygon"},"id":"E02000408","properties":{"code":"E02000408","geography":"MSOA","name":"Haringey 012"},"type":"Feature"},{"geometry":{"coordinates":[[[-0.079002,51.5940698],[-0.0795046,51.5981586],[-0.087309,51.5978599],[-0.0921371,51.5980496],[-0.0932125,51.5981554],[-0.0965769,51.5943777],[-0.0873203,51.5953862],[-0.0906636,51.5887338],[-0.0877228,51.5867114],[-0.0843616,51.5881757],[-0.0857052,51.5924543],[-0.079002,51.5940698]]],"type":"Polygon"},"id":"E02000409","properties":{"code":"E02000409","geography":"MSOA","name":"Haringey 013"},"type":"Feature"},{"geometry":{"coordinates":[[[-0.1352065,51.5934222],[-0.1326904,51.5950998],[-0.1382195,51.5981193],[-0.1437993,51.5969887],[-0.1450436,51.5999249],[-0.1508952,51.597624],[-0.1561269,51.5951285],[-0.1430196,51.5912445],[-0.1352065,51.5934222]]],"type":"Polygon"},"id":"E02000410","properties":{"code":"E02000410","geography":"MSOA","name":"Haringey 014"},"type":"Feature"},{"geometry":{"coordinates":[[[-0.0502977,51.5968505],[-0.0487284,51.6018318],[-0.0621017,51.5989924],[-0.0607143,51.5948068],[-0.0667534,51.5925496],[-0.064489,51.5895363],[-0.0600113,51.5880092],[-0.0603671,51.5843177],[-0.059762,51.581509],[-0.0522402,51.5875693],[-0.0502977,51.5968505]]],"type":"Polygon"},"id":"E02000411","properties":{"code":"E02000411","geography":"MSOA","name":"Haringey 015"},"type":"Feature"},{"geometry":{"coordinates":[[[-0.100826,51.5919687],[-0.1079303,51.5959081],[-0.1058836,51.5980282],[-0.1188778,51.5974964],[-0.1200894,51.5975552],[-0.1163677,51.5930999],[-0.1126121,51.5882771],[-0.1034556,51.590413],[-0.100826,51.5919687]]],"type":"Polygon"},"id":"E02000412","properties":{"code":"E02000412","geography":"MSOA","name":"Haringey 016"},"type":"Feature"},{"geometry":{"coordinates":[[[-0.1508952,51.597624],[-0.1563677,51.6053568],[-0.1617823,51.5975364],[-0.1590019,51.5917664],[-0.1574362,51.586562],[-0.1480844,51.5862229],[-0.1504924,51.5881828],[-0.1430196,51.5912445],[-0.1561269,51.5951285],[-0.1508952,51.597624]]],"type":"Polygon"},"id":"E02000413","properties":{"code":"E02000413","geography":"MSOA","name":"Haringey 017"},"type":"Feature"},{"geometry":{"coordinates":[[[-0.0715616,51.5885363],[-0.0725697,51.5924574],[-0.079002,51.5940698],[-0.0857052,51.5924543],[-0.0843616,51.5881757],[-0.074382,51.5891169],[-0.0715616,51.5885363]]],"type":"Polygon"},"id":"E02000414","properties":{"code":"E02000414","geography":"MSOA","name":"Haringey 018"},"type":"Feature"},{"geometry":{"coordinates":[[[-0.0877228,51.5867114],[-0.0906636,51.5887338],[-0.0873203,51.5953862],[-0.0965769,51.5943777],[-0.100826,51.5919687],[-0.1034556,51.590413],[-0.0982341,51.5873307],[-0.0936737,51.5860525],[-0.0886186,51.5865059],[-0.0877228,51.5867114]]],"type":"Polygon"},"id":"E02000415","properties":{"code":"E02000415","geography":"MSOA","name":"Haringey 019"},"type":"Feature"},{"geometry":{"coordinates":[[[-0.1126121,51.5882771],[-0.1163677,51.5930999],[-0.125926,51.5912807],[-0.1211262,51.5876317],[-0.1236319,51.5824107],[-0.110662,51.5844812],[-0.1126121,51.5882771]]],"type":"Polygon"},"id":"E02000416","properties":{"code":"E02000416","geography":"MSOA","name":"Haringey 020"},"type":"Feature"},{"geometry":{"coordinates":[[[-0.1330454,51.5882407],[-0.1352065,51.5934222],[-0.1430196,51.5912445],[-0.1504924,51.5881828],[-0.1480844,51.5862229],[-0.1461372,51.5813086],[-0.1388873,51.5800767],[-0.1338614,51.5822285],[-0.1393387,51.5854],[-0.1376292,51.5890071],[-0.1336806,51.5864349],[-0.1330454,51.5882407]]],"type":"Polygon"},"id":"E02000417","properties":{"code":"E02000417","geography":"MSOA","name":"Haringey 021"},"type":"Feature"},{"geometry":{"coordinates":[[[-0.1236319,51.5824107],[-0.1211262,51.5876317],[-0.125926,51.5912807],[-0.1330454,51.5882407],[-0.1336806,51.5864349],[-0.1376292,51.5890071],[-0.1393387,51.5854],[-0.1338614,51.5822285],[-0.130027,51.5838624],[-0.1263288,51.5815981],[-0.1236487,51.5821206],[-0.1236319,51.5824107]]],"type":"Polygon"},"id":"E02000418","properties":{"code":"E02000418","geography":"MSOA","name":"Haringey 022"},"type":"Feature"},{"geometry":{"coordinates":[[[-0.0982341,51.5873307],[-0.1034556,51.590413],[-0.1126121,51.5882771],[-0.110662,51.5844812],[-0.109649,51.5832525],[-0.1025886,51.5831955],[-0.1052549,51.5808155],[-0.0990865,51.578803],[-0.0982341,51.5873307]]],"type":"Polygon"},"id":"E02000419","properties":{"code":"E02000419","geography":"MSOA","name":"Haringey 023"},"type":"Feature"},{"geometry":{"coordinates":[[[-0.0754622,51.5816911],[-0.0767989,51.5837061],[-0.0706692,51.5850865],[-0.074382,51.5891169],[-0.0843616,51.5881757],[-0.0877228,51.5867114],[-0.0886186,51.5865059],[-0.0754622,51.5816911]]],"type":"Polygon"},"id":"E02000420","properties":{"code":"E02000420","geography":"MSOA","name":"Haringey 024"},"type":"Feature"},{"geometry":{"coordinates":[[[-0.0603671,51.5843177],[-0.0600113,51.5880092],[-0.064489,51.5895363],[-0.0704562,51.5890277],[-0.0715616,51.5885363],[-0.074382,51.5891169],[-0.0706692,51.5850865],[-0.0767989,51.5837061],[-0.0754622,51.5816911],[-0.075726,51.5799731],[-0.0603671,51.5843177]]],"type":"Polygon"},"id":"E02000421","properties":{"code":"E02000421","geography":"MSOA","name":"Haringey 025"},"type":"Feature"},{"geometry":{"coordinates":[[[-0.0754622,51.5816911],[-0.0886186,51.5865059],[-0.0936737,51.5860525],[-0.09321,51.5817308],[-0.0909983,51.5835797],[-0.0870444,51.5789992],[-0.0758585,51.5799568],[-0.075726,51.5799731],[-0.0754622,51.5816911]]],"type":"Polygon"},"id":"E02000422","properties":{"code":"E02000422","geography":"MSOA","name":"Haringey 026"},"type":"Feature"},{"geometry":{"coordinates":[[[-0.0936737,51.5860525],[-0.0982341,51.5873307],[-0.0990865,51.578803],[-0.0965993,51.5776129],[-0.0870444,51.5789992],[-0.0909983,51.5835797],[-0.09321,51.5817308],[-0.0936737,51.5860525]]],"type":"Polygon"},"id":"E02000423","properties":{"code":"E02000423","geography":"MSOA","name":"Haringey 027"},"type":"Feature"},{"geometry":{"coordinates":[[[-0.109649,51.5832525],[-0.110662,51.5844812],[-0.1236319,51.5824107],[-0.1236487,51.5821206],[-0.1191127,51.5824098],[-0.1120079,51.5765978],[-0.105807,51.5788137],[-0.109649,51.5832525]]],"type":"Polygon"},"id":"E02000424","properties":{"code":"E02000424","geography":"MSOA","name":"Haringey 028"},"type":"Feature"},{"geometry":{"coordinates":[[[-0.059762,51.581509],[-0.0603671,51.5843177],[-0.075726,51.5799731],[-0.0758585,51.5799568],[-0.0756975,51.5755476],[-0.0611855,51.5777842],[-0.06104,51.5808254],[-0.059762,51.581509]]],"type":"Polygon"},"id":"E02000425","properties":{"code":"E02000425","geography":"MSOA","name":"Haringey 029"},"type":"Feature"},{"geometry":{"coordinates":[[[-0.1480844,51.5862229],[-0.1574362,51.586562],[-0.1613975,51.5853007],[-0.1712851,51.5724301],[-0.1492929,51.5711267],[-0.1480583,51.5775863],[-0.1443536,51.576687],[-0.1388873,51.5800767],[-0.1461372,51.5813086],[-0.1480844,51.5862229]]],"type":"Polygon"},"id":"E02000426","properties":{"code":"E02000426","geography":"MSOA","name":"Haringey 030"},"type":"Feature"},{"geometry":{"coordinates":[[[-0.0990865,51.578803],[-0.1052549,51.5808155],[-0.1025886,51.5831955],[-0.109649,51.5832525],[-0.105807,51.5788137],[-0.1062048,51.5655384],[-0.1045085,51.5647103],[-0.0981805,51.5690842],[-0.0978498,51.5736082],[-0.0934712,51.5740127],[-0.0926268,51.5775583],[-0.0965993,51.5776129],[-0.0990865,51.578803]]],"type":"Polygon"},"id":"E02000427","properties":{"code":"E02000427","geography":"MSOA","name":"Haringey 031"},"type":"Feature"},{"geometry":{"coordinates":[[[-0.0756975,51.5755476],[-0.0758585,51.5799568],[-0.0870444,51.5789992],[-0.0965993,51.5776129],[-0.0926268,51.5775583],[-0.0934712,51.5740127],[-0.0801553,51.5755707],[-0.077601,51.5751835],[-0.0756975,51.5755476]]],"type":"Polygon"},"id":"E02000428","properties":{"code":"E02000428","geography":"MSOA","name":"Haringey 032"},"type":"Feature"},{"geometry":{"coordinates":[[[-0.1263288,51.5815981],[-0.130027,51.5838624],[-0.1338614,51.5822285],[-0.1388873,51.5800767],[-0.1443536,51.576687],[-0.1333972,51.5728839],[-0.1272181,51.5741252],[-0.124502,51.5743756],[-0.1263288,51.5815981]]],"type":"Polygon"},"id":"E02000429","properties":{"code":"E02000429","geography":"MSOA","name":"Haringey 033"},"type":"Feature"},{"geometry":{"coordinates":[[[-0.1120079,51.5765978],[-0.1191127,51.5824098],[-0.1236487,51.5821206],[-0.1263288,51.5815981],[-0.124502,51.5743756],[-0.1195861,51.5755317],[-0.1152198,51.571029],[-0.1150901,51.5706368],[-0.1095857,51.5749581],[-0.1120079,51.5765978]]],"type":"Polygon"},"id":"E02000430","properties":{"code":"E02000430","geography":"MSOA","name":"Haringey 034"},"type":"Feature"},{"geometry":{"coordinates":[[[-0.1443536,51.576687],[-0.1480583,51.5775863],[-0.1492929,51.5711267],[-0.1424151,51.5691202],[-0.1383441,51.5706007],[-0.1333972,51.5728839],[-0.1443536,51.576687]]],"type":"Polygon"},"id":"E02000431","properties":{"code":"E02000431","geography":"MSOA","name":"Haringey 035"},"type":"Feature"},{"geometry":{"coordinates":[[[-0.1062048,51.5655384],[-0.105807,51.5788137],[-0.1120079,51.5765978],[-0.1095857,51.5749581],[-0.1150901,51.5706368],[-0.1063863,51.5656597],[-0.1062048,51.5655384]]],"type":"Polygon"},"id":"E02000432","properties":{"code":"E02000432","geography":"MSOA","name":"Haringey 036"},"type":"Feature"},{"geometry":{"coordinates":[[[-0.0655998,51.6085902],[-0.0660489,51.608639],[-0.0756271,51.6084525],[-0.0720258,51.5987042],[-0.0680632,51.5985949],[-0.0639355,51.6010364],[-0.0606119,51.6031491],[-0.0655998,51.6085902]]],"type":"Polygon"},"id":"E02006794","properties":{"code":"E02006794","geography":"MSOA","name":"Haringey 037"},"type":"Feature"}],"type":"FeatureCollection"}
