{"features":[{"geometry":{"coordinates":[[[0.0407702,51.6157397],[0.0217929,51.6288314],[0.0200209,51.6264863],[0.0144997,51.6189017],[0.0087785,51.619081],[0.0212312,51.6122716],[0.01924,51.6082294],[0.0174003,51.6053073],[0.0317955,51.6028489],[0.0321914,51.6036019],[0.0407702,51.6157397]]],"type":"Polygon"},"id":"E02000751","properties":{"code":"E02000751","geography":"MSOA","name":"Redbridge 001"},"type":"Feature"},{"geometry":{"coordinates":[[[0.1481361,51.599048],[0.1474451,51.6123097],[0.1381564,51.6235426],[0.1291603,51.6214412],[0.119901,51.6155765],[0.1166881,51.6169205],[0.1072576,51.6133408],[0.1097922,51.6090933],[0.1020498,51.6086025],[0.101465,51.6058368],[0.1051761,51.6066776],[0.1094658,51.6006894],[0.129055,51.6084848],[0.1418993,51.5965795],[0.1481361,51.599048]]],"type":"Polygon"},"id":"E02000752","properties":{"code":"E02000752","geography":"MSOA","name":"Redbridge 002"},"type":"Feature"},{"geometry":{"coordinates":[[[0.1072576,51.6133408],[0.1001414,51.6127232],[0.098038,51.6154259],[0.092258,51.6135726],[0.0946405,51.610741],[0.093601,51.6040325],[0.101465,51.6058368],[0.1020498,51.6086025],[0.1097922,51.6090933],[0.1072576,51.6133408]]],"type":"Polygon"},"id":"E02000753","properties":{"code":"E02000753","geography":"MSOA","name":"Redbridge 003"},"type":"Feature"},{"geometry":{"coordinates":[[[0.0520826,51.6122178],[0.0482867,51.6146051],[0.0536838,51.6182787],[0.0407702,51.6157397],[0.0321914,51.6036019],[0.0404861,51.6015221],[0.0462822,51.6054517],[0.042682,51.6065463],[0.0456995,51.6104797],[0.0520826,51.6122178]]],"type":"Polygon"},"id":"E02000754","properties":{"code":"E02000754","geography":"MSOA","name":"Redbridge 004"},"type":"Feature"},{"geometry":{"coordinates":[[[0.0625383,51.6070683],[0.0520826,51.6122178],[0.0456995,51.6104797],[0.042682,51.6065463],[0.0462822,51.6054517],[0.0404861,51.6015221],[0.053827,51.5983509],[0.0562558,51.6011725],[0.0629719,51.6069101],[0.0625383,51.6070683]]],"type":"Polygon"},"id":"E02000755","properties":{"code":"E02000755","geography":"MSOA","name":"Redbridge 005"},"type":"Feature"},{"geometry":{"coordinates":[[[0.101465,51.6058368],[0.093601,51.6040325],[0.0946405,51.610741],[0.0871186,51.6044655],[0.0629719,51.6069101],[0.0562558,51.6011725],[0.0697459,51.5981174],[0.0795515,51.5979503],[0.0851525,51.5937086],[0.0807884,51.5880424],[0.0868569,51.5869309],[0.0910352,51.5954347],[0.1094658,51.6006894],[0.1051761,51.6066776],[0.101465,51.6058368]]],"type":"Polygon"},"id":"E02000756","properties":{"code":"E02000756","geography":"MSOA","name":"Redbridge 006"},"type":"Feature"},{"geometry":{"coordinates":[[[0.0317955,51.6028489],[0.0174003,51.6053073],[0.0154596,51.6026689],[0.0124147,51.5953199],[0.0122369,51.5943214],[0.0223639,51.592606],[0.0237118,51.5867137],[0.026514,51.5888395],[0.0317955,51.6028489]]],"type":"Polygon"},"id":"E02000757","properties":{"code":"E02000757","geography":"MSOA","name":"Redbridge 007"},"type":"Feature"},{"geometry":{"coordinates":[[[0.0697459,51.5981174],[0.0562558,51.6011725],[0.053827,51.5983509],[0.047519,51.5907634],[0.0668279,51.5914146],[0.0735894,51.5931918],[0.0673967,51.5962508],[0.0697459,51.5981174]]],"type":"Polygon"},"id":"E02000758","properties":{"code":"E02000758","geography":"MSOA","name":"Redbridge 008"},"type":"Feature"},{"geometry":{"coordinates":[[[0.0404861,51.6015221],[0.0321914,51.6036019],[0.0317955,51.6028489],[0.026514,51.5888395],[0.0254262,51.5854144],[0.0316616,51.5845351],[0.0409812,51.5855871],[0.037742,51.5936673],[0.047519,51.5907634],[0.053827,51.5983509],[0.0404861,51.6015221]]],"type":"Polygon"},"id":"E02000759","properties":{"code":"E02000759","geography":"MSOA","name":"Redbridge 009"},"type":"Feature"},{"geometry":{"coordinates":[[[0.0807884,51.5880424],[0.0851525,51.5937086],[0.0795515,51.5979503],[0.0697459,51.5981174],[0.0673967,51.5962508],[0.0735894,51.5931918],[0.0668279,51.5914146],[0.0700824,51.5874745],[0.0794714,51.5862026],[0.0807884,51.5880424]]],"type":"Polygon"},"id":"E02000760","properties":{"code":"E02000760","geography":"MSOA","name":"Redbridge 010"},"type":"Feature"},{"geometry":{"coordinates":[[[0.0794714,51.5862026],[0.0700824,51.5874745],[0.0551872,51.5805097],[0.0570453,51.5764417],[0.065839,51.576568],[0.065894,51.5827385],[0.0753485,51.5859665],[0.0774434,51.5841671],[0.0794714,51.5862026]]],"type":"Polygon"},"id":"E02000762","properties":{"code":"E02000762","geography":"MSOA","name":"Redbridge 012"},"type":"Feature"},{"geometry":{"coordinates":[[[0.1418993,51.5965795],[0.129055,51.6084848],[0.1094658,51.6006894],[0.0910352,51.5954347],[0.0868569,51.5869309],[0.0816376,51.584518],[0.0896456,51.5748675],[0.1094243,51.5820543],[0.1175165,51.5823686],[0.1276388,51.5816374],[0.1295286,51.590058],[0.1418993,51.5965795]]],"type":"Polygon"},"id":"E02000763","properties":{"code":"E02000763","geography":"MSOA","name":"Redbridge 013"},"type":"Feature"},{"geometry":{"coordinates":[[[0.026514,51.5888395],[0.0237118,51.5867137],[0.0223639,51.592606],[0.0122369,51.5943214],[0.0143489,51.5833287],[0.0164593,51.5728852],[0.0188988,51.5722511],[0.032553,51.5779088],[0.0279324,51.5821093],[0.0316616,51.5845351],[0.0254262,51.5854144],[0.026514,51.5888395]]],"type":"Polygon"},"id":"E02000764","properties":{"code":"E02000764","geography":"MSOA","name":"Redbridge 014"},"type":"Feature"},{"geometry":{"coordinates":[[[0.0774434,51.5841671],[0.0753485,51.5859665],[0.065894,51.5827385],[0.065839,51.576568],[0.0674982,51.5763516],[0.074534,51.5750998],[0.0810358,51.5806373],[0.0774434,51.5841671]]],"type":"Polygon"},"id":"E02000765","properties":{"code":"E02000765","geography":"MSOA","name":"Redbridge 015"},"type":"Feature"},{"geometry":{"coordinates":[[[0.0868569,51.5869309],[0.0807884,51.5880424],[0.0794714,51.5862026],[0.0774434,51.5841671],[0.0810358,51.5806373],[0.074534,51.5750998],[0.0861056,51.5740082],[0.0896456,51.5748675],[0.0816376,51.584518],[0.0868569,51.5869309]]],"type":"Polygon"},"id":"E02000767","properties":{"code":"E02000767","geography":"MSOA","name":"Redbridge 017"},"type":"Feature"},{"geometry":{"coordinates":[[[0.0405497,51.5761151],[0.0409812,51.5855871],[0.0316616,51.5845351],[0.0279324,51.5821093],[0.032553,51.5779088],[0.0188988,51.5722511],[0.0189574,51.5715191],[0.0317222,51.5714023],[0.0341186,51.5678493],[0.0446399,51.5720395],[0.0405497,51.5761151]]],"type":"Polygon"},"id":"E02000768","properties":{"code":"E02000768","geography":"MSOA","name":"Redbridge 018"},"type":"Feature"},{"geometry":{"coordinates":[[[0.1055091,51.5724141],[0.1094243,51.5820543],[0.0896456,51.5748675],[0.0861056,51.5740082],[0.0845604,51.5708182],[0.0934416,51.5694953],[0.0890788,51.5683948],[0.0890537,51.5630542],[0.0918845,51.5634194],[0.0936728,51.5636374],[0.0970352,51.5728814],[0.1055091,51.5724141]]],"type":"Polygon"},"id":"E02000770","properties":{"code":"E02000770","geography":"MSOA","name":"Redbridge 020"},"type":"Feature"},{"geometry":{"coordinates":[[[0.1168241,51.5738095],[0.1132864,51.5741186],[0.1175165,51.5823686],[0.1094243,51.5820543],[0.1055091,51.5724141],[0.1060675,51.5648762],[0.1192548,51.5666585],[0.1205333,51.5734667],[0.1168241,51.5738095]]],"type":"Polygon"},"id":"E02000772","properties":{"code":"E02000772","geography":"MSOA","name":"Redbridge 022"},"type":"Feature"},{"geometry":{"coordinates":[[[0.074534,51.5750998],[0.0674982,51.5763516],[0.0767739,51.5712843],[0.0815136,51.5687986],[0.0815694,51.5616367],[0.0890537,51.5630542],[0.0890788,51.5683948],[0.0934416,51.5694953],[0.0845604,51.5708182],[0.0861056,51.5740082],[0.074534,51.5750998]]],"type":"Polygon"},"id":"E02000773","properties":{"code":"E02000773","geography":"MSOA","name":"Redbridge 023"},"type":"Feature"},{"geometry":{"coordinates":[[[0.1055091,51.5724141],[0.0970352,51.5728814],[0.0936728,51.5636374],[0.1060675,51.5648762],[0.1055091,51.5724141]]],"type":"Polygon"},"id":"E02000774","properties":{"code":"E02000774","geography":"MSOA","name":"Redbridge 024"},"type":"Feature"},{"geometry":{"coordinates":[[[0.0815694,51.5616367],[0.0815136,51.5687986],[0.0767739,51.5712843],[0.0669369,51.5639445],[0.0780545,51.560865],[0.0815694,51.5616367]]],"type":"Polygon"},"id":"E02000776","properties":{"code":"E02000776","geography":"MSOA","name":"Redbridge 026"},"type":"Feature"},{"geometry":{"coordinates":[[[0.0526916,51.5622877],[0.0446399,51.5720395],[0.0341186,51.5678493],[0.0317222,51.5714023],[0.0189574,51.5715191],[0.0144558,51.5603926],[0.0203394,51.5562661],[0.0319893,51.5545699],[0.0353336,51.5553225],[0.0461373,51.5548357],[0.0419285,51.5614516],[0.0503169,51.5639886],[0.0525539,51.5617146],[0.0526916,51.5622877]]],"type":"Polygon"},"id":"E02000777","properties":{"code":"E02000777","geography":"MSOA","name":"Redbridge 027"},"type":"Feature"},{"geometry":{"coordinates":[[[0.0669369,51.5639445],[0.0650962,51.5681452],[0.0579499,51.562341],[0.0526916,51.5622877],[0.0525539,51.5617146],[0.0599778,51.5565139],[0.0631824,51.5575614],[0.0702318,51.5592064],[0.0780545,51.560865],[0.0669369,51.5639445]]],"type":"Polygon"},"id":"E02000779","properties":{"code":"E02000779","geography":"MSOA","name":"Redbridge 029"},"type":"Feature"},{"geometry":{"coordinates":[[[0.1073959,51.5519179],[0.1095001,51.560779],[0.0937608,51.5598219],[0.0854722,51.558986],[0.0861838,51.5506807],[0.0884879,51.547704],[0.092538,51.5496051],[0.0934637,51.5457933],[0.1061819,51.5509574],[0.1073959,51.5519179]]],"type":"Polygon"},"id":"E02000781","properties":{"code":"E02000781","geography":"MSOA","name":"Redbridge 031"},"type":"Feature"},{"geometry":{"coordinates":[[[0.0743089,51.5523037],[0.0702318,51.5592064],[0.0631824,51.5575614],[0.0650257,51.5563482],[0.0683267,51.5444142],[0.0714575,51.5436401],[0.0799069,51.5513612],[0.0743089,51.5523037]]],"type":"Polygon"},"id":"E02000782","properties":{"code":"E02000782","geography":"MSOA","name":"Redbridge 032"},"type":"Feature"},{"geometry":{"coordinates":[[[0.0861838,51.5506807],[0.0799069,51.5513612],[0.0714575,51.5436401],[0.0779478,51.5440888],[0.0850134,51.546882],[0.0884879,51.547704],[0.0861838,51.5506807]]],"type":"Polygon"},"id":"E02000783","properties":{"code":"E02000783","geography":"MSOA","name":"Redbridge 033"},"type":"Feature"},{"geometry":{"coordinates":[[[0.1293623,51.5665295],[0.1296766,51.5681014],[0.1192548,51.5666585],[0.1060675,51.5648762],[0.0936728,51.5636374],[0.0918845,51.5634194],[0.0937608,51.5598219],[0.1095001,51.560779],[0.1073959,51.5519179],[0.1123524,51.5529991],[0.1133288,51.5573177],[0.117151,51.5568916],[0.1190332,51.5630648],[0.1293623,51.5665295]]],"type":"Polygon"},"id":"E02006800","properties":{"code":"E02006800","geography":"MSOA","name":"Redbridge 034"},"type":"Feature"},{"geometry":{"coordinates":[[[0.0674982,51.5763516],[0.065839,51.576568],[0.0570453,51.5764417],[0.0405497,51.5761151],[0.0446399,51.5720395],[0.0526916,51.5622877],[0.0579499,51.562341],[0.0650962,51.5681452],[0.0669369,51.5639445],[0.0767739,51.5712843],[0.0674982,51.5763516]]],"type":"Polygon"},"id":"E02006924","properties":{"code":"E02006924","geography":"MSOA","name":"Redbridge 035"},"type":"Feature"},{"geometry":{"coordinates":[[[0.047519,51.5907634],[0.037742,51.5936673],[0.0409812,51.5855871],[0.0405497,51.5761151],[0.0570453,51.5764417],[0.0551872,51.5805097],[0.0700824,51.5874745],[0.0668279,51.5914146],[0.047519,51.5907634]]],"type":"Polygon"},"id":"E02006925","properties":{"code":"E02006925","geography":"MSOA","name":"Redbridge 036"},"type":"Feature"},{"geometry":{"coordinates":[[[0.1276388,51.5816374],[0.1175165,51.5823686],[0.1132864,51.5741186],[0.1168241,51.5738095],[0.1221447,51.5766586],[0.1253377,51.5730128],[0.1294187,51.5739803],[0.1316113,51.577133],[0.132937,51.5808961],[0.1276388,51.5816374]]],"type":"Polygon"},"id":"E02007017","properties":{"code":"E02007017","geography":"MSOA","name":"Redbridge 037"},"type":"Feature"},{"geometry":{"coordinates":[[[0.1294187,51.5739803],[0.1253377,51.5730128],[0.1221447,51.5766586],[0.1168241,51.5738095],[0.1205333,51.5734667],[0.1192548,51.5666585],[0.1296766,51.5681014],[0.1294187,51.5739803]]],"type":"Polygon"},"id":"E02007018","properties":{"code":"E02007018","geography":"MSOA","name":"Redbridge 038"},"type":"Feature"},{"geometry":{"coordinates":[[[0.0937608,51.5598219],[0.0918845,51.5634194],[0.0890537,51.5630542],[0.0815694,51.5616367],[0.0780545,51.560865],[0.0702318,51.5592064],[0.0743089,51.5523037],[0.0764403,51.5596223],[0.0854722,51.558986],[0.0937608,51.5598219]]],"type":"Polygon"},"id":"E02007019","properties":{"code":"E02007019","geography":"MSOA","name":"Redbridge 039"},"type":"Feature"},{"geometry":{"coordinates":[[[0.0854722,51.558986],[0.0764403,51.5596223],[0.0743089,51.5523037],[0.0799069,51.5513612],[0.0861838,51.5506807],[0.0854722,51.558986]]],"type":"Polygon"},"id":"E02007020","properties":{"code":"E02007020","geography":"MSOA","name":"Redbridge 040"},"type":"Feature"}],"type":"FeatureCollection"}
