{"features":[{"geometry":{"coordinates":[[[-0.2236599,51.5299531],[-0.2285032,51.530353],[-0.2273753,51.5258397],[-0.2141082,51.524531],[-0.2124447,51.5215834],[-0.2076887,51.5188809],[-0.2036766,51.5205837],[-0.2015845,51.5227437],[-0.2073059,51.526268],[-0.2160301,51.5279282],[-0.2236599,51.5299531]]],"type":"Polygon"},"id":"E02000577","properties":{"code":"E02000577","geography":"MSOA","name":"Kensington and Chelsea 001"},"type":"Feature"},{"geometry":{"coordinates":[[[-0.2124447,51.5215834],[-0.2141082,51.524531],[-0.2273753,51.5258397],[-0.2275295,51.5216071],[-0.2225085,51.5229876],[-0.2184898,51.5185595],[-0.2118908,51.520624],[-0.2124447,51.5215834]]],"type":"Polygon"},"id":"E02000578","properties":{"code":"E02000578","geography":"MSOA","name":"Kensington and Chelsea 002"},"type":"Feature"},{"geometry":{"coordinates":[[[-0.2118908,51.520624],[-0.2184898,51.5185595],[-0.2225085,51.5229876],[-0.2275295,51.5216071],[-0.2202694,51.5117287],[-0.218673,51.5157864],[-0.212607,51.5160221],[-0.2118908,51.520624]]],"type":"Polygon"},"id":"E02000579","properties":{"code":"E02000579","geography":"MSOA","name":"Kensington and Chelsea 003"},"type":"Feature"},{"geometry":{"coordinates":[[[-0.2036766,51.5205837],[-0.2076887,51.5188809],[-0.2124447,51.5215834],[-0.2118908,51.520624],[-0.212607,51.5160221],[-0.2090057,51.5160331],[-0.2077103,51.5142501],[-0.2040728,51.5162942],[-0.2041647,51.5132077],[-0.1992103,51.5145515],[-0.2030397,51.5195572],[-0.2036766,51.5205837]]],"type":"Polygon"},"id":"E02000580","properties":{"code":"E02000580","geography":"MSOA","name":"Kensington and Chelsea 004"},"type":"Feature"},{"geometry":{"coordinates":[[[-0.2156281,51.5086649],[-0.2099248,51.5078781],[-0.2090057,51.5160331],[-0.212607,51.5160221],[-0.218673,51.5157864],[-0.2202694,51.5117287],[-0.2156281,51.5086649]]],"type":"Polygon"},"id":"E02000581","properties":{"code":"E02000581","geography":"MSOA","name":"Kensington and Chelsea 005"},"type":"Feature"},{"geometry":{"coordinates":[[[-0.1943683,51.5127127],[-0.1992103,51.5145515],[-0.2041647,51.5132077],[-0.2030874,51.5078654],[-0.1921448,51.5098682],[-0.1943683,51.5127127]]],"type":"Polygon"},"id":"E02000582","properties":{"code":"E02000582","geography":"MSOA","name":"Kensington and Chelsea 006"},"type":"Feature"},{"geometry":{"coordinates":[[[-0.2041647,51.5132077],[-0.2040728,51.5162942],[-0.2077103,51.5142501],[-0.2090057,51.5160331],[-0.2099248,51.5078781],[-0.2156281,51.5086649],[-0.2170404,51.5045003],[-0.2037618,51.5076814],[-0.2030874,51.5078654],[-0.2041647,51.5132077]]],"type":"Polygon"},"id":"E02000583","properties":{"code":"E02000583","geography":"MSOA","name":"Kensington and Chelsea 007"},"type":"Feature"},{"geometry":{"coordinates":[[[-0.1842616,51.501793],[-0.1879349,51.510179],[-0.1921448,51.5098682],[-0.2030874,51.5078654],[-0.2037618,51.5076814],[-0.2008282,51.5025108],[-0.1934841,51.5009125],[-0.1842616,51.501793]]],"type":"Polygon"},"id":"E02000584","properties":{"code":"E02000584","geography":"MSOA","name":"Kensington and Chelsea 008"},"type":"Feature"},{"geometry":{"coordinates":[[[-0.2008282,51.5025108],[-0.2037618,51.5076814],[-0.2170404,51.5045003],[-0.21409,51.5006825],[-0.209923,51.4977781],[-0.2073884,51.4961471],[-0.2026277,51.4978227],[-0.2008282,51.5025108]]],"type":"Polygon"},"id":"E02000585","properties":{"code":"E02000585","geography":"MSOA","name":"Kensington and Chelsea 009"},"type":"Feature"},{"geometry":{"coordinates":[[[-0.1795709,51.4977786],[-0.1842616,51.501793],[-0.1934841,51.5009125],[-0.1911001,51.4981426],[-0.183808,51.4949938],[-0.1790631,51.4953437],[-0.1795709,51.4977786]]],"type":"Polygon"},"id":"E02000586","properties":{"code":"E02000586","geography":"MSOA","name":"Kensington and Chelsea 010"},"type":"Feature"},{"geometry":{"coordinates":[[[-0.1934841,51.5009125],[-0.2008282,51.5025108],[-0.2026277,51.4978227],[-0.2022364,51.4942833],[-0.1944246,51.4947141],[-0.1911001,51.4981426],[-0.1934841,51.5009125]]],"type":"Polygon"},"id":"E02000587","properties":{"code":"E02000587","geography":"MSOA","name":"Kensington and Chelsea 011"},"type":"Feature"},{"geometry":{"coordinates":[[[-0.1559903,51.4932005],[-0.1584753,51.5022488],[-0.1741181,51.4981802],[-0.1739024,51.4971102],[-0.1666291,51.496107],[-0.1689937,51.4935359],[-0.1609203,51.4910193],[-0.1559903,51.4932005]]],"type":"Polygon"},"id":"E02000588","properties":{"code":"E02000588","geography":"MSOA","name":"Kensington and Chelsea 012"},"type":"Feature"},{"geometry":{"coordinates":[[[-0.183808,51.4949938],[-0.1911001,51.4981426],[-0.1944246,51.4947141],[-0.19285,51.491965],[-0.1866561,51.4913082],[-0.183808,51.4949938]]],"type":"Polygon"},"id":"E02000589","properties":{"code":"E02000589","geography":"MSOA","name":"Kensington and Chelsea 013"},"type":"Feature"},{"geometry":{"coordinates":[[[-0.1609203,51.4910193],[-0.1689937,51.4935359],[-0.1666291,51.496107],[-0.1739024,51.4971102],[-0.1762298,51.493825],[-0.1717615,51.4918281],[-0.1650299,51.488999],[-0.1609203,51.4910193]]],"type":"Polygon"},"id":"E02000590","properties":{"code":"E02000590","geography":"MSOA","name":"Kensington and Chelsea 014"},"type":"Feature"},{"geometry":{"coordinates":[[[-0.1944246,51.4947141],[-0.2022364,51.4942833],[-0.2026277,51.4978227],[-0.2073884,51.4961471],[-0.2024079,51.4916858],[-0.1997142,51.4894075],[-0.19285,51.491965],[-0.1944246,51.4947141]]],"type":"Polygon"},"id":"E02000591","properties":{"code":"E02000591","geography":"MSOA","name":"Kensington and Chelsea 015"},"type":"Feature"},{"geometry":{"coordinates":[[[-0.1739024,51.4971102],[-0.1741181,51.4981802],[-0.1795709,51.4977786],[-0.1790631,51.4953437],[-0.183808,51.4949938],[-0.1866561,51.4913082],[-0.182115,51.4896463],[-0.1756628,51.4893762],[-0.1717615,51.4918281],[-0.1762298,51.493825],[-0.1739024,51.4971102]]],"type":"Polygon"},"id":"E02000592","properties":{"code":"E02000592","geography":"MSOA","name":"Kensington and Chelsea 016"},"type":"Feature"},{"geometry":{"coordinates":[[[-0.1866561,51.4913082],[-0.19285,51.491965],[-0.1997142,51.4894075],[-0.1964504,51.4872047],[-0.1925703,51.4848241],[-0.1861676,51.4846453],[-0.1890949,51.4881915],[-0.182115,51.4896463],[-0.1866561,51.4913082]]],"type":"Polygon"},"id":"E02000593","properties":{"code":"E02000593","geography":"MSOA","name":"Kensington and Chelsea 017"},"type":"Feature"},{"geometry":{"coordinates":[[[-0.1556987,51.4910503],[-0.1559903,51.4932005],[-0.1609203,51.4910193],[-0.1650299,51.488999],[-0.1701337,51.4869552],[-0.1669905,51.4826661],[-0.1643691,51.4834801],[-0.1638297,51.4836476],[-0.1506069,51.4854041],[-0.1500038,51.4854842],[-0.1493875,51.4854494],[-0.1492208,51.4857741],[-0.1495373,51.485796],[-0.1556987,51.4910503]]],"type":"Polygon"},"id":"E02000594","properties":{"code":"E02000594","geography":"MSOA","name":"Kensington and Chelsea 018"},"type":"Feature"},{"geometry":{"coordinates":[[[-0.1650299,51.488999],[-0.1717615,51.4918281],[-0.1756628,51.4893762],[-0.1814261,51.4831539],[-0.1709765,51.481671],[-0.1692478,51.481965],[-0.1669905,51.4826661],[-0.1701337,51.4869552],[-0.1650299,51.488999]]],"type":"Polygon"},"id":"E02000595","properties":{"code":"E02000595","geography":"MSOA","name":"Kensington and Chelsea 019"},"type":"Feature"},{"geometry":{"coordinates":[[[-0.1756628,51.4893762],[-0.182115,51.4896463],[-0.1890949,51.4881915],[-0.1861676,51.4846453],[-0.1925703,51.4848241],[-0.1907964,51.4831644],[-0.1882813,51.4809605],[-0.1814261,51.4831539],[-0.1756628,51.4893762]]],"type":"Polygon"},"id":"E02000596","properties":{"code":"E02000596","geography":"MSOA","name":"Kensington and Chelsea 020"},"type":"Feature"},{"geometry":{"coordinates":[[[-0.1709765,51.481671],[-0.1814261,51.4831539],[-0.1882813,51.4809605],[-0.1853776,51.4786039],[-0.1817004,51.4780963],[-0.1718112,51.4811688],[-0.1709765,51.481671]]],"type":"Polygon"},"id":"E02000597","properties":{"code":"E02000597","geography":"MSOA","name":"Kensington and Chelsea 021"},"type":"Feature"}],"type":"FeatureCollection"}
