{"features":[{"geometry":{"coordinates":[[[-0.1604879,51.5372813],[-0.1649616,51.5357796],[-0.1757061,51.5396086],[-0.1789783,51.5341084],[-0.1670089,51.5317496],[-0.1612413,51.5360567],[-0.1586878,51.5302923],[-0.1505706,51.532626],[-0.1527332,51.5375194],[-0.1604879,51.5372813]]],"type":"Polygon"},"id":"E02000960","properties":{"code":"E02000960","geography":"MSOA","name":"Westminster 001"},"type":"Feature"},{"geometry":{"coordinates":[[[-0.1757061,51.5396086],[-0.1783593,51.5397926],[-0.1887732,51.5345232],[-0.1914835,51.5362891],[-0.1930086,51.5319829],[-0.187047,51.5300094],[-0.1814552,51.5283941],[-0.1775881,51.5301769],[-0.1789783,51.5341084],[-0.1757061,51.5396086]]],"type":"Polygon"},"id":"E02000961","properties":{"code":"E02000961","geography":"MSOA","name":"Westminster 002"},"type":"Feature"},{"geometry":{"coordinates":[[[-0.1670089,51.5317496],[-0.1789783,51.5341084],[-0.1775881,51.5301769],[-0.1814552,51.5283941],[-0.1768486,51.524625],[-0.1655582,51.5268851],[-0.1670089,51.5317496]]],"type":"Polygon"},"id":"E02000962","properties":{"code":"E02000962","geography":"MSOA","name":"Westminster 003"},"type":"Feature"},{"geometry":{"coordinates":[[[-0.2073059,51.526268],[-0.2014793,51.5289411],[-0.2107406,51.5320431],[-0.2160301,51.5279282],[-0.2073059,51.526268]]],"type":"Polygon"},"id":"E02000963","properties":{"code":"E02000963","geography":"MSOA","name":"Westminster 004"},"type":"Feature"},{"geometry":{"coordinates":[[[-0.1965689,51.527653],[-0.2031166,51.5329075],[-0.2107406,51.5320431],[-0.2014793,51.5289411],[-0.2073059,51.526268],[-0.2015845,51.5227437],[-0.1976603,51.5234326],[-0.1938894,51.5266223],[-0.1965689,51.527653]]],"type":"Polygon"},"id":"E02000964","properties":{"code":"E02000964","geography":"MSOA","name":"Westminster 005"},"type":"Feature"},{"geometry":{"coordinates":[[[-0.187047,51.5300094],[-0.1930086,51.5319829],[-0.1965689,51.527653],[-0.1938894,51.5266223],[-0.1976603,51.5234326],[-0.1890704,51.5243252],[-0.1846483,51.5272199],[-0.187047,51.5300094]]],"type":"Polygon"},"id":"E02000965","properties":{"code":"E02000965","geography":"MSOA","name":"Westminster 006"},"type":"Feature"},{"geometry":{"coordinates":[[[-0.1814552,51.5283941],[-0.187047,51.5300094],[-0.1846483,51.5272199],[-0.1890704,51.5243252],[-0.180959,51.5207938],[-0.1768486,51.524625],[-0.1814552,51.5283941]]],"type":"Polygon"},"id":"E02000966","properties":{"code":"E02000966","geography":"MSOA","name":"Westminster 007"},"type":"Feature"},{"geometry":{"coordinates":[[[-0.1505706,51.532626],[-0.1586878,51.5302923],[-0.1612413,51.5360567],[-0.1670089,51.5317496],[-0.1655582,51.5268851],[-0.1652191,51.5223333],[-0.1602256,51.5251144],[-0.1580916,51.5182495],[-0.1529912,51.524046],[-0.1471965,51.5250414],[-0.1505706,51.532626]]],"type":"Polygon"},"id":"E02000967","properties":{"code":"E02000967","geography":"MSOA","name":"Westminster 008"},"type":"Feature"},{"geometry":{"coordinates":[[[-0.1652191,51.5223333],[-0.1655582,51.5268851],[-0.1768486,51.524625],[-0.180959,51.5207938],[-0.179992,51.5200954],[-0.1786697,51.5200819],[-0.1701905,51.5199451],[-0.1652191,51.5223333]]],"type":"Polygon"},"id":"E02000968","properties":{"code":"E02000968","geography":"MSOA","name":"Westminster 009"},"type":"Feature"},{"geometry":{"coordinates":[[[-0.180959,51.5207938],[-0.1890704,51.5243252],[-0.1976603,51.5234326],[-0.2015845,51.5227437],[-0.2036766,51.5205837],[-0.2030397,51.5195572],[-0.1850466,51.5195241],[-0.179992,51.5200954],[-0.180959,51.5207938]]],"type":"Polygon"},"id":"E02000969","properties":{"code":"E02000969","geography":"MSOA","name":"Westminster 010"},"type":"Feature"},{"geometry":{"coordinates":[[[-0.1452165,51.524031],[-0.1471965,51.5250414],[-0.1529912,51.524046],[-0.1580916,51.5182495],[-0.1583861,51.513413],[-0.1509527,51.5053844],[-0.1512106,51.5109088],[-0.1546354,51.5108272],[-0.1483473,51.5126802],[-0.1507315,51.5142207],[-0.1430423,51.5208006],[-0.1452165,51.524031]]],"type":"Polygon"},"id":"E02000970","properties":{"code":"E02000970","geography":"MSOA","name":"Westminster 011"},"type":"Feature"},{"geometry":{"coordinates":[[[-0.1580916,51.5182495],[-0.1602256,51.5251144],[-0.1652191,51.5223333],[-0.1701905,51.5199451],[-0.1601928,51.5131854],[-0.1583861,51.513413],[-0.1580916,51.5182495]]],"type":"Polygon"},"id":"E02000971","properties":{"code":"E02000971","geography":"MSOA","name":"Westminster 012"},"type":"Feature"},{"geometry":{"coordinates":[[[-0.143522,51.5239482],[-0.1452165,51.524031],[-0.1430423,51.5208006],[-0.1507315,51.5142207],[-0.1483473,51.5126802],[-0.1393796,51.5082967],[-0.1290107,51.5134377],[-0.1308446,51.517098],[-0.143522,51.5239482]]],"type":"Polygon"},"id":"E02000972","properties":{"code":"E02000972","geography":"MSOA","name":"Westminster 013"},"type":"Feature"},{"geometry":{"coordinates":[[[-0.1821735,51.5175397],[-0.1850466,51.5195241],[-0.2030397,51.5195572],[-0.1992103,51.5145515],[-0.1943683,51.5127127],[-0.1888915,51.5176577],[-0.1821735,51.5175397]]],"type":"Polygon"},"id":"E02000973","properties":{"code":"E02000973","geography":"MSOA","name":"Westminster 014"},"type":"Feature"},{"geometry":{"coordinates":[[[-0.1701905,51.5199451],[-0.1786697,51.5200819],[-0.1745776,51.5117702],[-0.1601928,51.5131854],[-0.1701905,51.5199451]]],"type":"Polygon"},"id":"E02000974","properties":{"code":"E02000974","geography":"MSOA","name":"Westminster 015"},"type":"Feature"},{"geometry":{"coordinates":[[[-0.1745776,51.5117702],[-0.1786697,51.5200819],[-0.179992,51.5200954],[-0.1850466,51.5195241],[-0.1821735,51.5175397],[-0.1833727,51.5150984],[-0.1874696,51.5160982],[-0.1828007,51.5105501],[-0.1745776,51.5117702]]],"type":"Polygon"},"id":"E02000975","properties":{"code":"E02000975","geography":"MSOA","name":"Westminster 016"},"type":"Feature"},{"geometry":{"coordinates":[[[-0.1821735,51.5175397],[-0.1888915,51.5176577],[-0.1943683,51.5127127],[-0.1921448,51.5098682],[-0.1879349,51.510179],[-0.1828007,51.5105501],[-0.1874696,51.5160982],[-0.1833727,51.5150984],[-0.1821735,51.5175397]]],"type":"Polygon"},"id":"E02000976","properties":{"code":"E02000976","geography":"MSOA","name":"Westminster 017"},"type":"Feature"},{"geometry":{"coordinates":[[[-0.1114773,51.5107567],[-0.1115532,51.5152228],[-0.1290107,51.5134377],[-0.1393796,51.5082967],[-0.1483473,51.5126802],[-0.1546354,51.5108272],[-0.1512106,51.5109088],[-0.1509527,51.5053844],[-0.1516237,51.5018602],[-0.1466271,51.5023628],[-0.1403809,51.4984181],[-0.1360782,51.5004951],[-0.1401481,51.5020382],[-0.1261544,51.5021122],[-0.1231554,51.5077155],[-0.1206903,51.5076413],[-0.1115193,51.5107559],[-0.1114773,51.5107567]]],"type":"Polygon"},"id":"E02000977","properties":{"code":"E02000977","geography":"MSOA","name":"Westminster 018"},"type":"Feature"},{"geometry":{"coordinates":[[[-0.1509527,51.5053844],[-0.1583861,51.513413],[-0.1601928,51.5131854],[-0.1745776,51.5117702],[-0.1828007,51.5105501],[-0.1879349,51.510179],[-0.1842616,51.501793],[-0.1795709,51.4977786],[-0.1741181,51.4981802],[-0.1584753,51.5022488],[-0.1559903,51.4932005],[-0.1556987,51.4910503],[-0.1463081,51.4972322],[-0.1516237,51.5018602],[-0.1509527,51.5053844]]],"type":"Polygon"},"id":"E02000978","properties":{"code":"E02000978","geography":"MSOA","name":"Westminster 019"},"type":"Feature"},{"geometry":{"coordinates":[[[-0.1206903,51.5076413],[-0.1231554,51.5077155],[-0.1261544,51.5021122],[-0.1401481,51.5020382],[-0.1360782,51.5004951],[-0.1403809,51.4984181],[-0.1466271,51.5023628],[-0.1516237,51.5018602],[-0.1463081,51.4972322],[-0.1412608,51.4945548],[-0.1381593,51.492811],[-0.1249259,51.4942906],[-0.124882,51.4943654],[-0.1246818,51.4947067],[-0.1222901,51.5038939],[-0.1213748,51.5074088],[-0.1206903,51.5076413]]],"type":"Polygon"},"id":"E02000979","properties":{"code":"E02000979","geography":"MSOA","name":"Westminster 020"},"type":"Feature"},{"geometry":{"coordinates":[[[-0.1288707,51.4881014],[-0.128474,51.4882414],[-0.1249259,51.4942906],[-0.1381593,51.492811],[-0.1356315,51.4898446],[-0.1288707,51.4881014]]],"type":"Polygon"},"id":"E02000980","properties":{"code":"E02000980","geography":"MSOA","name":"Westminster 021"},"type":"Feature"},{"geometry":{"coordinates":[[[-0.1381593,51.492811],[-0.1412608,51.4945548],[-0.1469461,51.491094],[-0.1429161,51.4875756],[-0.1356315,51.4898446],[-0.1381593,51.492811]]],"type":"Polygon"},"id":"E02000981","properties":{"code":"E02000981","geography":"MSOA","name":"Westminster 022"},"type":"Feature"},{"geometry":{"coordinates":[[[-0.1412608,51.4945548],[-0.1463081,51.4972322],[-0.1556987,51.4910503],[-0.1495373,51.485796],[-0.1492208,51.4857741],[-0.1418854,51.4854388],[-0.1429161,51.4875756],[-0.1469461,51.491094],[-0.1412608,51.4945548]]],"type":"Polygon"},"id":"E02000982","properties":{"code":"E02000982","geography":"MSOA","name":"Westminster 023"},"type":"Feature"},{"geometry":{"coordinates":[[[-0.1288707,51.4881014],[-0.1356315,51.4898446],[-0.1429161,51.4875756],[-0.1418854,51.4854388],[-0.1492208,51.4857741],[-0.1493875,51.4854494],[-0.1423838,51.4850537],[-0.1363742,51.4854521],[-0.1288707,51.4881014]]],"type":"Polygon"},"id":"E02000983","properties":{"code":"E02000983","geography":"MSOA","name":"Westminster 024"},"type":"Feature"}],"type":"FeatureCollection"}
