{"features":[{"geometry":{"coordinates":[[[-0.026954,51.6821069],[-0.0420436,51.6830941],[-0.0437764,51.6742597],[-0.0378515,51.6743428],[-0.0376621,51.6719453],[-0.0278963,51.6759421],[-0.026954,51.6821069]]],"type":"Polygon"},"id":"E02000277","properties":{"code":"E02000277","geography":"MSOA","name":"Enfield 001"},"type":"Feature"},{"geometry":{"coordinates":[[[-0.0420436,51.6830941],[-0.0489558,51.6840464],[-0.0541253,51.6714456],[-0.0462661,51.6666686],[-0.0362202,51.6690012],[-0.0376621,51.6719453],[-0.0378515,51.6743428],[-0.0437764,51.6742597],[-0.0420436,51.6830941]]],"type":"Polygon"},"id":"E02000278","properties":{"code":"E02000278","geography":"MSOA","name":"Enfield 002"},"type":"Feature"},{"geometry":{"coordinates":[[[-0.0119449,51.6808751],[-0.026954,51.6821069],[-0.0278963,51.6759421],[-0.0376621,51.6719453],[-0.0362202,51.6690012],[-0.0316714,51.6684021],[-0.0271553,51.6662089],[-0.0098578,51.6617685],[-0.0102876,51.6764839],[-0.0119449,51.6808751]]],"type":"Polygon"},"id":"E02000279","properties":{"code":"E02000279","geography":"MSOA","name":"Enfield 003"},"type":"Feature"},{"geometry":{"coordinates":[[[-0.0778694,51.6884263],[-0.1058047,51.6918728],[-0.1493952,51.6855147],[-0.1635181,51.6881115],[-0.1635282,51.6859192],[-0.1489293,51.681554],[-0.1524735,51.6669106],[-0.127258,51.6667689],[-0.1131982,51.6653724],[-0.1073462,51.6727366],[-0.0963956,51.6648265],[-0.0782863,51.6621021],[-0.0773441,51.6629391],[-0.0804203,51.6684824],[-0.0739954,51.6662958],[-0.0728454,51.6753338],[-0.0550936,51.6690072],[-0.0541253,51.6714456],[-0.0489558,51.6840464],[-0.0620444,51.6830053],[-0.0778694,51.6884263]]],"type":"Polygon"},"id":"E02000280","properties":{"code":"E02000280","geography":"MSOA","name":"Enfield 004"},"type":"Feature"},{"geometry":{"coordinates":[[[-0.0550936,51.6690072],[-0.0728454,51.6753338],[-0.0739954,51.6662958],[-0.0804203,51.6684824],[-0.0773441,51.6629391],[-0.0737143,51.6658193],[-0.069917,51.6630569],[-0.0684681,51.6654491],[-0.0635256,51.6615316],[-0.0606317,51.6584177],[-0.0562935,51.6555956],[-0.0574206,51.6582838],[-0.0531179,51.6595257],[-0.0550936,51.6690072]]],"type":"Polygon"},"id":"E02000281","properties":{"code":"E02000281","geography":"MSOA","name":"Enfield 005"},"type":"Feature"},{"geometry":{"coordinates":[[[-0.0362202,51.6690012],[-0.0462661,51.6666686],[-0.0541253,51.6714456],[-0.0550936,51.6690072],[-0.0531179,51.6595257],[-0.048354,51.659361],[-0.0457609,51.6552096],[-0.0425772,51.6565475],[-0.0441114,51.6640814],[-0.0356227,51.6640326],[-0.0316714,51.6684021],[-0.0362202,51.6690012]]],"type":"Polygon"},"id":"E02000282","properties":{"code":"E02000282","geography":"MSOA","name":"Enfield 006"},"type":"Feature"},{"geometry":{"coordinates":[[[-0.0271553,51.6662089],[-0.0316714,51.6684021],[-0.0356227,51.6640326],[-0.0441114,51.6640814],[-0.0425772,51.6565475],[-0.0310702,51.6537525],[-0.0271553,51.6662089]]],"type":"Polygon"},"id":"E02000283","properties":{"code":"E02000283","geography":"MSOA","name":"Enfield 007"},"type":"Feature"},{"geometry":{"coordinates":[[[-0.0782863,51.6621021],[-0.0963956,51.6648265],[-0.1042523,51.6633996],[-0.097501,51.6621622],[-0.097528,51.6592713],[-0.0921779,51.6606898],[-0.0905857,51.6536035],[-0.0859048,51.6522906],[-0.078045,51.6524299],[-0.0827373,51.6555436],[-0.0740301,51.6577965],[-0.0782863,51.6621021]]],"type":"Polygon"},"id":"E02000284","properties":{"code":"E02000284","geography":"MSOA","name":"Enfield 008"},"type":"Feature"},{"geometry":{"coordinates":[[[-0.0635256,51.6615316],[-0.0684681,51.6654491],[-0.069917,51.6630569],[-0.0737143,51.6658193],[-0.0773441,51.6629391],[-0.0782863,51.6621021],[-0.0740301,51.6577965],[-0.0827373,51.6555436],[-0.078045,51.6524299],[-0.0738041,51.6521943],[-0.0635256,51.6615316]]],"type":"Polygon"},"id":"E02000285","properties":{"code":"E02000285","geography":"MSOA","name":"Enfield 009"},"type":"Feature"},{"geometry":{"coordinates":[[[-0.0963956,51.6648265],[-0.1073462,51.6727366],[-0.1131982,51.6653724],[-0.1075728,51.6584965],[-0.101588,51.6583204],[-0.1014243,51.6549957],[-0.1073543,51.653604],[-0.095806,51.6488715],[-0.0858632,51.6517751],[-0.0859048,51.6522906],[-0.0905857,51.6536035],[-0.0921779,51.6606898],[-0.097528,51.6592713],[-0.097501,51.6621622],[-0.1042523,51.6633996],[-0.0963956,51.6648265]]],"type":"Polygon"},"id":"E02000286","properties":{"code":"E02000286","geography":"MSOA","name":"Enfield 010"},"type":"Feature"},{"geometry":{"coordinates":[[[-0.127258,51.6667689],[-0.1524735,51.6669106],[-0.1489293,51.681554],[-0.1635282,51.6859192],[-0.1724982,51.6730879],[-0.1764109,51.6726417],[-0.1821101,51.6686008],[-0.1854501,51.6635366],[-0.1637882,51.6581763],[-0.1547878,51.6555309],[-0.149921,51.6487918],[-0.1521681,51.6458223],[-0.1449871,51.6424804],[-0.1425718,51.6454634],[-0.1350661,51.644331],[-0.1357364,51.6524933],[-0.1256483,51.654803],[-0.1262613,51.6592939],[-0.1211343,51.6616036],[-0.1249541,51.6616716],[-0.127258,51.6667689]]],"type":"Polygon"},"id":"E02000287","properties":{"code":"E02000287","geography":"MSOA","name":"Enfield 011"},"type":"Feature"},{"geometry":{"coordinates":[[[-0.0457609,51.6552096],[-0.048354,51.659361],[-0.0531179,51.6595257],[-0.0574206,51.6582838],[-0.0562935,51.6555956],[-0.0606317,51.6584177],[-0.0681693,51.6520485],[-0.0617334,51.6517293],[-0.0624465,51.646639],[-0.0602852,51.6493998],[-0.0524079,51.6488717],[-0.0538901,51.6443339],[-0.0397756,51.6426386],[-0.0425588,51.6479515],[-0.0377617,51.6474628],[-0.0352314,51.6508605],[-0.0424927,51.6511917],[-0.0457609,51.6552096]]],"type":"Polygon"},"id":"E02000288","properties":{"code":"E02000288","geography":"MSOA","name":"Enfield 012"},"type":"Feature"},{"geometry":{"coordinates":[[[-0.1131982,51.6653724],[-0.127258,51.6667689],[-0.1249541,51.6616716],[-0.1211343,51.6616036],[-0.1262613,51.6592939],[-0.1256483,51.654803],[-0.1248586,51.6473997],[-0.1302982,51.6479686],[-0.1273437,51.6433241],[-0.1161576,51.6433469],[-0.1188648,51.6461374],[-0.113167,51.648029],[-0.1092399,51.6477934],[-0.109557,51.6440086],[-0.095806,51.6488715],[-0.1073543,51.653604],[-0.1014243,51.6549957],[-0.101588,51.6583204],[-0.1075728,51.6584965],[-0.1131982,51.6653724]]],"type":"Polygon"},"id":"E02000289","properties":{"code":"E02000289","geography":"MSOA","name":"Enfield 013"},"type":"Feature"},{"geometry":{"coordinates":[[[-0.0098578,51.6617685],[-0.0271553,51.6662089],[-0.0310702,51.6537525],[-0.0425772,51.6565475],[-0.0457609,51.6552096],[-0.0424927,51.6511917],[-0.0352314,51.6508605],[-0.0377617,51.6474628],[-0.0425588,51.6479515],[-0.0397756,51.6426386],[-0.0369648,51.6383823],[-0.0297777,51.6373628],[-0.0269406,51.6401323],[-0.0147945,51.6367351],[-0.0122855,51.6462287],[-0.0098578,51.6617685]]],"type":"Polygon"},"id":"E02000290","properties":{"code":"E02000290","geography":"MSOA","name":"Enfield 014"},"type":"Feature"},{"geometry":{"coordinates":[[[-0.0790052,51.6426655],[-0.0820571,51.651403],[-0.0858632,51.6517751],[-0.095806,51.6488715],[-0.109557,51.6440086],[-0.1106947,51.6383147],[-0.0929333,51.6409023],[-0.0907646,51.6365341],[-0.08484,51.6358467],[-0.0862867,51.6403178],[-0.0790052,51.6426655]]],"type":"Polygon"},"id":"E02000293","properties":{"code":"E02000293","geography":"MSOA","name":"Enfield 017"},"type":"Feature"},{"geometry":{"coordinates":[[[-0.0397756,51.6426386],[-0.0538901,51.6443339],[-0.0569488,51.6414712],[-0.0520921,51.6408563],[-0.0507221,51.6372545],[-0.0443401,51.6326571],[-0.0318976,51.6315025],[-0.0152759,51.6356714],[-0.0147945,51.6367351],[-0.0269406,51.6401323],[-0.0297777,51.6373628],[-0.0369648,51.6383823],[-0.0397756,51.6426386]]],"type":"Polygon"},"id":"E02000294","properties":{"code":"E02000294","geography":"MSOA","name":"Enfield 018"},"type":"Feature"},{"geometry":{"coordinates":[[[-0.109557,51.6440086],[-0.1092399,51.6477934],[-0.113167,51.648029],[-0.1188648,51.6461374],[-0.1161576,51.6433469],[-0.1273437,51.6433241],[-0.1324003,51.6414686],[-0.1276122,51.6369611],[-0.130913,51.6361579],[-0.1236818,51.631478],[-0.1184733,51.6306937],[-0.1106947,51.6383147],[-0.109557,51.6440086]]],"type":"Polygon"},"id":"E02000295","properties":{"code":"E02000295","geography":"MSOA","name":"Enfield 019"},"type":"Feature"},{"geometry":{"coordinates":[[[-0.1273437,51.6433241],[-0.1302982,51.6479686],[-0.1248586,51.6473997],[-0.1256483,51.654803],[-0.1357364,51.6524933],[-0.1350661,51.644331],[-0.1425718,51.6454634],[-0.1449871,51.6424804],[-0.1423211,51.6393128],[-0.1291629,51.6322679],[-0.1308959,51.6300033],[-0.1244236,51.6265268],[-0.1236818,51.631478],[-0.130913,51.6361579],[-0.1276122,51.6369611],[-0.1324003,51.6414686],[-0.1273437,51.6433241]]],"type":"Polygon"},"id":"E02000296","properties":{"code":"E02000296","geography":"MSOA","name":"Enfield 020"},"type":"Feature"},{"geometry":{"coordinates":[[[-0.0681813,51.6401924],[-0.0790052,51.6426655],[-0.0862867,51.6403178],[-0.08484,51.6358467],[-0.0907646,51.6365341],[-0.0946058,51.6316386],[-0.0848626,51.6321691],[-0.0831814,51.628176],[-0.0782309,51.6298467],[-0.0738666,51.6318415],[-0.0660263,51.6376091],[-0.0701647,51.637445],[-0.0681813,51.6401924]]],"type":"Polygon"},"id":"E02000297","properties":{"code":"E02000297","geography":"MSOA","name":"Enfield 021"},"type":"Feature"},{"geometry":{"coordinates":[[[-0.0907646,51.6365341],[-0.0929333,51.6409023],[-0.1106947,51.6383147],[-0.1184733,51.6306937],[-0.1141555,51.627646],[-0.1060297,51.6252399],[-0.1036054,51.6307946],[-0.0993917,51.6258901],[-0.0992615,51.6300433],[-0.0946058,51.6316386],[-0.0907646,51.6365341]]],"type":"Polygon"},"id":"E02000298","properties":{"code":"E02000298","geography":"MSOA","name":"Enfield 022"},"type":"Feature"},{"geometry":{"coordinates":[[[-0.0443401,51.6326571],[-0.0507221,51.6372545],[-0.0590919,51.6364377],[-0.0603208,51.6326214],[-0.0557029,51.6316182],[-0.0608918,51.6309959],[-0.0612692,51.6263678],[-0.0604305,51.6263177],[-0.0455033,51.6287931],[-0.0443401,51.6326571]]],"type":"Polygon"},"id":"E02000299","properties":{"code":"E02000299","geography":"MSOA","name":"Enfield 023"},"type":"Feature"},{"geometry":{"coordinates":[[[-0.0603208,51.6326214],[-0.0620814,51.636405],[-0.0648646,51.6353958],[-0.0623439,51.6383115],[-0.0660263,51.6376091],[-0.0738666,51.6318415],[-0.0699722,51.6271197],[-0.0621386,51.6252817],[-0.0612692,51.6263678],[-0.0608918,51.6309959],[-0.0557029,51.6316182],[-0.0603208,51.6326214]]],"type":"Polygon"},"id":"E02000300","properties":{"code":"E02000300","geography":"MSOA","name":"Enfield 024"},"type":"Feature"},{"geometry":{"coordinates":[[[-0.0218473,51.627367],[-0.0152759,51.6356714],[-0.0318976,51.6315025],[-0.0443401,51.6326571],[-0.0455033,51.6287931],[-0.0604305,51.6263177],[-0.0553753,51.6268299],[-0.052921,51.6221566],[-0.0314381,51.6189568],[-0.0258968,51.6218598],[-0.0218473,51.627367]]],"type":"Polygon"},"id":"E02000301","properties":{"code":"E02000301","geography":"MSOA","name":"Enfield 025"},"type":"Feature"},{"geometry":{"coordinates":[[[-0.0782309,51.6298467],[-0.0831814,51.628176],[-0.0848626,51.6321691],[-0.0946058,51.6316386],[-0.0992615,51.6300433],[-0.0993917,51.6258901],[-0.1004475,51.6172294],[-0.0998578,51.6170448],[-0.0904281,51.6180068],[-0.0899111,51.6234471],[-0.0827255,51.6217801],[-0.078664,51.6293047],[-0.0782309,51.6298467]]],"type":"Polygon"},"id":"E02000302","properties":{"code":"E02000302","geography":"MSOA","name":"Enfield 026"},"type":"Feature"},{"geometry":{"coordinates":[[[-0.0621386,51.6252817],[-0.0699722,51.6271197],[-0.0738666,51.6318415],[-0.0782309,51.6298467],[-0.078664,51.6293047],[-0.0724549,51.6172567],[-0.068481,51.614653],[-0.0634523,51.6174787],[-0.0619478,51.6225367],[-0.0659429,51.6220932],[-0.0621386,51.6252817]]],"type":"Polygon"},"id":"E02000303","properties":{"code":"E02000303","geography":"MSOA","name":"Enfield 027"},"type":"Feature"},{"geometry":{"coordinates":[[[-0.1184733,51.6306937],[-0.1236818,51.631478],[-0.1244236,51.6265268],[-0.1308959,51.6300033],[-0.1342971,51.6240805],[-0.1300911,51.6219635],[-0.1320144,51.6159345],[-0.1247343,51.6158538],[-0.1239531,51.6135478],[-0.1171905,51.6164092],[-0.121356,51.6203586],[-0.1237998,51.6183539],[-0.1227963,51.620827],[-0.1149138,51.6219773],[-0.1141555,51.627646],[-0.1184733,51.6306937]]],"type":"Polygon"},"id":"E02000304","properties":{"code":"E02000304","geography":"MSOA","name":"Enfield 028"},"type":"Feature"},{"geometry":{"coordinates":[[[-0.0993917,51.6258901],[-0.1036054,51.6307946],[-0.1060297,51.6252399],[-0.1141555,51.627646],[-0.1149138,51.6219773],[-0.1078433,51.6170074],[-0.1004475,51.6172294],[-0.0993917,51.6258901]]],"type":"Polygon"},"id":"E02000305","properties":{"code":"E02000305","geography":"MSOA","name":"Enfield 029"},"type":"Feature"},{"geometry":{"coordinates":[[[-0.0258968,51.6218598],[-0.0314381,51.6189568],[-0.052921,51.6221566],[-0.0553753,51.6268299],[-0.0604305,51.6263177],[-0.0612692,51.6263678],[-0.0621386,51.6252817],[-0.0659429,51.6220932],[-0.0619478,51.6225367],[-0.0634523,51.6174787],[-0.0542714,51.6191802],[-0.0506525,51.6166883],[-0.0522301,51.6148129],[-0.0570848,51.6173532],[-0.0574715,51.6150658],[-0.0478668,51.6114396],[-0.0354529,51.6127997],[-0.0259956,51.6217663],[-0.0258968,51.6218598]]],"type":"Polygon"},"id":"E02000306","properties":{"code":"E02000306","geography":"MSOA","name":"Enfield 030"},"type":"Feature"},{"geometry":{"coordinates":[[[-0.0724549,51.6172567],[-0.078664,51.6293047],[-0.0827255,51.6217801],[-0.0899111,51.6234471],[-0.0904281,51.6180068],[-0.0998578,51.6170448],[-0.0826889,51.6157707],[-0.0724549,51.6172567]]],"type":"Polygon"},"id":"E02000307","properties":{"code":"E02000307","geography":"MSOA","name":"Enfield 031"},"type":"Feature"},{"geometry":{"coordinates":[[[-0.1239531,51.6135478],[-0.1247343,51.6158538],[-0.1320144,51.6159345],[-0.1300911,51.6219635],[-0.1342971,51.6240805],[-0.1354309,51.6222119],[-0.1445372,51.6154838],[-0.1387867,51.6101925],[-0.1264721,51.6093429],[-0.1239531,51.6135478]]],"type":"Polygon"},"id":"E02000308","properties":{"code":"E02000308","geography":"MSOA","name":"Enfield 032"},"type":"Feature"},{"geometry":{"coordinates":[[[-0.0354529,51.6127997],[-0.0478668,51.6114396],[-0.0574715,51.6150658],[-0.0570848,51.6173532],[-0.0522301,51.6148129],[-0.0506525,51.6166883],[-0.0542714,51.6191802],[-0.0634523,51.6174787],[-0.068481,51.614653],[-0.0660489,51.608639],[-0.0655998,51.6085902],[-0.0414515,51.6056308],[-0.0340212,51.6094868],[-0.0354529,51.6127997]]],"type":"Polygon"},"id":"E02000309","properties":{"code":"E02000309","geography":"MSOA","name":"Enfield 033"},"type":"Feature"},{"geometry":{"coordinates":[[[-0.0998578,51.6170448],[-0.1004475,51.6172294],[-0.1078433,51.6170074],[-0.1034897,51.6144687],[-0.1092008,51.614309],[-0.1097675,51.6104631],[-0.102129,51.6084015],[-0.0991383,51.6084211],[-0.0897305,51.6087956],[-0.088991,51.6116654],[-0.08152,51.6097437],[-0.0826889,51.6157707],[-0.0998578,51.6170448]]],"type":"Polygon"},"id":"E02000311","properties":{"code":"E02000311","geography":"MSOA","name":"Enfield 035"},"type":"Feature"},{"geometry":{"coordinates":[[[-0.1078433,51.6170074],[-0.1149138,51.6219773],[-0.1227963,51.620827],[-0.1237998,51.6183539],[-0.121356,51.6203586],[-0.1171905,51.6164092],[-0.1239531,51.6135478],[-0.1264721,51.6093429],[-0.1264046,51.6093044],[-0.110413,51.6083049],[-0.102129,51.6084015],[-0.1097675,51.6104631],[-0.1092008,51.614309],[-0.1034897,51.6144687],[-0.1078433,51.6170074]]],"type":"Polygon"},"id":"E02000312","properties":{"code":"E02000312","geography":"MSOA","name":"Enfield 036"},"type":"Feature"},{"geometry":{"coordinates":[[[-0.068481,51.614653],[-0.0724549,51.6172567],[-0.0826889,51.6157707],[-0.08152,51.6097437],[-0.088991,51.6116654],[-0.0897305,51.6087956],[-0.0889412,51.6087355],[-0.0756271,51.6084525],[-0.0660489,51.608639],[-0.068481,51.614653]]],"type":"Polygon"},"id":"E02006793","properties":{"code":"E02006793","geography":"MSOA","name":"Enfield 037"},"type":"Feature"}],"type":"FeatureCollection"}
