{"features":[{"geometry":{"coordinates":[[[-0.3374765,51.557],[-0.3475566,51.5596837],[-0.3621363,51.5565676],[-0.3544145,51.5511098],[-0.3511233,51.5513513],[-0.3490114,51.5462496],[-0.3449559,51.5455544],[-0.3440487,51.5479371],[-0.3413449,51.5460186],[-0.3374765,51.557]]],"type":"Polygon"},"id":"E02000238","properties":{"code":"E02000238","geography":"MSOA","name":"Ealing 001"},"type":"Feature"},{"geometry":{"coordinates":[[[-0.3355846,51.5565833],[-0.3374765,51.557],[-0.3413449,51.5460186],[-0.3316027,51.5421721],[-0.3235199,51.5419094],[-0.3085761,51.5432392],[-0.3125578,51.5490208],[-0.3157212,51.5505322],[-0.3355846,51.5565833]]],"type":"Polygon"},"id":"E02000239","properties":{"code":"E02000239","geography":"MSOA","name":"Ealing 002"},"type":"Feature"},{"geometry":{"coordinates":[[[-0.3544145,51.5511098],[-0.3621363,51.5565676],[-0.3696002,51.5546254],[-0.3758611,51.5530613],[-0.3778948,51.5549444],[-0.3950053,51.5480075],[-0.374393,51.5417684],[-0.3734671,51.541464],[-0.3767076,51.5479928],[-0.3595413,51.5514333],[-0.3577708,51.5483842],[-0.3544145,51.5511098]]],"type":"Polygon"},"id":"E02000240","properties":{"code":"E02000240","geography":"MSOA","name":"Ealing 003"},"type":"Feature"},{"geometry":{"coordinates":[[[-0.3490114,51.5462496],[-0.3511233,51.5513513],[-0.3544145,51.5511098],[-0.3577708,51.5483842],[-0.3595413,51.5514333],[-0.3767076,51.5479928],[-0.3734671,51.541464],[-0.3658075,51.5398469],[-0.3610953,51.5444015],[-0.3490114,51.5462496]]],"type":"Polygon"},"id":"E02000241","properties":{"code":"E02000241","geography":"MSOA","name":"Ealing 004"},"type":"Feature"},{"geometry":{"coordinates":[[[-0.3074642,51.5330506],[-0.3047355,51.5398572],[-0.3085761,51.5432392],[-0.3235199,51.5419094],[-0.3176158,51.5367104],[-0.3126002,51.5386019],[-0.3135848,51.5344018],[-0.3074642,51.5330506]]],"type":"Polygon"},"id":"E02000242","properties":{"code":"E02000242","geography":"MSOA","name":"Ealing 005"},"type":"Feature"},{"geometry":{"coordinates":[[[-0.3413449,51.5460186],[-0.3440487,51.5479371],[-0.3449559,51.5455544],[-0.3490114,51.5462496],[-0.3610953,51.5444015],[-0.3658075,51.5398469],[-0.3562768,51.538122],[-0.3505538,51.5369933],[-0.3534964,51.5326432],[-0.347547,51.5344053],[-0.3449537,51.5322461],[-0.3455255,51.5274614],[-0.3441531,51.5274026],[-0.3278344,51.531053],[-0.327846,51.5336899],[-0.3327229,51.532059],[-0.3382228,51.5369646],[-0.3360769,51.5394273],[-0.3297725,51.5384096],[-0.3316027,51.5421721],[-0.3413449,51.5460186]]],"type":"Polygon"},"id":"E02000243","properties":{"code":"E02000243","geography":"MSOA","name":"Ealing 006"},"type":"Feature"},{"geometry":{"coordinates":[[[-0.3235199,51.5419094],[-0.3316027,51.5421721],[-0.3297725,51.5384096],[-0.3360769,51.5394273],[-0.3382228,51.5369646],[-0.3327229,51.532059],[-0.327846,51.5336899],[-0.3278344,51.531053],[-0.3263038,51.5290461],[-0.3219833,51.5315924],[-0.3186504,51.5288059],[-0.3061355,51.5317055],[-0.3027318,51.5319821],[-0.3074642,51.5330506],[-0.3135848,51.5344018],[-0.3126002,51.5386019],[-0.3176158,51.5367104],[-0.3235199,51.5419094]]],"type":"Polygon"},"id":"E02000244","properties":{"code":"E02000244","geography":"MSOA","name":"Ealing 007"},"type":"Feature"},{"geometry":{"coordinates":[[[-0.374393,51.5417684],[-0.3950053,51.5480075],[-0.3987292,51.5479634],[-0.3975278,51.5423676],[-0.3865354,51.5407522],[-0.3812485,51.5353865],[-0.3885531,51.5364748],[-0.389864,51.5309439],[-0.381002,51.5294159],[-0.3725193,51.5340828],[-0.3792686,51.5353775],[-0.374393,51.5417684]]],"type":"Polygon"},"id":"E02000245","properties":{"code":"E02000245","geography":"MSOA","name":"Ealing 008"},"type":"Feature"},{"geometry":{"coordinates":[[[-0.389864,51.5309439],[-0.3885531,51.5364748],[-0.3812485,51.5353865],[-0.3865354,51.5407522],[-0.3975278,51.5423676],[-0.4185348,51.5402483],[-0.4118579,51.5341279],[-0.389864,51.5309439]]],"type":"Polygon"},"id":"E02000246","properties":{"code":"E02000246","geography":"MSOA","name":"Ealing 009"},"type":"Feature"},{"geometry":{"coordinates":[[[-0.3734671,51.541464],[-0.374393,51.5417684],[-0.3792686,51.5353775],[-0.3725193,51.5340828],[-0.381002,51.5294159],[-0.3763805,51.5288409],[-0.3722894,51.5289918],[-0.3619442,51.5322007],[-0.3568128,51.5309586],[-0.3562768,51.538122],[-0.3658075,51.5398469],[-0.3734671,51.541464]]],"type":"Polygon"},"id":"E02000247","properties":{"code":"E02000247","geography":"MSOA","name":"Ealing 010"},"type":"Feature"},{"geometry":{"coordinates":[[[-0.2829806,51.5288442],[-0.2893895,51.531666],[-0.2790743,51.533292],[-0.2825631,51.538626],[-0.2932042,51.5349967],[-0.3027318,51.5319821],[-0.3061355,51.5317055],[-0.2982789,51.5295188],[-0.2999394,51.5243187],[-0.3057153,51.5246031],[-0.3036633,51.5226704],[-0.2938575,51.5211726],[-0.2839836,51.5264895],[-0.2829806,51.5288442]]],"type":"Polygon"},"id":"E02000248","properties":{"code":"E02000248","geography":"MSOA","name":"Ealing 011"},"type":"Feature"},{"geometry":{"coordinates":[[[-0.3455255,51.5274614],[-0.3449537,51.5322461],[-0.347547,51.5344053],[-0.3534964,51.5326432],[-0.3505538,51.5369933],[-0.3562768,51.538122],[-0.3568128,51.5309586],[-0.3615063,51.5192533],[-0.3560004,51.5187968],[-0.3554328,51.5153619],[-0.3550695,51.5210468],[-0.3511188,51.5215733],[-0.3455255,51.5274614]]],"type":"Polygon"},"id":"E02000249","properties":{"code":"E02000249","geography":"MSOA","name":"Ealing 012"},"type":"Feature"},{"geometry":{"coordinates":[[[-0.3036633,51.5226704],[-0.3057153,51.5246031],[-0.2999394,51.5243187],[-0.2982789,51.5295188],[-0.3061355,51.5317055],[-0.3186504,51.5288059],[-0.3114172,51.5213205],[-0.3051011,51.5225648],[-0.3036633,51.5226704]]],"type":"Polygon"},"id":"E02000250","properties":{"code":"E02000250","geography":"MSOA","name":"Ealing 013"},"type":"Feature"},{"geometry":{"coordinates":[[[-0.3568128,51.5309586],[-0.3619442,51.5322007],[-0.3722894,51.5289918],[-0.3642742,51.52349],[-0.3678377,51.5191896],[-0.364729,51.5176124],[-0.3615063,51.5192533],[-0.3568128,51.5309586]]],"type":"Polygon"},"id":"E02000251","properties":{"code":"E02000251","geography":"MSOA","name":"Ealing 014"},"type":"Feature"},{"geometry":{"coordinates":[[[-0.2463947,51.5327988],[-0.2556639,51.5339856],[-0.2829806,51.5288442],[-0.2839836,51.5264895],[-0.2785154,51.5197412],[-0.2717846,51.5244291],[-0.2684368,51.5190706],[-0.2716467,51.51562],[-0.2621062,51.5144383],[-0.2606945,51.5138799],[-0.2511508,51.5212279],[-0.2526677,51.5248966],[-0.2463947,51.5327988]]],"type":"Polygon"},"id":"E02000252","properties":{"code":"E02000252","geography":"MSOA","name":"Ealing 015"},"type":"Feature"},{"geometry":{"coordinates":[[[-0.3263038,51.5290461],[-0.3278344,51.531053],[-0.3441531,51.5274026],[-0.3418914,51.5248867],[-0.3463234,51.5221497],[-0.3399031,51.5219143],[-0.3474171,51.5194126],[-0.334957,51.5180963],[-0.3298624,51.5142701],[-0.3336938,51.5264518],[-0.3272683,51.5258629],[-0.3263038,51.5290461]]],"type":"Polygon"},"id":"E02000253","properties":{"code":"E02000253","geography":"MSOA","name":"Ealing 016"},"type":"Feature"},{"geometry":{"coordinates":[[[-0.3678377,51.5191896],[-0.3642742,51.52349],[-0.3722894,51.5289918],[-0.3763805,51.5288409],[-0.3834568,51.5175041],[-0.380279,51.5164213],[-0.369821,51.5151491],[-0.3678377,51.5191896]]],"type":"Polygon"},"id":"E02000254","properties":{"code":"E02000254","geography":"MSOA","name":"Ealing 017"},"type":"Feature"},{"geometry":{"coordinates":[[[-0.3186504,51.5288059],[-0.3219833,51.5315924],[-0.3263038,51.5290461],[-0.3272683,51.5258629],[-0.3336938,51.5264518],[-0.3298624,51.5142701],[-0.3358014,51.5120667],[-0.3350427,51.5121368],[-0.3197229,51.5135339],[-0.3230681,51.5208199],[-0.3114172,51.5213205],[-0.3186504,51.5288059]]],"type":"Polygon"},"id":"E02000255","properties":{"code":"E02000255","geography":"MSOA","name":"Ealing 018"},"type":"Feature"},{"geometry":{"coordinates":[[[-0.3063739,51.5168939],[-0.3051011,51.5225648],[-0.3114172,51.5213205],[-0.3230681,51.5208199],[-0.3197229,51.5135339],[-0.3194989,51.510903],[-0.313006,51.5119323],[-0.3080621,51.5127301],[-0.3063739,51.5168939]]],"type":"Polygon"},"id":"E02000256","properties":{"code":"E02000256","geography":"MSOA","name":"Ealing 019"},"type":"Feature"},{"geometry":{"coordinates":[[[-0.2621062,51.5144383],[-0.2716467,51.51562],[-0.2684368,51.5190706],[-0.2717846,51.5244291],[-0.2785154,51.5197412],[-0.2885474,51.5150449],[-0.274398,51.5116306],[-0.2719938,51.5101787],[-0.2693155,51.5135619],[-0.2621062,51.5144383]]],"type":"Polygon"},"id":"E02000258","properties":{"code":"E02000258","geography":"MSOA","name":"Ealing 021"},"type":"Feature"},{"geometry":{"coordinates":[[[-0.3441531,51.5274026],[-0.3455255,51.5274614],[-0.3511188,51.5215733],[-0.3482465,51.5156959],[-0.3516922,51.5122353],[-0.3438318,51.5109926],[-0.3358014,51.5120667],[-0.3298624,51.5142701],[-0.334957,51.5180963],[-0.3474171,51.5194126],[-0.3399031,51.5219143],[-0.3463234,51.5221497],[-0.3418914,51.5248867],[-0.3441531,51.5274026]]],"type":"Polygon"},"id":"E02000259","properties":{"code":"E02000259","geography":"MSOA","name":"Ealing 022"},"type":"Feature"},{"geometry":{"coordinates":[[[-0.364729,51.5176124],[-0.3678377,51.5191896],[-0.369821,51.5151491],[-0.380279,51.5164213],[-0.3822564,51.5116213],[-0.3763528,51.5108241],[-0.3776166,51.5060869],[-0.3661713,51.5076787],[-0.3652317,51.5146137],[-0.3605933,51.5141348],[-0.364729,51.5176124]]],"type":"Polygon"},"id":"E02000260","properties":{"code":"E02000260","geography":"MSOA","name":"Ealing 023"},"type":"Feature"},{"geometry":{"coordinates":[[[-0.2489963,51.5138799],[-0.2511508,51.5212279],[-0.2606945,51.5138799],[-0.2637175,51.5065178],[-0.2512802,51.5067025],[-0.2510183,51.5046278],[-0.2460988,51.5045893],[-0.2450869,51.5067416],[-0.2489963,51.5138799]]],"type":"Polygon"},"id":"E02000261","properties":{"code":"E02000261","geography":"MSOA","name":"Ealing 024"},"type":"Feature"},{"geometry":{"coordinates":[[[-0.2606945,51.5138799],[-0.2621062,51.5144383],[-0.2693155,51.5135619],[-0.2719938,51.5101787],[-0.274398,51.5116306],[-0.2791781,51.5095183],[-0.2761323,51.5054523],[-0.2637175,51.5065178],[-0.2606945,51.5138799]]],"type":"Polygon"},"id":"E02000262","properties":{"code":"E02000262","geography":"MSOA","name":"Ealing 025"},"type":"Feature"},{"geometry":{"coordinates":[[[-0.380279,51.5164213],[-0.3834568,51.5175041],[-0.3905731,51.5132175],[-0.3926014,51.5085138],[-0.4038888,51.5029216],[-0.3891708,51.5044472],[-0.3787162,51.5059336],[-0.3776166,51.5060869],[-0.3763528,51.5108241],[-0.3822564,51.5116213],[-0.380279,51.5164213]]],"type":"Polygon"},"id":"E02000263","properties":{"code":"E02000263","geography":"MSOA","name":"Ealing 026"},"type":"Feature"},{"geometry":{"coordinates":[[[-0.2885474,51.5150449],[-0.2915963,51.5159048],[-0.2906243,51.5110639],[-0.2960954,51.5111517],[-0.289993,51.5033495],[-0.2934181,51.5015852],[-0.2851167,51.5009133],[-0.280731,51.5027946],[-0.2844349,51.5069892],[-0.2761323,51.5054523],[-0.2791781,51.5095183],[-0.274398,51.5116306],[-0.2885474,51.5150449]]],"type":"Polygon"},"id":"E02000264","properties":{"code":"E02000264","geography":"MSOA","name":"Ealing 027"},"type":"Feature"},{"geometry":{"coordinates":[[[-0.313006,51.5119323],[-0.3194989,51.510903],[-0.3197229,51.5135339],[-0.3350427,51.5121368],[-0.3313001,51.504857],[-0.331088,51.5024108],[-0.3224306,51.5053015],[-0.313006,51.5119323]]],"type":"Polygon"},"id":"E02000265","properties":{"code":"E02000265","geography":"MSOA","name":"Ealing 028"},"type":"Feature"},{"geometry":{"coordinates":[[[-0.3438318,51.5109926],[-0.3516922,51.5122353],[-0.3482465,51.5156959],[-0.3511188,51.5215733],[-0.3550695,51.5210468],[-0.3554328,51.5153619],[-0.3560004,51.5187968],[-0.3615063,51.5192533],[-0.364729,51.5176124],[-0.3605933,51.5141348],[-0.3652317,51.5146137],[-0.3661713,51.5076787],[-0.3776166,51.5060869],[-0.3787162,51.5059336],[-0.3792015,51.5053044],[-0.3719167,51.5034469],[-0.3765807,51.4990639],[-0.3668546,51.5005275],[-0.3663199,51.498291],[-0.3578931,51.4978071],[-0.350196,51.4991098],[-0.3354725,51.4962124],[-0.343574,51.5033369],[-0.3438318,51.5109926]]],"type":"Polygon"},"id":"E02000266","properties":{"code":"E02000266","geography":"MSOA","name":"Ealing 029"},"type":"Feature"},{"geometry":{"coordinates":[[[-0.3313001,51.504857],[-0.3350427,51.5121368],[-0.3358014,51.5120667],[-0.3438318,51.5109926],[-0.343574,51.5033369],[-0.3382299,51.5006833],[-0.3313001,51.504857]]],"type":"Polygon"},"id":"E02000267","properties":{"code":"E02000267","geography":"MSOA","name":"Ealing 030"},"type":"Feature"},{"geometry":{"coordinates":[[[-0.2960954,51.5111517],[-0.2969791,51.5131284],[-0.3000132,51.5081153],[-0.3043752,51.5078042],[-0.3055796,51.5105864],[-0.313366,51.5092819],[-0.3085431,51.5041846],[-0.3119116,51.5021537],[-0.3070221,51.5029466],[-0.3065514,51.500539],[-0.3058217,51.4983636],[-0.3007187,51.4993477],[-0.2934181,51.5015852],[-0.289993,51.5033495],[-0.2960954,51.5111517]]],"type":"Polygon"},"id":"E02000268","properties":{"code":"E02000268","geography":"MSOA","name":"Ealing 031"},"type":"Feature"},{"geometry":{"coordinates":[[[-0.3055796,51.5105864],[-0.3080621,51.5127301],[-0.313006,51.5119323],[-0.3224306,51.5053015],[-0.3154976,51.4992322],[-0.3065514,51.500539],[-0.3070221,51.5029466],[-0.3119116,51.5021537],[-0.3085431,51.5041846],[-0.313366,51.5092819],[-0.3055796,51.5105864]]],"type":"Polygon"},"id":"E02000269","properties":{"code":"E02000269","geography":"MSOA","name":"Ealing 032"},"type":"Feature"},{"geometry":{"coordinates":[[[-0.2761323,51.5054523],[-0.2844349,51.5069892],[-0.280731,51.5027946],[-0.2742608,51.4972851],[-0.264574,51.504977],[-0.2637175,51.5065178],[-0.2761323,51.5054523]]],"type":"Polygon"},"id":"E02000270","properties":{"code":"E02000270","geography":"MSOA","name":"Ealing 033"},"type":"Feature"},{"geometry":{"coordinates":[[[-0.2510183,51.5046278],[-0.2512802,51.5067025],[-0.2637175,51.5065178],[-0.264574,51.504977],[-0.2589701,51.5026123],[-0.2652016,51.5004386],[-0.262837,51.4959344],[-0.2598928,51.4978897],[-0.2556083,51.4962741],[-0.2530841,51.5013987],[-0.2550716,51.5043028],[-0.2510183,51.5046278]]],"type":"Polygon"},"id":"E02000271","properties":{"code":"E02000271","geography":"MSOA","name":"Ealing 034"},"type":"Feature"},{"geometry":{"coordinates":[[[-0.3154976,51.4992322],[-0.3224306,51.5053015],[-0.331088,51.5024108],[-0.3313001,51.504857],[-0.3382299,51.5006833],[-0.343574,51.5033369],[-0.3354725,51.4962124],[-0.331136,51.495514],[-0.3245908,51.4959557],[-0.3154976,51.4992322]]],"type":"Polygon"},"id":"E02000272","properties":{"code":"E02000272","geography":"MSOA","name":"Ealing 035"},"type":"Feature"},{"geometry":{"coordinates":[[[-0.3578931,51.4978071],[-0.3663199,51.498291],[-0.3668546,51.5005275],[-0.3765807,51.4990639],[-0.3719167,51.5034469],[-0.3792015,51.5053044],[-0.3833232,51.49941],[-0.3790987,51.4961346],[-0.371843,51.4904995],[-0.3670161,51.4927639],[-0.3578931,51.4978071]]],"type":"Polygon"},"id":"E02000275","properties":{"code":"E02000275","geography":"MSOA","name":"Ealing 038"},"type":"Feature"},{"geometry":{"coordinates":[[[-0.3007187,51.4993477],[-0.3058217,51.4983636],[-0.3065514,51.500539],[-0.3154976,51.4992322],[-0.3245908,51.4959557],[-0.3096598,51.4930867],[-0.3058921,51.49621],[-0.3005966,51.4944857],[-0.2976442,51.4949276],[-0.3007187,51.4993477]]],"type":"Polygon"},"id":"E02000276","properties":{"code":"E02000276","geography":"MSOA","name":"Ealing 039"},"type":"Feature"},{"geometry":{"coordinates":[[[-0.2556083,51.4962741],[-0.2598928,51.4978897],[-0.262837,51.4959344],[-0.2652016,51.5004386],[-0.2589701,51.5026123],[-0.264574,51.504977],[-0.2742608,51.4972851],[-0.2690025,51.4939607],[-0.255436,51.4949134],[-0.2556083,51.4962741]]],"type":"Polygon"},"id":"E02006791","properties":{"code":"E02006791","geography":"MSOA","name":"Ealing 040"},"type":"Feature"},{"geometry":{"coordinates":[[[-0.2785154,51.5197412],[-0.2839836,51.5264895],[-0.2938575,51.5211726],[-0.3036633,51.5226704],[-0.3051011,51.5225648],[-0.3063739,51.5168939],[-0.303638,51.5138577],[-0.2915963,51.5159048],[-0.2885474,51.5150449],[-0.2785154,51.5197412]]],"type":"Polygon"},"id":"E02006968","properties":{"code":"E02006968","geography":"MSOA","name":"Ealing 041"},"type":"Feature"},{"geometry":{"coordinates":[[[-0.2915963,51.5159048],[-0.303638,51.5138577],[-0.3063739,51.5168939],[-0.3080621,51.5127301],[-0.3055796,51.5105864],[-0.3043752,51.5078042],[-0.3000132,51.5081153],[-0.2969791,51.5131284],[-0.2960954,51.5111517],[-0.2906243,51.5110639],[-0.2915963,51.5159048]]],"type":"Polygon"},"id":"E02006969","properties":{"code":"E02006969","geography":"MSOA","name":"Ealing 042"},"type":"Feature"},{"geometry":{"coordinates":[[[-0.3792015,51.5053044],[-0.3787162,51.5059336],[-0.3891708,51.5044472],[-0.3857509,51.4955168],[-0.381561,51.4953325],[-0.3790987,51.4961346],[-0.3833232,51.49941],[-0.3792015,51.5053044]]],"type":"Polygon"},"id":"E02006970","properties":{"code":"E02006970","geography":"MSOA","name":"Ealing 043"},"type":"Feature"},{"geometry":{"coordinates":[[[-0.381561,51.4953325],[-0.3857509,51.4955168],[-0.3891708,51.5044472],[-0.4038888,51.5029216],[-0.4069058,51.4996938],[-0.387554,51.4948414],[-0.381561,51.4953325]]],"type":"Polygon"},"id":"E02006971","properties":{"code":"E02006971","geography":"MSOA","name":"Ealing 044"},"type":"Feature"}],"type":"FeatureCollection"}
