{"features":[{"geometry":{"coordinates":[[[-0.2446987,51.4957299],[-0.2530841,51.5013987],[-0.2556083,51.4962741],[-0.255436,51.4949134],[-0.2557595,51.4915036],[-0.2527472,51.4872218],[-0.2587475,51.4876015],[-0.2548613,51.4840989],[-0.2452137,51.4892168],[-0.2446987,51.4957299]]],"type":"Polygon"},"id":"E02000526","properties":{"code":"E02000526","geography":"MSOA","name":"Hounslow 001"},"type":"Feature"},{"geometry":{"coordinates":[[[-0.3670161,51.4927639],[-0.371843,51.4904995],[-0.3790987,51.4961346],[-0.381561,51.4953325],[-0.387554,51.4948414],[-0.3813906,51.4893493],[-0.3800489,51.4815579],[-0.3769579,51.4836531],[-0.3736496,51.4805639],[-0.3743106,51.4857416],[-0.3679709,51.4850721],[-0.3668664,51.487526],[-0.3670161,51.4927639]]],"type":"Polygon"},"id":"E02000529","properties":{"code":"E02000529","geography":"MSOA","name":"Hounslow 004"},"type":"Feature"},{"geometry":{"coordinates":[[[-0.4069058,51.4996938],[-0.409286,51.500316],[-0.4118903,51.4924455],[-0.4119473,51.4921234],[-0.4041758,51.4812995],[-0.3999321,51.4836276],[-0.3955147,51.4816593],[-0.3946918,51.4842389],[-0.3927496,51.4803318],[-0.3899125,51.4890433],[-0.3813906,51.4893493],[-0.387554,51.4948414],[-0.4069058,51.4996938]]],"type":"Polygon"},"id":"E02000530","properties":{"code":"E02000530","geography":"MSOA","name":"Hounslow 005"},"type":"Feature"},{"geometry":{"coordinates":[[[-0.3096598,51.4930867],[-0.3245908,51.4959557],[-0.331136,51.495514],[-0.3143987,51.4860291],[-0.3245289,51.4819465],[-0.3204126,51.4824754],[-0.3187044,51.4794535],[-0.3220134,51.4743556],[-0.3191766,51.4714078],[-0.3191446,51.4714838],[-0.3141676,51.4734369],[-0.3047662,51.4787479],[-0.3044212,51.4791365],[-0.3038859,51.4797393],[-0.3144341,51.4801515],[-0.2998958,51.486487],[-0.3096598,51.4930867]]],"type":"Polygon"},"id":"E02000531","properties":{"code":"E02000531","geography":"MSOA","name":"Hounslow 006"},"type":"Feature"},{"geometry":{"coordinates":[[[-0.2452137,51.4892168],[-0.2548613,51.4840989],[-0.2587475,51.4876015],[-0.2527472,51.4872218],[-0.2557595,51.4915036],[-0.2599145,51.4894525],[-0.2659057,51.4913757],[-0.2702407,51.4880495],[-0.2703747,51.4811848],[-0.2644636,51.4765298],[-0.2690902,51.4735882],[-0.2558096,51.4726169],[-0.2550829,51.4729383],[-0.2497335,51.4856914],[-0.2445623,51.4887022],[-0.2445218,51.488709],[-0.2452137,51.4892168]]],"type":"Polygon"},"id":"E02000532","properties":{"code":"E02000532","geography":"MSOA","name":"Hounslow 007"},"type":"Feature"},{"geometry":{"coordinates":[[[-0.2702407,51.4880495],[-0.2821245,51.4914417],[-0.2869067,51.4874564],[-0.2771072,51.483498],[-0.2733939,51.4788614],[-0.269177,51.4735945],[-0.2690902,51.4735882],[-0.2644636,51.4765298],[-0.2703747,51.4811848],[-0.2702407,51.4880495]]],"type":"Polygon"},"id":"E02000533","properties":{"code":"E02000533","geography":"MSOA","name":"Hounslow 008"},"type":"Feature"},{"geometry":{"coordinates":[[[-0.3354725,51.4962124],[-0.350196,51.4991098],[-0.3578931,51.4978071],[-0.3670161,51.4927639],[-0.3668664,51.487526],[-0.3434218,51.4852908],[-0.3488292,51.4838682],[-0.3450727,51.4772432],[-0.342476,51.4748831],[-0.3341498,51.4764358],[-0.3245289,51.4819465],[-0.3143987,51.4860291],[-0.331136,51.495514],[-0.3354725,51.4962124]]],"type":"Polygon"},"id":"E02000534","properties":{"code":"E02000534","geography":"MSOA","name":"Hounslow 009"},"type":"Feature"},{"geometry":{"coordinates":[[[-0.3800489,51.4815579],[-0.3813906,51.4893493],[-0.3899125,51.4890433],[-0.3927496,51.4803318],[-0.3946918,51.4842389],[-0.3955147,51.4816593],[-0.3999321,51.4836276],[-0.4041758,51.4812995],[-0.4018047,51.4770838],[-0.3878265,51.473472],[-0.3868296,51.4739316],[-0.3884763,51.4782173],[-0.3800489,51.4815579]]],"type":"Polygon"},"id":"E02000535","properties":{"code":"E02000535","geography":"MSOA","name":"Hounslow 010"},"type":"Feature"},{"geometry":{"coordinates":[[[-0.3679709,51.4850721],[-0.3743106,51.4857416],[-0.3736496,51.4805639],[-0.3769579,51.4836531],[-0.3800489,51.4815579],[-0.3884763,51.4782173],[-0.3868296,51.4739316],[-0.3801102,51.4754938],[-0.3671156,51.4712317],[-0.3643385,51.4760791],[-0.3607677,51.4815137],[-0.3665091,51.4815126],[-0.3679709,51.4850721]]],"type":"Polygon"},"id":"E02000536","properties":{"code":"E02000536","geography":"MSOA","name":"Hounslow 011"},"type":"Feature"},{"geometry":{"coordinates":[[[-0.3450727,51.4772432],[-0.3488292,51.4838682],[-0.3434218,51.4852908],[-0.3668664,51.487526],[-0.3679709,51.4850721],[-0.3665091,51.4815126],[-0.3607677,51.4815137],[-0.3643385,51.4760791],[-0.360633,51.4755144],[-0.3636924,51.4714083],[-0.3586298,51.4699605],[-0.3583439,51.47457],[-0.3510538,51.4733783],[-0.3493694,51.4776496],[-0.3450727,51.4772432]]],"type":"Polygon"},"id":"E02000537","properties":{"code":"E02000537","geography":"MSOA","name":"Hounslow 012"},"type":"Feature"},{"geometry":{"coordinates":[[[-0.4041758,51.4812995],[-0.4119473,51.4921234],[-0.4168304,51.4808648],[-0.4111908,51.4698745],[-0.4013892,51.459013],[-0.3931114,51.4613076],[-0.3937551,51.4675432],[-0.3936845,51.471543],[-0.3983434,51.4691779],[-0.405359,51.4718736],[-0.4018047,51.4770838],[-0.4041758,51.4812995]]],"type":"Polygon"},"id":"E02000538","properties":{"code":"E02000538","geography":"MSOA","name":"Hounslow 013"},"type":"Feature"},{"geometry":{"coordinates":[[[-0.3220134,51.4743556],[-0.3187044,51.4794535],[-0.3204126,51.4824754],[-0.3245289,51.4819465],[-0.3341498,51.4764358],[-0.3413596,51.4669009],[-0.3402366,51.4642675],[-0.3272442,51.4661858],[-0.3285611,51.4694719],[-0.3242436,51.4697406],[-0.3284122,51.4714294],[-0.3236927,51.4708865],[-0.3220134,51.4743556]]],"type":"Polygon"},"id":"E02000539","properties":{"code":"E02000539","geography":"MSOA","name":"Hounslow 014"},"type":"Feature"},{"geometry":{"coordinates":[[[-0.3450727,51.4772432],[-0.3493694,51.4776496],[-0.3510538,51.4733783],[-0.3583439,51.47457],[-0.3586298,51.4699605],[-0.3621688,51.4661964],[-0.3589296,51.4635629],[-0.3448096,51.4700838],[-0.3413596,51.4669009],[-0.3341498,51.4764358],[-0.342476,51.4748831],[-0.3450727,51.4772432]]],"type":"Polygon"},"id":"E02000540","properties":{"code":"E02000540","geography":"MSOA","name":"Hounslow 015"},"type":"Feature"},{"geometry":{"coordinates":[[[-0.3878265,51.473472],[-0.4018047,51.4770838],[-0.405359,51.4718736],[-0.3983434,51.4691779],[-0.3936845,51.471543],[-0.3937551,51.4675432],[-0.3890221,51.4689634],[-0.3886662,51.4627382],[-0.3845727,51.4638342],[-0.3806814,51.4651216],[-0.3859411,51.4662218],[-0.3811043,51.4712119],[-0.3878265,51.473472]]],"type":"Polygon"},"id":"E02000541","properties":{"code":"E02000541","geography":"MSOA","name":"Hounslow 016"},"type":"Feature"},{"geometry":{"coordinates":[[[-0.3671156,51.4712317],[-0.3801102,51.4754938],[-0.3868296,51.4739316],[-0.3878265,51.473472],[-0.3811043,51.4712119],[-0.3859411,51.4662218],[-0.3806814,51.4651216],[-0.3845727,51.4638342],[-0.3787899,51.4651241],[-0.3758366,51.4617081],[-0.3712385,51.4620577],[-0.3733019,51.4650434],[-0.3660711,51.4679892],[-0.3671156,51.4712317]]],"type":"Polygon"},"id":"E02000542","properties":{"code":"E02000542","geography":"MSOA","name":"Hounslow 017"},"type":"Feature"},{"geometry":{"coordinates":[[[-0.3586298,51.4699605],[-0.3636924,51.4714083],[-0.360633,51.4755144],[-0.3643385,51.4760791],[-0.3671156,51.4712317],[-0.3660711,51.4679892],[-0.3733019,51.4650434],[-0.3712385,51.4620577],[-0.3669818,51.462497],[-0.3696195,51.4569418],[-0.3681331,51.4571695],[-0.3567339,51.4584114],[-0.362129,51.4604975],[-0.3589296,51.4635629],[-0.3621688,51.4661964],[-0.3586298,51.4699605]]],"type":"Polygon"},"id":"E02000543","properties":{"code":"E02000543","geography":"MSOA","name":"Hounslow 018"},"type":"Feature"},{"geometry":{"coordinates":[[[-0.3413596,51.4669009],[-0.3448096,51.4700838],[-0.3589296,51.4635629],[-0.362129,51.4604975],[-0.3567339,51.4584114],[-0.3426809,51.4581106],[-0.3400673,51.4592924],[-0.3402366,51.4642675],[-0.3413596,51.4669009]]],"type":"Polygon"},"id":"E02000544","properties":{"code":"E02000544","geography":"MSOA","name":"Hounslow 019"},"type":"Feature"},{"geometry":{"coordinates":[[[-0.3191766,51.4714078],[-0.3220134,51.4743556],[-0.3236927,51.4708865],[-0.3284122,51.4714294],[-0.3242436,51.4697406],[-0.3285611,51.4694719],[-0.3272442,51.4661858],[-0.3402366,51.4642675],[-0.3400673,51.4592924],[-0.3369844,51.4546312],[-0.3269106,51.457042],[-0.3254061,51.4636254],[-0.3214062,51.4651674],[-0.3217345,51.4654069],[-0.320242,51.4688806],[-0.3191766,51.4714078]]],"type":"Polygon"},"id":"E02000545","properties":{"code":"E02000545","geography":"MSOA","name":"Hounslow 020"},"type":"Feature"},{"geometry":{"coordinates":[[[-0.3845727,51.4638342],[-0.3886662,51.4627382],[-0.3890221,51.4689634],[-0.3937551,51.4675432],[-0.3931114,51.4613076],[-0.4013892,51.459013],[-0.3875903,51.4493042],[-0.3696195,51.4569418],[-0.3669818,51.462497],[-0.3712385,51.4620577],[-0.3758366,51.4617081],[-0.3787899,51.4651241],[-0.3845727,51.4638342]]],"type":"Polygon"},"id":"E02000546","properties":{"code":"E02000546","geography":"MSOA","name":"Hounslow 021"},"type":"Feature"},{"geometry":{"coordinates":[[[-0.4013892,51.459013],[-0.4111908,51.4698745],[-0.4220365,51.4665762],[-0.4335989,51.4617378],[-0.4349242,51.4568407],[-0.4221029,51.4511552],[-0.4114615,51.4477612],[-0.4145035,51.4507295],[-0.413451,51.4539384],[-0.4098317,51.4530036],[-0.4107162,51.4572176],[-0.4065266,51.4569317],[-0.4080178,51.4530332],[-0.4013892,51.459013]]],"type":"Polygon"},"id":"E02000547","properties":{"code":"E02000547","geography":"MSOA","name":"Hounslow 022"},"type":"Feature"},{"geometry":{"coordinates":[[[-0.4221029,51.4511552],[-0.4349242,51.4568407],[-0.4414778,51.456806],[-0.4440048,51.4532662],[-0.4586621,51.4563149],[-0.4615031,51.4489927],[-0.4574837,51.4490899],[-0.4564959,51.438225],[-0.4463094,51.439997],[-0.4259389,51.4444836],[-0.4255007,51.4471316],[-0.4221029,51.4511552]]],"type":"Polygon"},"id":"E02000548","properties":{"code":"E02000548","geography":"MSOA","name":"Hounslow 023"},"type":"Feature"},{"geometry":{"coordinates":[[[-0.3875903,51.4493042],[-0.4013892,51.459013],[-0.4080178,51.4530332],[-0.4065266,51.4569317],[-0.4107162,51.4572176],[-0.4098317,51.4530036],[-0.413451,51.4539384],[-0.4145035,51.4507295],[-0.4114615,51.4477612],[-0.4112012,51.4441233],[-0.4048506,51.4425594],[-0.3973205,51.4400496],[-0.3841657,51.4457375],[-0.3875903,51.4493042]]],"type":"Polygon"},"id":"E02000549","properties":{"code":"E02000549","geography":"MSOA","name":"Hounslow 024"},"type":"Feature"},{"geometry":{"coordinates":[[[-0.4114615,51.4477612],[-0.4221029,51.4511552],[-0.4255007,51.4471316],[-0.4213469,51.4471283],[-0.4249666,51.4401525],[-0.4213445,51.4381198],[-0.4112012,51.4441233],[-0.4114615,51.4477612]]],"type":"Polygon"},"id":"E02000550","properties":{"code":"E02000550","geography":"MSOA","name":"Hounslow 025"},"type":"Feature"},{"geometry":{"coordinates":[[[-0.3670996,51.4417118],[-0.3841657,51.4457375],[-0.3973205,51.4400496],[-0.4048506,51.4425594],[-0.4115048,51.440096],[-0.4119571,51.4373136],[-0.4073075,51.4370805],[-0.4036672,51.4379123],[-0.3982907,51.4317193],[-0.3924862,51.4334779],[-0.3917683,51.4375769],[-0.3909904,51.4342589],[-0.3794015,51.4340767],[-0.3761385,51.4355387],[-0.3670996,51.4417118]]],"type":"Polygon"},"id":"E02000551","properties":{"code":"E02000551","geography":"MSOA","name":"Hounslow 026"},"type":"Feature"},{"geometry":{"coordinates":[[[-0.4112012,51.4441233],[-0.4213445,51.4381198],[-0.4249666,51.4401525],[-0.4213469,51.4471283],[-0.4255007,51.4471316],[-0.4259389,51.4444836],[-0.4463094,51.439997],[-0.447738,51.4350036],[-0.4397751,51.4346189],[-0.4400059,51.4306266],[-0.4278525,51.4292523],[-0.4186042,51.4321086],[-0.4103159,51.4317317],[-0.4073075,51.4370805],[-0.4119571,51.4373136],[-0.4115048,51.440096],[-0.4048506,51.4425594],[-0.4112012,51.4441233]]],"type":"Polygon"},"id":"E02000552","properties":{"code":"E02000552","geography":"MSOA","name":"Hounslow 027"},"type":"Feature"},{"geometry":{"coordinates":[[[-0.3794015,51.4340767],[-0.3909904,51.4342589],[-0.3917683,51.4375769],[-0.3924862,51.4334779],[-0.3982907,51.4317193],[-0.4036672,51.4379123],[-0.4073075,51.4370805],[-0.4103159,51.4317317],[-0.4186042,51.4321086],[-0.4078429,51.4235941],[-0.3913729,51.4223316],[-0.3849298,51.4212714],[-0.3883829,51.4280523],[-0.3794015,51.4340767]]],"type":"Polygon"},"id":"E02000553","properties":{"code":"E02000553","geography":"MSOA","name":"Hounslow 028"},"type":"Feature"},{"geometry":{"coordinates":[[[-0.2742608,51.4972851],[-0.280731,51.5027946],[-0.2851167,51.5009133],[-0.2820106,51.4968902],[-0.2858101,51.492701],[-0.2821245,51.4914417],[-0.2702407,51.4880495],[-0.2659057,51.4913757],[-0.2599145,51.4894525],[-0.2557595,51.4915036],[-0.255436,51.4949134],[-0.2690025,51.4939607],[-0.2742608,51.4972851]]],"type":"Polygon"},"id":"E02006792","properties":{"code":"E02006792","geography":"MSOA","name":"Hounslow 029"},"type":"Feature"},{"geometry":{"coordinates":[[[-0.2851167,51.5009133],[-0.2934181,51.5015852],[-0.3007187,51.4993477],[-0.2976442,51.4949276],[-0.3005966,51.4944857],[-0.2956847,51.4862089],[-0.2934243,51.4864295],[-0.2899086,51.4871714],[-0.2874699,51.4876838],[-0.2869067,51.4874564],[-0.2821245,51.4914417],[-0.2858101,51.492701],[-0.2820106,51.4968902],[-0.2851167,51.5009133]]],"type":"Polygon"},"id":"E02006972","properties":{"code":"E02006972","geography":"MSOA","name":"Hounslow 030"},"type":"Feature"},{"geometry":{"coordinates":[[[-0.3005966,51.4944857],[-0.3058921,51.49621],[-0.3096598,51.4930867],[-0.2998958,51.486487],[-0.3144341,51.4801515],[-0.3038859,51.4797393],[-0.2991138,51.4851122],[-0.2989866,51.4852554],[-0.2960678,51.4858715],[-0.2956847,51.4862089],[-0.3005966,51.4944857]]],"type":"Polygon"},"id":"E02006973","properties":{"code":"E02006973","geography":"MSOA","name":"Hounslow 031"},"type":"Feature"}],"type":"FeatureCollection"}
