{"features":[{"geometry":{"coordinates":[[[-0.2623646,51.5963428],[-0.2671559,51.6003696],[-0.2676444,51.6001287],[-0.2870785,51.5945923],[-0.2904268,51.5935705],[-0.2835529,51.5892621],[-0.2775812,51.5876334],[-0.2727808,51.5909018],[-0.2703081,51.5879782],[-0.2618459,51.5887477],[-0.2680464,51.5938556],[-0.2623646,51.5963428]]],"type":"Polygon"},"id":"E02000093","properties":{"code":"E02000093","geography":"MSOA","name":"Brent 001"},"type":"Feature"},{"geometry":{"coordinates":[[[-0.2597696,51.5941732],[-0.2623646,51.5963428],[-0.2680464,51.5938556],[-0.2618459,51.5887477],[-0.2703081,51.5879782],[-0.2608493,51.584055],[-0.2579969,51.5813502],[-0.2521241,51.5829714],[-0.2502015,51.5862328],[-0.2597696,51.5941732]]],"type":"Polygon"},"id":"E02000094","properties":{"code":"E02000094","geography":"MSOA","name":"Brent 002"},"type":"Feature"},{"geometry":{"coordinates":[[[-0.2703081,51.5879782],[-0.2727808,51.5909018],[-0.2775812,51.5876334],[-0.2835529,51.5892621],[-0.282549,51.5850648],[-0.295117,51.5866502],[-0.2957033,51.586698],[-0.2994468,51.5827431],[-0.2902908,51.5799477],[-0.2823682,51.584454],[-0.2813418,51.5787798],[-0.2777311,51.5796539],[-0.2608493,51.584055],[-0.2703081,51.5879782]]],"type":"Polygon"},"id":"E02000095","properties":{"code":"E02000095","geography":"MSOA","name":"Brent 003"},"type":"Feature"},{"geometry":{"coordinates":[[[-0.2957033,51.586698],[-0.3053215,51.5869733],[-0.3170904,51.5821037],[-0.3125714,51.5776018],[-0.2986952,51.5731814],[-0.2902908,51.5799477],[-0.2994468,51.5827431],[-0.2957033,51.586698]]],"type":"Polygon"},"id":"E02000096","properties":{"code":"E02000096","geography":"MSOA","name":"Brent 004"},"type":"Feature"},{"geometry":{"coordinates":[[[-0.2521241,51.5829714],[-0.2579969,51.5813502],[-0.2608493,51.584055],[-0.2777311,51.5796539],[-0.2742094,51.5736989],[-0.2723526,51.5710237],[-0.2691899,51.5737745],[-0.2661475,51.5724287],[-0.2679806,51.5697987],[-0.2626727,51.5680328],[-0.2600114,51.5718306],[-0.2517604,51.5710832],[-0.2521241,51.5829714]]],"type":"Polygon"},"id":"E02000097","properties":{"code":"E02000097","geography":"MSOA","name":"Brent 005"},"type":"Feature"},{"geometry":{"coordinates":[[[-0.2777311,51.5796539],[-0.2813418,51.5787798],[-0.2823682,51.584454],[-0.2902908,51.5799477],[-0.2986952,51.5731814],[-0.2896853,51.569893],[-0.2842476,51.5657415],[-0.276448,51.5654406],[-0.2781728,51.5714816],[-0.2742094,51.5736989],[-0.2777311,51.5796539]]],"type":"Polygon"},"id":"E02000098","properties":{"code":"E02000098","geography":"MSOA","name":"Brent 006"},"type":"Feature"},{"geometry":{"coordinates":[[[-0.2986952,51.5731814],[-0.3125714,51.5776018],[-0.3061533,51.5667226],[-0.3023606,51.5603545],[-0.3009476,51.562775],[-0.2957878,51.5620941],[-0.2950968,51.5676089],[-0.2896853,51.569893],[-0.2986952,51.5731814]]],"type":"Polygon"},"id":"E02000099","properties":{"code":"E02000099","geography":"MSOA","name":"Brent 007"},"type":"Feature"},{"geometry":{"coordinates":[[[-0.3125714,51.5776018],[-0.3170904,51.5821037],[-0.3265856,51.5782337],[-0.3221561,51.5696534],[-0.3297461,51.5670864],[-0.3312169,51.5614589],[-0.3224588,51.5630566],[-0.3196467,51.5660297],[-0.3063015,51.5628732],[-0.3061533,51.5667226],[-0.3125714,51.5776018]]],"type":"Polygon"},"id":"E02000100","properties":{"code":"E02000100","geography":"MSOA","name":"Brent 008"},"type":"Feature"},{"geometry":{"coordinates":[[[-0.2600114,51.5718306],[-0.2626727,51.5680328],[-0.2679806,51.5697987],[-0.2661475,51.5724287],[-0.2691899,51.5737745],[-0.2723526,51.5710237],[-0.2742094,51.5736989],[-0.2781728,51.5714816],[-0.276448,51.5654406],[-0.2842476,51.5657415],[-0.2790169,51.5633443],[-0.2653185,51.5588736],[-0.2584969,51.5678178],[-0.2600114,51.5718306]]],"type":"Polygon"},"id":"E02000101","properties":{"code":"E02000101","geography":"MSOA","name":"Brent 009"},"type":"Feature"},{"geometry":{"coordinates":[[[-0.2461072,51.5622431],[-0.2354097,51.5660465],[-0.2435015,51.5723288],[-0.2473561,51.5684204],[-0.2517604,51.5710832],[-0.2600114,51.5718306],[-0.2584969,51.5678178],[-0.2653185,51.5588736],[-0.2618567,51.5572745],[-0.2591504,51.5633618],[-0.2533266,51.562501],[-0.2503289,51.5650758],[-0.2461072,51.5622431]]],"type":"Polygon"},"id":"E02000102","properties":{"code":"E02000102","geography":"MSOA","name":"Brent 010"},"type":"Feature"},{"geometry":{"coordinates":[[[-0.2322353,51.5709526],[-0.2435015,51.5723288],[-0.2354097,51.5660465],[-0.2461072,51.5622431],[-0.239394,51.5560167],[-0.2314288,51.5575689],[-0.2206507,51.5616608],[-0.2322353,51.5709526]]],"type":"Polygon"},"id":"E02000103","properties":{"code":"E02000103","geography":"MSOA","name":"Brent 011"},"type":"Feature"},{"geometry":{"coordinates":[[[-0.2842476,51.5657415],[-0.2896853,51.569893],[-0.2950968,51.5676089],[-0.2957878,51.5620941],[-0.3009476,51.562775],[-0.3023606,51.5603545],[-0.3020358,51.5597917],[-0.300353,51.5570062],[-0.2927958,51.5562711],[-0.2905345,51.5594483],[-0.2799238,51.5625874],[-0.2790169,51.5633443],[-0.2842476,51.5657415]]],"type":"Polygon"},"id":"E02000104","properties":{"code":"E02000104","geography":"MSOA","name":"Brent 012"},"type":"Feature"},{"geometry":{"coordinates":[[[-0.3023606,51.5603545],[-0.3061533,51.5667226],[-0.3063015,51.5628732],[-0.3196467,51.5660297],[-0.3224588,51.5630566],[-0.3218296,51.555345],[-0.3145975,51.5525858],[-0.3099245,51.5518195],[-0.3063738,51.5565216],[-0.310979,51.5580155],[-0.3034191,51.5573177],[-0.3020358,51.5597917],[-0.3023606,51.5603545]]],"type":"Polygon"},"id":"E02000105","properties":{"code":"E02000105","geography":"MSOA","name":"Brent 013"},"type":"Feature"},{"geometry":{"coordinates":[[[-0.2461072,51.5622431],[-0.2503289,51.5650758],[-0.2533266,51.562501],[-0.2591504,51.5633618],[-0.2618567,51.5572745],[-0.2514512,51.553907],[-0.2509472,51.5509556],[-0.2442278,51.5490829],[-0.2404693,51.5502207],[-0.2424639,51.5524612],[-0.2456093,51.556069],[-0.239394,51.5560167],[-0.2461072,51.5622431]]],"type":"Polygon"},"id":"E02000106","properties":{"code":"E02000106","geography":"MSOA","name":"Brent 014"},"type":"Feature"},{"geometry":{"coordinates":[[[-0.2134627,51.5551496],[-0.2206507,51.5616608],[-0.2314288,51.5575689],[-0.2306356,51.5547832],[-0.2188276,51.5527815],[-0.2105352,51.5483202],[-0.2084196,51.5511021],[-0.2134627,51.5551496]]],"type":"Polygon"},"id":"E02000107","properties":{"code":"E02000107","geography":"MSOA","name":"Brent 015"},"type":"Feature"},{"geometry":{"coordinates":[[[-0.3145975,51.5525858],[-0.3218296,51.555345],[-0.3224588,51.5630566],[-0.3312169,51.5614589],[-0.3355846,51.5565833],[-0.3157212,51.5505322],[-0.3145975,51.5525858]]],"type":"Polygon"},"id":"E02000108","properties":{"code":"E02000108","geography":"MSOA","name":"Brent 016"},"type":"Feature"},{"geometry":{"coordinates":[[[-0.2188276,51.5527815],[-0.2306356,51.5547832],[-0.2314288,51.5575689],[-0.239394,51.5560167],[-0.2456093,51.556069],[-0.2424639,51.5524612],[-0.2332743,51.5510354],[-0.2197827,51.5489597],[-0.2188276,51.5527815]]],"type":"Polygon"},"id":"E02000110","properties":{"code":"E02000110","geography":"MSOA","name":"Brent 018"},"type":"Feature"},{"geometry":{"coordinates":[[[-0.300353,51.5570062],[-0.3020358,51.5597917],[-0.3034191,51.5573177],[-0.310979,51.5580155],[-0.3063738,51.5565216],[-0.3099245,51.5518195],[-0.3145975,51.5525858],[-0.3157212,51.5505322],[-0.3125578,51.5490208],[-0.3045356,51.5433125],[-0.3009165,51.5476935],[-0.2975475,51.5467066],[-0.296178,51.552735],[-0.2990994,51.552027],[-0.300353,51.5570062]]],"type":"Polygon"},"id":"E02000111","properties":{"code":"E02000111","geography":"MSOA","name":"Brent 019"},"type":"Feature"},{"geometry":{"coordinates":[[[-0.2863863,51.5548209],[-0.2905345,51.5594483],[-0.2927958,51.5562711],[-0.300353,51.5570062],[-0.2990994,51.552027],[-0.296178,51.552735],[-0.2899714,51.5492112],[-0.2873796,51.5512141],[-0.2865359,51.5455366],[-0.2769004,51.5419631],[-0.2747529,51.5438164],[-0.2692068,51.5486965],[-0.279773,51.5488708],[-0.2863863,51.5548209]]],"type":"Polygon"},"id":"E02000112","properties":{"code":"E02000112","geography":"MSOA","name":"Brent 020"},"type":"Feature"},{"geometry":{"coordinates":[[[-0.2618567,51.5572745],[-0.2653185,51.5588736],[-0.2692068,51.5486965],[-0.2747529,51.5438164],[-0.2598173,51.5438026],[-0.2625259,51.5464282],[-0.2580466,51.5478842],[-0.2554647,51.5452862],[-0.2509472,51.5509556],[-0.2514512,51.553907],[-0.2618567,51.5572745]]],"type":"Polygon"},"id":"E02000113","properties":{"code":"E02000113","geography":"MSOA","name":"Brent 021"},"type":"Feature"},{"geometry":{"coordinates":[[[-0.2197827,51.5489597],[-0.2332743,51.5510354],[-0.2316677,51.5471299],[-0.2357783,51.5445861],[-0.2279357,51.5413411],[-0.2304281,51.5451334],[-0.2221662,51.5465277],[-0.2197827,51.5489597]]],"type":"Polygon"},"id":"E02000114","properties":{"code":"E02000114","geography":"MSOA","name":"Brent 022"},"type":"Feature"},{"geometry":{"coordinates":[[[-0.2084196,51.5511021],[-0.2105352,51.5483202],[-0.2188276,51.5527815],[-0.2197827,51.5489597],[-0.2221662,51.5465277],[-0.2158678,51.5432799],[-0.2104917,51.5442819],[-0.2093474,51.5414431],[-0.207708,51.5426244],[-0.2019482,51.5453011],[-0.2082672,51.5509899],[-0.2084196,51.5511021]]],"type":"Polygon"},"id":"E02000115","properties":{"code":"E02000115","geography":"MSOA","name":"Brent 023"},"type":"Feature"},{"geometry":{"coordinates":[[[-0.2332743,51.5510354],[-0.2424639,51.5524612],[-0.2404693,51.5502207],[-0.2442278,51.5490829],[-0.2470195,51.545842],[-0.2424947,51.5403098],[-0.2382608,51.5391788],[-0.2305639,51.5372103],[-0.2279357,51.5413411],[-0.2357783,51.5445861],[-0.2316677,51.5471299],[-0.2332743,51.5510354]]],"type":"Polygon"},"id":"E02000116","properties":{"code":"E02000116","geography":"MSOA","name":"Brent 024"},"type":"Feature"},{"geometry":{"coordinates":[[[-0.2442278,51.5490829],[-0.2509472,51.5509556],[-0.2554647,51.5452862],[-0.2565903,51.5380208],[-0.2514137,51.5382975],[-0.2494274,51.5417753],[-0.2424947,51.5403098],[-0.2470195,51.545842],[-0.2442278,51.5490829]]],"type":"Polygon"},"id":"E02000117","properties":{"code":"E02000117","geography":"MSOA","name":"Brent 025"},"type":"Feature"},{"geometry":{"coordinates":[[[-0.2769004,51.5419631],[-0.2865359,51.5455366],[-0.2873796,51.5512141],[-0.2899714,51.5492112],[-0.296178,51.552735],[-0.2975475,51.5467066],[-0.2906738,51.5426049],[-0.2956723,51.5378953],[-0.2932042,51.5349967],[-0.2825631,51.538626],[-0.2769004,51.5419631]]],"type":"Polygon"},"id":"E02000118","properties":{"code":"E02000118","geography":"MSOA","name":"Brent 026"},"type":"Feature"},{"geometry":{"coordinates":[[[-0.2554647,51.5452862],[-0.2580466,51.5478842],[-0.2625259,51.5464282],[-0.2598173,51.5438026],[-0.2747529,51.5438164],[-0.2769004,51.5419631],[-0.2825631,51.538626],[-0.2790743,51.533292],[-0.2893895,51.531666],[-0.2829806,51.5288442],[-0.2556639,51.5339856],[-0.2565903,51.5380208],[-0.2554647,51.5452862]]],"type":"Polygon"},"id":"E02000119","properties":{"code":"E02000119","geography":"MSOA","name":"Brent 027"},"type":"Feature"},{"geometry":{"coordinates":[[[-0.1955689,51.5398516],[-0.2019482,51.5453011],[-0.207708,51.5426244],[-0.1993819,51.5349982],[-0.1924624,51.537129],[-0.1955689,51.5398516]]],"type":"Polygon"},"id":"E02000120","properties":{"code":"E02000120","geography":"MSOA","name":"Brent 028"},"type":"Feature"},{"geometry":{"coordinates":[[[-0.2975475,51.5467066],[-0.3009165,51.5476935],[-0.3045356,51.5433125],[-0.3125578,51.5490208],[-0.3085761,51.5432392],[-0.3047355,51.5398572],[-0.3074642,51.5330506],[-0.3027318,51.5319821],[-0.2932042,51.5349967],[-0.2956723,51.5378953],[-0.2906738,51.5426049],[-0.2975475,51.5467066]]],"type":"Polygon"},"id":"E02000121","properties":{"code":"E02000121","geography":"MSOA","name":"Brent 029"},"type":"Feature"},{"geometry":{"coordinates":[[[-0.2093474,51.5414431],[-0.2104917,51.5442819],[-0.2158678,51.5432799],[-0.2221662,51.5465277],[-0.2304281,51.5451334],[-0.2279357,51.5413411],[-0.2305639,51.5372103],[-0.2203496,51.5349578],[-0.2157485,51.5346268],[-0.2093474,51.5414431]]],"type":"Polygon"},"id":"E02000122","properties":{"code":"E02000122","geography":"MSOA","name":"Brent 030"},"type":"Feature"},{"geometry":{"coordinates":[[[-0.2424947,51.5403098],[-0.2494274,51.5417753],[-0.2514137,51.5382975],[-0.2565903,51.5380208],[-0.2556639,51.5339856],[-0.2463947,51.5327988],[-0.2339275,51.5323529],[-0.2382608,51.5391788],[-0.2424947,51.5403098]]],"type":"Polygon"},"id":"E02000123","properties":{"code":"E02000123","geography":"MSOA","name":"Brent 031"},"type":"Feature"},{"geometry":{"coordinates":[[[-0.1993819,51.5349982],[-0.207708,51.5426244],[-0.2093474,51.5414431],[-0.2157485,51.5346268],[-0.2203496,51.5349578],[-0.2236599,51.5299531],[-0.2160301,51.5279282],[-0.2107406,51.5320431],[-0.2031166,51.5329075],[-0.1993819,51.5349982]]],"type":"Polygon"},"id":"E02000124","properties":{"code":"E02000124","geography":"MSOA","name":"Brent 032"},"type":"Feature"},{"geometry":{"coordinates":[[[-0.2305639,51.5372103],[-0.2382608,51.5391788],[-0.2339275,51.5323529],[-0.2285032,51.530353],[-0.2236599,51.5299531],[-0.2203496,51.5349578],[-0.2305639,51.5372103]]],"type":"Polygon"},"id":"E02000125","properties":{"code":"E02000125","geography":"MSOA","name":"Brent 033"},"type":"Feature"},{"geometry":{"coordinates":[[[-0.1914835,51.5362891],[-0.1924624,51.537129],[-0.1993819,51.5349982],[-0.2031166,51.5329075],[-0.1965689,51.527653],[-0.1930086,51.5319829],[-0.1914835,51.5362891]]],"type":"Polygon"},"id":"E02000126","properties":{"code":"E02000126","geography":"MSOA","name":"Brent 034"},"type":"Feature"},{"geometry":{"coordinates":[[[-0.2863863,51.5548209],[-0.2756154,51.5562278],[-0.2799238,51.5625874],[-0.2905345,51.5594483],[-0.2863863,51.5548209]]],"type":"Polygon"},"id":"E02006955","properties":{"code":"E02006955","geography":"MSOA","name":"Brent 035"},"type":"Feature"},{"geometry":{"coordinates":[[[-0.2653185,51.5588736],[-0.2790169,51.5633443],[-0.2799238,51.5625874],[-0.2756154,51.5562278],[-0.2863863,51.5548209],[-0.279773,51.5488708],[-0.2692068,51.5486965],[-0.2653185,51.5588736]]],"type":"Polygon"},"id":"E02006956","properties":{"code":"E02006956","geography":"MSOA","name":"Brent 036"},"type":"Feature"}],"type":"FeatureCollection"}
