{"features":[{"geometry":{"coordinates":[[[-0.1492929,51.5711267],[-0.1712851,51.5724301],[-0.1734624,51.5710984],[-0.1586207,51.5561073],[-0.1507568,51.5551257],[-0.1482515,51.5532388],[-0.1449722,51.5563385],[-0.14987,51.5600047],[-0.1408479,51.5618138],[-0.1424151,51.5691202],[-0.1492929,51.5711267]]],"type":"Polygon"},"id":"E02000166","properties":{"code":"E02000166","geography":"MSOA","name":"Camden 001"},"type":"Feature"},{"geometry":{"coordinates":[[[-0.1586207,51.5561073],[-0.1734624,51.5710984],[-0.1835678,51.5680066],[-0.1903721,51.5627659],[-0.1846718,51.5622302],[-0.1767959,51.5538662],[-0.1655127,51.5540821],[-0.1586207,51.5561073]]],"type":"Polygon"},"id":"E02000167","properties":{"code":"E02000167","geography":"MSOA","name":"Camden 002"},"type":"Feature"},{"geometry":{"coordinates":[[[-0.1383955,51.5568596],[-0.1408479,51.5618138],[-0.14987,51.5600047],[-0.1449722,51.5563385],[-0.1482515,51.5532388],[-0.1385303,51.5495019],[-0.136274,51.5549654],[-0.1383955,51.5568596]]],"type":"Polygon"},"id":"E02000168","properties":{"code":"E02000168","geography":"MSOA","name":"Camden 003"},"type":"Feature"},{"geometry":{"coordinates":[[[-0.1767959,51.5538662],[-0.1846718,51.5622302],[-0.1903721,51.5627659],[-0.1924782,51.5614568],[-0.1968175,51.5591832],[-0.1887816,51.5529469],[-0.1837358,51.5508037],[-0.1792399,51.5500598],[-0.1767959,51.5538662]]],"type":"Polygon"},"id":"E02000169","properties":{"code":"E02000169","geography":"MSOA","name":"Camden 004"},"type":"Feature"},{"geometry":{"coordinates":[[[-0.1887816,51.5529469],[-0.1968175,51.5591832],[-0.1994103,51.556192],[-0.211595,51.556193],[-0.2134627,51.5551496],[-0.2084196,51.5511021],[-0.2082672,51.5509899],[-0.2053548,51.5527822],[-0.198788,51.5508481],[-0.1887816,51.5529469]]],"type":"Polygon"},"id":"E02000170","properties":{"code":"E02000170","geography":"MSOA","name":"Camden 005"},"type":"Feature"},{"geometry":{"coordinates":[[[-0.1507568,51.5551257],[-0.1586207,51.5561073],[-0.1655127,51.5540821],[-0.1635876,51.5497109],[-0.1620278,51.5488884],[-0.1580745,51.5466468],[-0.1576998,51.5499361],[-0.1535822,51.549952],[-0.1595329,51.5526662],[-0.1507568,51.5551257]]],"type":"Polygon"},"id":"E02000171","properties":{"code":"E02000171","geography":"MSOA","name":"Camden 006"},"type":"Feature"},{"geometry":{"coordinates":[[[-0.1482515,51.5532388],[-0.1507568,51.5551257],[-0.1595329,51.5526662],[-0.1535822,51.549952],[-0.1464331,51.5454757],[-0.1441909,51.545278],[-0.1415553,51.5451738],[-0.1410851,51.5488314],[-0.1350835,51.5484229],[-0.1385303,51.5495019],[-0.1482515,51.5532388]]],"type":"Polygon"},"id":"E02000172","properties":{"code":"E02000172","geography":"MSOA","name":"Camden 007"},"type":"Feature"},{"geometry":{"coordinates":[[[-0.1635876,51.5497109],[-0.1655127,51.5540821],[-0.1767959,51.5538662],[-0.1792399,51.5500598],[-0.1837358,51.5508037],[-0.1795486,51.546912],[-0.1749177,51.5437205],[-0.1670066,51.5519716],[-0.1635876,51.5497109]]],"type":"Polygon"},"id":"E02000173","properties":{"code":"E02000173","geography":"MSOA","name":"Camden 008"},"type":"Feature"},{"geometry":{"coordinates":[[[-0.1360557,51.5549003],[-0.136274,51.5549654],[-0.1385303,51.5495019],[-0.1350835,51.5484229],[-0.1410851,51.5488314],[-0.1415553,51.5451738],[-0.1398115,51.5433915],[-0.1290506,51.5489139],[-0.1360557,51.5549003]]],"type":"Polygon"},"id":"E02000174","properties":{"code":"E02000174","geography":"MSOA","name":"Camden 009"},"type":"Feature"},{"geometry":{"coordinates":[[[-0.1837358,51.5508037],[-0.1887816,51.5529469],[-0.198788,51.5508481],[-0.1941219,51.5484895],[-0.1989685,51.5464436],[-0.1964259,51.5446766],[-0.1828001,51.5474667],[-0.1795486,51.546912],[-0.1837358,51.5508037]]],"type":"Polygon"},"id":"E02000175","properties":{"code":"E02000175","geography":"MSOA","name":"Camden 010"},"type":"Feature"},{"geometry":{"coordinates":[[[-0.1635876,51.5497109],[-0.1670066,51.5519716],[-0.1749177,51.5437205],[-0.1730733,51.5441581],[-0.1668895,51.5445428],[-0.1620278,51.5488884],[-0.1635876,51.5497109]]],"type":"Polygon"},"id":"E02000176","properties":{"code":"E02000176","geography":"MSOA","name":"Camden 011"},"type":"Feature"},{"geometry":{"coordinates":[[[-0.1464331,51.5454757],[-0.1535822,51.549952],[-0.1576998,51.5499361],[-0.1580745,51.5466468],[-0.160232,51.5428149],[-0.1473407,51.5425001],[-0.1464331,51.5454757]]],"type":"Polygon"},"id":"E02000177","properties":{"code":"E02000177","geography":"MSOA","name":"Camden 012"},"type":"Feature"},{"geometry":{"coordinates":[[[-0.198788,51.5508481],[-0.2053548,51.5527822],[-0.2082672,51.5509899],[-0.2019482,51.5453011],[-0.1955689,51.5398516],[-0.1924491,51.5415226],[-0.1922787,51.5446209],[-0.1964259,51.5446766],[-0.1989685,51.5464436],[-0.1941219,51.5484895],[-0.198788,51.5508481]]],"type":"Polygon"},"id":"E02000178","properties":{"code":"E02000178","geography":"MSOA","name":"Camden 013"},"type":"Feature"},{"geometry":{"coordinates":[[[-0.1580745,51.5466468],[-0.1620278,51.5488884],[-0.1668895,51.5445428],[-0.1730733,51.5441581],[-0.1703831,51.5417417],[-0.1622149,51.5423453],[-0.160232,51.5428149],[-0.1580745,51.5466468]]],"type":"Polygon"},"id":"E02000179","properties":{"code":"E02000179","geography":"MSOA","name":"Camden 014"},"type":"Feature"},{"geometry":{"coordinates":[[[-0.1250873,51.541127],[-0.1290506,51.5489139],[-0.1398115,51.5433915],[-0.1375884,51.5408895],[-0.1310643,51.5421179],[-0.1250873,51.541127]]],"type":"Polygon"},"id":"E02000180","properties":{"code":"E02000180","geography":"MSOA","name":"Camden 015"},"type":"Feature"},{"geometry":{"coordinates":[[[-0.1799776,51.54171],[-0.1828001,51.5474667],[-0.1964259,51.5446766],[-0.1922787,51.5446209],[-0.1924491,51.5415226],[-0.1799776,51.54171]]],"type":"Polygon"},"id":"E02000181","properties":{"code":"E02000181","geography":"MSOA","name":"Camden 016"},"type":"Feature"},{"geometry":{"coordinates":[[[-0.1795486,51.546912],[-0.1828001,51.5474667],[-0.1799776,51.54171],[-0.1783593,51.5397926],[-0.1757061,51.5396086],[-0.1649616,51.5357796],[-0.1604879,51.5372813],[-0.1622149,51.5423453],[-0.1703831,51.5417417],[-0.1730733,51.5441581],[-0.1749177,51.5437205],[-0.1795486,51.546912]]],"type":"Polygon"},"id":"E02000182","properties":{"code":"E02000182","geography":"MSOA","name":"Camden 017"},"type":"Feature"},{"geometry":{"coordinates":[[[-0.1441909,51.545278],[-0.1464331,51.5454757],[-0.1473407,51.5425001],[-0.160232,51.5428149],[-0.1622149,51.5423453],[-0.1604879,51.5372813],[-0.1527332,51.5375194],[-0.1468225,51.5361437],[-0.1442158,51.5421795],[-0.1441909,51.545278]]],"type":"Polygon"},"id":"E02000183","properties":{"code":"E02000183","geography":"MSOA","name":"Camden 018"},"type":"Feature"},{"geometry":{"coordinates":[[[-0.1415553,51.5451738],[-0.1441909,51.545278],[-0.1442158,51.5421795],[-0.1377154,51.535089],[-0.1282193,51.5371925],[-0.1310643,51.5421179],[-0.1375884,51.5408895],[-0.1398115,51.5433915],[-0.1415553,51.5451738]]],"type":"Polygon"},"id":"E02000184","properties":{"code":"E02000184","geography":"MSOA","name":"Camden 019"},"type":"Feature"},{"geometry":{"coordinates":[[[-0.1783593,51.5397926],[-0.1799776,51.54171],[-0.1924491,51.5415226],[-0.1955689,51.5398516],[-0.1924624,51.537129],[-0.1914835,51.5362891],[-0.1887732,51.5345232],[-0.1783593,51.5397926]]],"type":"Polygon"},"id":"E02000185","properties":{"code":"E02000185","geography":"MSOA","name":"Camden 020"},"type":"Feature"},{"geometry":{"coordinates":[[[-0.1377154,51.535089],[-0.1442158,51.5421795],[-0.1468225,51.5361437],[-0.1527332,51.5375194],[-0.1505706,51.532626],[-0.1471965,51.5250414],[-0.1452165,51.524031],[-0.143522,51.5239482],[-0.1365493,51.5255154],[-0.1442744,51.525664],[-0.143912,51.5342191],[-0.1391403,51.5319091],[-0.1377154,51.535089]]],"type":"Polygon"},"id":"E02000186","properties":{"code":"E02000186","geography":"MSOA","name":"Camden 021"},"type":"Feature"},{"geometry":{"coordinates":[[[-0.1250873,51.541127],[-0.1310643,51.5421179],[-0.1282193,51.5371925],[-0.1377154,51.535089],[-0.1391403,51.5319091],[-0.1307915,51.52732],[-0.1225561,51.5307259],[-0.1223387,51.5355185],[-0.1233459,51.5388524],[-0.1250873,51.541127]]],"type":"Polygon"},"id":"E02000187","properties":{"code":"E02000187","geography":"MSOA","name":"Camden 022"},"type":"Feature"},{"geometry":{"coordinates":[[[-0.1391403,51.5319091],[-0.143912,51.5342191],[-0.1442744,51.525664],[-0.1365493,51.5255154],[-0.1307915,51.52732],[-0.1391403,51.5319091]]],"type":"Polygon"},"id":"E02000188","properties":{"code":"E02000188","geography":"MSOA","name":"Camden 023"},"type":"Feature"},{"geometry":{"coordinates":[[[-0.1255142,51.5237184],[-0.1307915,51.52732],[-0.1365493,51.5255154],[-0.143522,51.5239482],[-0.1308446,51.517098],[-0.1271836,51.520364],[-0.1328515,51.5243856],[-0.1255142,51.5237184]]],"type":"Polygon"},"id":"E02000191","properties":{"code":"E02000191","geography":"MSOA","name":"Camden 026"},"type":"Feature"},{"geometry":{"coordinates":[[[-0.105346,51.5185433],[-0.1142066,51.5254585],[-0.1207933,51.5232237],[-0.1210036,51.519752],[-0.1125429,51.521688],[-0.1106722,51.5180948],[-0.105346,51.5185433]]],"type":"Polygon"},"id":"E02000192","properties":{"code":"E02000192","geography":"MSOA","name":"Camden 027"},"type":"Feature"},{"geometry":{"coordinates":[[[-0.1255142,51.5237184],[-0.1328515,51.5243856],[-0.1271836,51.520364],[-0.1308446,51.517098],[-0.1290107,51.5134377],[-0.1115532,51.5152228],[-0.1138207,51.5182195],[-0.1106722,51.5180948],[-0.1125429,51.521688],[-0.1210036,51.519752],[-0.1207933,51.5232237],[-0.1255142,51.5237184]]],"type":"Polygon"},"id":"E02000193","properties":{"code":"E02000193","geography":"MSOA","name":"Camden 028"},"type":"Feature"},{"geometry":{"coordinates":[[[-0.1132846,51.5264821],[-0.1225561,51.5307259],[-0.1307915,51.52732],[-0.1255142,51.5237184],[-0.1207933,51.5232237],[-0.1142066,51.5254585],[-0.1132846,51.5264821]]],"type":"Polygon"},"id":"E02007115","properties":{"code":"E02007115","geography":"MSOA","name":"Camden 029"},"type":"Feature"}],"type":"FeatureCollection"}
