{"features":[{"geometry":{"coordinates":[[[-0.1902538,51.4388954],[-0.190084,51.4414452],[-0.2045173,51.4389054],[-0.2090892,51.4382779],[-0.212238,51.430113],[-0.2039979,51.428619],[-0.2037545,51.4280916],[-0.1983445,51.4317293],[-0.1994203,51.4286073],[-0.1929033,51.4290459],[-0.1893907,51.4254705],[-0.1820002,51.4246948],[-0.1843229,51.4312324],[-0.1903713,51.4318512],[-0.1902538,51.4388954]]],"type":"Polygon"},"id":"E02000689","properties":{"code":"E02000689","geography":"MSOA","name":"Merton 001"},"type":"Feature"},{"geometry":{"coordinates":[[[-0.2090892,51.4382779],[-0.2245086,51.4385829],[-0.2510854,51.4325652],[-0.2542588,51.4295054],[-0.2498869,51.4190568],[-0.2383911,51.4198231],[-0.2365814,51.4152813],[-0.2249888,51.4191021],[-0.2175477,51.4225018],[-0.2175151,51.4276854],[-0.2103317,51.4259103],[-0.2039979,51.428619],[-0.212238,51.430113],[-0.2090892,51.4382779]]],"type":"Polygon"},"id":"E02000690","properties":{"code":"E02000690","geography":"MSOA","name":"Merton 002"},"type":"Feature"},{"geometry":{"coordinates":[[[-0.1893907,51.4254705],[-0.1929033,51.4290459],[-0.1994203,51.4286073],[-0.1983445,51.4317293],[-0.2037545,51.4280916],[-0.2069517,51.420988],[-0.1941595,51.4195806],[-0.1965897,51.4235848],[-0.1887509,51.4248668],[-0.1893907,51.4254705]]],"type":"Polygon"},"id":"E02000691","properties":{"code":"E02000691","geography":"MSOA","name":"Merton 003"},"type":"Feature"},{"geometry":{"coordinates":[[[-0.2037545,51.4280916],[-0.2039979,51.428619],[-0.2103317,51.4259103],[-0.2175151,51.4276854],[-0.2175477,51.4225018],[-0.2249888,51.4191021],[-0.2211242,51.4149478],[-0.2141471,51.4161311],[-0.2069517,51.420988],[-0.2037545,51.4280916]]],"type":"Polygon"},"id":"E02000692","properties":{"code":"E02000692","geography":"MSOA","name":"Merton 004"},"type":"Feature"},{"geometry":{"coordinates":[[[-0.1820002,51.4246948],[-0.1893907,51.4254705],[-0.1887509,51.4248668],[-0.1806958,51.4200526],[-0.1836638,51.414595],[-0.1839526,51.4120476],[-0.1785973,51.4129589],[-0.1689984,51.4175666],[-0.1690593,51.4211733],[-0.1733489,51.4230707],[-0.1820002,51.4246948]]],"type":"Polygon"},"id":"E02000693","properties":{"code":"E02000693","geography":"MSOA","name":"Merton 005"},"type":"Feature"},{"geometry":{"coordinates":[[[-0.1836638,51.414595],[-0.1806958,51.4200526],[-0.1887509,51.4248668],[-0.1965897,51.4235848],[-0.1941595,51.4195806],[-0.1926475,51.4150702],[-0.1836638,51.414595]]],"type":"Polygon"},"id":"E02000694","properties":{"code":"E02000694","geography":"MSOA","name":"Merton 006"},"type":"Feature"},{"geometry":{"coordinates":[[[-0.149676,51.4199722],[-0.1595933,51.4225662],[-0.1604987,51.4217267],[-0.1575794,51.4185925],[-0.1607534,51.4175371],[-0.1531142,51.4094883],[-0.1432623,51.417263],[-0.1404067,51.4192495],[-0.1445675,51.4177439],[-0.149676,51.4199722]]],"type":"Polygon"},"id":"E02000695","properties":{"code":"E02000695","geography":"MSOA","name":"Merton 007"},"type":"Feature"},{"geometry":{"coordinates":[[[-0.1607534,51.4175371],[-0.1575794,51.4185925],[-0.1604987,51.4217267],[-0.1616931,51.4198238],[-0.1690593,51.4211733],[-0.1689984,51.4175666],[-0.1785973,51.4129589],[-0.1788615,51.4102294],[-0.1722441,51.4102941],[-0.1677024,51.4113234],[-0.1607534,51.4175371]]],"type":"Polygon"},"id":"E02000696","properties":{"code":"E02000696","geography":"MSOA","name":"Merton 008"},"type":"Feature"},{"geometry":{"coordinates":[[[-0.1941595,51.4195806],[-0.2069517,51.420988],[-0.2141471,51.4161311],[-0.2066021,51.4167376],[-0.206231,51.4133098],[-0.2021361,51.41445],[-0.1869446,51.4059332],[-0.1842436,51.4088496],[-0.1925781,51.411359],[-0.1926475,51.4150702],[-0.1941595,51.4195806]]],"type":"Polygon"},"id":"E02000697","properties":{"code":"E02000697","geography":"MSOA","name":"Merton 009"},"type":"Feature"},{"geometry":{"coordinates":[[[-0.2249888,51.4191021],[-0.2365814,51.4152813],[-0.2383911,51.4198231],[-0.2498869,51.4190568],[-0.2471251,51.4095289],[-0.2473658,51.4083298],[-0.2451631,51.4097974],[-0.2420391,51.4066979],[-0.2352162,51.4079767],[-0.2364321,51.4114231],[-0.231286,51.4097695],[-0.2267151,51.411073],[-0.2283603,51.413308],[-0.2234208,51.4127511],[-0.2211242,51.4149478],[-0.2249888,51.4191021]]],"type":"Polygon"},"id":"E02000698","properties":{"code":"E02000698","geography":"MSOA","name":"Merton 010"},"type":"Feature"},{"geometry":{"coordinates":[[[-0.206231,51.4133098],[-0.2066021,51.4167376],[-0.2141471,51.4161311],[-0.2211242,51.4149478],[-0.2234208,51.4127511],[-0.2224608,51.4073087],[-0.2122154,51.4077692],[-0.2073387,51.4061518],[-0.2107213,51.4121057],[-0.206231,51.4133098]]],"type":"Polygon"},"id":"E02000699","properties":{"code":"E02000699","geography":"MSOA","name":"Merton 011"},"type":"Feature"},{"geometry":{"coordinates":[[[-0.1836638,51.414595],[-0.1926475,51.4150702],[-0.1925781,51.411359],[-0.1842436,51.4088496],[-0.1869446,51.4059332],[-0.1838537,51.4043455],[-0.1803917,51.4022213],[-0.1722441,51.4102941],[-0.1788615,51.4102294],[-0.1785973,51.4129589],[-0.1839526,51.4120476],[-0.1836638,51.414595]]],"type":"Polygon"},"id":"E02000700","properties":{"code":"E02000700","geography":"MSOA","name":"Merton 012"},"type":"Feature"},{"geometry":{"coordinates":[[[-0.1531142,51.4094883],[-0.1607534,51.4175371],[-0.1677024,51.4113234],[-0.1603307,51.4076109],[-0.1652462,51.4067635],[-0.1652713,51.4039584],[-0.1575114,51.4030694],[-0.1585142,51.4066395],[-0.1531142,51.4094883]]],"type":"Polygon"},"id":"E02000701","properties":{"code":"E02000701","geography":"MSOA","name":"Merton 013"},"type":"Feature"},{"geometry":{"coordinates":[[[-0.1396697,51.4122143],[-0.1480554,51.412869],[-0.1432623,51.417263],[-0.1531142,51.4094883],[-0.1585142,51.4066395],[-0.1575114,51.4030694],[-0.1584879,51.3982046],[-0.1404487,51.3925939],[-0.1424141,51.3976373],[-0.1510414,51.4053989],[-0.1449511,51.4062935],[-0.1396697,51.4122143]]],"type":"Polygon"},"id":"E02000702","properties":{"code":"E02000702","geography":"MSOA","name":"Merton 014"},"type":"Feature"},{"geometry":{"coordinates":[[[-0.1869446,51.4059332],[-0.2021361,51.41445],[-0.206231,51.4133098],[-0.2107213,51.4121057],[-0.2073387,51.4061518],[-0.2122154,51.4077692],[-0.2145339,51.4040646],[-0.2031708,51.4016087],[-0.2049469,51.4046968],[-0.1981697,51.3993552],[-0.1869446,51.4059332]]],"type":"Polygon"},"id":"E02000703","properties":{"code":"E02000703","geography":"MSOA","name":"Merton 015"},"type":"Feature"},{"geometry":{"coordinates":[[[-0.2234208,51.4127511],[-0.2283603,51.413308],[-0.2267151,51.411073],[-0.231286,51.4097695],[-0.2364321,51.4114231],[-0.2352162,51.4079767],[-0.2420391,51.4066979],[-0.2451631,51.4097974],[-0.2473658,51.4083298],[-0.2446551,51.4038567],[-0.2367655,51.3987831],[-0.2348702,51.4031916],[-0.2249347,51.4019093],[-0.2145339,51.4040646],[-0.2122154,51.4077692],[-0.2224608,51.4073087],[-0.2234208,51.4127511]]],"type":"Polygon"},"id":"E02000704","properties":{"code":"E02000704","geography":"MSOA","name":"Merton 016"},"type":"Feature"},{"geometry":{"coordinates":[[[-0.1315331,51.4049274],[-0.1278079,51.4123156],[-0.1396697,51.4122143],[-0.1449511,51.4062935],[-0.1510414,51.4053989],[-0.1424141,51.3976373],[-0.1351229,51.4000144],[-0.1404445,51.4023155],[-0.1315331,51.4049274]]],"type":"Polygon"},"id":"E02000705","properties":{"code":"E02000705","geography":"MSOA","name":"Merton 017"},"type":"Feature"},{"geometry":{"coordinates":[[[-0.1652713,51.4039584],[-0.1652462,51.4067635],[-0.1603307,51.4076109],[-0.1677024,51.4113234],[-0.1722441,51.4102941],[-0.1803917,51.4022213],[-0.1751122,51.3988439],[-0.1731913,51.4025568],[-0.1652713,51.4039584]]],"type":"Polygon"},"id":"E02000706","properties":{"code":"E02000706","geography":"MSOA","name":"Merton 018"},"type":"Feature"},{"geometry":{"coordinates":[[[-0.1254963,51.3987223],[-0.1315331,51.4049274],[-0.1404445,51.4023155],[-0.1351229,51.4000144],[-0.1424141,51.3976373],[-0.1404487,51.3925939],[-0.1346381,51.3909877],[-0.1343792,51.3908858],[-0.1278979,51.3948311],[-0.1254963,51.3987223]]],"type":"Polygon"},"id":"E02000707","properties":{"code":"E02000707","geography":"MSOA","name":"Merton 019"},"type":"Feature"},{"geometry":{"coordinates":[[[-0.2249347,51.4019093],[-0.2348702,51.4031916],[-0.2367655,51.3987831],[-0.2446551,51.4038567],[-0.2469682,51.3971602],[-0.2396911,51.3892963],[-0.2346576,51.390539],[-0.2322486,51.3926048],[-0.2208964,51.3967678],[-0.2249347,51.4019093]]],"type":"Polygon"},"id":"E02000708","properties":{"code":"E02000708","geography":"MSOA","name":"Merton 020"},"type":"Feature"},{"geometry":{"coordinates":[[[-0.2031708,51.4016087],[-0.2145339,51.4040646],[-0.2249347,51.4019093],[-0.2208964,51.3967678],[-0.2322486,51.3926048],[-0.223353,51.3906105],[-0.2231922,51.3928259],[-0.2163185,51.3924862],[-0.2001751,51.397261],[-0.2031708,51.4016087]]],"type":"Polygon"},"id":"E02000709","properties":{"code":"E02000709","geography":"MSOA","name":"Merton 021"},"type":"Feature"},{"geometry":{"coordinates":[[[-0.1803917,51.4022213],[-0.1838537,51.4043455],[-0.1874555,51.4020634],[-0.1830259,51.3958609],[-0.1867636,51.3969613],[-0.1874102,51.3946027],[-0.1844538,51.3955335],[-0.1817657,51.39139],[-0.1792682,51.389843],[-0.1748675,51.3934177],[-0.165289,51.3879787],[-0.1526814,51.389809],[-0.1346381,51.3909877],[-0.1404487,51.3925939],[-0.1584879,51.3982046],[-0.1575114,51.4030694],[-0.1652713,51.4039584],[-0.1731913,51.4025568],[-0.1751122,51.3988439],[-0.1803917,51.4022213]]],"type":"Polygon"},"id":"E02000710","properties":{"code":"E02000710","geography":"MSOA","name":"Merton 022"},"type":"Feature"},{"geometry":{"coordinates":[[[-0.1838537,51.4043455],[-0.1869446,51.4059332],[-0.1981697,51.3993552],[-0.2049469,51.4046968],[-0.2031708,51.4016087],[-0.2001751,51.397261],[-0.1942946,51.3947942],[-0.1911655,51.3973179],[-0.1908613,51.3900472],[-0.1817657,51.39139],[-0.1844538,51.3955335],[-0.1874102,51.3946027],[-0.1867636,51.3969613],[-0.1830259,51.3958609],[-0.1874555,51.4020634],[-0.1838537,51.4043455]]],"type":"Polygon"},"id":"E02000711","properties":{"code":"E02000711","geography":"MSOA","name":"Merton 023"},"type":"Feature"},{"geometry":{"coordinates":[[[-0.1817657,51.39139],[-0.1908613,51.3900472],[-0.1911655,51.3973179],[-0.1942946,51.3947942],[-0.2001751,51.397261],[-0.2163185,51.3924862],[-0.2066434,51.3896968],[-0.208831,51.387848],[-0.200317,51.3849626],[-0.1822398,51.3883062],[-0.1792682,51.389843],[-0.1817657,51.39139]]],"type":"Polygon"},"id":"E02000712","properties":{"code":"E02000712","geography":"MSOA","name":"Merton 024"},"type":"Feature"},{"geometry":{"coordinates":[[[-0.2163185,51.3924862],[-0.2231922,51.3928259],[-0.223353,51.3906105],[-0.2322486,51.3926048],[-0.2346576,51.390539],[-0.227815,51.3839953],[-0.2181376,51.3801501],[-0.208831,51.387848],[-0.2066434,51.3896968],[-0.2163185,51.3924862]]],"type":"Polygon"},"id":"E02000713","properties":{"code":"E02000713","geography":"MSOA","name":"Merton 025"},"type":"Feature"}],"type":"FeatureCollection"}
