{"features":[{"geometry":{"coordinates":[[[-0.0337313,51.5046322],[-0.0338964,51.5060819],[-0.0430198,51.5072165],[-0.0479271,51.5041998],[-0.0517455,51.5028717],[-0.0461254,51.4981722],[-0.0368838,51.5014193],[-0.0364331,51.5045007],[-0.0337313,51.5046322]]],"type":"Polygon"},"id":"E02000807","properties":{"code":"E02000807","geography":"MSOA","name":"Southwark 001"},"type":"Feature"},{"geometry":{"coordinates":[[[-0.0881114,51.5068264],[-0.0886223,51.5068831],[-0.1047022,51.5086234],[-0.1083972,51.5084636],[-0.1064997,51.5050625],[-0.1013435,51.5027765],[-0.0996849,51.4966784],[-0.0950676,51.5001868],[-0.089875,51.4986313],[-0.0884156,51.5060912],[-0.0881114,51.5068264]]],"type":"Polygon"},"id":"E02000808","properties":{"code":"E02000808","geography":"MSOA","name":"Southwark 002"},"type":"Feature"},{"geometry":{"coordinates":[[[-0.0605835,51.4981176],[-0.0597948,51.5008006],[-0.0712055,51.5005207],[-0.0725397,51.5000568],[-0.0788132,51.4958158],[-0.0774557,51.494209],[-0.0737462,51.4932395],[-0.0698988,51.4966515],[-0.0631597,51.4935638],[-0.0605835,51.4981176]]],"type":"Polygon"},"id":"E02000810","properties":{"code":"E02000810","geography":"MSOA","name":"Southwark 004"},"type":"Feature"},{"geometry":{"coordinates":[[[-0.0814507,51.502733],[-0.0884156,51.5060912],[-0.089875,51.4986313],[-0.0931532,51.4962442],[-0.0903303,51.4941946],[-0.0835692,51.4926747],[-0.0774557,51.494209],[-0.0788132,51.4958158],[-0.0857974,51.4992281],[-0.0814507,51.502733]]],"type":"Polygon"},"id":"E02000812","properties":{"code":"E02000812","geography":"MSOA","name":"Southwark 006"},"type":"Feature"},{"geometry":{"coordinates":[[[-0.0461254,51.4981722],[-0.0517455,51.5028717],[-0.0520972,51.5027494],[-0.057284,51.5008621],[-0.0577824,51.5008499],[-0.0597948,51.5008006],[-0.0605835,51.4981176],[-0.0595131,51.4950539],[-0.048784,51.4932873],[-0.0492605,51.4900416],[-0.0425047,51.4902409],[-0.0470379,51.4931094],[-0.0461254,51.4981722]]],"type":"Polygon"},"id":"E02000813","properties":{"code":"E02000813","geography":"MSOA","name":"Southwark 007"},"type":"Feature"},{"geometry":{"coordinates":[[[-0.0324486,51.4933698],[-0.0334814,51.5024382],[-0.0337313,51.5046322],[-0.0364331,51.5045007],[-0.0368838,51.5014193],[-0.0461254,51.4981722],[-0.0470379,51.4931094],[-0.0425047,51.4902409],[-0.0405578,51.4927965],[-0.0324486,51.4933698]]],"type":"Polygon"},"id":"E02000814","properties":{"code":"E02000814","geography":"MSOA","name":"Southwark 008"},"type":"Feature"},{"geometry":{"coordinates":[[[-0.089875,51.4986313],[-0.0950676,51.5001868],[-0.0996849,51.4966784],[-0.1003937,51.4933385],[-0.0980657,51.4919151],[-0.0903303,51.4941946],[-0.0931532,51.4962442],[-0.089875,51.4986313]]],"type":"Polygon"},"id":"E02000815","properties":{"code":"E02000815","geography":"MSOA","name":"Southwark 009"},"type":"Feature"},{"geometry":{"coordinates":[[[-0.0631597,51.4935638],[-0.0698988,51.4966515],[-0.0737462,51.4932395],[-0.0678912,51.4898702],[-0.0686065,51.4849233],[-0.0677408,51.484572],[-0.0618889,51.4871315],[-0.0553171,51.4901607],[-0.0631597,51.4935638]]],"type":"Polygon"},"id":"E02000816","properties":{"code":"E02000816","geography":"MSOA","name":"Southwark 010"},"type":"Feature"},{"geometry":{"coordinates":[[[-0.0492605,51.4900416],[-0.048784,51.4932873],[-0.0595131,51.4950539],[-0.0605835,51.4981176],[-0.0631597,51.4935638],[-0.0553171,51.4901607],[-0.0618889,51.4871315],[-0.0531875,51.4850793],[-0.0540158,51.4879688],[-0.0502492,51.4880737],[-0.0492605,51.4900416]]],"type":"Polygon"},"id":"E02000817","properties":{"code":"E02000817","geography":"MSOA","name":"Southwark 011"},"type":"Feature"},{"geometry":{"coordinates":[[[-0.0835692,51.4926747],[-0.0903303,51.4941946],[-0.0980657,51.4919151],[-0.0964805,51.4894764],[-0.1027149,51.4875743],[-0.1004331,51.4851791],[-0.0946889,51.486418],[-0.0936031,51.4904278],[-0.0865948,51.4892742],[-0.0811296,51.4907737],[-0.0835692,51.4926747]]],"type":"Polygon"},"id":"E02000818","properties":{"code":"E02000818","geography":"MSOA","name":"Southwark 012"},"type":"Feature"},{"geometry":{"coordinates":[[[-0.0737462,51.4932395],[-0.0774557,51.494209],[-0.0835692,51.4926747],[-0.0811296,51.4907737],[-0.0686065,51.4849233],[-0.0678912,51.4898702],[-0.0737462,51.4932395]]],"type":"Polygon"},"id":"E02000819","properties":{"code":"E02000819","geography":"MSOA","name":"Southwark 013"},"type":"Feature"},{"geometry":{"coordinates":[[[-0.0980657,51.4919151],[-0.1003937,51.4933385],[-0.1030734,51.491522],[-0.1064959,51.4877891],[-0.108452,51.485848],[-0.1057383,51.4824405],[-0.1004331,51.4851791],[-0.1027149,51.4875743],[-0.0964805,51.4894764],[-0.0980657,51.4919151]]],"type":"Polygon"},"id":"E02000820","properties":{"code":"E02000820","geography":"MSOA","name":"Southwark 014"},"type":"Feature"},{"geometry":{"coordinates":[[[-0.0686065,51.4849233],[-0.0811296,51.4907737],[-0.0865948,51.4892742],[-0.0885861,51.4866655],[-0.0858443,51.4839387],[-0.0810448,51.4855881],[-0.0810342,51.4818216],[-0.0729523,51.4827231],[-0.0677408,51.484572],[-0.0686065,51.4849233]]],"type":"Polygon"},"id":"E02000821","properties":{"code":"E02000821","geography":"MSOA","name":"Southwark 015"},"type":"Feature"},{"geometry":{"coordinates":[[[-0.0865948,51.4892742],[-0.0936031,51.4904278],[-0.0946889,51.486418],[-0.0912752,51.4861212],[-0.0919149,51.4825588],[-0.0862128,51.4839047],[-0.0857029,51.4819809],[-0.0810342,51.4818216],[-0.0810448,51.4855881],[-0.0858443,51.4839387],[-0.0885861,51.4866655],[-0.0865948,51.4892742]]],"type":"Polygon"},"id":"E02000822","properties":{"code":"E02000822","geography":"MSOA","name":"Southwark 016"},"type":"Feature"},{"geometry":{"coordinates":[[[-0.0857029,51.4819809],[-0.0862128,51.4839047],[-0.0919149,51.4825588],[-0.0912752,51.4861212],[-0.0946889,51.486418],[-0.1004331,51.4851791],[-0.1057383,51.4824405],[-0.1055541,51.4791471],[-0.1019556,51.4809864],[-0.0935867,51.4790886],[-0.0854517,51.4809062],[-0.0857029,51.4819809]]],"type":"Polygon"},"id":"E02000823","properties":{"code":"E02000823","geography":"MSOA","name":"Southwark 017"},"type":"Feature"},{"geometry":{"coordinates":[[[-0.0531875,51.4850793],[-0.0618889,51.4871315],[-0.0677408,51.484572],[-0.0729523,51.4827231],[-0.0762573,51.4788359],[-0.0731732,51.4771895],[-0.061623,51.4775565],[-0.0600163,51.4807944],[-0.05402,51.4791021],[-0.0531875,51.4850793]]],"type":"Polygon"},"id":"E02000824","properties":{"code":"E02000824","geography":"MSOA","name":"Southwark 018"},"type":"Feature"},{"geometry":{"coordinates":[[[-0.0731732,51.4771895],[-0.0762573,51.4788359],[-0.0729523,51.4827231],[-0.0810342,51.4818216],[-0.0857029,51.4819809],[-0.0854517,51.4809062],[-0.080457,51.4771348],[-0.0825081,51.4741256],[-0.0788551,51.4741108],[-0.0742896,51.4740583],[-0.0731732,51.4771895]]],"type":"Polygon"},"id":"E02000825","properties":{"code":"E02000825","geography":"MSOA","name":"Southwark 019"},"type":"Feature"},{"geometry":{"coordinates":[[[-0.0825081,51.4741256],[-0.080457,51.4771348],[-0.0854517,51.4809062],[-0.0935867,51.4790886],[-0.0904763,51.4743415],[-0.0857453,51.4709927],[-0.0825081,51.4741256]]],"type":"Polygon"},"id":"E02000826","properties":{"code":"E02000826","geography":"MSOA","name":"Southwark 020"},"type":"Feature"},{"geometry":{"coordinates":[[[-0.0935867,51.4790886],[-0.1019556,51.4809864],[-0.1055541,51.4791471],[-0.100525,51.4741599],[-0.0960325,51.469905],[-0.0930236,51.472014],[-0.0904763,51.4743415],[-0.0935867,51.4790886]]],"type":"Polygon"},"id":"E02000827","properties":{"code":"E02000827","geography":"MSOA","name":"Southwark 021"},"type":"Feature"},{"geometry":{"coordinates":[[[-0.063821,51.4701735],[-0.061623,51.4775565],[-0.0731732,51.4771895],[-0.0742896,51.4740583],[-0.0742944,51.4710839],[-0.0640176,51.4700334],[-0.063821,51.4701735]]],"type":"Polygon"},"id":"E02000828","properties":{"code":"E02000828","geography":"MSOA","name":"Southwark 022"},"type":"Feature"},{"geometry":{"coordinates":[[[-0.05402,51.4791021],[-0.0600163,51.4807944],[-0.061623,51.4775565],[-0.063821,51.4701735],[-0.0541456,51.4678106],[-0.0522846,51.4714326],[-0.0527011,51.478008],[-0.05402,51.4791021]]],"type":"Polygon"},"id":"E02000829","properties":{"code":"E02000829","geography":"MSOA","name":"Southwark 023"},"type":"Feature"},{"geometry":{"coordinates":[[[-0.0825081,51.4741256],[-0.0857453,51.4709927],[-0.0904763,51.4743415],[-0.0930236,51.472014],[-0.0911454,51.4676135],[-0.0797177,51.4653035],[-0.0804531,51.4615013],[-0.0753797,51.4615574],[-0.0776299,51.4653745],[-0.0739851,51.4689585],[-0.0785255,51.4693648],[-0.0788551,51.4741108],[-0.0825081,51.4741256]]],"type":"Polygon"},"id":"E02000830","properties":{"code":"E02000830","geography":"MSOA","name":"Southwark 024"},"type":"Feature"},{"geometry":{"coordinates":[[[-0.0640176,51.4700334],[-0.0742944,51.4710839],[-0.0742896,51.4740583],[-0.0788551,51.4741108],[-0.0785255,51.4693648],[-0.0739851,51.4689585],[-0.0776299,51.4653745],[-0.0730094,51.4666601],[-0.0714325,51.4614162],[-0.0682229,51.4621838],[-0.0692218,51.4641871],[-0.0621172,51.4658379],[-0.0664176,51.4678516],[-0.0640176,51.4700334]]],"type":"Polygon"},"id":"E02000831","properties":{"code":"E02000831","geography":"MSOA","name":"Southwark 025"},"type":"Feature"},{"geometry":{"coordinates":[[[-0.0490177,51.4662151],[-0.0522846,51.4714326],[-0.0541456,51.4678106],[-0.063821,51.4701735],[-0.0640176,51.4700334],[-0.0664176,51.4678516],[-0.0621172,51.4658379],[-0.0692218,51.4641871],[-0.0682229,51.4621838],[-0.0598962,51.4601098],[-0.0557854,51.4627688],[-0.0530822,51.4610659],[-0.0490177,51.4662151]]],"type":"Polygon"},"id":"E02000832","properties":{"code":"E02000832","geography":"MSOA","name":"Southwark 026"},"type":"Feature"},{"geometry":{"coordinates":[[[-0.0804531,51.4615013],[-0.0797177,51.4653035],[-0.0911454,51.4676135],[-0.0922135,51.4611202],[-0.0888401,51.4542393],[-0.0848302,51.4567138],[-0.0829399,51.4585259],[-0.0804531,51.4615013]]],"type":"Polygon"},"id":"E02000833","properties":{"code":"E02000833","geography":"MSOA","name":"Southwark 027"},"type":"Feature"},{"geometry":{"coordinates":[[[-0.0682229,51.4621838],[-0.0714325,51.4614162],[-0.0730094,51.4666601],[-0.0776299,51.4653745],[-0.0753797,51.4615574],[-0.0804531,51.4615013],[-0.0829399,51.4585259],[-0.0736475,51.4597785],[-0.0725592,51.4519048],[-0.069861,51.4545108],[-0.0655151,51.4521874],[-0.0586889,51.4550714],[-0.0550732,51.4585274],[-0.0598962,51.4601098],[-0.0682229,51.4621838]]],"type":"Polygon"},"id":"E02000834","properties":{"code":"E02000834","geography":"MSOA","name":"Southwark 028"},"type":"Feature"},{"geometry":{"coordinates":[[[-0.04837,51.4659381],[-0.0490177,51.4662151],[-0.0530822,51.4610659],[-0.0557854,51.4627688],[-0.0598962,51.4601098],[-0.0550732,51.4585274],[-0.0586889,51.4550714],[-0.060412,51.4486752],[-0.0461516,51.4498733],[-0.042483,51.4538435],[-0.0416485,51.4549899],[-0.046174,51.4569244],[-0.04837,51.4659381]]],"type":"Polygon"},"id":"E02000835","properties":{"code":"E02000835","geography":"MSOA","name":"Southwark 029"},"type":"Feature"},{"geometry":{"coordinates":[[[-0.0725592,51.4519048],[-0.0736475,51.4597785],[-0.0829399,51.4585259],[-0.0848302,51.4567138],[-0.0846413,51.4512807],[-0.0743304,51.4491244],[-0.0725592,51.4519048]]],"type":"Polygon"},"id":"E02000836","properties":{"code":"E02000836","geography":"MSOA","name":"Southwark 030"},"type":"Feature"},{"geometry":{"coordinates":[[[-0.0848302,51.4567138],[-0.0888401,51.4542393],[-0.0922135,51.4611202],[-0.1010363,51.454005],[-0.1007626,51.4503115],[-0.0928756,51.4410777],[-0.0756297,51.4429054],[-0.0712086,51.4455595],[-0.0743304,51.4491244],[-0.0846413,51.4512807],[-0.0848302,51.4567138]]],"type":"Polygon"},"id":"E02000837","properties":{"code":"E02000837","geography":"MSOA","name":"Southwark 031"},"type":"Feature"},{"geometry":{"coordinates":[[[-0.060412,51.4486752],[-0.0586889,51.4550714],[-0.0655151,51.4521874],[-0.069861,51.4545108],[-0.0725592,51.4519048],[-0.0743304,51.4491244],[-0.0712086,51.4455595],[-0.0756297,51.4429054],[-0.065002,51.4411805],[-0.060412,51.4486752]]],"type":"Polygon"},"id":"E02000838","properties":{"code":"E02000838","geography":"MSOA","name":"Southwark 032"},"type":"Feature"},{"geometry":{"coordinates":[[[-0.065002,51.4411805],[-0.0756297,51.4429054],[-0.0928756,51.4410777],[-0.0904651,51.4360981],[-0.089871,51.4338058],[-0.0782933,51.4205731],[-0.0739445,51.4261516],[-0.0728595,51.4320881],[-0.0659744,51.4344568],[-0.0640649,51.4408508],[-0.065002,51.4411805]]],"type":"Polygon"},"id":"E02000839","properties":{"code":"E02000839","geography":"MSOA","name":"Southwark 033"},"type":"Feature"},{"geometry":{"coordinates":[[[-0.0996849,51.4966784],[-0.1013435,51.5027765],[-0.1064997,51.5050625],[-0.1109566,51.4954988],[-0.1030734,51.491522],[-0.1003937,51.4933385],[-0.0996849,51.4966784]]],"type":"Polygon"},"id":"E02006802","properties":{"code":"E02006802","geography":"MSOA","name":"Southwark 034"},"type":"Feature"},{"geometry":{"coordinates":[[[-0.0712055,51.5005207],[-0.0735399,51.5004633],[-0.0708587,51.502516],[-0.0724568,51.5030857],[-0.0761498,51.5044021],[-0.0881114,51.5068264],[-0.0884156,51.5060912],[-0.0814507,51.502733],[-0.0725397,51.5000568],[-0.0712055,51.5005207]]],"type":"Polygon"},"id":"E02006941","properties":{"code":"E02006941","geography":"MSOA","name":"Southwark 035"},"type":"Feature"},{"geometry":{"coordinates":[[[-0.0725397,51.5000568],[-0.0814507,51.502733],[-0.0857974,51.4992281],[-0.0788132,51.4958158],[-0.0725397,51.5000568]]],"type":"Polygon"},"id":"E02006942","properties":{"code":"E02006942","geography":"MSOA","name":"Southwark 036"},"type":"Feature"}],"type":"FeatureCollection"}
