{"features":[{"geometry":{"coordinates":[[[-0.058588,51.5731735],[-0.0611855,51.5777842],[-0.0756975,51.5755476],[-0.077601,51.5751835],[-0.0776104,51.5705958],[-0.0735601,51.5704218],[-0.0648566,51.5745627],[-0.0656207,51.5721779],[-0.058588,51.5731735]]],"type":"Polygon"},"id":"E02000345","properties":{"code":"E02000345","geography":"MSOA","name":"Hackney 001"},"type":"Feature"},{"geometry":{"coordinates":[[[-0.0892324,51.5667761],[-0.0885762,51.5722732],[-0.0801553,51.5755707],[-0.0934712,51.5740127],[-0.0978498,51.5736082],[-0.0981805,51.5690842],[-0.0907525,51.5659527],[-0.0892324,51.5667761]]],"type":"Polygon"},"id":"E02000346","properties":{"code":"E02000346","geography":"MSOA","name":"Hackney 002"},"type":"Feature"},{"geometry":{"coordinates":[[[-0.077601,51.5751835],[-0.0801553,51.5755707],[-0.0885762,51.5722732],[-0.0892324,51.5667761],[-0.0776206,51.5661827],[-0.0758733,51.567156],[-0.0735601,51.5704218],[-0.0776104,51.5705958],[-0.077601,51.5751835]]],"type":"Polygon"},"id":"E02000347","properties":{"code":"E02000347","geography":"MSOA","name":"Hackney 003"},"type":"Feature"},{"geometry":{"coordinates":[[[-0.058588,51.5731735],[-0.0656207,51.5721779],[-0.0648566,51.5745627],[-0.0735601,51.5704218],[-0.0758733,51.567156],[-0.0731093,51.5654158],[-0.0729476,51.5679028],[-0.0619521,51.5678547],[-0.0568983,51.5714519],[-0.058588,51.5731735]]],"type":"Polygon"},"id":"E02000348","properties":{"code":"E02000348","geography":"MSOA","name":"Hackney 004"},"type":"Feature"},{"geometry":{"coordinates":[[[-0.0598203,51.5625527],[-0.0671086,51.5623175],[-0.0619521,51.5678547],[-0.0729476,51.5679028],[-0.0731093,51.5654158],[-0.0692813,51.5580674],[-0.0598203,51.5625527]]],"type":"Polygon"},"id":"E02000350","properties":{"code":"E02000350","geography":"MSOA","name":"Hackney 006"},"type":"Feature"},{"geometry":{"coordinates":[[[-0.0907525,51.5659527],[-0.0981805,51.5690842],[-0.1045085,51.5647103],[-0.0932639,51.5604842],[-0.0917038,51.560222],[-0.0907525,51.5659527]]],"type":"Polygon"},"id":"E02000351","properties":{"code":"E02000351","geography":"MSOA","name":"Hackney 007"},"type":"Feature"},{"geometry":{"coordinates":[[[-0.0776206,51.5661827],[-0.0892324,51.5667761],[-0.0907525,51.5659527],[-0.0917038,51.560222],[-0.0904211,51.5576714],[-0.0850269,51.559137],[-0.0820494,51.5565685],[-0.0807147,51.5593361],[-0.0851199,51.5608362],[-0.0792961,51.5621392],[-0.0776206,51.5661827]]],"type":"Polygon"},"id":"E02000352","properties":{"code":"E02000352","geography":"MSOA","name":"Hackney 008"},"type":"Feature"},{"geometry":{"coordinates":[[[-0.0731093,51.5654158],[-0.0758733,51.567156],[-0.0776206,51.5661827],[-0.0792961,51.5621392],[-0.0851199,51.5608362],[-0.0807147,51.5593361],[-0.0788172,51.557898],[-0.073928,51.5607166],[-0.0745651,51.5559154],[-0.0688086,51.5574731],[-0.0692813,51.5580674],[-0.0731093,51.5654158]]],"type":"Polygon"},"id":"E02000353","properties":{"code":"E02000353","geography":"MSOA","name":"Hackney 009"},"type":"Feature"},{"geometry":{"coordinates":[[[-0.0565,51.5597275],[-0.0581548,51.563014],[-0.0598203,51.5625527],[-0.0692813,51.5580674],[-0.0688086,51.5574731],[-0.068151,51.5555759],[-0.0639315,51.5519061],[-0.0560424,51.5521866],[-0.0529803,51.5528016],[-0.0565,51.5597275]]],"type":"Polygon"},"id":"E02000354","properties":{"code":"E02000354","geography":"MSOA","name":"Hackney 010"},"type":"Feature"},{"geometry":{"coordinates":[[[-0.0452893,51.5591747],[-0.0521088,51.5623708],[-0.0565,51.5597275],[-0.0529803,51.5528016],[-0.0467561,51.5520593],[-0.0458266,51.5567017],[-0.0452893,51.5591747]]],"type":"Polygon"},"id":"E02000355","properties":{"code":"E02000355","geography":"MSOA","name":"Hackney 011"},"type":"Feature"},{"geometry":{"coordinates":[[[-0.0788172,51.557898],[-0.0807147,51.5593361],[-0.0820494,51.5565685],[-0.0850269,51.559137],[-0.0904211,51.5576714],[-0.0903948,51.5544235],[-0.0851443,51.5521085],[-0.079337,51.5541157],[-0.0788172,51.557898]]],"type":"Polygon"},"id":"E02000356","properties":{"code":"E02000356","geography":"MSOA","name":"Hackney 012"},"type":"Feature"},{"geometry":{"coordinates":[[[-0.0301161,51.5613595],[-0.045104,51.5617574],[-0.0452893,51.5591747],[-0.0458266,51.5567017],[-0.0356579,51.5531993],[-0.0351274,51.5498608],[-0.0180831,51.5516671],[-0.0171913,51.5517083],[-0.0301161,51.5613595]]],"type":"Polygon"},"id":"E02000357","properties":{"code":"E02000357","geography":"MSOA","name":"Hackney 013"},"type":"Feature"},{"geometry":{"coordinates":[[[-0.0688086,51.5574731],[-0.0745651,51.5559154],[-0.073928,51.5607166],[-0.0788172,51.557898],[-0.079337,51.5541157],[-0.0851443,51.5521085],[-0.0775122,51.5491771],[-0.0719224,51.5508632],[-0.0685199,51.5511669],[-0.0750514,51.5522549],[-0.068151,51.5555759],[-0.0688086,51.5574731]]],"type":"Polygon"},"id":"E02000358","properties":{"code":"E02000358","geography":"MSOA","name":"Hackney 014"},"type":"Feature"},{"geometry":{"coordinates":[[[-0.0351274,51.5498608],[-0.0356579,51.5531993],[-0.0458266,51.5567017],[-0.0467561,51.5520593],[-0.0464012,51.5512521],[-0.0409982,51.5487312],[-0.0351274,51.5498608]]],"type":"Polygon"},"id":"E02000359","properties":{"code":"E02000359","geography":"MSOA","name":"Hackney 015"},"type":"Feature"},{"geometry":{"coordinates":[[[-0.0560424,51.5521866],[-0.0639315,51.5519061],[-0.068151,51.5555759],[-0.0750514,51.5522549],[-0.0685199,51.5511669],[-0.0689952,51.5476496],[-0.0638692,51.546108],[-0.0560424,51.5521866]]],"type":"Polygon"},"id":"E02000360","properties":{"code":"E02000360","geography":"MSOA","name":"Hackney 016"},"type":"Feature"},{"geometry":{"coordinates":[[[-0.0467561,51.5520593],[-0.0529803,51.5528016],[-0.0560424,51.5521866],[-0.0638692,51.546108],[-0.0553931,51.5436663],[-0.0549073,51.5431841],[-0.0473549,51.5467463],[-0.053492,51.5500559],[-0.0464012,51.5512521],[-0.0467561,51.5520593]]],"type":"Polygon"},"id":"E02000361","properties":{"code":"E02000361","geography":"MSOA","name":"Hackney 017"},"type":"Feature"},{"geometry":{"coordinates":[[[-0.0165041,51.5432796],[-0.0180831,51.5516671],[-0.0351274,51.5498608],[-0.0409982,51.5487312],[-0.0375744,51.5442596],[-0.0357506,51.5430048],[-0.0165041,51.5432796]]],"type":"Polygon"},"id":"E02000362","properties":{"code":"E02000362","geography":"MSOA","name":"Hackney 018"},"type":"Feature"},{"geometry":{"coordinates":[[[-0.0409982,51.5487312],[-0.0464012,51.5512521],[-0.053492,51.5500559],[-0.0473549,51.5467463],[-0.0549073,51.5431841],[-0.0519399,51.5413584],[-0.0462918,51.5449114],[-0.0375744,51.5442596],[-0.0409982,51.5487312]]],"type":"Polygon"},"id":"E02000363","properties":{"code":"E02000363","geography":"MSOA","name":"Hackney 019"},"type":"Feature"},{"geometry":{"coordinates":[[[-0.0638692,51.546108],[-0.0689952,51.5476496],[-0.0685199,51.5511669],[-0.0719224,51.5508632],[-0.0754561,51.5481335],[-0.0703811,51.5458363],[-0.0644514,51.5432674],[-0.0741163,51.5392179],[-0.0615672,51.541039],[-0.0553931,51.5436663],[-0.0638692,51.546108]]],"type":"Polygon"},"id":"E02000364","properties":{"code":"E02000364","geography":"MSOA","name":"Hackney 020"},"type":"Feature"},{"geometry":{"coordinates":[[[-0.0375744,51.5442596],[-0.0462918,51.5449114],[-0.0519399,51.5413584],[-0.0458001,51.5389021],[-0.0488969,51.5359864],[-0.0407369,51.5381003],[-0.0357506,51.5430048],[-0.0375744,51.5442596]]],"type":"Polygon"},"id":"E02000366","properties":{"code":"E02000366","geography":"MSOA","name":"Hackney 022"},"type":"Feature"},{"geometry":{"coordinates":[[[-0.0549073,51.5431841],[-0.0553931,51.5436663],[-0.0615672,51.541039],[-0.0624717,51.5355163],[-0.0588518,51.5341039],[-0.0528408,51.5348886],[-0.0488969,51.5359864],[-0.0458001,51.5389021],[-0.0519399,51.5413584],[-0.0549073,51.5431841]]],"type":"Polygon"},"id":"E02000367","properties":{"code":"E02000367","geography":"MSOA","name":"Hackney 023"},"type":"Feature"},{"geometry":{"coordinates":[[[-0.0624717,51.5355163],[-0.0615672,51.541039],[-0.0741163,51.5392179],[-0.074023,51.5384967],[-0.0723347,51.5318993],[-0.0739801,51.5302442],[-0.0663137,51.5312268],[-0.0624717,51.5355163]]],"type":"Polygon"},"id":"E02000368","properties":{"code":"E02000368","geography":"MSOA","name":"Hackney 024"},"type":"Feature"},{"geometry":{"coordinates":[[[-0.074023,51.5384967],[-0.0818783,51.5365584],[-0.0807326,51.5405828],[-0.0853715,51.540684],[-0.0865783,51.5374027],[-0.0897042,51.5360006],[-0.0829198,51.5348978],[-0.0830631,51.5325752],[-0.0801729,51.5327298],[-0.0723347,51.5318993],[-0.074023,51.5384967]]],"type":"Polygon"},"id":"E02000369","properties":{"code":"E02000369","geography":"MSOA","name":"Hackney 025"},"type":"Feature"},{"geometry":{"coordinates":[[[-0.0830631,51.5325752],[-0.0829198,51.5348978],[-0.0897042,51.5360006],[-0.0970335,51.5329812],[-0.0954072,51.5291935],[-0.090665,51.5279869],[-0.0886179,51.5323934],[-0.0830631,51.5325752]]],"type":"Polygon"},"id":"E02000370","properties":{"code":"E02000370","geography":"MSOA","name":"Hackney 026"},"type":"Feature"},{"geometry":{"coordinates":[[[-0.0511765,51.5677215],[-0.0536437,51.5691847],[-0.0581548,51.563014],[-0.0565,51.5597275],[-0.0521088,51.5623708],[-0.0452893,51.5591747],[-0.045104,51.5617574],[-0.0511765,51.5677215]]],"type":"Polygon"},"id":"E02006918","properties":{"code":"E02006918","geography":"MSOA","name":"Hackney 028"},"type":"Feature"},{"geometry":{"coordinates":[[[-0.0536437,51.5691847],[-0.0568983,51.5714519],[-0.0619521,51.5678547],[-0.0671086,51.5623175],[-0.0598203,51.5625527],[-0.0581548,51.563014],[-0.0536437,51.5691847]]],"type":"Polygon"},"id":"E02006921","properties":{"code":"E02006921","geography":"MSOA","name":"Hackney 029"},"type":"Feature"},{"geometry":{"coordinates":[[[-0.0703811,51.5458363],[-0.0754561,51.5481335],[-0.0719224,51.5508632],[-0.0775122,51.5491771],[-0.0768396,51.5460798],[-0.0827717,51.5465505],[-0.0837752,51.5461788],[-0.0779548,51.5418595],[-0.0703811,51.5458363]]],"type":"Polygon"},"id":"E02007108","properties":{"code":"E02007108","geography":"MSOA","name":"Hackney 030"},"type":"Feature"},{"geometry":{"coordinates":[[[-0.0703811,51.5458363],[-0.0779548,51.5418595],[-0.0837752,51.5461788],[-0.0853715,51.540684],[-0.0807326,51.5405828],[-0.0818783,51.5365584],[-0.074023,51.5384967],[-0.0741163,51.5392179],[-0.0644514,51.5432674],[-0.0703811,51.5458363]]],"type":"Polygon"},"id":"E02007109","properties":{"code":"E02007109","geography":"MSOA","name":"Hackney 031"},"type":"Feature"},{"geometry":{"coordinates":[[[-0.0850209,51.5262031],[-0.0801496,51.5281608],[-0.0801729,51.5327298],[-0.0830631,51.5325752],[-0.0886179,51.5323934],[-0.090665,51.5279869],[-0.0850209,51.5262031]]],"type":"Polygon"},"id":"E02007110","properties":{"code":"E02007110","geography":"MSOA","name":"Hackney 032"},"type":"Feature"},{"geometry":{"coordinates":[[[-0.0723347,51.5318993],[-0.0801729,51.5327298],[-0.0801496,51.5281608],[-0.0850209,51.5262031],[-0.0852184,51.5203339],[-0.0784716,51.5215099],[-0.0761881,51.5221515],[-0.0765662,51.525378],[-0.0739801,51.5302442],[-0.0723347,51.5318993]]],"type":"Polygon"},"id":"E02007111","properties":{"code":"E02007111","geography":"MSOA","name":"Hackney 033"},"type":"Feature"}],"type":"FeatureCollection"}
