{"features":[{"geometry":{"coordinates":[[[-0.0283315,51.4890049],[-0.0324128,51.4930555],[-0.0324486,51.4933698],[-0.0405578,51.4927965],[-0.0425047,51.4902409],[-0.0492605,51.4900416],[-0.0502492,51.4880737],[-0.0435323,51.4842889],[-0.0393526,51.4884452],[-0.0341983,51.4863629],[-0.0283315,51.4890049]]],"type":"Polygon"},"id":"E02000653","properties":{"code":"E02000653","geography":"MSOA","name":"Lewisham 001"},"type":"Feature"},{"geometry":{"coordinates":[[[-0.0243808,51.4852363],[-0.0248473,51.4855462],[-0.0283315,51.4890049],[-0.0341983,51.4863629],[-0.0393526,51.4884452],[-0.0435323,51.4842889],[-0.0434148,51.4840727],[-0.0346549,51.479242],[-0.0230717,51.4796282],[-0.0264092,51.48151],[-0.0243808,51.4852363]]],"type":"Polygon"},"id":"E02000654","properties":{"code":"E02000654","geography":"MSOA","name":"Lewisham 002"},"type":"Feature"},{"geometry":{"coordinates":[[[-0.0435323,51.4842889],[-0.0502492,51.4880737],[-0.0540158,51.4879688],[-0.0531875,51.4850793],[-0.05402,51.4791021],[-0.0527011,51.478008],[-0.0406176,51.4748213],[-0.0371122,51.4767704],[-0.0434148,51.4840727],[-0.0435323,51.4842889]]],"type":"Polygon"},"id":"E02000655","properties":{"code":"E02000655","geography":"MSOA","name":"Lewisham 003"},"type":"Feature"},{"geometry":{"coordinates":[[[-0.0228044,51.4744638],[-0.0402745,51.4749006],[-0.0383902,51.470887],[-0.0375608,51.4651063],[-0.0217076,51.4739943],[-0.0228044,51.4744638]]],"type":"Polygon"},"id":"E02000657","properties":{"code":"E02000657","geography":"MSOA","name":"Lewisham 005"},"type":"Feature"},{"geometry":{"coordinates":[[[-0.0406176,51.4748213],[-0.0527011,51.478008],[-0.0522846,51.4714326],[-0.0490177,51.4662151],[-0.04837,51.4659381],[-0.0383902,51.470887],[-0.0402745,51.4749006],[-0.0406176,51.4748213]]],"type":"Polygon"},"id":"E02000658","properties":{"code":"E02000658","geography":"MSOA","name":"Lewisham 006"},"type":"Feature"},{"geometry":{"coordinates":[[[-0.0022269,51.4719024],[-0.0140772,51.4726382],[-0.0131304,51.4689357],[-0.0102117,51.4627312],[0.0002686,51.4621466],[-0.0009151,51.460345],[0.0031585,51.4610749],[0.0028442,51.4652659],[-0.0022269,51.4719024]]],"type":"Polygon"},"id":"E02000659","properties":{"code":"E02000659","geography":"MSOA","name":"Lewisham 007"},"type":"Feature"},{"geometry":{"coordinates":[[[-0.0171409,51.4692978],[-0.0217076,51.4739943],[-0.0375608,51.4651063],[-0.0383996,51.4617502],[-0.0324327,51.461338],[-0.0198583,51.4680526],[-0.0171409,51.4692978]]],"type":"Polygon"},"id":"E02000660","properties":{"code":"E02000660","geography":"MSOA","name":"Lewisham 008"},"type":"Feature"},{"geometry":{"coordinates":[[[0.0093189,51.46403],[0.0183237,51.4739128],[0.01209,51.4731733],[-0.0022269,51.4719024],[0.0028442,51.4652659],[0.0031585,51.4610749],[-0.0009151,51.460345],[-0.0031539,51.4591029],[0.0113822,51.4566756],[0.0093189,51.46403]]],"type":"Polygon"},"id":"E02000661","properties":{"code":"E02000661","geography":"MSOA","name":"Lewisham 009"},"type":"Feature"},{"geometry":{"coordinates":[[[-0.0375608,51.4651063],[-0.0383902,51.470887],[-0.04837,51.4659381],[-0.046174,51.4569244],[-0.0416485,51.4549899],[-0.0392194,51.4596853],[-0.0383996,51.4617502],[-0.0375608,51.4651063]]],"type":"Polygon"},"id":"E02000662","properties":{"code":"E02000662","geography":"MSOA","name":"Lewisham 010"},"type":"Feature"},{"geometry":{"coordinates":[[[-0.0161511,51.4602506],[-0.0198583,51.4680526],[-0.0324327,51.461338],[-0.024783,51.4623218],[-0.0270893,51.4604867],[-0.0188467,51.4565838],[-0.0161511,51.4602506]]],"type":"Polygon"},"id":"E02000663","properties":{"code":"E02000663","geography":"MSOA","name":"Lewisham 011"},"type":"Feature"},{"geometry":{"coordinates":[[[0.0113822,51.4566756],[-0.0031539,51.4591029],[-0.009098,51.4566312],[-0.0025018,51.4530783],[-0.0011402,51.4518476],[0.0117782,51.4551583],[0.0183709,51.4515945],[0.01748,51.4550497],[0.0113822,51.4566756]]],"type":"Polygon"},"id":"E02000665","properties":{"code":"E02000665","geography":"MSOA","name":"Lewisham 013"},"type":"Feature"},{"geometry":{"coordinates":[[[-0.0188467,51.4565838],[-0.0270893,51.4604867],[-0.024783,51.4623218],[-0.0324327,51.461338],[-0.0383996,51.4617502],[-0.0392194,51.4596853],[-0.0258729,51.4499577],[-0.0220407,51.4520319],[-0.0188467,51.4565838]]],"type":"Polygon"},"id":"E02000666","properties":{"code":"E02000666","geography":"MSOA","name":"Lewisham 014"},"type":"Feature"},{"geometry":{"coordinates":[[[-0.0258729,51.4499577],[-0.0392194,51.4596853],[-0.0416485,51.4549899],[-0.042483,51.4538435],[-0.043245,51.4508647],[-0.0333102,51.4513717],[-0.0333017,51.446564],[-0.0258729,51.4499577]]],"type":"Polygon"},"id":"E02000667","properties":{"code":"E02000667","geography":"MSOA","name":"Lewisham 015"},"type":"Feature"},{"geometry":{"coordinates":[[[0.0183709,51.4515945],[0.0117782,51.4551583],[-0.0011402,51.4518476],[0.0053715,51.445418],[0.0223436,51.4481127],[0.0223092,51.4481652],[0.0150418,51.4500383],[0.0183709,51.4515945]]],"type":"Polygon"},"id":"E02000668","properties":{"code":"E02000668","geography":"MSOA","name":"Lewisham 016"},"type":"Feature"},{"geometry":{"coordinates":[[[-0.0011402,51.4518476],[-0.0025018,51.4530783],[-0.0167713,51.4520305],[-0.0169611,51.4505071],[-0.00905,51.4506219],[-0.0057114,51.445079],[0.0044187,51.4452608],[0.0053715,51.445418],[-0.0011402,51.4518476]]],"type":"Polygon"},"id":"E02000669","properties":{"code":"E02000669","geography":"MSOA","name":"Lewisham 017"},"type":"Feature"},{"geometry":{"coordinates":[[[-0.0057114,51.445079],[-0.00905,51.4506219],[-0.0169611,51.4505071],[-0.0203519,51.4431983],[-0.0101884,51.4421916],[-0.0057114,51.445079]]],"type":"Polygon"},"id":"E02000670","properties":{"code":"E02000670","geography":"MSOA","name":"Lewisham 018"},"type":"Feature"},{"geometry":{"coordinates":[[[-0.0333017,51.446564],[-0.0333102,51.4513717],[-0.043245,51.4508647],[-0.042483,51.4538435],[-0.0461516,51.4498733],[-0.0517864,51.4420867],[-0.0340282,51.4422477],[-0.0333017,51.446564]]],"type":"Polygon"},"id":"E02000671","properties":{"code":"E02000671","geography":"MSOA","name":"Lewisham 019"},"type":"Feature"},{"geometry":{"coordinates":[[[-0.0169611,51.4505071],[-0.0167713,51.4520305],[-0.0220407,51.4520319],[-0.0258729,51.4499577],[-0.0333017,51.446564],[-0.0340282,51.4422477],[-0.0329895,51.4390672],[-0.0264867,51.4436285],[-0.0242718,51.4386463],[-0.0194948,51.4389269],[-0.0203519,51.4431983],[-0.0169611,51.4505071]]],"type":"Polygon"},"id":"E02000672","properties":{"code":"E02000672","geography":"MSOA","name":"Lewisham 020"},"type":"Feature"},{"geometry":{"coordinates":[[[-0.0517864,51.4420867],[-0.0461516,51.4498733],[-0.060412,51.4486752],[-0.065002,51.4411805],[-0.0640649,51.4408508],[-0.0534046,51.4379936],[-0.0527876,51.440292],[-0.0517864,51.4420867]]],"type":"Polygon"},"id":"E02000673","properties":{"code":"E02000673","geography":"MSOA","name":"Lewisham 021"},"type":"Feature"},{"geometry":{"coordinates":[[[0.0024021,51.4367478],[0.0061853,51.4374036],[0.0044187,51.4452608],[-0.0057114,51.445079],[-0.0101884,51.4421916],[-0.0101476,51.438349],[-0.0052935,51.4397593],[-0.0063635,51.4371684],[0.0006928,51.4363987],[0.0024021,51.4367478]]],"type":"Polygon"},"id":"E02000674","properties":{"code":"E02000674","geography":"MSOA","name":"Lewisham 022"},"type":"Feature"},{"geometry":{"coordinates":[[[0.028887,51.4416252],[0.0215619,51.4427027],[0.0223436,51.4481127],[0.0053715,51.445418],[0.0191869,51.4326432],[0.0210307,51.431393],[0.0250193,51.4315898],[0.0253529,51.4358419],[0.028887,51.4416252]]],"type":"Polygon"},"id":"E02000675","properties":{"code":"E02000675","geography":"MSOA","name":"Lewisham 023"},"type":"Feature"},{"geometry":{"coordinates":[[[-0.0329895,51.4390672],[-0.0340282,51.4422477],[-0.0517864,51.4420867],[-0.0527876,51.440292],[-0.0478658,51.4406783],[-0.0466113,51.4350667],[-0.0338649,51.4371042],[-0.0329895,51.4390672]]],"type":"Polygon"},"id":"E02000676","properties":{"code":"E02000676","geography":"MSOA","name":"Lewisham 024"},"type":"Feature"},{"geometry":{"coordinates":[[[-0.0101884,51.4421916],[-0.0203519,51.4431983],[-0.0194948,51.4389269],[-0.0242718,51.4386463],[-0.0192606,51.4327731],[0.0006928,51.4363987],[-0.0063635,51.4371684],[-0.0052935,51.4397593],[-0.0101476,51.438349],[-0.0101884,51.4421916]]],"type":"Polygon"},"id":"E02000677","properties":{"code":"E02000677","geography":"MSOA","name":"Lewisham 025"},"type":"Feature"},{"geometry":{"coordinates":[[[0.0191869,51.4326432],[0.0053715,51.445418],[0.0044187,51.4452608],[0.0061853,51.4374036],[0.0024021,51.4367478],[0.0073785,51.4344361],[-0.0015947,51.4294304],[0.0191869,51.4326432]]],"type":"Polygon"},"id":"E02000678","properties":{"code":"E02000678","geography":"MSOA","name":"Lewisham 026"},"type":"Feature"},{"geometry":{"coordinates":[[[-0.0338649,51.4371042],[-0.0466113,51.4350667],[-0.0478658,51.4406783],[-0.0527876,51.440292],[-0.0534046,51.4379936],[-0.0531008,51.43373],[-0.0514592,51.4291115],[-0.0414217,51.4303541],[-0.0338649,51.4371042]]],"type":"Polygon"},"id":"E02000679","properties":{"code":"E02000679","geography":"MSOA","name":"Lewisham 027"},"type":"Feature"},{"geometry":{"coordinates":[[[-0.0534046,51.4379936],[-0.0640649,51.4408508],[-0.0659744,51.4344568],[-0.0728595,51.4320881],[-0.0613199,51.4305534],[-0.0531008,51.43373],[-0.0534046,51.4379936]]],"type":"Polygon"},"id":"E02000680","properties":{"code":"E02000680","geography":"MSOA","name":"Lewisham 028"},"type":"Feature"},{"geometry":{"coordinates":[[[-0.0242718,51.4386463],[-0.0264867,51.4436285],[-0.0329895,51.4390672],[-0.0338649,51.4371042],[-0.0414217,51.4303541],[-0.0395284,51.4277101],[-0.0376234,51.4307371],[-0.0315188,51.4278347],[-0.0313291,51.4300518],[-0.0268941,51.428574],[-0.0221682,51.4311411],[-0.0180199,51.4289913],[-0.0192606,51.4327731],[-0.0242718,51.4386463]]],"type":"Polygon"},"id":"E02000681","properties":{"code":"E02000681","geography":"MSOA","name":"Lewisham 029"},"type":"Feature"},{"geometry":{"coordinates":[[[-0.0015947,51.4294304],[0.0073785,51.4344361],[0.0024021,51.4367478],[0.0006928,51.4363987],[-0.0192606,51.4327731],[-0.0180199,51.4289913],[-0.0174688,51.4265597],[-0.0131242,51.4285894],[-0.0011981,51.4261427],[-0.0015947,51.4294304]]],"type":"Polygon"},"id":"E02000682","properties":{"code":"E02000682","geography":"MSOA","name":"Lewisham 030"},"type":"Feature"},{"geometry":{"coordinates":[[[0.0388212,51.4246918],[0.0376761,51.4333787],[0.0311664,51.4320727],[0.0286401,51.4364245],[0.0253529,51.4358419],[0.0250193,51.4315898],[0.0210307,51.431393],[0.0209078,51.4268189],[0.0254642,51.428931],[0.0345654,51.4233936],[0.0388212,51.4246918]]],"type":"Polygon"},"id":"E02000683","properties":{"code":"E02000683","geography":"MSOA","name":"Lewisham 031"},"type":"Feature"},{"geometry":{"coordinates":[[[-0.0514592,51.4291115],[-0.0531008,51.43373],[-0.0613199,51.4305534],[-0.0728595,51.4320881],[-0.0739445,51.4261516],[-0.0614577,51.4248025],[-0.0588416,51.4274729],[-0.0515866,51.4261409],[-0.0514592,51.4291115]]],"type":"Polygon"},"id":"E02000685","properties":{"code":"E02000685","geography":"MSOA","name":"Lewisham 033"},"type":"Feature"},{"geometry":{"coordinates":[[[-0.0180199,51.4289913],[-0.0221682,51.4311411],[-0.0268941,51.428574],[-0.0313291,51.4300518],[-0.0315188,51.4278347],[-0.0376234,51.4307371],[-0.0395284,51.4277101],[-0.0399088,51.4243144],[-0.0333739,51.4246425],[-0.0209613,51.4209191],[-0.0214142,51.4162681],[-0.0077091,51.4145303],[-0.0174688,51.4265597],[-0.0180199,51.4289913]]],"type":"Polygon"},"id":"E02000686","properties":{"code":"E02000686","geography":"MSOA","name":"Lewisham 034"},"type":"Feature"},{"geometry":{"coordinates":[[[-0.0395284,51.4277101],[-0.0414217,51.4303541],[-0.0514592,51.4291115],[-0.0515866,51.4261409],[-0.0588416,51.4274729],[-0.0614577,51.4248025],[-0.0564503,51.422966],[-0.0399088,51.4243144],[-0.0395284,51.4277101]]],"type":"Polygon"},"id":"E02000687","properties":{"code":"E02000687","geography":"MSOA","name":"Lewisham 035"},"type":"Feature"},{"geometry":{"coordinates":[[[0.0210307,51.431393],[0.0191869,51.4326432],[-0.0015947,51.4294304],[0.0078669,51.422564],[0.0209078,51.4268189],[0.0210307,51.431393]]],"type":"Polygon"},"id":"E02006783","properties":{"code":"E02006783","geography":"MSOA","name":"Lewisham 037"},"type":"Feature"},{"geometry":{"coordinates":[[[0.0078669,51.422564],[-0.0015947,51.4294304],[-0.0011981,51.4261427],[-0.0131242,51.4285894],[-0.0174688,51.4265597],[-0.0077091,51.4145303],[0.0034922,51.4174051],[0.0078669,51.422564]]],"type":"Polygon"},"id":"E02006784","properties":{"code":"E02006784","geography":"MSOA","name":"Lewisham 038"},"type":"Feature"},{"geometry":{"coordinates":[[[-0.0230717,51.4796282],[-0.0346549,51.479242],[-0.0434148,51.4840727],[-0.0371122,51.4767704],[-0.0406176,51.4748213],[-0.0402745,51.4749006],[-0.0228044,51.4744638],[-0.0220067,51.4754255],[-0.0172167,51.4799502],[-0.0227676,51.4753539],[-0.0173515,51.4801993],[-0.017306,51.48024],[-0.0230717,51.4796282]]],"type":"Polygon"},"id":"E02006798","properties":{"code":"E02006798","geography":"MSOA","name":"Lewisham 039"},"type":"Feature"},{"geometry":{"coordinates":[[[-0.0131304,51.4689357],[-0.0171409,51.4692978],[-0.0198583,51.4680526],[-0.0161511,51.4602506],[-0.0102117,51.4627312],[-0.0131304,51.4689357]]],"type":"Polygon"},"id":"E02007008","properties":{"code":"E02007008","geography":"MSOA","name":"Lewisham 040"},"type":"Feature"},{"geometry":{"coordinates":[[[-0.0009151,51.460345],[0.0002686,51.4621466],[-0.0102117,51.4627312],[-0.0161511,51.4602506],[-0.0188467,51.4565838],[-0.0220407,51.4520319],[-0.0167713,51.4520305],[-0.0025018,51.4530783],[-0.009098,51.4566312],[-0.0031539,51.4591029],[-0.0009151,51.460345]]],"type":"Polygon"},"id":"E02007009","properties":{"code":"E02007009","geography":"MSOA","name":"Lewisham 041"},"type":"Feature"}],"type":"FeatureCollection"}
