{"features":[{"geometry":{"coordinates":[[[0.0043721,51.6415235],[-0.0122855,51.6462287],[-0.0147945,51.6367351],[-0.0152759,51.6356714],[-0.0218473,51.627367],[-0.0219438,51.6243436],[-0.0188035,51.6269354],[-0.0166576,51.622835],[-0.0123463,51.6227971],[-0.0111414,51.6270939],[5.69e-05,51.6323076],[0.0043721,51.6415235]]],"type":"Polygon"},"id":"E02000895","properties":{"code":"E02000895","geography":"MSOA","name":"Waltham Forest 001"},"type":"Feature"},{"geometry":{"coordinates":[[[0.0251326,51.6372879],[0.0226933,51.641114],[0.0043721,51.6415235],[5.69e-05,51.6323076],[-0.0111414,51.6270939],[0.0010428,51.625493],[0.0019103,51.6230341],[0.0047908,51.6278437],[0.0200209,51.6264863],[0.0217929,51.6288314],[0.025198,51.6352481],[0.0251326,51.6372879]]],"type":"Polygon"},"id":"E02000896","properties":{"code":"E02000896","geography":"MSOA","name":"Waltham Forest 002"},"type":"Feature"},{"geometry":{"coordinates":[[[0.0200209,51.6264863],[0.0047908,51.6278437],[0.0019103,51.6230341],[0.0012132,51.6143677],[0.005357,51.6160934],[0.0109434,51.6092648],[0.01924,51.6082294],[0.0212312,51.6122716],[0.0087785,51.619081],[0.0144997,51.6189017],[0.0200209,51.6264863]]],"type":"Polygon"},"id":"E02000897","properties":{"code":"E02000897","geography":"MSOA","name":"Waltham Forest 003"},"type":"Feature"},{"geometry":{"coordinates":[[[0.0019103,51.6230341],[0.0010428,51.625493],[-0.0111414,51.6270939],[-0.0123463,51.6227971],[-0.0130723,51.6150753],[-0.0068821,51.6132001],[-0.01089,51.6111532],[-0.0128998,51.6085584],[-0.0067429,51.6084408],[0.0012132,51.6143677],[0.0019103,51.6230341]]],"type":"Polygon"},"id":"E02000898","properties":{"code":"E02000898","geography":"MSOA","name":"Waltham Forest 004"},"type":"Feature"},{"geometry":{"coordinates":[[[-0.0123463,51.6227971],[-0.0166576,51.622835],[-0.0188035,51.6269354],[-0.0219438,51.6243436],[-0.0218473,51.627367],[-0.0258968,51.6218598],[-0.0259956,51.6217663],[-0.0259174,51.6180245],[-0.0220228,51.6201474],[-0.0202213,51.6182057],[-0.0253855,51.615028],[-0.0174559,51.6145579],[-0.0178897,51.6098804],[-0.0152107,51.6123364],[-0.01089,51.6111532],[-0.0068821,51.6132001],[-0.0130723,51.6150753],[-0.0123463,51.6227971]]],"type":"Polygon"},"id":"E02000899","properties":{"code":"E02000899","geography":"MSOA","name":"Waltham Forest 005"},"type":"Feature"},{"geometry":{"coordinates":[[[-0.0178897,51.6098804],[-0.0174559,51.6145579],[-0.0253855,51.615028],[-0.0202213,51.6182057],[-0.0220228,51.6201474],[-0.0259174,51.6180245],[-0.0259956,51.6217663],[-0.0354529,51.6127997],[-0.0340212,51.6094868],[-0.0162575,51.6008446],[-0.0178897,51.6098804]]],"type":"Polygon"},"id":"E02000900","properties":{"code":"E02000900","geography":"MSOA","name":"Waltham Forest 006"},"type":"Feature"},{"geometry":{"coordinates":[[[0.01924,51.6082294],[0.0109434,51.6092648],[0.005357,51.6160934],[0.0012132,51.6143677],[-0.0067429,51.6084408],[-0.0018037,51.6042632],[-0.0035357,51.5975206],[0.0102372,51.6043504],[0.0154596,51.6026689],[0.0174003,51.6053073],[0.01924,51.6082294]]],"type":"Polygon"},"id":"E02000901","properties":{"code":"E02000901","geography":"MSOA","name":"Waltham Forest 007"},"type":"Feature"},{"geometry":{"coordinates":[[[-0.01089,51.6111532],[-0.0152107,51.6123364],[-0.0178897,51.6098804],[-0.0162575,51.6008446],[-0.019854,51.6004333],[-0.0154356,51.5972941],[-0.0126404,51.6001334],[-0.0117394,51.5970669],[-0.0085196,51.6005384],[-0.006085,51.596504],[-0.0035357,51.5975206],[-0.0018037,51.6042632],[-0.0067429,51.6084408],[-0.0128998,51.6085584],[-0.01089,51.6111532]]],"type":"Polygon"},"id":"E02000902","properties":{"code":"E02000902","geography":"MSOA","name":"Waltham Forest 008"},"type":"Feature"},{"geometry":{"coordinates":[[[-0.0162575,51.6008446],[-0.0340212,51.6094868],[-0.0414515,51.6056308],[-0.0461289,51.6001305],[-0.0424264,51.5988661],[-0.0446665,51.5957587],[-0.0382365,51.5970212],[-0.0302798,51.5927602],[-0.0235736,51.5962558],[-0.0255406,51.5995285],[-0.019854,51.6004333],[-0.0162575,51.6008446]]],"type":"Polygon"},"id":"E02000903","properties":{"code":"E02000903","geography":"MSOA","name":"Waltham Forest 009"},"type":"Feature"},{"geometry":{"coordinates":[[[0.0154596,51.6026689],[0.0102372,51.6043504],[-0.0035357,51.5975206],[-0.006085,51.596504],[-0.0085196,51.6005384],[-0.0117394,51.5970669],[-0.0082353,51.5932244],[-0.0118331,51.5900941],[0.0051113,51.5932536],[0.0124147,51.5953199],[0.0154596,51.6026689]]],"type":"Polygon"},"id":"E02000904","properties":{"code":"E02000904","geography":"MSOA","name":"Waltham Forest 010"},"type":"Feature"},{"geometry":{"coordinates":[[[-0.0117394,51.5970669],[-0.0126404,51.6001334],[-0.0154356,51.5972941],[-0.019854,51.6004333],[-0.0255406,51.5995285],[-0.0235736,51.5962558],[-0.0214492,51.5884021],[-0.023458,51.590034],[-0.0292727,51.5858708],[-0.0205969,51.5869097],[-0.01469,51.5899073],[-0.0118331,51.5900941],[-0.0082353,51.5932244],[-0.0117394,51.5970669]]],"type":"Polygon"},"id":"E02000905","properties":{"code":"E02000905","geography":"MSOA","name":"Waltham Forest 011"},"type":"Feature"},{"geometry":{"coordinates":[[[-0.0292727,51.5858708],[-0.023458,51.590034],[-0.0214492,51.5884021],[-0.0235736,51.5962558],[-0.0302798,51.5927602],[-0.0365009,51.5876243],[-0.0346997,51.5852542],[-0.0292727,51.5858708]]],"type":"Polygon"},"id":"E02000906","properties":{"code":"E02000906","geography":"MSOA","name":"Waltham Forest 012"},"type":"Feature"},{"geometry":{"coordinates":[[[-0.0125019,51.5838859],[-0.0100406,51.5809892],[-0.009143,51.5844364],[-0.0061836,51.58269],[-0.0053789,51.5856399],[0.0040822,51.5880517],[0.0084871,51.5908767],[0.0051113,51.5932536],[-0.0118331,51.5900941],[-0.01469,51.5899073],[-0.0161774,51.5855714],[-0.0125019,51.5838859]]],"type":"Polygon"},"id":"E02000907","properties":{"code":"E02000907","geography":"MSOA","name":"Waltham Forest 013"},"type":"Feature"},{"geometry":{"coordinates":[[[-0.0302798,51.5927602],[-0.0382365,51.5970212],[-0.0446665,51.5957587],[-0.0424264,51.5988661],[-0.0461289,51.6001305],[-0.0502977,51.5968505],[-0.0522402,51.5875693],[-0.059762,51.581509],[-0.06104,51.5808254],[-0.0479667,51.5832746],[-0.0428158,51.5794764],[-0.0382567,51.5807827],[-0.0346997,51.5852542],[-0.0365009,51.5876243],[-0.0302798,51.5927602]]],"type":"Polygon"},"id":"E02000908","properties":{"code":"E02000908","geography":"MSOA","name":"Waltham Forest 014"},"type":"Feature"},{"geometry":{"coordinates":[[[0.0122369,51.5943214],[0.0124147,51.5953199],[0.0051113,51.5932536],[0.0084871,51.5908767],[0.0040822,51.5880517],[-0.0053789,51.5856399],[-0.0061836,51.58269],[-0.009143,51.5844364],[-0.0100406,51.5809892],[-0.0125019,51.5838859],[-0.0178727,51.5793697],[-0.0130715,51.5791153],[-0.0059846,51.5789783],[0.0014634,51.5818738],[0.0143489,51.5833287],[0.0122369,51.5943214]]],"type":"Polygon"},"id":"E02000909","properties":{"code":"E02000909","geography":"MSOA","name":"Waltham Forest 015"},"type":"Feature"},{"geometry":{"coordinates":[[[-0.0125019,51.5838859],[-0.0161774,51.5855714],[-0.01469,51.5899073],[-0.0205969,51.5869097],[-0.0188374,51.5830313],[-0.0252171,51.5823312],[-0.0215166,51.5744516],[-0.0130715,51.5791153],[-0.0178727,51.5793697],[-0.0125019,51.5838859]]],"type":"Polygon"},"id":"E02000910","properties":{"code":"E02000910","geography":"MSOA","name":"Waltham Forest 016"},"type":"Feature"},{"geometry":{"coordinates":[[[-0.0252171,51.5823312],[-0.0188374,51.5830313],[-0.0205969,51.5869097],[-0.0292727,51.5858708],[-0.0346997,51.5852542],[-0.0382567,51.5807827],[-0.0356367,51.5765997],[-0.0298783,51.5761624],[-0.0252171,51.5823312]]],"type":"Polygon"},"id":"E02000911","properties":{"code":"E02000911","geography":"MSOA","name":"Waltham Forest 017"},"type":"Feature"},{"geometry":{"coordinates":[[[-0.0382567,51.5807827],[-0.0428158,51.5794764],[-0.0479667,51.5832746],[-0.06104,51.5808254],[-0.0611855,51.5777842],[-0.058588,51.5731735],[-0.0568983,51.5714519],[-0.0536437,51.5691847],[-0.0511765,51.5677215],[-0.0482062,51.5719292],[-0.0350048,51.5740622],[-0.025562,51.570541],[-0.0199664,51.5721285],[-0.0215166,51.5744516],[-0.0252171,51.5823312],[-0.0298783,51.5761624],[-0.0356367,51.5765997],[-0.0382567,51.5807827]]],"type":"Polygon"},"id":"E02000912","properties":{"code":"E02000912","geography":"MSOA","name":"Waltham Forest 018"},"type":"Feature"},{"geometry":{"coordinates":[[[0.0109858,51.5773124],[0.0014634,51.5818738],[-0.0059846,51.5789783],[-0.010722,51.5742886],[-0.0085093,51.5728823],[-0.0082898,51.5699642],[-0.0053868,51.5688682],[0.0109858,51.5773124]]],"type":"Polygon"},"id":"E02000913","properties":{"code":"E02000913","geography":"MSOA","name":"Waltham Forest 019"},"type":"Feature"},{"geometry":{"coordinates":[[[-0.0059846,51.5789783],[-0.0130715,51.5791153],[-0.0215166,51.5744516],[-0.0199664,51.5721285],[-0.0199709,51.569157],[-0.0155301,51.5677748],[-0.0092137,51.5716069],[-0.008872,51.5718142],[-0.0082898,51.5699642],[-0.0085093,51.5728823],[-0.010722,51.5742886],[-0.0059846,51.5789783]]],"type":"Polygon"},"id":"E02000914","properties":{"code":"E02000914","geography":"MSOA","name":"Waltham Forest 020"},"type":"Feature"},{"geometry":{"coordinates":[[[0.0164593,51.5728852],[0.0143489,51.5833287],[0.0014634,51.5818738],[0.0109858,51.5773124],[-0.0053868,51.5688682],[-0.0017919,51.5676442],[0.0022938,51.566192],[0.0164593,51.5728852]]],"type":"Polygon"},"id":"E02000915","properties":{"code":"E02000915","geography":"MSOA","name":"Waltham Forest 021"},"type":"Feature"},{"geometry":{"coordinates":[[[-0.0199664,51.5721285],[-0.025562,51.570541],[-0.0350048,51.5740622],[-0.0482062,51.5719292],[-0.0511765,51.5677215],[-0.045104,51.5617574],[-0.0301161,51.5613595],[-0.0199709,51.569157],[-0.0199664,51.5721285]]],"type":"Polygon"},"id":"E02000916","properties":{"code":"E02000916","geography":"MSOA","name":"Waltham Forest 022"},"type":"Feature"},{"geometry":{"coordinates":[[[-0.0017919,51.5676442],[-0.0053868,51.5688682],[-0.0082898,51.5699642],[-0.008872,51.5718142],[-0.0092137,51.5716069],[-0.0155301,51.5677748],[-0.0161707,51.562856],[-0.0108079,51.5629567],[-0.0102493,51.5654037],[-0.0023326,51.562659],[-0.0017919,51.5676442]]],"type":"Polygon"},"id":"E02000917","properties":{"code":"E02000917","geography":"MSOA","name":"Waltham Forest 023"},"type":"Feature"},{"geometry":{"coordinates":[[[0.0188988,51.5722511],[0.0164593,51.5728852],[0.0022938,51.566192],[0.0043582,51.5637956],[0.0094933,51.5630062],[0.0072085,51.5591581],[0.0144558,51.5603926],[0.0189574,51.5715191],[0.0188988,51.5722511]]],"type":"Polygon"},"id":"E02000918","properties":{"code":"E02000918","geography":"MSOA","name":"Waltham Forest 024"},"type":"Feature"},{"geometry":{"coordinates":[[[0.0022938,51.566192],[-0.0017919,51.5676442],[-0.0023326,51.562659],[-0.0102493,51.5654037],[-0.0108079,51.5629567],[-0.0041917,51.5578386],[0.0043582,51.5637956],[0.0022938,51.566192]]],"type":"Polygon"},"id":"E02000919","properties":{"code":"E02000919","geography":"MSOA","name":"Waltham Forest 025"},"type":"Feature"},{"geometry":{"coordinates":[[[-0.0155301,51.5677748],[-0.0199709,51.569157],[-0.0301161,51.5613595],[-0.0171913,51.5517083],[-0.0092621,51.5517795],[-0.0038123,51.5511331],[-0.0041917,51.5578386],[-0.0108079,51.5629567],[-0.0161707,51.562856],[-0.0155301,51.5677748]]],"type":"Polygon"},"id":"E02000920","properties":{"code":"E02000920","geography":"MSOA","name":"Waltham Forest 026"},"type":"Feature"},{"geometry":{"coordinates":[[[0.0072085,51.5591581],[0.0094933,51.5630062],[0.0043582,51.5637956],[-0.0041917,51.5578386],[-0.0038123,51.5511331],[0.0057713,51.5518673],[0.0072085,51.5591581]]],"type":"Polygon"},"id":"E02000921","properties":{"code":"E02000921","geography":"MSOA","name":"Waltham Forest 027"},"type":"Feature"},{"geometry":{"coordinates":[[[0.0203394,51.5562661],[0.0144558,51.5603926],[0.0072085,51.5591581],[0.0057713,51.5518673],[0.0055018,51.5506586],[0.0135829,51.5546087],[0.0169454,51.5531814],[0.0203394,51.5562661]]],"type":"Polygon"},"id":"E02000922","properties":{"code":"E02000922","geography":"MSOA","name":"Waltham Forest 028"},"type":"Feature"}],"type":"FeatureCollection"}
