{"features":[{"geometry":{"coordinates":[[[0.1498162,51.5970043],[0.1481361,51.599048],[0.1418993,51.5965795],[0.1295286,51.590058],[0.1276388,51.5816374],[0.132937,51.5808961],[0.1316113,51.577133],[0.1351997,51.579742],[0.1402143,51.578351],[0.1415709,51.5863568],[0.1510833,51.5870785],[0.1498162,51.5970043]]],"type":"Polygon"},"id":"E02000002","properties":{"code":"E02000002","geography":"MSOA","name":"Barking and Dagenham 001"},"type":"Feature"},{"geometry":{"coordinates":[[[0.148382,51.5807517],[0.1510833,51.5870785],[0.1415709,51.5863568],[0.1402143,51.578351],[0.1351997,51.579742],[0.1316113,51.577133],[0.1294187,51.5739803],[0.1296766,51.5681014],[0.1293623,51.5665295],[0.1369271,51.5670557],[0.1433808,51.5675189],[0.1460282,51.5646505],[0.1498781,51.5680699],[0.1466431,51.5694146],[0.1497524,51.5696964],[0.148382,51.5807517]]],"type":"Polygon"},"id":"E02000003","properties":{"code":"E02000003","geography":"MSOA","name":"Barking and Dagenham 002"},"type":"Feature"},{"geometry":{"coordinates":[[[0.1901795,51.55268],[0.1826189,51.5613116],[0.1850808,51.5647993],[0.1683205,51.5635308],[0.1636815,51.5527841],[0.1697093,51.5506214],[0.164886,51.5495275],[0.1680182,51.5473127],[0.1859954,51.5475353],[0.1901795,51.55268]]],"type":"Polygon"},"id":"E02000004","properties":{"code":"E02000004","geography":"MSOA","name":"Barking and Dagenham 003"},"type":"Feature"},{"geometry":{"coordinates":[[[0.1543871,51.5660658],[0.1498781,51.5680699],[0.1460282,51.5646505],[0.1433808,51.5675189],[0.1369271,51.5670557],[0.134325,51.5604826],[0.1356112,51.5574409],[0.1452208,51.5558112],[0.1433187,51.5531088],[0.1481942,51.5546451],[0.1478721,51.5610836],[0.1543871,51.5660658]]],"type":"Polygon"},"id":"E02000005","properties":{"code":"E02000005","geography":"MSOA","name":"Barking and Dagenham 004"},"type":"Feature"},{"geometry":{"coordinates":[[[0.1683205,51.5635308],[0.1618527,51.5615998],[0.1543871,51.5660658],[0.1478721,51.5610836],[0.1481942,51.5546451],[0.1496823,51.5512786],[0.1563493,51.5510189],[0.1636815,51.5527841],[0.1683205,51.5635308]]],"type":"Polygon"},"id":"E02000007","properties":{"code":"E02000007","geography":"MSOA","name":"Barking and Dagenham 006"},"type":"Feature"},{"geometry":{"coordinates":[[[0.1481942,51.5546451],[0.1433187,51.5531088],[0.1452208,51.5558112],[0.1356112,51.5574409],[0.134325,51.5604826],[0.1269643,51.557873],[0.1243038,51.5514387],[0.130409,51.5517813],[0.1257157,51.547246],[0.1308761,51.5450603],[0.1340892,51.5485687],[0.1496823,51.5512786],[0.1481942,51.5546451]]],"type":"Polygon"},"id":"E02000008","properties":{"code":"E02000008","geography":"MSOA","name":"Barking and Dagenham 007"},"type":"Feature"},{"geometry":{"coordinates":[[[0.117151,51.5568916],[0.1133288,51.5573177],[0.1123524,51.5529991],[0.1073959,51.5519179],[0.1061819,51.5509574],[0.1069151,51.5495473],[0.1257157,51.547246],[0.130409,51.5517813],[0.1243038,51.5514387],[0.1251544,51.5546349],[0.117151,51.5568916]]],"type":"Polygon"},"id":"E02000009","properties":{"code":"E02000009","geography":"MSOA","name":"Barking and Dagenham 008"},"type":"Feature"},{"geometry":{"coordinates":[[[0.1563493,51.5510189],[0.1496823,51.5512786],[0.1340892,51.5485687],[0.1308761,51.5450603],[0.1318863,51.5437724],[0.1430105,51.5466585],[0.1495639,51.5440094],[0.1520834,51.5463404],[0.1498354,51.5417241],[0.1606462,51.5431427],[0.1563493,51.5510189]]],"type":"Polygon"},"id":"E02000010","properties":{"code":"E02000010","geography":"MSOA","name":"Barking and Dagenham 009"},"type":"Feature"},{"geometry":{"coordinates":[[[0.1859954,51.5475353],[0.1680182,51.5473127],[0.164886,51.5495275],[0.1697093,51.5506214],[0.1636815,51.5527841],[0.1563493,51.5510189],[0.1606462,51.5431427],[0.174496,51.5381405],[0.1859954,51.5475353]]],"type":"Polygon"},"id":"E02000011","properties":{"code":"E02000011","geography":"MSOA","name":"Barking and Dagenham 010"},"type":"Feature"},{"geometry":{"coordinates":[[[0.1069151,51.5495473],[0.1061819,51.5509574],[0.0934637,51.5457933],[0.092538,51.5496051],[0.0884879,51.547704],[0.0850134,51.546882],[0.0949519,51.5408589],[0.0937406,51.5376813],[0.1009417,51.5382723],[0.1056848,51.5386779],[0.1096263,51.5458534],[0.1069151,51.5495473]]],"type":"Polygon"},"id":"E02000012","properties":{"code":"E02000012","geography":"MSOA","name":"Barking and Dagenham 011"},"type":"Feature"},{"geometry":{"coordinates":[[[0.1257157,51.547246],[0.1069151,51.5495473],[0.1096263,51.5458534],[0.1152345,51.5466796],[0.1150438,51.5413853],[0.1220029,51.5399047],[0.1222314,51.5346507],[0.1231351,51.5382261],[0.1296763,51.5371816],[0.1341775,51.5407158],[0.1318863,51.5437724],[0.1308761,51.5450603],[0.1257157,51.547246]]],"type":"Polygon"},"id":"E02000013","properties":{"code":"E02000013","geography":"MSOA","name":"Barking and Dagenham 012"},"type":"Feature"},{"geometry":{"coordinates":[[[0.1498354,51.5417241],[0.1520834,51.5463404],[0.1495639,51.5440094],[0.1430105,51.5466585],[0.1318863,51.5437724],[0.1341775,51.5407158],[0.1404658,51.5409499],[0.1370138,51.5371752],[0.1421558,51.5339845],[0.1515655,51.5343957],[0.1517362,51.5371202],[0.1498354,51.5417241]]],"type":"Polygon"},"id":"E02000014","properties":{"code":"E02000014","geography":"MSOA","name":"Barking and Dagenham 013"},"type":"Feature"},{"geometry":{"coordinates":[[[0.174496,51.5381405],[0.1606462,51.5431427],[0.1498354,51.5417241],[0.1517362,51.5371202],[0.1659841,51.5287997],[0.1738019,51.5374358],[0.174496,51.5381405]]],"type":"Polygon"},"id":"E02000015","properties":{"code":"E02000015","geography":"MSOA","name":"Barking and Dagenham 014"},"type":"Feature"},{"geometry":{"coordinates":[[[0.0714575,51.5436401],[0.0683267,51.5444142],[0.0682817,51.5442869],[0.0682787,51.5381452],[0.0685807,51.5362208],[0.0735801,51.5375652],[0.0760614,51.5336066],[0.0825866,51.5357267],[0.0854939,51.5370344],[0.0779478,51.5440888],[0.0714575,51.5436401]]],"type":"Polygon"},"id":"E02000016","properties":{"code":"E02000016","geography":"MSOA","name":"Barking and Dagenham 015"},"type":"Feature"},{"geometry":{"coordinates":[[[0.0937406,51.5376813],[0.0949519,51.5408589],[0.0850134,51.546882],[0.0779478,51.5440888],[0.0854939,51.5370344],[0.0941563,51.5332193],[0.0937406,51.5376813]]],"type":"Polygon"},"id":"E02000017","properties":{"code":"E02000017","geography":"MSOA","name":"Barking and Dagenham 016"},"type":"Feature"},{"geometry":{"coordinates":[[[0.1222314,51.5346507],[0.1220029,51.5399047],[0.1150438,51.5413853],[0.1152345,51.5466796],[0.1096263,51.5458534],[0.1056848,51.5386779],[0.1009417,51.5382723],[0.1036547,51.5320477],[0.1222402,51.5343823],[0.1222314,51.5346507]]],"type":"Polygon"},"id":"E02000018","properties":{"code":"E02000018","geography":"MSOA","name":"Barking and Dagenham 017"},"type":"Feature"},{"geometry":{"coordinates":[[[0.1421558,51.5339845],[0.1370138,51.5371752],[0.1404658,51.5409499],[0.1341775,51.5407158],[0.1296763,51.5371816],[0.1231351,51.5382261],[0.1222314,51.5346507],[0.1222402,51.5343823],[0.1270585,51.5343418],[0.1273976,51.5318157],[0.117119,51.530324],[0.1169152,51.5264893],[0.123508,51.5214367],[0.1219081,51.5269979],[0.134668,51.5233798],[0.1333061,51.5177377],[0.1418361,51.5156522],[0.1419607,51.5156217],[0.1477451,51.5292764],[0.1477945,51.5317049],[0.1373912,51.5321877],[0.1421558,51.5339845]]],"type":"Polygon"},"id":"E02000019","properties":{"code":"E02000019","geography":"MSOA","name":"Barking and Dagenham 018"},"type":"Feature"},{"geometry":{"coordinates":[[[0.1036547,51.5320477],[0.1009417,51.5382723],[0.0937406,51.5376813],[0.0941563,51.5332193],[0.0854939,51.5370344],[0.0825866,51.5357267],[0.0838983,51.5317791],[0.0916378,51.5315977],[0.0805503,51.5276543],[0.0925967,51.5256778],[0.097598,51.5159857],[0.1004819,51.5145686],[0.1090472,51.5142494],[0.126318,51.5194456],[0.1333061,51.5177377],[0.134668,51.5233798],[0.1219081,51.5269979],[0.123508,51.5214367],[0.1109008,51.5181171],[0.1112386,51.5236822],[0.096509,51.5273568],[0.1036547,51.5320477]]],"type":"Polygon"},"id":"E02000020","properties":{"code":"E02000020","geography":"MSOA","name":"Barking and Dagenham 019"},"type":"Feature"},{"geometry":{"coordinates":[[[0.1659841,51.5287997],[0.1517362,51.5371202],[0.1515655,51.5343957],[0.1421558,51.5339845],[0.1373912,51.5321877],[0.1477945,51.5317049],[0.1477451,51.5292764],[0.1419607,51.5156217],[0.1431784,51.5153239],[0.1586929,51.5121859],[0.159179,51.512015],[0.1592414,51.5119931],[0.1659841,51.5287997]]],"type":"Polygon"},"id":"E02000021","properties":{"code":"E02000021","geography":"MSOA","name":"Barking and Dagenham 020"},"type":"Feature"},{"geometry":{"coordinates":[[[0.0825866,51.5357267],[0.0760614,51.5336066],[0.0735801,51.5375652],[0.0685807,51.5362208],[0.0728096,51.5292552],[0.0805503,51.5276543],[0.0916378,51.5315977],[0.0838983,51.5317791],[0.0825866,51.5357267]]],"type":"Polygon"},"id":"E02000022","properties":{"code":"E02000022","geography":"MSOA","name":"Barking and Dagenham 021"},"type":"Feature"},{"geometry":{"coordinates":[[[0.123508,51.5214367],[0.1169152,51.5264893],[0.117119,51.530324],[0.1273976,51.5318157],[0.1270585,51.5343418],[0.1222402,51.5343823],[0.1036547,51.5320477],[0.096509,51.5273568],[0.1112386,51.5236822],[0.1109008,51.5181171],[0.123508,51.5214367]]],"type":"Polygon"},"id":"E02000023","properties":{"code":"E02000023","geography":"MSOA","name":"Barking and Dagenham 022"},"type":"Feature"},{"geometry":{"coordinates":[[[0.134325,51.5604826],[0.1369271,51.5670557],[0.1293623,51.5665295],[0.1190332,51.5630648],[0.117151,51.5568916],[0.1251544,51.5546349],[0.1243038,51.5514387],[0.1269643,51.557873],[0.134325,51.5604826]]],"type":"Polygon"},"id":"E02006799","properties":{"code":"E02006799","geography":"MSOA","name":"Barking and Dagenham 023"},"type":"Feature"}],"type":"FeatureCollection"}
