{"features":[{"geometry":{"coordinates":[[[-0.2866196,51.4201721],[-0.2907006,51.4289898],[-0.2948869,51.4263928],[-0.3016176,51.4314285],[-0.3109989,51.4319376],[-0.314471,51.4282598],[-0.3062645,51.4221757],[-0.3031028,51.4228674],[-0.3017238,51.4189277],[-0.2928114,51.4231582],[-0.2866196,51.4201721]]],"type":"Polygon"},"id":"E02000598","properties":{"code":"E02000598","geography":"MSOA","name":"Kingston upon Thames 001"},"type":"Feature"},{"geometry":{"coordinates":[[[-0.2510854,51.4325652],[-0.2540359,51.4372405],[-0.2785952,51.4233434],[-0.2701817,51.4216911],[-0.279598,51.4159781],[-0.2754952,51.4132023],[-0.269492,51.409468],[-0.2602959,51.4131662],[-0.2587329,51.4095595],[-0.2507986,51.4122594],[-0.2471251,51.4095289],[-0.2498869,51.4190568],[-0.2542588,51.4295054],[-0.2510854,51.4325652]]],"type":"Polygon"},"id":"E02000599","properties":{"code":"E02000599","geography":"MSOA","name":"Kingston upon Thames 002"},"type":"Feature"},{"geometry":{"coordinates":[[[-0.2754952,51.4132023],[-0.279598,51.4159781],[-0.2701817,51.4216911],[-0.2785952,51.4233434],[-0.2866196,51.4201721],[-0.2928114,51.4231582],[-0.2949445,51.4175115],[-0.2887892,51.4184056],[-0.2912495,51.4133565],[-0.2810704,51.4106298],[-0.2754952,51.4132023]]],"type":"Polygon"},"id":"E02000600","properties":{"code":"E02000600","geography":"MSOA","name":"Kingston upon Thames 003"},"type":"Feature"},{"geometry":{"coordinates":[[[-0.2912495,51.4133565],[-0.2887892,51.4184056],[-0.2949445,51.4175115],[-0.2928114,51.4231582],[-0.3017238,51.4189277],[-0.3031028,51.4228674],[-0.3062645,51.4221757],[-0.308499,51.4135134],[-0.2960487,51.4128261],[-0.2912495,51.4133565]]],"type":"Polygon"},"id":"E02000601","properties":{"code":"E02000601","geography":"MSOA","name":"Kingston upon Thames 004"},"type":"Feature"},{"geometry":{"coordinates":[[[-0.2810704,51.4106298],[-0.2912495,51.4133565],[-0.2960487,51.4128261],[-0.3007685,51.4110532],[-0.2978495,51.4050521],[-0.3041485,51.4071455],[-0.3011508,51.4017124],[-0.2966798,51.4053502],[-0.2877889,51.4036225],[-0.2810704,51.4106298]]],"type":"Polygon"},"id":"E02000602","properties":{"code":"E02000602","geography":"MSOA","name":"Kingston upon Thames 005"},"type":"Feature"},{"geometry":{"coordinates":[[[-0.269492,51.409468],[-0.2754952,51.4132023],[-0.2810704,51.4106298],[-0.2877889,51.4036225],[-0.2763874,51.3984441],[-0.2691814,51.400461],[-0.2733219,51.4008346],[-0.2669849,51.4065921],[-0.269492,51.409468]]],"type":"Polygon"},"id":"E02000603","properties":{"code":"E02000603","geography":"MSOA","name":"Kingston upon Thames 006"},"type":"Feature"},{"geometry":{"coordinates":[[[-0.2471251,51.4095289],[-0.2507986,51.4122594],[-0.2587329,51.4095595],[-0.2653934,51.4045002],[-0.2584215,51.3990491],[-0.2516147,51.3967411],[-0.2529581,51.3948894],[-0.2469682,51.3971602],[-0.2446551,51.4038567],[-0.2473658,51.4083298],[-0.2471251,51.4095289]]],"type":"Polygon"},"id":"E02000604","properties":{"code":"E02000604","geography":"MSOA","name":"Kingston upon Thames 007"},"type":"Feature"},{"geometry":{"coordinates":[[[-0.2587329,51.4095595],[-0.2602959,51.4131662],[-0.269492,51.409468],[-0.2669849,51.4065921],[-0.2733219,51.4008346],[-0.2691814,51.400461],[-0.2763874,51.3984441],[-0.2759763,51.3971428],[-0.2709668,51.3911578],[-0.2608539,51.3949534],[-0.2625609,51.3975522],[-0.2584215,51.3990491],[-0.2653934,51.4045002],[-0.2587329,51.4095595]]],"type":"Polygon"},"id":"E02000605","properties":{"code":"E02000605","geography":"MSOA","name":"Kingston upon Thames 008"},"type":"Feature"},{"geometry":{"coordinates":[[[-0.2960487,51.4128261],[-0.308499,51.4135134],[-0.3121481,51.398142],[-0.3129808,51.3971082],[-0.2955148,51.3957692],[-0.2925634,51.4002837],[-0.3011508,51.4017124],[-0.3041485,51.4071455],[-0.2978495,51.4050521],[-0.3007685,51.4110532],[-0.2960487,51.4128261]]],"type":"Polygon"},"id":"E02000606","properties":{"code":"E02000606","geography":"MSOA","name":"Kingston upon Thames 009"},"type":"Feature"},{"geometry":{"coordinates":[[[-0.2877889,51.4036225],[-0.2966798,51.4053502],[-0.3011508,51.4017124],[-0.2925634,51.4002837],[-0.2955148,51.3957692],[-0.2923473,51.3927782],[-0.295252,51.3927742],[-0.2897722,51.3890083],[-0.2865124,51.3946681],[-0.28173,51.3929054],[-0.2759763,51.3971428],[-0.2763874,51.3984441],[-0.2877889,51.4036225]]],"type":"Polygon"},"id":"E02000607","properties":{"code":"E02000607","geography":"MSOA","name":"Kingston upon Thames 010"},"type":"Feature"},{"geometry":{"coordinates":[[[-0.2955148,51.3957692],[-0.3129808,51.3971082],[-0.3177209,51.3936677],[-0.3159814,51.3876328],[-0.3131588,51.3888005],[-0.295252,51.3927742],[-0.2923473,51.3927782],[-0.2955148,51.3957692]]],"type":"Polygon"},"id":"E02000608","properties":{"code":"E02000608","geography":"MSOA","name":"Kingston upon Thames 011"},"type":"Feature"},{"geometry":{"coordinates":[[[-0.2529581,51.3948894],[-0.2516147,51.3967411],[-0.2584215,51.3990491],[-0.2625609,51.3975522],[-0.2608539,51.3949534],[-0.2709668,51.3911578],[-0.2682078,51.3846705],[-0.266118,51.3834456],[-0.2518671,51.3838006],[-0.2530396,51.390459],[-0.258985,51.3916763],[-0.2529581,51.3948894]]],"type":"Polygon"},"id":"E02000609","properties":{"code":"E02000609","geography":"MSOA","name":"Kingston upon Thames 012"},"type":"Feature"},{"geometry":{"coordinates":[[[-0.2897722,51.3890083],[-0.295252,51.3927742],[-0.3131588,51.3888005],[-0.3098379,51.3828281],[-0.3094123,51.3852709],[-0.3006037,51.3829133],[-0.2982367,51.3879486],[-0.2926806,51.3844153],[-0.2901922,51.3858049],[-0.2897722,51.3890083]]],"type":"Polygon"},"id":"E02000610","properties":{"code":"E02000610","geography":"MSOA","name":"Kingston upon Thames 013"},"type":"Feature"},{"geometry":{"coordinates":[[[-0.2709668,51.3911578],[-0.2759763,51.3971428],[-0.28173,51.3929054],[-0.2865124,51.3946681],[-0.2897722,51.3890083],[-0.2901922,51.3858049],[-0.2873194,51.3828743],[-0.2736049,51.3816643],[-0.2682078,51.3846705],[-0.2709668,51.3911578]]],"type":"Polygon"},"id":"E02000611","properties":{"code":"E02000611","geography":"MSOA","name":"Kingston upon Thames 014"},"type":"Feature"},{"geometry":{"coordinates":[[[-0.2396911,51.3892963],[-0.2469682,51.3971602],[-0.2529581,51.3948894],[-0.258985,51.3916763],[-0.2530396,51.390459],[-0.2518671,51.3838006],[-0.266118,51.3834456],[-0.2611709,51.3796002],[-0.2450556,51.3800345],[-0.2396911,51.3892963]]],"type":"Polygon"},"id":"E02000612","properties":{"code":"E02000612","geography":"MSOA","name":"Kingston upon Thames 015"},"type":"Feature"},{"geometry":{"coordinates":[[[-0.2901922,51.3858049],[-0.2926806,51.3844153],[-0.2982367,51.3879486],[-0.3006037,51.3829133],[-0.3094123,51.3852709],[-0.3098379,51.3828281],[-0.3084572,51.3758603],[-0.2988834,51.3742735],[-0.2983782,51.3779957],[-0.2923354,51.378036],[-0.2873194,51.3828743],[-0.2901922,51.3858049]]],"type":"Polygon"},"id":"E02000613","properties":{"code":"E02000613","geography":"MSOA","name":"Kingston upon Thames 016"},"type":"Feature"},{"geometry":{"coordinates":[[[-0.266118,51.3834456],[-0.2682078,51.3846705],[-0.2736049,51.3816643],[-0.2873194,51.3828743],[-0.2923354,51.378036],[-0.2983782,51.3779957],[-0.2939331,51.377165],[-0.2921317,51.3690872],[-0.2856668,51.3689649],[-0.2841062,51.3651448],[-0.2830359,51.3655595],[-0.2740465,51.3706567],[-0.2611709,51.3796002],[-0.266118,51.3834456]]],"type":"Polygon"},"id":"E02000614","properties":{"code":"E02000614","geography":"MSOA","name":"Kingston upon Thames 017"},"type":"Feature"},{"geometry":{"coordinates":[[[-0.2921317,51.3690872],[-0.2939331,51.377165],[-0.2983782,51.3779957],[-0.2988834,51.3742735],[-0.3084572,51.3758603],[-0.3126748,51.3747525],[-0.3179154,51.3698462],[-0.317921,51.369804],[-0.3108737,51.3662638],[-0.305304,51.3675786],[-0.3005576,51.3635205],[-0.2963023,51.3636787],[-0.2961809,51.3680443],[-0.2921317,51.3690872]]],"type":"Polygon"},"id":"E02000615","properties":{"code":"E02000615","geography":"MSOA","name":"Kingston upon Thames 018"},"type":"Feature"},{"geometry":{"coordinates":[[[-0.2841062,51.3651448],[-0.2856668,51.3689649],[-0.2921317,51.3690872],[-0.2961809,51.3680443],[-0.2963023,51.3636787],[-0.3005576,51.3635205],[-0.3080574,51.3600085],[-0.2999858,51.3598801],[-0.2927904,51.3526558],[-0.2841062,51.3651448]]],"type":"Polygon"},"id":"E02000616","properties":{"code":"E02000616","geography":"MSOA","name":"Kingston upon Thames 019"},"type":"Feature"},{"geometry":{"coordinates":[[[-0.3005576,51.3635205],[-0.305304,51.3675786],[-0.3108737,51.3662638],[-0.317921,51.369804],[-0.3202593,51.3590995],[-0.3279467,51.3521863],[-0.3306791,51.3290107],[-0.3240288,51.3266958],[-0.3062165,51.3350853],[-0.3040673,51.3430061],[-0.2927904,51.3526558],[-0.2999858,51.3598801],[-0.3080574,51.3600085],[-0.3005576,51.3635205]]],"type":"Polygon"},"id":"E02000617","properties":{"code":"E02000617","geography":"MSOA","name":"Kingston upon Thames 020"},"type":"Feature"}],"type":"FeatureCollection"}
