{"features":[{"geometry":{"coordinates":[[[-0.1030734,51.491522],[-0.1109566,51.4954988],[-0.1212887,51.4946523],[-0.121378,51.4943162],[-0.1225395,51.4922571],[-0.1197399,51.4905256],[-0.1091311,51.4916113],[-0.1064959,51.4877891],[-0.1030734,51.491522]]],"type":"Polygon"},"id":"E02000619","properties":{"code":"E02000619","geography":"MSOA","name":"Lambeth 002"},"type":"Feature"},{"geometry":{"coordinates":[[[-0.1064959,51.4877891],[-0.1091311,51.4916113],[-0.1197399,51.4905256],[-0.1225395,51.4922571],[-0.1250957,51.4877246],[-0.125227,51.4874916],[-0.1167725,51.4868014],[-0.1167219,51.4845561],[-0.112588,51.4855728],[-0.1132763,51.4826189],[-0.108452,51.485848],[-0.1064959,51.4877891]]],"type":"Polygon"},"id":"E02000620","properties":{"code":"E02000620","geography":"MSOA","name":"Lambeth 003"},"type":"Feature"},{"geometry":{"coordinates":[[[-0.1167219,51.4845561],[-0.1167725,51.4868014],[-0.125227,51.4874916],[-0.1255502,51.4869186],[-0.1281116,51.4852701],[-0.12629,51.4844781],[-0.1339716,51.4756928],[-0.1339811,51.4756368],[-0.1318854,51.4749864],[-0.1276796,51.4814178],[-0.1199436,51.476363],[-0.1194073,51.4791246],[-0.1178671,51.4822485],[-0.1138705,51.4813583],[-0.1167219,51.4845561]]],"type":"Polygon"},"id":"E02000621","properties":{"code":"E02000621","geography":"MSOA","name":"Lambeth 004"},"type":"Feature"},{"geometry":{"coordinates":[[[-0.1057383,51.4824405],[-0.108452,51.485848],[-0.1132763,51.4826189],[-0.112588,51.4855728],[-0.1167219,51.4845561],[-0.1138705,51.4813583],[-0.1178671,51.4822485],[-0.1194073,51.4791246],[-0.1164823,51.4780231],[-0.1101222,51.4795212],[-0.1052301,51.4741071],[-0.100525,51.4741599],[-0.1055541,51.4791471],[-0.1057383,51.4824405]]],"type":"Polygon"},"id":"E02000622","properties":{"code":"E02000622","geography":"MSOA","name":"Lambeth 005"},"type":"Feature"},{"geometry":{"coordinates":[[[-0.1194073,51.4791246],[-0.1199436,51.476363],[-0.1276796,51.4814178],[-0.1318854,51.4749864],[-0.1286496,51.4716892],[-0.1267957,51.4745925],[-0.1200353,51.4746859],[-0.1164823,51.4780231],[-0.1194073,51.4791246]]],"type":"Polygon"},"id":"E02000623","properties":{"code":"E02000623","geography":"MSOA","name":"Lambeth 006"},"type":"Feature"},{"geometry":{"coordinates":[[[-0.1052301,51.4741071],[-0.1101222,51.4795212],[-0.1164823,51.4780231],[-0.1200353,51.4746859],[-0.1193989,51.4742854],[-0.116375,51.4702309],[-0.1120202,51.4704692],[-0.1052301,51.4741071]]],"type":"Polygon"},"id":"E02000624","properties":{"code":"E02000624","geography":"MSOA","name":"Lambeth 007"},"type":"Feature"},{"geometry":{"coordinates":[[[-0.1318854,51.4749864],[-0.1339811,51.4756368],[-0.1398665,51.4713232],[-0.1360685,51.4685302],[-0.1255444,51.4696907],[-0.1193989,51.4742854],[-0.1200353,51.4746859],[-0.1267957,51.4745925],[-0.1286496,51.4716892],[-0.1318854,51.4749864]]],"type":"Polygon"},"id":"E02000625","properties":{"code":"E02000625","geography":"MSOA","name":"Lambeth 008"},"type":"Feature"},{"geometry":{"coordinates":[[[-0.0960325,51.469905],[-0.100525,51.4741599],[-0.1052301,51.4741071],[-0.1120202,51.4704692],[-0.1071463,51.4705886],[-0.1080782,51.4647186],[-0.1042466,51.4646674],[-0.1022709,51.4673864],[-0.0960325,51.469905]]],"type":"Polygon"},"id":"E02000626","properties":{"code":"E02000626","geography":"MSOA","name":"Lambeth 009"},"type":"Feature"},{"geometry":{"coordinates":[[[-0.116375,51.4702309],[-0.1193989,51.4742854],[-0.1255444,51.4696907],[-0.1247023,51.4663515],[-0.1293808,51.4641129],[-0.1211762,51.4636745],[-0.1181401,51.4675418],[-0.116375,51.4702309]]],"type":"Polygon"},"id":"E02000627","properties":{"code":"E02000627","geography":"MSOA","name":"Lambeth 010"},"type":"Feature"},{"geometry":{"coordinates":[[[-0.1042466,51.4646674],[-0.1080782,51.4647186],[-0.1071463,51.4705886],[-0.1120202,51.4704692],[-0.116375,51.4702309],[-0.1181401,51.4675418],[-0.1148005,51.4633669],[-0.1150489,51.4608112],[-0.1116737,51.461914],[-0.1042466,51.4646674]]],"type":"Polygon"},"id":"E02000628","properties":{"code":"E02000628","geography":"MSOA","name":"Lambeth 011"},"type":"Feature"},{"geometry":{"coordinates":[[[-0.1255444,51.4696907],[-0.1360685,51.4685302],[-0.1398665,51.4713232],[-0.1428533,51.4702534],[-0.1373593,51.4646159],[-0.1335463,51.4621472],[-0.1293808,51.4641129],[-0.1247023,51.4663515],[-0.1255444,51.4696907]]],"type":"Polygon"},"id":"E02000629","properties":{"code":"E02000629","geography":"MSOA","name":"Lambeth 012"},"type":"Feature"},{"geometry":{"coordinates":[[[-0.1373593,51.4646159],[-0.1428533,51.4702534],[-0.1468901,51.4690255],[-0.1510513,51.4646301],[-0.149673,51.4612445],[-0.1434274,51.4612309],[-0.1385255,51.4613816],[-0.1373593,51.4646159]]],"type":"Polygon"},"id":"E02000630","properties":{"code":"E02000630","geography":"MSOA","name":"Lambeth 013"},"type":"Feature"},{"geometry":{"coordinates":[[[-0.0911454,51.4676135],[-0.0930236,51.472014],[-0.0960325,51.469905],[-0.1022709,51.4673864],[-0.1010363,51.454005],[-0.0922135,51.4611202],[-0.0911454,51.4676135]]],"type":"Polygon"},"id":"E02000631","properties":{"code":"E02000631","geography":"MSOA","name":"Lambeth 014"},"type":"Feature"},{"geometry":{"coordinates":[[[-0.1148005,51.4633669],[-0.1181401,51.4675418],[-0.1211762,51.4636745],[-0.1293808,51.4641129],[-0.1335463,51.4621472],[-0.1257174,51.4621468],[-0.1293648,51.4550468],[-0.1295044,51.4544566],[-0.1254331,51.4560198],[-0.1229952,51.4576605],[-0.1213879,51.4627924],[-0.1148005,51.4633669]]],"type":"Polygon"},"id":"E02000632","properties":{"code":"E02000632","geography":"MSOA","name":"Lambeth 015"},"type":"Feature"},{"geometry":{"coordinates":[[[-0.1116737,51.461914],[-0.1150489,51.4608112],[-0.1148005,51.4633669],[-0.1213879,51.4627924],[-0.1229952,51.4576605],[-0.1137429,51.4552258],[-0.1144954,51.45949],[-0.1055391,51.4607428],[-0.1116737,51.461914]]],"type":"Polygon"},"id":"E02000633","properties":{"code":"E02000633","geography":"MSOA","name":"Lambeth 016"},"type":"Feature"},{"geometry":{"coordinates":[[[-0.1335463,51.4621472],[-0.1373593,51.4646159],[-0.1385255,51.4613816],[-0.1434274,51.4612309],[-0.1423067,51.4579089],[-0.1337701,51.458687],[-0.1326212,51.4535618],[-0.1293648,51.4550468],[-0.1257174,51.4621468],[-0.1335463,51.4621472]]],"type":"Polygon"},"id":"E02000634","properties":{"code":"E02000634","geography":"MSOA","name":"Lambeth 017"},"type":"Feature"},{"geometry":{"coordinates":[[[-0.1010363,51.454005],[-0.1022709,51.4673864],[-0.1042466,51.4646674],[-0.1116737,51.461914],[-0.1055391,51.4607428],[-0.1144954,51.45949],[-0.1137429,51.4552258],[-0.112429,51.4523899],[-0.1100722,51.4457678],[-0.1007626,51.4503115],[-0.1010363,51.454005]]],"type":"Polygon"},"id":"E02000635","properties":{"code":"E02000635","geography":"MSOA","name":"Lambeth 018"},"type":"Feature"},{"geometry":{"coordinates":[[[-0.1326212,51.4535618],[-0.1337701,51.458687],[-0.1423067,51.4579089],[-0.1434274,51.4612309],[-0.149673,51.4612445],[-0.1482075,51.4564026],[-0.1471792,51.4521519],[-0.1423295,51.450967],[-0.1406162,51.4541842],[-0.1381985,51.4499041],[-0.1326212,51.4535618]]],"type":"Polygon"},"id":"E02000636","properties":{"code":"E02000636","geography":"MSOA","name":"Lambeth 019"},"type":"Feature"},{"geometry":{"coordinates":[[[-0.1137429,51.4552258],[-0.1229952,51.4576605],[-0.1254331,51.4560198],[-0.120315,51.4549493],[-0.123475,51.4526704],[-0.1176237,51.4450711],[-0.1131252,51.4474172],[-0.1152708,51.4529511],[-0.112429,51.4523899],[-0.1137429,51.4552258]]],"type":"Polygon"},"id":"E02000637","properties":{"code":"E02000637","geography":"MSOA","name":"Lambeth 020"},"type":"Feature"},{"geometry":{"coordinates":[[[-0.1176237,51.4450711],[-0.123475,51.4526704],[-0.120315,51.4549493],[-0.1254331,51.4560198],[-0.1295044,51.4544566],[-0.1285326,51.4468529],[-0.1189911,51.4436859],[-0.1176237,51.4450711]]],"type":"Polygon"},"id":"E02000638","properties":{"code":"E02000638","geography":"MSOA","name":"Lambeth 021"},"type":"Feature"},{"geometry":{"coordinates":[[[-0.1295044,51.4544566],[-0.1293648,51.4550468],[-0.1326212,51.4535618],[-0.1381985,51.4499041],[-0.1313071,51.4476762],[-0.1322431,51.4431406],[-0.1210724,51.4429073],[-0.1189911,51.4436859],[-0.1285326,51.4468529],[-0.1295044,51.4544566]]],"type":"Polygon"},"id":"E02000639","properties":{"code":"E02000639","geography":"MSOA","name":"Lambeth 022"},"type":"Feature"},{"geometry":{"coordinates":[[[-0.1381985,51.4499041],[-0.1406162,51.4541842],[-0.1423295,51.450967],[-0.1436479,51.4417722],[-0.1360041,51.4419967],[-0.1322431,51.4431406],[-0.1313071,51.4476762],[-0.1381985,51.4499041]]],"type":"Polygon"},"id":"E02000640","properties":{"code":"E02000640","geography":"MSOA","name":"Lambeth 023"},"type":"Feature"},{"geometry":{"coordinates":[[[-0.112429,51.4523899],[-0.1152708,51.4529511],[-0.1131252,51.4474172],[-0.1176237,51.4450711],[-0.1189911,51.4436859],[-0.1210724,51.4429073],[-0.1196143,51.440795],[-0.1087462,51.4404184],[-0.1100722,51.4457678],[-0.112429,51.4523899]]],"type":"Polygon"},"id":"E02000641","properties":{"code":"E02000641","geography":"MSOA","name":"Lambeth 024"},"type":"Feature"},{"geometry":{"coordinates":[[[-0.0928756,51.4410777],[-0.1007626,51.4503115],[-0.1100722,51.4457678],[-0.1087462,51.4404184],[-0.1060563,51.4389351],[-0.0960325,51.4403964],[-0.0973504,51.4359351],[-0.0904651,51.4360981],[-0.0928756,51.4410777]]],"type":"Polygon"},"id":"E02000642","properties":{"code":"E02000642","geography":"MSOA","name":"Lambeth 025"},"type":"Feature"},{"geometry":{"coordinates":[[[-0.1210724,51.4429073],[-0.1322431,51.4431406],[-0.1360041,51.4419967],[-0.1374375,51.440135],[-0.1253015,51.4378454],[-0.1246768,51.4327308],[-0.1175633,51.4370304],[-0.1227696,51.4383685],[-0.1196143,51.440795],[-0.1210724,51.4429073]]],"type":"Polygon"},"id":"E02000643","properties":{"code":"E02000643","geography":"MSOA","name":"Lambeth 026"},"type":"Feature"},{"geometry":{"coordinates":[[[-0.1087462,51.4404184],[-0.1196143,51.440795],[-0.1227696,51.4383685],[-0.1175633,51.4370304],[-0.1246768,51.4327308],[-0.1202742,51.4322667],[-0.1192045,51.4309109],[-0.118689,51.4331994],[-0.1069896,51.4334185],[-0.1035669,51.4334718],[-0.1060563,51.4389351],[-0.1087462,51.4404184]]],"type":"Polygon"},"id":"E02000644","properties":{"code":"E02000644","geography":"MSOA","name":"Lambeth 027"},"type":"Feature"},{"geometry":{"coordinates":[[[-0.0904651,51.4360981],[-0.0973504,51.4359351],[-0.0960325,51.4403964],[-0.1060563,51.4389351],[-0.1035669,51.4334718],[-0.1069896,51.4334185],[-0.1112983,51.4323159],[-0.109773,51.429494],[-0.1083438,51.4321786],[-0.1029225,51.4303823],[-0.1054958,51.427733],[-0.0986021,51.4261615],[-0.0917502,51.4320644],[-0.089871,51.4338058],[-0.0904651,51.4360981]]],"type":"Polygon"},"id":"E02000645","properties":{"code":"E02000645","geography":"MSOA","name":"Lambeth 028"},"type":"Feature"},{"geometry":{"coordinates":[[[-0.1246768,51.4327308],[-0.1253015,51.4378454],[-0.1374375,51.440135],[-0.1400689,51.4365594],[-0.1353429,51.4303655],[-0.1234253,51.4282585],[-0.1202742,51.4322667],[-0.1246768,51.4327308]]],"type":"Polygon"},"id":"E02000646","properties":{"code":"E02000646","geography":"MSOA","name":"Lambeth 029"},"type":"Feature"},{"geometry":{"coordinates":[[[-0.1054958,51.427733],[-0.1029225,51.4303823],[-0.1083438,51.4321786],[-0.109773,51.429494],[-0.1112983,51.4323159],[-0.1069896,51.4334185],[-0.118689,51.4331994],[-0.1192045,51.4309109],[-0.1238094,51.4233547],[-0.1146054,51.4234665],[-0.1080129,51.4241697],[-0.1054958,51.427733]]],"type":"Polygon"},"id":"E02000647","properties":{"code":"E02000647","geography":"MSOA","name":"Lambeth 030"},"type":"Feature"},{"geometry":{"coordinates":[[[-0.0969062,51.4226669],[-0.0980418,51.4257259],[-0.0877577,51.4276705],[-0.0917502,51.4320644],[-0.0986021,51.4261615],[-0.1054958,51.427733],[-0.1080129,51.4241697],[-0.1146054,51.4234665],[-0.1127125,51.4232283],[-0.0969062,51.4226669]]],"type":"Polygon"},"id":"E02000648","properties":{"code":"E02000648","geography":"MSOA","name":"Lambeth 031"},"type":"Feature"},{"geometry":{"coordinates":[[[-0.1192045,51.4309109],[-0.1202742,51.4322667],[-0.1234253,51.4282585],[-0.1353429,51.4303655],[-0.1384306,51.4304572],[-0.137853,51.4211062],[-0.1356396,51.4180653],[-0.1308759,51.4231652],[-0.1238094,51.4233547],[-0.1192045,51.4309109]]],"type":"Polygon"},"id":"E02000649","properties":{"code":"E02000649","geography":"MSOA","name":"Lambeth 032"},"type":"Feature"},{"geometry":{"coordinates":[[[-0.0782933,51.4205731],[-0.089871,51.4338058],[-0.0917502,51.4320644],[-0.0877577,51.4276705],[-0.0980418,51.4257259],[-0.0969062,51.4226669],[-0.0965918,51.422706],[-0.0786749,51.4198263],[-0.0782933,51.4205731]]],"type":"Polygon"},"id":"E02000650","properties":{"code":"E02000650","geography":"MSOA","name":"Lambeth 033"},"type":"Feature"},{"geometry":{"coordinates":[[[-0.1127125,51.4232283],[-0.1146054,51.4234665],[-0.1238094,51.4233547],[-0.1308759,51.4231652],[-0.1356396,51.4180653],[-0.1269375,51.4127074],[-0.1225851,51.4150303],[-0.1203892,51.4177943],[-0.1127125,51.4232283]]],"type":"Polygon"},"id":"E02000651","properties":{"code":"E02000651","geography":"MSOA","name":"Lambeth 034"},"type":"Feature"},{"geometry":{"coordinates":[[[-0.1356396,51.4180653],[-0.137853,51.4211062],[-0.1404067,51.4192495],[-0.1432623,51.417263],[-0.1480554,51.412869],[-0.1396697,51.4122143],[-0.1278079,51.4123156],[-0.1269375,51.4127074],[-0.1356396,51.4180653]]],"type":"Polygon"},"id":"E02000652","properties":{"code":"E02000652","geography":"MSOA","name":"Lambeth 035"},"type":"Feature"},{"geometry":{"coordinates":[[[-0.1064997,51.5050625],[-0.1083972,51.5084636],[-0.1088307,51.5084448],[-0.1183503,51.5057255],[-0.1188484,51.5038387],[-0.1212887,51.4946523],[-0.1109566,51.4954988],[-0.1064997,51.5050625]]],"type":"Polygon"},"id":"E02006801","properties":{"code":"E02006801","geography":"MSOA","name":"Lambeth 036"},"type":"Feature"}],"type":"FeatureCollection"}
