{"features":[{"geometry":{"coordinates":[[[-0.2339275,51.5323529],[-0.2463947,51.5327988],[-0.2526677,51.5248966],[-0.2511508,51.5212279],[-0.2489963,51.5138799],[-0.2390576,51.5142666],[-0.2300829,51.5148499],[-0.2283358,51.5117494],[-0.2245984,51.5094897],[-0.2202694,51.5117287],[-0.2275295,51.5216071],[-0.2273753,51.5258397],[-0.2285032,51.530353],[-0.2339275,51.5323529]]],"type":"Polygon"},"id":"E02000372","properties":{"code":"E02000372","geography":"MSOA","name":"Hammersmith and Fulham 001"},"type":"Feature"},{"geometry":{"coordinates":[[[-0.2283358,51.5117494],[-0.2300829,51.5148499],[-0.2390576,51.5142666],[-0.2384988,51.5068005],[-0.2345774,51.5097475],[-0.2283358,51.5117494]]],"type":"Polygon"},"id":"E02000373","properties":{"code":"E02000373","geography":"MSOA","name":"Hammersmith and Fulham 002"},"type":"Feature"},{"geometry":{"coordinates":[[[-0.2345774,51.5097475],[-0.2384988,51.5068005],[-0.2390576,51.5142666],[-0.2489963,51.5138799],[-0.2450869,51.5067416],[-0.2354413,51.506448],[-0.2345874,51.5069049],[-0.2345774,51.5097475]]],"type":"Polygon"},"id":"E02000374","properties":{"code":"E02000374","geography":"MSOA","name":"Hammersmith and Fulham 003"},"type":"Feature"},{"geometry":{"coordinates":[[[-0.2156281,51.5086649],[-0.2202694,51.5117287],[-0.2245984,51.5094897],[-0.2283358,51.5117494],[-0.2345774,51.5097475],[-0.2345874,51.5069049],[-0.2246811,51.5054288],[-0.2236493,51.5028398],[-0.2170404,51.5045003],[-0.2156281,51.5086649]]],"type":"Polygon"},"id":"E02000375","properties":{"code":"E02000375","geography":"MSOA","name":"Hammersmith and Fulham 004"},"type":"Feature"},{"geometry":{"coordinates":[[[-0.2236493,51.5028398],[-0.2246811,51.5054288],[-0.2345874,51.5069049],[-0.2354413,51.506448],[-0.2362829,51.5022405],[-0.2324243,51.5012347],[-0.2265597,51.5012361],[-0.2236493,51.5028398]]],"type":"Polygon"},"id":"E02000376","properties":{"code":"E02000376","geography":"MSOA","name":"Hammersmith and Fulham 005"},"type":"Feature"},{"geometry":{"coordinates":[[[-0.2354413,51.506448],[-0.2450869,51.5067416],[-0.2460988,51.5045893],[-0.2379937,51.4999759],[-0.2327119,51.5011399],[-0.2324243,51.5012347],[-0.2362829,51.5022405],[-0.2354413,51.506448]]],"type":"Polygon"},"id":"E02000377","properties":{"code":"E02000377","geography":"MSOA","name":"Hammersmith and Fulham 006"},"type":"Feature"},{"geometry":{"coordinates":[[[-0.21409,51.5006825],[-0.2170404,51.5045003],[-0.2236493,51.5028398],[-0.2265597,51.5012361],[-0.2260187,51.4987858],[-0.21409,51.5006825]]],"type":"Polygon"},"id":"E02000378","properties":{"code":"E02000378","geography":"MSOA","name":"Hammersmith and Fulham 007"},"type":"Feature"},{"geometry":{"coordinates":[[[-0.2379937,51.4999759],[-0.2460988,51.5045893],[-0.2510183,51.5046278],[-0.2550716,51.5043028],[-0.2530841,51.5013987],[-0.2446987,51.4957299],[-0.2387651,51.4945234],[-0.2379937,51.4999759]]],"type":"Polygon"},"id":"E02000379","properties":{"code":"E02000379","geography":"MSOA","name":"Hammersmith and Fulham 008"},"type":"Feature"},{"geometry":{"coordinates":[[[-0.2260187,51.4987858],[-0.2265597,51.5012361],[-0.2324243,51.5012347],[-0.2327119,51.5011399],[-0.234623,51.4944308],[-0.2315324,51.496841],[-0.2281687,51.4943948],[-0.225807,51.4977999],[-0.2260187,51.4987858]]],"type":"Polygon"},"id":"E02000380","properties":{"code":"E02000380","geography":"MSOA","name":"Hammersmith and Fulham 009"},"type":"Feature"},{"geometry":{"coordinates":[[[-0.209923,51.4977781],[-0.21409,51.5006825],[-0.2260187,51.4987858],[-0.225807,51.4977999],[-0.2200145,51.493216],[-0.209923,51.4977781]]],"type":"Polygon"},"id":"E02000381","properties":{"code":"E02000381","geography":"MSOA","name":"Hammersmith and Fulham 010"},"type":"Feature"},{"geometry":{"coordinates":[[[-0.234623,51.4944308],[-0.2327119,51.5011399],[-0.2379937,51.4999759],[-0.2387651,51.4945234],[-0.2446987,51.4957299],[-0.2452137,51.4892168],[-0.2445218,51.488709],[-0.2434939,51.4888836],[-0.2345795,51.4903971],[-0.234623,51.4944308]]],"type":"Polygon"},"id":"E02000382","properties":{"code":"E02000382","geography":"MSOA","name":"Hammersmith and Fulham 011"},"type":"Feature"},{"geometry":{"coordinates":[[[-0.2073884,51.4961471],[-0.209923,51.4977781],[-0.2200145,51.493216],[-0.2175405,51.4908939],[-0.2046879,51.4913616],[-0.2024079,51.4916858],[-0.2073884,51.4961471]]],"type":"Polygon"},"id":"E02000383","properties":{"code":"E02000383","geography":"MSOA","name":"Hammersmith and Fulham 012"},"type":"Feature"},{"geometry":{"coordinates":[[[-0.2200145,51.493216],[-0.225807,51.4977999],[-0.2281687,51.4943948],[-0.2315324,51.496841],[-0.234623,51.4944308],[-0.2345795,51.4903971],[-0.2344046,51.4904268],[-0.227583,51.4873931],[-0.2274652,51.4872264],[-0.2222441,51.4884881],[-0.2175405,51.4908939],[-0.2200145,51.493216]]],"type":"Polygon"},"id":"E02000384","properties":{"code":"E02000384","geography":"MSOA","name":"Hammersmith and Fulham 013"},"type":"Feature"},{"geometry":{"coordinates":[[[-0.2071055,51.4840048],[-0.2104305,51.4887386],[-0.2045277,51.4889303],[-0.2046879,51.4913616],[-0.2175405,51.4908939],[-0.2222441,51.4884881],[-0.2218671,51.4878431],[-0.2160593,51.4865454],[-0.2130057,51.489095],[-0.2080182,51.4837663],[-0.2071055,51.4840048]]],"type":"Polygon"},"id":"E02000385","properties":{"code":"E02000385","geography":"MSOA","name":"Hammersmith and Fulham 014"},"type":"Feature"},{"geometry":{"coordinates":[[[-0.1997142,51.4894075],[-0.2024079,51.4916858],[-0.2046879,51.4913616],[-0.2045277,51.4889303],[-0.2104305,51.4887386],[-0.2071055,51.4840048],[-0.2043152,51.4821266],[-0.1964504,51.4872047],[-0.1997142,51.4894075]]],"type":"Polygon"},"id":"E02000386","properties":{"code":"E02000386","geography":"MSOA","name":"Hammersmith and Fulham 015"},"type":"Feature"},{"geometry":{"coordinates":[[[-0.2080182,51.4837663],[-0.2130057,51.489095],[-0.2160593,51.4865454],[-0.2218671,51.4878431],[-0.2181053,51.4813721],[-0.2176318,51.4815055],[-0.2080182,51.4837663]]],"type":"Polygon"},"id":"E02000387","properties":{"code":"E02000387","geography":"MSOA","name":"Hammersmith and Fulham 016"},"type":"Feature"},{"geometry":{"coordinates":[[[-0.1925703,51.4848241],[-0.1964504,51.4872047],[-0.2043152,51.4821266],[-0.207486,51.4812284],[-0.2037113,51.4792637],[-0.195824,51.4799956],[-0.1907964,51.4831644],[-0.1925703,51.4848241]]],"type":"Polygon"},"id":"E02000388","properties":{"code":"E02000388","geography":"MSOA","name":"Hammersmith and Fulham 017"},"type":"Feature"},{"geometry":{"coordinates":[[[-0.2218671,51.4878431],[-0.2222441,51.4884881],[-0.2274652,51.4872264],[-0.2240879,51.4824463],[-0.2237708,51.4818946],[-0.2185239,51.472765],[-0.215372,51.4760424],[-0.2181053,51.4813721],[-0.2218671,51.4878431]]],"type":"Polygon"},"id":"E02000389","properties":{"code":"E02000389","geography":"MSOA","name":"Hammersmith and Fulham 018"},"type":"Feature"},{"geometry":{"coordinates":[[[-0.2043152,51.4821266],[-0.2071055,51.4840048],[-0.2080182,51.4837663],[-0.2176318,51.4815055],[-0.2096459,51.4772187],[-0.2037113,51.4792637],[-0.207486,51.4812284],[-0.2043152,51.4821266]]],"type":"Polygon"},"id":"E02000390","properties":{"code":"E02000390","geography":"MSOA","name":"Hammersmith and Fulham 019"},"type":"Feature"},{"geometry":{"coordinates":[[[-0.1882813,51.4809605],[-0.1907964,51.4831644],[-0.195824,51.4799956],[-0.2006306,51.4742421],[-0.197006,51.4711116],[-0.1919202,51.4736282],[-0.1866267,51.473765],[-0.1894696,51.4771869],[-0.1853776,51.4786039],[-0.1882813,51.4809605]]],"type":"Polygon"},"id":"E02000391","properties":{"code":"E02000391","geography":"MSOA","name":"Hammersmith and Fulham 020"},"type":"Feature"},{"geometry":{"coordinates":[[[-0.2006306,51.4742421],[-0.195824,51.4799956],[-0.2037113,51.4792637],[-0.2096459,51.4772187],[-0.2083024,51.473645],[-0.2076859,51.4710128],[-0.2007719,51.4725809],[-0.2006306,51.4742421]]],"type":"Polygon"},"id":"E02000392","properties":{"code":"E02000392","geography":"MSOA","name":"Hammersmith and Fulham 021"},"type":"Feature"},{"geometry":{"coordinates":[[[-0.2096459,51.4772187],[-0.2176318,51.4815055],[-0.2181053,51.4813721],[-0.215372,51.4760424],[-0.2114147,51.4719074],[-0.2083024,51.473645],[-0.2096459,51.4772187]]],"type":"Polygon"},"id":"E02000393","properties":{"code":"E02000393","geography":"MSOA","name":"Hammersmith and Fulham 022"},"type":"Feature"},{"geometry":{"coordinates":[[[-0.1817004,51.4780963],[-0.1853776,51.4786039],[-0.1894696,51.4771869],[-0.1866267,51.473765],[-0.1919202,51.4736282],[-0.1873759,51.4671026],[-0.1859295,51.4673758],[-0.1846896,51.46761],[-0.1841607,51.4683003],[-0.1823726,51.4718092],[-0.1794241,51.4775942],[-0.1838809,51.4774187],[-0.1817004,51.4780963]]],"type":"Polygon"},"id":"E02000394","properties":{"code":"E02000394","geography":"MSOA","name":"Hammersmith and Fulham 023"},"type":"Feature"},{"geometry":{"coordinates":[[[-0.2083024,51.473645],[-0.2114147,51.4719074],[-0.215372,51.4760424],[-0.2185239,51.472765],[-0.2166878,51.4695692],[-0.1980511,51.4653562],[-0.197964,51.4653365],[-0.2007719,51.4725809],[-0.2076859,51.4710128],[-0.2083024,51.473645]]],"type":"Polygon"},"id":"E02000395","properties":{"code":"E02000395","geography":"MSOA","name":"Hammersmith and Fulham 024"},"type":"Feature"},{"geometry":{"coordinates":[[[-0.1919202,51.4736282],[-0.197006,51.4711116],[-0.2006306,51.4742421],[-0.2007719,51.4725809],[-0.197964,51.4653365],[-0.1973991,51.4652087],[-0.1873759,51.4671026],[-0.1919202,51.4736282]]],"type":"Polygon"},"id":"E02000396","properties":{"code":"E02000396","geography":"MSOA","name":"Hammersmith and Fulham 025"},"type":"Feature"}],"type":"FeatureCollection"}
