{"features":[{"geometry":{"coordinates":[[[-0.3044823,51.6363471],[-0.3166967,51.6405317],[-0.3399079,51.6307225],[-0.3433568,51.6240614],[-0.3372578,51.6163417],[-0.3243412,51.6185713],[-0.3127772,51.6135548],[-0.3101266,51.6175443],[-0.3049434,51.6127765],[-0.3044891,51.6121574],[-0.3014776,51.619579],[-0.289113,51.6187478],[-0.3039534,51.6314642],[-0.3044823,51.6363471]]],"type":"Polygon"},"id":"E02000433","properties":{"code":"E02000433","geography":"MSOA","name":"Harrow 001"},"type":"Feature"},{"geometry":{"coordinates":[[[-0.289113,51.6187478],[-0.3014776,51.619579],[-0.3044891,51.6121574],[-0.2987563,51.6041319],[-0.2977002,51.6029322],[-0.2918261,51.6070926],[-0.2802372,51.6083703],[-0.2793406,51.6107194],[-0.2839632,51.6146474],[-0.289113,51.6187478]]],"type":"Polygon"},"id":"E02000434","properties":{"code":"E02000434","geography":"MSOA","name":"Harrow 002"},"type":"Feature"},{"geometry":{"coordinates":[[[-0.3049434,51.6127765],[-0.3101266,51.6175443],[-0.3127772,51.6135548],[-0.3243412,51.6185713],[-0.3372578,51.6163417],[-0.3362252,51.6157489],[-0.3263805,51.6047813],[-0.315591,51.6049531],[-0.3118565,51.6120634],[-0.3049434,51.6127765]]],"type":"Polygon"},"id":"E02000435","properties":{"code":"E02000435","geography":"MSOA","name":"Harrow 003"},"type":"Feature"},{"geometry":{"coordinates":[[[-0.3372578,51.6163417],[-0.3433568,51.6240614],[-0.3399079,51.6307225],[-0.3626186,51.6235331],[-0.3845886,51.6161677],[-0.3875456,51.6055917],[-0.3783559,51.6059493],[-0.3768015,51.608876],[-0.3715546,51.6085284],[-0.3714149,51.6119025],[-0.3601748,51.6116447],[-0.3615364,51.6136904],[-0.3481042,51.6087867],[-0.3427278,51.6083395],[-0.3455276,51.6100814],[-0.3417786,51.6131841],[-0.3346184,51.6112451],[-0.3362252,51.6157489],[-0.3372578,51.6163417]]],"type":"Polygon"},"id":"E02000436","properties":{"code":"E02000436","geography":"MSOA","name":"Harrow 004"},"type":"Feature"},{"geometry":{"coordinates":[[[-0.3263805,51.6047813],[-0.3362252,51.6157489],[-0.3346184,51.6112451],[-0.3417786,51.6131841],[-0.3455276,51.6100814],[-0.3427278,51.6083395],[-0.3481042,51.6087867],[-0.3508833,51.5998445],[-0.349761,51.5993153],[-0.3449958,51.6042017],[-0.3320741,51.6032954],[-0.3277118,51.604015],[-0.3263805,51.6047813]]],"type":"Polygon"},"id":"E02000437","properties":{"code":"E02000437","geography":"MSOA","name":"Harrow 005"},"type":"Feature"},{"geometry":{"coordinates":[[[-0.3481042,51.6087867],[-0.3615364,51.6136904],[-0.3601748,51.6116447],[-0.3714149,51.6119025],[-0.3715546,51.6085284],[-0.3768015,51.608876],[-0.3783559,51.6059493],[-0.3875456,51.6055917],[-0.3830651,51.6037195],[-0.3752179,51.5999388],[-0.3730586,51.6009163],[-0.3650993,51.6072001],[-0.3508833,51.5998445],[-0.3481042,51.6087867]]],"type":"Polygon"},"id":"E02000438","properties":{"code":"E02000438","geography":"MSOA","name":"Harrow 006"},"type":"Feature"},{"geometry":{"coordinates":[[[-0.2748925,51.6069331],[-0.2793406,51.6107194],[-0.2802372,51.6083703],[-0.2918261,51.6070926],[-0.2861604,51.5999762],[-0.2807058,51.6021648],[-0.2780245,51.5998786],[-0.2676444,51.6001287],[-0.2671559,51.6003696],[-0.2748925,51.6069331]]],"type":"Polygon"},"id":"E02000439","properties":{"code":"E02000439","geography":"MSOA","name":"Harrow 007"},"type":"Feature"},{"geometry":{"coordinates":[[[-0.3044891,51.6121574],[-0.3049434,51.6127765],[-0.3118565,51.6120634],[-0.315591,51.6049531],[-0.3263805,51.6047813],[-0.3277118,51.604015],[-0.3238837,51.6000289],[-0.3196641,51.6009644],[-0.3134531,51.5978569],[-0.3081144,51.5988329],[-0.3066632,51.6034898],[-0.3032539,51.6022649],[-0.3038674,51.6050526],[-0.2987563,51.6041319],[-0.3044891,51.6121574]]],"type":"Polygon"},"id":"E02000440","properties":{"code":"E02000440","geography":"MSOA","name":"Harrow 008"},"type":"Feature"},{"geometry":{"coordinates":[[[-0.3875456,51.6055917],[-0.3845886,51.6161677],[-0.3850084,51.6160451],[-0.4040718,51.6131804],[-0.4023749,51.6060954],[-0.4002153,51.5974322],[-0.39768,51.5969426],[-0.3853697,51.5957704],[-0.3830651,51.6037195],[-0.3875456,51.6055917]]],"type":"Polygon"},"id":"E02000441","properties":{"code":"E02000441","geography":"MSOA","name":"Harrow 009"},"type":"Feature"},{"geometry":{"coordinates":[[[-0.2676444,51.6001287],[-0.2780245,51.5998786],[-0.2807058,51.6021648],[-0.2861604,51.5999762],[-0.2918261,51.6070926],[-0.2977002,51.6029322],[-0.2967327,51.5996598],[-0.3007819,51.5986455],[-0.2933566,51.5964569],[-0.2922187,51.6002207],[-0.2870785,51.5945923],[-0.2676444,51.6001287]]],"type":"Polygon"},"id":"E02000442","properties":{"code":"E02000442","geography":"MSOA","name":"Harrow 010"},"type":"Feature"},{"geometry":{"coordinates":[[[-0.3320741,51.6032954],[-0.3449958,51.6042017],[-0.349761,51.5993153],[-0.3461615,51.5976195],[-0.3381839,51.5938251],[-0.3293527,51.5980746],[-0.3320741,51.6032954]]],"type":"Polygon"},"id":"E02000443","properties":{"code":"E02000443","geography":"MSOA","name":"Harrow 011"},"type":"Feature"},{"geometry":{"coordinates":[[[-0.2987563,51.6041319],[-0.3038674,51.6050526],[-0.3032539,51.6022649],[-0.3066632,51.6034898],[-0.3081144,51.5988329],[-0.3134531,51.5978569],[-0.3109552,51.5929606],[-0.3058009,51.5938721],[-0.2904268,51.5935705],[-0.2870785,51.5945923],[-0.2922187,51.6002207],[-0.2933566,51.5964569],[-0.3007819,51.5986455],[-0.2967327,51.5996598],[-0.2977002,51.6029322],[-0.2987563,51.6041319]]],"type":"Polygon"},"id":"E02000444","properties":{"code":"E02000444","geography":"MSOA","name":"Harrow 012"},"type":"Feature"},{"geometry":{"coordinates":[[[-0.3196641,51.6009644],[-0.3238837,51.6000289],[-0.3277118,51.604015],[-0.3320741,51.6032954],[-0.3293527,51.5980746],[-0.3381839,51.5938251],[-0.3426978,51.5930014],[-0.342266,51.5900283],[-0.3349587,51.5886835],[-0.3317974,51.5907424],[-0.3233196,51.5920765],[-0.3196641,51.6009644]]],"type":"Polygon"},"id":"E02000445","properties":{"code":"E02000445","geography":"MSOA","name":"Harrow 013"},"type":"Feature"},{"geometry":{"coordinates":[[[-0.3508833,51.5998445],[-0.3650993,51.6072001],[-0.3730586,51.6009163],[-0.3595164,51.5980645],[-0.3586868,51.5956],[-0.3656622,51.5955444],[-0.3616153,51.5938136],[-0.3658176,51.5936219],[-0.3633717,51.5897072],[-0.355392,51.587074],[-0.3445946,51.5899526],[-0.3492699,51.5968133],[-0.3461615,51.5976195],[-0.349761,51.5993153],[-0.3508833,51.5998445]]],"type":"Polygon"},"id":"E02000447","properties":{"code":"E02000447","geography":"MSOA","name":"Harrow 015"},"type":"Feature"},{"geometry":{"coordinates":[[[-0.3752179,51.5999388],[-0.3830651,51.6037195],[-0.3853697,51.5957704],[-0.39768,51.5969426],[-0.3954905,51.5902],[-0.3940927,51.5901538],[-0.3922585,51.5927698],[-0.3822191,51.5919575],[-0.3852671,51.5874441],[-0.3755906,51.5876056],[-0.3701183,51.5946315],[-0.3752179,51.5999388]]],"type":"Polygon"},"id":"E02000448","properties":{"code":"E02000448","geography":"MSOA","name":"Harrow 016"},"type":"Feature"},{"geometry":{"coordinates":[[[-0.2904268,51.5935705],[-0.3058009,51.5938721],[-0.2991314,51.5887019],[-0.2940211,51.5909462],[-0.295117,51.5866502],[-0.282549,51.5850648],[-0.2835529,51.5892621],[-0.2904268,51.5935705]]],"type":"Polygon"},"id":"E02000449","properties":{"code":"E02000449","geography":"MSOA","name":"Harrow 017"},"type":"Feature"},{"geometry":{"coordinates":[[[-0.3633717,51.5897072],[-0.3658176,51.5936219],[-0.3616153,51.5938136],[-0.3656622,51.5955444],[-0.3586868,51.5956],[-0.3595164,51.5980645],[-0.3730586,51.6009163],[-0.3752179,51.5999388],[-0.3701183,51.5946315],[-0.3755906,51.5876056],[-0.3731348,51.5838368],[-0.368208,51.5781385],[-0.3620698,51.5847597],[-0.3633717,51.5897072]]],"type":"Polygon"},"id":"E02000451","properties":{"code":"E02000451","geography":"MSOA","name":"Harrow 019"},"type":"Feature"},{"geometry":{"coordinates":[[[-0.3381839,51.5938251],[-0.3461615,51.5976195],[-0.3492699,51.5968133],[-0.3445946,51.5899526],[-0.3419566,51.5804494],[-0.3416823,51.5832422],[-0.3340304,51.5837068],[-0.3329336,51.5793299],[-0.3272505,51.5885408],[-0.3317974,51.5907424],[-0.3349587,51.5886835],[-0.342266,51.5900283],[-0.3426978,51.5930014],[-0.3381839,51.5938251]]],"type":"Polygon"},"id":"E02000452","properties":{"code":"E02000452","geography":"MSOA","name":"Harrow 020"},"type":"Feature"},{"geometry":{"coordinates":[[[-0.3419566,51.5804494],[-0.3445946,51.5899526],[-0.355392,51.587074],[-0.3633717,51.5897072],[-0.3620698,51.5847597],[-0.3419354,51.5798026],[-0.3419566,51.5804494]]],"type":"Polygon"},"id":"E02000453","properties":{"code":"E02000453","geography":"MSOA","name":"Harrow 021"},"type":"Feature"},{"geometry":{"coordinates":[[[-0.3755906,51.5876056],[-0.3852671,51.5874441],[-0.3822191,51.5919575],[-0.3922585,51.5927698],[-0.3940927,51.5901538],[-0.3859347,51.5709638],[-0.3858923,51.570907],[-0.3802603,51.5757681],[-0.3790419,51.5822377],[-0.3731348,51.5838368],[-0.3755906,51.5876056]]],"type":"Polygon"},"id":"E02000454","properties":{"code":"E02000454","geography":"MSOA","name":"Harrow 022"},"type":"Feature"},{"geometry":{"coordinates":[[[-0.3170904,51.5821037],[-0.3272505,51.5885408],[-0.3329336,51.5793299],[-0.3340304,51.5837068],[-0.3416823,51.5832422],[-0.3419566,51.5804494],[-0.3419354,51.5798026],[-0.3435697,51.5746712],[-0.3265856,51.5782337],[-0.3170904,51.5821037]]],"type":"Polygon"},"id":"E02000455","properties":{"code":"E02000455","geography":"MSOA","name":"Harrow 023"},"type":"Feature"},{"geometry":{"coordinates":[[[-0.3419354,51.5798026],[-0.3620698,51.5847597],[-0.368208,51.5781385],[-0.3612845,51.579492],[-0.3557697,51.5756286],[-0.3496362,51.5753184],[-0.3435697,51.5746712],[-0.3419354,51.5798026]]],"type":"Polygon"},"id":"E02000456","properties":{"code":"E02000456","geography":"MSOA","name":"Harrow 024"},"type":"Feature"},{"geometry":{"coordinates":[[[-0.368208,51.5781385],[-0.3731348,51.5838368],[-0.3790419,51.5822377],[-0.3802603,51.5757681],[-0.365149,51.573381],[-0.3585408,51.56959],[-0.3557697,51.5756286],[-0.3612845,51.579492],[-0.368208,51.5781385]]],"type":"Polygon"},"id":"E02000457","properties":{"code":"E02000457","geography":"MSOA","name":"Harrow 025"},"type":"Feature"},{"geometry":{"coordinates":[[[-0.3496362,51.5753184],[-0.3557697,51.5756286],[-0.3585408,51.56959],[-0.3615481,51.5651069],[-0.3526592,51.564955],[-0.3475111,51.5598239],[-0.3417817,51.5629488],[-0.3481206,51.5623052],[-0.3430496,51.5654723],[-0.3496362,51.5753184]]],"type":"Polygon"},"id":"E02000459","properties":{"code":"E02000459","geography":"MSOA","name":"Harrow 027"},"type":"Feature"},{"geometry":{"coordinates":[[[-0.3585408,51.56959],[-0.365149,51.573381],[-0.3660368,51.5694755],[-0.3790756,51.5684336],[-0.3779389,51.5648776],[-0.3716138,51.56583],[-0.3725703,51.5614002],[-0.3651358,51.5633434],[-0.3615481,51.5651069],[-0.3585408,51.56959]]],"type":"Polygon"},"id":"E02000460","properties":{"code":"E02000460","geography":"MSOA","name":"Harrow 028"},"type":"Feature"},{"geometry":{"coordinates":[[[-0.3312169,51.5614589],[-0.3297461,51.5670864],[-0.3221561,51.5696534],[-0.3265856,51.5782337],[-0.3435697,51.5746712],[-0.3496362,51.5753184],[-0.3430496,51.5654723],[-0.3481206,51.5623052],[-0.3417817,51.5629488],[-0.3475111,51.5598239],[-0.3475566,51.5596837],[-0.3374765,51.557],[-0.3355846,51.5565833],[-0.3312169,51.5614589]]],"type":"Polygon"},"id":"E02000461","properties":{"code":"E02000461","geography":"MSOA","name":"Harrow 029"},"type":"Feature"},{"geometry":{"coordinates":[[[-0.3475111,51.5598239],[-0.3526592,51.564955],[-0.3615481,51.5651069],[-0.3651358,51.5633434],[-0.3657449,51.5593779],[-0.3711418,51.5598048],[-0.3696002,51.5546254],[-0.3621363,51.5565676],[-0.3475566,51.5596837],[-0.3475111,51.5598239]]],"type":"Polygon"},"id":"E02000462","properties":{"code":"E02000462","geography":"MSOA","name":"Harrow 030"},"type":"Feature"},{"geometry":{"coordinates":[[[-0.3651358,51.5633434],[-0.3725703,51.5614002],[-0.3716138,51.56583],[-0.3779389,51.5648776],[-0.3819696,51.5630719],[-0.3778948,51.5549444],[-0.3758611,51.5530613],[-0.3696002,51.5546254],[-0.3711418,51.5598048],[-0.3657449,51.5593779],[-0.3651358,51.5633434]]],"type":"Polygon"},"id":"E02000463","properties":{"code":"E02000463","geography":"MSOA","name":"Harrow 031"},"type":"Feature"},{"geometry":{"coordinates":[[[-0.365149,51.573381],[-0.3802603,51.5757681],[-0.3858923,51.570907],[-0.3819696,51.5630719],[-0.3779389,51.5648776],[-0.3790756,51.5684336],[-0.3660368,51.5694755],[-0.365149,51.573381]]],"type":"Polygon"},"id":"E02006795","properties":{"code":"E02006795","geography":"MSOA","name":"Harrow 032"},"type":"Feature"},{"geometry":{"coordinates":[[[-0.3134531,51.5978569],[-0.3196641,51.6009644],[-0.3233196,51.5920765],[-0.3317974,51.5907424],[-0.3272505,51.5885408],[-0.3170904,51.5821037],[-0.3053215,51.5869733],[-0.2957033,51.586698],[-0.295117,51.5866502],[-0.2940211,51.5909462],[-0.2991314,51.5887019],[-0.3058009,51.5938721],[-0.3109552,51.5929606],[-0.3134531,51.5978569]]],"type":"Polygon"},"id":"E02006882","properties":{"code":"E02006882","geography":"MSOA","name":"Harrow 033"},"type":"Feature"}],"type":"FeatureCollection"}
