{"features":[{"geometry":{"coordinates":[[[-0.4040718,51.6131804],[-0.4405254,51.6200844],[-0.4571517,51.6122912],[-0.4513073,51.6104174],[-0.4588227,51.6071716],[-0.4567592,51.6020263],[-0.4631216,51.5955849],[-0.4536859,51.5907828],[-0.4490145,51.5960291],[-0.4274635,51.5945125],[-0.4231269,51.6022728],[-0.428619,51.6026521],[-0.4377803,51.6124417],[-0.418704,51.6134818],[-0.4086976,51.6034431],[-0.4023749,51.6060954],[-0.4040718,51.6131804]]],"type":"Polygon"},"id":"E02000494","properties":{"code":"E02000494","geography":"MSOA","name":"Hillingdon 001"},"type":"Feature"},{"geometry":{"coordinates":[[[-0.4023749,51.6060954],[-0.4086976,51.6034431],[-0.418704,51.6134818],[-0.4377803,51.6124417],[-0.428619,51.6026521],[-0.4231269,51.6022728],[-0.4274635,51.5945125],[-0.4256479,51.5945814],[-0.4122385,51.5966106],[-0.4111605,51.5991185],[-0.4002153,51.5974322],[-0.4023749,51.6060954]]],"type":"Polygon"},"id":"E02000495","properties":{"code":"E02000495","geography":"MSOA","name":"Hillingdon 002"},"type":"Feature"},{"geometry":{"coordinates":[[[-0.4571517,51.6122912],[-0.4972471,51.631654],[-0.5002047,51.6221839],[-0.4954301,51.6189152],[-0.4992525,51.6089254],[-0.4963276,51.6024269],[-0.5006171,51.5996877],[-0.4892317,51.5777591],[-0.469757,51.5753569],[-0.4479237,51.5724447],[-0.4430042,51.5713425],[-0.4411421,51.5739185],[-0.4482758,51.5775882],[-0.4536859,51.5907828],[-0.4631216,51.5955849],[-0.4567592,51.6020263],[-0.4588227,51.6071716],[-0.4513073,51.6104174],[-0.4571517,51.6122912]]],"type":"Polygon"},"id":"E02000496","properties":{"code":"E02000496","geography":"MSOA","name":"Hillingdon 003"},"type":"Feature"},{"geometry":{"coordinates":[[[-0.4002153,51.5974322],[-0.4111605,51.5991185],[-0.4122385,51.5966106],[-0.4256479,51.5945814],[-0.426269,51.5936446],[-0.4232281,51.5882504],[-0.4135953,51.5901443],[-0.414076,51.5817101],[-0.4072345,51.5789346],[-0.3954905,51.5902],[-0.39768,51.5969426],[-0.4002153,51.5974322]]],"type":"Polygon"},"id":"E02000497","properties":{"code":"E02000497","geography":"MSOA","name":"Hillingdon 004"},"type":"Feature"},{"geometry":{"coordinates":[[[-0.4274635,51.5945125],[-0.4490145,51.5960291],[-0.4536859,51.5907828],[-0.4482758,51.5775882],[-0.4411421,51.5739185],[-0.4312347,51.5721694],[-0.4262324,51.5751928],[-0.4360696,51.5877822],[-0.4286583,51.5886393],[-0.426269,51.5936446],[-0.4256479,51.5945814],[-0.4274635,51.5945125]]],"type":"Polygon"},"id":"E02000498","properties":{"code":"E02000498","geography":"MSOA","name":"Hillingdon 005"},"type":"Feature"},{"geometry":{"coordinates":[[[-0.3940927,51.5901538],[-0.3954905,51.5902],[-0.4072345,51.5789346],[-0.4074715,51.5767803],[-0.3995216,51.5787308],[-0.3960676,51.576739],[-0.3982276,51.5698631],[-0.3880758,51.5695617],[-0.3859347,51.5709638],[-0.3940927,51.5901538]]],"type":"Polygon"},"id":"E02000499","properties":{"code":"E02000499","geography":"MSOA","name":"Hillingdon 006"},"type":"Feature"},{"geometry":{"coordinates":[[[-0.4072345,51.5789346],[-0.414076,51.5817101],[-0.4135953,51.5901443],[-0.4232281,51.5882504],[-0.426269,51.5936446],[-0.4286583,51.5886393],[-0.4360696,51.5877822],[-0.4262324,51.5751928],[-0.4312347,51.5721694],[-0.4163625,51.5688254],[-0.4147694,51.5717],[-0.4105386,51.5706761],[-0.4122611,51.577855],[-0.4074715,51.5767803],[-0.4072345,51.5789346]]],"type":"Polygon"},"id":"E02000500","properties":{"code":"E02000500","geography":"MSOA","name":"Hillingdon 007"},"type":"Feature"},{"geometry":{"coordinates":[[[-0.3880758,51.5695617],[-0.3982276,51.5698631],[-0.3960676,51.576739],[-0.3995216,51.5787308],[-0.4074715,51.5767803],[-0.4122611,51.577855],[-0.4105386,51.5706761],[-0.3959972,51.5671002],[-0.3992854,51.5605127],[-0.3859506,51.5658875],[-0.3880758,51.5695617]]],"type":"Polygon"},"id":"E02000501","properties":{"code":"E02000501","geography":"MSOA","name":"Hillingdon 008"},"type":"Feature"},{"geometry":{"coordinates":[[[-0.4312347,51.5721694],[-0.4411421,51.5739185],[-0.4430042,51.5713425],[-0.4479237,51.5724447],[-0.4343558,51.5605094],[-0.4327649,51.5558485],[-0.438398,51.5506992],[-0.4158026,51.5483306],[-0.4135995,51.5574349],[-0.4162295,51.5587994],[-0.4086115,51.561796],[-0.4163625,51.5688254],[-0.4312347,51.5721694]]],"type":"Polygon"},"id":"E02000502","properties":{"code":"E02000502","geography":"MSOA","name":"Hillingdon 009"},"type":"Feature"},{"geometry":{"coordinates":[[[-0.4105386,51.5706761],[-0.4147694,51.5717],[-0.4163625,51.5688254],[-0.4086115,51.561796],[-0.4162295,51.5587994],[-0.4135995,51.5574349],[-0.409041,51.5586038],[-0.4016915,51.5518885],[-0.4065517,51.5595365],[-0.3992854,51.5605127],[-0.3959972,51.5671002],[-0.4105386,51.5706761]]],"type":"Polygon"},"id":"E02000503","properties":{"code":"E02000503","geography":"MSOA","name":"Hillingdon 010"},"type":"Feature"},{"geometry":{"coordinates":[[[-0.4479237,51.5724447],[-0.469757,51.5753569],[-0.4653099,51.5613255],[-0.4578502,51.5610732],[-0.4558839,51.558126],[-0.4473884,51.5615004],[-0.4439069,51.5581486],[-0.4478418,51.554008],[-0.438398,51.5506992],[-0.4327649,51.5558485],[-0.4343558,51.5605094],[-0.4479237,51.5724447]]],"type":"Polygon"},"id":"E02000504","properties":{"code":"E02000504","geography":"MSOA","name":"Hillingdon 011"},"type":"Feature"},{"geometry":{"coordinates":[[[-0.469757,51.5753569],[-0.4892317,51.5777591],[-0.4840472,51.575125],[-0.4847831,51.5668688],[-0.4767013,51.5593397],[-0.4779424,51.5548486],[-0.4783865,51.5494378],[-0.4626971,51.5497617],[-0.4621703,51.5441267],[-0.4552922,51.5418425],[-0.4516031,51.5396105],[-0.450303,51.5418944],[-0.4478418,51.554008],[-0.4439069,51.5581486],[-0.4473884,51.5615004],[-0.4558839,51.558126],[-0.4578502,51.5610732],[-0.4653099,51.5613255],[-0.469757,51.5753569]]],"type":"Polygon"},"id":"E02000506","properties":{"code":"E02000506","geography":"MSOA","name":"Hillingdon 013"},"type":"Feature"},{"geometry":{"coordinates":[[[-0.438398,51.5506992],[-0.4478418,51.554008],[-0.450303,51.5418944],[-0.4436084,51.5380231],[-0.4310302,51.5391789],[-0.418135,51.541734],[-0.4113639,51.5473543],[-0.4158026,51.5483306],[-0.438398,51.5506992]]],"type":"Polygon"},"id":"E02000507","properties":{"code":"E02000507","geography":"MSOA","name":"Hillingdon 014"},"type":"Feature"},{"geometry":{"coordinates":[[[-0.4552922,51.5418425],[-0.4621703,51.5441267],[-0.4626971,51.5497617],[-0.4783865,51.5494378],[-0.4779424,51.5548486],[-0.4853681,51.5507336],[-0.4770734,51.5450473],[-0.4819241,51.5378197],[-0.4763001,51.537625],[-0.4761847,51.5325476],[-0.4763845,51.5302583],[-0.4687952,51.529243],[-0.45881,51.531115],[-0.4594708,51.5353569],[-0.4681516,51.535678],[-0.4666665,51.5417014],[-0.4623938,51.5395268],[-0.4552922,51.5418425]]],"type":"Polygon"},"id":"E02000508","properties":{"code":"E02000508","geography":"MSOA","name":"Hillingdon 015"},"type":"Feature"},{"geometry":{"coordinates":[[[-0.4761847,51.5325476],[-0.4763001,51.537625],[-0.4819241,51.5378197],[-0.4770734,51.5450473],[-0.4853681,51.5507336],[-0.4910956,51.5445295],[-0.4955104,51.5384275],[-0.4889961,51.5290982],[-0.4847174,51.5274354],[-0.4761847,51.5325476]]],"type":"Polygon"},"id":"E02000509","properties":{"code":"E02000509","geography":"MSOA","name":"Hillingdon 016"},"type":"Feature"},{"geometry":{"coordinates":[[[-0.4436084,51.5380231],[-0.450303,51.5418944],[-0.4516031,51.5396105],[-0.4552922,51.5418425],[-0.4623938,51.5395268],[-0.4666665,51.5417014],[-0.4681516,51.535678],[-0.4594708,51.5353569],[-0.45881,51.531115],[-0.4687952,51.529243],[-0.4718928,51.5218314],[-0.4656302,51.5235345],[-0.4550314,51.5236919],[-0.4539641,51.5283191],[-0.4449205,51.5288476],[-0.4519615,51.5324171],[-0.4436084,51.5380231]]],"type":"Polygon"},"id":"E02000510","properties":{"code":"E02000510","geography":"MSOA","name":"Hillingdon 017"},"type":"Feature"},{"geometry":{"coordinates":[[[-0.4185348,51.5402483],[-0.418135,51.541734],[-0.4310302,51.5391789],[-0.4342705,51.5327973],[-0.4415247,51.5314005],[-0.4383665,51.5264412],[-0.4280936,51.5240624],[-0.4203974,51.5265323],[-0.4195504,51.5300301],[-0.414726,51.5259476],[-0.4118579,51.5341279],[-0.4185348,51.5402483]]],"type":"Polygon"},"id":"E02000511","properties":{"code":"E02000511","geography":"MSOA","name":"Hillingdon 018"},"type":"Feature"},{"geometry":{"coordinates":[[[-0.4383665,51.5264412],[-0.4415247,51.5314005],[-0.4342705,51.5327973],[-0.4310302,51.5391789],[-0.4436084,51.5380231],[-0.4519615,51.5324171],[-0.4449205,51.5288476],[-0.4539641,51.5283191],[-0.4550314,51.5236919],[-0.4512245,51.5265596],[-0.4475565,51.5228976],[-0.4383665,51.5264412]]],"type":"Polygon"},"id":"E02000512","properties":{"code":"E02000512","geography":"MSOA","name":"Hillingdon 019"},"type":"Feature"},{"geometry":{"coordinates":[[[-0.389864,51.5309439],[-0.4118579,51.5341279],[-0.414726,51.5259476],[-0.4191054,51.525751],[-0.4142782,51.5246024],[-0.4116633,51.5287011],[-0.3991833,51.5266745],[-0.3993381,51.5245608],[-0.3954725,51.5216992],[-0.3913275,51.525769],[-0.38432,51.5254996],[-0.389864,51.5309439]]],"type":"Polygon"},"id":"E02000513","properties":{"code":"E02000513","geography":"MSOA","name":"Hillingdon 020"},"type":"Feature"},{"geometry":{"coordinates":[[[-0.414726,51.5259476],[-0.4195504,51.5300301],[-0.4203974,51.5265323],[-0.4280936,51.5240624],[-0.4240494,51.5233769],[-0.4214216,51.5227264],[-0.4080965,51.5180396],[-0.3993381,51.5245608],[-0.3991833,51.5266745],[-0.4116633,51.5287011],[-0.4142782,51.5246024],[-0.4191054,51.525751],[-0.414726,51.5259476]]],"type":"Polygon"},"id":"E02000514","properties":{"code":"E02000514","geography":"MSOA","name":"Hillingdon 021"},"type":"Feature"},{"geometry":{"coordinates":[[[-0.4687952,51.529243],[-0.4763845,51.5302583],[-0.4761847,51.5325476],[-0.4847174,51.5274354],[-0.4889961,51.5290982],[-0.4923505,51.5170756],[-0.4855565,51.5100268],[-0.4689265,51.5095602],[-0.4685283,51.5159366],[-0.4735264,51.5141068],[-0.4748227,51.5166985],[-0.4738859,51.5187874],[-0.46736,51.517701],[-0.4656302,51.5235345],[-0.4718928,51.5218314],[-0.4687952,51.529243]]],"type":"Polygon"},"id":"E02000515","properties":{"code":"E02000515","geography":"MSOA","name":"Hillingdon 022"},"type":"Feature"},{"geometry":{"coordinates":[[[-0.381002,51.5294159],[-0.389864,51.5309439],[-0.38432,51.5254996],[-0.3913275,51.525769],[-0.3954725,51.5216992],[-0.4012417,51.5161111],[-0.3905731,51.5132175],[-0.3834568,51.5175041],[-0.3763805,51.5288409],[-0.381002,51.5294159]]],"type":"Polygon"},"id":"E02000516","properties":{"code":"E02000516","geography":"MSOA","name":"Hillingdon 023"},"type":"Feature"},{"geometry":{"coordinates":[[[-0.4280936,51.5240624],[-0.4383665,51.5264412],[-0.4475565,51.5228976],[-0.4437656,51.5189661],[-0.4509852,51.5157177],[-0.4503975,51.5084122],[-0.4412985,51.517804],[-0.4284916,51.514534],[-0.4240494,51.5233769],[-0.4280936,51.5240624]]],"type":"Polygon"},"id":"E02000517","properties":{"code":"E02000517","geography":"MSOA","name":"Hillingdon 024"},"type":"Feature"},{"geometry":{"coordinates":[[[-0.4475565,51.5228976],[-0.4512245,51.5265596],[-0.4550314,51.5236919],[-0.4656302,51.5235345],[-0.46736,51.517701],[-0.4738859,51.5187874],[-0.4748227,51.5166985],[-0.4735264,51.5141068],[-0.4685283,51.5159366],[-0.4689265,51.5095602],[-0.464721,51.50921],[-0.4507529,51.5073203],[-0.4503975,51.5084122],[-0.4509852,51.5157177],[-0.4437656,51.5189661],[-0.4475565,51.5228976]]],"type":"Polygon"},"id":"E02000518","properties":{"code":"E02000518","geography":"MSOA","name":"Hillingdon 025"},"type":"Feature"},{"geometry":{"coordinates":[[[-0.3954725,51.5216992],[-0.3993381,51.5245608],[-0.4080965,51.5180396],[-0.4214216,51.5227264],[-0.4241059,51.520414],[-0.4188371,51.5187349],[-0.4182277,51.510504],[-0.4150813,51.5142316],[-0.4048558,51.5084256],[-0.4028845,51.512928],[-0.3926014,51.5085138],[-0.3905731,51.5132175],[-0.4012417,51.5161111],[-0.3954725,51.5216992]]],"type":"Polygon"},"id":"E02000519","properties":{"code":"E02000519","geography":"MSOA","name":"Hillingdon 026"},"type":"Feature"},{"geometry":{"coordinates":[[[-0.4214216,51.5227264],[-0.4240494,51.5233769],[-0.4284916,51.514534],[-0.4412985,51.517804],[-0.4503975,51.5084122],[-0.4507529,51.5073203],[-0.4298117,51.5037058],[-0.4215215,51.5029826],[-0.424754,51.5053316],[-0.420058,51.5057047],[-0.409286,51.500316],[-0.4069058,51.4996938],[-0.4038888,51.5029216],[-0.3926014,51.5085138],[-0.4028845,51.512928],[-0.4048558,51.5084256],[-0.4150813,51.5142316],[-0.4182277,51.510504],[-0.4188371,51.5187349],[-0.4241059,51.520414],[-0.4214216,51.5227264]]],"type":"Polygon"},"id":"E02000520","properties":{"code":"E02000520","geography":"MSOA","name":"Hillingdon 027"},"type":"Feature"},{"geometry":{"coordinates":[[[-0.4507529,51.5073203],[-0.464721,51.50921],[-0.4677885,51.5045521],[-0.4634855,51.4992524],[-0.4428462,51.4948149],[-0.4407635,51.494633],[-0.4298117,51.5037058],[-0.4507529,51.5073203]]],"type":"Polygon"},"id":"E02000521","properties":{"code":"E02000521","geography":"MSOA","name":"Hillingdon 028"},"type":"Feature"},{"geometry":{"coordinates":[[[-0.4689265,51.5095602],[-0.4855565,51.5100268],[-0.4832752,51.5066019],[-0.4756167,51.5046448],[-0.4804283,51.5031381],[-0.4745693,51.4983178],[-0.479524,51.4944714],[-0.4641529,51.4957185],[-0.4634855,51.4992524],[-0.4677885,51.5045521],[-0.464721,51.50921],[-0.4689265,51.5095602]]],"type":"Polygon"},"id":"E02000522","properties":{"code":"E02000522","geography":"MSOA","name":"Hillingdon 029"},"type":"Feature"},{"geometry":{"coordinates":[[[-0.409286,51.500316],[-0.420058,51.5057047],[-0.424754,51.5053316],[-0.4215215,51.5029826],[-0.4298117,51.5037058],[-0.4407635,51.494633],[-0.4277539,51.4935665],[-0.425506,51.497971],[-0.4214125,51.4966147],[-0.4178798,51.4991009],[-0.414687,51.4969568],[-0.4174007,51.4928353],[-0.4118903,51.4924455],[-0.409286,51.500316]]],"type":"Polygon"},"id":"E02000523","properties":{"code":"E02000523","geography":"MSOA","name":"Hillingdon 030"},"type":"Feature"},{"geometry":{"coordinates":[[[-0.4634855,51.4992524],[-0.4641529,51.4957185],[-0.479524,51.4944714],[-0.4745693,51.4983178],[-0.4804283,51.5031381],[-0.4756167,51.5046448],[-0.4832752,51.5066019],[-0.4900504,51.4947338],[-0.4991931,51.4885682],[-0.5097197,51.469176],[-0.4938809,51.4627215],[-0.4660996,51.4577573],[-0.4586621,51.4563149],[-0.4440048,51.4532662],[-0.4414778,51.456806],[-0.4349242,51.4568407],[-0.4335989,51.4617378],[-0.4220365,51.4665762],[-0.4220247,51.4762184],[-0.443174,51.4811298],[-0.4444764,51.4837862],[-0.4381313,51.4863949],[-0.4428462,51.4948149],[-0.4634855,51.4992524]]],"type":"Polygon"},"id":"E02000524","properties":{"code":"E02000524","geography":"MSOA","name":"Hillingdon 031"},"type":"Feature"},{"geometry":{"coordinates":[[[-0.4118903,51.4924455],[-0.4174007,51.4928353],[-0.414687,51.4969568],[-0.4178798,51.4991009],[-0.4214125,51.4966147],[-0.425506,51.497971],[-0.4277539,51.4935665],[-0.4407635,51.494633],[-0.4428462,51.4948149],[-0.4381313,51.4863949],[-0.4444764,51.4837862],[-0.443174,51.4811298],[-0.4220247,51.4762184],[-0.4220365,51.4665762],[-0.4111908,51.4698745],[-0.4168304,51.4808648],[-0.4119473,51.4921234],[-0.4118903,51.4924455]]],"type":"Polygon"},"id":"E02000525","properties":{"code":"E02000525","geography":"MSOA","name":"Hillingdon 032"},"type":"Feature"},{"geometry":{"coordinates":[[[-0.3858923,51.570907],[-0.3859347,51.5709638],[-0.3880758,51.5695617],[-0.3859506,51.5658875],[-0.3992854,51.5605127],[-0.4065517,51.5595365],[-0.4016915,51.5518885],[-0.409041,51.5586038],[-0.4135995,51.5574349],[-0.4158026,51.5483306],[-0.4113639,51.5473543],[-0.418135,51.541734],[-0.4185348,51.5402483],[-0.3975278,51.5423676],[-0.3987292,51.5479634],[-0.3950053,51.5480075],[-0.3778948,51.5549444],[-0.3819696,51.5630719],[-0.3858923,51.570907]]],"type":"Polygon"},"id":"E02006796","properties":{"code":"E02006796","geography":"MSOA","name":"Hillingdon 033"},"type":"Feature"}],"type":"FeatureCollection"}
