{"features":[{"geometry":{"coordinates":[[[0.0398021,51.4410328],[0.0303099,51.4443431],[0.028887,51.4416252],[0.0253529,51.4358419],[0.0286401,51.4364245],[0.0311664,51.4320727],[0.0376761,51.4333787],[0.0388212,51.4246918],[0.0520591,51.4224129],[0.0515431,51.4278095],[0.0547605,51.4275856],[0.0398021,51.4410328]]],"type":"Polygon"},"id":"E02000127","properties":{"code":"E02000127","geography":"MSOA","name":"Bromley 001"},"type":"Feature"},{"geometry":{"coordinates":[[[0.0826975,51.4301938],[0.0753196,51.4320303],[0.063201,51.4242021],[0.0591781,51.4247064],[0.0547605,51.4275856],[0.0515431,51.4278095],[0.0520591,51.4224129],[0.0587653,51.4197335],[0.0611961,51.4222819],[0.0717522,51.4157071],[0.0735154,51.4180637],[0.0820217,51.415885],[0.0856618,51.4180996],[0.0838779,51.4227044],[0.0879694,51.4210797],[0.0892258,51.4239474],[0.0826975,51.4301938]]],"type":"Polygon"},"id":"E02000128","properties":{"code":"E02000128","geography":"MSOA","name":"Bromley 002"},"type":"Feature"},{"geometry":{"coordinates":[[[-0.0344167,51.4200024],[-0.0333739,51.4246425],[-0.0399088,51.4243144],[-0.0564503,51.422966],[-0.0597183,51.4184718],[-0.0513414,51.4171676],[-0.0530883,51.4110718],[-0.0507259,51.4093624],[-0.0344167,51.4200024]]],"type":"Polygon"},"id":"E02000130","properties":{"code":"E02000130","geography":"MSOA","name":"Bromley 004"},"type":"Feature"},{"geometry":{"coordinates":[[[-0.0614577,51.4248025],[-0.0739445,51.4261516],[-0.0782933,51.4205731],[-0.0786749,51.4198263],[-0.0806337,51.4157368],[-0.0733702,51.4114025],[-0.0597183,51.4184718],[-0.0564503,51.422966],[-0.0614577,51.4248025]]],"type":"Polygon"},"id":"E02000131","properties":{"code":"E02000131","geography":"MSOA","name":"Bromley 005"},"type":"Feature"},{"geometry":{"coordinates":[[[-0.0214142,51.4162681],[-0.0209613,51.4209191],[-0.0333739,51.4246425],[-0.0344167,51.4200024],[-0.0354111,51.4116289],[-0.0402289,51.4088098],[-0.0328044,51.4064846],[-0.0283375,51.4056408],[-0.0201334,51.4072437],[-0.0237328,51.4092491],[-0.0164512,51.4090568],[-0.0250449,51.4110921],[-0.0214142,51.4162681]]],"type":"Polygon"},"id":"E02000132","properties":{"code":"E02000132","geography":"MSOA","name":"Bromley 006"},"type":"Feature"},{"geometry":{"coordinates":[[[0.0520591,51.4224129],[0.0388212,51.4246918],[0.0345654,51.4233936],[0.0448409,51.4138136],[0.0394293,51.4106985],[0.0412703,51.4052167],[0.0368651,51.4047626],[0.0445707,51.401543],[0.0653363,51.3977957],[0.058463,51.4045447],[0.0767197,51.3959892],[0.077297,51.395844],[0.0747055,51.4020843],[0.0798785,51.4079165],[0.074303,51.4120108],[0.0820217,51.415885],[0.0735154,51.4180637],[0.0717522,51.4157071],[0.0611961,51.4222819],[0.0587653,51.4197335],[0.0520591,51.4224129]]],"type":"Polygon"},"id":"E02000133","properties":{"code":"E02000133","geography":"MSOA","name":"Bromley 007"},"type":"Feature"},{"geometry":{"coordinates":[[[0.0328187,51.4119508],[0.0274725,51.4132798],[0.0333194,51.4189179],[0.0289874,51.4206176],[0.0182391,51.417763],[0.0174579,51.4150495],[0.0061614,51.4155577],[0.0034837,51.4118681],[0.0069066,51.4075676],[0.0127996,51.4035664],[0.0174556,51.4056418],[0.013845,51.4081097],[0.0264529,51.4068956],[0.0328187,51.4119508]]],"type":"Polygon"},"id":"E02000134","properties":{"code":"E02000134","geography":"MSOA","name":"Bromley 008"},"type":"Feature"},{"geometry":{"coordinates":[[[-0.0530883,51.4110718],[-0.0513414,51.4171676],[-0.0597183,51.4184718],[-0.0733702,51.4114025],[-0.0730107,51.4088022],[-0.0715704,51.407396],[-0.0686045,51.4038449],[-0.0530883,51.4110718]]],"type":"Polygon"},"id":"E02000135","properties":{"code":"E02000135","geography":"MSOA","name":"Bromley 009"},"type":"Feature"},{"geometry":{"coordinates":[[[0.092381,51.4218361],[0.0892258,51.4239474],[0.0879694,51.4210797],[0.0838779,51.4227044],[0.0856618,51.4180996],[0.0820217,51.415885],[0.074303,51.4120108],[0.0798785,51.4079165],[0.0747055,51.4020843],[0.077297,51.395844],[0.0875407,51.3947729],[0.0953915,51.3949716],[0.0994433,51.3987242],[0.1047655,51.4056075],[0.0995188,51.4107115],[0.1045105,51.4152526],[0.092381,51.4218361]]],"type":"Polygon"},"id":"E02000136","properties":{"code":"E02000136","geography":"MSOA","name":"Bromley 010"},"type":"Feature"},{"geometry":{"coordinates":[[[0.0061614,51.4155577],[0.0034922,51.4174051],[-0.0077091,51.4145303],[-0.0024794,51.4084777],[-0.0063542,51.4069922],[-0.0110965,51.409505],[-0.0162225,51.4048293],[-0.0092407,51.3991522],[-0.0032704,51.400172],[-0.0003871,51.3964081],[-0.0001023,51.4014517],[0.0057507,51.4030877],[0.0017236,51.4062315],[0.0069066,51.4075676],[0.0034837,51.4118681],[0.0061614,51.4155577]]],"type":"Polygon"},"id":"E02000137","properties":{"code":"E02000137","geography":"MSOA","name":"Bromley 011"},"type":"Feature"},{"geometry":{"coordinates":[[[-0.0077091,51.4145303],[-0.0214142,51.4162681],[-0.0250449,51.4110921],[-0.0164512,51.4090568],[-0.0237328,51.4092491],[-0.0201334,51.4072437],[-0.0283375,51.4056408],[-0.0301967,51.4013406],[-0.0240016,51.3979055],[-0.0285714,51.3964144],[-0.0231336,51.3946985],[-0.0179707,51.399011],[-0.0092407,51.3991522],[-0.0162225,51.4048293],[-0.0110965,51.409505],[-0.0063542,51.4069922],[-0.0024794,51.4084777],[-0.0077091,51.4145303]]],"type":"Polygon"},"id":"E02000138","properties":{"code":"E02000138","geography":"MSOA","name":"Bromley 012"},"type":"Feature"},{"geometry":{"coordinates":[[[-0.0328044,51.4064846],[-0.0402289,51.4088098],[-0.0354111,51.4116289],[-0.0344167,51.4200024],[-0.0507259,51.4093624],[-0.0486345,51.406677],[-0.0552641,51.4037763],[-0.0512225,51.4040799],[-0.0520129,51.4005614],[-0.0504731,51.3980391],[-0.0423558,51.4050856],[-0.035178,51.403971],[-0.0328044,51.4064846]]],"type":"Polygon"},"id":"E02000139","properties":{"code":"E02000139","geography":"MSOA","name":"Bromley 013"},"type":"Feature"},{"geometry":{"coordinates":[[[0.1088795,51.4138096],[0.1045105,51.4152526],[0.0995188,51.4107115],[0.1047655,51.4056075],[0.0994433,51.3987242],[0.1042772,51.3975781],[0.0996656,51.3949276],[0.1118266,51.3946525],[0.1188551,51.4132753],[0.1088795,51.4138096]]],"type":"Polygon"},"id":"E02000140","properties":{"code":"E02000140","geography":"MSOA","name":"Bromley 014"},"type":"Feature"},{"geometry":{"coordinates":[[[-0.0507259,51.4093624],[-0.0530883,51.4110718],[-0.0686045,51.4038449],[-0.0637556,51.4015606],[-0.0605866,51.3991242],[-0.0520129,51.4005614],[-0.0512225,51.4040799],[-0.0552641,51.4037763],[-0.0486345,51.406677],[-0.0507259,51.4093624]]],"type":"Polygon"},"id":"E02000141","properties":{"code":"E02000141","geography":"MSOA","name":"Bromley 015"},"type":"Feature"},{"geometry":{"coordinates":[[[0.0445707,51.401543],[0.0368651,51.4047626],[0.0412703,51.4052167],[0.0394293,51.4106985],[0.0448409,51.4138136],[0.0328187,51.4119508],[0.0264529,51.4068956],[0.0251223,51.4022763],[0.0191857,51.4008271],[0.025238,51.3957479],[0.0234555,51.3998596],[0.0366598,51.3996896],[0.03918,51.3960444],[0.0397788,51.3998457],[0.0454352,51.4002428],[0.0445707,51.401543]]],"type":"Polygon"},"id":"E02000142","properties":{"code":"E02000142","geography":"MSOA","name":"Bromley 016"},"type":"Feature"},{"geometry":{"coordinates":[[[0.0264529,51.4068956],[0.013845,51.4081097],[0.0174556,51.4056418],[0.0127996,51.4035664],[0.0069066,51.4075676],[0.0017236,51.4062315],[0.0057507,51.4030877],[0.0116362,51.3947446],[0.0064886,51.3931129],[0.0063104,51.3892082],[0.0171572,51.3886385],[0.0183692,51.392475],[0.0198803,51.3956632],[0.025238,51.3957479],[0.0191857,51.4008271],[0.0251223,51.4022763],[0.0264529,51.4068956]]],"type":"Polygon"},"id":"E02000144","properties":{"code":"E02000144","geography":"MSOA","name":"Bromley 018"},"type":"Feature"},{"geometry":{"coordinates":[[[0.1488028,51.4085099],[0.129559,51.4148983],[0.1188551,51.4132753],[0.1118266,51.3946525],[0.1162127,51.3878168],[0.1192846,51.3829046],[0.1284639,51.3804993],[0.1244617,51.3773199],[0.1310576,51.3743404],[0.1285627,51.3719506],[0.1473097,51.3669941],[0.151597,51.3683882],[0.1532097,51.3780359],[0.1475077,51.3921564],[0.1613518,51.3923764],[0.1488028,51.4085099]]],"type":"Polygon"},"id":"E02000145","properties":{"code":"E02000145","geography":"MSOA","name":"Bromley 019"},"type":"Feature"},{"geometry":{"coordinates":[[[0.0426115,51.389965],[0.0454352,51.4002428],[0.0397788,51.3998457],[0.03918,51.3960444],[0.0366598,51.3996896],[0.0234555,51.3998596],[0.025238,51.3957479],[0.0198803,51.3956632],[0.0183692,51.392475],[0.0292936,51.3878266],[0.0352792,51.3893041],[0.0374237,51.3863549],[0.0426115,51.389965]]],"type":"Polygon"},"id":"E02000146","properties":{"code":"E02000146","geography":"MSOA","name":"Bromley 020"},"type":"Feature"},{"geometry":{"coordinates":[[[0.0063104,51.3892082],[0.0064886,51.3931129],[0.0116362,51.3947446],[0.0057507,51.4030877],[-0.0001023,51.4014517],[-0.0003871,51.3964081],[-0.0032704,51.400172],[-0.0092407,51.3991522],[-0.0179707,51.399011],[-0.0114631,51.3876083],[-0.0020194,51.3856126],[0.0063104,51.3892082]]],"type":"Polygon"},"id":"E02000147","properties":{"code":"E02000147","geography":"MSOA","name":"Bromley 021"},"type":"Feature"},{"geometry":{"coordinates":[[[0.0767197,51.3959892],[0.058463,51.4045447],[0.0653363,51.3977957],[0.0445707,51.401543],[0.0454352,51.4002428],[0.0426115,51.389965],[0.0640185,51.3892016],[0.0582275,51.380906],[0.0638969,51.3794081],[0.0713122,51.3825084],[0.0664429,51.3885433],[0.0774041,51.3870224],[0.0826423,51.3912137],[0.0779314,51.3926691],[0.0744911,51.3905688],[0.0767197,51.3959892]]],"type":"Polygon"},"id":"E02000148","properties":{"code":"E02000148","geography":"MSOA","name":"Bromley 022"},"type":"Feature"},{"geometry":{"coordinates":[[[0.1118266,51.3946525],[0.0996656,51.3949276],[0.1042772,51.3975781],[0.0994433,51.3987242],[0.0953915,51.3949716],[0.0875407,51.3947729],[0.090567,51.3911909],[0.0931078,51.3873907],[0.1027997,51.3883369],[0.0972035,51.3844984],[0.1086086,51.3845229],[0.1078495,51.3824933],[0.1162127,51.3878168],[0.1118266,51.3946525]]],"type":"Polygon"},"id":"E02000149","properties":{"code":"E02000149","geography":"MSOA","name":"Bromley 023"},"type":"Feature"},{"geometry":{"coordinates":[[[-0.0179707,51.399011],[-0.0231336,51.3946985],[-0.0285714,51.3964144],[-0.0240016,51.3979055],[-0.0301967,51.4013406],[-0.0345171,51.4012437],[-0.0356461,51.3930312],[-0.0426722,51.3950663],[-0.0417911,51.392878],[-0.047229,51.3922904],[-0.0365249,51.3884616],[-0.0376402,51.3814322],[-0.0369526,51.3770088],[-0.0268233,51.3793741],[-0.0229165,51.3869581],[-0.0205519,51.3850714],[-0.0185845,51.3878617],[-0.0114631,51.3876083],[-0.0179707,51.399011]]],"type":"Polygon"},"id":"E02000150","properties":{"code":"E02000150","geography":"MSOA","name":"Bromley 024"},"type":"Feature"},{"geometry":{"coordinates":[[[0.077297,51.395844],[0.0767197,51.3959892],[0.0744911,51.3905688],[0.0779314,51.3926691],[0.0826423,51.3912137],[0.0774041,51.3870224],[0.0664429,51.3885433],[0.0713122,51.3825084],[0.0638969,51.3794081],[0.0771498,51.3770291],[0.0815437,51.3811839],[0.091564,51.3812946],[0.0872674,51.3857099],[0.090567,51.3911909],[0.0875407,51.3947729],[0.077297,51.395844]]],"type":"Polygon"},"id":"E02000151","properties":{"code":"E02000151","geography":"MSOA","name":"Bromley 025"},"type":"Feature"},{"geometry":{"coordinates":[[[0.0640185,51.3892016],[0.0426115,51.389965],[0.0374237,51.3863549],[0.0352792,51.3893041],[0.0292936,51.3878266],[0.0308304,51.3865809],[0.0346729,51.3783663],[0.0417034,51.3781407],[0.0412663,51.3810631],[0.0487457,51.3824154],[0.0444077,51.3754246],[0.0496218,51.377293],[0.052896,51.37318],[0.0556372,51.3758893],[0.0582275,51.380906],[0.0640185,51.3892016]]],"type":"Polygon"},"id":"E02000152","properties":{"code":"E02000152","geography":"MSOA","name":"Bromley 026"},"type":"Feature"},{"geometry":{"coordinates":[[[0.0292936,51.3878266],[0.0183692,51.392475],[0.0171572,51.3886385],[0.0063104,51.3892082],[-0.0020194,51.3856126],[-0.0018212,51.3797698],[0.0031331,51.3820789],[-0.0022504,51.3772845],[0.0039305,51.3764784],[0.0170007,51.3762808],[0.0170757,51.3830905],[0.0308304,51.3865809],[0.0292936,51.3878266]]],"type":"Polygon"},"id":"E02000153","properties":{"code":"E02000153","geography":"MSOA","name":"Bromley 027"},"type":"Feature"},{"geometry":{"coordinates":[[[0.1078495,51.3824933],[0.1086086,51.3845229],[0.0972035,51.3844984],[0.1027997,51.3883369],[0.0931078,51.3873907],[0.090567,51.3911909],[0.0872674,51.3857099],[0.091564,51.3812946],[0.0815437,51.3811839],[0.0903834,51.3714672],[0.094441,51.3673616],[0.0972017,51.3697276],[0.0983414,51.3724999],[0.1033072,51.3731331],[0.0997112,51.3755623],[0.1078495,51.3824933]]],"type":"Polygon"},"id":"E02000154","properties":{"code":"E02000154","geography":"MSOA","name":"Bromley 028"},"type":"Feature"},{"geometry":{"coordinates":[[[0.1285627,51.3719506],[0.1310576,51.3743404],[0.1244617,51.3773199],[0.1284639,51.3804993],[0.1192846,51.3829046],[0.1162127,51.3878168],[0.1078495,51.3824933],[0.0997112,51.3755623],[0.1033072,51.3731331],[0.0983414,51.3724999],[0.1126931,51.3703578],[0.1101282,51.374292],[0.1164479,51.3776504],[0.1285166,51.3719752],[0.1285627,51.3719506]]],"type":"Polygon"},"id":"E02000155","properties":{"code":"E02000155","geography":"MSOA","name":"Bromley 029"},"type":"Feature"},{"geometry":{"coordinates":[[[-0.0114631,51.3876083],[-0.0185845,51.3878617],[-0.0205519,51.3850714],[-0.0229165,51.3869581],[-0.0268233,51.3793741],[-0.023625,51.3652775],[-0.0198632,51.3635824],[-0.0055555,51.3684634],[0.0039305,51.3764784],[-0.0022504,51.3772845],[0.0031331,51.3820789],[-0.0018212,51.3797698],[-0.0020194,51.3856126],[-0.0114631,51.3876083]]],"type":"Polygon"},"id":"E02000156","properties":{"code":"E02000156","geography":"MSOA","name":"Bromley 030"},"type":"Feature"},{"geometry":{"coordinates":[[[0.0903834,51.3714672],[0.0815437,51.3811839],[0.0771498,51.3770291],[0.0638969,51.3794081],[0.0582275,51.380906],[0.0556372,51.3758893],[0.0647067,51.3752828],[0.0625491,51.370671],[0.0681133,51.3666465],[0.0807023,51.3655812],[0.0903834,51.3714672]]],"type":"Polygon"},"id":"E02000157","properties":{"code":"E02000157","geography":"MSOA","name":"Bromley 031"},"type":"Feature"},{"geometry":{"coordinates":[[[0.1285166,51.3719752],[0.1164479,51.3776504],[0.1101282,51.374292],[0.1126931,51.3703578],[0.0983414,51.3724999],[0.0972017,51.3697276],[0.1057093,51.3673258],[0.1030341,51.3607895],[0.1120147,51.3608871],[0.1143378,51.3647209],[0.1287341,51.3665569],[0.1285166,51.3719752]]],"type":"Polygon"},"id":"E02000158","properties":{"code":"E02000158","geography":"MSOA","name":"Bromley 032"},"type":"Feature"},{"geometry":{"coordinates":[[[0.0556372,51.3758893],[0.052896,51.37318],[0.0496218,51.377293],[0.0444077,51.3754246],[0.0487457,51.3824154],[0.0412663,51.3810631],[0.0417034,51.3781407],[0.0346729,51.3783663],[0.0335136,51.3676201],[0.0199485,51.358099],[0.0202292,51.3526451],[0.034093,51.3477498],[0.0444414,51.351674],[0.0496211,51.362209],[0.0599483,51.3677851],[0.0681133,51.3666465],[0.0625491,51.370671],[0.0647067,51.3752828],[0.0556372,51.3758893]]],"type":"Polygon"},"id":"E02000159","properties":{"code":"E02000159","geography":"MSOA","name":"Bromley 033"},"type":"Feature"},{"geometry":{"coordinates":[[[0.0346729,51.3783663],[0.0308304,51.3865809],[0.0170757,51.3830905],[0.0170007,51.3762808],[0.0039305,51.3764784],[-0.0055555,51.3684634],[-0.0198632,51.3635824],[-0.0182894,51.361252],[-0.0134688,51.3574301],[-0.0053773,51.3527883],[-0.0028476,51.3455349],[0.0067349,51.3517975],[0.0147913,51.3494745],[0.0202292,51.3526451],[0.0199485,51.358099],[0.0335136,51.3676201],[0.0346729,51.3783663]]],"type":"Polygon"},"id":"E02000160","properties":{"code":"E02000160","geography":"MSOA","name":"Bromley 034"},"type":"Feature"},{"geometry":{"coordinates":[[[0.0972017,51.3697276],[0.094441,51.3673616],[0.0903834,51.3714672],[0.0807023,51.3655812],[0.0781477,51.3616599],[0.08464,51.3587692],[0.0919417,51.363575],[0.0943818,51.359684],[0.0992896,51.3595228],[0.0943277,51.3590268],[0.0969243,51.3559494],[0.1036938,51.3558473],[0.1030341,51.3607895],[0.1057093,51.3673258],[0.0972017,51.3697276]]],"type":"Polygon"},"id":"E02000161","properties":{"code":"E02000161","geography":"MSOA","name":"Bromley 035"},"type":"Feature"},{"geometry":{"coordinates":[[[0.0681133,51.3666465],[0.0599483,51.3677851],[0.0496211,51.362209],[0.0444414,51.351674],[0.0472694,51.3465549],[0.0411316,51.3417401],[0.0575949,51.3430145],[0.0536661,51.3395],[0.0442998,51.3384778],[0.0534147,51.339058],[0.054182,51.329316],[0.0666422,51.3291613],[0.0679055,51.325739],[0.0840622,51.3222499],[0.0955217,51.3235922],[0.0931045,51.3282687],[0.0976295,51.3321182],[0.0992498,51.3448419],[0.0901601,51.3479363],[0.08464,51.3587692],[0.0781477,51.3616599],[0.0807023,51.3655812],[0.0681133,51.3666465]]],"type":"Polygon"},"id":"E02000162","properties":{"code":"E02000162","geography":"MSOA","name":"Bromley 036"},"type":"Feature"},{"geometry":{"coordinates":[[[0.1285627,51.3719506],[0.1285166,51.3719752],[0.1287341,51.3665569],[0.1143378,51.3647209],[0.1120147,51.3608871],[0.1030341,51.3607895],[0.1036938,51.3558473],[0.0969243,51.3559494],[0.0943277,51.3590268],[0.0992896,51.3595228],[0.0943818,51.359684],[0.0919417,51.363575],[0.08464,51.3587692],[0.0901601,51.3479363],[0.0992498,51.3448419],[0.0976295,51.3321182],[0.0931045,51.3282687],[0.0955217,51.3235922],[0.0937899,51.3202463],[0.1048668,51.3274424],[0.1178756,51.3296627],[0.1216559,51.3336357],[0.1184291,51.3441471],[0.1369307,51.3441743],[0.1413154,51.3496432],[0.1473097,51.3669941],[0.1285627,51.3719506]]],"type":"Polygon"},"id":"E02000163","properties":{"code":"E02000163","geography":"MSOA","name":"Bromley 037"},"type":"Feature"},{"geometry":{"coordinates":[[[0.0328744,51.3075146],[0.0375421,51.3141514],[0.0241693,51.3272392],[0.0032822,51.3321537],[0.0022662,51.3291379],[0.0065545,51.3156532],[0.0103204,51.3161403],[0.008363,51.3103618],[0.0149824,51.2917873],[0.0190733,51.2916852],[0.0248112,51.3021557],[0.0328744,51.3075146]]],"type":"Polygon"},"id":"E02000165","properties":{"code":"E02000165","geography":"MSOA","name":"Bromley 039"},"type":"Feature"},{"geometry":{"coordinates":[[[0.0345654,51.4233936],[0.0254642,51.428931],[0.0209078,51.4268189],[0.0078669,51.422564],[0.0034922,51.4174051],[0.0061614,51.4155577],[0.0174579,51.4150495],[0.0182391,51.417763],[0.0289874,51.4206176],[0.0333194,51.4189179],[0.0274725,51.4132798],[0.0328187,51.4119508],[0.0448409,51.4138136],[0.0345654,51.4233936]]],"type":"Polygon"},"id":"E02006782","properties":{"code":"E02006782","geography":"MSOA","name":"Bromley 040"},"type":"Feature"},{"geometry":{"coordinates":[[[-0.0283375,51.4056408],[-0.0328044,51.4064846],[-0.035178,51.403971],[-0.0423558,51.4050856],[-0.0504731,51.3980391],[-0.0535095,51.394921],[-0.0473171,51.3924147],[-0.047229,51.3922904],[-0.0417911,51.392878],[-0.0426722,51.3950663],[-0.0356461,51.3930312],[-0.0345171,51.4012437],[-0.0301967,51.4013406],[-0.0283375,51.4056408]]],"type":"Polygon"},"id":"E02006787","properties":{"code":"E02006787","geography":"MSOA","name":"Bromley 041"},"type":"Feature"},{"geometry":{"coordinates":[[[0.0444414,51.351674],[0.034093,51.3477498],[0.0202292,51.3526451],[0.0147913,51.3494745],[0.0067349,51.3517975],[-0.0028476,51.3455349],[-0.0024006,51.3434949],[0.0032822,51.3321537],[0.0241693,51.3272392],[0.0375421,51.3141514],[0.0328744,51.3075146],[0.0427906,51.3011697],[0.0423704,51.2926788],[0.0508053,51.2939774],[0.0586292,51.2893646],[0.0814987,51.2918251],[0.0911579,51.2968293],[0.0828537,51.3056556],[0.0850013,51.3160229],[0.0937899,51.3202463],[0.0955217,51.3235922],[0.0840622,51.3222499],[0.0679055,51.325739],[0.0666422,51.3291613],[0.054182,51.329316],[0.0534147,51.339058],[0.0442998,51.3384778],[0.0536661,51.3395],[0.0575949,51.3430145],[0.0411316,51.3417401],[0.0472694,51.3465549],[0.0444414,51.351674]]],"type":"Polygon"},"id":"E02006789","properties":{"code":"E02006789","geography":"MSOA","name":"Bromley 042"},"type":"Feature"}],"type":"FeatureCollection"}
