{"features":[{"geometry":{"coordinates":[[[0.1209161,51.5018441],[0.1207618,51.5068323],[0.1119725,51.5066356],[0.1055754,51.4986895],[0.1096414,51.4971821],[0.1209814,51.5007716],[0.1209161,51.5018441]]],"type":"Polygon"},"id":"E02000313","properties":{"code":"E02000313","geography":"MSOA","name":"Greenwich 001"},"type":"Feature"},{"geometry":{"coordinates":[[[0.1207618,51.5068323],[0.1191122,51.5113498],[0.1187558,51.511319],[0.0920247,51.5090075],[0.0838733,51.5004114],[0.0827342,51.4992098],[0.0846356,51.4982135],[0.0854813,51.489821],[0.1035681,51.4952835],[0.1096414,51.4971821],[0.1055754,51.4986895],[0.1119725,51.5066356],[0.1207618,51.5068323]]],"type":"Polygon"},"id":"E02000314","properties":{"code":"E02000314","geography":"MSOA","name":"Greenwich 002"},"type":"Feature"},{"geometry":{"coordinates":[[[0.1213117,51.4908374],[0.1209814,51.5007716],[0.1096414,51.4971821],[0.1035681,51.4952835],[0.1018694,51.4893811],[0.1055861,51.4883261],[0.1080297,51.4908342],[0.1213343,51.4897849],[0.1213117,51.4908374]]],"type":"Polygon"},"id":"E02000315","properties":{"code":"E02000315","geography":"MSOA","name":"Greenwich 003"},"type":"Feature"},{"geometry":{"coordinates":[[[0.0618435,51.4881089],[0.0531362,51.4928783],[0.0460754,51.4926405],[0.0466221,51.4891378],[0.041267,51.488138],[0.0497046,51.4848238],[0.0618435,51.4881089]]],"type":"Polygon"},"id":"E02000317","properties":{"code":"E02000317","geography":"MSOA","name":"Greenwich 005"},"type":"Feature"},{"geometry":{"coordinates":[[[0.1055861,51.4883261],[0.1018694,51.4893811],[0.1035681,51.4952835],[0.0854813,51.489821],[0.0908637,51.4824264],[0.0987174,51.4825407],[0.1053734,51.4876627],[0.1055861,51.4883261]]],"type":"Polygon"},"id":"E02000318","properties":{"code":"E02000318","geography":"MSOA","name":"Greenwich 006"},"type":"Feature"},{"geometry":{"coordinates":[[[0.0854813,51.489821],[0.0846356,51.4982135],[0.0827342,51.4992098],[0.0826941,51.4991676],[0.0824038,51.4988613],[0.0762074,51.4958912],[0.0758972,51.4958783],[0.0753914,51.4958572],[0.0783764,51.4931353],[0.0789589,51.488359],[0.0836608,51.4875582],[0.0797247,51.4864559],[0.0802288,51.4808689],[0.0877545,51.479753],[0.0908637,51.4824264],[0.0854813,51.489821]]],"type":"Polygon"},"id":"E02000319","properties":{"code":"E02000319","geography":"MSOA","name":"Greenwich 007"},"type":"Feature"},{"geometry":{"coordinates":[[[0.1213343,51.4897849],[0.1080297,51.4908342],[0.1055861,51.4883261],[0.1053734,51.4876627],[0.1053102,51.4811112],[0.115556,51.476137],[0.1184902,51.4788966],[0.1241589,51.4768232],[0.1213343,51.4897849]]],"type":"Polygon"},"id":"E02000320","properties":{"code":"E02000320","geography":"MSOA","name":"Greenwich 008"},"type":"Feature"},{"geometry":{"coordinates":[[[0.0802288,51.4808689],[0.0797247,51.4864559],[0.0836608,51.4875582],[0.0789589,51.488359],[0.0783764,51.4931353],[0.0732347,51.4891529],[0.0737031,51.4816216],[0.0801551,51.4808828],[0.0802288,51.4808689]]],"type":"Polygon"},"id":"E02000321","properties":{"code":"E02000321","geography":"MSOA","name":"Greenwich 009"},"type":"Feature"},{"geometry":{"coordinates":[[[0.0732347,51.4891529],[0.0684251,51.4899856],[0.0627347,51.4884619],[0.0668132,51.4851465],[0.0635112,51.4816804],[0.0687429,51.479549],[0.077133,51.4780821],[0.0799647,51.4804178],[0.0801551,51.4808828],[0.0737031,51.4816216],[0.0732347,51.4891529]]],"type":"Polygon"},"id":"E02000323","properties":{"code":"E02000323","geography":"MSOA","name":"Greenwich 011"},"type":"Feature"},{"geometry":{"coordinates":[[[0.0497046,51.4848238],[0.041267,51.488138],[0.0350708,51.4877373],[0.0315682,51.4868851],[0.0338163,51.4826678],[0.0299846,51.4831759],[0.0356206,51.48045],[0.0293178,51.4772557],[0.0343804,51.4751378],[0.0381665,51.4795542],[0.0475452,51.4761468],[0.0520824,51.4801791],[0.0497046,51.4848238]]],"type":"Polygon"},"id":"E02000324","properties":{"code":"E02000324","geography":"MSOA","name":"Greenwich 012"},"type":"Feature"},{"geometry":{"coordinates":[[[0.0293178,51.4772557],[0.0356206,51.48045],[0.0299846,51.4831759],[0.0338163,51.4826678],[0.0315682,51.4868851],[0.0232886,51.4846903],[0.0201557,51.4844086],[0.0235407,51.4764393],[0.0293178,51.4772557]]],"type":"Polygon"},"id":"E02000326","properties":{"code":"E02000326","geography":"MSOA","name":"Greenwich 014"},"type":"Feature"},{"geometry":{"coordinates":[[[0.0687429,51.479549],[0.0635112,51.4816804],[0.0668132,51.4851465],[0.0627347,51.4884619],[0.0618435,51.4881089],[0.0497046,51.4848238],[0.0520824,51.4801791],[0.0475452,51.4761468],[0.0513913,51.4717534],[0.0550004,51.4711155],[0.0687429,51.479549]]],"type":"Polygon"},"id":"E02000327","properties":{"code":"E02000327","geography":"MSOA","name":"Greenwich 015"},"type":"Feature"},{"geometry":{"coordinates":[[[0.0235407,51.4764393],[0.0201557,51.4844086],[0.0013869,51.4821375],[0.0080536,51.4769707],[0.0161201,51.4797762],[0.0160838,51.4771994],[0.0207439,51.4780455],[0.0179138,51.4748896],[0.0240216,51.4756009],[0.0235407,51.4764393]]],"type":"Polygon"},"id":"E02000328","properties":{"code":"E02000328","geography":"MSOA","name":"Greenwich 016"},"type":"Feature"},{"geometry":{"coordinates":[[[0.0802288,51.4808689],[0.0801551,51.4808828],[0.0799647,51.4804178],[0.0845963,51.4774628],[0.0775793,51.4779779],[0.0797076,51.4707826],[0.0763086,51.467597],[0.0690604,51.4687251],[0.0728002,51.4625373],[0.0822656,51.4616063],[0.0822458,51.4666065],[0.0890064,51.4703726],[0.0982771,51.4754488],[0.0877545,51.479753],[0.0802288,51.4808689]]],"type":"Polygon"},"id":"E02000329","properties":{"code":"E02000329","geography":"MSOA","name":"Greenwich 017"},"type":"Feature"},{"geometry":{"coordinates":[[[0.0475452,51.4761468],[0.0381665,51.4795542],[0.0343804,51.4751378],[0.0293178,51.4772557],[0.0235407,51.4764393],[0.0240216,51.4756009],[0.0251712,51.4736787],[0.0479845,51.4696528],[0.0513913,51.4717534],[0.0475452,51.4761468]]],"type":"Polygon"},"id":"E02000331","properties":{"code":"E02000331","geography":"MSOA","name":"Greenwich 019"},"type":"Feature"},{"geometry":{"coordinates":[[[0.0728002,51.4625373],[0.0690604,51.4687251],[0.0763086,51.467597],[0.0797076,51.4707826],[0.0775793,51.4779779],[0.0845963,51.4774628],[0.0799647,51.4804178],[0.077133,51.4780821],[0.0687429,51.479549],[0.0550004,51.4711155],[0.0533683,51.4681069],[0.0588092,51.463612],[0.0681831,51.4648614],[0.0680214,51.4624993],[0.0728002,51.4625373]]],"type":"Polygon"},"id":"E02000332","properties":{"code":"E02000332","geography":"MSOA","name":"Greenwich 020"},"type":"Feature"},{"geometry":{"coordinates":[[[0.0240216,51.4756009],[0.0179138,51.4748896],[0.0207439,51.4780455],[0.0160838,51.4771994],[0.0161201,51.4797762],[0.0080536,51.4769707],[0.01209,51.4731733],[0.0183237,51.4739128],[0.0093189,51.46403],[0.0217225,51.4645118],[0.0289508,51.4678219],[0.0251712,51.4736787],[0.0240216,51.4756009]]],"type":"Polygon"},"id":"E02000333","properties":{"code":"E02000333","geography":"MSOA","name":"Greenwich 021"},"type":"Feature"},{"geometry":{"coordinates":[[[0.0513913,51.4717534],[0.0479845,51.4696528],[0.0251712,51.4736787],[0.0289508,51.4678219],[0.0299265,51.4659218],[0.0387875,51.4622405],[0.0465445,51.4643811],[0.0533683,51.4681069],[0.0550004,51.4711155],[0.0513913,51.4717534]]],"type":"Polygon"},"id":"E02000334","properties":{"code":"E02000334","geography":"MSOA","name":"Greenwich 022"},"type":"Feature"},{"geometry":{"coordinates":[[[0.0728002,51.4625373],[0.0680214,51.4624993],[0.0681831,51.4648614],[0.0588092,51.463612],[0.0533683,51.4681069],[0.0465445,51.4643811],[0.0502921,51.4626662],[0.059805,51.4575367],[0.0730419,51.4581166],[0.078825,51.4591236],[0.0822656,51.4616063],[0.0728002,51.4625373]]],"type":"Polygon"},"id":"E02000335","properties":{"code":"E02000335","geography":"MSOA","name":"Greenwich 023"},"type":"Feature"},{"geometry":{"coordinates":[[[0.0465445,51.4643811],[0.0387875,51.4622405],[0.0299265,51.4659218],[0.0297761,51.4619359],[0.0393293,51.4582003],[0.0365934,51.4533303],[0.0471676,51.4514277],[0.0488227,51.4514067],[0.0502921,51.4626662],[0.0465445,51.4643811]]],"type":"Polygon"},"id":"E02000337","properties":{"code":"E02000337","geography":"MSOA","name":"Greenwich 025"},"type":"Feature"},{"geometry":{"coordinates":[[[0.0730419,51.4581166],[0.059805,51.4575367],[0.0502921,51.4626662],[0.0488227,51.4514067],[0.0673306,51.4517573],[0.0730419,51.4581166]]],"type":"Polygon"},"id":"E02000339","properties":{"code":"E02000339","geography":"MSOA","name":"Greenwich 027"},"type":"Feature"},{"geometry":{"coordinates":[[[0.0867944,51.4510602],[0.0856999,51.4564555],[0.078825,51.4591236],[0.0730419,51.4581166],[0.0673306,51.4517573],[0.0488227,51.4514067],[0.0471676,51.4514277],[0.0442534,51.4437805],[0.0481894,51.440453],[0.0619184,51.4389719],[0.0718505,51.4378971],[0.0723841,51.4479113],[0.0867944,51.4510602]]],"type":"Polygon"},"id":"E02000340","properties":{"code":"E02000340","geography":"MSOA","name":"Greenwich 028"},"type":"Feature"},{"geometry":{"coordinates":[[[0.0471676,51.4514277],[0.0365934,51.4533303],[0.0223092,51.4481652],[0.0223436,51.4481127],[0.0215619,51.4427027],[0.028887,51.4416252],[0.0303099,51.4443431],[0.0398021,51.4410328],[0.0481894,51.440453],[0.0442534,51.4437805],[0.0471676,51.4514277]]],"type":"Polygon"},"id":"E02000341","properties":{"code":"E02000341","geography":"MSOA","name":"Greenwich 029"},"type":"Feature"},{"geometry":{"coordinates":[[[0.0869712,51.4500967],[0.0867944,51.4510602],[0.0723841,51.4479113],[0.0718505,51.4378971],[0.0758881,51.4344591],[0.0863587,51.4450861],[0.0869712,51.4500967]]],"type":"Polygon"},"id":"E02000342","properties":{"code":"E02000342","geography":"MSOA","name":"Greenwich 030"},"type":"Feature"},{"geometry":{"coordinates":[[[0.0481894,51.440453],[0.0398021,51.4410328],[0.0547605,51.4275856],[0.0591781,51.4247064],[0.0633966,51.4281657],[0.0579515,51.429332],[0.0600642,51.4326789],[0.0565656,51.4347],[0.0619184,51.4389719],[0.0481894,51.440453]]],"type":"Polygon"},"id":"E02000343","properties":{"code":"E02000343","geography":"MSOA","name":"Greenwich 031"},"type":"Feature"},{"geometry":{"coordinates":[[[0.0718505,51.4378971],[0.0619184,51.4389719],[0.0565656,51.4347],[0.0600642,51.4326789],[0.0579515,51.429332],[0.0633966,51.4281657],[0.0591781,51.4247064],[0.063201,51.4242021],[0.0753196,51.4320303],[0.0758881,51.4344591],[0.0718505,51.4378971]]],"type":"Polygon"},"id":"E02000344","properties":{"code":"E02000344","geography":"MSOA","name":"Greenwich 032"},"type":"Feature"},{"geometry":{"coordinates":[[[0.115556,51.476137],[0.1053102,51.4811112],[0.1053734,51.4876627],[0.0987174,51.4825407],[0.0908637,51.4824264],[0.0877545,51.479753],[0.0982771,51.4754488],[0.1082256,51.4761264],[0.1117717,51.473194],[0.115556,51.476137]]],"type":"Polygon"},"id":"E02006786","properties":{"code":"E02006786","geography":"MSOA","name":"Greenwich 033"},"type":"Feature"},{"geometry":{"coordinates":[[[0.0299265,51.4659218],[0.0289508,51.4678219],[0.0217225,51.4645118],[0.0093189,51.46403],[0.0113822,51.4566756],[0.01748,51.4550497],[0.0183709,51.4515945],[0.0150418,51.4500383],[0.0223092,51.4481652],[0.0365934,51.4533303],[0.0393293,51.4582003],[0.0297761,51.4619359],[0.0299265,51.4659218]]],"type":"Polygon"},"id":"E02006927","properties":{"code":"E02006927","geography":"MSOA","name":"Greenwich 034"},"type":"Feature"},{"geometry":{"coordinates":[[[[-0.0121972,51.4779161],[-0.0151883,51.4793427],[-0.0093988,51.4814491],[-0.0096767,51.4841245],[-0.0178848,51.4832183],[-0.0150255,51.4817662],[-0.0168603,51.4802453],[-0.0172167,51.4799502],[-0.0220067,51.4754255],[-0.0121972,51.4779161]]],[[[-0.017306,51.48024],[-0.0171165,51.4804095],[-0.0243294,51.4852021],[-0.0243808,51.4852363],[-0.0264092,51.48151],[-0.0230717,51.4796282],[-0.017306,51.48024]]]],"type":"MultiPolygon"},"id":"E02006928","properties":{"code":"E02006928","geography":"MSOA","name":"Greenwich 035"},"type":"Feature"},{"geometry":{"coordinates":[[[0.0231186,51.4900225],[0.0093129,51.4863174],[0.0032307,51.4923324],[0.0056192,51.4854255],[-0.0028641,51.4825074],[0.0013869,51.4821375],[0.0201557,51.4844086],[0.0232886,51.4846903],[0.0231186,51.4900225]]],"type":"Polygon"},"id":"E02006930","properties":{"code":"E02006930","geography":"MSOA","name":"Greenwich 037"},"type":"Feature"},{"geometry":{"coordinates":[[[-0.0028641,51.4825074],[-0.0046825,51.4847031],[-0.0047264,51.4846707],[-0.0096767,51.4841245],[-0.0093988,51.4814491],[-0.0151883,51.4793427],[-0.0121972,51.4779161],[-0.0220067,51.4754255],[-0.0228044,51.4744638],[-0.0217076,51.4739943],[-0.0171409,51.4692978],[-0.0131304,51.4689357],[-0.0140772,51.4726382],[-0.0022269,51.4719024],[0.01209,51.4731733],[0.0080536,51.4769707],[0.0013869,51.4821375],[-0.0028641,51.4825074]]],"type":"Polygon"},"id":"E02006931","properties":{"code":"E02006931","geography":"MSOA","name":"Greenwich 038"},"type":"Feature"},{"geometry":{"coordinates":[[[0.0783764,51.4931353],[0.0753914,51.4958572],[0.0644872,51.4954024],[0.0690508,51.4929485],[0.0684251,51.4899856],[0.0732347,51.4891529],[0.0783764,51.4931353]]],"type":"Polygon"},"id":"E02006991","properties":{"code":"E02006991","geography":"MSOA","name":"Greenwich 039"},"type":"Feature"},{"geometry":{"coordinates":[[[0.0072805,51.5007791],[0.00556,51.5017772],[0.0008253,51.5045235],[-0.0010324,51.5018898],[-0.0022671,51.5001392],[0.0024471,51.4899447],[-0.0046825,51.4847031],[-0.0028641,51.4825074],[0.0056192,51.4854255],[0.0032307,51.4923324],[0.0093129,51.4863174],[0.0231186,51.4900225],[0.0244361,51.4927893],[0.0190587,51.4922962],[0.0182697,51.4948715],[0.0166719,51.4907873],[0.0105299,51.4926994],[0.011307,51.4973765],[0.0052793,51.4994844],[0.0072805,51.5007791]]],"type":"Polygon"},"id":"E02006992","properties":{"code":"E02006992","geography":"MSOA","name":"Greenwich 040"},"type":"Feature"},{"geometry":{"coordinates":[[[0.0295498,51.4939383],[0.0290191,51.493916],[0.0156999,51.4958938],[0.0153893,51.4960741],[0.0072805,51.5007791],[0.0052793,51.4994844],[0.011307,51.4973765],[0.0105299,51.4926994],[0.0166719,51.4907873],[0.0182697,51.4948715],[0.0190587,51.4922962],[0.0244361,51.4927893],[0.0231186,51.4900225],[0.0232886,51.4846903],[0.0315682,51.4868851],[0.0350708,51.4877373],[0.0310898,51.4880304],[0.0295498,51.4939383]]],"type":"Polygon"},"id":"E02006993","properties":{"code":"E02006993","geography":"MSOA","name":"Greenwich 041"},"type":"Feature"},{"geometry":{"coordinates":[[[0.0684251,51.4899856],[0.0690508,51.4929485],[0.0644872,51.4954024],[0.0295498,51.4939383],[0.0310898,51.4880304],[0.0350708,51.4877373],[0.041267,51.488138],[0.0466221,51.4891378],[0.0460754,51.4926405],[0.0531362,51.4928783],[0.0618435,51.4881089],[0.0627347,51.4884619],[0.0684251,51.4899856]]],"type":"Polygon"},"id":"E02006994","properties":{"code":"E02006994","geography":"MSOA","name":"Greenwich 042"},"type":"Feature"}],"type":"FeatureCollection"}
