{"features":[{"geometry":{"coordinates":[[[-0.1526814,51.389809],[-0.165289,51.3879787],[-0.1748675,51.3934177],[-0.1792682,51.389843],[-0.1822398,51.3883062],[-0.1745477,51.3825991],[-0.1767762,51.3787701],[-0.1715876,51.3802009],[-0.1715995,51.3846119],[-0.1645195,51.3834324],[-0.1528988,51.3862882],[-0.1526814,51.389809]]],"type":"Polygon"},"id":"E02000840","properties":{"code":"E02000840","geography":"MSOA","name":"Sutton 001"},"type":"Feature"},{"geometry":{"coordinates":[[[-0.1767762,51.3787701],[-0.1745477,51.3825991],[-0.1822398,51.3883062],[-0.200317,51.3849626],[-0.1970965,51.3807521],[-0.1873695,51.381941],[-0.1826377,51.3768626],[-0.1779604,51.3760113],[-0.1767762,51.3787701]]],"type":"Polygon"},"id":"E02000841","properties":{"code":"E02000841","geography":"MSOA","name":"Sutton 002"},"type":"Feature"},{"geometry":{"coordinates":[[[-0.200317,51.3849626],[-0.208831,51.387848],[-0.2181376,51.3801501],[-0.221391,51.3772436],[-0.2091444,51.3710338],[-0.2042925,51.3748058],[-0.1970965,51.3807521],[-0.200317,51.3849626]]],"type":"Polygon"},"id":"E02000842","properties":{"code":"E02000842","geography":"MSOA","name":"Sutton 003"},"type":"Feature"},{"geometry":{"coordinates":[[[-0.1539707,51.3773257],[-0.1528988,51.3862882],[-0.1645195,51.3834324],[-0.1677071,51.369069],[-0.1597113,51.3714825],[-0.1539707,51.3773257]]],"type":"Polygon"},"id":"E02000843","properties":{"code":"E02000843","geography":"MSOA","name":"Sutton 004"},"type":"Feature"},{"geometry":{"coordinates":[[[-0.1645195,51.3834324],[-0.1715995,51.3846119],[-0.1715876,51.3802009],[-0.1767762,51.3787701],[-0.1779604,51.3760113],[-0.1826377,51.3768626],[-0.1822074,51.3752009],[-0.1719668,51.3711418],[-0.1677071,51.369069],[-0.1645195,51.3834324]]],"type":"Polygon"},"id":"E02000844","properties":{"code":"E02000844","geography":"MSOA","name":"Sutton 005"},"type":"Feature"},{"geometry":{"coordinates":[[[-0.227815,51.3839953],[-0.2346576,51.390539],[-0.2396911,51.3892963],[-0.2450556,51.3800345],[-0.2447056,51.3690626],[-0.2454291,51.3668463],[-0.2387178,51.3669875],[-0.241916,51.3745926],[-0.2347704,51.3800354],[-0.2282871,51.3779176],[-0.227815,51.3839953]]],"type":"Polygon"},"id":"E02000845","properties":{"code":"E02000845","geography":"MSOA","name":"Sutton 006"},"type":"Feature"},{"geometry":{"coordinates":[[[-0.1826377,51.3768626],[-0.1873695,51.381941],[-0.1970965,51.3807521],[-0.2042925,51.3748058],[-0.1955945,51.3696453],[-0.1925191,51.3744162],[-0.1831358,51.3696709],[-0.1822074,51.3752009],[-0.1826377,51.3768626]]],"type":"Polygon"},"id":"E02000846","properties":{"code":"E02000846","geography":"MSOA","name":"Sutton 007"},"type":"Feature"},{"geometry":{"coordinates":[[[-0.2181376,51.3801501],[-0.227815,51.3839953],[-0.2282871,51.3779176],[-0.2347704,51.3800354],[-0.241916,51.3745926],[-0.2387178,51.3669875],[-0.2340092,51.3654008],[-0.2332159,51.3660112],[-0.22844,51.3688762],[-0.221391,51.3772436],[-0.2181376,51.3801501]]],"type":"Polygon"},"id":"E02000847","properties":{"code":"E02000847","geography":"MSOA","name":"Sutton 008"},"type":"Feature"},{"geometry":{"coordinates":[[[-0.2091444,51.3710338],[-0.221391,51.3772436],[-0.22844,51.3688762],[-0.2237389,51.3661135],[-0.2181055,51.3680244],[-0.2208806,51.3657051],[-0.2145383,51.3637985],[-0.2091444,51.3710338]]],"type":"Polygon"},"id":"E02000848","properties":{"code":"E02000848","geography":"MSOA","name":"Sutton 009"},"type":"Feature"},{"geometry":{"coordinates":[[[-0.1412663,51.3634969],[-0.1448405,51.3694921],[-0.1406083,51.3709459],[-0.1539707,51.3773257],[-0.1597113,51.3714825],[-0.1567194,51.3640526],[-0.1412663,51.3634969]]],"type":"Polygon"},"id":"E02000849","properties":{"code":"E02000849","geography":"MSOA","name":"Sutton 010"},"type":"Feature"},{"geometry":{"coordinates":[[[-0.1343792,51.3908858],[-0.1346381,51.3909877],[-0.1526814,51.389809],[-0.1528988,51.3862882],[-0.1539707,51.3773257],[-0.1406083,51.3709459],[-0.1448405,51.3694921],[-0.1412663,51.3634969],[-0.1404904,51.362197],[-0.137522,51.3601632],[-0.1212767,51.3631172],[-0.1234279,51.3705334],[-0.1253294,51.3738423],[-0.1275476,51.378822],[-0.1343792,51.3908858]]],"type":"Polygon"},"id":"E02000850","properties":{"code":"E02000850","geography":"MSOA","name":"Sutton 011"},"type":"Feature"},{"geometry":{"coordinates":[[[-0.1831358,51.3696709],[-0.1925191,51.3744162],[-0.1955945,51.3696453],[-0.2025598,51.3673029],[-0.1974752,51.3676312],[-0.1975862,51.3642704],[-0.193903,51.3592564],[-0.1892547,51.3600978],[-0.1880953,51.3603464],[-0.1839978,51.3611564],[-0.1887458,51.3664087],[-0.1831358,51.3696709]]],"type":"Polygon"},"id":"E02000851","properties":{"code":"E02000851","geography":"MSOA","name":"Sutton 012"},"type":"Feature"},{"geometry":{"coordinates":[[[-0.1719668,51.3711418],[-0.1822074,51.3752009],[-0.1831358,51.3696709],[-0.1887458,51.3664087],[-0.1839978,51.3611564],[-0.1746761,51.3630774],[-0.1761136,51.3682987],[-0.1719668,51.3711418]]],"type":"Polygon"},"id":"E02000852","properties":{"code":"E02000852","geography":"MSOA","name":"Sutton 013"},"type":"Feature"},{"geometry":{"coordinates":[[[-0.1955945,51.3696453],[-0.2042925,51.3748058],[-0.2091444,51.3710338],[-0.2145383,51.3637985],[-0.2137105,51.3605179],[-0.2070326,51.3622015],[-0.2061527,51.359905],[-0.1975862,51.3642704],[-0.1974752,51.3676312],[-0.2025598,51.3673029],[-0.1955945,51.3696453]]],"type":"Polygon"},"id":"E02000853","properties":{"code":"E02000853","geography":"MSOA","name":"Sutton 014"},"type":"Feature"},{"geometry":{"coordinates":[[[-0.1567194,51.3640526],[-0.1597113,51.3714825],[-0.1677071,51.369069],[-0.1719668,51.3711418],[-0.1761136,51.3682987],[-0.1746761,51.3630774],[-0.1839978,51.3611564],[-0.1880953,51.3603464],[-0.1791305,51.3602203],[-0.1703162,51.3572836],[-0.1565248,51.3602899],[-0.1567194,51.3640526]]],"type":"Polygon"},"id":"E02000854","properties":{"code":"E02000854","geography":"MSOA","name":"Sutton 015"},"type":"Feature"},{"geometry":{"coordinates":[[[-0.2145383,51.3637985],[-0.2208806,51.3657051],[-0.2181055,51.3680244],[-0.2237389,51.3661135],[-0.22844,51.3688762],[-0.2332159,51.3660112],[-0.2240827,51.3592752],[-0.2182369,51.3462157],[-0.2146535,51.3512836],[-0.2104552,51.3504926],[-0.2156731,51.3540613],[-0.2069995,51.3562886],[-0.2061527,51.359905],[-0.2070326,51.3622015],[-0.2137105,51.3605179],[-0.2145383,51.3637985]]],"type":"Polygon"},"id":"E02000855","properties":{"code":"E02000855","geography":"MSOA","name":"Sutton 016"},"type":"Feature"},{"geometry":{"coordinates":[[[-0.1412663,51.3634969],[-0.1567194,51.3640526],[-0.1565248,51.3602899],[-0.1479219,51.3570402],[-0.1479242,51.3514748],[-0.1444771,51.3520699],[-0.1446255,51.3466663],[-0.1367808,51.3533889],[-0.1344138,51.3581701],[-0.1406916,51.3564905],[-0.1442861,51.3596073],[-0.1404904,51.362197],[-0.1412663,51.3634969]]],"type":"Polygon"},"id":"E02000856","properties":{"code":"E02000856","geography":"MSOA","name":"Sutton 017"},"type":"Feature"},{"geometry":{"coordinates":[[[-0.1892547,51.3600978],[-0.193903,51.3592564],[-0.1975862,51.3642704],[-0.2061527,51.359905],[-0.2069995,51.3562886],[-0.1975794,51.3521254],[-0.1873943,51.3548298],[-0.1913589,51.3573305],[-0.1892547,51.3600978]]],"type":"Polygon"},"id":"E02000857","properties":{"code":"E02000857","geography":"MSOA","name":"Sutton 018"},"type":"Feature"},{"geometry":{"coordinates":[[[-0.1183743,51.3506079],[-0.1247149,51.3588337],[-0.1212767,51.3631172],[-0.137522,51.3601632],[-0.1404904,51.362197],[-0.1442861,51.3596073],[-0.1406916,51.3564905],[-0.1344138,51.3581701],[-0.1367808,51.3533889],[-0.1341175,51.3497091],[-0.1183743,51.3506079]]],"type":"Polygon"},"id":"E02000858","properties":{"code":"E02000858","geography":"MSOA","name":"Sutton 019"},"type":"Feature"},{"geometry":{"coordinates":[[[-0.1444771,51.3520699],[-0.1479242,51.3514748],[-0.1479219,51.3570402],[-0.1565248,51.3602899],[-0.1703162,51.3572836],[-0.1666114,51.3506065],[-0.1590894,51.352232],[-0.1601844,51.3474105],[-0.1490735,51.3461918],[-0.1444771,51.3520699]]],"type":"Polygon"},"id":"E02000859","properties":{"code":"E02000859","geography":"MSOA","name":"Sutton 020"},"type":"Feature"},{"geometry":{"coordinates":[[[-0.1918128,51.3442362],[-0.1931217,51.3503613],[-0.1807529,51.3555673],[-0.1791305,51.3602203],[-0.1880953,51.3603464],[-0.1892547,51.3600978],[-0.1913589,51.3573305],[-0.1873943,51.3548298],[-0.1975794,51.3521254],[-0.1987979,51.34429],[-0.1918128,51.3442362]]],"type":"Polygon"},"id":"E02000860","properties":{"code":"E02000860","geography":"MSOA","name":"Sutton 021"},"type":"Feature"},{"geometry":{"coordinates":[[[-0.1703162,51.3572836],[-0.1791305,51.3602203],[-0.1807529,51.3555673],[-0.1931217,51.3503613],[-0.1918128,51.3442362],[-0.1916318,51.3421105],[-0.1846338,51.3391942],[-0.1671853,51.3458089],[-0.1666114,51.3506065],[-0.1703162,51.3572836]]],"type":"Polygon"},"id":"E02000861","properties":{"code":"E02000861","geography":"MSOA","name":"Sutton 022"},"type":"Feature"},{"geometry":{"coordinates":[[[-0.1183743,51.3506079],[-0.1341175,51.3497091],[-0.1367808,51.3533889],[-0.1446255,51.3466663],[-0.1444771,51.3520699],[-0.1490735,51.3461918],[-0.1601844,51.3474105],[-0.1590894,51.352232],[-0.1666114,51.3506065],[-0.1671853,51.3458089],[-0.1846338,51.3391942],[-0.1824073,51.3380487],[-0.1730021,51.3300253],[-0.1631402,51.3302433],[-0.1641984,51.3260085],[-0.1565692,51.3215099],[-0.1473648,51.3228084],[-0.1446095,51.3420016],[-0.1283344,51.3474339],[-0.1251949,51.3452736],[-0.117313,51.3456793],[-0.1183743,51.3506079]]],"type":"Polygon"},"id":"E02000863","properties":{"code":"E02000863","geography":"MSOA","name":"Sutton 024"},"type":"Feature"},{"geometry":{"coordinates":[[[-0.1975794,51.3521254],[-0.2069995,51.3562886],[-0.2156731,51.3540613],[-0.2104552,51.3504926],[-0.2146535,51.3512836],[-0.2182369,51.3462157],[-0.2172897,51.3433881],[-0.2298065,51.3365448],[-0.2209661,51.3298641],[-0.2141202,51.3303517],[-0.2130571,51.3355427],[-0.2021083,51.3401337],[-0.197398,51.3435945],[-0.1916318,51.3421105],[-0.1918128,51.3442362],[-0.1987979,51.34429],[-0.1975794,51.3521254]]],"type":"Polygon"},"id":"E02006836","properties":{"code":"E02006836","geography":"MSOA","name":"Sutton 025"},"type":"Feature"}],"type":"FeatureCollection"}
