{"features":[{"geometry":{"coordinates":[[[0.1519846,51.5061561],[0.1512677,51.5062819],[0.1285926,51.5132937],[0.1202109,51.5114447],[0.1191122,51.5113498],[0.1207618,51.5068323],[0.1209161,51.5018441],[0.1309586,51.5040169],[0.130548,51.499739],[0.1251273,51.4991989],[0.1290919,51.4939211],[0.1325803,51.4958596],[0.1497831,51.4942198],[0.1531267,51.4958903],[0.1488081,51.498436],[0.1519846,51.5061561]]],"type":"Polygon"},"id":"E02000065","properties":{"code":"E02000065","geography":"MSOA","name":"Bexley 001"},"type":"Feature"},{"geometry":{"coordinates":[[[0.1497831,51.4942198],[0.1325803,51.4958596],[0.1290919,51.4939211],[0.1251273,51.4991989],[0.130548,51.499739],[0.1309586,51.5040169],[0.1209161,51.5018441],[0.1209814,51.5007716],[0.1213117,51.4908374],[0.132636,51.485007],[0.1369679,51.4874381],[0.1387757,51.4917234],[0.1492149,51.4920929],[0.1497831,51.4942198]]],"type":"Polygon"},"id":"E02000066","properties":{"code":"E02000066","geography":"MSOA","name":"Bexley 002"},"type":"Feature"},{"geometry":{"coordinates":[[[0.1640785,51.5040336],[0.1519846,51.5061561],[0.1488081,51.498436],[0.1531267,51.4958903],[0.1497831,51.4942198],[0.1492149,51.4920929],[0.1387757,51.4917234],[0.1369679,51.4874381],[0.1428738,51.4790051],[0.1523302,51.4809189],[0.1461443,51.4852728],[0.1496566,51.4885856],[0.1569557,51.48909],[0.1640785,51.5040336]]],"type":"Polygon"},"id":"E02000067","properties":{"code":"E02000067","geography":"MSOA","name":"Bexley 003"},"type":"Feature"},{"geometry":{"coordinates":[[[0.1867864,51.4804297],[0.1865101,51.4804646],[0.1751704,51.4852553],[0.1721191,51.4946175],[0.1720731,51.4947589],[0.1693516,51.4988612],[0.1661622,51.5036678],[0.1640785,51.5040336],[0.1569557,51.48909],[0.1673589,51.4861283],[0.1654467,51.4841489],[0.1755217,51.4770545],[0.1761528,51.4752021],[0.1861503,51.4788249],[0.1867864,51.4804297]]],"type":"Polygon"},"id":"E02000068","properties":{"code":"E02000068","geography":"MSOA","name":"Bexley 004"},"type":"Feature"},{"geometry":{"coordinates":[[[0.1755217,51.4770545],[0.1654467,51.4841489],[0.1673589,51.4861283],[0.1569557,51.48909],[0.1496566,51.4885856],[0.1461443,51.4852728],[0.1523302,51.4809189],[0.1540626,51.4795839],[0.1658859,51.4766645],[0.1755217,51.4770545]]],"type":"Polygon"},"id":"E02000069","properties":{"code":"E02000069","geography":"MSOA","name":"Bexley 005"},"type":"Feature"},{"geometry":{"coordinates":[[[0.1369679,51.4874381],[0.132636,51.485007],[0.1213117,51.4908374],[0.1213343,51.4897849],[0.1241589,51.4768232],[0.125941,51.4745913],[0.1324521,51.4796999],[0.1399696,51.4764043],[0.1446105,51.4771445],[0.1445841,51.4734121],[0.1540626,51.4795839],[0.1523302,51.4809189],[0.1428738,51.4790051],[0.1369679,51.4874381]]],"type":"Polygon"},"id":"E02000070","properties":{"code":"E02000070","geography":"MSOA","name":"Bexley 006"},"type":"Feature"},{"geometry":{"coordinates":[[[0.1658859,51.4766645],[0.1540626,51.4795839],[0.1445841,51.4734121],[0.1443868,51.4702691],[0.157353,51.470097],[0.1674092,51.4714871],[0.1658859,51.4766645]]],"type":"Polygon"},"id":"E02000071","properties":{"code":"E02000071","geography":"MSOA","name":"Bexley 007"},"type":"Feature"},{"geometry":{"coordinates":[[[0.2197355,51.479307],[0.2191741,51.4796093],[0.2176159,51.4804483],[0.2116555,51.4827282],[0.2008171,51.4786569],[0.1867864,51.4804297],[0.1861503,51.4788249],[0.1761528,51.4752021],[0.1759445,51.4728498],[0.1811188,51.4737922],[0.1801907,51.4661509],[0.1854758,51.4666289],[0.1873208,51.4640945],[0.1938756,51.4632958],[0.1986657,51.458384],[0.198925,51.4581029],[0.2025821,51.456233],[0.2105853,51.4624809],[0.2088424,51.471107],[0.2197355,51.479307]]],"type":"Polygon"},"id":"E02000072","properties":{"code":"E02000072","geography":"MSOA","name":"Bexley 008"},"type":"Feature"},{"geometry":{"coordinates":[[[0.1399696,51.4764043],[0.1324521,51.4796999],[0.125941,51.4745913],[0.1241589,51.4768232],[0.1184902,51.4788966],[0.115556,51.476137],[0.1117717,51.473194],[0.1117045,51.4727056],[0.1220746,51.4727691],[0.1237748,51.4639006],[0.1240697,51.4638932],[0.1360294,51.4635326],[0.1348236,51.4702057],[0.1306748,51.4694886],[0.1297773,51.4723371],[0.1359962,51.4718969],[0.1399696,51.4764043]]],"type":"Polygon"},"id":"E02000073","properties":{"code":"E02000073","geography":"MSOA","name":"Bexley 009"},"type":"Feature"},{"geometry":{"coordinates":[[[0.1761528,51.4752021],[0.1755217,51.4770545],[0.1658859,51.4766645],[0.1674092,51.4714871],[0.1731717,51.4712962],[0.1736464,51.4653734],[0.1819698,51.4641901],[0.1778123,51.4600653],[0.1774079,51.459693],[0.18272,51.4597888],[0.1838985,51.4626253],[0.1872591,51.4583584],[0.1873208,51.4640945],[0.1854758,51.4666289],[0.1801907,51.4661509],[0.1811188,51.4737922],[0.1759445,51.4728498],[0.1761528,51.4752021]]],"type":"Polygon"},"id":"E02000074","properties":{"code":"E02000074","geography":"MSOA","name":"Bexley 010"},"type":"Feature"},{"geometry":{"coordinates":[[[0.1445841,51.4734121],[0.1446105,51.4771445],[0.1399696,51.4764043],[0.1359962,51.4718969],[0.1297773,51.4723371],[0.1306748,51.4694886],[0.1348236,51.4702057],[0.1360294,51.4635326],[0.1475228,51.4645938],[0.1563892,51.465064],[0.157353,51.470097],[0.1443868,51.4702691],[0.1445841,51.4734121]]],"type":"Polygon"},"id":"E02000075","properties":{"code":"E02000075","geography":"MSOA","name":"Bexley 011"},"type":"Feature"},{"geometry":{"coordinates":[[[0.1237748,51.4639006],[0.1220746,51.4727691],[0.1117045,51.4727056],[0.1100322,51.468959],[0.1011071,51.4684134],[0.1031414,51.4649243],[0.1155901,51.4640828],[0.1237748,51.4639006]]],"type":"Polygon"},"id":"E02000077","properties":{"code":"E02000077","geography":"MSOA","name":"Bexley 013"},"type":"Feature"},{"geometry":{"coordinates":[[[0.1778123,51.4600653],[0.1819698,51.4641901],[0.1736464,51.4653734],[0.1731717,51.4712962],[0.1674092,51.4714871],[0.157353,51.470097],[0.1563892,51.465064],[0.1640611,51.4588462],[0.1724442,51.4621182],[0.1778123,51.4600653]]],"type":"Polygon"},"id":"E02000078","properties":{"code":"E02000078","geography":"MSOA","name":"Bexley 014"},"type":"Feature"},{"geometry":{"coordinates":[[[0.1519015,51.4523745],[0.1475228,51.4645938],[0.1360294,51.4635326],[0.1240697,51.4638932],[0.130118,51.4593253],[0.1278289,51.4576992],[0.1393184,51.4543735],[0.1371992,51.4514617],[0.142761,51.4516407],[0.1519015,51.4523745]]],"type":"Polygon"},"id":"E02000079","properties":{"code":"E02000079","geography":"MSOA","name":"Bexley 015"},"type":"Feature"},{"geometry":{"coordinates":[[[0.1155901,51.4640828],[0.1031414,51.4649243],[0.0943144,51.462642],[0.0905725,51.4613572],[0.0979981,51.4572703],[0.0941775,51.4544629],[0.1037106,51.4527589],[0.106534,51.4565109],[0.113498,51.4551959],[0.1190026,51.4608732],[0.1155901,51.4640828]]],"type":"Polygon"},"id":"E02000080","properties":{"code":"E02000080","geography":"MSOA","name":"Bexley 016"},"type":"Feature"},{"geometry":{"coordinates":[[[0.1778123,51.4600653],[0.1724442,51.4621182],[0.1640611,51.4588462],[0.1563892,51.465064],[0.1475228,51.4645938],[0.1519015,51.4523745],[0.1625555,51.4442694],[0.1618343,51.4491279],[0.1687954,51.451128],[0.1663798,51.4538823],[0.1774079,51.459693],[0.1778123,51.4600653]]],"type":"Polygon"},"id":"E02000081","properties":{"code":"E02000081","geography":"MSOA","name":"Bexley 017"},"type":"Feature"},{"geometry":{"coordinates":[[[0.0943144,51.462642],[0.0865233,51.4659039],[0.0890064,51.4703726],[0.0822458,51.4666065],[0.0822656,51.4616063],[0.078825,51.4591236],[0.0856999,51.4564555],[0.0867944,51.4510602],[0.0869712,51.4500967],[0.0895072,51.4484673],[0.0966176,51.4527304],[0.1030682,51.4505824],[0.1037106,51.4527589],[0.0941775,51.4544629],[0.0979981,51.4572703],[0.0905725,51.4613572],[0.0943144,51.462642]]],"type":"Polygon"},"id":"E02000082","properties":{"code":"E02000082","geography":"MSOA","name":"Bexley 018"},"type":"Feature"},{"geometry":{"coordinates":[[[0.2025821,51.456233],[0.198925,51.4581029],[0.1986657,51.458384],[0.1938756,51.4632958],[0.1873208,51.4640945],[0.1872591,51.4583584],[0.1838985,51.4626253],[0.18272,51.4597888],[0.1774079,51.459693],[0.1663798,51.4538823],[0.1687954,51.451128],[0.1618343,51.4491279],[0.1625555,51.4442694],[0.1708768,51.4412068],[0.1990673,51.45238],[0.2025821,51.456233]]],"type":"Polygon"},"id":"E02000083","properties":{"code":"E02000083","geography":"MSOA","name":"Bexley 019"},"type":"Feature"},{"geometry":{"coordinates":[[[0.1237748,51.4639006],[0.1155901,51.4640828],[0.1190026,51.4608732],[0.113498,51.4551959],[0.1224534,51.4513032],[0.1194928,51.4493909],[0.1241766,51.4449218],[0.1201402,51.4421887],[0.1310974,51.4433756],[0.1428074,51.4473777],[0.142761,51.4516407],[0.1371992,51.4514617],[0.1393184,51.4543735],[0.1278289,51.4576992],[0.130118,51.4593253],[0.1240697,51.4638932],[0.1237748,51.4639006]]],"type":"Polygon"},"id":"E02000084","properties":{"code":"E02000084","geography":"MSOA","name":"Bexley 020"},"type":"Feature"},{"geometry":{"coordinates":[[[0.113498,51.4551959],[0.106534,51.4565109],[0.1037106,51.4527589],[0.1030682,51.4505824],[0.0993242,51.4439214],[0.1085955,51.4419705],[0.1165403,51.4471159],[0.1241766,51.4449218],[0.1194928,51.4493909],[0.1224534,51.4513032],[0.113498,51.4551959]]],"type":"Polygon"},"id":"E02000085","properties":{"code":"E02000085","geography":"MSOA","name":"Bexley 021"},"type":"Feature"},{"geometry":{"coordinates":[[[0.1030682,51.4505824],[0.0966176,51.4527304],[0.0895072,51.4484673],[0.0869712,51.4500967],[0.0863587,51.4450861],[0.0912779,51.4445113],[0.0915137,51.4393305],[0.097222,51.4376489],[0.1054959,51.4390477],[0.1075464,51.4371398],[0.1123532,51.4411322],[0.1085955,51.4419705],[0.0993242,51.4439214],[0.1030682,51.4505824]]],"type":"Polygon"},"id":"E02000086","properties":{"code":"E02000086","geography":"MSOA","name":"Bexley 022"},"type":"Feature"},{"geometry":{"coordinates":[[[0.1625555,51.4442694],[0.1519015,51.4523745],[0.142761,51.4516407],[0.1428074,51.4473777],[0.1310974,51.4433756],[0.130573,51.4404812],[0.1366825,51.4407892],[0.1355717,51.4377722],[0.1398149,51.4388209],[0.1416427,51.434363],[0.1530217,51.4361852],[0.1558485,51.4308768],[0.1643008,51.4285847],[0.1708768,51.4412068],[0.1625555,51.4442694]]],"type":"Polygon"},"id":"E02000087","properties":{"code":"E02000087","geography":"MSOA","name":"Bexley 023"},"type":"Feature"},{"geometry":{"coordinates":[[[0.1241766,51.4449218],[0.1165403,51.4471159],[0.1085955,51.4419705],[0.1123532,51.4411322],[0.1075464,51.4371398],[0.1057918,51.4328861],[0.1322939,51.4357036],[0.1367204,51.4326723],[0.1416427,51.434363],[0.1398149,51.4388209],[0.1355717,51.4377722],[0.1366825,51.4407892],[0.130573,51.4404812],[0.1310974,51.4433756],[0.1201402,51.4421887],[0.1241766,51.4449218]]],"type":"Polygon"},"id":"E02000088","properties":{"code":"E02000088","geography":"MSOA","name":"Bexley 024"},"type":"Feature"},{"geometry":{"coordinates":[[[0.097222,51.4376489],[0.0915137,51.4393305],[0.0912779,51.4445113],[0.0863587,51.4450861],[0.0758881,51.4344591],[0.0753196,51.4320303],[0.0826975,51.4301938],[0.0940698,51.4328597],[0.097222,51.4376489]]],"type":"Polygon"},"id":"E02000089","properties":{"code":"E02000089","geography":"MSOA","name":"Bexley 025"},"type":"Feature"},{"geometry":{"coordinates":[[[0.1075464,51.4371398],[0.1054959,51.4390477],[0.097222,51.4376489],[0.0940698,51.4328597],[0.0826975,51.4301938],[0.0892258,51.4239474],[0.092381,51.4218361],[0.0977841,51.4272683],[0.1039559,51.4224648],[0.1042024,51.4274655],[0.1087868,51.4292112],[0.1057918,51.4328861],[0.1075464,51.4371398]]],"type":"Polygon"},"id":"E02000090","properties":{"code":"E02000090","geography":"MSOA","name":"Bexley 026"},"type":"Feature"},{"geometry":{"coordinates":[[[0.1088795,51.4138096],[0.1116332,51.4177729],[0.1162567,51.4175362],[0.1148844,51.4244682],[0.1225656,51.4223197],[0.1197958,51.4272195],[0.1322939,51.4357036],[0.1057918,51.4328861],[0.1087868,51.4292112],[0.1042024,51.4274655],[0.1039559,51.4224648],[0.0977841,51.4272683],[0.092381,51.4218361],[0.1045105,51.4152526],[0.1088795,51.4138096]]],"type":"Polygon"},"id":"E02000091","properties":{"code":"E02000091","geography":"MSOA","name":"Bexley 027"},"type":"Feature"},{"geometry":{"coordinates":[[[0.1558485,51.4308768],[0.1530217,51.4361852],[0.1416427,51.434363],[0.1367204,51.4326723],[0.1322939,51.4357036],[0.1197958,51.4272195],[0.1225656,51.4223197],[0.1148844,51.4244682],[0.1162567,51.4175362],[0.1116332,51.4177729],[0.1088795,51.4138096],[0.1188551,51.4132753],[0.129559,51.4148983],[0.1488028,51.4085099],[0.1529062,51.408709],[0.1537445,51.411266],[0.1491329,51.4124359],[0.1546067,51.4184798],[0.1511325,51.4204306],[0.1558485,51.4308768]]],"type":"Polygon"},"id":"E02000092","properties":{"code":"E02000092","geography":"MSOA","name":"Bexley 028"},"type":"Feature"},{"geometry":{"coordinates":[[[0.1117717,51.473194],[0.1082256,51.4761264],[0.0982771,51.4754488],[0.0890064,51.4703726],[0.0865233,51.4659039],[0.0943144,51.462642],[0.1031414,51.4649243],[0.1011071,51.4684134],[0.1100322,51.468959],[0.1117045,51.4727056],[0.1117717,51.473194]]],"type":"Polygon"},"id":"E02006785","properties":{"code":"E02006785","geography":"MSOA","name":"Bexley 029"},"type":"Feature"}],"type":"FeatureCollection"}
