{"features":[{"geometry":{"coordinates":[[[-0.1152198,51.571029],[-0.1195861,51.5755317],[-0.124502,51.5743756],[-0.1272181,51.5741252],[-0.1291602,51.5697657],[-0.1231603,51.5682635],[-0.1263623,51.5660869],[-0.1191055,51.5639094],[-0.121492,51.5673209],[-0.1152198,51.571029]]],"type":"Polygon"},"id":"E02000554","properties":{"code":"E02000554","geography":"MSOA","name":"Islington 001"},"type":"Feature"},{"geometry":{"coordinates":[[[-0.1263623,51.5660869],[-0.1231603,51.5682635],[-0.1291602,51.5697657],[-0.1272181,51.5741252],[-0.1333972,51.5728839],[-0.1383441,51.5706007],[-0.1331181,51.5635649],[-0.1273908,51.5652929],[-0.1263623,51.5660869]]],"type":"Polygon"},"id":"E02000555","properties":{"code":"E02000555","geography":"MSOA","name":"Islington 002"},"type":"Feature"},{"geometry":{"coordinates":[[[-0.1150901,51.5706368],[-0.1152198,51.571029],[-0.121492,51.5673209],[-0.1191055,51.5639094],[-0.1263623,51.5660869],[-0.1273908,51.5652929],[-0.1257833,51.5622311],[-0.1240561,51.5610332],[-0.1185381,51.5632525],[-0.1063863,51.5656597],[-0.1150901,51.5706368]]],"type":"Polygon"},"id":"E02000556","properties":{"code":"E02000556","geography":"MSOA","name":"Islington 003"},"type":"Feature"},{"geometry":{"coordinates":[[[-0.1273908,51.5652929],[-0.1331181,51.5635649],[-0.1383441,51.5706007],[-0.1424151,51.5691202],[-0.1408479,51.5618138],[-0.1383955,51.5568596],[-0.1343617,51.5572333],[-0.1358495,51.5622429],[-0.1257833,51.5622311],[-0.1273908,51.5652929]]],"type":"Polygon"},"id":"E02000557","properties":{"code":"E02000557","geography":"MSOA","name":"Islington 004"},"type":"Feature"},{"geometry":{"coordinates":[[[-0.1062048,51.5655384],[-0.1063863,51.5656597],[-0.1185381,51.5632525],[-0.1095995,51.560428],[-0.1143121,51.5572561],[-0.1119537,51.5542526],[-0.1088838,51.5577246],[-0.1045085,51.5647103],[-0.1062048,51.5655384]]],"type":"Polygon"},"id":"E02000558","properties":{"code":"E02000558","geography":"MSOA","name":"Islington 005"},"type":"Feature"},{"geometry":{"coordinates":[[[-0.0932639,51.5604842],[-0.1045085,51.5647103],[-0.1088838,51.5577246],[-0.1055104,51.5550042],[-0.1038888,51.5551013],[-0.0953605,51.5557174],[-0.0981392,51.5580147],[-0.0932639,51.5604842]]],"type":"Polygon"},"id":"E02000559","properties":{"code":"E02000559","geography":"MSOA","name":"Islington 006"},"type":"Feature"},{"geometry":{"coordinates":[[[-0.1143121,51.5572561],[-0.1095995,51.560428],[-0.1185381,51.5632525],[-0.1240561,51.5610332],[-0.1219988,51.559489],[-0.1221031,51.5530213],[-0.1143121,51.5572561]]],"type":"Polygon"},"id":"E02000560","properties":{"code":"E02000560","geography":"MSOA","name":"Islington 007"},"type":"Feature"},{"geometry":{"coordinates":[[[-0.1240561,51.5610332],[-0.1257833,51.5622311],[-0.1358495,51.5622429],[-0.1343617,51.5572333],[-0.1383955,51.5568596],[-0.136274,51.5549654],[-0.1360557,51.5549003],[-0.1244623,51.5551006],[-0.1219988,51.559489],[-0.1240561,51.5610332]]],"type":"Polygon"},"id":"E02000561","properties":{"code":"E02000561","geography":"MSOA","name":"Islington 008"},"type":"Feature"},{"geometry":{"coordinates":[[[-0.0917038,51.560222],[-0.0932639,51.5604842],[-0.0981392,51.5580147],[-0.0953605,51.5557174],[-0.1038888,51.5551013],[-0.0981576,51.5542052],[-0.1023788,51.5503436],[-0.0984654,51.5472952],[-0.0946576,51.549849],[-0.0903948,51.5544235],[-0.0904211,51.5576714],[-0.0917038,51.560222]]],"type":"Polygon"},"id":"E02000562","properties":{"code":"E02000562","geography":"MSOA","name":"Islington 009"},"type":"Feature"},{"geometry":{"coordinates":[[[-0.1221031,51.5530213],[-0.1219988,51.559489],[-0.1244623,51.5551006],[-0.1360557,51.5549003],[-0.1290506,51.5489139],[-0.122193,51.5495913],[-0.1221031,51.5530213]]],"type":"Polygon"},"id":"E02000563","properties":{"code":"E02000563","geography":"MSOA","name":"Islington 010"},"type":"Feature"},{"geometry":{"coordinates":[[[-0.1055104,51.5550042],[-0.1088838,51.5577246],[-0.1119537,51.5542526],[-0.1143121,51.5572561],[-0.1221031,51.5530213],[-0.122193,51.5495913],[-0.1162385,51.5510798],[-0.1130655,51.5467869],[-0.1055104,51.5550042]]],"type":"Polygon"},"id":"E02000564","properties":{"code":"E02000564","geography":"MSOA","name":"Islington 011"},"type":"Feature"},{"geometry":{"coordinates":[[[-0.0851443,51.5521085],[-0.0903948,51.5544235],[-0.0946576,51.549849],[-0.0868491,51.5514213],[-0.0827717,51.5465505],[-0.0768396,51.5460798],[-0.0775122,51.5491771],[-0.0851443,51.5521085]]],"type":"Polygon"},"id":"E02000565","properties":{"code":"E02000565","geography":"MSOA","name":"Islington 012"},"type":"Feature"},{"geometry":{"coordinates":[[[-0.0984654,51.5472952],[-0.1023788,51.5503436],[-0.0981576,51.5542052],[-0.1038888,51.5551013],[-0.1055104,51.5550042],[-0.1130655,51.5467869],[-0.110869,51.5444882],[-0.1077636,51.5450219],[-0.1039008,51.5438732],[-0.098579,51.5467923],[-0.0984654,51.5472952]]],"type":"Polygon"},"id":"E02000566","properties":{"code":"E02000566","geography":"MSOA","name":"Islington 013"},"type":"Feature"},{"geometry":{"coordinates":[[[-0.0827717,51.5465505],[-0.0868491,51.5514213],[-0.0946576,51.549849],[-0.0984654,51.5472952],[-0.098579,51.5467923],[-0.0892038,51.5468991],[-0.0900608,51.5425115],[-0.0865783,51.5374027],[-0.0853715,51.540684],[-0.0837752,51.5461788],[-0.0827717,51.5465505]]],"type":"Polygon"},"id":"E02000567","properties":{"code":"E02000567","geography":"MSOA","name":"Islington 014"},"type":"Feature"},{"geometry":{"coordinates":[[[-0.1130655,51.5467869],[-0.1162385,51.5510798],[-0.122193,51.5495913],[-0.1290506,51.5489139],[-0.1250873,51.541127],[-0.1233459,51.5388524],[-0.1167171,51.5416511],[-0.110869,51.5444882],[-0.1130655,51.5467869]]],"type":"Polygon"},"id":"E02000568","properties":{"code":"E02000568","geography":"MSOA","name":"Islington 015"},"type":"Feature"},{"geometry":{"coordinates":[[[-0.0900608,51.5425115],[-0.0892038,51.5468991],[-0.098579,51.5467923],[-0.1039008,51.5438732],[-0.1077636,51.5450219],[-0.1009057,51.5391111],[-0.1000105,51.5377678],[-0.0900608,51.5425115]]],"type":"Polygon"},"id":"E02000569","properties":{"code":"E02000569","geography":"MSOA","name":"Islington 016"},"type":"Feature"},{"geometry":{"coordinates":[[[-0.1009057,51.5391111],[-0.1077636,51.5450219],[-0.110869,51.5444882],[-0.1167171,51.5416511],[-0.1111113,51.5359166],[-0.1081242,51.5390793],[-0.1009057,51.5391111]]],"type":"Polygon"},"id":"E02000570","properties":{"code":"E02000570","geography":"MSOA","name":"Islington 017"},"type":"Feature"},{"geometry":{"coordinates":[[[-0.0865783,51.5374027],[-0.0900608,51.5425115],[-0.1000105,51.5377678],[-0.0970335,51.5329812],[-0.0897042,51.5360006],[-0.0865783,51.5374027]]],"type":"Polygon"},"id":"E02000571","properties":{"code":"E02000571","geography":"MSOA","name":"Islington 018"},"type":"Feature"},{"geometry":{"coordinates":[[[-0.1111113,51.5359166],[-0.1167171,51.5416511],[-0.1233459,51.5388524],[-0.1223387,51.5355185],[-0.1170025,51.5311333],[-0.1114204,51.5326304],[-0.1165728,51.5335175],[-0.1147379,51.5353905],[-0.1089919,51.5343247],[-0.1111113,51.5359166]]],"type":"Polygon"},"id":"E02000572","properties":{"code":"E02000572","geography":"MSOA","name":"Islington 019"},"type":"Feature"},{"geometry":{"coordinates":[[[-0.1000105,51.5377678],[-0.1009057,51.5391111],[-0.1081242,51.5390793],[-0.1111113,51.5359166],[-0.1089919,51.5343247],[-0.1063007,51.531899],[-0.0975406,51.5297443],[-0.0954072,51.5291935],[-0.0970335,51.5329812],[-0.1000105,51.5377678]]],"type":"Polygon"},"id":"E02000573","properties":{"code":"E02000573","geography":"MSOA","name":"Islington 020"},"type":"Feature"},{"geometry":{"coordinates":[[[-0.1089919,51.5343247],[-0.1147379,51.5353905],[-0.1165728,51.5335175],[-0.1114204,51.5326304],[-0.1170025,51.5311333],[-0.1223387,51.5355185],[-0.1225561,51.5307259],[-0.1132846,51.5264821],[-0.1037758,51.5288831],[-0.1063007,51.531899],[-0.1089919,51.5343247]]],"type":"Polygon"},"id":"E02000574","properties":{"code":"E02000574","geography":"MSOA","name":"Islington 021"},"type":"Feature"},{"geometry":{"coordinates":[[[-0.0975406,51.5297443],[-0.1063007,51.531899],[-0.1037758,51.5288831],[-0.1132846,51.5264821],[-0.1142066,51.5254585],[-0.105346,51.5185433],[-0.0967858,51.5232496],[-0.0963694,51.5256786],[-0.103521,51.5258688],[-0.0975406,51.5297443]]],"type":"Polygon"},"id":"E02000575","properties":{"code":"E02000575","geography":"MSOA","name":"Islington 022"},"type":"Feature"},{"geometry":{"coordinates":[[[-0.0954072,51.5291935],[-0.0975406,51.5297443],[-0.103521,51.5258688],[-0.0963694,51.5256786],[-0.0967858,51.5232496],[-0.0852184,51.5203339],[-0.0850209,51.5262031],[-0.090665,51.5279869],[-0.0954072,51.5291935]]],"type":"Polygon"},"id":"E02000576","properties":{"code":"E02000576","geography":"MSOA","name":"Islington 023"},"type":"Feature"}],"type":"FeatureCollection"}
