{"features":[{"geometry":{"coordinates":[[[-0.223666,51.4722314],[-0.2280346,51.4851093],[-0.2355286,51.4889497],[-0.2485439,51.483734],[-0.2514261,51.4739011],[-0.2329483,51.4716819],[-0.223666,51.4722314]]],"type":"Polygon"},"id":"E02000784","properties":{"code":"E02000784","geography":"MSOA","name":"Richmond upon Thames 001"},"type":"Feature"},{"geometry":{"coordinates":[[[[-0.308395,51.4757016],[-0.306981,51.4762536],[-0.3047662,51.4787479],[-0.3141676,51.4734369],[-0.308395,51.4757016]]],[[[-0.2934243,51.4864295],[-0.2956847,51.4862089],[-0.2960678,51.4858715],[-0.2934243,51.4864295]]],[[[-0.2881755,51.4677815],[-0.2898691,51.4718285],[-0.2797935,51.4748945],[-0.279534,51.4828684],[-0.2872945,51.4865212],[-0.2954088,51.4847591],[-0.3098546,51.4737478],[-0.3101431,51.4735278],[-0.3192678,51.4683616],[-0.3138773,51.4607458],[-0.3136906,51.4606553],[-0.3135523,51.4605883],[-0.3010948,51.4641825],[-0.2996413,51.4634502],[-0.2946711,51.4678458],[-0.2919518,51.4659908],[-0.2881755,51.4677815]]]],"type":"MultiPolygon"},"id":"E02000785","properties":{"code":"E02000785","geography":"MSOA","name":"Richmond upon Thames 002"},"type":"Feature"},{"geometry":{"coordinates":[[[[-0.2550939,51.4729121],[-0.2550829,51.4729383],[-0.2558096,51.4726169],[-0.255764,51.4726136],[-0.2552348,51.4725761],[-0.2550939,51.4729121]]],[[[-0.2329483,51.4716819],[-0.2514261,51.4739011],[-0.2515039,51.4736357],[-0.2602381,51.4703143],[-0.2705551,51.4726711],[-0.2705772,51.472699],[-0.276144,51.4692715],[-0.2709197,51.4676952],[-0.2529157,51.4652163],[-0.2439761,51.4652294],[-0.2334897,51.4653056],[-0.2329483,51.4716819]]]],"type":"MultiPolygon"},"id":"E02000786","properties":{"code":"E02000786","geography":"MSOA","name":"Richmond upon Thames 003"},"type":"Feature"},{"geometry":{"coordinates":[[[-0.2705772,51.472699],[-0.2734879,51.4763675],[-0.2781181,51.4822018],[-0.279534,51.4828684],[-0.2797935,51.4748945],[-0.2898691,51.4718285],[-0.2881755,51.4677815],[-0.2919518,51.4659908],[-0.2946711,51.4678458],[-0.2996413,51.4634502],[-0.2824418,51.4632974],[-0.2798737,51.4669597],[-0.2709197,51.4676952],[-0.276144,51.4692715],[-0.2705772,51.472699]]],"type":"Polygon"},"id":"E02000787","properties":{"code":"E02000787","geography":"MSOA","name":"Richmond upon Thames 004"},"type":"Feature"},{"geometry":{"coordinates":[[[-0.2529157,51.4652163],[-0.2709197,51.4676952],[-0.2798737,51.4669597],[-0.2824418,51.4632974],[-0.2781676,51.4642791],[-0.2780754,51.461201],[-0.2658253,51.463888],[-0.2584305,51.4569789],[-0.2529157,51.4652163]]],"type":"Polygon"},"id":"E02000788","properties":{"code":"E02000788","geography":"MSOA","name":"Richmond upon Thames 005"},"type":"Feature"},{"geometry":{"coordinates":[[[-0.2780754,51.461201],[-0.2781676,51.4642791],[-0.2824418,51.4632974],[-0.2996413,51.4634502],[-0.3010948,51.4641825],[-0.3014886,51.4597644],[-0.2923389,51.4573546],[-0.2961137,51.45013],[-0.2854867,51.4487937],[-0.277828,51.4522183],[-0.2780754,51.461201]]],"type":"Polygon"},"id":"E02000789","properties":{"code":"E02000789","geography":"MSOA","name":"Richmond upon Thames 006"},"type":"Feature"},{"geometry":{"coordinates":[[[-0.3139533,51.459752],[-0.3214062,51.4651674],[-0.3254061,51.4636254],[-0.3269106,51.457042],[-0.3235353,51.4531491],[-0.3169677,51.4536957],[-0.3187825,51.4562432],[-0.3139533,51.459752]]],"type":"Polygon"},"id":"E02000790","properties":{"code":"E02000790","geography":"MSOA","name":"Richmond upon Thames 007"},"type":"Feature"},{"geometry":{"coordinates":[[[-0.2961137,51.45013],[-0.2923389,51.4573546],[-0.3014886,51.4597644],[-0.3010948,51.4641825],[-0.3135523,51.4605883],[-0.3050447,51.4564631],[-0.3049046,51.4562299],[-0.3025706,51.4523448],[-0.3032865,51.4515146],[-0.2947004,51.4470522],[-0.2961137,51.45013]]],"type":"Polygon"},"id":"E02000791","properties":{"code":"E02000791","geography":"MSOA","name":"Richmond upon Thames 008"},"type":"Feature"},{"geometry":{"coordinates":[[[-0.3154167,51.4468357],[-0.3057447,51.4509926],[-0.3043018,51.4516126],[-0.3055381,51.455101],[-0.3059151,51.4561645],[-0.3138947,51.4597094],[-0.3139533,51.459752],[-0.3187825,51.4562432],[-0.3169677,51.4536957],[-0.3235353,51.4531491],[-0.3267626,51.4514206],[-0.3154167,51.4468357]]],"type":"Polygon"},"id":"E02000792","properties":{"code":"E02000792","geography":"MSOA","name":"Richmond upon Thames 009"},"type":"Feature"},{"geometry":{"coordinates":[[[-0.3426809,51.4581106],[-0.3567339,51.4584114],[-0.3681331,51.4571695],[-0.367694,51.4528679],[-0.3713785,51.4552825],[-0.3772062,51.4520929],[-0.3531143,51.4488366],[-0.3500309,51.4502826],[-0.3558191,51.4529696],[-0.344622,51.453341],[-0.3426809,51.4581106]]],"type":"Polygon"},"id":"E02000793","properties":{"code":"E02000793","geography":"MSOA","name":"Richmond upon Thames 010"},"type":"Feature"},{"geometry":{"coordinates":[[[-0.3269106,51.457042],[-0.3369844,51.4546312],[-0.3400673,51.4592924],[-0.3426809,51.4581106],[-0.344622,51.453341],[-0.3558191,51.4529696],[-0.3500309,51.4502826],[-0.3531143,51.4488366],[-0.3529762,51.4488169],[-0.3461801,51.4479529],[-0.3267626,51.4514206],[-0.3235353,51.4531491],[-0.3269106,51.457042]]],"type":"Polygon"},"id":"E02000794","properties":{"code":"E02000794","geography":"MSOA","name":"Richmond upon Thames 011"},"type":"Feature"},{"geometry":{"coordinates":[[[-0.2584305,51.4569789],[-0.2658253,51.463888],[-0.2780754,51.461201],[-0.277828,51.4522183],[-0.2854867,51.4487937],[-0.2961137,51.45013],[-0.2947004,51.4470522],[-0.3032865,51.4515146],[-0.305876,51.4485114],[-0.3106682,51.4471567],[-0.3104975,51.4438453],[-0.3161651,51.4427941],[-0.3109989,51.4319376],[-0.3016176,51.4314285],[-0.2948869,51.4263928],[-0.2907006,51.4289898],[-0.2866196,51.4201721],[-0.2785952,51.4233434],[-0.2540359,51.4372405],[-0.2416492,51.4430835],[-0.2495547,51.4502502],[-0.2584305,51.4569789]]],"type":"Polygon"},"id":"E02000795","properties":{"code":"E02000795","geography":"MSOA","name":"Richmond upon Thames 012"},"type":"Feature"},{"geometry":{"coordinates":[[[-0.3531143,51.4488366],[-0.3772062,51.4520929],[-0.3713785,51.4552825],[-0.367694,51.4528679],[-0.3681331,51.4571695],[-0.3696195,51.4569418],[-0.3875903,51.4493042],[-0.3841657,51.4457375],[-0.3670996,51.4417118],[-0.3529762,51.4488169],[-0.3531143,51.4488366]]],"type":"Polygon"},"id":"E02000796","properties":{"code":"E02000796","geography":"MSOA","name":"Richmond upon Thames 013"},"type":"Feature"},{"geometry":{"coordinates":[[[-0.3154167,51.4468357],[-0.3267626,51.4514206],[-0.3461801,51.4479529],[-0.3444622,51.444257],[-0.3416266,51.4465767],[-0.3320617,51.4425741],[-0.32988,51.4449296],[-0.3305713,51.4422131],[-0.3250974,51.4465341],[-0.3158208,51.446662],[-0.3154167,51.4468357]]],"type":"Polygon"},"id":"E02000797","properties":{"code":"E02000797","geography":"MSOA","name":"Richmond upon Thames 014"},"type":"Feature"},{"geometry":{"coordinates":[[[-0.3461801,51.4479529],[-0.3529762,51.4488169],[-0.3670996,51.4417118],[-0.3761385,51.4355387],[-0.3679671,51.4334001],[-0.3561881,51.430725],[-0.3520379,51.4331315],[-0.3507531,51.4360862],[-0.3444622,51.444257],[-0.3461801,51.4479529]]],"type":"Polygon"},"id":"E02000798","properties":{"code":"E02000798","geography":"MSOA","name":"Richmond upon Thames 015"},"type":"Feature"},{"geometry":{"coordinates":[[[-0.3305713,51.4422131],[-0.32988,51.4449296],[-0.3320617,51.4425741],[-0.3416266,51.4465767],[-0.3444622,51.444257],[-0.3507531,51.4360862],[-0.3386685,51.4329926],[-0.3284944,51.4339434],[-0.3313858,51.4415701],[-0.3309865,51.4418853],[-0.3305713,51.4422131]]],"type":"Polygon"},"id":"E02000799","properties":{"code":"E02000799","geography":"MSOA","name":"Richmond upon Thames 016"},"type":"Feature"},{"geometry":{"coordinates":[[[-0.3109989,51.4319376],[-0.3161651,51.4427941],[-0.3104975,51.4438453],[-0.3106682,51.4471567],[-0.3299578,51.4417012],[-0.3269484,51.4334436],[-0.3259678,51.4329361],[-0.3184622,51.4295585],[-0.3190342,51.4294985],[-0.314471,51.4282598],[-0.3109989,51.4319376]]],"type":"Polygon"},"id":"E02000800","properties":{"code":"E02000800","geography":"MSOA","name":"Richmond upon Thames 017"},"type":"Feature"},{"geometry":{"coordinates":[[[-0.3284944,51.4339434],[-0.3386685,51.4329926],[-0.3507531,51.4360862],[-0.3520379,51.4331315],[-0.3423373,51.4285555],[-0.3337619,51.4314804],[-0.3270202,51.4272064],[-0.3202017,51.4295274],[-0.3284944,51.4339434]]],"type":"Polygon"},"id":"E02000801","properties":{"code":"E02000801","geography":"MSOA","name":"Richmond upon Thames 018"},"type":"Feature"},{"geometry":{"coordinates":[[[-0.3520379,51.4331315],[-0.3561881,51.430725],[-0.3679671,51.4334001],[-0.3601507,51.4220883],[-0.3525112,51.4205229],[-0.3452802,51.4226808],[-0.3453053,51.4272882],[-0.3399171,51.4262795],[-0.3423373,51.4285555],[-0.3520379,51.4331315]]],"type":"Polygon"},"id":"E02000802","properties":{"code":"E02000802","geography":"MSOA","name":"Richmond upon Thames 019"},"type":"Feature"},{"geometry":{"coordinates":[[[-0.3679671,51.4334001],[-0.3761385,51.4355387],[-0.3794015,51.4340767],[-0.3883829,51.4280523],[-0.3849298,51.4212714],[-0.3601507,51.4220883],[-0.3679671,51.4334001]]],"type":"Polygon"},"id":"E02000803","properties":{"code":"E02000803","geography":"MSOA","name":"Richmond upon Thames 020"},"type":"Feature"},{"geometry":{"coordinates":[[[-0.3270202,51.4272064],[-0.3337619,51.4314804],[-0.3423373,51.4285555],[-0.3399171,51.4262795],[-0.3453053,51.4272882],[-0.3452802,51.4226808],[-0.3525112,51.4205229],[-0.3517242,51.4117149],[-0.3359337,51.4110262],[-0.3354399,51.4084766],[-0.3186698,51.4107555],[-0.3202939,51.4181577],[-0.3294743,51.422329],[-0.3270202,51.4272064]]],"type":"Polygon"},"id":"E02000804","properties":{"code":"E02000804","geography":"MSOA","name":"Richmond upon Thames 021"},"type":"Feature"},{"geometry":{"coordinates":[[[-0.3190342,51.4294985],[-0.3199627,51.4294011],[-0.3202017,51.4295274],[-0.3270202,51.4272064],[-0.3294743,51.422329],[-0.3202939,51.4181577],[-0.3186698,51.4107555],[-0.3121866,51.4103366],[-0.3185262,51.4008887],[-0.3121481,51.398142],[-0.308499,51.4135134],[-0.3062645,51.4221757],[-0.314471,51.4282598],[-0.3190342,51.4294985]]],"type":"Polygon"},"id":"E02000805","properties":{"code":"E02000805","geography":"MSOA","name":"Richmond upon Thames 022"},"type":"Feature"},{"geometry":{"coordinates":[[[-0.3525112,51.4205229],[-0.3601507,51.4220883],[-0.3849298,51.4212714],[-0.3913729,51.4223316],[-0.3866632,51.4200805],[-0.3896726,51.4106925],[-0.3833722,51.4085386],[-0.3607121,51.4120507],[-0.3516394,51.4080406],[-0.338503,51.4010413],[-0.3259899,51.3914457],[-0.3177209,51.3936677],[-0.3129808,51.3971082],[-0.3121481,51.398142],[-0.3185262,51.4008887],[-0.3121866,51.4103366],[-0.3186698,51.4107555],[-0.3354399,51.4084766],[-0.3359337,51.4110262],[-0.3517242,51.4117149],[-0.3525112,51.4205229]]],"type":"Polygon"},"id":"E02000806","properties":{"code":"E02000806","geography":"MSOA","name":"Richmond upon Thames 023"},"type":"Feature"}],"type":"FeatureCollection"}
